name,postcode,lat,lon
Dorcopsis and Hawaiian honeycreeper,DG3 4BH,55.232190008454800,-3.809666000000000
bandy-bandy and Jerboa,DG3 4DA,55.232706365971700,-3.816515000000000
frilled lizard and constrictor,DG3 4DQ,55.226479158943200,-3.785258339593910
Tattler and Darwin's finches,DG3 4LU,55.245449076470600,-3.813449311543220
ringhals and Argus,DG3 4NE,55.269167109221300,-3.870000085314020
frill-necked lizard and turtle,DG3 4NF,55.259816020178300,-3.881379195694820
Kangaroo and sand lizard,DG3 5AH,55.244172015826400,-3.771296156260350
chuckwalla and Elephant,DG3 5AN,55.243403947257300,-3.772819285669530
Chipmunk and Gull,DG3 5BF,55.262694068762900,-3.783687762957500
python and asp,DG3 5DG,55.243252000000000,-3.760417000000000
galliwasp and viper,DG3 5DN,55.239561285063700,-3.743235686173030
Polecat and Stint,DG3 5EL,55.263645828668000,-3.710296296347530
smooth snake and water snake,DG3 5NL,55.239998813850100,-3.767791779689100
Snipe and gavial,DG3 5NY,55.240308411344600,-3.766893240361950
constrictor and caiman,DG3 5PA,55.239441194263800,-3.765958239863280
cobra and Greenbul,DG3 5PL,55.242058348528300,-3.763966508594510
Grouse and saltwater crocodile,DG4 6HA,55.430115630155900,-3.889077327145670
Ground sloth and Gull,DG4 6HT,55.349254593147300,-3.872874699782000
smooth snake and bandy-bandy,ML12 6TQ,55.441036060135000,-3.656467246178860
White ibis and Fulmarine petrel,ML12 6UJ,55.396440160927600,-3.780090668953670
jew lizard and sea snake,ML12 6XY,55.417032629615500,-3.763132315386630
flying dragon and mud turtle,ML12 6YA,55.415571760890600,-3.762229899235190
taipan and amethystine python,ML12 6YG,55.416357135262800,-3.754174000000000
