name,postcode,lat,lon
iguana and turtle,DG4 6LJ,55.356438147541400,-4.080474708094750
Mockingbird and blue racer,KA18 1HL,55.448910767241700,-4.262322643405630
Treepie and Booted eagles,KA18 1LR,55.449855828295100,-4.258360001933480
turtle and Pitohui,KA18 1LS,55.448146000000000,-4.259005000000000
Ibex and Gila monster,KA18 1SJ,55.436523000000000,-4.266340000000000
hognose snake and sidewinder,KA18 2QX,55.440760643789300,-4.294061942763690
diamond snake and constrictor,KA18 3AD,55.443947374365100,-4.255619001053270
Moluccan boobook and glass snake,KA18 3AS,55.442038319697700,-4.249470317526550
massasauga and black snake,KA18 3DG,55.444000000000000,-4.253756000000000
sidewinder and python,KA18 4AP,55.398588765093000,-4.182627269275580
Minke whale and bearded lizard,KA18 4DY,55.402481735292700,-4.177519092278670
B and Ground sloth,KA18 4JR,55.391179569182100,-4.170186744660890
Cloud rat and Chipmunk,KA18 4JT,55.390908542652200,-4.171277198133160
sand viper and bull snake,KA18 4JZ,55.390228968952500,-4.173608412093420
python and Zebra,KA18 4NE,55.391871303499100,-4.185841454345120
puff adder and smooth snake,KA18 4QF,55.387911342306800,-4.203358000000000
jew lizard and Polecat,KA18 4QJ,55.389102601809800,-4.201888616228450
Puffleg and adder,KA6 7DG,55.433885626064000,-4.454652135802540
American sparrow and New World blackbird,KA6 7EW,55.416704084554100,-4.432396131082720
Towhee and Polecat,KA6 7QS,55.324148617304200,-4.392875300698720
Diving bird and Prion,KA6 7TX,55.307596885501000,-4.398575167871020
