name,postcode,lat,lon
Viscacha and Fox,NE61 3BA,55.259215684776600,-1.660529000000000
coral snake and habu,NE61 3EL,55.245584000000000,-1.704355000000000
Dorcopsis and Komodo dragon,NE61 5AN,55.284574303830700,-1.603508721352400
cayman and White ibis,NE61 5BF,55.287211854045700,-1.604962481450790
Gila monster and Grouse,NE61 5DZ,55.257522131289000,-1.599278212100150
Kite and Mouse,NE61 5ED,55.253933000000000,-1.600762000000000
Armadillo and Goose,NE61 5EN,55.256689927456600,-1.600340688563260
Chicken and Shearwater,NE61 5NJ,55.235503470544800,-1.615019646982680
Fox and Goose,NE61 5NP,55.235927923545900,-1.615691713898890
blind snake and harlequin snake,NE61 5PL,55.244887656254100,-1.627558845206400
Jackal and Magpie,NE61 5QA,55.244085000000000,-1.632395000000000
Armadillo and Bronzewing pigeon,NE61 5QP,55.240318084066600,-1.611607698347600
worm lizard and Prion,NE61 5RB,55.237838508995200,-1.611773377555570
Tree warbler and brown snake,NE61 5RF,55.238928939892600,-1.609938553285860
cayman and Stilt,NE65 0DA,55.333984439640600,-1.583784284284290
Guillemot and sand viper,NE65 0EJ,55.331345510574900,-1.584631576481000
Old World warbler and diamond snake,NE65 0ES,55.331989620949700,-1.583789416081030
green turtle and Mamo,NE65 0FB,55.335877000000000,-1.582725771700000
python and king cobra,NE65 0FE,55.338591000000000,-1.612065000000000
Parrotlet and Gull,NE65 0GB,55.326880471609700,-1.598342813273850
Minke whale and giant tortoise,NE65 0HN,55.321948000000000,-1.598267000000000
Condor and water snake,NE65 0HR,55.317170418049600,-1.604948507533950
rock snake and garter snake,NE65 0LA,55.332129543564500,-1.585301183098940
Badger and king snake,NE65 0LE,55.332748920619800,-1.587769523251040
bandy-bandy and Scimitar babbler,NE65 0QJ,55.333029453490700,-1.575219106557500
Petrel and Snipe,NE65 0QL,55.332871052353900,-1.576182351471830
horned viper and Mole,NE65 0RA,55.330919400057900,-1.573097980536320
Myna and Hawk,NE65 0RT,55.330354968580800,-1.573576908396690
perentie and blind snake,NE65 0TE,55.341929051916600,-1.614304247878330
Flameback and Booted eagles,NE65 0TS,55.341339091033000,-1.615287497406260
racer and gavial,NE65 0UR,55.348330040372800,-1.612460160289780
Badger and Thicketbird,NE65 0UY,55.340598111108400,-1.613970313910090
worm lizard and diamond snake,NE65 0WU,55.337504846700000,-1.590258523100000
agama and River dolphin,NE65 0ZB,55.341052000000000,-1.617165000000000
Puffleg and Chickadee,NE65 7XP,55.299946000000000,-1.849571000000000
Argus and Gila monster,NE65 8AB,55.303356359774600,-1.793787017964970
Polecat and snapping turtle,NE65 8LA,55.246709682000800,-1.768489006552380
cycling lizard and Bunting,NE65 8LB,55.247396000000000,-1.767900000000000
Diving bird and Bunting,NE65 8QZ,55.256040287525100,-1.812360252711490
Masked owl and cobra,NE65 8SY,55.246139480431200,-1.766337484452820
Treepie and sand viper,NE65 8UQ,55.243264290123300,-1.766480147617730
tree snake and sand lizard,NE65 9DT,55.303985000000000,-1.711968000000000
Peafowl and cycling lizard,NE65 9FE,55.271663368369000,-1.677373762127840
pit viper and boa constrictor,NE65 9HG,55.324939000000000,-1.736687000000000
Booted eagles and fer-de-lance,NE65 9HP,55.295960622879000,-1.713303726412760
water snake and Booted eagles,NE65 9HR,55.297048000000000,-1.713107000000000
Komodo dragon and flying lizard,NE65 9JH,55.324369981527100,-1.744113954609670
Warbler and anole,NE65 9LZ,55.324998503072500,-1.735441953343770
Argus and Boto,NE65 9PT,55.299723000000000,-1.711860632170710
Eagle and Gila monster,NE65 9QJ,55.274265520673300,-1.719566947249180
rattlesnake and Herring gull,NE65 9RQ,55.293931305895100,-1.596124321060100
amphisbaena and Black cockatoo,NE65 9UB,55.307206594510500,-1.613821861689700
Solitaire and cobra,NE65 9UZ,55.308210807808300,-1.610299118162550
crocodile and Komodo dragon,NE65 9YD,55.295691439357200,-1.606815355260060
Bunting and Grouse,NE66 1AH,55.409883569514200,-1.706794468279860
Nukupu ªu and Siskin,NE66 1AR,55.406858310029500,-1.704258462905490
deaf adder and grass snake,NE66 1BX,55.403337295823300,-1.701110721458360
box turtle and American sparrow,NE66 1FB,55.401359000000000,-1.706777000000000
tokay and iguana,NE66 1FG,55.410042000000000,-1.712004000000000
gaboon viper and Wallaby,NE66 1JT,55.413908217332000,-1.710192271406330
slowworm and Treepie,NE66 1PQ,55.412569909178200,-1.702920666876630
Lemming and Towhee,NE66 1PT,55.408854622594100,-1.701053000000000
Prion and kabaragoya,NE66 1QZ,55.408036585499400,-1.697379728639560
Kangaroo and black snake,NE66 1RU,55.405636616349200,-1.697050627778690
Parrotlet and Goose,NE66 1UB,55.411138117833200,-1.705363708018650
agama and Treepie,NE66 1UW,55.410618822633600,-1.706141474676950
Tree warbler and Boto,NE66 2AU,55.404105331020400,-1.764870555078820
Duck and Marmoset,NE66 2EE,55.417257243332000,-1.834487161875440
Jerboa and leguaan,NE66 2EU,55.398595000000000,-1.687378000000000
boa and king snake,NE66 2EW,55.370390910391600,-1.677865464921270
Argus and blue tongue,NE66 2NR,55.410463587124100,-1.697740250535630
fer-de-lance and gopher snake,NE66 2PU,55.409067546354500,-1.689254056150540
Booted eagles and blindworm,NE66 2QG,55.407776523791300,-1.683373436320200
pit viper and Tit-tyrant,NE66 2QH,55.407747195200300,-1.682299000000000
death adder and thorny devil,NE66 2RZ,55.386784682328500,-1.611168957948670
taipan and Shearwater,NE66 2TB,55.383708678068200,-1.648842323569940
Capuchin and diamond python,NE66 2UR,55.369836498788500,-1.682335072377410
tuatara and Dolphin,NE66 2XY,55.369689843363700,-1.698965943034920
Gull and Mink,NE66 3AE,55.426514684558700,-1.636186000000000
Komodo dragon and Pheasant,NE66 3BL,55.418276890063100,-1.583120138489590
flying lizard and brown snake,NE66 3JS,55.433983387396500,-1.615983827851020
Meadowlark and B,NE66 3JX,55.445707000000000,-1.632642000000000
hoop snake and Crow,NE66 3QH,55.372278379944400,-1.636352032247340
Stint and puff adder,NE66 3SG,55.397754377648200,-1.627939719338030
sea snake and Dorcopsis,NE66 9DE,55.401100493640400,-1.697701110874180
