name,id,postcode,lat,lon
Triller and horned viper,727232,NE66 4AU,55.424731983735500,-1.889201471593760
flying dragon and Cloud rat,731492,NE61 3EP,55.248789000000000,-1.722247000000000
horned toad and thorny devil,727438,NE66 3HZ,55.424838000000000,-1.735123000000000
Night heron and bandy-bandy,728443,NE65 8JA,55.290202420570600,-1.841802000000000
Dolphin and Herring gull,752598,NE19 1AQ,55.242267000000000,-2.112908000000000
Parakeet and Chipmunk,728309,NE65 9QJ,55.274265520673300,-1.719566947249180
tiger snake and Nukupu ªu,728232,NE65 9JG,55.323851579547600,-1.745441085478050
Recurvebill and carpet snake,728306,NE65 9QF,55.293876000000000,-1.741113000000000
Kangaroo and Black cockatoo,727294,NE66 4NZ,55.435561937994000,-2.117347709089540
Fox and American sparrow,728341,NE65 8DT,55.306327000000000,-1.796623000000000
bandy-bandy and Argus,727257,NE66 4HH,55.440314413906400,-1.901533860195570
agamid and Partridge,728989,NE65 7HU,55.313277974662200,-1.949160959225560
copperhead and hognose snake,728767,NE65 7XG,55.310220328685800,-1.900957584467760
cobra de capello and worm lizard,728550,NE65 7PB,55.310631360058200,-1.909589850260830
Argus and Meadowlark,728555,NE65 7PH,55.306759269836600,-1.899044363473500
saltwater crocodile and blind snake,728543,NE65 7NT,55.310010000000000,-1.907275000000000
tiger snake and boomslang,727357,NE66 4SY,55.414077315593700,-1.891647904531480
bull snake and Fox,728430,NE65 8EN,55.313684963109900,-1.807267390731560
Badger and thorny devil,728060,NE66 1DQ,55.414983846515900,-1.712885475520130
caiman and Darwin's finches,728140,NE65 9HS,55.297935304991500,-1.716218853819900
Rabbit and Stint,727900,NE66 2BQ,55.388566089253600,-1.809603130236740
tuatara and snake,728704,NE65 7TU,55.308794894523800,-1.917533751748270
Diving bird and Quetzal,728476,NE65 8RB,55.263528587136400,-1.776794121130270
Elephant and sand lizard,728904,NE65 7DQ,55.336039210215500,-2.105655191202090
Badger and Myna,728639,NE65 7QE,55.311724205807100,-1.905081553779300
viper and Argus,728711,NE65 7UD,55.308935951998300,-1.913595084889750
Marmoset and boomslang,728499,NE65 8TF,55.229649877074000,-1.752346950745610
Hawaiian honeycreeper and Grosbeak,728467,NE65 8QR,55.225325856950800,-1.800447022074640
Peafowl and Ground sloth,728279,NE65 9NT,55.314430204889100,-1.718842678902370
chameleon and grass snake,728429,NE65 8EL,55.326474338542400,-1.814849255703130
Minke whale and Tahr,728715,NE65 7UL,55.309123767597000,-1.912350145384140
giant tortoise and smooth snake,1795769,NE65 7XF,55.312098000000000,-1.941726000000000
leathery turtle and blind snake,727382,NE66 4UY,55.407920835984600,-1.967675711894200
gopher snake and copperhead,728067,NE66 1DY,55.411633802096400,-1.717426944609400
