name,id,postcode,lat,lon
Lemming and rock python,1191102,EX22 7RY,50.902633344250300,-4.401084682438580
Viscacha and Cuscus,1190720,EX23 9RD,50.880717483970400,-4.479217037411140
galliwasp and Mouse,1184836,EX39 6EL,50.963283803416500,-4.501528833463000
Crow and Thicketbird,1191061,EX22 7PT,50.881072932814500,-4.353059748570290
Bunting and flying dragon,1190559,EX23 9LF,50.846095449416200,-4.499187330540180
Parakeet and Siskin,1190807,EX23 8SU,50.836282265503100,-4.542480992838300
diamond python and Mouse,1191440,EX22 6ED,50.810067857038800,-4.352483599286360
Hawk and asp,1184850,EX39 6HF,50.937249382194100,-4.519347182994130
Marmoset and iguana,1185195,EX39 6BA,50.994282787678800,-4.481462213194740
Prion and crocodile,1184834,EX39 6EH,50.967096309517200,-4.477961386243080
Tattler and Argus,1190569,EX23 9LT,50.836397555667100,-4.469736273363350
Rat and constrictor,1190496,EX23 9ES,50.842183649027100,-4.522133004822490
adder and Darwin's finches,1185127,EX39 5SN,50.974391902535500,-4.411324305382100
cerastes and flying lizard,1191425,EX22 6DG,50.811388517332400,-4.354338636507740
Kākāriki and Dolphin,1190688,EX23 8JN,50.829837356244200,-4.545183990731650
Masked owl and horned viper,1190495,EX23 9ER,50.841908240310800,-4.525411000000000
rat snake and brown snake,1185108,EX39 5SD,50.987925000000000,-4.438345000000000
tortoise and glass snake,1191493,EX22 6JR,50.818581137426100,-4.360251888193020
Chipmunk and Scimitar babbler,1190777,EX23 8RE,50.834978426141700,-4.543290703694710
Marmoset and Dorcopsis,1190679,EX23 8HY,50.835925023601500,-4.536169391888530
Kestrel and Thrasher,1190685,EX23 8JG,50.836250836370600,-4.539382885764740
diamond python and Komodo dragon,1190429,EX23 9AD,50.827839000000000,-4.520479000000000
ringhals and jew lizard,1190757,EX23 8PY,50.824383108301000,-4.535032383675780
Diving bird and Ibex,1185154,EX39 5TY,50.965454583301300,-4.377433519130330
harlequin snake and pit viper,2641347,EX23 8GX,50.819644000000000,-4.532352000000000
viper and hawksbill,1190564,EX23 9LN,50.840089429767800,-4.469959696116320
Recurvebill and Polecat,1190232,EX23 9RX,50.871989752258700,-4.477261165117390
Argus and Linsang,1190599,EX23 9PN,50.916224977798800,-4.480122814451500
Skunk and Myna,1191207,EX22 9AB,50.810237331816600,-4.355671877778670
American sparrow and lizard,1190248,EX23 9SU,50.911596812142000,-4.536427180116580
Komodo dragon and tokay,1190765,EX23 8QH,50.821823000000000,-4.539480000000000
asp and diamondback turtle,1191442,EX22 6EF,50.809976343470600,-4.351669869088420
harlequin snake and rock python,2593612,EX23 8FS,50.825434000000000,-4.527071000000000
loggerhead and python,1190737,EX23 8NU,50.836323426998300,-4.541417954542940
bandy-bandy and Wallaby,1185192,EX39 6AW,51.006154000000000,-4.464590000000000
Shearwater and rock python,1185061,EX39 5PT,50.967500950400000,-4.339023000000000
Logrunners and American sparrow,1185153,EX39 5TX,50.963231325548400,-4.375753346585680
Warbler and king cobra,2625819,EX22 9AS,50.810233000000000,-4.355687000000000
Jerboa and cobra,1191340,EX22 6DA,50.809010140468700,-4.356759912540140
sea snake and puff adder,1185191,EX39 6AU,51.016365671020100,-4.508278446389780
Darwin's finches and Badger,2652396,EX23 9FJ,50.880585000000000,-4.476867000000000
brown snake and constrictor,1190719,EX23 9RB,50.881156763500900,-4.477591170859050
Marsh harrier and Duck,1191065,EX22 7PY,50.892515870886200,-4.363164321677250
loggerhead and Mockingbird,1191078,EX22 7QT,50.908627537004500,-4.397381686570740
Tit-tyrant and Solitaire,1190479,EX23 9DU,50.829483999188700,-4.515043209274550
Perching duck and Eagle,1191405,EX22 7JH,50.847159892354000,-4.384454000000000
Kestrel and Myna,1190475,EX23 9DQ,50.831108204516000,-4.513965985299890
Grackle and pit viper,1185081,EX39 5QT,50.964836077958900,-4.375564642054880
Armadillo and massasauga,1190245,EX23 9SR,50.907181660910900,-4.549174740770300
green turtle and Snipe,1190631,EX23 8DT,50.829351684777200,-4.529890887725500
Petrel and bearded lizard,1191003,EX23 8BB,50.830784330416500,-4.543829527151020
flying dragon and Petrel,1190464,EX23 9DA,50.830237690000700,-4.514104000000000
Stilt and Flameback,1774233,EX23 3AY,50.831185342091100,-4.545641538933920
lizard and rock snake,1190618,EX23 9QP,50.876398815333300,-4.492791229385460
