name,postcode,lat,lon
Trading Post Coffee Roasters,BN1 1AB,50.822957220000000,-0.141790162000000
Hotel du Vin & Bistro Brighton,BN1 1AD,50.821695590000000,-0.142195194000000
Jia Mo,BN1 1AD,50.821695590000000,-0.142195194000000
SevenStars,BN1 1AD,50.821695590000000,-0.142195194000000
The Golden Pineapple of Ship Street,BN1 1AD,50.821695590000000,-0.142195194000000
CURRY LEAF CAFE,BN1 1AE,50.821293570000000,-0.141799413000000
Cafe Coho Ship Street ,BN1 1AF,50.822484200000000,-0.141453986000000
Marwood,BN1 1AF,50.822484200000000,-0.141453986000000
Patty and Bun,BN1 1AF,50.822484200000000,-0.141453986000000
Monjibello Ltd,BN1 1AG,50.822920460000000,-0.142870692000000
Thirty Two Ltd,BN1 1AG,50.822920460000000,-0.142870692000000
Erpingham House,BN1 1AH,50.822713290000000,-0.142850515000000
The croque shop,BN1 1AH,50.822713290000000,-0.142850515000000
Zaitoon ,BN1 1AH,50.822713290000000,-0.142850515000000
artisan DELI market,BN1 1AH,50.822713290000000,-0.142850515000000
Chamuyo Steakhouse,BN1 1AL,50.821368000000000,-0.142909708000000
YELLOWBASE LIMITED TRADING AS SUSHIMANIA,BN1 1AL,50.821368000000000,-0.142909708000000
hop poles ,BN1 1AL,50.821368000000000,-0.142909708000000
Coal Shed Brighton,BN1 1AN,50.822085090000000,-0.143500153000000
Brand Sixteen Eateries ,BN1 1BG,50.822203000000000,-0.142317000000000
Sabai Ltd,BN1 1EA,50.822659260000000,-0.139459284000000
La Casa North Street Pizzeria,BN1 1EB,50.822397090000000,-0.139938244000000
Royal Pavilion Tea Rooms,BN1 1EE,50.821982780000000,-0.138208351000000
SOCIAL BOARD TO GO ,BN1 1EG,50.821361490000000,-0.138162073000000
SUSHI FUSION,BN1 1EL,50.820570000000000,-0.136395518000000
Subway,BN1 1EL,50.820570000000000,-0.136395518000000
very italian pizza,BN1 1EL,50.820570000000000,-0.136395518000000
Ahamraj Ltd T/A The Chilli Pickle,BN1 1GE,50.824854240000000,-0.138931866000000
Small Batch Coffee Company Limited,BN1 1GE,50.824854240000000,-0.138931866000000
The Flint House,BN1 1GS,50.822194000000000,-0.139904000000000
Casa Don Carlos,BN1 1HA,50.822184670000000,-0.141281304000000
17 Grams,BN1 1HB,50.822086650000000,-0.140774067000000
Bohemia Grand Cafe & Late Lounge,BN1 1HB,50.822086650000000,-0.140774067000000
Ole Ole Restaurant,BN1 1HB,50.822086650000000,-0.140774067000000
Olive Grove (Brighton),BN1 1HB,50.822086650000000,-0.140774067000000
Piecaramba Brighton Ltd,BN1 1HB,50.822086650000000,-0.140774067000000
Riddle and Finns,BN1 1HB,50.822086650000000,-0.140774067000000
Coppa Club,BN1 1HD,50.822125030000000,-0.140591000000000
Street Thai,BN1 1HD,50.822125030000000,-0.140591000000000
SCGOLDHARBOUR LTD TRADING AS SHOGUN RAMEN,BN1 1HE,50.821365650000000,-0.141242837000000
The Mesmerist,BN1 1HE,50.821365650000000,-0.141242837000000
Food for Friends,BN1 1HF,50.821250110000000,-0.140877000000000
Darcys Seafood Restaurant Limited,BN1 1HH,50.821458970000000,-0.139762554000000
Il Bistro,BN1 1HH,50.821458970000000,-0.139762554000000
Munchies' Craft,BN1 1HH,50.821458970000000,-0.139762554000000
Sugardough Brighton,BN1 1HH,50.821458970000000,-0.139762554000000
THE MARKET INN,BN1 1HH,50.821458970000000,-0.139762554000000
The Breakfast Club Brighton,BN1 1HH,50.821458970000000,-0.139762554000000
Donatello,BN1 1HJ,50.821685020000000,-0.139838758000000
The Vurger Co - Brighton,BN1 1HJ,50.821685020000000,-0.139838758000000
CrepeAffaire Brighton,BN1 1HL,50.821390850000000,-0.139438711000000
English's of Brighton,BN1 1HL,50.821390850000000,-0.139438711000000
The House Restaurant,BN1 1HL,50.821390850000000,-0.139438711000000
ARTBOX Cafe,BN1 1HP,50.820283770000000,-0.139383330000000
The Bok Shop,BN1 1HP,50.820283770000000,-0.139383330000000
What The Pitta Brighton,BN1 1HP,50.820283770000000,-0.139383330000000
Freeloada ,BN1 1HQ,50.820396080000000,-0.139094915000000
Indian summer,BN1 1HQ,50.820396080000000,-0.139094915000000
Kindling,BN1 1HQ,50.820396080000000,-0.139094915000000
Terre a Terre ltd,BN1 1HQ,50.820396080000000,-0.139094915000000
The Pipeline,BN1 1HT,50.820207180000000,-0.139656126000000
med.,BN1 1HT,50.820207180000000,-0.139656126000000
MOSHIMO,BN1 1JS,50.820268000000000,-0.139994000000000
Beach House Cafe/Bar,BN1 1NA,50.820542760000000,-0.143220580000000
Brighton Harbour Hotel,BN1 1NA,50.820542760000000,-0.143220580000000
Burger King ,BN1 1NA,50.820542760000000,-0.143220580000000
Fish and Chips,BN1 1NA,50.820542760000000,-0.143220580000000
JB's American Diner,BN1 1NA,50.820542760000000,-0.143220580000000
Brighton Coffee,BN1 1NB,50.819980450000000,-0.141671000000000
Carlito burrito at Shelter hall Raw,BN1 1NB,50.819980450000000,-0.141671000000000
Coalition Brighton,BN1 1NB,50.819980450000000,-0.141671000000000
High Tide,BN1 1NB,50.819980450000000,-0.141671000000000
Lucky Beach Cafe,BN1 1NB,50.819980450000000,-0.141671000000000
Ohso Social,BN1 1NB,50.819980450000000,-0.141671000000000
Shelter Hall,BN1 1NB,50.819980450000000,-0.141671000000000
Shooshh,BN1 1NB,50.819980450000000,-0.141671000000000
The Buccaneer,BN1 1NB,50.819980450000000,-0.141671000000000
The Tempest Inn,BN1 1NB,50.819980450000000,-0.141671000000000
The Black Lion,BN1 1ND,50.821100000000000,-0.141475568000000
The Cricketers,BN1 1ND,50.821100000000000,-0.141475568000000
Seasons Restaurant & Bar,BN1 1NF,50.819666000000000,-0.138961709000000
The Old Ship Hotel,BN1 1NR,50.820676980000000,-0.141483146000000
Royal Albion Hotel Brighton,BN1 1NT,50.819792560000000,-0.137344237000000
Subway,BN1 1RE,50.823315540000000,-0.141137008000000
Burger King,BN1 1RH,50.823165570000000,-0.142562000000000
KOKORO,BN1 1RH,50.823165570000000,-0.142562000000000
Medaluk Ltd t/a foodilic,BN1 1RH,50.823165570000000,-0.142562000000000
Smashburger,BN1 1RH,50.823165570000000,-0.142562000000000
itsu Brighton North Street,BN1 1RH,50.823165570000000,-0.142562000000000
Pinocchio,BN1 1UF,50.823508000000000,-0.139596000000000
Tinto Taperia,BN1 1UF,50.823508000000000,-0.139596000000000
Mrs fitzherberts,BN1 1UG,50.823705390000000,-0.139076936000000
Pavilion Gardens Cafe,BN1 1UG,50.823705390000000,-0.139076936000000
SIX Theatres,BN1 1UG,50.823705390000000,-0.139076936000000
William The Fourth,BN1 1UJ,50.824496000000000,-0.140054000000000
Kooks Restaurant,BN1 1UN,50.824925000000000,-0.139379154000000
LAVASH 52,BN1 1UN,50.824925000000000,-0.139379154000000
Namul,BN1 1UN,50.824925000000000,-0.139379154000000
Cornish pasty Shop,BN1 1UP,50.825001050000000,-0.139678572000000
filfil Cafe ,BN1 1UP,50.825001050000000,-0.139678572000000
TEE TEA,BN1 1US,50.824374230000000,-0.140259000000000
crunch&co Ltd,BN1 1US,50.824374230000000,-0.140259000000000
The Dorset Bar & Kitchen,BN1 1YB,50.825671350000000,-0.139978509000000
Three Jolly Butchers,BN1 1YD,50.825950260000000,-0.140549592000000
A Taste of Sahara,BN1 2AA,50.824893240000000,-0.153839150000000
KAMBIS,BN1 2AA,50.824893240000000,-0.153839150000000
Mascara Restaurant ,BN1 2AA,50.824893240000000,-0.153839150000000
Small Batch Coffee Company Limited,BN1 2AA,50.824893240000000,-0.153839150000000
Bankers Restaurant Brighton,BN1 2AB,50.825337220000000,-0.155184743000000
Baqueano,BN1 2AD,50.825146700000000,-0.153374786000000
Haberdashers Kitchen,BN1 2BA,50.824087980000000,-0.146161051000000
Eateries Ltd t/a Foodilic ,BN1 2BB,50.824435930000000,-0.148816634000000
Ismet Turen Ltd TA McDonalds Brighton,BN1 2BB,50.824435930000000,-0.148816634000000
britannia study hotel,BN1 2DA,50.824711220000000,-0.150296623000000
KOKORO,BN1 2EB,50.823922900000000,-0.147406000000000
roosters piri piri,BN1 2EB,50.823922900000000,-0.147406000000000
regency tavern ,BN1 2EF,50.822826640000000,-0.148283953000000
Pull & Pump,BN1 2EG,50.823775310000000,-0.148558791000000
Brighton Music Hall,BN1 2FN,50.820880970000000,-0.146931000000000
Ice cafe ,BN1 2FN,50.820880970000000,-0.146931000000000
Murmur Restaurant,BN1 2FN,50.820880970000000,-0.146931000000000
Riddle and Finns,BN1 2FN,50.820880970000000,-0.146931000000000
V360 ,BN1 2FN,50.820880970000000,-0.146931000000000
Hilton Brighton Metropole,BN1 2FU,50.821685000000000,-0.148849097000000
The Salt Room,BN1 2FU,50.821685000000000,-0.148849097000000
Brighton Grand Hotel (Operations ) Ltd,BN1 2FW,50.821552350000000,-0.147326313000000
Artist Residence Brighton,BN1 2GG,50.823258330000000,-0.149984881000000
KFC,BN1 2HA,50.824122720000000,-0.149608000000000
LIBRA GRILL,BN1 2HA,50.824122720000000,-0.149608000000000
Subway,BN1 2HA,50.824122720000000,-0.149608000000000
Bincho Yakitori,BN1 2HE,50.824049940000000,-0.150564133000000
NAIJA CORNER RESTAURANT,BN1 2HE,50.824049940000000,-0.150564133000000
THE BIG BOWL,BN1 2HE,50.824049940000000,-0.150564133000000
EPHESUS RESTAURANT,BN1 2HG,50.822729870000000,-0.151255212000000
Melrose Restaurant,BN1 2HH,50.822102970000000,-0.151421952000000
The New Club,BN1 2HH,50.822102970000000,-0.151421952000000
The Regency Restaurant,BN1 2HH,50.822102970000000,-0.151421952000000
Adelfia Greek Mediterranean Restaurant,BN1 2HN,50.822985120000000,-0.151472303000000
Goemon Ramen Bar,BN1 2HN,50.822985120000000,-0.151472303000000
Nanninella Pizzeria ,BN1 2HN,50.822985120000000,-0.151472303000000
Sea Spice,BN1 2HN,50.822985120000000,-0.151472303000000
KUJIRA,BN1 2HP,50.823931310000000,-0.151023175000000
Really Happy Chicken,BN1 2HP,50.823931310000000,-0.151023175000000
Sushi Garden,BN1 2HP,50.823931310000000,-0.151023175000000
Wolfox Chapters,BN1 2HP,50.823931310000000,-0.151023175000000
casalingo restaurant,BN1 2HP,50.823931310000000,-0.151023175000000
SIMIT PALACE,BN1 2LB,50.824593270000000,-0.151794000000000
Taco Bell,BN1 2LB,50.824593270000000,-0.151794000000000
Gelato Gusto,BN1 2LN,50.821637000000000,-0.152590000000000
Uncle Sams Hamburger Express Montpelier Road,BN1 2LQ,50.824016480000000,-0.153561363000000
CONSTANTINOPLE CAFE & BISTRO ,BN1 2PA,50.825225560000000,-0.154379802000000
CONSTANTINOPLE CAFE & BISTRO,BN1 2PA,50.825225560000000,-0.154379802000000
The Gingerman,BN1 2PD,50.824112850000000,-0.155105213000000
The Robin Hood,BN1 2PF,50.824749400000000,-0.155548684000000
Fogo de Chao - Brighton,BN1 2RA,50.822476310000000,-0.143782798000000
LUCIA'S KINGDOM LIMITED T/A WAFFLEMEISTER,BN1 2RA,50.822476310000000,-0.143782798000000
Nuposto,BN1 2RE,50.822379000000000,-0.144365562000000
Subway,BN1 2RS,50.822164490000000,-0.144533463000000
Ismet Turen TA McDonalds Brighton,BN1 2TE,50.822418470000000,-0.146124000000000
Italian Kitchen - Brighton,BN1 2TE,50.822418470000000,-0.146124000000000
halloumilicious,BN1 2TE,50.822418470000000,-0.146124000000000
Sangsa,BN1 3BF,50.826579590000000,-0.152991664000000
Estia ,BN1 3DA,50.825354980000000,-0.150626157000000
CAFE ARCADIA,BN1 3EA,50.824043200000000,-0.145041132000000
The Craft Beer Co Brighton,BN1 3FG,50.825053990000000,-0.146960526000000
The Spice Circuit Ltd,BN1 3FH,50.825357170000000,-0.148496217000000
The Windmill,BN1 3FL,50.825562090000000,-0.148374518000000
The Crescent Pub,BN1 3HL,50.828640210000000,-0.149090531000000
Easy Tiger at The Hampton,BN1 3HR,50.828273000000000,-0.147486265000000
Akkapak Thai Kitchen,BN1 3JE,50.829888780000000,-0.147294498000000
L atelier du vin,BN1 3JE,50.829888780000000,-0.147294498000000
Murasaki,BN1 3JE,50.829888780000000,-0.147294498000000
T at the Dials,BN1 3JE,50.829888780000000,-0.147294498000000
The Edinburgh,BN1 3LQ,50.827457980000000,-0.143173427000000
Baby bao,BN1 3PD,50.829568200000000,-0.141840069000000
The West Hill Tavern,BN1 3PQ,50.831009600000000,-0.144253764000000
Small Batch Coffee Company Limited,BN1 3TE,50.831950160000000,-0.147979736000000
Puck,BN1 3TN,50.831515990000000,-0.146690437000000
Beelzebab,BN1 3WA,50.824914000000000,-0.143274053000000
MyWok,BN1 3WA,50.824914000000000,-0.143274053000000
EataliO,BN1 3WB,50.824432440000000,-0.142938489000000
MOJO COFFEE HOUSE LIMITED,BN1 3XA,50.825769140000000,-0.142729261000000
Jpatisserie ltd ,BN1 3XB,50.826877070000000,-0.142273508000000
Sunoso,BN1 3XD,50.827867710000000,-0.141793990000000
Cafe Coho Queens Rd ,BN1 3XE,50.827710000000000,-0.141403000000000
LoveFit Cafe,BN1 3XF,50.826611000000000,-0.141905350000000
Subway,BN1 3XF,50.826611000000000,-0.141905350000000
Cin Cin Brighton,BN1 4AG,50.826124020000000,-0.137347852000000
Down to Earth Coffee,BN1 4AL,50.826267000000000,-0.138904000000000
Jolliffes Coffee Shop,BN1 4AL,50.826267000000000,-0.138904000000000
Kennys Rock & Soul Cafe,BN1 4AL,50.826267000000000,-0.138904000000000
Trading Post Coffee Roasters,BN1 4AL,50.826267000000000,-0.138904000000000
wai kika moo kau,BN1 4AL,50.826267000000000,-0.138904000000000
BLACK MOCHA ,BN1 4AP,50.827121030000000,-0.139523305000000
Starsky Ltd,BN1 4AP,50.827121030000000,-0.139523305000000
Fatto a Mano Central Limited,BN1 4AQ,50.826908880000000,-0.139190951000000
La Choza Street Food Ltd,BN1 4AQ,50.826908880000000,-0.139190951000000
The Pond,BN1 4AQ,50.826908880000000,-0.139190951000000
The Foundry,BN1 4AT,50.826392860000000,-0.140106027000000
Soul Deli,BN1 4DU,50.829394100000000,-0.139944147000000
Bread & Milk,BN1 4EB,50.828453650000000,-0.139058528000000
Caffe Aldo,BN1 4EB,50.828453650000000,-0.139058528000000
Mange tout,BN1 4EB,50.828453650000000,-0.139058528000000
COFFEEat33,BN1 4ED,50.828278420000000,-0.139349494000000
The Laine Deli,BN1 4ED,50.828278420000000,-0.139349494000000
The Roastery ,BN1 4EN,50.827465760000000,-0.138018634000000
kitokito,BN1 4EQ,50.827946500000000,-0.137018000000000
O'Shio Japanese & Korean Restaurant,BN1 4ER,50.828101250000000,-0.136912000000000
L atelier du vin,BN1 4GB,50.827617790000000,-0.135712229000000
MEATLiquor,BN1 4GE,50.831519000000000,-0.137176000000000
C9 London Road Ltd,BN1 4GU,50.828646000000000,-0.135876401000000
Carlito Burrito,BN1 4GU,50.828646000000000,-0.135876401000000
Dodo Pizza,BN1 4GU,50.828646000000000,-0.135876401000000
GONGGAM BN LIMITED,BN1 4GU,50.828646000000000,-0.135876401000000
Moksha Caffe,BN1 4GU,50.828646000000000,-0.135876401000000
Subway,BN1 4GX,50.830265480000000,-0.138191246000000
Cosy cottage cafe bar,BN1 4JB,50.831295000000000,-0.136721757000000
Eastern Eye,BN1 4JE,50.832941180000000,-0.138482419000000
poppys sandwich bar,BN1 4JE,50.832941180000000,-0.138482419000000
Fatto a Mano Brighton Limited,BN1 4JF,50.832592000000000,-0.137380426000000
Nova cafe,BN1 4JG,50.831257910000000,-0.136135241000000
Presuming Ed,BN1 4JG,50.831257910000000,-0.136135241000000
Ismet Turen Ltd TA McDonalds Brighton,BN1 4JH,50.829954150000000,-0.135590751000000
Korpan,BN1 4JU,50.831489780000000,-0.135412000000000
New Unity,BN1 4JX,50.832156000000000,-0.137671542000000
Moes at the Circus,BN1 4NN,50.834803990000000,-0.137428372000000
Lost Boys Chicken,BN1 4QF,50.834530630000000,-0.140023988000000
Pizza 500,BN1 4QG,50.835327000000000,-0.141384000000000
Caroline of Brunswick,BN1 4SB,50.830211080000000,-0.134785285000000
Good burger kitchen ,BN1 4SB,50.830211080000000,-0.134785285000000
The Roundhill,BN1 4SG,50.836078970000000,-0.133358362000000
Mylk and Kone,BN1 5AA,50.837266780000000,-0.153180481000000
Okka Coffee,BN1 5AA,50.837266780000000,-0.153180481000000
The Dyke Alehouse & Kitchen,BN1 5AA,50.837266780000000,-0.153180481000000
The Chimney House,BN1 5DF,50.835039000000000,-0.148127000000000
The Prestonville Arms,BN1 5DN,50.834067360000000,-0.145950304000000
Errol Barrett,BN1 6EA,50.839079040000000,-0.139317631000000
Rough Arts Cafe Ltd t/a EARTH Arts & Culture Cafe,BN1 6EA,50.839079040000000,-0.139317631000000
The Cleveland Arms,BN1 6FF,50.841597280000000,-0.138194775000000
Tilt Coffee Shop ,BN1 6FJ,50.843403280000000,-0.135835959000000
The preston park tavern ,BN1 6GF,50.840565090000000,-0.140579461000000
RUSTICO ITALIANO LIMITED,BN1 6JG,50.844508360000000,-0.134641319000000
Found Cafe,BN1 6LD,50.844284580000000,-0.144295298000000
COSTA COFFEE - PRESTON ROAD ,BN1 6SA,50.843005710000000,-0.151547662000000
Preston brewery tap,BN1 6SA,50.843005710000000,-0.151547662000000
Hollingbury Golf Club,BN1 7HS,50.853959500000000,-0.127842379000000
cafe rust,BN1 7JP,50.846461330000000,-0.134165672000000
Taquitos Casazul,BN1 8DA,50.860539400000000,-0.129880838000000
The New Oak,BN1 8DJ,50.861758190000000,-0.128912000000000
The Longman of Wilmington,BN1 8JH,50.859786290000000,-0.140156026000000
Ladies Mile,BN1 8RA,50.864985600000000,-0.143615592000000
GoodFoods Brighton Limited,BN1 8YA,50.863962980000000,-0.151145282000000
The Pizza Station,BN1 9SD,50.862456890000000,-0.087487000000000
Virgin Active Brighton,BN1 9SG,50.859141320000000,-0.089653242000000
Cafe Rust at William Morris Antiques,BN2 1EA,50.819149590000000,-0.123598562000000
The Old Bank Steak & Ribs,BN2 1EA,50.819149590000000,-0.123598562000000
Cup Of Joe,BN2 1ED,50.818721480000000,-0.121585543000000
Ground Coffee Bar,BN2 1ED,50.818721480000000,-0.121585543000000
Portland,BN2 1EE,50.818574860000000,-0.121974745000000
Wood & Coal ,BN2 1EN,50.817243450000000,-0.122510839000000
Yellowave Beach Sports Venue,BN2 1EN,50.817243450000000,-0.122510839000000
Loading Brighton,BN2 1ET,50.819267706389700,-0.135917073924529
The Bristol Bar,BN2 1HA,50.818499200000000,-0.118953821000000
Saint Georges Inn,BN2 1HE,50.818096720000000,-0.117976212000000
St Georges,BN2 1HE,50.818096720000000,-0.117976212000000
The Ginger Dog,BN2 1HN,50.819478420000000,-0.122236640000000
Metrodeco,BN2 1JN,50.819458360000000,-0.127703395000000
New Steine Bistro,BN2 1PB,50.820058920000000,-0.132066388000000
Volks Bar & Club,BN2 1PS,50.819267190000000,-0.132466000000000
No.27 Brighton,BN2 1QE,50.820980930000000,-0.130112902000000
Wolfox Avenue,BN2 1QG,50.820471240000000,-0.130857338000000
Purezza Brighton,BN2 1RE,50.821158690000000,-0.135178000000000
Redroaster,BN2 1RE,50.821158690000000,-0.135178000000000
Vero Gusto Bakery,BN2 1RE,50.821158690000000,-0.135178000000000
Buon Appetito Sister LTD,BN2 1RF,50.821001870000000,-0.134229408000000
SOCIAL BOARD,BN2 1RF,50.821001870000000,-0.134229408000000
Chikini,BN2 1RH,50.821754890000000,-0.134639531000000
Harry Ramsdens,BN2 1TA,50.820016000000000,-0.135980598000000
seasiders,BN2 1TD,50.819319160000000,-0.137162000000000
BOOM BIRD,BN2 1TH,50.820846310000000,-0.135186853000000
Bella Bar,BN2 1TH,50.820846310000000,-0.135186853000000
La Capannina (Brighton) Ltd,BN2 1TN,50.820392070000000,-0.134338899000000
Little Miss Piggies,BN2 1TP,50.820607590000000,-0.133194500000000
The Camelford Arms,BN2 1TQ,50.820263330000000,-0.133037859000000
Legends ,BN2 1TR,50.819660830000000,-0.132479797000000
Horatios Bar,BN2 1TW,50.819104210000000,-0.136477206000000
Palm Court Restaurant,BN2 1TW,50.819104210000000,-0.136477206000000
fox on the downs,BN2 3EA,50.831913780000000,-0.114267890000000
The Park Crescent,BN2 3HE,50.833116050000000,-0.130295451000000
WRAPITO,BN2 3HQ,50.833736000000000,-0.127956000000000
The Lewes Road Inn,BN2 3LF,50.834484760000000,-0.126477271000000
MOJO COFFEE LEWES ROAD LIMITED,BN2 3LG,50.835682140000000,-0.125435168000000
The Gladstone,BN2 3QB,50.837356630000000,-0.123862586000000
KEBAB KNIGHT,BN2 4AD,50.839707900000000,-0.122433164000000
Bevendean Community Pub - The Bevy,BN2 4TF,50.845694930000000,-0.111126925000000
Royal Voluntary Service,BN2 5BF,50.818801700000000,-0.117635534000000
East Brighton Cafe,BN2 5PB,50.824133110000000,-0.101433368000000
circa events ,BN2 5RA,50.815978000000000,-0.100387000000000
Daddy Longlegs,BN2 5TE,50.815737800000000,-0.107807209000000
The Watershed at Brighton Marina Yacht Club,BN2 5UP,50.810774100000000,-0.101762133000000
Ismet Turen Ltd TA McDonalds Brighton,BN2 5UT,50.811965110000000,-0.105319391000000
BELLA NAPOLI,BN2 5WA,50.812840560000000,-0.102189390000000
Cherry Tree,BN2 5WA,50.812840560000000,-0.102189390000000
LAUGHING DOG BRIGHTON LIMITED,BN2 5WA,50.812840560000000,-0.102189390000000
Malmaison Brighton,BN2 5WA,50.812840560000000,-0.102189390000000
SKARA GREEK GRILL KITCHEN,BN2 5WA,50.812840560000000,-0.102189390000000
SUSSEX GOURMET LTD T/A MALIKA INDIAN RESTAURANT,BN2 5WA,50.812840560000000,-0.102189390000000
The Downs Hotel,BN2 6BB,50.836179970000000,-0.078092854000000
circa deli ,BN2 6BB,50.836179970000000,-0.078092854000000
Java Cafe,BN2 6PH,50.837506550000000,-0.074004749000000
The Plough Inn,BN2 7HD,50.805596990000000,-0.057703548000000
COSTA COFFEE - ROTTINGDEAN,BN2 7HE,50.804588500000000,-0.058171157000000
Trellis Restaurant,BN2 7HE,50.804588500000000,-0.058171157000000
Open Art Cafe,BN2 7HG,50.804938250000000,-0.059732077000000
Erbe Restaurant,BN2 7HQ,50.803278740000000,-0.056749439000000
very italian pizza,BN2 8FA,50.807218660000000,-0.041200001000000
LA Tearoom & Bistro Ltd,BN2 8LG,50.801021630000000,-0.037428677000000
planet india,BN2 9PH,50.827126290000000,-0.133658668000000
Village,BN2 9SH,50.831335000000000,-0.128591508000000
The Geese Have Gone Over the Water,BN2 9UA,50.829701050000000,-0.131014115000000
The Greys Freehouse,BN2 9UA,50.829701050000000,-0.131014115000000
The Sir Charles Napier,BN2 9UE,50.828039000000000,-0.128255000000000
Explorers Restaurant,BN26 5QS,50.820479000000000,0.163748000000000
Oasis Cafe,BN26 5QS,50.820479000000000,0.163748000000000
The Sussex Ox,BN26 5RL,50.815548830000000,0.172009592000000
The Giant's Rest,BN26 5SQ,50.821604630000000,0.193957485000000
Chestnuts Tearooms and B&B,BN26 5TB,50.806922000000000,0.156653890000000
Wingrove House,BN26 5TD,50.807141970000000,0.156857817000000
Deans Place Hotel,BN26 5TW,50.805153720000000,0.155432061000000
Smugglers Alfriston Ltd,BN26 5UE,50.808187970000000,0.156224669000000
Badgers Tea House,BN26 5UG,50.808668840000000,0.156970731000000
Arlington tea garden (room) ,BN26 6RU,50.842332000000000,0.198978000000000
The Berwick Inn,BN26 6SZ,50.839207790000000,0.165438012000000
the barley mow,BN26 6UE,50.839960170000000,0.138300615000000
The Village Shop & Cafe,BN27 3QE,50.867231410000000,0.205820406000000
The Plough,BN27 3QJ,50.865446390000000,0.199852442000000
Pizza Leonati,BN27 3TB,50.871333440000000,0.168831300000000
The Yew Tree Inn,BN27 3TB,50.871333440000000,0.168831300000000
Shayan Persian takeaway ,BN3 1AE,50.825191360000000,-0.156198619000000
Cases,BN3 1AF,50.825495740000000,-0.158387482000000
Fine Eat,BN3 1AF,50.825495740000000,-0.158387482000000
The Paris House,BN3 1AF,50.825495740000000,-0.158387482000000
The Southern Belle ,BN3 1AQ,50.823831690000000,-0.157231880000000
Nostos,BN3 1BA,50.826627371704200,-0.161608882573308
SIX,BN3 1FA,50.825916990000000,-0.159435845000000
Cin Cin Hove,BN3 1JD,50.825842060000000,-0.160958101000000
The Wickinn Pub,BN3 1JD,50.825842060000000,-0.160958101000000
The Brunswick,BN3 1JF,50.824774660000000,-0.162277936000000
Harrisons of Hove ,BN3 1RD,50.831790480000000,-0.154930334000000
The Garden Cafe,BN3 1RP,50.831150220000000,-0.158235958000000
Subway ,BN3 1TJ,50.831483470000000,-0.148040810000000
Goodstock Deli Hove,BN3 2AB,50.828794210000000,-0.177725937000000
Hove Tandoori Indian Food Ltd,BN3 2AB,50.828794210000000,-0.177725937000000
Bankers Express Hove,BN3 2AE,50.828199000000000,-0.173020564000000
Orsino Restaurant,BN3 2AE,50.828199000000000,-0.173020564000000
Jo & Co,BN3 2AF,50.828035850000000,-0.171791550000000
Richard's Cafe Limited,BN3 2AF,50.828035850000000,-0.171791550000000
Start trade trading as Ganges Brasserie,BN3 2BA,50.827669110000000,-0.169051136000000
BAKED,BN3 2BB,50.827506440000000,-0.167282544000000
Fatto a Mano Hove Limited,BN3 2BD,50.827341670000000,-0.165954234000000
Lemongrass,BN3 2BD,50.827341670000000,-0.165954234000000
MOGU MOGU GOODTIME ,BN3 2BD,50.827341670000000,-0.165954234000000
Small Batch Coffee Company Limited,BN3 2BD,50.827341670000000,-0.165954234000000
LE NANTAIS,BN3 2BE,50.827197770000000,-0.164809709000000
The Connaught Pub & Kitchen,BN3 2DH,50.827861520000000,-0.179622420000000
Moonstone Sri Lankan Restaurant ,BN3 2DJ,50.828448450000000,-0.177469602000000
etch by steven edwards,BN3 2DJ,50.828448450000000,-0.177469602000000
7 Bone Burger Co - Hove,BN3 2EA,50.827821510000000,-0.173035301000000
Hixon Green,BN3 2EA,50.827821510000000,-0.173035301000000
SHANDIZ ,BN3 2EA,50.827821510000000,-0.173035301000000
Old Albion,BN3 2EB,50.827645150000000,-0.171537019000000
PPF Food Ltd,BN3 2EB,50.827645150000000,-0.171537019000000
Hove Place,BN3 2FH,50.826041780000000,-0.166218161000000
Chilli,BN3 2FL,50.826964410000000,-0.165983218000000
Indiana Tandoori Restaurant,BN3 2FL,50.826964410000000,-0.165983218000000
Cafe Malbec,BN3 2FN,50.827161490000000,-0.167651041000000
LatinoAmerica,BN3 2FN,50.827161490000000,-0.167651041000000
Shiraz restaurant ,BN3 2FN,50.827161490000000,-0.167651041000000
Wild Flor,BN3 2FN,50.827161490000000,-0.167651041000000
Zama Punjabi Kitchen,BN3 2FP,50.827361220000000,-0.169489170000000
third ave,BN3 2FP,50.827361220000000,-0.169489170000000
Buon Appetito Sister LTD,BN3 2JQ,50.826312880000000,-0.162870705000000
Down to Earth Coffee,BN3 2JQ,50.826312880000000,-0.162870705000000
Fishmekan Restaurant,BN3 2JQ,50.826312880000000,-0.162870705000000
La Piazza,BN3 2JQ,50.826312880000000,-0.162870705000000
Libation,BN3 2LJ,50.826752130000000,-0.167354681000000
The Claremont,BN3 2LL,50.826059020000000,-0.166742856000000
Bali Brasserie,BN3 2LR,50.824721600000000,-0.166908831000000
The Hove Club,BN3 2PJ,50.826787640000000,-0.171911307000000
THE BETTER HALF,BN3 2RG,50.825576210000000,-0.174954625000000
The Ginger Pig,BN3 2TR,50.826480470000000,-0.179874927000000
ALTINNIKOLI MARROCCOSRESTAURANT LIMITED,BN3 2WA,50.824504870000000,-0.176032906000000
Sugardough Hove,BN3 2WB,50.825016740000000,-0.175984561000000
The Meeting Place Cafe,BN3 2WN,50.822209390000000,-0.157011786000000
FIKA HOVE,BN3 3BE,50.829005080000000,-0.171086282000000
Aji Sushi,BN3 3JE,50.828782650000000,-0.167800567000000
Small Batch Coffee Company Limited,BN3 3RU,50.834201340000000,-0.171536453000000
Cafe Quench,BN3 3YB,50.830186000000000,-0.172985591000000
ARPENA LIMITED trading as Triple Two Coffee ,BN3 3YD,50.830443220000000,-0.173330562000000
Cafe Rust Hove ,BN3 3YE,50.829407950000000,-0.173839580000000
Cafe Ninety 7,BN3 3YG,50.831332920000000,-0.173863864000000
Amici Restaurant,BN3 3YH,50.831174140000000,-0.174636901000000
Ramsbottoms fish and chips ,BN3 3YH,50.831174140000000,-0.174636901000000
First Cup,BN3 3YN,50.831529660000000,-0.176667956000000
IM Thai Food Factory,BN3 3YN,50.831529660000000,-0.176667956000000
The Foragers,BN3 3YU,50.830037220000000,-0.176697706000000
The Poets Ale & Smokehouse,BN3 5BF,50.833859170000000,-0.178409181000000
The George Payne,BN3 5HB,50.836243990000000,-0.186013967000000
avabetsy,BN3 5JA,50.834027000000000,-0.189693000000000
Curry Mahal ,BN3 5QJ,50.833712970000000,-0.186921578000000
Mediterraneo Cafe Ltd,BN3 5QL,50.833068240000000,-0.184787961000000
scotties hove cafe,BN3 5QN,50.833329790000000,-0.187149446000000
Intenso Espresso Bar,BN3 5QT,50.833627910000000,-0.189552147000000
RUSTICO ITALIANO LIMITED,BN3 5QT,50.833627910000000,-0.189552147000000
Curiosity kitchen,BN3 5RB,50.830950890000000,-0.188008443000000
Galileo Restaurant,BN3 6DR,50.849416030000000,-0.172546934000000
Nola,BN3 6DR,50.849416030000000,-0.172546934000000
Hove Park Community Cafe Ltd,BN3 7BF,50.840116680000000,-0.174259571000000
Queensbury Coffee,BN3 7EX,50.838367460000000,-0.181457710000000
Bankers Express Hangleton,BN3 7LP,50.846221750000000,-0.190911371000000
Burger King,BN3 7PN,50.837914860000000,-0.174359703000000
Uncle Sams,BN3 8JG,50.844901300000000,-0.193334663000000
Sunam Tandoori (UK) Ltd,BN6 8AD,50.924537200000000,-0.142896775000000
The Thatched Inn,BN6 8DH,50.927635130000000,-0.131887313000000
the purple carrot ,BN6 8HN,50.924700730000000,-0.144697382000000
Bake Out Hassocks Ltd,BN6 8QA,50.923495140000000,-0.139580245000000
THE GREEN WELLY,BN6 8SY,50.921633970000000,-0.114939803000000
The Bull,BN6 8TA,50.921691830000000,-0.114624439000000
Notcutts Garden Pride,BN6 8TN,50.938230480000000,-0.105345000000000
Ridgeview Estate Winery,BN6 8TP,50.943432000000000,-0.107524000000000
The Nutmeg Tree,BN6 8TS,50.921018160000000,-0.115676000000000
The white horse,BN6 8TS,50.921018160000000,-0.115676000000000
The Sportsman Pub,BN6 9LQ,50.966795900000000,-0.171918022000000
South Downs Nurseries,BN6 9LY,50.922493140000000,-0.153507327000000
The Fig Tree,BN6 9PX,50.932392340000000,-0.175088896000000
Morleys Bistro,BN6 9RG,50.933592640000000,-0.178813378000000
The New Inn,BN6 9RQ,50.932886590000000,-0.176791589000000
the white horse inn ,BN6 9SP,50.934306680000000,-0.183083596000000
The Swan Inn,BN7 1HU,50.868023450000000,0.000189658000000
THE BLACK HORSE INN,BN7 1RS,50.873186860000000,-0.000925393000000
Rights Of Man,BN7 1YE,50.872793160000000,0.008907860000000
The Lewes Arms,BN7 1YH,50.874383540000000,0.009516386000000
Bake Out Lewes Ltd,BN7 2AD,50.873933360000000,0.015055000000000
Trading Post Coffee Roasters,BN7 2AH,50.874355370000000,0.017404055000000
The Royal Oak Lewes,BN7 2DA,50.872428040000000,0.011308474000000
Carafe Coffee Roasters Ltd.,BN7 2DB,50.872336530000000,0.010878127000000
RUSTICO ITALIANO LIMITED,BN7 2DG,50.873946050000000,0.009852920000000
Bun and Bean,BN7 2DH,50.874830250000000,0.009166029000000
Hixon Green,BN7 2FS,50.873565000000000,0.014826000000000
Depot,BN7 2JS,50.871787000000000,0.013086000000000
Ground Lewes,BN7 2JT,50.872057480000000,0.012458028000000
Robson's of Lewes,BN7 2LN,50.873756080000000,0.013455000000000
Chaula's Indian Restaurant,BN7 2LP,50.874458370000000,0.014422000000000
Zu Cafe Ltd,BN7 2LP,50.874458370000000,0.014422000000000
Lemongrass,BN7 2LU,50.873469000000000,0.012064000000000
The patch,BN7 2NB,50.873931550000000,0.011460000000000
The Dorest,BN7 2RD,50.874836000000000,0.018818000000000
greyfriars court ltd,BN7 2RF,50.873077560000000,0.015884854000000
Costa Coffee,BN7 2UP,50.870619720000000,0.011344335000000
The Jolly Sportsman,BN7 3BA,50.920337000000000,-0.050653000000000
The Fountain Inn,BN7 3BX,50.936478260000000,-0.060894802000000
The Abergavenny Arms Limited,BN7 3EZ,50.835784000000000,0.012673000000000
Lewes Garden Centre,BN7 3NE,50.857814700000000,-0.008687417000000
The Blacksmiths Arms,BN7 3QD,50.892588870000000,-0.011100818000000
The Five Bells,BN8 4DA,50.957142000000000,-0.019396000000000
Newick Tandoori ,BN8 4JU,50.972698670000000,0.020038913000000
The Royal Oak,BN8 4JU,50.972698670000000,0.020038913000000
THE PANTRY (NEWICK) LIMITED,BN8 4JX,50.971382000000000,0.020836000000000
The Bull ,BN8 4LA,50.974512260000000,0.019177455000000
The Rainbow Pub & Carvery,BN8 4SS,50.911089490000000,-0.005361855000000
The Green Man ,BN8 5NA,50.896989610000000,0.070445725000000
The Cock Inn,BN8 5RX,50.904167110000000,0.046442196000000
The Kings Head,BN8 6DR,50.925435320000000,0.165185115000000
YHA South Downs,BN8 6JS,50.832578000000000,0.034164000000000
Buffalo Bill's,BN8 6PG,50.927749812870300,0.143633348873161
Wok Inn Bar and Restaurant,BN8 6PH,50.913427000000000,0.118776000000000
Paradise Park,BN9 0DH,50.800158350000000,0.055504641000000
Flavour ,RH15 0AD,50.953596253037900,-0.126674748059529
Masalaclub,RH15 8DR,50.955475514786200,-0.128336301842897
Buon Appetito Brother ltd,RH15 8LH,50.958138806214200,-0.139108280024196
On the Park,RH15 8LH,50.958138806214200,-0.139108280024196
Taza Indian Cuisine,RH15 8LH,50.958138806214200,-0.139108280024196
The Oak Barn Restaurant,RH15 8RE,50.971821011649300,-0.143845880928665
India Garden Tandoori Restaurant ,RH15 9AA,50.957122178289900,-0.136827903348857
Ismet Turen Ltd TA McDonalds Brighton,RH15 9AR,50.953923140244800,-0.133609860520053
Bangkokbrasserie ,RH15 9BQ,50.956144994828300,-0.131954564799435
Lynneâ€™s Cafe,RH15 9BQ,50.956144994828300,-0.131954564799435
spiral,RH15 9DE,50.954315803880700,-0.128923951231413
Lemongrass,RH15 9DS,50.954582953750500,-0.129440000000000
Home Coffee House,RH15 9LR,50.954581542156800,-0.145016932400203
COSTA COFFEE - BURGESS HILL ,RH15 9NP,50.955034401145700,-0.131116307012919
Curry Inn,RH16 1EA,51.006124945487000,-0.103762452713068
Tamasha Spice,RH16 2HH,51.011137158422100,-0.081361719478239
Limes Thai Kitchen,RH16 2HN,51.013187403899000,-0.081348386870615
That's Amore,RH16 2HP,51.014038327758300,-0.080044418013244
The Bent Arms,RH16 2HP,51.014038327758300,-0.080044418013244
ORANGE SQUARE BAR,RH16 3AL,51.000338118658800,-0.105722943514405
Savannah Cafe Bar ,RH16 3AL,51.000338118658800,-0.105722943514405
Lemongrass ,RH16 3AS,51.000722745293000,-0.106003000000000
The Bay Tree,RH16 3TH,50.997467528111400,-0.102291196961553
Tory's Cafe in the Park,RH16 4HT,50.996338662406100,-0.103662618102467
COSTA COFFEE - HAYWARDS HEATH 1,RH16 4LA,50.996685826443200,-0.101781535729003
Flinders Coffee Ltd,RH16 4LR,50.997437426750700,-0.103760339888110
MJ BAlti House Limited,RH16 4LR,50.997437426750700,-0.103760339888110
The Swan,RH17 5AA,51.003558225452700,-0.144418153905722
Wheatsheaf Inn,RH17 5DW,51.006009985718800,-0.132916986579695
Haywards Heath Rugby Football Club,RH17 5HX,51.015262061344100,-0.149753611331852
Cuckfield Golf Centre,RH17 5HY,51.017224309060800,-0.157260541236543
cuckfield pantry and tearoom,RH17 5JU,51.006352910919900,-0.142581870954946
The Talbot,RH17 5JX,51.005998547845700,-0.142353704592021
Ockenden Manor Hotel & Spa,RH17 5LD,51.006363621711500,-0.143821564616496
Spice Village,RH17 5LD,51.006363621711500,-0.143821564616496
Cuckfield Cornerhouse Cafe,RH17 5LG,51.005845000000000,-0.142773000000000
the castle inn shanghai brasserie,RH17 5LZ,50.973092111597200,-0.197438218341854
Michael Maxwell T/A Maxwell's at Hickstead,RH17 5NU,50.965510905211700,-0.195812000000000
The Bolney Stage,RH17 5RL,51.000525154688800,-0.198270834322060
the Farmers,RH17 7NE,50.990424000000000,-0.051303972139507
The Sloop Inn,RH17 7NP,51.005147266384100,-0.027343704646728
The Cock Inn,RH17 7RH,50.963437658312100,-0.073771639885121
THE BIRCH HOTEL,RH17 7SF,50.992179000000000,-0.087302000000000
Connect Catering,TN21 0TS,50.971612952073800,0.200507000000000
Luxfords Restaurant,TN22 1AE,50.970772230303000,0.095176391966684
POPPINS Cafe Restaurant,TN22 1AG,50.970022587063400,0.095854833531885
Hartfields Coffee & Kitchen,TN22 1AP,50.971438840174000,0.096118008142431
Kaya courtyard coffee shop ,TN22 1AP,50.971438840174000,0.096118008142431
THE PICTURE HOUSE RESTAURANT,TN22 1AU,50.972223796836700,0.096979517458983
McDonald's Uckfield,TN22 1QL,50.969207253875000,0.089309000000000
Thyme for Food and Friends,TN22 1QP,50.970670707995600,0.096824098815318
COSTA COFFEE - UCKFIELD ,TN22 1QR,50.971001000000000,0.096554000000000
Amira's Kitchen,TN22 1QU,50.970842330321900,0.098284697435855
cafe 212,TN22 1RD,50.973189966995800,0.097265197009182
Thai Terre Uckfield,TN22 1RJ,50.973224082240800,0.096867886871303
TASTY SPICE UCKFIELD LTD,TN22 2EA,50.989179258272500,0.097330417437292
PIG AND BUTCHER,TN22 3AN,50.995290000000000,0.104253433054195
The Foresters Arms,TN22 3BP,51.019782390872400,0.092408825039777
The Griffin Inn,TN22 3SS,50.993126906751900,0.034307073851233
The Peacock Inn,TN22 3XA,50.974171000000000,0.064974000000000
The Piltdown Man,TN22 3XL,50.981067753290200,0.049166492087042
Buxted Park Hotel,TN22 4AY,50.985659830860200,0.113956352342830
The White Hart Buxted,TN22 4DP,50.989716836662000,0.127278858442131
The Buxted Inn,TN22 4LA,50.990019416993900,0.132878595678289
Uckfield Tandoori,TN22 5AE,50.967941000000000,0.096630000000000
The Alma Arms,TN22 5AJ,50.966822818020200,0.100752675480897
McDonald's Maresfield,TN22 5EP,50.988876000000000,0.090249000000000
East Sussex National Ltd,TN22 5ES,50.941487471691600,0.099781252134434
Hare and Hounds,TN22 5NJ,50.963621707339500,0.128037647815044
The Highlands Inn,TN22 5SP,50.960842299551000,0.099742375656026
Horsted Place Ltd,TN22 5TS,50.945734588201000,0.091644498806527
The Laughing Fish,TN22 5XB,50.936041492160900,0.063739576187591
