name,postcode,lat,lon
Cafe m,HG1 1AE,53.99305400000000,-1.53896800000000
Starbucks,HG1 1AE,53.99305400000000,-1.53896800000000
THE GEEK BAR,HG1 1BB,53.9959,-1.5387
The Hub Caffe Ltd T/A Cafe Rita,HG1 1BE,53.99581800000000,-1.53785400000000
THE WEST PARK HOTEL,HG1 1BJ,53.98844700000000,-1.53979600000000
Weetons Retail Ltd,HG1 1BJ,53.98844700000000,-1.53979600000000
Threes A crowd,HG1 1BL,53.98971700000000,-1.54046900000000
Ice Scoop Harrogate,HG1 1BT,53.99493026733400,-1.54344701766968
Wei Chen Restaurant,HG1 1BT,53.99493200000000,-1.54344700000000
KONAK MEZE TURKISH RESTAURANT,HG1 1BX,53.99525000000000,-1.53958400000000
North Bar,HG1 1DA,53.99471800000000,-1.53933000000000
Graveley's of Harrogate,HG1 1DB,53.99479600000000,-1.54079400000000
JINNAH RESTAURANT LIMITED,HG1 1DB,53.99479600000000,-1.54079400000000
The Inn at Cheltenham Parade,HG1 1DB,53.99479600000000,-1.54079400000000
Bodega Bar and grill ltd ,HG1 1DD,53.9944,-1.5407
Cardamom Black,HG1 1DD,53.99440900000000,-1.54067600000000
JA HARROGATE LTD ,HG1 1DD,53.9944,-1.5407
Sukhothai,HG1 1DD,53.9944,-1.5407
Ali raj restaurant ltd,HG1 1DH,53.99487400000000,-1.54225700000000
Casa Mia Harrogate,HG1 1DH,53.99487304687500,-1.54225695133209
Cattlemens Grill Limited,HG1 1DH,53.99487400000000,-1.54225700000000
No35 Harrogate,HG1 1DH,53.99487304687500,-1.54225695133209
Taverna ,HG1 1DH,53.99487400000000,-1.54225700000000
Vivido Bar & Restaurant ,HG1 1DH,53.99487400000000,-1.54225700000000
Everyman Cinema,HG1 1HQ,53.99002700000000,-1.53710900000000
Farmhouse,HG1 1HQ,53.99002700000000,-1.53710900000000
Tap on Tower St,HG1 1HS,53.98951200000000,-1.53874700000000
The Joint Harrogate Ltd T/A Slingsby's,HG1 1HS,53.98934173583980,-1.53847503662109
Pizza Express,HG1 1JG,53.99192710000000,-1.53863390000000
Portofino Harrogate,HG1 1JG,53.9919,-1.5386
Suzetta,HG1 1JG,53.99198400000000,-1.53862900000000
Banyan  Harrogate,HG1 1JZ,53.99175000000000,-1.54096500000000
LMDC Espresso Bar,HG1 1JZ,53.99175000000000,-1.54096500000000
Zinc,HG1 1JZ,53.99175000000000,-1.54096500000000
Yorkshire Hotel,HG1 1LA,53.99234500000000,-1.54140100000000
Hotel du Vin & Bistro Harrogate,HG1 1LB,53.99175000000000,-1.54096500000000
The Tannin Level,HG1 1LE,53.99112319946290,-1.54004597663879
Caffe Marconi,HG1 1LX,53.99138700000000,-1.53996200000000
Sasso Restaurant,HG1 1LX,53.99138700000000,-1.53996200000000
Papas Mediterrnean,HG1 1ND,53.99127280000000,-1.53909870000000
McDonald's Restaurant,HG1 1NS,53.99370000000000,-1.54091300000000
Caffe Nero,HG1 1PE,53.99311100000000,-1.54203300000000
Essenza Bar & Restaurant,HG1 1PP,53.99406400000000,-1.54223500000000
Baltzersen's,HG1 1PU,53.99418500000000,-1.54078500000000
Starling Independent Bar Cafe Kitchen,HG1 1PW,53.99370400000000,-1.54211700000000
FARM BISTRO,HG1 1PY,53.99437410000000,-1.53926280000000
coffee shop plus,HG1 1QH,53.9942,-1.5388
Costa Coffee,HG1 1QQ,53.99364600000000,-1.53862500000000
Caffe Nero,HG1 1RU,53.99345700000000,-1.53858200000000
Starbucks Harrogate,HG1 1RX,53.9933,-1.5397
Saranda,HG1 1SS,53.99178000000000,-1.53704500000000
Zizzi,HG1 1TB,53.99205400000000,-1.53827700000000
cafexpress,HG1 1TE,53.99276100000000,-1.53756800000000
Bean & Bud,HG1 1TY,53.99522100000000,-1.53900500000000
Lily's cafe,HG1 1TY,53.99522100000000,-1.53900500000000
truffles cafe,HG1 1UE,53.99515600000000,-1.53860900000000
Crowne Plaza Harrogate,HG1 1XX,53.99741300000000,-1.54120800000000
The Majestic Hotel,HG1 2HU,53.99697400000000,-1.54395800000000
Cairn Restaurant,HG1 2JD,53.99734700000000,-1.54756900000000
Oakdale Golf Club (Harrogate) Ltd,HG1 2LN,53.99810028076170,-1.55657696723938
Bettys Harrogate,HG1 2QU,53.9932,-1.5431
Five Guys,HG1 2QU,53.99322200000000,-1.54306800000000
Wagamama,HG1 2QU,53.99322300000000,-1.54306900000000
Major Tom's Social,HG1 2RB,53.99359400000000,-1.54379700000000
Manahatta  Harrogate,HG1 2RB,53.99359400000000,-1.54379700000000
MOJO Harrogate,HG1 2RE,53.9940,-1.5435
Nando's,HG1 2RE,53.99401473999020,-1.54365503787994
Gino D'acampo My Restaurant ,HG1 2RL,53.99448200000000,-1.54325300000000
The Harrogate Tea Rooms ,HG1 2RN,53.99419400000000,-1.54311900000000
Fashion House Bistro FHB,HG1 2SA,53.99412700000000,-1.54693300000000
Studley Hotel & Orchid Restaurant,HG1 2SE,53.99410890000000,-1.54751760000000
Lucia Restaurant ,HG1 2SX,53.99581100000000,-1.54545000000000
Old Bell,HG1 2SZ,53.99310000000000,-1.54618200000000
The Drum and Monkey Restaurant LLP,HG1 2TF,53.99334500000000,-1.54457700000000
Palm Court Cafe,HG1 2TG,53.99295900000000,-1.54462700000000
DOMO JAPANESE CUISINE,HG1 2TQ,53.99305600000000,-1.54419900000000
JENNYS TEA SHOP,HG1 2TQ,53.99305600000000,-1.54419900000000
Wetherspoons,HG1 2WH,53.99427100000000,-1.54453700000000
THE KNOX,HG1 3AP,54.01127500000000,-1.54201700000000
Russell's Trading Post,HG1 4JB,54.00701200000000,-1.52503500000000
The Empress on the Stray,HG1 4SP,53.99422100000000,-1.52460100000000
Cedar Court Hotel Harrogate,HG1 5AH,53.99176900000000,-1.52966300000000
Deli Bar Harrogate,HG1 5AW,53.99690700000000,-1.52891800000000
Doe Harrogate,HG1 5BQ,53.99445800000000,-1.53689300000000
Arden House,HG1 5EH,53.99823700000000,-1.53817800000000
Baytree house,HG1 5EN,53.9996,-1.5372
Mykonos Bar & Grill,HG1 5HB,53.99663500000000,-1.53763100000000
Giannis Brio,HG1 5JW,53.99568100000000,-1.54192800000000
Grön Kafe,HG1 5JW,53.9957,-1.5419
Stuzzi,HG1 5JW,53.99568100000000,-1.54192800000000
Costa Coffee,HG1 7JD,53.99751500023900,-1.50289000025942
SO Bar and Eats Harrogate,HG2 0DP,53.98376400000000,-1.55169700000000
La Feria,HG2 0NA,53.99118900000000,-1.54736100000000
Prologue Performance Cycling Ltd,HG2 0NA,53.99119000000000,-1.54736200000000
William & Victoria Wine Bar ,HG2 0NA,53.99119000000000,-1.54736200000000
White Hart Hotel & Fat Badger,HG2 0NF,53.99263200000000,-1.54615600000000
Tilly Peppers,HG2 0NL,53.99057800000000,-1.54726100000000
woodlands hotel,HG2 7AB,53.98734000000000,-1.50326800000000
KFC,HG2 7JE,53.99873700000000,-1.49913500000000
Pizza Hut Delivery,HG2 7JE,53.99873700000000,-1.49913500000000
Starbeck tandoori,HG2 7LH,54.00044000000000,-1.49789400000000
Drakes,HG2 7LT,53.99607700000000,-1.51460400000000
Secret Bakery Harrogate,HG2 7SR,53.99585000089730,-1.51459500067012
THE CURRY COUNTER (HARROGATE) LTD,HG2 8BE,53.97790000000000,-1.53390500000000
No.43 Brew Bar ,HG2 8LT,53.99076700000000,-1.52008510000000
Indulge,HG2 8QT,53.97746600000000,-1.52186500000000
AL BIVIO HORNBEAM PARK,HG2 8RE,53.97969436645510,-1.52436995506287
The Castle Inn,HG3 1BQ,53.95268800000000,-1.44682600000000
Red Hill Farm Tea Room ,HG3 1BS,53.95017680000000,-1.43868250000000
Costa Coffee,HG3 1ER,53.95893859863280,-1.53041803836823
The Barrows at Crimple Hall,HG3 1EW,53.96239852905270,-1.52990198135376
The Shoulder of Mutton Inn,HG3 1HD,53.93900300000000,-1.50544100000000
Rudding Park Limited,HG3 1JH,53.9736,-1.4922
The Black Swan Pub,HG3 1PB,53.95873100000000,-1.54637200000000
Bettys Harlow Carr,HG3 1QB,53.98187610000000,-1.57229040000000
The Sun Inn,HG3 1SZ,53.98304300000000,-1.68386800000000
Joiners arms ,HG3 2EU,54.02424600000000,-1.60578500000000
QUEENS HEAD INN,HG3 2LB,54.01057600000000,-1.65570500000000
Millstones Restaurant,HG3 2LT,54.00584411621090,-1.64805400371552
Wellington inn,HG3 2QQ,54.03179931640630,-1.70576298236847
Mrs Smith's Harrogate Ltd,HG3 2XQ,54.00315400000000,-1.56752200000000
The Station Hotel,HG3 3AG,54.03397500000000,-1.62697700000000
The Boar's Head ,HG3 3AY,54.04007000000000,-1.56834600000000
The Malt Shovel at Brearton,HG3 3BX,54.04352300000000,-1.50997400000000
The Masons Arms,HG3 3QU,54.08986100000000,-1.49846700000000
THE FIRS,HG3 4JF,54.05845900000000,-1.69449400000000
Talbot House Tearoom,HG3 5AL,54.08650300000000,-1.75931900000000
The Pancake House - Pateley Bridge,HG3 5AP,54.08618100000000,-1.76022300000000
Half Moon Inn,HG3 5ET,54.09063100000000,-1.69306600000000
Olleys Pizzeria,HG3 5HG,54.08401200000000,-1.76323100000000
The Royal Oak,HG3 5HG,54.08401200000000,-1.76323100000000
The Bridge Inn,HG3 5HL,54.09030100000000,-1.77097700000000
Stump Cross Caverns,HG3 5JL,54.07174301147460,-1.84523999691010
Wildings Tea Rooms,HG3 5NA,54.08528000000000,-1.75895900000000
Zolsha ,HG5 0EQ,54.00815600000000,-1.46569800000000
McQueen's Cafe,HG5 0HB,54.00877700000000,-1.46791800000000
Prudames Coffee Shop,HG5 0HB,54.0088,-1.4680
Wetherspoons Crown Inn,HG5 0HB,54.00877700000000,-1.46791700000000
Cafe Di Lucca (Knaresborough Limited),HG5 8AE,54.00795745849610,-1.46754705905914
Subway ,HG5 8AE,54.00795800000000,-1.46754700000000
Two Brothers Grill and Pizzeria ,HG5 8AE,54.00795745849610,-1.46754705905914
Caffe Nero,HG5 8AG,54.00826100000000,-1.46703900000000
The Groves Inn,HG5 8AG,54.00826100000000,-1.46703900000000
The Lavender Rooms,HG5 8AG,54.0083,-1.4670
Drakes,HG5 8AJ,54.00777100000000,-1.46602300000000
SO Bar and Eats Knaresborough,HG5 8AJ,54.00777100000000,-1.46602300000000
Honey Bees at Hannahs,HG5 8AR,54.00734600000000,-1.46732600000000
SIX POOR FOLK,HG5 8AR,54.00734600000000,-1.46732600000000
Spice Village Restaurant,HG5 8AR,54.00734600000000,-1.46732600000000
The Moat Buttery Tea Shoppe,HG5 8AS,54.00732200000000,-1.46804300000000
Scarlett's Vintage Tearooms,HG5 8AU,54.00713700000000,-1.46696200000000
Marigold Cafe,HG5 8DE,54.00661400000000,-1.47066100000000
The Half Moon Free House,HG5 8HY,54.00111200000000,-1.46420200000000
Mother Shipton Inn ,HG5 8HZ,54.00294400000000,-1.46790000000000
The Lime Tree Cafe (Nineteen O Nine Ltd),HG5 8JY,53.99756900000000,-1.47394900000000
McDonald's Restaurant,HG5 8PZ,54.00024700000000,-1.44380100000000
The Mitre,HG5 9AA,54.00926600000000,-1.47067300000000
Dower House Hotel and Spa,HG5 9AL,54.01124300000000,-1.47264700000000
The Guy Fawkes Arms,HG5 9HU,54.02841567993160,-1.50386202335358
royal oak,HG5 9LD,54.05903200000000,-1.44491100000000
The New Inn,LS16 8AU,53.88194500000000,-1.56238500000000
The Fox & Hounds,LS16 9AX,53.8852,-1.6230
Corner Cup,LS16 9BS,53.88193130493160,-1.61302697658539
Britannia Leeds Bradford Hotel,LS16 9JJ,53.88786000000000,-1.62097500000000
The Square & Compass,LS17 0DJ,53.93986129760740,-1.57552397251129
The Duke of Wellington ,LS17 9DB,53.89285278320310,-1.45175504684448
The Bingley Arms,LS17 9DR,53.88159400000000,-1.44872300000000
Courtyard at Harewood House,LS17 9LG,53.8969,-1.5273
Harewood House Trust Ltd,LS17 9LG,53.8969,-1.5273
Terrace Tea Rooms at Harewood House,LS17 9LG,53.8969,-1.5273
Muddy Boots Cafe,LS17 9LJ,53.90221023559570,-1.51279997825623
Blinok limited Pancake House,LS20 8BX,53.87648300000000,-1.71632400000000
Subway Guiseley,LS20 8LY,53.87744500000000,-1.72377100000000
Twenty Eight Coffee Shop,LS20 8LZ,53.87799453735350,-1.72384297847748
Wetherby Whaler,LS20 8LZ,53.87797500000000,-1.72390400000000
CENA BISTRO (LEEDS) LTD ,LS20 9AT,53.8762,-1.7095
Mumbai otley limited,LS21 1AD,53.90406900000000,-1.69158700000000
The Wharfe Fish and Chips Ltd,LS21 1BQ,53.90705900000000,-1.69387900000000
Bloomfield Square,LS21 1BR,53.90250100000000,-1.68992400000000
Buon Apps,LS21 1FE,53.9099,-1.6874
Maypole Fisheries Ltd,LS21 1HD,53.90577900000000,-1.68894100000000
Parkgate Cafe,LS21 2AA,53.90957000000000,-1.69501700000000
Askwith Arms,LS21 2JQ,53.93115900000000,-1.74559100000000
CH&Co Workplaces - Wharfdale Hospital,LS21 2LY,53.91411400000000,-1.70057200000000
Mackenzies smoked products ltd,LS21 2PQ,54.00578900000000,-1.74345900000000
The Local Pantry,LS21 2PS,53.91360200000000,-1.61826000000000
Red Pepper Restaurant ,LS21 3AE,53.90485500000000,-1.69307300000000
The Dales cafe,LS21 3AF,53.90552900000000,-1.69296200000000
Milk Bar Otley Ltd,LS21 3AP,53.90608100000000,-1.69434300000000
M’deena Restaurant LTD,LS21 3AQ,53.90561200000000,-1.69404100000000
black horse hotel,LS21 3AS,53.90489959716797,-1.69623863697052
The Royalty,LS21 3DG,53.89219300000000,-1.69732000000000
the fleece,LS21 3DT,53.90431200000000,-1.69860200000000
Costa Coffee (Otley),LS21 3HJ,53.90458500000000,-1.69394620000000
Cranberry,LS21 3HN,53.90519100000000,-1.69447100000000
The Mill Bar and Bistro,LS21 3JP,53.9032,-1.7064
WestBourne Spice,LS21 3LS,53.89841700000000,-1.71746900000000
Chevin Country Park Hotel,LS21 3NU,53.89061737060550,-1.67942202091217
Mr Blinok Pancake House,LS21 3NX,53.90526580810550,-1.69282996654511
Scotts Arms,LS22 4BD,53.93030800000000,-1.45252800000000
Stables Bar & Restaurant ,LS22 4BZ,53.91619000000000,-1.49404800000000
Wood Hall Hotel & Spa,LS22 4JA,53.91605900000000,-1.44029100000000
panhandlecatering ltd,LS29 0BE,53.9329,-1.8368
Chevin Inn,LS29 6BE,53.89135100000000,-1.72077300000000
The Hermit Inn,LS29 7AS,53.90051900000000,-1.76725200000000
Kashmiri Aroma (LLP),LS29 7HQ,53.92091900000000,-1.77572600000000
Burley in Wharfedale Social Club ,LS29 7JW,53.91434800000000,-1.75245300000000
Love Brownies Ilkley,LS29 8AA,53.9252,-1.8238
Avanti Coffee House,LS29 8AF,53.92492800000000,-1.82435700000000
THE VINE RESTAURANT,LS29 8AF,53.92492800000000,-1.82435700000000
The Little Teahouse,LS29 8AF,53.92492800000000,-1.82429700000000
The Clevedon,LS29 8AQ,53.91617400000000,-1.78564700000000
Banyan  Ilkley,LS29 8DE,53.9257,-1.8230
Caffe Nero,LS29 8DE,53.92548300000000,-1.82306100000000
Costa Coffee,LS29 8DE,53.92548300000000,-1.82306100000000
Hub-Vybe,LS29 8DE,53.92573130000000,-1.82295540000000
The Olive Branch,LS29 8DE,53.92548370361330,-1.82306098937988
BISTROT PIERRE - ILKLEY,LS29 8DG,53.92585200000000,-1.82321100000000
Dalesway Hotel,LS29 8DH,53.92631800000000,-1.82275300000000
Ilkley Cinema Ltd,LS29 8DP,53.92641500000000,-1.82135100000000
THE ILKLEY COW,LS29 8DQ,53.92656200000000,-1.82317800000000
The Commute Cafe Ltd,LS29 8DS,53.92623400000000,-1.82060500000000
Toast House,LS29 8DS,53.92623400000000,-1.82060600000000
Booths,LS29 8EE,53.92752075195310,-1.81799900531769
La Stazione Cafe,LS29 8HF,53.92468200000000,-1.82234800000000
Pizza Express,LS29 8HF,53.92468200000000,-1.82234800000000
Ticket Office,LS29 8HF,53.92468200000000,-1.82234800000000
Emporio Italia (Ilkley) Ltd,LS29 8HQ,53.92527500000000,-1.82230000000000
PRANZO ITALIAN,LS29 8PN,53.92495900000000,-1.79827200000000
Wheatley Arms,LS29 8PP,53.92377100000000,-1.79765300000000
Craiglands Hotel,LS29 8RQ,53.9196,-1.8124
Panache,LS29 9DR,53.92613300000000,-1.82477900000000
Flying Duck ,LS29 9DS,53.92642100000000,-1.82509700000000
La Casita Ilkley ,LS29 9DY,53.92597961425780,-1.82538902759552
Bar T'at,LS29 9DZ,53.92584700000000,-1.82647000000000
The Clarke Foley Centre,LS29 9DZ,53.92584700000000,-1.82647000000000
Bettys Ilkley,LS29 9EE,53.92479500000000,-1.82559100000000
Tiplings Tea Room & Gift Shop,LS29 9EG,53.92470300000000,-1.82428200000000
Riverside Hotel,LS29 9EU,53.92805300000000,-1.82914100000000
Friends of Ham (Ilkley),LS29 9JD,53.92387300000000,-1.82291500000000
Quinta Bar & Grill,LS29 9JD,53.92387400000000,-1.82291500000000
The Ilkley Cafe Company,LS29 9JD,53.92387400000000,-1.82291500000000
Broadleys bistro & wine bar ,LS29 9LB,53.9256,-1.8258
SACHI’S,LS29 9LB,53.92557360000000,-1.82577330000000
Martinez Wines,LS29 9NJ,53.92437500000000,-1.82742100000000
CAFE J LTD,LS29 9PA,53.92480250000000,-1.82707080000000
J RESERVE,LS29 9PA,53.92473970000000,-1.82717770000000
