name,postcode,lat,lon
sand viper and cerastes,EX31 4RL,51.184013000000000,-3.893870000000000
amphisbaena and boa constrictor,EX31 4TX,51.155884683553300,-3.903171000000000
viper and Viscacha,EX31 4UB,51.155508000000000,-3.901998000000000
Night heron and blindworm,EX35 6AT,51.227993196489500,-3.835391455780520
soft-shelled turtle and milk snake,EX35 6DD,51.228462073064400,-3.839320238961920
fer-de-lance and Asiatic leopard,EX35 6EH,51.230329287614100,-3.830356661867880
Wallaby and Meadowlark,EX35 6LG,51.217546443111000,-3.796385142384960
River dolphin and Black cockatoo,EX35 6LP,51.211072004211900,-3.794014143753960
bearded dragon and gopher snake,EX35 6PH,51.205570000000000,-3.847140000000000
tree snake and copperhead,TA22 9JY,51.103167000000000,-3.538581000000000
sand lizard and Zebra,TA24 7HA,51.129463000000000,-3.544572000000000
Hawk and Mouse,TA24 7JY,51.141169346676800,-3.701425757061950
Recurvebill and amethystine python,TA24 7LA,51.120801088954800,-3.714923529718280
bandy-bandy and Recurvebill,TA24 7LQ,51.145713352799100,-3.810235916711890
cayman and adder,TA24 7LS,51.134735000000000,-3.630508000000000
moloch and rattlesnake,TA24 7NH,51.142220000000000,-3.667941000000000
Mamo and rat snake,TA24 7NN,51.144471720260600,-3.666320592037910
mud turtle and Triller,TA24 7NT,51.145216000000000,-3.648162000000000
Chicken and Civet,TA24 8HD,51.214070506474300,-3.585831193767000
Schneider python and racer,TA24 8LE,51.208694780147000,-3.594293507520370
mamba and B,TA24 8NR,51.209587752477600,-3.600680902323800
Bunting and carpet snake,TA24 8PA,51.216220019594600,-3.624479432788250
Fox and Thrasher,TA24 8RH,51.179939073962000,-3.521850379781410
Thicketbird and Black jay,TA24 8RR,51.183672000000000,-3.541089000000000
Wallaby and Siskin,TA24 8SS,51.205051955671700,-3.536563738687130
king snake and copperhead,TA24 8TJ,51.205911249631100,-3.561987756021530
