name,postcode,lat,lon
Kite and Mole,BT60 3QH,54.258970000000000,-6.810009000000000
Herring gull and Masked owl,BT60 4JP,54.293576000000000,-6.843430000000000
anole and Ground sloth,BT60 4RR,54.329976000000000,-6.806867000000000
Jackal and massasauga,BT60 4SX,54.317026000000000,-6.820398000000000
Puffleg and Myna,BT60 4TA,54.300474000000000,-6.841131000000000
Old World quail and grass snake,BT68 4TU,54.350165000000000,-6.836426000000000
horned toad and rattlesnake,BT68 4UY,54.362030000000000,-6.832383000000000
garter snake and Bronzewing pigeon,BT69 6BN,54.440657000000000,-7.005180000000000
Puffleg and Thicketbird,BT69 6BR,54.421354000000000,-7.002010000000000
jew lizard and Pheasant,BT69 6DH,54.438562000000000,-6.870911000000000
Thicketbird and Nukupu ªu,BT69 6EP,54.425774000000000,-6.932692000000000
Booted eagles and Solitaire,BT70 1LJ,54.417699000000000,-6.851597000000000
Eagle and constrictor,BT70 1PE,54.467353000000000,-6.839597000000000
Civet and Tahr,BT70 1QA,54.429529000000000,-6.841914000000000
American sparrow and Tree warbler,BT70 1QB,54.446332000000000,-6.836706000000000
alligator and Eagle,BT70 2AN,54.462258000000000,-7.043207000000000
blue racer and Towhee,BT70 2DZ,54.468813000000000,-7.125800000000000
gecko and Minke whale,BT70 2ED,54.469366000000000,-7.151669000000000
frilled lizard and Minke whale,BT70 2HB,54.462824000000000,-7.029669000000000
Booted eagles and death adder,BT70 2LE,54.469808000000000,-6.961270000000000
Linsang and leguaan,BT70 2LP,54.459216000000000,-7.030048000000000
Masked owl and Myna,BT76 0JY,54.402980000000000,-7.193079000000000
horned toad and Piping shrike,BT76 0XB,54.432566000000000,-7.208167000000000
Pheasant and Warbler,BT77 0AB,54.429739000000000,-7.131425000000000
Jerboa and Grouse,BT77 0BL,54.427474000000000,-7.129117000000000
deaf adder and amethystine python,BT77 0BP,54.435744000000000,-7.112219000000000
Dolphin and Fulmarine petrel,BT77 0BW,54.442768000000000,-7.117325000000000
Duck and Black jay,BT77 0EB,54.421349000000000,-7.129014000000000
anole and whip snake,BT78 2RZ,54.474868000000000,-7.169033000000000
whip snake and cycling lizard,BT78 2SB,54.467431000000000,-7.168001000000000
Petrel and cayman,BT92 7HN,54.250319000000000,-7.191875000000000
