name,postcode,lat,lon
blue tongue and Grackle,BT22 1AU,54.468350000000000,-5.495437000000000
dugite and ringhals,BT22 1AX,54.452083000000000,-5.476769000000000
Thicketbird and Vole,BT22 1ER,54.464420000000000,-5.439358000000000
gavial and copperhead,BT22 1ES,54.462113000000000,-5.441184000000000
Gull and constrictor,BT22 1FD,54.460046000000000,-5.449880000000000
flying dragon and Kākāriki,BT22 1HU,54.432779000000000,-5.480747000000000
hoop snake and frilled lizard,BT22 1LW,54.381637000000000,-5.547576000000000
Boto and blind snake,BT22 1NR,54.382009000000000,-5.541204000000000
Petrel and Badger,BT22 1NU,54.414518000000000,-5.496087000000000
Jackal and water snake,BT22 1QJ,54.414416000000000,-5.467914000000000
ringhals and flying dragon,BT22 1RE,54.370173000000000,-5.518966000000000
Elephant and racer,BT22 1RU,54.442537000000000,-5.466363000000000
Pheasant and Puffleg,BT22 1SL,54.458584000000000,-5.443207000000000
Vulture and alligator,BT23 6SY,54.471790000000000,-5.672099000000000
sea snake and Bronzewing pigeon,BT23 6UH,54.471918000000000,-5.679189000000000
rat snake and terrapin,BT30 6RF,54.327730000000000,-5.699986000000000
saltwater crocodile and boomslang,BT30 6RG,54.328134000000000,-5.699688000000000
Asiatic leopard and Maya,BT30 6SY,54.343716000000000,-5.675654000000000
Partridge and Duck,BT30 6XX,54.337199000000000,-5.685542000000000
goanna and Nukupuʻu,BT30 7EH,54.306004000000000,-5.648602000000000
carpet snake and Mouse,BT30 7EL,54.309221000000000,-5.634327000000000
Fish eagle and Towhee,BT30 7JS,54.355601000000000,-5.629939000000000
green turtle and brown snake,BT30 7LD,54.366862000000000,-5.679302000000000
tuatara and mud turtle,BT30 7LP,54.372002000000000,-5.603198000000000
Magpie and Hawaiian honeycreeper,BT30 7LU,54.363533000000000,-5.568408000000000
Mink and bicycle lizard,BT30 7LW,54.370907000000000,-5.555352000000000
milk snake and Minke whale,BT30 7NE,54.371352000000000,-5.555354000000000
carpet snake and blind snake,BT30 7QL,54.251459000000000,-5.643343000000000
agama and Grosbeak,BT30 7SE,54.262769000000000,-5.609160000000000
agamid and Komodo dragon,BT30 7SJ,54.272072000000000,-5.599777000000000
diamondback and Goose,BT30 7UF,54.256660000000000,-5.618768000000000
Gila monster and Thrasher,BT30 7UT,54.258901000000000,-5.611024000000000
Skunk and Capuchin,BT30 7UU,54.259454000000000,-5.612805000000000
snake and Skunk,BT30 8AU,54.259271000000000,-5.695083000000000
Parakeet and blue tongue,BT30 8LP,54.252949000000000,-5.684939000000000
krait and Towhee,BT30 8LQ,54.268488000000000,-5.662268000000000
Chipmunk and Warbler,BT30 9PG,54.425099000000000,-5.660708000000000
horned viper and Towhee,BT30 9PL,54.438087000000000,-5.670836000000000
Ibex and Schneider python,BT30 9PQ,54.428206000000000,-5.661948000000000
snake and Pitohui,BT30 9UJ,54.395291000000000,-5.654753000000000
taipan and Mouse,BT30 9WB,54.400831000000000,-5.649276000000000
