name,postcode,lat,lon
pit viper and viper,CA18 1RF,54.356582930107600,-3.404089000000000
Chipmunk and Snipe,CA18 1SW,54.356795789119800,-3.409281856552170
Booted eagles and coral snake,CA20 1AR,54.418790132820900,-3.438625608288510
Peafowl and Vole,CA20 1DE,54.439856594016500,-3.480380690462390
snapping turtle and Mink,CA20 1DF,54.439872777005200,-3.482725091380910
horned viper and Stilt,CA20 1DL,54.440212903433100,-3.479175366463980
leathery turtle and milk snake,CA20 1DN,54.440761225891300,-3.479904459740200
diamondback and viper,CA20 1EZ,54.403280000000000,-3.470543000000000
Grackle and Parakeet,CA20 1HT,54.413734756338600,-3.434441964580420
Greenbul and mud turtle,CA20 1HY,54.415807000000000,-3.430929301018630
Pheasant and tortoise,CA20 1JQ,54.399011196974700,-3.475566272762270
Rat and massasauga,CA20 1JW,54.400605160779200,-3.471141000000000
Wallaby and Stilt,CA20 1JX,54.401015150064100,-3.473389058823650
Hawaiian honeycreeper and fer-de-lance,CA20 1NG,54.397416311226900,-3.475894111869910
Moluccan boobook and diamondback terrapin,CA20 1NR,54.393476209164500,-3.483500069027080
mountain devil and flying lizard,CA20 1QD,54.394897769248700,-3.483381940860680
bull snake and Puffleg,CA20 1QH,54.398294857068800,-3.484875525343370
Linsang and Snipe,CA20 1WR,54.397902407102100,-3.478037331438380
Mockingbird and Wader,CA21 2XW,54.439484171567000,-3.509910000000000
anole and Armadillo,CA21 2XX,54.445284593809800,-3.516663834455580
Eagle and Ground sloth,CA22 2LQ,54.474384085767900,-3.537571828426650
River dolphin and deaf adder,CA22 2NH,54.463145046693900,-3.505058644228710
Black cockatoo and Meadowlark,CA22 2SJ,54.464722689219300,-3.527597011393920
Petrel and Boto,LA19 5TE,54.282731347745000,-3.374509395725740
taipan and adder,LA19 5XB,54.291423563165800,-3.393235857349530
puff adder and flying lizard,LA19 5XN,54.275261044513200,-3.383260527289260
Fish eagle and Linsang,LA19 5YB,54.305582852036200,-3.414585831494540
