name,postcode,lat,lon
Masons Arms,LA11 6NW,54.29840000000000,-2.90207400000000
Lakes Aquarium,LA12 8AS,54.2793,-2.9582
Lakeside Hotel,LA12 8AT,54.27913900000000,-2.95686800000000
The Royal Oak,LA12 8BS,54.25526700000000,-3.06820100000000
The Manor House,LA12 8HG,54.27640900000000,-3.04846000000000
Newby Bridge Hotel ,LA12 8NA,54.26772700000000,-2.97117500000000
The Swan Hotel & Spa,LA12 8NB,54.26924800000000,-2.96976800000000
Cafe Ambio at Lakeland Motor Museum,LA12 8TA,54.25989200000000,-2.98967400000000
The Terrace Coffee House and Restaurant,LA21 8AD,54.34182800000000,-3.06606100000000
The Coniston Inn,LA21 8AJ,54.36893400000000,-3.06317700000000
The Bluebird Cafe by the lake,LA21 8AN,54.36384300000000,-3.06663100000000
The Yewdale Inn,LA21 8DU,54.36968700000000,-3.07560300000000
LAKES HOT SPOT,LA21 8ED,54.36923599243160,-3.07289695739746
The Sun ,LA21 8HQ,54.36922800000000,-3.07968500000000
Mr H’s tearoom ,LA22 0AD,54.43033000000000,-2.96216200000000
The Lily Bar,LA22 0AD,54.43033000000000,-2.96216200000000
Fellinis,LA22 0BT,54.43048600000000,-2.96404600000000
Lucys on a Plate Ltd,LA22 0BU,54.43083300000000,-2.96334500000000
The Priest Hole,LA22 0BU,54.43083300000000,-2.96334500000000
Ishaas Indian Eatery,LA22 0BZ,54.42988100000000,-2.96312200000000
luigis restaurant,LA22 0BZ,54.42988300000000,-2.96301400000000
Fresher's Cafe,LA22 0EE,54.42885589599610,-2.96561098098755
GNPC CAFE LTD,LA22 0EE,54.4288,-2.9656
Rothay Manor Hotel,LA22 0EH,54.42651500000000,-2.96833000000000
Ambleside Manor,LA22 0EJ,54.42872000000000,-2.96685600000000
Wateredge Inn,LA22 0EP,54.42137000000000,-2.96329300000000
Waterhead,LA22 0ER,54.42062600000000,-2.96181100000000
The Regent Hotel,LA22 0ES,54.42143630981445,-2.96287798881531
Pier Cafe,LA22 0EU,54.41925048828130,-2.96177887916565
YHA Ambleside,LA22 0EU,54.41925100000000,-2.96177800000000
Mr Paul Michael Riley & Mr Stephen Hamer t/a Ambleside Fish and Chips,LA22 0EY,54.41960100000000,-2.96188000000000
Tower Bank Arms,LA22 0LF,54.35247000000000,-2.97020400000000
Cuckoo Brow Inn,LA22 0LQ,54.35151200000000,-2.95850300000000
Queens Head ,LA22 0NS,54.37517900000000,-2.99920400000000
The Red Lion,LA22 0NS,54.37517900000000,-2.99920400000000
Poppi Red,LA22 0NT,54.37394000000000,-2.99791200000000
The Sun Inn,LA22 0NT,54.37394000000000,-2.99791200000000
Ginny's Teapot Ltd,LA22 0NZ,54.37454430000000,-2.99869740000000
KITTCHEN,LA22 0NZ,54.37454430000000,-2.99869740000000
Minstrels Gallery Tearoom,LA22 0NZ,54.37477600000000,-2.99902500000000
The Kings Arms Hotel,LA22 0NZ,54.37477600000000,-2.99902500000000
Zeffirellis,LA22 9AD,54.43191900000000,-2.96469600000000
Apple Pie Eating House & Bakery LTD,LA22 9AN,54.43313900000000,-2.96383100000000
Dodd's Restaurant,LA22 9AN,54.43313900000000,-2.96383100000000
THE FLYING FLEECE,LA22 9AN,54.4331,-2.9638
The Cornish Bakery,LA22 9BS,54.43250100000000,-2.96262900000000
Costa Ambleside ,LA22 9BT,54.43198500000000,-2.96311000000000
Costa Coffee,LA22 9BT,54.43198500000000,-2.96311000000000
Esquires Coffee House,LA22 9BT,54.43198500000000,-2.96311000000000
The Ambleside Inn,LA22 9BU,54.43175700000000,-2.96241100000000
Bar Es,LA22 9DG,54.43099900000000,-2.96282500000000
Jintana Thai Restaurant (Ambleside),LA22 9DJ,54.43093200000000,-2.96441100000000
Misto,LA22 9DJ,54.43093109130860,-2.96441102027893
Stiles,LA22 9DJ,54.43093200000000,-2.96441100000000
Gandhi's Cafe,LA22 9DQ,54.43180847167970,-2.96293592453003
Sheilas Cottage Restaurant,LA22 9DQ,54.43180700000000,-2.96293600000000
ambleside tavern,LA22 9DR,54.43205200000000,-2.96377500000000
The Britannia Inn,LA22 9HP,54.43448400000000,-3.03786400000000
Elterwater Independent Hostel Ltd,LA22 9HX,54.43304100000000,-3.03853600000000
Stove Restaurant - Langdale Hotel ,LA22 9JD,54.43639500000000,-3.04041000000000
Wainwrights Inn - Langdale Hotel ,LA22 9JD,54.4378,-3.0466
BRAMBLES CAFE,LA22 9JE,54.43896000000000,-3.04725900000000
Rydal Mount Tearoom,LA22 9LU,54.44878005981450,-2.98248910903931
Three Shires Inn,LA22 9NZ,54.42142300000000,-3.05473300000000
The Grand at Grasmere,LA22 9PU,54.45680200000000,-3.02710600000000
Thorney How,LA22 9QW,54.46678924560547,-3.03229355812073
The Swan,LA22 9RF,54.46547100000000,-3.02013400000000
rothay garden hotel,LA22 9RJ,54.46308000000000,-3.02234200000000
The Travellers Rest Inn,LA22 9RR,54.47217500000000,-3.02341800000000
The Yan At Broadrayne,LA22 9RU,54.47473900000000,-3.02525600000000
The Good Sport,LA22 9SJ,54.45687484741210,-3.02192497253418
goody blakes restaurant,LA22 9SL,54.45675900000000,-3.02167500000000
Emma's Dell,LA22 9SP,54.4588,-3.0246
Heidis Cafe,LA22 9SP,54.45881000000000,-3.02461100000000
The Inn at Grasmere,LA22 9SS,54.45891300000000,-3.02516900000000
Dale lodge hotel ltd,LA22 9SW,54.45796585083010,-3.02426791191101
The Wordsworth Hotel,LA22 9SW,54.45796585083010,-3.02426791191101
Greens Cafe and Bistro,LA22 9SZ,54.45915700000000,-3.02392600000000
LEWISS,LA22 9TA,54.46021700000000,-3.02299600000000
Victorian House Hotel,LA22 9TA,54.46021700000000,-3.02299600000000
The Lamplighter Dining Rooms,LA23 1AF,54.38028400000000,-2.90579400000000
Cedar Manor,LA23 1AX,54.38166000000000,-2.91273800000000
THE BREW ROOM CAFE LTD,LA23 1BL,54.37764300000000,-2.90562800000000
Windermere Jetty Museum,LA23 1BN,54.37218093872070,-2.91940808296204
First Floor Cafe Limited,LA23 1BQ,54.37917200000000,-2.90178200000000
Hooked Restaurant,LA23 1DP,54.37685100000000,-2.90693500000000
Sugar & Spice Cafe & Bistro,LA23 1DX,54.37815700000000,-2.90651700000000
Brown Sugar,LA23 1DY,54.37886600000000,-2.90662500000000
The Pig,LA23 1EA,54.37849500000000,-2.90586200000000
Briery Wood Country House Hotel,LA23 1ES,54.3861,-2.9209
The Sun Inn,LA23 1HH,54.39319992065430,-2.91856908798218
Windermere Manor Hotel,LA23 1JF,54.3836,-2.9166
Broadoaks Country House Hotel,LA23 1LA,54.40204700000000,-2.91828900000000
Merewood Country House Hotel,LA23 1LH,54.40383529663090,-2.93812489509583
Brockhole Visitor Centre Cafe,LA23 1LJ,54.40193900000000,-2.94164000000000
The Gaddum,LA23 1LJ,54.40193900000000,-2.94164000000000
Low Wood Bay,LA23 1LP,54.41025700000000,-2.94793200000000
Cragwood Country House Hotel,LA23 1LQ,54.39912300000000,-2.93971200000000
Holbeck Ghyll Country House Hotel,LA23 1LU,54.41170800000000,-2.93818200000000
Langdale Chase,LA23 1LW,54.4068,-2.9463
Queens Head Hotel,LA23 1PW,54.42599800000000,-2.90523000000000
Booths,LA23 1QA,54.3799,-2.9040
The Brookside Inn,LA23 2BX,54.37394900000000,-2.90679300000000
Hillthwaite House Hotel Ltd,LA23 2DF,54.37047100000000,-2.90680900000000
Windermere Boutique Hotel ,LA23 2EQ,54.37182800000000,-2.91038000000000
Windermere Park,LA23 2LA,54.37503900000000,-2.90885000000000
The Arts Bar ,LA23 3AE,54.36255200000000,-2.91760800000000
The Westmorland Inn ,LA23 3AP,54.36684100000000,-2.91621100000000
Base Pizza Place,LA23 3BJ,54.36630570000000,-2.91684640000000
Jintana Thai Restaurant (Bowness),LA23 3BJ,54.36607900000000,-2.91716300000000
Mio Mondo,LA23 3BJ,54.3661,-2.9171
Urban Food House,LA23 3BJ,54.36607900000000,-2.91716300000000
Doctor Brews Limited,LA23 3BS,54.36550521850590,-2.91785788536072
House of Siam,LA23 3BS,54.36550700000000,-2.91785800000000
The Alpine Restaurant ,LA23 3BS,54.36550700000000,-2.91785800000000
The Angel Inn,LA23 3BU,54.36467000000000,-2.91797800000000
The Albert Bowness Limited,LA23 3BY,54.36490700000000,-2.91992300000000
The Magic Roundabout,LA23 3BY,54.36490700000000,-2.91992300000000
THE FLYING PIG,LA23 3BZ,54.36553600000000,-2.91982900000000
Costa Coffee Bowness,LA23 3DB,54.36432000000000,-2.92027900000000
Costa Coffee,LA23 3DB,54.36432000000000,-2.92027900000000
The Cornish Bakery,LA23 3DB,54.36432000000000,-2.92027900000000
You and Me Chinese Restaurant ,LA23 3DB,54.36432000000000,-2.92027900000000
GOLDEN FORTUNE,LA23 3DE,54.36371300000000,-2.92089700000000
The Village Inn Bar & Grill,LA23 3DE,54.3637,-2.9210
Macdonald Old England Hotel & Spa,LA23 3DF,54.36412600000000,-2.92222900000000
Stags Head Hotel (Bowness) ,LA23 3DG,54.36434800000000,-2.92129500000000
Stags Head Hotel (Bowness) Ltd,LA23 3DG,54.36434800000000,-2.92129500000000
ChoccoBar Ltd,LA23 3DU,54.3661,-2.9181
KD's Cafe,LA23 3DU,54.36610700000000,-2.91808700000000
La Trattoria,LA23 3DU,54.36610700000000,-2.91808700000000
Folk Cafe,LA23 3DY,54.3646,-2.9207
Bodega Bar & Tapas,LA23 3EB,54.36424400000000,-2.91967700000000
Hyltons Restaurant,LA23 3EB,54.36424400000000,-2.91967700000000
MELA SPICE FUSION LIMITED,LA23 3EB,54.36424400000000,-2.91967700000000
Porto Restaurant,LA23 3EB,54.36424400000000,-2.91967700000000
Bryson's Bakery,LA23 3ED,54.36430600000000,-2.91984800000000
Jacksons Bistro,LA23 3EE,54.36374600000000,-2.92018900000000
CAFFE RIVA,LA23 3EF,54.36382900000000,-2.91992900000000
Belsfield Restaurant & Brasserie,LA23 3EL,54.36168900000000,-2.92117400000000
Boatmans Cafe,LA23 3HB,54.35825800000000,-2.92322100000000
Boardwalk Bar and Grill ,LA23 3HE,54.36173248291020,-2.92745590209961
Boaters Bowness Ltd,LA23 3HE,54.3618,-2.9273
The Old Pump House Cafe,LA23 3HE,54.36161500000000,-2.92735900000000
The Ship Inn,LA23 3HE,54.36161500000000,-2.92735900000000
THE BURNSIDE HOTEL,LA23 3HH,54.36124200000000,-2.92085700000000
The Bluebird Cafe on the bay,LA23 3HJ,54.36138800000000,-2.92284500000000
Bowness Pier Lewis's Coffee Shop,LA23 3HQ,54.36280800000000,-2.92293800000000
Lindeth Howe Hotel,LA23 3JF,54.34963500000000,-2.92376600000000
Lindeth Fell Country House,LA23 3JP,54.34945200000000,-2.92070100000000
The Boathouse Bar & Restaurant Ltd,LA23 3JQ,54.35475950000000,-2.92474410000000
Blackwell The Arts and Crafts House,LA23 3JT,54.3433,-2.9219
Storrs Hall Hotel,LA23 3LG,54.33925800000000,-2.93610000000000
WMBRC Limited,LA23 3LJ,54.33130600000000,-2.93475100000000
Hrishi Restaurant ,LA23 3NE,54.35423900000000,-2.91282200000000
Spice Restaurant ,LA23 3NE,54.35423900000000,-2.91282200000000
Wild Boar,LA23 3NF,54.35119200000000,-2.87024400000000
Brown Horse Winster 2018 Ltd,LA23 3NR,54.33441000000000,-2.89638800000000
Levens Heritage,LA8 0PD,54.25882720947270,-2.77697396278381
Low Sizergh Barn Ltd,LA8 8AE,54.28412500000000,-2.77159800000000
Wheatsheaf Inn,LA8 8AN,54.29945000000000,-2.79905200000000
The Strickland Arms,LA8 8DZ,54.27861900000000,-2.76972800000000
THE VILLA LEVENS,LA8 8EA,54.27461000000000,-2.76699700000000
Gilpin Bridge inn,LA8 8EP,54.26208400000000,-2.81182300000000
Wainwrights Bar & Restaurant,LA8 8EQ,54.25502395629880,-2.79642701148987
Punch Bowl Inn,LA8 8HR,54.31354600000000,-2.85355500000000
Damson Dene Hotel,LA8 8JE,54.31840800000000,-2.89092100000000
The Sun Inn,LA8 8LA,54.34897900000000,-2.82445900000000
Lake House,LA8 8LN,54.34285400000000,-2.87615900000000
The Gateway Inn,LA8 8LX,54.34534835815430,-2.77695894241333
The Hare and Hounds  Levens,LA8 8PN,54.26373600000000,-2.79317100000000
2sisters at Plumgarth,LA8 8QJ,54.3449,-2.7777
EAGLE AND CHILD INN,LA8 9LP,54.37334000000000,-2.81310900000000
More The Artisan Bakery,LA8 9LR,54.3773,-2.8152
Wilf's Café,LA8 9LR,54.37735200000000,-2.81523600000000
Staveley Antiques,LA8 9LU,54.3773,-2.8167
Cafe Ambio at Ings Service Station,LA8 9PY,54.3803,-2.8532
The Watermill Inn,LA8 9PY,54.38027100000000,-2.85333800000000
Lakeland Farm Visitor Centre Ltd,LA8 9QF,54.38317460000000,-2.85057020000000
Babaganoush Soup Kitchen,LA9 4AB,54.32783800000000,-2.74622900000000
Babaganoush Veggie cafe,LA9 4AB,54.3278,-2.7463
finkles restaurant,LA9 4AB,54.32783800000000,-2.74622900000000
the cottage kitchen,LA9 4AB,54.32783800000000,-2.74622900000000
Walton's Bar & Grill Ltd.,LA9 4BD,54.32932100000000,-2.74327300000000
Joshua Tree Bistro,LA9 4BH,54.32820200000000,-2.74402200000000
SUBWAY,LA9 4BH,54.32820200000000,-2.74402200000000
Mumbai restaurant ,LA9 4BN,54.32838700000000,-2.74468600000000
19 The Wine bar,LA9 4DH,54.32683900000000,-2.74638000000000
Booths,LA9 4DP,54.3280,-2.7481
Pizza Express,LA9 4DP,54.32819500000000,-2.74808100000000
Waterside cafe,LA9 4DZ,54.32678400000000,-2.74524200000000
BREW BROTHERS,LA9 4ED,54.32617800000000,-2.74719800000000
Jintana Thai Restaurant (Kendal),LA9 4EN,54.32459600000000,-2.74723200000000
Comida food,LA9 4HE,54.32535552978520,-2.74807596206665
Fish express ,LA9 4HE,54.32535500000000,-2.74807600000000
Shakespeare Inn,LA9 4HE,54.32535500000000,-2.74807600000000
Farmhouse kitchen Ltd,LA9 4JH,54.32690600000000,-2.74871900000000
McDonalds,LA9 4LR,54.32903100000000,-2.74657400000000
Nina’s coffee shop,LA9 4LR,54.32903100000000,-2.74657400000000
McDonald's Restaurants,LA9 4LT,54.32939810000000,-2.74699640000000
The Bristly Hog,LA9 4LT,54.32939810000000,-2.74699640000000
2 sisters at Kendal,LA9 4LU,54.32937300000000,-2.74661100000000
Farrers,LA9 4LY,54.32811100000000,-2.74706500000000
Costa Coffee,LA9 4LZ,54.32907300000000,-2.74855800000000
Thai Kitchen in Kendal,LA9 4ND,54.3281,-2.7480
Kendal Golf Club,LA9 4PQ,54.32678200000000,-2.75419100000000
Stanley's Coffeehouse & Kitchen,LA9 4QB,54.3288,-2.7490
Corner 124,LA9 4QG,54.33089200000000,-2.74791500000000
PEDRO'S CASA,LA9 4QG,54.33089200000000,-2.74791500000000
Charlies Cafe Bar,LA9 4RA,54.32990200000000,-2.74677400000000
The new union Kendal ,LA9 4RF,54.33091354370120,-2.74749994277954
Ye Olde Fleece Inn,LA9 4SX,54.32729700000000,-2.74783400000000
Caffe Nero,LA9 4TN,54.32862100000000,-2.74607400000000
Globe Inn ,LA9 4TN,54.32862100000000,-2.74607400000000
Relish No 37 Ltd,LA9 4TP,54.32830080000000,-2.74568480000000
The Union Jack Cafe,LA9 5AF,54.32270700000000,-2.74607500000000
Stonecross Manor Hotel,LA9 5HP,54.31337200000000,-2.75282300000000
Riverside Hotel ,LA9 6BZ,54.3342,-2.7386
Carus Green Golf Club,LA9 6EB,54.34283800000000,-2.75057700000000
Eastern Balti ,LA9 6EN,54.33088300000000,-2.74067200000000
The Duke Of Cumberland,LA9 6ES,54.33387800000000,-2.73735800000000
Kendal Rugby Club,LA9 6NY,54.3456,-2.7316
Alexanders pub ,LA9 6RG,54.32279100000000,-2.72203000000000
Castle Green Hotel,LA9 6RG,54.32365900000000,-2.72101500000000
Joey's cafe,LA9 7DE,54.32541275024410,-2.74329590797424
Hansens Ice Cream Parlour,LA9 7LH,54.31052800000000,-2.74039800000000
THE STATIONINN(OXENHOLME)LTD,LA9 7RF,54.30335998535156,-2.71721816062927
