name,postcode,lat,lon
New World blackbird and boomslang,TS9 6JE,54.468274865158000,-1.126095966926410
Partridge and Towhee,TS9 7ER,54.449416000000000,-1.155877000000000
River dolphin and bandy-bandy,TS9 7ET,54.451782088400200,-1.139726565768930
tiger snake and Tit-tyrant,TS9 7HN,54.436582490119200,-1.147044542182680
Buzzard and agama,TS9 7JX,54.395034288015500,-1.126959761025090
thorny devil and flying dragon,TS9 7LQ,54.334271962823600,-1.118542826253750
Boto and Boto,YO18 8NT,54.254979865469500,-0.797701183611275
dukite and Recurvebill,YO18 8PA,54.257317000000000,-0.800320000000000
galliwasp and monitor,YO18 8PE,54.260663671818200,-0.810738824571853
adder and python,YO18 8PH,54.269802694731600,-0.827090614075548
amphisbaena and kabaragoya,YO18 8PL,54.264287049468000,-0.826954000000000
leguaan and Masked owl,YO18 8RQ,54.368209097606000,-0.904513157182030
puff adder and gopher snake,YO21 2AT,54.441037176412500,-0.852410915875090
Rat and diamondback terrapin,YO21 2DR,54.461368946684600,-0.961976813016844
bearded lizard and Chicken,YO21 2EE,54.463288372147400,-0.940483000000000
Condor and gavial,YO21 2EQ,54.462958191875800,-0.939165000000000
Mink and Petrel,YO21 2LQ,54.453572848839700,-0.877078609168543
Moluccan boobook and Parakeet,YO21 2PW,54.440540412744500,-0.807184000000000
Logrunners and Zebra,YO62 5HP,54.250197570435800,-1.059604033449350
Ice seal and Minke whale,YO62 5LJ,54.258102000000000,-1.112216000000000
whip snake and gopher snake,YO62 6BX,54.269815039559000,-0.938034284902192
terrapin and Scimitar babbler,YO62 6EP,54.270274004968500,-0.935043490742318
Duck and mamba,YO62 6ES,54.271887677491200,-0.940699065751238
Egret and perentie,YO62 6FB,54.269200966764000,-0.931324581341359
crocodile and White ibis,YO62 6HZ,54.269873172728200,-0.935453065532477
wall lizard and leathery turtle,YO62 6NE,54.266101000000000,-0.905564000000000
Recurvebill and boa constrictor,YO62 6RZ,54.262738156621200,-0.858122000000000
Ibex and gaboon viper,YO62 6SE,54.264907433643100,-0.858321043200446
Booted eagles and Songlark,YO62 6SH,54.260287000000000,-0.859167256468469
cobra and Eagle,YO62 6YB,54.265934000000000,-0.931000471637520
Mink and sidewinder,YO62 7HH,54.251312229283800,-0.955868847824394
alligator and skink,YO62 7SY,54.253881000000000,-0.999059000000000
Condor and cobra,YO62 7TF,54.301000740205100,-1.043110656090260
crocodile and death adder,YO62 7UB,54.263060294577400,-0.973795989920048
