name,postcode,lat,lon
Chequers Inn,DL2 2NT,54.4664,-1.5422
Uno momento,DL6 1DP,54.3411,-1.4332
Roots Farm Shop & Cafe,DL6 2LE,54.4244,-1.3415
WHITEGATES NURSERY CAFE,DL6 2LL,54.4262,-1.3633
The Topiary Coffee Shop,DL6 2PW,54.3560,-1.4489
The Village Inn,DL6 2RL,54.3627,-1.4179
The Green Tree Inn,DL6 2UA,54.3607,-1.4162
Sammies Cafe Northallerton,DL6 2XB,54.3485,-1.4388
GOLDEN LION,DL6 3AA,54.3688,-1.3014
The Queen Catherine Hotel,DL6 3AG,54.3684,-1.3001
The Black Horse Inn,DL6 3ED,54.4133,-1.2669
The Blacksmiths Arms,DL6 3EW,54.4134,-1.2695
The Rusty Bike,DL6 3EW,54.4134,-1.2695
Tomahawk Steakhouse,DL6 3HQ,54.4267,-1.2717
The Blue Bell Inn,DL6 3NF,54.3990,-1.3089
Woodlands Farm,DL6 3PY,54.3547,-1.3080
Fox & Hounds,DL6 3QP,54.3416,-1.3918
The Crosby,DL6 3SP,54.3083,-1.3900
The Beeswing Inn (East Cowton),DL7 0BD,54.4229,-1.5276
The Herdsman,DL7 0ET,54.4295,-1.5612
Arden Arms ,DL7 0JB,54.4163,-1.5603
Romanby Golf Course Limited,DL7 0PE,54.3409,-1.4565
The Coore Arms,DL7 0QP,54.3246,-1.5393
Black Horse Inn,DL7 0SH,54.3458,-1.5660
Station Hotel,DL7 8AN,54.3328,-1.4410
Red Chilli Restaurant LTD,DL7 8DW,54.3432,-1.4381
The Standard,DL7 8EE,54.3441,-1.4379
THE DURHAM OX,DL7 8JX,54.3370,-1.4340
Costa Coffee,DL7 8JZ,54.3383,-1.4342
Tejanos,DL7 8JZ,54.3383,-1.4342
Tickle Toby Inn,DL7 8JZ,54.3383,-1.4342
Bettys Northallerton,DL7 8LF,54.3393,-1.4343
1882 Cafe & Bistro,DL7 8LP,54.3398,-1.4351
Barkers Kitchen,DL7 8LP,54.3398,-1.4351
White Horse Cafe,DL7 8LU,54.3413,-1.4358
Costa Coffee,DL7 8LW,54.3405,-1.4353
Katch,DL7 8PP,54.3402,-1.4340
The Golden Lion Hotel,DL7 8PP,54.3402,-1.4340
Lewis & Cooper Ltd,DL7 8PT,54.3404,-1.4336
Central Stop cafe,DL7 8PY,54.3402,-1.4335
The Terrace Cafe,DL7 8QB,54.3408,-1.4339
The sandwich bar,DL7 8QR,54.3405,-1.4345
Tree View Cafe,DL7 8UB,54.3437,-1.4416
Simply Dutch Cafe and Restaurant,DL7 9AS,54.3048,-1.5603
The Reubens,DL7 9AY,54.3042,-1.5612
Otterington Shorthorn ,DL7 9HP,54.2822,-1.4269
spring house farm shop and cafe,DL7 9LG,54.3122,-1.5382
The Wellington Heifer,DL7 9PU,54.3230,-1.4874
the old royal george,DL7 9QS,54.3228,-1.4981
North Yorkshire Restaurants t/as McDonald's,DL8 1DT,54.2989,-1.5665
Exelby Green Dragon,DL8 2HA,54.2781,-1.5497
The Woodman Inn,DL8 2HX,54.2602,-1.5292
Crathorne Hall Hotel,TS15 0AR,54.4710,-1.3167
THE CRATHORNE ARMS,TS15 0BA,54.4615,-1.3216
Sadlers Cafe & Bistro,TS9 5AB,54.4695,-1.1940
The Leven,TS9 5AD,54.4696,-1.1919
The Spread Eagle,TS9 5AD,54.4696,-1.1919
TRUVAI,TS9 5BQ,54.4693,-1.1945
CHAPTERS DELI BISTRO & WINE BAR,TS9 5DG,54.4698,-1.1926
Il Mulino ,TS9 5DN,54.4708,-1.1908
Uno Momento ,TS9 5DQ,54.4701,-1.1929
y thai,TS9 5DQ,54.4701,-1.1929
The Mill ,TS9 5ER,54.4721,-1.1884
The Green Apple Cafe & Bistro,TS9 7AB,54.4619,-1.1813
TK's Cafe & Catering Services,TS9 7AE,54.4620,-1.1803
Black Swan,TS9 7AW,54.4457,-1.1722
The Sutton Arms ,TS9 7BW,54.4204,-1.2362
the blackwell ox,TS9 7DJ,54.4331,-1.2193
Lordstones Country Park,TS9 7JH,54.4154,-1.1911
THE CARPENTERS ARMS,YO7 2DP,54.2555,-1.2842
Old Oak Tree,YO7 2NL,54.2503,-1.3485
Dog and Gun ,YO7 4AZ,54.2862,-1.3340
Dog and Gun Knayton ,YO7 4AZ,54.2862,-1.3340
the buck inn,YO7 4HD,54.2722,-1.4613
