name,id,postcode,lat,lon
skink and gaboon viper,1748033,BT93 6EH,54.417815000000000,-7.814025000000000
amethystine python and dukite,1938282,BT93 4BL,54.443644000000000,-8.140099000000000
diamond snake and Perching duck,1747884,BT93 4AP,54.371144000000000,-8.029611000000000
bandy-bandy and bearded dragon,1747932,BT93 5BD,54.332092000000000,-7.942503000000000
gaboon viper and Macaw,1746771,BT92 1DZ,54.272993000000000,-7.807663000000000
Old World quail and rock snake,1748005,BT93 6BF,54.429175000000000,-7.816345000000000
Capuchin and dugite,1746748,BT92 1BA,54.275155000000000,-7.765531000000000
Egret and B,1748071,BT93 6HH,54.402484000000000,-7.847614000000000
Bronzewing pigeon and Asiatic leopard,1748054,BT93 6FY,54.416475000000000,-7.819084000000000
Kākāriki and sidewinder,1747894,BT93 4BS,54.449585000000000,-8.129051000000000
Magpie and Greenbul,1747919,BT93 4GP,54.413525000000000,-8.088664000000000
smooth snake and Kangaroo,1747843,BT93 3DJ,54.466172000000000,-8.163139000000000
leguaan and Vulture,1903492,BT74 5AP,54.348871000000000,-7.804294000000000
Asiatic leopard and kabaragoya,1748067,BT93 6GY,54.398630000000000,-7.777944000000000
Treepie and Flameback,1739864,BT74 5AA,54.350188000000000,-7.792064000000000
copperhead and Viscacha,1739877,BT74 5BD,54.346015000000000,-7.799264000000000
Jerboa and Fulmarine petrel,1938224,BT93 3DR,54.464575000000000,-8.046332000000000
Perching duck and diamondback terrapin,1748056,BT93 6GF,54.416273000000000,-7.854017000000000
Myna and Greenbul,1747993,BT93 6AG,54.427780000000000,-7.936467000000000
Parakeet and python,1748076,BT93 6HR,54.461024000000000,-7.830326000000000
flying dragon and Goose,1938293,BT93 4DN,54.393058000000000,-8.003486000000000
Boto and B,1747882,BT93 4AF,54.429695000000000,-8.090222000000000
snapping turtle and Polecat,1747958,BT93 5EP,54.347017000000000,-7.984016000000000
Parakeet and Crow,1746749,BT92 1BD,54.276717000000000,-7.769544000000000
Ibex and monitor,1734459,BT74 8BG,54.374753000000000,-7.821743000000000
boa constrictor and Bronzewing pigeon,1747865,BT93 3FU,54.473566000000000,-8.095238000000000
