name,postcode,lat,lon
Argus and snapping turtle,IV18 0JY,57.700794818802400,-4.139648310398970
Old World quail and crocodile,IV18 0LT,57.703622000000000,-4.161987000000000
ringhals and rock python,IV18 0PD,57.764857727109700,-4.094982846964630
green turtle and milk snake,IV18 0QD,57.723993048924500,-4.102695640065090
rattlesnake and Viscacha,IV19 1BN,57.808856832711900,-4.048181456965500
moloch and gopher snake,IV19 1FF,57.805489000000000,-4.065225000000000
Wallaby and carpet snake,IV19 1HJ,57.813932099107900,-4.060994411072530
rat snake and tuatara,IV19 1JL,57.808917839810600,-4.061600392840410
diamond python and Fish eagle,IV19 1LF,57.828782580118600,-4.180326179160450
Marmoset and Fish eagle,IV19 1LP,57.814620556859200,-4.066168431106310
puff adder and hoop snake,IV19 1LU,57.812221065563100,-4.068960270899020
Komodo dragon and sand lizard,IV19 1LZ,57.797421571510900,-4.034105242608450
Egret and gecko,IV19 1PY,57.816019269553500,-4.065793901505510
Thicketbird and Quetzal,IV19 1QJ,57.751044001999900,-4.021717750865220
B and crocodile,IV19 1QT,57.705890181817300,-4.011965598475200
sand lizard and Grouse,IV20 1RE,57.828204000000000,-3.824941000000000
water snake and Peafowl,IV20 1RX,57.816036000000000,-3.920083000000000
crocodile and crocodile,IV20 1SY,57.775042715818800,-3.965698324865630
turtle and Coati,IV20 1TJ,57.773671520801000,-3.962580167801090
Tahr and frilled lizard,IV20 1UA,57.757870823762300,-3.906508351236230
gopher snake and Mamo,IV20 1UL,57.756390198791100,-3.913539883386580
bushmaster and anaconda,IV20 1XE,57.765658825031100,-3.895823027007650
Night heron and Hawaiian honeycreeper,IV20 1XZ,57.751711493053000,-3.919930628208380
cerastes and Ice seal,IV20 1YS,57.834976446233400,-3.827574327396720
diamondback turtle and flying lizard,IV25 3AE,57.879689000000000,-4.024939000000000
Jackal and racer,IV25 3AP,57.879836297633300,-4.027356332194190
Tit-tyrant and gecko,IV25 3HW,57.881390339638700,-4.031306171391170
python and Pratincole,IV25 3LU,57.877555639358200,-4.025018734675550
Buzzard and cobra de capello,IV25 3QP,57.883548860196900,-4.037331456768370
Zebra and Herring gull,IV25 3QW,57.882252812015500,-4.035234142171750
leguaan and gaboon viper,IV25 3SB,57.880389114795800,-4.031553288043680
elapid and racer,IV25 3SH,57.880714094400000,-4.029532000000000
hoop snake and Flameback,IV25 3SQ,57.880243825432200,-4.027716584221870
skink and leguaan,IV25 3WE,57.880394794942000,-4.031554183314870
