name,postcode,lat,lon
Corner House,BT44 0PH,55.12557800000000,-6.04256700000000
Mary McBrideâ€™s,BT44 0PH,55.12557800000000,-6.04256700000000
Harrys,BT44 0RR,55.08038000000000,-6.06458500000000
Upstairs at Joes,BT44 0RR,55.08038000000000,-6.06458500000000
Armada Inn,BT53 8RH,55.13177900000000,-6.32610000000000
Tea at Tillys,BT53 8RQ,55.13120900000000,-6.32642100000000
The Scenic Inn,BT53 8UT,55.09724500000000,-6.34507300000000
O'Connors Bar,BT54 6AA,55.20174600000000,-6.24887100000000
Central bar ,BT54 6AD,55.20204200000000,-6.24881100000000
Cellar Restaurant,BT54 6AW,55.20090800000000,-6.24992900000000
The Diamond Bar and Bistro,BT54 6AW,55.20090800000000,-6.24992900000000
Thyme&Co,BT54 6BJ,55.20358100000000,-6.24275900000000
Costa Coffee & Bistro Ballycastle,BT54 6BN,55.20556300000000,-6.24129000000000
Marconi's Seaside Bistro ,BT54 6BN,55.2055,-6.2413
Marine Hotel Ballycastle ,BT54 6BN,55.20556300000000,-6.24129000000000
Martin McKinley T/A Anzac Restaurant,BT54 6DP,55.2012,-6.2516
Glenmore House,BT54 6LR,55.22701200000000,-6.32067300000000
Fullerton Arms ,BT54 6LX,55.23627600000000,-6.35779100000000
Red Door ,BT54 6NA,55.24193900000000,-6.36741600000000
The Red Door Tea Room,BT54 6NA,55.24193900000000,-6.36741600000000
THE SALTHOUSE HOTEL ,BT54 6PF,55.19476699829100,-6.24515819549561
The Golf Shoe Restaurant,BT54 6QP,55.2038,-6.2356
Hunters Bar,BT54 6RA,55.19897300000000,-6.18637300000000
