name,postcode,lat,lon
Komodo dragon and Mouse,DG10 9NP,55.261415274471400,-3.357179706451240
bull snake and chuckwalla,DG10 9NU,55.241936862233700,-3.398935930935520
Linsang and Boto,DG10 9PL,55.292098119865300,-3.417850552820570
smooth snake and tree snake,DG10 9RH,55.280577099061200,-3.446959803484530
Pitohui and Tahr,DG11 1EG,55.212323153792800,-3.416269949429000
smooth snake and gopher snake,DG11 1JX,55.088454465117300,-3.416478218086180
brown snake and diamondback,DG11 1NG,55.128213417416000,-3.440941209469350
Egret and galliwasp,DG11 1RH,55.128145469889800,-3.454975918572140
rattlesnake and mountain devil,DG11 1TA,55.151778000000000,-3.411754000000000
Mole and racer,DG11 1TX,55.162892917957400,-3.441030201767160
Dolphin and horned viper,DG11 2DU,55.115388452368900,-3.366114522048870
boomslang and Grouse,DG11 2HA,55.122033426104300,-3.354517643261480
skink and blue racer,DG11 2LZ,55.129310769957400,-3.349839226609310
galliwasp and water snake,DG11 2NG,55.143234345723600,-3.293214833001380
frill-necked lizard and Capuchin,DG11 2NN,55.157990741817600,-3.244709000000000
grass snake and amphisbaena,DG11 2QJ,55.147131712673000,-3.217600497298620
carpet snake and water snake,DG11 2RG,55.138975000000000,-3.353648000000000
sand lizard and Rat,DG11 3AH,55.076711000000000,-3.161704000000000
lizard and goanna,DG11 3JR,55.083139000000000,-3.181018000000000
Fish eagle and River dolphin,DG11 9AF,55.120212000000000,-3.355584000000000
anaconda and thorn lizard,DG13 0LT,55.123216928613000,-3.089617945739600
whip snake and Kestrel,DG13 0QH,55.266329545546700,-3.174487730558550
