name,postcode,lat,lon
Flameback and wall lizard,DG10 9NN,55.250008273897700,-3.362281264608190
Fox and flying lizard,DG11 1LG,55.120206038112600,-3.355600469073290
Polecat and Pitohui,DG11 2AW,55.127235722645200,-3.356230765366520
amphisbaena and Kestrel,DG11 2AX,55.122912987245100,-3.358656029312990
Jackal and gopher snake,DG11 2DH,55.118318199961600,-3.356461629315290
Boto and Buzzard,DG11 2DZ,55.118726174719100,-3.358560908721480
Badger and mud turtle,DG11 2HA,55.122033426104300,-3.354517643261480
rat snake and Piping shrike,DG11 2LW,55.230006362402600,-3.284173643090520
brown snake and Zebra,DG11 2ND,55.124879985378200,-3.346615960974320
Magpie and thorny devil,DG11 2NQ,55.155844449338500,-3.287109686227500
diamondback terrapin and Greenbul,DG11 2NU,55.185855448425900,-3.255659553159770
B and Wader,DG11 2NZ,55.192134137340400,-3.287824343082430
Solitaire and American sparrow,DG11 2PS,55.098677378685600,-3.322555553372680
king cobra and Condor,DG11 2PX,55.119493864127300,-3.284481903749060
box turtle and Grouse,DG11 2RW,55.155969052056100,-3.360846971546280
worm lizard and Meadowlark,DG13 0AT,55.152804963667900,-3.005463546456040
Stilt and viper,DG13 0BA,55.153017565868000,-3.008011134814970
crocodile and slowworm,DG13 0DY,55.148098209835100,-2.999743497583680
Mockingbird and Old World quail,DG13 0JG,55.150398160972200,-2.997619866514830
Philippine hawk-owl and python,DG13 0LP,55.147258320153100,-3.031511628788030
