name,id,postcode,lat,lon
White ibis and Thrasher,1495019,CA6 5QJ,55.119275325839200,-2.822362850361430
Booted eagles and goanna,1321913,DG11 3HE,55.114212000000000,-3.150297000000000
blind snake and Snipe,1321006,DG14 0RR,55.097210071193400,-2.894308484025500
leathery turtle and gecko,1321002,DG14 0RL,55.086910988250000,-2.925662803321470
copperhead and bull snake,1321069,DG14 0UX,55.078977623067100,-2.952248856315220
American sparrow and Pitohui,1320987,DG13 0QG,55.217425770101800,-3.136485549459950
loggerhead and black snake,206133,TD9 0TQ,55.145040554447600,-2.858617680816390
Lemming and sidewinder,1321317,DG13 0DZ,55.148234136575600,-2.999605678750850
Skunk and Guillemot,1321298,DG13 0BH,55.153089427678200,-3.002567524070040
Tahr and gopher snake,1320839,DG13 0HT,55.174843784759900,-2.938439761106850
thorny devil and Duck,1321904,DG11 3EU,55.087299806950200,-3.187423321474590
blue racer and elapid,1321921,DG11 3HQ,55.117769000000000,-3.168414000000000
galliwasp and dugite,1321068,DG14 0UU,55.078688676016300,-2.953573399555260
Vulture and deaf adder,206488,TD9 0QX,55.179817814720900,-2.815365342050650
jew lizard and Zebra,1321738,DG11 2QG,55.136420000000000,-3.202199000000000
soft-shelled turtle and monitor,1320996,DG13 0QT,55.292319879459600,-3.163050653198590
Darwin's finches and frill-necked lizard,1320954,DG13 0LW,55.149377504468100,-2.987222386760910
blue tongue and agamid,1321310,DG13 0DR,55.149586172459800,-3.000204384818050
smooth snake and Thrasher,1321914,DG11 3HF,55.129544575379500,-3.143428974867120
Badger and B,1321297,DG13 0BG,55.151473000000000,-3.008031289400860
