name,postcode,lat,lon
diamond snake and Partridge,NE19 1AT,55.232449944998000,-2.176810574139020
Bunting and turtle,NE19 1AX,55.231315000000000,-2.101336000000000
Treepie and frill-necked lizard,NE19 1AZ,55.232621620792400,-2.106874000000000
Marmoset and Perching duck,NE19 1BL,55.216140000000000,-2.118727000000000
Marmoset and tuatara,NE19 1TA,55.265694460587700,-2.245915388519220
gopher snake and skink,NE19 2AY,55.110711211155600,-2.009046417648210
gopher snake and Elephant,NE19 2LS,55.088928774096600,-2.012817078825570
skink and Stint,NE48 1LD,55.162645997649600,-2.351572531367190
New World blackbird and gaboon viper,NE48 1RS,55.204636134676400,-2.367215135719540
milk snake and habu,NE48 2AS,55.143422000000000,-2.255640972079330
loggerhead and Warbler,NE48 2DF,55.144827839663500,-2.249108704088120
Wader and indigo snake,NE48 2EX,55.128410000000000,-2.195341000000000
diamond snake and Ice seal,NE48 2HZ,55.157782342541600,-2.259280707599550
tokay and copperhead,NE48 2JL,55.143988273726200,-2.255316117689690
Goose and Elephant,NE48 2JN,55.143798978373700,-2.255597299785760
Herring gull and rock python,NE48 2RG,55.164276895743000,-2.154957160721300
alligator and Dorcopsis,NE48 2RY,55.175821593769000,-2.170074955057930
Myna and Black cockatoo,NE48 2SJ,55.177279163126100,-2.148020495568980
Dorcopsis and milk snake,NE48 3BN,55.114969308002500,-2.296660000000000
Old World quail and Old World warbler,NE48 3DH,55.084925686908000,-2.270777066150340
Shearwater and Chipmunk,NE48 3LE,55.087791997126500,-2.222089308860220
box turtle and Stilt,NE48 3LG,55.087599505344900,-2.219221287385480
blindworm and Polecat,NE48 3LH,55.088128149894100,-2.220070180010580
caiman and mamba,NE48 3QB,55.118365359102500,-2.261361173592270
pit viper and boomslang,NE48 3QE,55.111514000000000,-2.271773981220400
Gila monster and Polecat,NE48 4AY,55.079234488687600,-2.139277860223690
