name,postcode,lat,lon
massasauga and bull snake,NE22 5AB,55.129623111685900,-1.590553527135920
Solitaire and Siskin,NE22 5BF,55.132845944463600,-1.594990569561160
Grackle and coral snake,NE22 5HS,55.134817164116200,-1.574831087080990
kabaragoya and Perching duck,NE22 5LJ,55.135742001716300,-1.566962892608920
tortoise and fer-de-lance,NE22 5PY,55.137751000000000,-1.575835000000000
amethystine python and Grosbeak,NE22 5QR,55.134560437678200,-1.586409271311450
tuatara and milk snake,NE22 5ST,55.129231905186600,-1.594493911657440
leathery turtle and Crow,NE22 5TX,55.130838129163200,-1.596516489903410
snake and Moluccan boobook,NE22 5UD,55.130932389508500,-1.597848634780290
Condor and Dolphin,NE22 6AD,55.118253000000000,-1.628910000000000
Thrasher and cobra,NE22 6AR,55.132704050300400,-1.638484153497730
Meadowlark and Scimitar babbler,NE22 6BT,55.133624000000000,-1.616815000000000
Armadillo and blind snake,NE22 6DE,55.133077616462400,-1.605355552896470
Badger and Ibex,NE22 6JZ,55.132956678465000,-1.601325890810190
mountain devil and Bunting,NE22 6LJ,55.134654522377800,-1.601167818099710
Mink and mountain devil,NE22 6NQ,55.134489347150900,-1.611239141720440
Tree warbler and tuatara,NE22 6NR,55.137846011360600,-1.609951648195440
bull snake and Jay,NE22 6NX,55.139502394618900,-1.610876716108150
Tahr and Vole,NE22 7AB,55.147698000000000,-1.573251000000000
Nukupuʻu and horned viper,NE22 7DQ,55.146150333752300,-1.591121833040610
Lemming and death adder,NE22 7DX,55.140246011506300,-1.565000328924230
Peafowl and Buzzard,NE22 7EE,55.143114872026300,-1.563133616664320
tortoise and python,NE22 7EX,55.141577215790700,-1.560342310084110
Bunting and Gila monster,NE22 7HF,55.141079497295900,-1.564379458096500
loggerhead and snapping turtle,NE22 7JW,55.140942737011900,-1.568883234667820
giant tortoise and Komodo dragon,NE22 7LW,55.137509957065800,-1.595068867480870
sand lizard and leguaan,NE23 1AU,55.089120000000000,-1.595557000000000
Gila monster and pit viper,NE23 1DN,55.086628607388700,-1.583739190033920
tree snake and diamondback turtle,NE23 1DY,55.085649286947200,-1.581164505662780
Goose and boomslang,NE23 1HW,55.091828786128900,-1.601734926914200
Dorcopsis and sand lizard,NE23 1NB,55.091040834197200,-1.578522991122430
adder and Stilt,NE23 1NQ,55.089057644237500,-1.581927927386670
krait and diamondback terrapin,NE23 1NU,55.090565021109900,-1.578653334088000
rock snake and Zebra,NE23 1PH,55.092036834918600,-1.580706076422930
sand viper and Fox,NE23 1PR,55.094359725534200,-1.579396911565270
Viscacha and alligator,NE23 1PY,55.092199024322700,-1.578228786400840
Buzzard and Recurvebill,NE23 1RE,55.090108261669400,-1.586977574147210
ringhals and iguana,NE23 1RL,55.089183149635400,-1.587112439926360
Siskin and Jackal,NE23 1WP,55.102403488602900,-1.603902338909030
Booted eagles and viper,NE23 2EE,55.082778490238500,-1.569633983447580
Diving bird and Meadowlark,NE23 2UB,55.096034275085400,-1.569993120982950
agamid and Rat,NE23 2XP,55.094258687890800,-1.576170132352620
tuatara and terrapin,NE23 2YL,55.087286438871500,-1.571308909329560
Cuscus and king snake,NE23 3AS,55.109479290522100,-1.580837071946150
tortoise and diamondback terrapin,NE23 3HL,55.102550048279200,-1.573183000000000
dugite and Parakeet,NE23 3XN,55.101481965549300,-1.570592897870990
giant tortoise and River dolphin,NE23 3YU,55.100394034221800,-1.594017803121150
viper and taipan,NE23 3YX,55.100253075367300,-1.592169998929570
Crow and Piping shrike,NE23 6BZ,55.077799000000000,-1.559600000000000
agama and blue racer,NE23 6DN,55.082323608173000,-1.583548902486230
Wader and mamba,NE23 6JH,55.079639886512100,-1.581838127154870
bearded lizard and diamondback turtle,NE23 6QA,55.075560438626800,-1.581911971843040
hognose snake and gavial,NE23 6QH,55.086488201199700,-1.584727610447770
Parakeet and dugite,NE23 6QL,55.086129303021100,-1.584887986233580
chuckwalla and habu,NE23 6RB,55.081835370086800,-1.569753752978590
Night heron and Wallaby,NE23 6RH,55.079030209700500,-1.571882706395660
Grosbeak and amphisbaena,NE23 6SU,55.081364353801700,-1.581585188187050
Snipe and Komodo dragon,NE23 6UF,55.079950713577600,-1.594036770758160
Chicken and grass snake,NE23 6XW,55.077028840951500,-1.552576665108630
Ice seal and thorn lizard,NE23 6YB,55.085085000000000,-1.592027000000000
blue racer and gecko,NE24 1JA,55.129977160429400,-1.517795892944700
fer-de-lance and Old World warbler,NE24 1LH,55.129415000000000,-1.511796000000000
deaf adder and Grackle,NE24 1LY,55.128969000000000,-1.510325064577700
Vulture and Tree warbler,NE24 1NX,55.132460532321200,-1.516134000000000
Wader and bearded lizard,NE24 1QH,55.144123219734100,-1.518300045787790
Triller and White ibis,NE24 1QP,55.143446991610700,-1.520002537127550
Quetzal and smooth snake,NE24 1RB,55.150094677550900,-1.524080902540180
racer and python,NE24 2EP,55.123167197859100,-1.506932919800080
Quetzal and Quetzal,NE24 2HF,55.123922305341900,-1.509228697483150
sidewinder and New World blackbird,NE24 2HU,55.121257098721700,-1.510139425388890
brown snake and taipan,NE24 2JW,55.126189588806700,-1.509922264409900
Quetzal and Masked owl,NE24 2LB,55.125487000000000,-1.518289000000000
death adder and agamid,NE24 2LR,55.125330232184300,-1.512990642964580
Badger and Goose,NE24 2NX,55.126795123768400,-1.517551941770090
Treepie and Schneider python,NE24 2SH,55.121628852800500,-1.520123000000000
diamond snake and Cuscus,NE24 2TF,55.120159431208600,-1.518823508753000
Maya and lizard,NE24 2UF,55.114812107005800,-1.523246008255580
puff adder and chameleon,NE24 3AT,55.126141783499700,-1.500357037657660
Gull and Tit-tyrant,NE24 3BA,55.124604270448000,-1.502336355551290
sand viper and Shearwater,NE24 3BQ,55.125916000000000,-1.502789000000000
bull snake and Stilt,NE24 3BS,55.125513000000000,-1.498060000000000
python and carpet snake,NE24 3EG,55.119529367004400,-1.502885471038670
glass snake and wall lizard,NE24 3LR,55.113304066903000,-1.521367085256790
slowworm and wall lizard,NE24 3NN,55.117569254692000,-1.513743503409750
thorn lizard and king cobra,NE24 3PP,55.103716970576900,-1.514820630052290
gecko and worm lizard,NE24 3QE,55.108782022715800,-1.505103585269010
chameleon and Siskin,NE24 3RE,55.113141444804500,-1.525742786189720
caiman and Hawaiian honeycreeper,NE24 3RJ,55.110519677182900,-1.510380451997630
Prion and slowworm,NE24 3RU,55.110673000000000,-1.501569000000000
Chickadee and Cloud rat,NE24 3RX,55.111814624756700,-1.515114465856520
Marmoset and snapping turtle,NE24 3TX,55.114424046224900,-1.511477155661970
frilled lizard and gecko,NE24 4BD,55.110867021257300,-1.532478891666030
snake and tuatara,NE24 4BL,55.111051717395200,-1.533777821611020
Treepie and Maya,NE24 4GR,55.119463000000000,-1.540657000000000
Elephant and Wallaby,NE24 4HE,55.101004396696300,-1.560144943867270
perentie and Nukupuʻu,NE24 4HF,55.108084673307700,-1.567465608219550
puff adder and lizard,NE24 4LA,55.120104000000000,-1.548662000000000
Cloud rat and blind snake,NE24 4NB,55.113357211984400,-1.530411868294420
perentie and viper,NE24 4NG,55.112212221713500,-1.529437690082920
tuatara and amethystine python,NE24 4NX,55.114177000000000,-1.528396000000000
horned viper and Polecat,NE24 4PF,55.110645623465100,-1.528656636393350
alligator and River dolphin,NE24 4PH,55.117055337641200,-1.536373216577570
Jackal and Mouse,NE24 4QN,55.116733110743300,-1.529666783328160
caiman and chameleon,NE24 4RP,55.132349000000000,-1.545669000000000
dugite and sidewinder,NE24 4RT,55.131451427431600,-1.553333118802190
diamond snake and Mockingbird,NE24 4TE,55.106516439942700,-1.532137804992160
Polecat and sea snake,NE24 4TJ,55.106233498700000,-1.527862328400000
tuatara and Parrotlet,NE24 4TN,55.107136858900000,-1.529089945800000
Ground sloth and python,NE24 4TW,55.126275000000000,-1.561293000000000
Goose and frilled lizard,NE24 5AZ,55.125995020002100,-1.535987443599350
Condor and harlequin snake,NE24 5BL,55.126859881240900,-1.523572000000000
Hawaiian honeycreeper and diamondback turtle,NE24 5BQ,55.133196000000000,-1.525849000000000
Gull and Magpie,NE24 5HE,55.128524129562500,-1.529998756251080
Wader and anaconda,NE24 5JB,55.126546754803700,-1.527559925122760
tokay and skink,NE24 5LG,55.129206902002800,-1.546567496384510
Macaw and gaboon viper,NE24 5LS,55.128010639085200,-1.546267396801290
elapid and Black jay,NE24 5QB,55.128160699632100,-1.533641346048910
Vole and rattlesnake,NE24 5QE,55.128317877903700,-1.532447646033450
sidewinder and hoop snake,NE24 5RN,55.118159292378000,-1.526671118467620
black snake and cycling lizard,NE24 5RY,55.118151154295100,-1.529211133282760
thorny devil and Quetzal,NE24 9DT,55.127599818100000,-1.506784415700000
Elephant and Grouse,NE25 0ST,55.085251075357300,-1.519508782030870
boa and Fish eagle,NE26 4QP,55.082156633462800,-1.496456466063980
swift and ringhals,NE26 4RA,55.083209886329200,-1.473509865438850
Chipmunk and amethystine python,NE26 4RG,55.078897148884800,-1.469509709603550
glass snake and death adder,NE26 4RT,55.084819711721000,-1.471734191891590
death adder and constrictor,NE61 1AT,55.168999854062900,-1.691342121065290
blindworm and bull snake,NE61 1LA,55.166788000000000,-1.690525632232470
boomslang and Booted eagles,NE61 1NS,55.167998000000000,-1.689356000000000
hognose snake and tuatara,NE61 1PW,55.166225135709400,-1.688569423419150
Skunk and elapid,NE61 1QR,55.168261698260600,-1.694393242379140
tokay and Kestrel,NE61 1QZ,55.167863212252400,-1.693156153142650
glass snake and snake,NE61 1RQ,55.171492000000000,-1.699659000000000
Kite and deaf adder,NE61 1TX,55.167534009354900,-1.680427780601320
tiger snake and Tattler,NE61 1UT,55.166132968495600,-1.680721526483560
anaconda and Schneider python,NE61 2AG,55.162140503061100,-1.700938012801250
ringhals and Thicketbird,NE61 2AY,55.161257108726700,-1.707207043782660
Chickadee and gaboon viper,NE61 2DR,55.152655000000000,-1.691248000000000
Pratincole and New World blackbird,NE61 2EZ,55.159870640117500,-1.674258181513700
dugite and Armadillo,NE61 2FE,55.152067000000000,-1.691235000000000
snake and Cloud rat,NE61 2FP,55.150925000000000,-1.691134000000000
Quetzal and boa constrictor,NE61 2FS,55.151526000000000,-1.689013000000000
boa constrictor and harlequin snake,NE61 2FZ,55.157285000000000,-1.672990000000000
Asiatic leopard and black snake,NE61 2GD,55.156545000000000,-1.671992000000000
Tahr and brown snake,NE61 2RD,55.160999548821500,-1.697399426397300
kabaragoya and puff adder,NE61 2SU,55.159807641956100,-1.687975903284850
tree snake and Towhee,NE61 2TD,55.158918369775000,-1.688108394734960
elapid and Rat,NE61 2UG,55.158366975696800,-1.683357357513210
Civet and Guillemot,NE61 2XH,55.154036225370600,-1.673317058456350
mountain devil and Wader,NE61 2XQ,55.155135845782400,-1.674563512846870
agamid and bicycle lizard,NE61 2YF,55.163149601810400,-1.705733458694180
Elephant and Dolphin,NE61 2YS,55.157153263637500,-1.708351329773080
Darwin's finches and frill-necked lizard,NE61 3JZ,55.191023000000000,-1.701507000000000
Grouse and dukite,NE61 3LP,55.194808601318700,-1.654856093599100
Dolphin and gavial,NE61 5AN,55.284574303830700,-1.603508721352400
Prion and Duck,NE61 5DR,55.256387000000000,-1.635365000000000
constrictor and constrictor,NE61 5EG,55.257089726725300,-1.569893086151170
king snake and hoop snake,NE61 5ER,55.223435000000000,-1.556248091824350
Elephant and water snake,NE61 5HD,55.220717747123600,-1.555651044516810
blindworm and horned viper,NE61 5HR,55.222370910130600,-1.563052208781730
Capuchin and Stint,NE61 5LQ,55.222244867891800,-1.570583174157920
Perching duck and dugite,NE61 5NZ,55.237151572122600,-1.619060846469210
kabaragoya and Stilt,NE61 5PD,55.236555975495200,-1.615386886885880
Mockingbird and glass snake,NE61 5PT,55.241831845382400,-1.618938000000000
blue tongue and Mockingbird,NE61 5QF,55.244111052123500,-1.623382459475850
bull snake and Stilt,NE61 5QY,55.240281727544700,-1.614313004812850
Grouse and Booted eagles,NE61 5TL,55.212380048822400,-1.536649524906650
Fox and Tree warbler,NE61 5TR,55.213462544683500,-1.537251000000000
B and Pratincole,NE61 5TZ,55.215500463678400,-1.542019856556720
Badger and rock snake,NE61 5UD,55.215122670900800,-1.544318814848540
Darwin's finches and anaconda,NE61 5XQ,55.212015133538600,-1.544747177894700
Grouse and bandy-bandy,NE61 5XS,55.213209618968700,-1.542171870985130
Black cockatoo and cayman,NE61 6DQ,55.139098000000000,-1.681848154230280
Moluccan boobook and Francolin,NE61 6DR,55.125456058803500,-1.671574372476000
Pratincole and iguana,NE61 6FA,55.110761000000000,-1.667947000000000
Rat and chameleon,NE61 6HG,55.107652076098900,-1.667284456273350
Armadillo and bushmaster,NE61 6HU,55.110452897252600,-1.669549811431150
Partridge and slowworm,NE61 6LF,55.148785713352800,-1.659191466185950
python and Puffleg,NE61 6NG,55.134431719786800,-1.657996139276890
green turtle and puff adder,NE61 6PG,55.145797356716600,-1.705594329837780
dukite and Ground sloth,NE61 6QA,55.135598246633400,-1.654221711548200
Civet and Pratincole,NE61 6RT,55.178488675789200,-1.651181417392950
Meadowlark and Lemming,NE61 6RU,55.177850150438800,-1.650998567386800
king snake and New World blackbird,NE61 6TZ,55.180210775313200,-1.646942339760560
Macaw and B,NE61 6YJ,55.178464110621900,-1.655185665373750
diamondback and Tit-tyrant,NE61 9TB,55.152932036648200,-1.683965283161390
flying lizard and Vole,NE62 5BQ,55.165505759701900,-1.583028322032660
Asiatic leopard and Old World warbler,NE62 5EH,55.162196502513000,-1.598381869915110
Marsh harrier and flying dragon,NE62 5HH,55.161833274176500,-1.591824759457710
Egret and Goose,NE62 5LU,55.160083000000000,-1.603047099588490
Viscacha and puff adder,NE62 5LY,55.161475338417500,-1.603176224325790
Jay and elapid,NE62 5PU,55.158621623211000,-1.610110000000000
constrictor and Scimitar babbler,NE62 5RR,55.152439893465300,-1.601790814796160
Old World warbler and iguana,NE62 5SB,55.151348688317500,-1.597863116030160
Chicken and viper,NE62 5SG,55.153232891544200,-1.596996795896550
Vulture and Parrotbill,NE62 5SS,55.152310270549600,-1.603376981882030
lizard and Thrasher,NE62 5XJ,55.163304925226100,-1.567747490516960
Bronzewing pigeon and Dorcopsis,NE62 5YU,55.158422544446100,-1.606706330152850
Quetzal and Zebra,NE63 0AS,55.182478680611800,-1.567084694630190
Recurvebill and Armadillo,NE63 0BD,55.182690263795000,-1.565936024142510
thorny devil and Marsh harrier,NE63 0BL,55.181587860867000,-1.564220627518980
python and mud turtle,NE63 0DY,55.179859269612900,-1.568353584300450
agamid and River dolphin,NE63 0EA,55.177649746289100,-1.568644379385760
Elephant and habu,NE63 0EX,55.178454228348000,-1.564914288042940
sidewinder and chameleon,NE63 0QF,55.174185172600000,-1.559011000000000
Nukupuʻu and viper,NE63 0SP,55.180384451210400,-1.561909720657980
Fulmarine petrel and Bunting,NE63 0TJ,55.169092207623600,-1.562786998619140
Kangaroo and Asiatic leopard,NE63 0XQ,55.164634710010800,-1.540656268005000
Booted eagles and Scimitar babbler,NE63 3FG,55.167727000000000,-1.544230000000000
bandy-bandy and Vole,NE63 8AN,55.180900583144300,-1.575738497780670
dugite and Thicketbird,NE63 8AP,55.185639000000000,-1.581452000000000
lizard and Wallaby,NE63 8EJ,55.174137714640700,-1.576768009383730
worm lizard and Fox,NE63 8JJ,55.173721386400000,-1.573334056601390
diamond python and Parrotlet,NE63 8LH,55.173202071955500,-1.581660638137040
Jackal and asp,NE63 8LX,55.172266627431500,-1.576191231087170
Old World quail and leathery turtle,NE63 8LY,55.172787635907600,-1.583972861512410
Grackle and crocodile,NE63 8NZ,55.182357607730500,-1.591316000000000
perentie and boa,NE63 8PH,55.184015582152500,-1.593294260521820
krait and blue racer,NE63 8SZ,55.169043307558000,-1.566712145217720
Ground sloth and sand viper,NE63 8TA,55.169772036957600,-1.566955426784190
Jay and worm lizard,NE63 9BF,55.176003223520800,-1.558016747122110
soft-shelled turtle and Zebra,NE63 9DL,55.183677206955300,-1.560491649181400
Guillemot and amethystine python,NE63 9EH,55.178411870768300,-1.543481331991870
White ibis and chameleon,NE63 9EN,55.184845111470400,-1.560274000000000
Jay and ringhals,NE63 9EX,55.184565765113500,-1.560199193090710
Thrasher and crocodile,NE63 9FL,55.186630577766500,-1.544957959591550
Cuscus and Grouse,NE63 9GJ,55.186682895600000,-1.555872793500000
constrictor and Petrel,NE63 9GT,55.180522656700000,-1.544807854500000
Chickadee and tuatara,NE63 9GZ,55.184902741374600,-1.558954813665240
sand lizard and Mockingbird,NE63 9NX,55.175523398365600,-1.557032890248120
moloch and Petrel,NE63 9NZ,55.175771801044000,-1.556150875733800
Thrasher and glass snake,NE63 9PS,55.176051612880600,-1.554028105200210
Komodo dragon and diamond python,NE63 9QY,55.173816657075400,-1.554728156193280
perentie and Flameback,NE63 9RP,55.173962215835300,-1.545463303960230
Cuscus and Marmoset,NE63 9SF,55.178981976235600,-1.537382299128890
Mole and bull snake,NE63 9SH,55.172743396339700,-1.539150096870210
fer-de-lance and king snake,NE63 9TY,55.177952912693900,-1.538524753364490
leathery turtle and gopher snake,NE63 9WT,55.183644000000000,-1.547378000000000
B and Mouse,NE63 9XB,55.183352000000000,-1.570073357417920
leguaan and king snake,NE63 9XL,55.182986903982800,-1.573612020899560
frilled lizard and viper,NE64 6AZ,55.187259063749300,-1.507775556686120
flying lizard and Buzzard,NE64 6DE,55.188660936015600,-1.507789695115260
Argus and Kestrel,NE64 6DJ,55.188126984406100,-1.506853914610940
Dorcopsis and Cloud rat,NE64 6JG,55.189674975156900,-1.518882000000000
ringhals and Grackle,NE64 6JN,55.188666962996800,-1.520590174760470
Old World quail and Mouse,NE64 6LD,55.188321885892800,-1.521960743248170
bearded lizard and Treepie,NE64 6NU,55.183903980619200,-1.513674607387790
snapping turtle and Marsh harrier,NE64 6PG,55.182877237490000,-1.517613085435630
death adder and anole,NE64 6PL,55.184222851272400,-1.514661000000000
Parakeet and diamondback turtle,NE64 6TH,55.180323713425300,-1.526406137798420
terrapin and dugite,NE64 6UR,55.182321621386400,-1.517996682221590
Fox and swift,NE64 6XD,55.180019000000000,-1.516076000000000
Warbler and wall lizard,NE64 6XS,55.180008604412000,-1.517082415255450
Scimitar babbler and tree snake,NE64 6XX,55.180117362640000,-1.519593554529870
milk snake and Kite,NE65 9DL,55.295245307325500,-1.602237036587810
Masked owl and bull snake,NE65 9EB,55.296271341657200,-1.711695136540760
Darwin's finches and gopher snake,NE65 9EF,55.294640401154300,-1.709785705819460
Grackle and Magpie,NE65 9EU,55.277505059808200,-1.661113065014530
fer-de-lance and blue tongue,NE65 9EX,55.285543440146800,-1.669530834600660
krait and Black cockatoo,NE65 9EZ,55.273153441063100,-1.680194787744760
Puffleg and Zebra,NE65 9TA,55.295982339271000,-1.596812186076630
indigo snake and Hawaiian honeycreeper,NE65 9TJ,55.292017000000000,-1.598632000000000
Black jay and elapid,NE65 9YD,55.295691439357200,-1.606815355260060
Egret and rock snake,NE65 9YE,55.296070956648300,-1.607473043390010
