name,id,postcode,lat,lon
Herring gull and Hawaiian honeycreeper,731509,NE61 3JN,55.180600671306100,-1.713440753088560
anole and Condor,752398,NE19 2SA,55.155452615797600,-2.003344597284160
cycling lizard and wall lizard,730925,NE61 4LH,55.242962635653100,-1.971111341599770
krait and Quetzal,752698,NE19 2AA,55.117728000000000,-1.946116000000000
moloch and Peafowl,734313,NE48 4DL,55.119166340618700,-2.066589000000000
snapping turtle and Gull,751843,NE20 0JW,55.098514645699800,-1.882064353220490
diamond snake and New World blackbird,728488,NE65 8RS,55.246347536865900,-1.832963336000400
Gila monster and Petrel,728815,NE65 8AW,55.294370432904600,-1.816321000000000
Solitaire and racer,731211,NE61 3XA,55.126871045976600,-1.797472000000000
Scimitar babbler and gecko,730957,NE61 4PZ,55.233268770508800,-1.893239416178260
Jackal and Triller,731197,NE61 3TT,55.138813000000000,-1.839106000000000
sand lizard and mud turtle,730931,NE61 4NN,55.198117405431500,-1.818193539419340
Mamo and Logrunners,728506,NE65 8UN,55.245756897572800,-1.768337251411760
habu and Gila monster,728143,NE65 9HW,55.296821956999100,-1.728479327103830
alligator and blue tongue,731196,NE61 3TS,55.150592000000000,-1.837348000000000
harlequin snake and flying lizard,751750,NE20 0AZ,55.094378770393000,-1.792684597008450
Tree warbler and snake,731143,NE61 3QS,55.182513705839300,-1.792981658436960
wall lizard and Coati,731294,NE61 4DT,55.171828584917100,-1.940313000000000
glass snake and Flameback,751836,NE20 0JJ,55.083238053212400,-1.891382695100340
cobra and Argus,730933,NE61 4NR,55.223231500181200,-1.817655000000000
Kite and Gila monster,731280,NE61 4BB,55.165313030404100,-1.960916968062500
Komodo dragon and cobra de capello,729021,NE65 7LQ,55.299933720676100,-2.021659104457850
diamond python and B,751741,NE20 0AP,55.123264623500000,-1.756376250656920
cycling lizard and Chickadee,752598,NE19 1AQ,55.242267000000000,-2.112908000000000
jew lizard and Diving bird,728471,NE65 8QW,55.216588000000000,-1.772247000000000
Guillemot and chuckwalla,752369,NE19 2PE,55.136895208259100,-1.980677127908010
bearded dragon and Vulture,734299,NE48 4BE,55.086270297935900,-2.122853194738880
Parakeet and Guillemot,731142,NE61 3QR,55.174598019922600,-1.773255685746580
