name,id,postcode,lat,lon
Francolin and bearded lizard,1786359,KW15 1XR,58.985669000000000,-2.974445000000000
Booted eagles and Kite,969626,KW17 2QG,58.918811820580200,-2.819449966802840
massasauga and Parrotlet,969673,KW17 2SU,58.849695128380300,-2.920639221525660
kabaragoya and Stint,970287,KW15 1JA,58.983953538446500,-2.956441151640850
Jackal and Moluccan boobook,970329,KW15 1LY,58.984435592953400,-2.944606139841720
Tit-tyrant and Snipe,970423,KW15 1SY,58.963103019048500,-2.953412000000000
rattlesnake and Condor,1786352,KW15 1GW,58.979245224584300,-2.966835000000000
monitor and Lemming,970595,KW15 1BS,58.977263534924700,-2.961178472136470
bearded dragon and lizard,970086,KW15 1XX,58.979788161721900,-2.937781391699870
amethystine python and fer-de-lance,969691,KW17 2TS,58.825687498880900,-2.962641485966620
habu and bull snake,969634,KW17 2QS,58.974457000000000,-2.825154000000000
box turtle and Francolin,970579,KW15 1AU,58.978850497736800,-2.963953805562840
frill-necked lizard and Cuscus,970416,KW15 1SQ,58.976749459770200,-2.969896271613150
snake and Diving bird,970319,KW15 1LT,58.986093747547700,-2.951193693723810
indigo snake and New World blackbird,970364,KW15 1PW,58.978988827317600,-2.952546044975770
Wallaby and racer,970275,KW15 1HL,58.983368808088500,-2.958840000000000
black snake and Siskin,970420,KW15 1SU,58.967119000000000,-2.952097000000000
mud turtle and pit viper,970037,KW15 1TR,58.978215035573400,-3.014694000000000
racer and Schneider python,970285,KW15 1HY,58.984021017184400,-2.955713000000000
Cloud rat and dukite,970313,KW15 1LJ,58.982771494270600,-2.948473000000000
diamond snake and caiman,970281,KW15 1HT,58.984413282261100,-2.954992424270200
Herring gull and pit viper,970235,KW15 1EW,58.974775665718400,-2.957560874629550
asp and garter snake,970617,KW15 1DX,58.979538035718500,-2.962076843374730
Pratincole and Tree warbler,970290,KW15 1JE,58.983252907841300,-2.956336000000000
Tahr and Cloud rat,970568,KW15 1AE,58.982770525093400,-2.962166985836250
carpet snake and Diving bird,970269,KW15 1HA,58.975252000000000,-2.948981000000000
flying lizard and whip snake,970371,KW15 1QF,58.977232222516700,-2.958133494547630
diamond python and skink,969676,KW17 2SY,58.864137058264200,-2.905349227788920
gavial and king cobra,970572,KW15 1AL,58.981554641533300,-2.963837990205980
Jackal and Fulmarine petrel,970384,KW15 1QY,58.983939000000000,-2.963156000000000
cerastes and python,970368,KW15 1QB,58.975286223681200,-2.955313834477610
Crow and snapping turtle,970614,KW15 1DS,58.980204818310200,-2.961782300847300
