name,postcode,lat,lon
Crooklets Beach Cafe,EX23 8NE,50.42225265502930,-5.03999376296997
Rosie's Kitchen Limited ,EX23 8NE,50.42225265502930,-5.03999376296997
Hangloose adventure,PL24 2SG,50.3639,-4.7457
YHA Eden Project,PL24 2SG,50.35960100000000,-4.74279500000000
Holmbush Inn,PL25 3LL,50.33994900000000,-4.75793800000000
Niles bakery ltd,PL25 3LP,50.33984590000000,-4.75651710000000
Pier House Hotel ,PL25 3NJ,50.33165000000000,-4.75778100000000
Rashleigh Arms,PL25 3NJ,50.3321,-4.7578
The Longstore,PL25 3NJ,50.33165000000000,-4.75778100000000
Wreckers,PL25 3NJ,50.33165000000000,-4.75778100000000
East Meets West,PL25 3PH,50.33672700000000,-4.74926300000000
Edie's Kitchen,PL25 3PH,50.33672700000000,-4.74926300000000
The Carlyon Bay Hotel,PL25 3RD,50.33599900000000,-4.73970600000000
St Austell Garden Centre Tea Room,PL25 3RH,50.34458600000000,-4.74408000000000
The white hart hotel LTD ,PL25 4AT,50.33812400000000,-4.79178900000000
Number Four Pizza Cafe,PL25 4FD,50.3590,-4.7822
Capitol Bingo Club,PL25 4QL,50.33845000000000,-4.77969200000000
KFC,PL25 5BU,50.33291500000000,-4.79256600000000
McDonalds,PL25 5BU,50.33291500000000,-4.79256600000000
Niles bakery ltd,PL25 5BU,50.33291625976560,-4.79256582260132
Subway,PL25 5ER,50.33838300000000,-4.79448900000000
moustache jacks ,PL25 5EW,50.33864500000000,-4.79367500000000
The western inn ,PL25 5EY,50.33670900000000,-4.79790400000000
The western inn,PL25 5EY,50.33670900000000,-4.79790400000000
Nepalese Gurkha Restaurant,PL25 5PA,50.3383,-4.7942
Coffee corner ,PL25 5PQ,50.33787100000000,-4.79221000000000
Cafe Tengo,PL25 5PX,50.33808517456050,-4.79338884353638
The Waterwheel Country Inn and Restaurant,PL25 5RR,50.34991300000000,-4.79529300000000
The white pyramid,PL25 5TQ,50.34294700000000,-4.82745200000000
Niles bakery ltd,PL25 5YY,50.33779700000000,-4.79303500000000
Hubbox Pentewan,PL26 6BT,50.2879,-4.7857
The Seahorse  Pentewan Sands,PL26 6BT,50.2879,-4.7857
The Ship Inn Pentewan,PL26 6BX,50.29216300000000,-4.78370500000000
The Crown Inn,PL26 6EY,50.28013000000000,-4.83859100000000
The Barley Sheaf,PL26 6HN,50.2466,-4.8079
The Haven Takeaway,PL26 6JG,50.24037300000000,-4.78949300000000
Llawnroc Hotel,PL26 6NU,50.24146500000000,-4.79084700000000
Alvorada,PL26 6QQ,50.27012900000000,-4.78427100000000
The Sharksfin,PL26 6QU,50.26966200000000,-4.78723400000000
The Nutty Duck at Trevalsa Court,PL26 6TH,50.27480900000000,-4.78643900000000
Trevalsa Court Hotel,PL26 6TH,50.27480900000000,-4.78643900000000
The Cornish Bakery,PL26 6UA,50.27018900000000,-4.78704000000000
Number Five,PL26 6UD,50.27034100000000,-4.78780700000000
The Lighthouse Cafe ,PL26 6UD,50.27034100000000,-4.78780700000000
Mevagissey Spice,PL26 6UE,50.2706,-4.7885
ship inn mevagissey,PL26 6UQ,50.26992400000000,-4.78758600000000
ROOVRAYS RESTAURANT,PL26 6UR,50.26881100000000,-4.78637000000000
The Cornwall Hotel  Spa and Estate,PL26 7AB,50.32793700000000,-4.79681200000000
The Kingswood Bar & Restaurant,PL26 7AP,50.3183,-4.7978
Queenies Pantry,PL26 7AR,50.31708100000000,-4.80088100000000
The Polgooth Inn Ltd,PL26 7DA,50.31791000000000,-4.81200100000000
Hewas Inn,PL26 7HB,50.31699400000000,-4.83965000000000
Grigg's restaurant,PL26 7JH,50.30725479125980,-4.85210514068604
The Queens Head ,PL26 7SQ,50.34337100000000,-4.88918600000000
The Rock Inn,PL26 8EP,50.40561600000000,-4.83302600000000
Biscuit Coffee Shop,PL26 8LG,50.41919708251950,-4.83045816421509
The Victoria Inn,PL26 8LQ,50.4219,-4.8322
The Bugle Inn,PL26 8PB,50.39667400000000,-4.79365400000000
Rockhill Cafe,PL26 8RA,50.38684844970700,-4.79451084136963
Wheal Martyn Cafe,PL26 8XG,50.36919300000000,-4.80601800000000
Knightor Winery,PL26 8YQ,50.36814700000000,-4.76214700000000
The Dancing Taipan Restaurant,PL27 7AD,50.42225265502930,-5.03999376296997
The Kings Arms Hotel,PL30 5EF,50.38958700000000,-4.74757900000000
Flying Aubergine Cafe Truro,TR1 1EP,50.26503400000000,-5.05149700000000
Ganges Truro ,TR1 1EQ,50.26490700000000,-5.04914500000000
The Heron Inn,TR1 1SL,50.24493026733400,-5.02468109130859
Alverton Hotel Ltd,TR1 1ZQ,50.26651763916020,-5.04533195495605
Colours Cafe & Wellbeing Centre,TR1 2AA,50.2639,-5.0488
Lawrance's Bakery & Bar,TR1 2AA,50.26389900000000,-5.04881400000000
The White Hart,TR1 2AA,50.26389900000000,-5.04881400000000
ZAFIROS,TR1 2AA,50.26389900000000,-5.04881400000000
Soi21,TR1 2AF,50.2638,-5.0501
The Old Grammar School,TR1 2AF,50.26377300000000,-5.04983000000000
Bodega 18,TR1 2AH,50.26421800000000,-5.04999900000000
Kathmandu Palace restaurant,TR1 2AH,50.26421800000000,-5.04999900000000
Chorley's African Grill,TR1 2AQ,50.26437780000000,-5.05003340000000
Lily's of Truro,TR1 2AY,50.26492700000000,-5.05422190000000
Sole Plaice,TR1 2AY,50.26494500000000,-5.05418500000000
Hooked in the city,TR1 2EJ,50.26154400000000,-5.05148400000000
Cafe.Uneeka,TR1 2EL,50.26319900000000,-5.05076100000000
Pizza Express,TR1 2ER,50.26335500000000,-5.05001400000000
Bao Bites,TR1 2HB,50.26333999633790,-5.04921293258667
Caffe Nero,TR1 2LL,50.26248700000000,-5.04946700000000
Market Inn,TR1 2LL,50.26250500000000,-5.04981900000000
Rowes Bakery,TR1 2LL,50.2626,-5.0496
Subway,TR1 2LL,50.2626,-5.0496
Truro Tandoori,TR1 2NR,50.26106400000000,-5.05263200000000
Ask Italian,TR1 2PN,50.26192200000000,-5.05213900000000
Bustopher Jones,TR1 2PN,50.26192200000000,-5.05214000000000
Mannings Restaurant,TR1 2QB,50.26274400000000,-5.05132200000000
Duke Street Sandwich Deli,TR1 2QE,50.26352900000000,-5.04987100000000
Cafe Nero,TR1 2QQ,50.26352500000000,-5.05071300000000
Charlotte's Tea House,TR1 2QU,50.26311492919920,-5.05164098739624
Charlotte’s Tea House,TR1 2QU,50.26311492919920,-5.05164098739624
Tea on the Square at Malletts Home Hardware,TR1 2RT,50.26282900000000,-5.05320800000000
Coffee Traders,TR1 2RU,50.26292500000000,-5.05370500000000
Subway,TR1 2RU,50.26292500000000,-5.05370500000000
Indulge Waffle House Limited,TR1 2RX,50.26324300000000,-5.05358500000000
Starbucks - Amsric Limited,TR1 2SD,50.26342900000000,-5.05299400000000
Starbucks Victoria Square,TR1 2SD,50.26342900000000,-5.05299400000000
Xen Noodle Bar,TR1 2SF,50.26260000000000,-5.05407700000000
Arts Cafe Truro,TR1 2SJ,50.26367800000000,-5.05414600000000
Bread & Butter,TR1 2SQ,50.2634,-5.0544
Mai Thai,TR1 2SQ,50.26339300000000,-5.05436700000000
Bambu Cafe,TR1 2UX,50.26422700000000,-5.05377400000000
Tabb's Restaurant,TR1 3BZ,50.26265100000000,-5.05758900000000
108 Coffee House,TR1 3DJ,50.26314900000000,-5.05475800000000
Burger King,TR1 3DJ,50.26314900000000,-5.05475800000000
Hubbox Truro,TR1 3DJ,50.26314800000000,-5.05475800000000
William IV,TR1 3DJ,50.26314900000000,-5.05475800000000
Yak and Yeti Nepalese And Indian restaurant ,TR1 3DJ,50.26314900000000,-5.05475800000000
The Old Cheese Shop ,TR1 3JH,50.26369350000000,-5.05767940000000
Truro golf club,TR1 3LG,50.26404800000000,-5.08811800000000
County Arms,TR1 3PY,50.26125100000000,-5.07518000000000
City Inn Truro,TR1 3SP,50.26650600000000,-5.05675500000000
HAWKINS  ARMS,TR2 4JL,50.29247200000000,-4.95296600000000
The Falmouth Arms,TR2 4PG,50.32058300000000,-4.96212700000000
Dolphin Inn,TR2 4RR,50.29878234863280,-4.90032100677490
The Roseland Inn,TR2 5NB,50.21566900000000,-4.98492000000000
New Inn,TR2 5QA,50.21872400000000,-4.92284800000000
KINGS ARMS,TR2 5RW,50.26843500000000,-4.91168900000000
McDonalds,TR3 6BA,50.26423645019530,-5.10322999954224
Pizza Hut Restaurant,TR3 6BA,50.26423645019530,-5.10322999954224
Cafe Chaos,TR3 6BW,50.26013183593750,-5.12388610839844
The Victoria Inn,TR3 6BY,50.26341600000000,-5.11343500000000
Carnon Downs Garden Centre Ltd,TR3 6LN,50.22871600000000,-5.08931100000000
The Punchbowl and Ladle,TR3 6QY,50.22466900000000,-5.06179000000000
The Royal Oak Public House,TR3 7PX,50.21119700000000,-5.11907400000000
Chacewater Garden Centre Ltd,TR4 8QG,50.26147460937500,-5.14411115646362
the Cornish Arms,TR4 8RP,50.21901300000000,-5.13880700000000
nancarrow farm,TR4 9DQ,50.31130981445310,-5.09283876419067
The Old Plough,TR4 9DY,50.28794000000000,-5.07796900000000
Penrose Kitchen,TR4 9ES,50.28552246093750,-5.09718799591064
HAWKINS ARMS,TR4 9HU,50.32684700000000,-5.07555200000000
The Coffee Box Cornwall Ltd,TR4 9LD,50.26174926757810,-5.12289714813232
Healeys Cyder Farm,TR4 9LW,50.31078100000000,-5.12844300000000
The New Inn,TR4 9QD,50.34238300000000,-5.10999700000000
Bay Tree Restaurant ,TR4 9QQ,50.34226800000000,-5.10927300000000
Bolingey Inn,TR6 0DH,50.33568500000000,-5.14396600000000
Niles bakery ltd,TR7 1AX,50.41350700000000,-5.08353000000000
Paulines Ltd,TR7 1AY,50.41326800000000,-5.08504900000000
Lost Brewing Co,TR7 1BE,50.41376790000000,-5.07886550000000
SMOKE N FLAMES BURGER HOUSE,TR7 1BE,50.41391754150390,-5.07926321029663
Atlantic view cafe ltd,TR7 1BH,50.41379600000000,-5.08074700000000
Bertie O'Flannigans Irish Bar,TR7 1DB,50.41467700000000,-5.07876300000000
Hotel Victoria,TR7 1DB,50.41467700000000,-5.07876300000000
Senor Dicks Mexican Restaurant,TR7 1DB,50.41467700000000,-5.07876300000000
MisoMiso,TR7 1DH,50.4137,-5.0850
Subway,TR7 1DL,50.41372100000000,-5.08257200000000
Victoria ,TR7 1DN,50.41418900000000,-5.08085700000000
Blue Reef Aquarium - Newquay,TR7 1DU,50.41484100000000,-5.08374300000000
The Cornish Bakery,TR7 1EP,50.41342600000000,-5.08590400000000
12 Beach Road,TR7 1ES,50.41446130000000,-5.08596370000000
Central Inn,TR7 1EU,50.41373400000000,-5.08682500000000
The Fish House,TR7 1EW,50.42036100000000,-5.09707000000000
The Headland Hotel Co Ltd,TR7 1EW,50.42036100000000,-5.09707000000000
Fort Inn,TR7 1HA,50.41579100000000,-5.08726800000000
Belushi's Newquay ,TR7 1HD,50.41529200000000,-5.08677100000000
The Harbour Fish And Grill,TR7 1HF,50.41793500000000,-5.08815300000000
Fistral chef cafe,TR7 1HH,50.41783400000000,-5.08962600000000
Carnmarth Hotel,TR7 1HN,50.41935100000000,-5.09345600000000
The Boat House - Street Food On The Beach,TR7 1HR,50.4155,-5.0867
Elseafood C/O Davies Catering Cornwall,TR7 1HT,50.41601680000000,-5.08692060000000
The wild food kitchen,TR7 1HT,50.41601680000000,-5.08692060000000
Fistral beach bar,TR7 1HY,50.41889200000000,-5.09717000000000
RICK STEIN,TR7 1HY,50.41889200000000,-5.09717000000000
The Fistral Stable,TR7 1HY,50.4189,-5.0972
Caffe Nero,TR7 1JF,50.41322000000000,-5.08617100000000
Bush Pepper,TR7 1LN,50.41447500000000,-5.08705600000000
Cove 24,TR7 1LN,50.41447500000000,-5.08705600000000
Fore Street Café Bar,TR7 1LP,50.41515300000000,-5.08724100000000
Cafe cloud,TR7 1LW,50.41571000000000,-5.08761500000000
Pentire Hotel,TR7 1NU,50.41169357299800,-5.10977888107300
The Lewinnick Lodge,TR7 1NX,50.4119,-5.0968
The Esplanade Hotel,TR7 1PS,50.41203000000000,-5.10350800000000
The Fistral Beach Hotel,TR7 1PT,50.41215900000000,-5.10644500000000
El Huichol,TR7 1QZ,50.4117,-5.0862
The Griffin Hotel,TR7 1SP,50.41479300000000,-5.07740500000000
McDonald's Restaurant Newquay,TR7 2BB,50.40230700000000,-5.06311200000000
McDonalds,TR7 2BB,50.40230700000000,-5.06311200000000
Pizza Express,TR7 2FD,50.41656700000000,-5.07463400000000
Lakeside Cafe & Restaurant,TR7 2HX,50.40820300000000,-5.07624600000000
The Tavern Inn,TR7 2LQ,50.40567200000000,-5.07059200000000
Courtside Cafe,TR7 2LZ,50.41055679321290,-5.06823301315308
Butchers Bistro,TR7 2ND,50.4159,-5.0751
Cafeaccinos,TR7 2NE,50.4158,-5.0760
Fusion Kitchen (Newquay) Limited,TR7 2NE,50.41573333740230,-5.07618522644043
Great Western Hotel,TR7 2NE,50.41573400000000,-5.07618500000000
The Cod End,TR7 2NE,50.41573000000000,-5.07601500000000
The Maharajah,TR7 2NE,50.4158,-5.0760
The Slope Beach Bar & Kitchen,TR7 2NE,50.41573333740230,-5.07618522644043
Burger King,TR7 2NF,50.41496300000000,-5.07610700000000
Burger King,TR7 2NG,50.41524600000000,-5.07525200000000
Kahuna restaurant,TR7 2NG,50.41524600000000,-5.07525200000000
Hotel Bristol (Newquay) Ltd,TR7 2PQ,50.41739500000000,-5.07122400000000
Colonial ,TR7 2QN,50.41732788085940,-5.07250690460205
sandy lodge hotel,TR7 2QY,50.41748500000000,-5.06882200000000
kilbirnie hotel,TR7 2RS,50.4187,-5.0686
Craig’s cafe ,TR7 2SX,50.40481900000000,-5.06199300000000
The Cornish Lunchbox ltd,TR7 2SX,50.4052,-5.0619
Farmers Arms,TR7 3EZ,50.42104400000000,-5.04291900000000
PORTH LODGE HOTEL,TR7 3LT,50.42211400000000,-5.05428000000000
Shiva Cafe,TR8 4GZ,50.4139,-5.0440
Trewlawny Taverns Ltd,TR8 4LA,50.4044,-5.0277
darwin piran Meadow limited,TR8 4LW,50.39951300000000,-4.97045400000000
Hendra Holiday Park,TR8 4NY,50.40113000000000,-5.04870900000000
The Two Clomes,TR8 4PD,50.40132400000000,-5.02234600000000
Dairyland Farm Park limited,TR8 5AA,50.42225265502930,-5.03999376296997
The fox’s revenge,TR8 5AF,50.3659,-4.9885
The Plume of Feathers,TR8 5AX,50.35137600000000,-5.01110100000000
JOMAR CORNWALL LTD T/A LONDON INN,TR8 5EA,50.36772100000000,-4.96949400000000
The Anvil,TR8 5EQ,50.37908000000000,-5.11521200000000
The Pheasant Inn,TR8 5LJ,50.36759400000000,-5.05485500000000
Lappa Valley Steam Railway ,TR8 5LX,50.37339600000000,-5.04871500000000
The Treguth Inn,TR8 5PP,50.38672256469730,-5.14078617095947
Woodys,TR8 5PW,50.38523000000000,-5.12974100000000
Newperran Holiday Park,TR8 5QJ,50.35062800000000,-5.10139700000000
BOWGIE INN,TR8 5SE,50.40309500000000,-5.13010300000000
CBay Cafe,TR8 5SE,50.4033,-5.1299
The Port & Starboard,TR9 6JZ,50.39363700000000,-4.92979900000000
New Garden Chinese Restaurant ,TR9 6LB,50.39370300000000,-4.93036600000000
blue anchor inn,TR9 6LS,50.38406400000000,-4.93947900000000
McDonald's Drive Thru - Fraddon ,TR9 6NA,50.37860800000000,-4.94533100000000
McDonalds Fraddon,TR9 6NA,50.37860800000000,-4.94533100000000
Starbucks - Amsric Cornwall,TR9 6NA,50.37860800000000,-4.94533100000000
Starbucks Fraddon,TR9 6NA,50.3785,-4.9453
Whitbread Plc,TR9 6NA,50.37860800000000,-4.94533100000000
