name,id,postcode,lat,lon
Komodo dragon and Bronzewing pigeon,158505,TR26 1NF,50.215366404301400,-5.481190738900960
cerastes and Chicken,158375,TR26 1EN,50.211825715048900,-5.491839865168830
swift and garter snake,158357,TR26 1DQ,50.209000509530700,-5.487063391432440
Linsang and sea snake,158063,TR26 1RJ,50.214166402474900,-5.489094741935670
Civet and Macaw,158037,TR26 1PX,50.215450381878300,-5.477789896579670
loggerhead and Armadillo,158154,TR26 2AA,50.207023075100600,-5.476209407389680
Partridge and Warbler,158392,TR26 1HB,50.208701263140500,-5.485345324797080
diamondback terrapin and taipan,158400,TR26 1HP,50.214683160817200,-5.480874576361910
Logrunners and Cloud rat,158341,TR26 1BT,50.208563511104000,-5.491124884017120
chameleon and Old World vulture,158370,TR26 1EF,50.212150138304000,-5.489129774209070
mountain devil and gopher snake,2632711,TR26 1FH,50.207187000000000,-5.488834000000000
Mink and bull snake,158174,TR26 2BA,50.202052878559900,-5.478749375666780
Civet and death adder,158025,TR26 1PF,50.215828322289400,-5.477186482594310
habu and American sparrow,158327,TR26 1AX,50.209890223842300,-5.488291871505290
blue tongue and Gull,158213,TR26 2EB,50.208197017586700,-5.477714000000000
Quetzal and Grosbeak,158486,TR26 1LE,50.212835696206500,-5.480081072657800
Grouse and Masked owl,158347,TR26 1DB,50.208769834142200,-5.489843000000000
hognose snake and Siskin,158423,TR26 1JU,50.213691220641200,-5.485148487042090
diamondback terrapin and massasauga,158316,TR26 2JB,50.204646136463600,-5.490656531603170
kabaragoya and cerastes,158388,TR26 1FJ,50.212214856860700,-5.481283591356130
Songlark and amethystine python,158356,TR26 1DP,50.211845204019300,-5.484607289833710
