name,postcode,lat,lon
elapid and Scimitar babbler,TR14 0BL,50.225356400700800,-5.319545121293360
Solitaire and tree snake,TR14 0DP,50.222897694752300,-5.294216000000000
gaboon viper and Shearwater,TR14 0FP,50.223559000000000,-5.292056000000000
gaboon viper and Badger,TR14 0FQ,50.223917000000000,-5.292445000000000
Francolin and Dolphin,TR14 0JG,50.233976468349800,-5.327339350816960
copperhead and Songlark,TR14 0JH,50.225604750881000,-5.345673226508890
Puffleg and Linsang,TR14 0PX,50.217029613940200,-5.317214054284210
Mamo and turtle,TR14 0PY,50.217517535321800,-5.316092000000000
Diving bird and Mink,TR14 0TW,50.243315030084700,-5.305278584099840
B and whip snake,TR14 7AL,50.209094779157800,-5.292580246808330
Argus and cerastes,TR14 7BB,50.210611000000000,-5.288077963853010
black snake and flying lizard,TR14 7BD,50.210884144631100,-5.290390450783570
kabaragoya and Old World warbler,TR14 7BY,50.207557107126300,-5.291605235026890
boa and giant tortoise,TR14 7DZ,50.210813622318500,-5.303955574162510
Recurvebill and Night heron,TR14 7JD,50.217646771503000,-5.310092361489910
Wader and diamondback turtle,TR14 7JT,50.214277404818500,-5.306157792120850
Asiatic leopard and Polecat,TR14 7NQ,50.214126104232500,-5.315246032424750
Tattler and fer-de-lance,TR14 7NW,50.216329990524800,-5.315567177813610
asp and Greenbul,TR14 7PP,50.214088296727700,-5.312159102562000
ringhals and Tree warbler,TR14 7PT,50.212285208904400,-5.306931208610330
snapping turtle and Schneider python,TR14 8BD,50.214944000000000,-5.297315000000000
blind snake and smooth snake,TR14 8BH,50.215926709810700,-5.296247541870360
Prion and Meadowlark,TR14 8DP,50.215169867542200,-5.292802533114780
River dolphin and loggerhead,TR14 8HL,50.213435040924600,-5.295921465262930
Siskin and Night heron,TR14 8HP,50.213979468831800,-5.293856089001710
Stint and Civet,TR14 8HR,50.213243864101500,-5.294099793104390
horned viper and Masked owl,TR14 8HX,50.212890606287000,-5.294818460096480
milk snake and bearded lizard,TR14 8HZ,50.212538455724800,-5.294864277445480
tuatara and Cuscus,TR14 8JD,50.212046058178900,-5.296680829509320
Fox and cobra de capello,TR14 8JH,50.212608292965100,-5.296523345599660
Eagle and gecko,TR14 8JR,50.213054412808800,-5.300301000000000
bushmaster and Myna,TR14 8JS,50.213862427138200,-5.299876393011150
Bronzewing pigeon and fer-de-lance,TR14 8JY,50.213345531225100,-5.300533000000000
Fulmarine petrel and soft-shelled turtle,TR14 8LS,50.219656631494500,-5.301252000000000
White ibis and Jay,TR14 8LW,50.219564398626800,-5.303410923995680
Flameback and Old World quail,TR16 4NQ,50.261103273583200,-5.289656735332140
Bunting and Philippine hawk-owl,TR26 1BL,50.209622347870700,-5.490319052973780
Guillemot and Ground sloth,TR26 1EG,50.211958667742900,-5.488316687246590
massasauga and tree snake,TR26 1EJ,50.212507105985300,-5.489225936811970
agama and Grosbeak,TR26 1EU,50.208710889407200,-5.493701029712790
hoop snake and smooth snake,TR26 1FJ,50.212214856860700,-5.481283591356130
cobra de capello and Old World vulture,TR26 1HE,50.214051933268200,-5.480323872204760
bull snake and thorny devil,TR26 1HJ,50.213982547225900,-5.480837557868130
slowworm and loggerhead,TR26 1JN,50.212640775861100,-5.482380109974150
habu and puff adder,TR26 1NG,50.215586720090000,-5.480744115651410
flying dragon and king cobra,TR26 2AA,50.207023075100600,-5.476209407389680
Duck and Partridge,TR26 2AD,50.205951000000000,-5.472697000000000
Black jay and gopher snake,TR26 2AL,50.204075850834700,-5.472182428039420
Minke whale and sidewinder,TR26 2BS,50.207684736415800,-5.479047139636970
Hawaiian honeycreeper and anole,TR26 2DG,50.208867000000000,-5.479287000000000
anole and gaboon viper,TR26 2EF,50.207307160279600,-5.476636592026140
Solitaire and leathery turtle,TR26 2FB,50.207241047173100,-5.495009406220400
snapping turtle and snake,TR26 2FH,50.208491280715200,-5.482750629035230
Eagle and dugite,TR26 2FQ,50.203328729160300,-5.490238937310800
Mouse and Polecat,TR26 2GE,50.204803994327100,-5.497117030577170
whip snake and smooth snake,TR26 2GJ,50.208064233353900,-5.480842059873360
Ibex and Thicketbird,TR26 2JF,50.205992067980000,-5.493165866194890
leathery turtle and Pheasant,TR26 2UH,50.203510847012300,-5.492507963000130
constrictor and Black jay,TR27 5BP,50.217919767219800,-5.368143236097150
