name,postcode,lat,lon
Grosbeak and slowworm,PH1 3HZ,56.449126000000000,-3.516242000000000
Francolin and diamondback turtle,PH1 3LT,56.426614685849800,-3.519464727823100
elapid and Vole,PH1 3LY,56.429498102247100,-3.522466191206020
snake and Snipe,PH1 3SJ,56.442272000000000,-3.741353000000000
gopher snake and loggerhead,PH1 4AA,56.502716074951100,-3.518283554377700
alligator and chuckwalla,PH1 4AG,56.502383366196100,-3.515362038889620
Fulmarine petrel and diamondback,PH1 4AJ,56.504861000000000,-3.520811853310100
Petrel and Stilt,PH1 4AR,56.520641752091600,-3.535076587328140
saltwater crocodile and cayman,PH15 2AB,56.620008000000000,-3.863327000000000
Thicketbird and krait,PH15 2AG,56.621233881662900,-3.861284409215950
flying lizard and swift,PH15 2AZ,56.622861977878700,-3.864771244458360
Old World warbler and constrictor,PH15 2BA,56.619242284675200,-3.866467030787800
kabaragoya and copperhead,PH15 2BB,56.618952203495300,-3.867532000000000
Dorcopsis and hoop snake,PH15 2RA,56.620936911921600,-3.863714649467650
Chickadee and Parrotlet,PH8 0AL,56.565513151025500,-3.585928179061420
carpet snake and gopher snake,PH8 0BG,56.558631813874600,-3.576642184215430
saltwater crocodile and Mouse,PH8 0BU,56.538358000000000,-3.692355000000000
whip snake and viper,PH8 0BZ,56.507698531238600,-3.789820538365140
Fish eagle and boa,PH8 0DA,56.507555366120400,-3.839588120165970
bandy-bandy and Vole,PH8 0DN,56.554855000000000,-3.566967000000000
Greenbul and Marmoset,PH8 0DP,56.556939548432000,-3.575465391858390
Tattler and green turtle,PH8 0LB,56.635783807349800,-3.665198209808990
glass snake and mamba,PH9 0PX,56.646378000000000,-3.725798000000000
