name,postcode,lat,lon
McManus Cafe,DD1 1DA,56.462615618511500,-2.970728140168700
The Bach ,DD1 1DJ,56.462746000000000,-2.970115000000000
Sportsterz,DD1 1LP,56.461983133025100,-2.974623058247660
Innis and Gunn Brewery Taproom Dundee,DD1 1PA,56.457769410711200,-2.975764572333480
Mandarin Garden Chinese Restaurant ,DD1 1PF,56.459129976288400,-2.977552008506350
The Pancake Place Ltd,DD1 1RH,56.461103095511300,-2.971127703907350
Coffee & Co,DD1 1RX,56.461832565417100,-2.972055115057970
german doner kebab,DD1 1RX,56.461832565417100,-2.972055115057970
ALTEA4 RESTAURANTS LTD,DD1 1SG,56.461045546496700,-2.970329000000000
Little Things Cafe,DD1 1SH,56.461410792588700,-2.970975000000000
Blend (Dundee) Ltd,DD1 1SP,56.461802350639700,-2.971324066149130
Debenhams Restaurant Dundee,DD1 1UE,56.459090446670500,-2.974581410404310
Chopstix Dundee,DD1 1UG,56.459740000000000,-2.973110631888700
Muffin Break Dundee,DD1 1UG,56.459740000000000,-2.973110631888700
HA Fife Ltd T/A Subway,DD1 1UH,56.459952000000000,-2.971309000000000
Bibble Milkshake bar,DD1 1UQ,56.460203000000000,-2.971364000000000
Nicolls Bar and Restaurant,DD1 2AB,56.462123491805600,-2.969319930663370
Shaheen Bangladeshi Restaurant and Takeaway Limited,DD1 2AF,56.462398280416100,-2.969797562531700
Beans & Berries,DD1 2AP,56.461912199422500,-2.969736000000000
KFC,DD1 2AZ,56.462376781729900,-2.969099183993140
Ozzy's,DD1 2BB,56.463079587157200,-2.969003000000000
HA Fife Ltd T/A Subway,DD1 2DB,56.463892453427500,-2.969446153114960
bb's coffee & muffins,DD1 2DB,56.463892453427500,-2.969446153114960
Market Dundee,DD1 2EG,56.461543166437800,-2.967811000000000
Henry's Coffee House,DD1 2EQ,56.461908674499100,-2.968064869183080
TONYS DINER,DD1 2EW,56.463044546067900,-2.967574450101160
Coffee HQ,DD1 2HB,56.463686000000000,-2.965968000000000
Madigan's,DD1 3AA,56.460538000000000,-2.968611467475480
Mexican Grill Dundee,DD1 3AF,56.460863514351200,-2.968443973033250
Henry's Coffee House,DD1 3BA,56.460402000000000,-2.968919000000000
Italian Grill,DD1 3BA,56.460402000000000,-2.968919000000000
THE FLAME TREE CAFE ,DD1 3DL,56.460720000000000,-2.967223000000000
RAMA THAI RESTAURANT ,DD1 3DR,56.460718644068200,-2.966136000000000
Bellini,DD1 3EJ,56.461023812761000,-2.967248000000000
Birchwood Food Emporium & Cafe,DD1 3EJ,56.461023812761000,-2.967248000000000
Rancho Pancho,DD1 3EJ,56.461023812761000,-2.967248000000000
GIDI GRILL LTD,DD1 3JA,56.462308886493000,-2.960366000000000
Porters Bar & Restaurant Ltd,DD1 3JA,56.462308886493000,-2.960366000000000
Taza,DD1 3JA,56.462308886493000,-2.960366000000000
Apex City Quay Hotel & Spa,DD1 3JP,56.460797383526300,-2.962972000000000
Cafe Olympia Limited,DD1 3JU,56.463748000000000,-2.962586979728170
MOZZA RESTAURANT,DD1 4AA,56.459266714553100,-2.970431738126880
yamm buffet,DD1 4AA,56.459266714553100,-2.970431738126880
Fisher & Donaldson(Dundee),DD1 4AF,56.459664871369400,-2.970068662331150
The Brothy,DD1 4AF,56.459664871369400,-2.970068662331150
Abandon ship,DD1 4AU,56.459222706516900,-2.969164888480910
Bird and bear,DD1 4AU,56.459222706516900,-2.969164888480910
Malmaison Dundee,DD1 4AY,56.458887558092200,-2.969822000000000
empire state coffee DUNDEE LIMITED,DD1 4AY,56.458887558092200,-2.969822000000000
Dynamo,DD1 4BE,56.459041512257800,-2.970507129976520
Sleeperz Hotel (Dundee),DD1 4BF,56.457861000000000,-2.969815000000000
Serendipities,DD1 4BH,56.459271382949500,-2.971130000000000
Dr Noodles,DD1 4DH,56.457983025106200,-2.974877579191210
Medina Bar & Grill,DD1 4DH,56.457983025106200,-2.974877579191210
Tonic,DD1 4DP,56.457308230836900,-2.976142180558100
Best Western Queens Hotel ,DD1 4DU,56.456950198403200,-2.975970732249350
Bubu,DD1 4ET,56.459495189287300,-2.971086661371140
The blue room,DD1 4ET,56.459495189287300,-2.971086661371140
Tartan Coffee House,DD1 4HY,56.456267260855000,-2.987343890566950
Café Sicilia,DD1 4JD,56.456021807087700,-2.991085714325310
Mary's Kitchen,DD1 4LL,56.455779534116000,-2.991046952369810
The Giddy Goose,DD1 4LN,56.456595608119700,-2.978981000000000
Rishis Indian Aroma,DD1 5DL,56.460527000000000,-2.980460000000000
3 Session Street,DD1 5DN,56.460601000000000,-2.980186000000000
Jahangir Tandoori Restaurant ,DD1 5DN,56.460601000000000,-2.980186000000000
Dukes Corner,DD1 5EF,56.461851000000000,-2.978888000000000
Charlie Waffles And Co.,DD1 5ER,56.459367934552000,-2.979392000000000
The Parlour Cafe,DD1 5ER,56.459367934552000,-2.979392000000000
The Tinsmith,DD1 5EU,56.459522322907400,-2.980207158265410
Underdog,DD1 5EU,56.459522322907400,-2.980207158265410
Crollas gelateria,DD2 1AN,56.456037502160300,-2.993617372185740
Fisher & Donaldson(Perth Rd),DD2 1AN,56.456037502160300,-2.993617372185740
DON MICHELE RESTAURANT,DD2 1AS,56.456326246052000,-2.993462651375880
SHAX BURGER,DD2 1AS,56.456326246052000,-2.993462651375880
Más,DD2 1AU,56.456173038013600,-2.994643150482650
Pacamara Food & Drink,DD2 1AU,56.456173038013600,-2.994643150482650
Invercarse Hotel,DD2 1PG,56.457636777903100,-3.024554715159920
Botanic Garden Catering Limited,DD2 1QH,56.456247834867900,-3.025198812600090
Davies Cafe and Ice cream Parlour,DD2 3AW,56.470685580774500,-3.008657000000000
KFC,DD2 3SQ,56.481404039054300,-3.021996540051910
Starbucks,DD2 3WT,56.480823000000000,-3.013948000000000
Starbucks,DD2 4SW,56.474114000000000,-3.052499000000000
JA Fife Ltd T/A Subway,DD2 4TD,56.477514325970900,-3.037382000000000
The Post House Coffee Co.,DD2 5BE,56.461313994124600,-3.061670509137300
THE LONGFORGAN COACHING INN,DD2 5EU,56.457115800956600,-3.118916000000000
The Landmark Hotel & Leisure Club,DD2 5JT,56.466591000000000,-3.064480000000000
Piperdam Golf & Leisure Resort Limited,DD2 5LP,56.499349000000000,-3.131529000000000
Redood Berkhill Limited ,DD2 5PG,56.493301362376800,-3.052965078064090
The Pinecone Cafe,DD3 0PP,56.504848491056500,-3.043147116503160
The barrels,DD3 7RW,56.472350798372300,-2.976966570269560
Downfield Hotel,DD3 9BR,56.490922675824500,-2.996072227238900
Nine Maidens,DD3 9QU,56.496009851909100,-3.010469000000000
The Speckled Hen Coffee Shop,DD4 0QX,56.526613000000000,-2.939007000000000
Ballumbie Golf Club,DD4 0SY,56.494469366657500,-2.908489340123100
tayview,DD4 6LD,56.468843112297100,-2.936655176332390
NuttyElla,DD4 6QN,56.470921834690900,-2.957418687155940
ENJOY CAFE,DD4 6QQ,56.469021719153100,-2.957987647350520
CJ Lang & Son Ltd,DD4 8JU,56.477843163417000,-2.926194167193630
KFC,DD4 8UD,56.477974595949000,-2.889798138792700
Gracies of broughty ferry,DD5 1DJ,56.467662000000000,-2.876994000000000
Willows Coffee Shop,DD5 1DT,56.467268355436300,-2.876725520936520
Collinsons Restaurant,DD5 1EN,56.466960000000000,-2.877108000000000
The Fort Hotel & Bar,DD5 2AB,56.466255230740400,-2.876426256371970
Subway,DD5 2AG,56.467300975472000,-2.874648762496580
Forgan's Restaurant (Broughty Ferry),DD5 2AH,56.466970206983400,-2.874413930388080
Mitchell's Broughty Ferry,DD5 2AH,56.466970206983400,-2.874413930388080
Bruach Bar & Restaurant,DD5 2AN,56.466522268785200,-2.871676956655820
Papa Jacques,DD5 2AN,56.466522268785200,-2.871676956655820
Doc Ferry's Bar,DD5 2AU,56.467000763460300,-2.875177462628200
Bombay Joe's,DD5 2BJ,56.465895681231600,-2.873902329495220
The Anchor Bar,DD5 2BJ,56.465895681231600,-2.873902329495220
Goodfellow and Steven,DD5 2BQ,56.466661516904900,-2.873595319978100
The Ship Inn,DD5 2BR,56.465031437551200,-2.875424283622030
Iced Gems,DD5 2DN,56.467188692618500,-2.872730981582340
INDOS,DD5 2DS,56.466891139843500,-2.871604258567150
Sweetpea Cafe,DD5 2DS,56.466891139843500,-2.871604258567150
The Royal Arch Bar,DD5 2DS,56.466891139843500,-2.871604258567150
Gulistan House,DD5 2HN,56.468371318521000,-2.874673000000000
Woodlands Hotel,DD5 2QL,56.473518945068800,-2.852388000000000
Forbes of Kingennie Country Resort,DD5 3RD,56.507274910819200,-2.851019071724230
Bowmans Coffee House,DD5 4AA,56.481927000000000,-2.818108000000000
MONIFIETH MCDONALDS,DD5 4HB,56.490498000000000,-2.832941000000000
Longparke Farmshop & Cafe,DD5 4HU,56.489642000000000,-2.840019000000000
The Milton Inn,DD5 4LU,56.481029352469600,-2.834146360755800
manna,DD6 8AF,56.440257948100600,-2.940947320972110
the view restaurant,DD6 8NE,56.425385109976800,-2.977415496715150
Kitchinn ,DD6 9BG,56.450094751974200,-2.879882755164630
Tiffins Cafe,DD8 1BB,56.644170493958400,-2.889159205095840
The Queens Hotel,DD8 1BX,56.644030730505100,-2.888601497972100
Armstrong's Bar & Restaurant,DD8 1QT,56.644188127745500,-3.015975947605110
FORFAR MCDONALDS,DD8 1TE,56.635819917176200,-2.915764662275940
The Mill Forfar,DD8 1XF,56.619541399157100,-2.907059504354840
Rupali Palace,DD8 2HG,56.645472787187600,-2.881639707079200
Forfar Golf Club,DD8 2RL,56.646940895378500,-2.843514155432210
Sinclair's Kitchen,DD8 2RY,56.647080840387500,-2.823964436960380
10 Cafe Bar,DD8 3AD,56.644591146652800,-2.888125480399770
Costa Coffee,DD8 3AD,56.644591146652800,-2.888125480399770
Cashley's Restaurant,DD8 3AE,56.644567000000000,-2.888959938738350
FORFAR FOOD LTD,DD8 3AH,56.646056269244600,-2.889285127417070
Queen Street Tavern,DD8 3AL,56.645538360885000,-2.886206000000000
SULTAN TURKISH RESTAURANT,DD8 3HN,56.646586944797500,-2.889199775132070
Castle Club,DD8 3HR,56.646312209025400,-2.888671471774390
Chapter & Verse,DD8 3HR,56.646312209025400,-2.888671471774390
The Stag Forfar,DD8 3HX,56.647688417681700,-2.888442920570490
Alyth Golf Club,PH11 8HF,56.621721764299700,-3.205772629540700
STRATHMORE GOLF CENTRE,PH11 8NZ,56.596991194244700,-3.210913018907880
The Ardler Tavern,PH12 8SR,56.563967000000000,-3.199459000000000
The Inchture Hotel,PH14 9RN,56.445087499342100,-3.169626457193670
Cafe Circa,PH14 9SJ,56.464521546141700,-3.195088271718960
