name,postcode,lat,lon
McManus Cafe,DD1 1DA,56.462615618511500,-2.970728140168700
The Bach ,DD1 1DJ,56.462746000000000,-2.970115000000000
Sportsterz,DD1 1LP,56.461983133025100,-2.974623058247660
Innis and Gunn Brewery Taproom Dundee,DD1 1PA,56.457769410711200,-2.975764572333480
The Pancake Place Ltd,DD1 1RH,56.461103095511300,-2.971127703907350
Coffee & Co,DD1 1RX,56.461832565417100,-2.972055115057970
ALTEA4 RESTAURANTS LTD,DD1 1SG,56.461045546496700,-2.970329000000000
Little Things Cafe,DD1 1SH,56.461410792588700,-2.970975000000000
Blend (Dundee) Ltd,DD1 1SP,56.461802350639700,-2.971324066149130
Chopstix Dundee,DD1 1UG,56.459740000000000,-2.973110631888700
Nicolls Bar and Restaurant,DD1 2AB,56.462123491805600,-2.969319930663370
Beans & Berries,DD1 2AP,56.461912199422500,-2.969736000000000
Ozzy's,DD1 2BB,56.463079587157200,-2.969003000000000
Market Dundee,DD1 2EG,56.461543166437800,-2.967811000000000
Henry's Coffee House,DD1 2EQ,56.461908674499100,-2.968064869183080
TONYS DINER,DD1 2EW,56.463044546067900,-2.967574450101160
Coffee HQ,DD1 2HB,56.463686000000000,-2.965968000000000
Madigan's,DD1 3AA,56.460538000000000,-2.968611467475480
Henry's Coffee House,DD1 3BA,56.460402000000000,-2.968919000000000
Italian Grill,DD1 3BA,56.460402000000000,-2.968919000000000
THE FLAME TREE CAFE ,DD1 3DL,56.460720000000000,-2.967223000000000
RAMA THAI RESTAURANT ,DD1 3DR,56.460718644068200,-2.966136000000000
Rancho Pancho,DD1 3EJ,56.461023812761000,-2.967248000000000
GIDI GRILL LTD,DD1 3JA,56.462308886493000,-2.960366000000000
Porters Bar & Restaurant Ltd,DD1 3JA,56.462308886493000,-2.960366000000000
Taza,DD1 3JA,56.462308886493000,-2.960366000000000
Apex City Quay Hotel & Spa,DD1 3JP,56.460797383526300,-2.962972000000000
Cafe Olympia Limited,DD1 3JU,56.463748000000000,-2.962586979728170
MOZZA RESTAURANT,DD1 4AA,56.459266714553100,-2.970431738126880
yamm buffet,DD1 4AA,56.459266714553100,-2.970431738126880
Fisher & Donaldson(Dundee),DD1 4AF,56.459664871369400,-2.970068662331150
The Brothy,DD1 4AF,56.459664871369400,-2.970068662331150
Abandon ship,DD1 4AU,56.459222706516900,-2.969164888480910
Bird and bear,DD1 4AU,56.459222706516900,-2.969164888480910
Malmaison Dundee,DD1 4AY,56.458887558092200,-2.969822000000000
empire state coffee DUNDEE LIMITED,DD1 4AY,56.458887558092200,-2.969822000000000
Dynamo,DD1 4BE,56.459041512257800,-2.970507129976520
Sleeperz Hotel (Dundee),DD1 4BF,56.457861000000000,-2.969815000000000
Serendipities,DD1 4BH,56.459271382949500,-2.971130000000000
Medina Bar & Grill,DD1 4DH,56.457983025106200,-2.974877579191210
Tonic,DD1 4DP,56.457308230836900,-2.976142180558100
Best Western Queens Hotel ,DD1 4DU,56.456950198403200,-2.975970732249350
Bubu,DD1 4ET,56.459495189287300,-2.971086661371140
The blue room,DD1 4ET,56.459495189287300,-2.971086661371140
Tartan Coffee House,DD1 4HY,56.456267260855000,-2.987343890566950
Café Sicilia,DD1 4JD,56.456021807087700,-2.991085714325310
Mary's Kitchen,DD1 4LL,56.455779534116000,-2.991046952369810
The Giddy Goose,DD1 4LN,56.456595608119700,-2.978981000000000
Rishis Indian Aroma,DD1 5DL,56.460527000000000,-2.980460000000000
3 Session Street,DD1 5DN,56.460601000000000,-2.980186000000000
Jahangir Tandoori Restaurant ,DD1 5DN,56.460601000000000,-2.980186000000000
Dukes Corner,DD1 5EF,56.461851000000000,-2.978888000000000
Charlie Waffles And Co.,DD1 5ER,56.459367934552000,-2.979392000000000
The Parlour Cafe,DD1 5ER,56.459367934552000,-2.979392000000000
The Tinsmith,DD1 5EU,56.459522322907400,-2.980207158265410
Underdog,DD1 5EU,56.459522322907400,-2.980207158265410
Crollas gelateria,DD2 1AN,56.456037502160300,-2.993617372185740
Fisher & Donaldson(Perth Rd),DD2 1AN,56.456037502160300,-2.993617372185740
DON MICHELE RESTAURANT,DD2 1AS,56.456326246052000,-2.993462651375880
SHAX BURGER,DD2 1AS,56.456326246052000,-2.993462651375880
Más,DD2 1AU,56.456173038013600,-2.994643150482650
Pacamara Food & Drink,DD2 1AU,56.456173038013600,-2.994643150482650
Invercarse Hotel,DD2 1PG,56.457636777903100,-3.024554715159920
Botanic Garden Catering Limited,DD2 1QH,56.456247834867900,-3.025198812600090
Davies Cafe and Ice cream Parlour,DD2 3AW,56.470685580774500,-3.008657000000000
Starbucks,DD2 3WT,56.480823000000000,-3.013948000000000
Starbucks,DD2 4SW,56.474114000000000,-3.052499000000000
The Post House Coffee Co.,DD2 5BE,56.461313994124600,-3.061670509137300
THE LONGFORGAN COACHING INN,DD2 5EU,56.457115800956600,-3.118916000000000
Piperdam Golf & Leisure Resort Limited,DD2 5LP,56.499349000000000,-3.131529000000000
Redood Berkhill Limited ,DD2 5PG,56.493301362376800,-3.052965078064090
The Pinecone Cafe,DD3 0PP,56.504848491056500,-3.043147116503160
The barrels,DD3 7RW,56.472350798372300,-2.976966570269560
Downfield Hotel,DD3 9BR,56.490922675824500,-2.996072227238900
Nine Maidens,DD3 9QU,56.496009851909100,-3.010469000000000
NuttyElla,DD4 6QN,56.470921834690900,-2.957418687155940
ENJOY CAFE,DD4 6QQ,56.469021719153100,-2.957987647350520
the view restaurant,DD6 8NE,56.425385109976800,-2.977415496715150
Armstrong's Bar & Restaurant,DD8 1QT,56.644188127745500,-3.015975947605110
Cargills Bistro,PH10 6AQ,56.592915632506000,-3.337368000000000
NUMBER THIRTY ONE,PH10 6AS,56.591524000000000,-3.337558786954400
The Blairgowrie Golf Club,PH10 6LG,56.573720144859900,-3.336282000000000
Subway,PH10 6ND,56.592030326527000,-3.336489370666520
THE DALMORE INN & RESTAURANT,PH10 6QB,56.573959442802900,-3.347538765667500
The Old Cross Inn & Restaurant,PH10 7DY,56.596221677158200,-3.319243119271150
Little's Restaurant Limited,PH10 7GA,56.595055454500000,-3.336384912800000
Cafe in the Square,PH11 8AA,56.622764483159800,-3.230497217389880
Alyth Golf Club,PH11 8HF,56.621721764299700,-3.205772629540700
The Ardler Tavern,PH12 8SR,56.563967000000000,-3.199459000000000
RED HOUSE HOTEL,PH13 9AL,56.547823198577700,-3.264548296219710
The Inchture Hotel,PH14 9RN,56.445087499342100,-3.169626457193670
Cafe Circa,PH14 9SJ,56.464521546141700,-3.195088271718960
