name,postcode,lat,lon
boa and snapping turtle,DD11 1AZ,56.556549994784000,-2.582084267479740
Fish eagle and leathery turtle,DD11 1JN,56.563393326585800,-2.585378878286290
Argus and pit viper,DD11 1LF,56.564832077515700,-2.582341672162880
Old World vulture and Kākāriki,DD11 1NX,56.557457754864500,-2.583920304833990
Fulmarine petrel and hoop snake,DD11 1QZ,56.557269481009600,-2.589872000000000
Chicken and Minke whale,DD11 1RB,56.556514816597900,-2.591438005807130
Treepie and skink,DD11 1SW,56.565338101724600,-2.583634945013700
chuckwalla and coral snake,DD11 2BD,56.558778000000000,-2.591587000000000
terrapin and wall lizard,DD11 2BJ,56.557183689242800,-2.592473365557740
king snake and Kākāriki,DD11 2HD,56.560935703517600,-2.609876084504900
Ibex and giant tortoise,DD11 2JE,56.561505498995900,-2.618199472091590
Schneider python and Francolin,DD11 2LW,56.554808745261900,-2.615308485954720
lizard and gavial,DD11 2PB,56.552083922152600,-2.642461777770140
sand lizard and boa,DD11 2PE,56.545180231838200,-2.620518000000000
Ice seal and Stilt,DD11 3AA,56.559903870184200,-2.592890096784490
Jerboa and rattlesnake,DD11 3AD,56.561532422044500,-2.592378651184960
smooth snake and Wader,DD11 3AX,56.571063000000000,-2.603936000000000
Minke whale and mountain devil,DD11 3BL,56.563553577857900,-2.594118000000000
boa constrictor and Gull,DD11 3DD,56.562395655904300,-2.594411000000000
Kestrel and garter snake,DD11 3DG,56.562182576219300,-2.595447716065260
White ibis and Mouse,DD11 3HF,56.562223842211000,-2.618276274274550
Ibex and Kākāriki,DD11 3HH,56.562793166815300,-2.615796094386970
Tit-tyrant and gavial,DD11 3HN,56.559693695500000,-2.599248255600560
Linsang and Night heron,DD11 3JW,56.560317162163000,-2.611428047249900
Pitohui and Polecat,DD11 3JX,56.559387231668900,-2.612356679228100
Condor and bandy-bandy,DD11 3LD,56.560668642563400,-2.613028190189310
Jerboa and Moluccan boobook,DD11 3RT,56.602991000000000,-2.650362000000000
Logrunners and Chipmunk,DD11 3SQ,56.588992000000000,-2.654290000000000
Partridge and goanna,DD11 4BQ,56.574724000000000,-2.582315000000000
Chickadee and caiman,DD11 4EJ,56.568556024538300,-2.592781394641810
Old World quail and python,DD11 4RD,56.575588290165900,-2.593249538138930
Bunting and giant tortoise,DD11 4UP,56.621891041779200,-2.572317961560760
black snake and Fulmarine petrel,DD11 5AQ,56.568283104367800,-2.578245013509210
Nukupuʻu and Lemming,DD11 5AX,56.634981000000000,-2.548210000000000
frilled lizard and cobra de capello,DD11 5BG,56.562647373741500,-2.573017394396270
Grackle and agama,DD11 5BQ,56.563926382537300,-2.570351943508970
wall lizard and Komodo dragon,DD11 5DH,56.565517225809500,-2.568244239028050
alligator and Tahr,DD11 5DR,56.566535172975100,-2.571562842965000
Tahr and asp,DD11 5ED,56.562894630555400,-2.564137152239900
Argus and Ice seal,DD11 5EF,56.570318233076400,-2.571392082781430
swift and coral snake,DD11 5ES,56.569703617825100,-2.564336191674970
habu and rat snake,DD11 5EY,56.567724186505100,-2.563004857699090
Scimitar babbler and fer-de-lance,DD11 5HE,56.566602122667900,-2.564778170829630
Viscacha and horned toad,DD11 5HH,56.567647632919400,-2.567983277923920
Shearwater and boomslang,DD11 5HP,56.566115268734700,-2.573004753201200
caiman and boomslang,DD11 5HQ,56.567771545586200,-2.566422916147670
Marsh harrier and frilled lizard,DD11 5JL,56.570651776008900,-2.575042571375310
Pratincole and Condor,DD11 5TA,56.561877529137000,-2.568498798357190
perentie and milk snake,DD11 9AX,56.558614000000000,-2.580413000000000
