name,postcode,lat,lon
Andreous Bistro,DD11 1AN,56.5579,-2.5807
Azzurro Restaurant Pizzaria,DD11 1AN,56.5579,-2.5807
Webmors Coffee Shop,DD11 1AW,56.5576,-2.5811
THE GOLDEN HADDOCK,DD11 1BE,56.5569,-2.5800
The Old Brewhouse,DD11 1BH,56.5565,-2.5797
THE TOWNHOUSE HOTEL ARBROATH,DD11 1DP,56.5590,-2.5814
The coffee cabin,DD11 1EE,56.5616,-2.5833
Sportsterz Arbroath,DD11 1HR,56.5588,-2.5823
Coast ,DD11 1HT,56.5591,-2.5839
Copper Oven,DD11 1HX,56.5603,-2.5825
The Grill 21 Mediterranean Restaurant & Bar,DD11 1JE,56.5618,-2.5839
SAFFRON INDIAN CUISINE,DD11 1NW,56.5584,-2.5867
THE OLD BOATYARD RESTAURANT ,DD11 1PS,56.5556,-2.5856
Rock Lines Limited,DD11 1PW,56.5546,-2.5885
Tutties Neuk Inn,DD11 1QJ,56.5533,-2.5918
Restaurant Royal Thai,DD11 1RF,56.5583,-2.5875
ARBROATH MCDONALDS,DD11 2NQ,56.5503,-2.6126
KFC,DD11 2NQ,56.5503,-2.6126
SEAFRONT BAR,DD11 2PT,56.5520,-2.6038
Friockheim Community Hub ,DD11 4TG,56.6382,-2.6614
Meadowbank inn,DD11 5RA,56.5766,-2.5736
The Kinloch Arms,DD7 6AN,56.5015,-2.7079
KYLA HOTELS LTD t/a The Station Hotel,DD7 6AR,56.5012,-2.7067
ABOUKIR HOTEL LTD,DD7 6AT,56.5015,-2.7052
Costa Coffee,DD7 7EA,56.5007,-2.7131
Maxibell Limited,DD7 7JA,56.5003,-2.7114
Chillies of Carnoustie,DD7 7JB,56.4994,-2.7101
The Rookery Bar and Restaurant,DD7 7JE,56.4987,-2.7140
The Craigton Coach Inn,DD7 7JF,56.4977,-2.7190
Panmure Golf Club,DD7 7RT,56.4954,-2.7493
WEECOOK,DD7 7SA,56.4915,-2.7806
