name,postcode,lat,lon
skink and tokay,LL23 7SU,52.868893000000000,-3.687210548928930
flying dragon and agamid,LL23 7UE,52.851399291825500,-3.680699099552190
swift and sand viper,LL24 0HY,53.049271820264500,-3.682884851308030
horned viper and monitor,LL24 0SA,53.009155562286800,-3.862097335461110
perentie and B,LL24 0YP,53.032333000000000,-3.805649000000000
glass snake and Fulmarine petrel,LL40 2PH,52.836729632104400,-3.880068749480340
Moluccan boobook and garter snake,LL41 3AN,52.993865357002200,-3.931784604710190
Hawk and turtle,LL41 3AP,52.994031184108700,-3.931538697140050
jew lizard and bandy-bandy,LL41 3LE,52.999652832460500,-3.942966653827370
boomslang and flying dragon,LL41 3LW,52.998660582262800,-3.945366063338790
Fish eagle and Viscacha,LL41 3LX,52.989847945533700,-3.927269591436330
Kākāriki and Grackle,LL41 3PS,52.992786326894700,-3.947769100837040
slowworm and king cobra,LL41 3PW,52.994191832211500,-3.949233042596140
amphisbaena and garter snake,LL41 3RB,52.992747692633900,-3.950672912476030
flying dragon and crocodile,LL41 3SB,52.988556711533300,-3.955132433717920
Songlark and Rabbit,LL41 3SP,52.987226673425200,-3.960554951650750
Parakeet and gopher snake,LL41 3YA,52.993290626240300,-3.944424302575510
rock snake and Francolin,LL41 4AF,52.984096906059400,-3.929475000000000
puff adder and bull snake,LL41 4AW,52.982372483870100,-3.930496000000000
skink and Old World warbler,LL41 4LU,52.959194279213000,-3.934198643907360
adder and Asiatic leopard,LL41 4SS,52.898627535707200,-3.920140392327740
cerastes and boomslang,LL45 2PH,52.850925000000000,-4.045432000000000
