name,postcode,lat,lon
Chickadee and Black jay,LL21 0RG,53.007426437741300,-3.548307371813570
amphisbaena and flying lizard,LL21 0RN,52.991028339637300,-3.594562587218610
kabaragoya and Coati,LL21 9UF,53.031285729200200,-3.534458209197590
hoop snake and Philippine hawk-owl,LL23 7AE,52.909985144343500,-3.599658668324400
agamid and Fish eagle,LL23 7BJ,52.908066000000000,-3.594725000000000
Maya and Diving bird,LL23 7BL,52.909070261936700,-3.595490886360990
Asiatic leopard and indigo snake,LL23 7DP,52.917953247680300,-3.560254362413750
Pratincole and Solitaire,LL23 7HG,52.923294747104200,-3.517828144224860
blind snake and bearded lizard,LL23 7HT,52.921552456611800,-3.512991000000000
Stint and Black cockatoo,LL23 7LY,52.911486000000000,-3.596457000000000
Condor and Vole,LL23 7NR,52.943995642713400,-3.617552281462810
rattlesnake and constrictor,LL23 7PR,52.906245631707600,-3.528771000000000
Guillemot and black snake,LL23 7PT,52.915270372155300,-3.509769050526320
Macaw and python,LL23 7SB,52.921068760107100,-3.629519557520420
skink and tokay,LL23 7SU,52.868893000000000,-3.687210548928930
boa constrictor and Wallaby,LL23 7TF,52.908467966632900,-3.598829488156230
flying dragon and agamid,LL23 7UE,52.851399291825500,-3.680699099552190
swift and sand viper,LL24 0HY,53.049271820264500,-3.682884851308030
horned viper and monitor,LL24 0SA,53.009155562286800,-3.862097335461110
perentie and B,LL24 0YP,53.032333000000000,-3.805649000000000
glass snake and Fulmarine petrel,LL40 2PH,52.836729632104400,-3.880068749480340
