name,id,postcode,lat,lon
Vulture and glass snake,888537,LL53 7TN,52.856808399954000,-4.480438439092260
skink and Night heron,888968,LL53 6DF,52.933598920278500,-4.551216001270540
wall lizard and Solitaire,888694,LL53 8EP,52.850602850520900,-4.657417015497770
Tattler and agama,888894,LL53 7HF,52.882458000000000,-4.475080000000000
amethystine python and chuckwalla,888337,LL53 8TE,52.867354387118900,-4.571738508325650
mud turtle and diamond snake,888705,LL53 8HF,52.860618000000000,-4.616668000000000
Jay and Black jay,889048,LL53 6EW,52.937118909640700,-4.538430492344950
boomslang and diamondback turtle,888913,LL53 7LN,52.830377948897000,-4.531279044458110
Cloud rat and Linsang,888984,LL53 7PA,52.858818813694400,-4.492630888878530
American sparrow and Scimitar babbler,888430,LL53 8UU,52.914907000000000,-4.515339000000000
Shearwater and Mockingbird,888817,LL53 8RT,52.854131459452700,-4.571966395076410
Maya and diamond snake,889016,LL53 7SB,52.845866000000000,-4.523938000000000
rattlesnake and rock python,888550,LL53 7UG,52.826966490675000,-4.507313798522720
Perching duck and garter snake,888431,LL53 8UW,52.926634000000000,-4.544889832024440
Elephant and Magpie,888627,LL53 7YH,52.885705670848300,-4.485685877424740
brown snake and frilled lizard,889080,LL53 6LL,52.940324059744500,-4.513103000000000
sand viper and Kite,888831,LL53 7AB,52.827960440169100,-4.506658487928810
chameleon and Grackle,889055,LL53 6HH,52.935428290866300,-4.519862735343550
Herring gull and lizard,888838,LL53 7AN,52.826834286029700,-4.505910761214540
Polecat and Fox,888945,LL53 6BA,52.931794000000000,-4.555809359098740
gavial and Fish eagle,888947,LL53 6BD,52.932772733755100,-4.555349034667310
saltwater crocodile and Jackal,888787,LL53 8NT,52.870108000000000,-4.678210000000000
moloch and mud turtle,889040,LL53 6EH,52.935140048539000,-4.529191905029750
Night heron and B,888676,LL53 8DR,52.850663000000000,-4.594204000000000
Schneider python and Triller,888836,LL53 7AH,52.827441000000000,-4.505767000000000
soft-shelled turtle and Elephant,888645,LL53 8AQ,52.905048978408100,-4.619807082918180
terrapin and blue tongue,888943,LL53 6AY,52.932952577905400,-4.554094716978190
Dorcopsis and gecko,889071,LL53 6JF,52.935072000000000,-4.518503000000000
