name,postcode,lat,lon
habu and gecko,DE13 0AS,52.830671979025900,-1.649602912603160
Kākāriki and indigo snake,DE13 0DH,52.839739946405900,-1.616795530891040
chuckwalla and Moluccan boobook,DE13 0EB,52.832036392489700,-1.625383124727290
hawksbill and dukite,DE13 0FN,52.833738084624200,-1.640805746490550
skink and Triller,DE13 0HA,52.833066081047000,-1.632706854680520
chuckwalla and habu,DE13 0HL,52.839867966652200,-1.614686328280310
Masked owl and tiger snake,DE13 0JJ,52.838304879796100,-1.620608492932060
Armadillo and Puffleg,DE13 0JL,52.828154326395300,-1.631575762198230
Black cockatoo and bull snake,DE13 0PQ,52.827725527558900,-1.653381488259480
sand lizard and Treepie,DE13 9AH,52.847369579667800,-1.644954756079500
bearded dragon and Dorcopsis,DE13 9AR,52.843999940254200,-1.630669706106760
turtle and Marsh harrier,DE13 9AX,52.846062929054500,-1.637942440242320
rock python and boomslang,DE13 9BP,52.847890791065600,-1.654037685483710
Petrel and Towhee,DE13 9BT,52.847854796412200,-1.657126421064590
horned toad and Tree warbler,DE13 9DH,52.856592012452000,-1.686225556535220
Scimitar babbler and alligator,DE13 9FJ,52.829968000000000,-1.676958000000000
Civet and Grosbeak,DE13 9HS,52.857422000000000,-1.715358000000000
Badger and snake,DE13 9HU,52.851578514432200,-1.687212050930430
Vole and habu,DE13 9HX,52.852781431634900,-1.686579711965640
diamond snake and goanna,DE13 9JZ,52.854907581959200,-1.688346494649070
Crow and Condor,DE13 9NF,52.853880763731800,-1.680809860064600
terrapin and Kestrel,DE13 9QG,52.825316331882100,-1.685693847100330
Argus and Rabbit,DE13 9QR,52.831190000000000,-1.669934523863300
mud turtle and frill-necked lizard,DE14 2FQ,52.827659000000000,-1.625283000000000
turtle and blue racer,DE15 0SE,52.829549000000000,-1.585433720851620
Booted eagles and Mouse,DE6 1AH,53.016399830891700,-1.736509410194900
gaboon viper and indigo snake,DE6 1AZ,53.007805677488400,-1.732254695248980
dugite and moloch,DE6 1EH,53.023798436827300,-1.724820735746050
python and Treepie,DE6 1FE,53.017399130407300,-1.737189024233570
gopher snake and Coati,DE6 1GF,53.016670887833400,-1.733094247208810
iguana and Wallaby,DE6 1GH,53.017512842604700,-1.731747475154670
sand lizard and Kangaroo,DE6 1JW,53.008890267726900,-1.734885908274570
king cobra and lizard,DE6 1RY,53.025283827385800,-1.725765477309380
ringhals and Solitaire,DE6 1SG,53.011448638309100,-1.725391064254870
milk snake and lizard,DE6 1TG,53.010075000000000,-1.729644000000000
diamondback turtle and Bronzewing pigeon,DE6 1TH,53.009492000000000,-1.730363000000000
New World blackbird and Perching duck,DE6 1TQ,53.007908000000000,-1.725276000000000
Parrotlet and blue racer,DE6 1TX,53.006305000000000,-1.728058000000000
Macaw and Jackal,DE6 2BN,53.008627917306900,-1.763741000000000
Chipmunk and Myna,DE6 2BS,53.041506000000000,-1.795240000000000
king cobra and chameleon,DE6 2DW,53.004143179730000,-1.751172885406110
Perching duck and flying dragon,DE6 2EU,52.958026062979000,-1.763197347224510
Hawk and Kestrel,DE6 2GP,52.981751991888500,-1.764884871869940
Quetzal and Piping shrike,DE6 2HD,52.992842555874100,-1.820453655967500
tokay and king snake,DE6 2HZ,53.005176102040100,-1.768587629240960
bandy-bandy and snapping turtle,DE6 2JB,53.003622609240800,-1.769430420461650
Macaw and smooth snake,DE6 2JT,52.999574048085900,-1.781923490722400
harlequin snake and boa,DE6 2LH,53.000432000000000,-1.764336000000000
Viscacha and Ground sloth,DE6 3EY,53.021942857095400,-1.621877796189470
horned toad and Perching duck,DE6 3HD,52.984544000000000,-1.603838000000000
taipan and python,DE6 4NH,52.953143501922100,-1.575204916302370
dugite and Prion,DE6 4NN,52.945129833997900,-1.586771991272060
frill-necked lizard and snapping turtle,DE6 5HF,52.854948091555100,-1.769119211995660
brown snake and lizard,DE6 5HG,52.886308981668300,-1.745590691332860
diamond snake and Badger,DE6 5HZ,52.884573374325200,-1.762661063271980
Old World warbler and diamondback turtle,DE6 5NP,52.904585012178100,-1.832058135263790
rock python and Kestrel,DE6 5NU,52.902199339430100,-1.823429715455030
tokay and diamondback terrapin,DE6 9DY,53.006357000000000,-1.712007000000000
monitor and Piping shrike,DE65 5DW,52.864627000000000,-1.681697000000000
Skunk and bull snake,DE65 5EY,52.871584513170000,-1.678512000000000
Quetzal and Gull,DE65 5FH,52.873624805854300,-1.629289153132650
Condor and mountain devil,DE65 5GD,52.862816766369900,-1.649106562112790
Flameback and loggerhead,DE65 5HS,52.869621794193100,-1.628417053199660
Francolin and Goose,DE65 5HW,52.875433738797700,-1.627074794078010
Armadillo and Egret,DE65 5PP,52.869040000000000,-1.713158000000000
Logrunners and Vole,DE65 5PS,52.867591000000000,-1.705324000000000
Bronzewing pigeon and water snake,DE65 5PU,52.878436139762600,-1.679441045000320
moloch and Cloud rat,DE65 5QB,52.872016389205300,-1.682296223983520
anole and Lemming,DE65 5QG,52.867377315949700,-1.678750038452680
Francolin and grass snake,DE65 6JJ,52.883091492812900,-1.599086507010980
Komodo dragon and Egret,DE65 6LP,52.884633086613500,-1.600394916675160
Warbler and chameleon,ST10 1BA,52.986837308279100,-1.986031150849260
python and Pheasant,ST10 1DD,52.988229682955600,-1.979401840715600
sidewinder and B,ST10 1DH,52.989911340193900,-1.983870125236850
bushmaster and Bunting,ST10 1DJ,52.992769953793400,-1.984286218741370
sand viper and anaconda,ST10 1ET,52.985713604133600,-1.985554851451060
tree snake and elapid,ST10 1QU,52.976409176354500,-1.981120001098080
rock python and rat snake,ST10 1RS,52.984894520377000,-1.978405429202090
diamondback and kabaragoya,ST10 1SG,52.983896553984000,-1.977497335196490
Grouse and iguana,ST10 1TA,52.992652427308600,-1.979802005563900
B and bushmaster,ST10 1UJ,52.995117000000000,-1.979816000000000
monitor and boa constrictor,ST10 1UN,52.993201005130200,-1.981276659551920
glass snake and tree snake,ST10 2BY,53.020294000000000,-1.974616000000000
gecko and Mamo,ST10 2DJ,53.010576098192500,-1.975888892506070
Moluccan boobook and viper,ST10 2LU,53.047071000000000,-1.969141000000000
ringhals and Boto,ST10 2QS,53.041676942125300,-1.969189924409800
brown snake and python,ST10 3AS,52.988568060169800,-1.926564000000000
rattlesnake and Herring gull,ST10 3BX,53.009974275674000,-1.867195623880960
Polecat and black snake,ST10 3DU,53.014872000000000,-1.913343000000000
habu and bushmaster,ST10 4BH,52.975349400353500,-1.895774927184720
caiman and thorn lizard,ST10 4EJ,52.955420078197500,-1.986532292250960
Thrasher and massasauga,ST10 4FJ,52.979713000000000,-1.863130000000000
Polecat and horned toad,ST10 4HS,52.951262437901800,-1.924305000000000
Jerboa and iguana,ST10 4NR,52.936881712454000,-1.971852661061650
Pratincole and Jay,ST10 4QG,52.914307000000000,-1.938363000000000
tree snake and Snipe,ST10 4QS,52.999435491579900,-1.963796074869420
Ice seal and flying dragon,ST10 4QY,52.983350767602100,-1.954738577930100
Kestrel and Pitohui,ST10 4RD,52.919422601195700,-1.964546502634950
death adder and Duck,ST10 4RR,52.959329994617500,-1.983330524799400
Black jay and snake,ST14 5BJ,52.903582000000000,-1.921221000000000
blue racer and gavial,ST14 5BX,52.961768046180700,-1.833653235777970
wall lizard and garter snake,ST14 5DJ,52.970232000000000,-1.881731000000000
harlequin snake and blue tongue,ST14 5LN,52.949352000000000,-1.838164759481470
Booted eagles and alligator,ST14 5NA,52.954542930104400,-1.835258702523110
bearded dragon and bandy-bandy,ST14 7BE,52.907981085549700,-1.874242696318560
Chipmunk and Nukupuʻu,ST14 7BT,52.903499577144800,-1.869750862701450
amethystine python and cobra,ST14 7DH,52.906028512728200,-1.872464162377370
Mouse and cayman,ST14 7DY,52.905347224781000,-1.874250307081640
leguaan and Elephant,ST14 7EZ,52.905990665896200,-1.879273872930900
Wallaby and Badger,ST14 7FG,52.898769128670500,-1.868055000000000
sidewinder and Chicken,ST14 7HG,52.905588580401800,-1.881698469455940
Armadillo and Old World warbler,ST14 7HQ,52.908136840242200,-1.886092724162850
agamid and Maya,ST14 7HW,52.905950086818100,-1.874798685154570
king snake and perentie,ST14 7JB,52.900062510632500,-1.866906858007890
horned viper and Fish eagle,ST14 7JH,52.902758514677500,-1.866199863578610
Linsang and Elephant,ST14 7LU,52.903637000000000,-1.870955000000000
Condor and leathery turtle,ST14 7NJ,52.903616386657900,-1.887323671548700
slowworm and gavial,ST14 7NW,52.903403926923800,-1.872739463534310
cerastes and puff adder,ST14 7PB,52.901850093163300,-1.882779031735660
mamba and worm lizard,ST14 7PJ,52.899209625080600,-1.876260054845190
crocodile and horned toad,ST14 7PP,52.899982085107100,-1.875663216525880
sand lizard and frill-necked lizard,ST14 7PR,52.899343456297600,-1.875293394428350
saltwater crocodile and Quetzal,ST14 7QX,52.898383968354000,-1.869126952843720
Condor and cobra de capello,ST14 7SG,52.901857668851600,-1.881233000000000
box turtle and anole,ST14 7SX,52.898787000000000,-1.884687000000000
python and snapping turtle,ST14 8AN,52.895045874057600,-1.858598144288100
Tahr and indigo snake,ST14 8AT,52.898024000000000,-1.859495000000000
hawksbill and kabaragoya,ST14 8BL,52.892973478792000,-1.862127565739860
cayman and adder,ST14 8DL,52.891496353663400,-1.875850942712550
rat snake and gaboon viper,ST14 8DT,52.896010989513400,-1.869312463335930
Fox and Eagle,ST14 8HL,52.897650255996100,-1.864149293870490
frilled lizard and Macaw,ST14 8JN,52.897131000000000,-1.865147000000000
frill-necked lizard and chameleon,ST14 8JU,52.884614963578900,-1.856284000000000
Gull and mamba,ST14 8NP,52.874708000000000,-1.847521000000000
New World blackbird and indigo snake,ST14 8NS,52.866799502036100,-1.849776992664030
White ibis and Rabbit,ST14 8PE,52.866411335895300,-1.834983156329190
rat snake and tortoise,ST14 8PZ,52.863462977828900,-1.910910977407090
blindworm and Minke whale,ST14 8RJ,52.864113507489900,-1.893070236262850
Magpie and Kangaroo,ST14 8TD,52.894775343937500,-1.927821979585700
milk snake and Chipmunk,ST14 8UF,52.892835595461100,-1.867359997137020
copperhead and rock snake,ST14 8UG,52.892931736403800,-1.864922064974460
carpet snake and Marsh harrier,ST14 8XR,52.870607000000000,-1.782272152829820
Coati and Peafowl,ST14 8XZ,52.890008000000000,-1.862092000000000
Prion and Peafowl,ST18 0ER,52.897204932910700,-1.982239000000000
swift and Masked owl,WS15 3EP,52.832230138991300,-1.885593303468130
Ground sloth and Grosbeak,WS15 3NR,52.825828613988000,-1.948683216817870
swift and water snake,WS15 3PF,52.831863678980200,-1.936564423150560
