name,postcode,lat,lon
Hidden Gem Kitchen,DE74 2DA,52.835978826351600,-1.282415000000000
Red Lion,DE74 2DA,52.835978826351600,-1.282415000000000
Best Western Premier Yew Lodge Hotel,DE74 2DF,52.836941832101200,-1.284165000000000
Sweet Olives Restaurant at The Kegworth Hotel,DE74 2DF,52.836941832101200,-1.284165000000000
Cap and Stocking,DE74 2FF,52.837387341743900,-1.279036000000000
Hilton East Midlands ,DE74 2YW,52.857301012306700,-1.298741371538560
The Star,LE12 5RQ,52.832156564412000,-1.235988341570300
HEAT INDIAN RESTAURANT LIMITED,LE12 6JG,52.834055452252200,-1.177098888896400
Three Horseshoes East Leake,LE12 6PB,52.829082386961800,-1.183352368736500
The Cottage ,LE12 6PG,52.831287716281300,-1.177255078437190
Generous Briton,LE12 6XD,52.831560476908200,-1.150637000000000
The Plough Inn,LE14 3AH,52.858174383523100,-0.975884487779967
The Tap & Run,LE14 3BG,52.828923444203000,-0.987629958800401
NAGS HEAD,LE14 4BN,52.871587448871700,-0.895652649755062
Fox & Grapes,NG1 1DL,52.953194669781200,-1.137671000000000
Marys kitchen,NG1 1DL,52.953194669781200,-1.137671000000000
Blend Coffee House Ltd,NG1 1DS,52.954265000000000,-1.138946000000000
GB CAFE LTD,NG1 1DS,52.954265000000000,-1.138946000000000
subway,NG1 1EE,52.954186000000000,-1.139305000000000
Nonsuch Kitchen,NG1 1EH,52.954421285168200,-1.140863545391510
Saracens ,NG1 1EH,52.954421285168200,-1.140863545391510
31K,NG1 1FE,52.953877443822800,-1.142734943315210
Shanghai Shanghai Restaurant,NG1 1FE,52.953877443822800,-1.142734943315210
Yolk,NG1 1FE,52.953877443822800,-1.142734943315210
Viva Street Food,NG1 1FF,52.953546488790000,-1.142770000000000
DESI DOWN TOWN,NG1 1FH,52.953863369962200,-1.140532000000000
Paris Nottingham Limited,NG1 1HF,52.951277300730500,-1.144929650787180
ROCKET (NOTTINGHAM) LTD,NG1 1HF,52.951277300730500,-1.144929650787180
Deli-Cious Chocolate at The Robe Room,NG1 1HN,52.950751057471100,-1.144908000000000
Hungry Pumpkin,NG1 1HN,52.950751057471100,-1.144908000000000
Provenance Tapas,NG1 1HN,52.950751057471100,-1.144908000000000
Anoki,NG1 1JU,52.952557216419800,-1.141659586644240
Mandarin,NG1 1JZ,52.953525688186500,-1.141327835025960
Nottingham Bowl,NG1 1JZ,52.953525688186500,-1.141327835025960
Scunthorpe Bowl,NG1 1JZ,52.953525688186500,-1.141327835025960
Mowgli Street Food - Nottingham,NG1 1LG,52.953435539506900,-1.143785617482040
The Angel Microbrewery,NG1 1LG,52.953435539506900,-1.143785617482040
Oscar & Rosie's,NG1 1LH,52.952853000000000,-1.143812000000000
ViDa by Lorentes,NG1 1LX,52.951446542625500,-1.142217398834590
Saltbox ,NG1 1LY,52.952710080142300,-1.140585000000000
Bonzai Sushi & Noodle Bar,NG1 1NL,52.953639000000000,-1.144433363661500
Hockley Kitchen,NG1 1NL,52.953639000000000,-1.144433363661500
Sexy Mama Love Cicchetti,NG1 1NL,52.953639000000000,-1.144433363661500
bar Iberico,NG1 1NL,52.953639000000000,-1.144433363661500
Six Barrel Drafthouse Hockley,NG1 1NN,52.953458658460100,-1.144499633280350
UGLY BREAD BAKERY,NG1 1NN,52.953458658460100,-1.144499633280350
Dino,NG1 1NU,52.953321692779700,-1.144204639503060
the hockley arts club,NG1 1NU,52.953321692779700,-1.144204639503060
Debbie Bryan,NG1 1PF,52.953099236184400,-1.144521608627070
Annies Burger Shack,NG1 1PR,52.951967455868400,-1.143397841659950
THE LACEHOUSE,NG1 1PS,52.951789835335800,-1.143403000000000
penny lane,NG1 1QQ,52.952780583719500,-1.145360000000000
josephines tea lounge & bistro,NG1 2AB,52.954808468742100,-1.150962993307060
Cookieshake UK Limited,NG1 2AD,52.955304195650800,-1.148631154054800
Kings Walk Kitchen,NG1 2AE,52.955372972194800,-1.149448505704130
Petit Paris Limited,NG1 2AE,52.955372972194800,-1.149448505704130
The Filthy Vegan,NG1 2AE,52.955372972194800,-1.149448505704130
Route One,NG1 2AG,52.955259211975800,-1.149882415225500
BARBURRITO,NG1 2AS,52.954292359744000,-1.149186884242720
French Living,NG1 2AY,52.954718533754200,-1.149699506689520
T4,NG1 2AY,52.954718533754200,-1.149699506689520
The Alchemist Nottingham,NG1 2AY,52.954718533754200,-1.149699506689520
Georges Great British Kitchen,NG1 2BL,52.954345000000000,-1.150138000000000
REDS TRUE BARBECUE,NG1 2BL,52.954345000000000,-1.150138000000000
The Soulville Steakhouse (Nottingham),NG1 2BL,52.954345000000000,-1.150138000000000
Debenhams Restaurant Nottingham,NG1 2DS,52.954061381309800,-1.150828770503260
WOK & GO ,NG1 2EA,52.953672237858800,-1.145448054077240
The Kitchen On Pelham Street,NG1 2EG,52.953507769444600,-1.146329501518060
Tier Lounge Ltd,NG1 2EG,52.953507769444600,-1.146329501518060
Fox Cafe Limited,NG1 2EH,52.953790998181100,-1.146963978731890
Delilah Fine Foods Ltd,NG1 2EX,52.953153379981200,-1.146486000000000
Red Dog Saloon - Nottingham,NG1 2EX,52.953153379981200,-1.146486000000000
das kino,NG1 2FZ,52.952339000000000,-1.146081789076880
Cafe Contemporary,NG1 2GB,52.951588891844700,-1.145757022178080
Baresca,NG1 2GJ,52.951946272996700,-1.146702578828280
CROSS KEYS,NG1 2GJ,52.951946272996700,-1.146702578828280
Coco Tang,NG1 2GJ,52.951946272996700,-1.146702578828280
The Tap House Nottingham,NG1 2GJ,52.951946272996700,-1.146702578828280
White Rabbit Teahouse,NG1 2HB,52.952548000000000,-1.146482000000000
200 Degrees,NG1 2HN,52.952777966614700,-1.148606327485160
Geek Retreat Nottingham ,NG1 2HN,52.952777966614700,-1.148606327485160
Starbucks South Parade,NG1 2JS,52.952790104094900,-1.150302934026010
B Sweet,NG1 2NA,52.952598691238600,-1.149934571057170
Exchange Walk McDonalds,NG1 2NX,52.952690641432500,-1.148965271610430
SUHAN RESTAURANT,NG1 3AA,52.954580242441400,-1.142959212948810
Suede,NG1 3AA,52.954580242441400,-1.142959212948810
Sexy Mama Loves Spaghetti,NG1 3AF,52.953955785037500,-1.143626495220570
U CANTEEN LTD,NG1 3AF,52.953955785037500,-1.143626495220570
Balti House Tandoori,NG1 3AG,52.954825284443100,-1.143281846607940
Botti di Mamma,NG1 3AJ,52.954149895617000,-1.144366915617460
dolce restaurant ,NG1 3AJ,52.954149895617000,-1.144366915617460
BOHNS Best Burgers,NG1 3AL,52.954084000000000,-1.143774969209250
KAYAL RESTAURANT,NG1 3AL,52.954084000000000,-1.143774969209250
Million Doner,NG1 3BA,52.955120731750000,-1.144362644297140
Curious Tavern,NG1 3BE,52.954088584396900,-1.144771000000000
PEGGYS SKYLIGHT LIMITED,NG1 3BH,52.954193000000000,-1.145274000000000
subway,NG1 3DJ,52.954330000000000,-1.146790000000000
The Nottingham catering ,NG1 3DL,52.960525000000000,-1.149403737600000
MOJO Nottingham,NG1 3DR,52.953921442101000,-1.146351127895700
Roxy Ball Room Nottingham,NG1 3DR,52.953921442101000,-1.146351127895700
Yamas Meze & Tapas,NG1 3DR,52.953921442101000,-1.146351127895700
Chopstix Nottingham,NG1 3ED,52.954282873442500,-1.147862294921800
Clumber Street McDonalds,NG1 3ED,52.954282873442500,-1.147862294921800
BISTROT PIERRE - NOTTINGHAM,NG1 3EN,52.956213606364400,-1.148613000000000
kfc,NG1 3EN,52.956213606364400,-1.148613000000000
Mayfair Restaurant,NG1 3FN,52.960305445017400,-1.150319406757800
The Golden Fleece,NG1 3FN,52.960305445017400,-1.150319406757800
Prickly Pear,NG1 3FQ,52.961162730497900,-1.150779003964180
Sarangbang Korean Food Cafe,NG1 3FQ,52.961162730497900,-1.150779003964180
Lincolnshire Poacher,NG1 3FR,52.962065274102400,-1.151282396414440
Six Barrel Drafthouse Victoria,NG1 3GX,52.957595237225300,-1.148452192222580
The Dice Cup,NG1 3GY,52.959048000000000,-1.149068573497790
Terrace Coffee Lounge,NG1 3JR,52.958740000000000,-1.146313689155970
Sarangchae Korean Restaurant,NG1 3NA,52.956696242199700,-1.144584000000000
The Mushy Pea Stall,NG1 3PT,52.956466395027600,-1.146805000000000
Clean Cut Kitchen,NG1 3QE,52.957402000000000,-1.147652000000000
Victoria Centre McDonalds,NG1 3QG,52.956509289072800,-1.147446393481430
Caffe Rizzoli Prosecco Bar,NG1 3QN,52.957777000000000,-1.147287000000000
Chopstix Nottingham Victoria,NG1 3QN,52.957777000000000,-1.147287000000000
Muffin Break,NG1 3QN,52.957777000000000,-1.147287000000000
Pokéwaves,NG1 3QN,52.957777000000000,-1.147287000000000
subway,NG1 3QN,52.957777000000000,-1.147287000000000
Alanya Catering Ltd,NG1 4AA,52.955402491751400,-1.149805178686880
Glasshouse,NG1 4AF,52.955865000000000,-1.148818991955290
The Pudding Pantry,NG1 4AF,52.955865000000000,-1.148818991955290
GINSECCO,NG1 4DB,52.955818823868800,-1.150198927908870
SY101 Limited t/a Alto,NG1 4DB,52.955818823868800,-1.150198927908870
The Lost City Adventure Golf,NG1 4DB,52.955818823868800,-1.150198927908870
subway,NG1 4DB,52.955818823868800,-1.150198927908870
tamatanga,NG1 4DB,52.955818823868800,-1.150198927908870
The Playwright,NG1 4FQ,52.957755549913800,-1.150756421570080
chunky chicken nottingham ltd,NG1 4FQ,52.957755549913800,-1.150756421570080
Dancing Dragon restaurant ,NG1 5BB,52.955564363992200,-1.161204336241230
Tough Marys Bakehouse Ltd,NG1 5FD,52.955418122901600,-1.158319379020020
The Strathdon Hotel,NG1 5FT,52.955284274300500,-1.157190682773420
Best Western Plus Nottingham City Centre,NG1 5FW,52.955408000000000,-1.155491000000000
The Stage,NG1 5FW,52.955408000000000,-1.155491000000000
Damas cafe and restaurant ,NG1 5GE,52.955717536378100,-1.159534000000000
MOGAL E AZAM RESTAURANT,NG1 5JS,52.955774281999300,-1.152775014224660
ROYAL EXPRESS CAFE,NG1 5JS,52.955774281999300,-1.152775014224660
Belgrave Rooms LTD,NG1 5LB,52.956487958643700,-1.153267189123590
Crowne Plaza Nottingham,NG1 5RH,52.955483000000000,-1.153446879959790
The Castle,NG1 6AA,52.950679532577300,-1.153097802547400
Watson Fothergills,NG1 6AA,52.950679532577300,-1.153097802547400
World Service Restaurant,NG1 6AF,52.950818360148000,-1.152233000000000
NAN TEI ,NG1 6AJ,52.951434304283000,-1.151788143483090
KASPAS,NG1 6BJ,52.950906969393300,-1.152215207915200
the cumin restaurant,NG1 6BJ,52.950906969393300,-1.152215207915200
Britannia Nottingham Hotel,NG1 6BN,52.952287000000000,-1.153959000000000
Bierkeller ,NG1 6DA,52.952205382560000,-1.151505142808410
Ned Ludd,NG1 6DA,52.952205382560000,-1.151505142808410
Kitty Cafe Nottingham Ltd,NG1 6DD,52.951804415119100,-1.152004168541680
Cafe Sobar (Double Impact Synergy CIC),NG1 6DQ,52.952380087924400,-1.152052449624970
SOUTHBANK BAR,NG1 6DQ,52.952380087924400,-1.152052449624970
The Specialty Coffee Shop,NG1 6DQ,52.952380087924400,-1.152052449624970
Crafty Crow,NG1 6EB,52.951312843679100,-1.153665914794730
Oz Bar,NG1 6FH,52.952758974265500,-1.152371000000000
St James (Nottingham) Ltd T/A St James Hotel,NG1 6FL,52.951724518500000,-1.154239000000000
Harts Hotel,NG1 6FN,52.951495677583400,-1.156624293282860
The Roundhouse,NG1 6FS,52.951830000000000,-1.155397000000000
The Maharaja's Retreat ,NG1 6GF,52.951950000000000,-1.153284738931300
Laguna Tandoori Nottingham,NG1 6HE,52.952478153017200,-1.154461819964880
Angel Row McDonalds,NG1 6HL,52.953543286484000,-1.152550674837570
CRESCENT PARTNERS LTD,NG1 6HL,52.953543286484000,-1.152550674837570
HD NOTTINGHAM LTD,NG1 6HL,52.953543286484000,-1.152550674837570
Heavenly Desserts Nottingham,NG1 6HL,52.953543286484000,-1.152550674837570
Taco Bell,NG1 6HL,52.953543286484000,-1.152550674837570
Grosvenor Casino Nottingham,NG1 6HS,52.952764000000000,-1.154114000000000
MemSaab Restaurant,NG1 6HS,52.952764000000000,-1.154114000000000
The Calcutta Club Ltd ,NG1 6HS,52.952764000000000,-1.154114000000000
WOLF Italian Street Food,NG1 6HW,52.954531000000000,-1.150906452461920
COPPER,NG1 6HX,52.954587481302300,-1.151488302864100
Pieminister Nottingham,NG1 6JB,52.953978616649300,-1.151827686903220
Kushi-ya,NG1 6JE,52.954004000000000,-1.152661000000000
MISS KOREA,NG1 6JE,52.954004000000000,-1.152661000000000
Ohannes Gurme Burger,NG1 6JE,52.954004000000000,-1.152661000000000
Pepe's Piri Piri City Centre,NG1 6JE,52.954004000000000,-1.152661000000000
Zaap Thai Street Food,NG1 6JG,52.953254087300000,-1.153181625600000
Fat Cat Nottingham,NG1 6JQ,52.954334698626500,-1.153859984986140
Mans Restaurant,NG1 6JQ,52.954334698626500,-1.153859984986140
TIGER NOTT LTD TRADING AS SUSHIMANIA,NG1 6JS,52.953988391941100,-1.154089000000000
Persian Empire Ltd,NG1 6LD,52.954540133670500,-1.152649000000000
May Sum Buffet Restaurant,NG1 6LF,52.954906450436200,-1.153508000000000
Pan Asia BBQ,NG1 6LF,52.954906450436200,-1.153508000000000
Starbucks Upper Parliament Street,NG1 6LF,52.954906450436200,-1.153508000000000
Hounds Gate Teahouse,NG1 7AB,52.951915208898200,-1.151153596933410
Cartwheel Cafe and Roastery,NG1 7DL,52.951369722795600,-1.147785579456040
Esculent,NG1 7DL,52.951369722795600,-1.147785579456040
The Magic Garden,NG1 7DL,52.951369722795600,-1.147785579456040
Canalhouse,NG1 7EH,52.948100095479500,-1.149397655313460
The Waterfront,NG1 7EH,52.948100095479500,-1.149397655313460
200 Degrees,NG1 7FE,52.948177000000000,-1.147331684115510
Barley Twist,NG1 7FE,52.948177000000000,-1.147331684115510
CURED,NG1 7FE,52.948177000000000,-1.147331684115510
Butchers Bar & Steakhouse,NG10 1EF,52.895900000000000,-1.268314000000000
TAPPERS HARKER,NG10 1GR,52.894651394657000,-1.265808477179880
The Cods Scallops,NG10 1JE,52.896960180120200,-1.271403439073500
Mount Gurkha Spice,NG10 1JF,52.896361679046900,-1.272022944104780
AL NASEEB RESTAURANT,NG10 1JL,52.897768242179300,-1.271047000000000
Costa Long Eaton,NG10 1JL,52.897768242179300,-1.271047000000000
Copper Cogs,NG10 1JQ,52.898967096626000,-1.271622000000000
Bennetts HotelRestaurant and Bar,NG10 1LW,52.900376000000000,-1.274168713984850
Trent Lock Golf & Country Club,NG10 2FY,52.876157000000000,-1.272391000000000
The Wilsthorpe Tavern,NG10 3LJ,52.890978704105600,-1.290142274170480
Georges Tradition,NG10 3RJ,52.892679333189800,-1.293429141678840
West Park Leisure Centre,NG10 4AA,52.897033517851600,-1.292466428560080
The Sportsman,NG10 4HA,52.902126312489300,-1.278304353798510
Chandelier Indian Restaurant ltd ,NG10 4LA,52.900492000000000,-1.276906126387740
Savvy-Sandwich & Salad Bar,NG10 4LS,52.901866672574000,-1.281445607380490
Street Food Kitchen ,NG10 4NN,52.904078757704000,-1.283044477465340
Torino Pizza,NG10 4QP,52.900831363085200,-1.276749995589060
Buonissima Aperitivo bar,NG10 5BG,52.922747136749400,-1.287064620648200
Appertize Sandwich Bar ,NG10 5HL,52.921804438430900,-1.296316753031980
Bridge Inn,NG10 5LW,52.915393046169900,-1.289951479393300
Dovecote Barn - Cafe Bar & Bistro,NG11 0AA,52.889343000000000,-1.223866000000000
The Sun Inn,NG11 0HX,52.866036159198400,-1.204153812251830
Dhaka Delhi limited,NG11 6DT,52.892129492392600,-1.149170604726600
The Framebreakers,NG11 6DT,52.892129492392600,-1.149170604726600
BlackCat Cafe (Ruddington) Ltd,NG11 6EA,52.891331019906400,-1.149394325244740
PHILOS,NG11 6EH,52.891952385543800,-1.149545665644720
The Bottle Top,NG11 6EH,52.891952385543800,-1.149545665644720
The Next Episode,NG11 6EN,52.893382488645000,-1.149651458661720
The Ruddington Arms,NG11 6EQ,52.894697000000000,-1.149756906403340
White Horse Inn & Kitchen,NG11 6HD,52.891587838827400,-1.151366161304650
TS CUISINE LIMITED,NG11 6LB,52.893490451270200,-1.145903547736070
Wellingtons Cafe,NG11 6PQ,52.872055000000000,-1.125465000000000
The Rancliffe Arms,NG11 6QT,52.860670750836400,-1.133685158486620
The Tailors Arms,NG11 7AX,52.925388293165900,-1.157251000000000
Lark Hill Retirement Village,NG11 8BF,52.898427000000000,-1.193467000000000
Clifton McDonalds,NG11 8NA,52.905502000000000,-1.188250000000000
kfc,NG11 8NA,52.905502000000000,-1.188250000000000
The Radcliffe,NG12 1AW,52.952663107311700,-1.031421924317030
The Humble Cat ,NG12 2AE,52.947687015459600,-1.039688928197120
The Chestnut,NG12 2BE,52.946456642787400,-1.044299994872930
Piano (Radcliffe on Trent),NG12 2FD,52.946447000000000,-1.039657000000000
Mewar Haveli,NG12 2LF,52.934548562406300,-1.079898000000000
Venezia,NG12 2NL,52.944617600227500,-1.006391571444190
plough inn,NG12 3AB,52.926251789470400,-0.983010968152738
Sarsfield's Chocolaterie and Tearooms,NG12 3ED,52.871941000000000,-0.986644000000000
The Nevile Arms,NG12 3EH,52.873408361616800,-0.991215396032155
THE MARTINS ARMS,NG12 3FD,52.890508000000000,-0.964109000000000
The Nottinghamshire Golf and Country Club Limited,NG12 3HB,52.928039991353800,-1.061740000000000
Grannies Tearooms,NG12 3JS,52.912406772159600,-1.038954000000000
Edwalton Golf Course,NG12 4AS,52.913022004841200,-1.109992686572720
Notcutts Wheatcroft,NG12 4DE,52.903710983076600,-1.124813378920600
The Air Hostess Ltd,NG12 4EA,52.900360889236000,-1.098760124061540
CHARDE ORIENTAL RESTAURANT,NG12 4EN,52.898716047559400,-1.098631000000000
Alices Tea Shop,NG12 5AD,52.869632772867200,-1.090304960318200
Stanton on the Wolds Golf Club Limited,NG12 5BH,52.870993069531300,-1.067486389976310
Gillmoores at Moores Nurseries and Garden Centre LTD,NG12 5BQ,52.872286000000000,-1.051205000000000
Keyworth Tavern,NG12 5DW,52.872481924879700,-1.079726494764210
Indian nights ,NG12 5JT,52.870913000000000,-1.090650000000000
Perkins Bar & Bistro,NG12 5NA,52.888438256144500,-1.087845529952060
The Griffin Inn Plumtree,NG12 5NB,52.892397754260300,-1.090720358317400
Yeung Sing Cantonese Restaurant,NG13 8AB,52.951595000000000,-0.952975000000000
Butlers Coffee House,NG13 8AD,52.951679553186200,-0.953553809815101
Horse & Plough,NG13 8AF,52.951399278240600,-0.954394097283109
Rose & May,NG13 8AF,52.951399278240600,-0.954394097283109
COPPER,NG13 8AP,52.952651683671500,-0.952041000000000
Number Sixteen,NG13 8AP,52.952651683671500,-0.952041000000000
The White Lion,NG13 8AT,52.950501000000000,-0.959521000000000
Costa Bingham,NG13 8BD,52.952189889117400,-0.953468000000000
The Wheatsheaf Bingham,NG13 8BG,52.951227463977900,-0.954279165742706
the royal oak,NG13 8JE,52.976803000000000,-0.929907000000000
Caffe Velo Verde,NG13 8JL,52.985248000000000,-0.912445169483609
Indian Nights,NG13 8LA,52.973257000000000,-0.952631000000000
The Royal Oak,NG13 8PA,52.980244278297100,-0.969530575824756
The Unicorns Head ,NG13 9HE,52.904071793151100,-0.925529754840399
Langar Hall,NG13 9HG,52.904568000000000,-0.929547000000000
COACH GAP CAFE,NG13 9HP,52.900174000000000,-0.913911000000000
Wildflower Farm & Tearoom,NG13 9HP,52.900174000000000,-0.913911000000000
abm catering at John Deere,NG13 9HT,52.896182923131200,-0.912152669093573
RHUBARBS tea room,NG14 5DJ,52.987783000000000,-1.034316000000000
The Nelson,NG14 5DN,52.986658724547300,-1.035488245698920
Hugo’s kitchen,NG14 5DX,52.987973371726700,-1.037976530674400
The Willow Tree Tea Room,NG14 5ED,52.989384885577200,-1.034667766141980
THE CROSS KEYS,NG14 6AD,53.029399034415800,-1.028139000000000
Belle & Joes Kitchen ,NG14 6DN,53.022550197863000,-1.036149142891300
Admiral Rodney,NG14 6FB,53.037471265624100,-1.089610758162990
The Bandook,NG14 6FN,53.037259301832500,-1.084037000000000
Patchings Farm Art Centre,NG14 6NU,53.042743488025600,-1.111604674368380
Ramsdale Park Golf Centre,NG14 6NU,53.042743488025600,-1.111604674368380
Jo-Hanna's Cafge & Bistro,NG14 7AB,53.010577905115300,-1.003625654148730
The Worlds End,NG14 7AT,53.011128000000000,-1.007980000000000
The Old Ship Inn,NG14 7BE,53.012647086391700,-1.004889677754180
The Railway,NG14 7DU,53.007754413803000,-0.999249366526187
The Old Volunteer,NG14 7EB,53.006963481781100,-0.983039000000000
The Bridge and Bayleaf,NG14 7FB,52.986729953945600,-0.982544745075616
Tom Browns (Gunthorpe) limited,NG14 7FB,52.986729953945600,-0.982544745075616
red lion ,NG14 7GP,53.037803225950200,-0.964221688292182
The Reindeer Inn,NG14 7JR,53.015065309053600,-0.958684391968591
THE BROOMHILL INN,NG15 6AJ,53.027208466333000,-1.198775788784530
Arunothai,NG15 6DY,53.029863886971600,-1.207360103580770
Green Dragon Hucknall,NG15 6GR,53.020968322885600,-1.227187000000000
Costa Hucknall,NG15 7AX,53.038442545553400,-1.203458000000000
HALF MOON,NG15 7BS,53.038356133127500,-1.205608613506090
New Era Restaurants Ltd t/a Moda,NG15 7DE,53.042128000000000,-1.211537577983480
Mrs C's Vintage Tea Room,NG15 7HJ,53.037522146336500,-1.201880594995350
Alaskan Ice Ltd,NG15 7LE,53.037020906813700,-1.203545251447370
The Station Hotel,NG15 7TQ,53.039013280079300,-1.197706909265210
McDonald's Hucknall,NG15 7UQ,53.035849000000000,-1.196274000000000
Bella Mia Restaurant,NG15 8AY,53.048085000000000,-1.215275000000000
Royal Oak,NG16 1HS,53.006510454691100,-1.253361212168140
Lime Restaurant,NG16 1PT,52.986479182999900,-1.228949240161660
Hayloft,NG16 2GB,53.008619787964800,-1.285039871702150
Eatz Cafe,NG16 2LP,52.997108936994300,-1.257888964792410
Madhatters tearoom,NG16 2LP,52.997108936994300,-1.257888964792410
Simla Restaurant ,NG16 2LP,52.997108936994300,-1.257888964792410
The Dog House at Kimberley,NG16 2NG,52.997128783095800,-1.255310969266440
Rumbletums (Kimberley) Ltd,NG16 2NH,52.997597579254800,-1.255526404913470
Cricketers Rest,NG16 2NP,52.998042244714100,-1.257634567140600
HOGS HEAD HOTEL LTD,NG16 2RN,52.994614078466900,-1.280518401053200
Starbucks Giltbrook,NG16 2RP,53.002929946822700,-1.281855000000000
Subway Giltbrook,NG16 2RP,53.002929946822700,-1.281855000000000
Vat & Fiddle,NG2 1NB,52.945594543218400,-1.148494332058260
Embankment,NG2 2GR,52.939159045251500,-1.138651084548400
Brewhouse and Kitchen Nottingham,NG2 2GS,52.938666000000000,-1.137515000000000
Virgin Active Nottingham,NG2 3AE,52.946890000000000,-1.138542000000000
HOPS COFFEE HOUSE & BAR,NG2 3AJ,52.947683000000000,-1.146173101403820
Starbucks Bentinck Hotel,NG2 3AJ,52.947683000000000,-1.146173101403820
THE BENTINCK HOTEL,NG2 3AJ,52.947683000000000,-1.146173101403820
Hooters Restaurant,NG2 3AS,52.946184000000000,-1.144063000000000
kfc,NG2 3GG,52.946806000000000,-1.128156000000000
subway,NG2 3GZ,52.945447000000000,-1.132931000000000
TRENT NAVIGATION INN,NG2 3HS,52.940997000000000,-1.137856000000000
THE MARKET CAFE NOTTM,NG2 3JJ,52.944630000000000,-1.135521000000000
Eden Softplay,NG2 3LH,52.942524948179500,-1.141664641361860
Colwick Hall Hotel,NG2 4BH,52.945319067629900,-1.105789000000000
The Cheesecake Shop Colwick,NG2 4DH,52.946476000000000,-1.123698000000000
Scoops Express,NG2 4HJ,52.953765948730300,-1.122523376112010
Papas Wok,NG2 4HU,52.954367497734000,-1.122421892318670
The Dale’s Grill,NG2 4HU,52.954367497734000,-1.122421892318670
Fei Xiang Ltd,NG2 4PB,52.953243000000000,-1.136780699979990
Cheff,NG2 5BL,52.938172437627800,-1.119327179713490
Bread and Butterflies,NG2 5BN,52.938447874529900,-1.118890077284430
Poppy & Pint,NG2 5DX,52.936499640703500,-1.119227220250400
cafe pizza,NG2 5FB,52.937790948756300,-1.134705425480610
Bombay Bridgford,NG2 5FF,52.937892000000000,-1.133558000000000
Bridgford Restaurant & Fish Bar,NG2 5FF,52.937892000000000,-1.133558000000000
Cuzina ,NG2 5FF,52.937892000000000,-1.133558000000000
Delhi Nights ,NG2 5FF,52.937892000000000,-1.133558000000000
Trent Bridge McDonalds,NG2 5FX,52.938703830607700,-1.129226337649620
WATERSIDE BAR & KITCHEN,NG2 5GJ,52.938261043766400,-1.134682000000000
Birds Bakery,NG2 5GQ,52.931849529556800,-1.126194978135810
COPPER,NG2 5GQ,52.931849529556800,-1.126194978135810
Yumacha Bar Brasserie,NG2 5GQ,52.931849529556800,-1.126194978135810
NO.8 DELICATESSEN,NG2 5LN,52.929921674187400,-1.125638721093380
Yumuchi Japanese Bar & Restaurant,NG2 5LN,52.929921674187400,-1.125638721093380
Tiffin Teahouse,NG2 5NG,52.929875816277700,-1.120641050512110
Larwood and Voce,NG2 6AJ,52.937264241903800,-1.130281899887980
Gusto Italian,NG2 6AP,52.933625266039000,-1.129298491192030
THE PARLOUR,NG2 6AP,52.933625266039000,-1.129298491192030
The Black Pearl ,NG2 6AP,52.933625266039000,-1.129298491192030
Escabeche,NG2 6AU,52.932237305889400,-1.127585662395070
Stratford Haven,NG2 6BA,52.931350000000000,-1.130209391613640
THE REFINERY,NG2 6EP,52.927105000000000,-1.129920000000000
Rushcliffe Arena,NG2 7HY,52.922438951468700,-1.138715122304120
Curry 2 Night ,NG2 7PL,52.935318201845000,-1.133385901582410
Aziz Khan Limited,NG2 7RS,52.918674145792100,-1.152725716472330
Lowe's  No.8 Coffee Shop,NG2 7RS,52.918674145792100,-1.152725716472330
PENTO LIMITED,NG2 7RS,52.918674145792100,-1.152725716472330
The Dorset,NG2 7RS,52.918674145792100,-1.152725716472330
The Boot & Shoe Pub,NG23 5LA,53.005580896272000,-0.894874304492018
Unicorfee,NG3 2DG,52.954604113751500,-1.136319925390240
Stonebridge City Farm,NG3 2FR,52.957889653491000,-1.131982090291200
Bread & Bitter,NG3 5JL,52.984208431317200,-1.124290073748720
The Cheesecake Shop Mapperley,NG3 5JL,52.984208431317200,-1.124290073748720
Bombay brassiere ,NG3 5JU,52.985373624062800,-1.120170162448810
Costa Mapperley,NG3 5JU,52.985373624062800,-1.120170162448810
Holy cannoli Nottingham ltd,NG3 5LG,52.984549836568200,-1.121825406114880
kfc,NG3 5QG,52.981494000000000,-1.127845000000000
Tipsy T,NG3 5QR,52.983697283416400,-1.122021433516770
passage to india,NG3 5QR,52.983697283416400,-1.122021433516770
COPPER,NG3 5QS,52.984816690669700,-1.120226162160050
Chungs Of Mapperley Ltd,NG3 5QS,52.984816690669700,-1.120226162160050
THE OLD FLOWER SHOP,NG3 5QS,52.984816690669700,-1.120226162160050
The Wine Room,NG3 5QS,52.984816690669700,-1.120226162160050
Brookfields Garden Centre,NG3 5RW,53.004368457314700,-1.100947489493450
Toros Steakhouse Nottingham,NG3 7EE,52.959353361027600,-1.112287207501610
Everest Bhansaghar,NG4 1JA,52.965774000000000,-1.113570000000000
Albies Nottingham limited,NG4 1JB,52.966028968539700,-1.110602017021680
Piginns cafe ,NG4 1JD,52.966137234540100,-1.109274000000000
The Waiting Room Nottingham ltd,NG4 2LA,52.964327340528000,-1.078269000000000
Victoria Retail Park McDonalds,NG4 2PE,52.960908000000000,-1.065137000000000
subway,NG4 2PE,52.960908000000000,-1.065137000000000
Mamas ventures ltd trading as Mamas Food Xpress,NG4 3BP,52.966700000000000,-1.086299622478500
Amores Restaurant,NG4 3FG,52.971495176439700,-1.082286114227240
Cafe118,NG4 3GP,52.970355298495400,-1.076711344038440
The Gedling Inn,NG4 3HL,52.974852237637400,-1.080472619270950
The Wrinkly Lettuce Cafe LTD,NG4 3HP,52.972690146661700,-1.081039702804100
Willowbrook,NG4 3HQ,52.972865175764100,-1.081586979251430
Heidis cafe,NG4 3JN,52.972849155397900,-1.085339993934380
The Lambley Village Kitchen,NG4 4PN,53.000864913442200,-1.063960948972350
The Robin Hood Inn,NG4 4PP,53.000704607636300,-1.060730859961320
THE WOODLARK INN,NG4 4QB,53.002650168136000,-1.060077666870940
DUMBLES VIEW CAFE,NG4 4QL,53.005453766266500,-1.082967097458350
Cafe Pas Mama ,NG5 1DZ,52.977747246067600,-1.164587594135800
STADIUM LEISURE,NG5 1EG,52.979589616816100,-1.167084013545350
Yo burgers,NG5 1FA,52.976040146069700,-1.155804100016120
subway,NG5 1FW,52.985678000000000,-1.159576337999610
Fox Hotel,NG5 1HY,52.983515149340100,-1.173115543327960
Proark UK Hotels Ltd t/a Mercure Nottingham Sherwood Hotel,NG5 2BT,52.970062000000000,-1.153059314443720
Homemade Cafe,NG5 2BU,52.966094904810600,-1.152871083168700
Grill Town (Sherwood),NG5 2DA,52.972547286222400,-1.152581148834250
Masala Junction Restaurant,NG5 2DA,52.972547286222400,-1.152581148834250
The Cheesecake Shop Carrington,NG5 2DA,52.972547286222400,-1.152581148834250
The Cods Scallops,NG5 2DA,52.972547286222400,-1.152581148834250
SAAGAR RESTAURANT LIMITED,NG5 2DR,52.978800475156900,-1.148318439278850
COTSWOLD HOTEL,NG5 2EF,52.971933752276400,-1.152265540489820
Crafty Teller ,NG5 2FR,52.980075327317300,-1.146833766888030
LA CAPANNA LIMITED,NG5 2FS,52.981398845938500,-1.145869351767060
Marc & Daina's Restaurant,NG5 2FW,52.982709838494700,-1.145664763863070
Rikshaw urban indian,NG5 2FW,52.982709838494700,-1.145664763863070
The Crimson Tree,NG5 2FX,52.983477899523100,-1.144964438539700
cafe cchino's,NG5 2GA,52.982660295451400,-1.145025261384920
Le Mistral,NG5 2JN,52.981752914149600,-1.146353891209890
The Pudding Pantry Sherwood,NG5 2JN,52.981752914149600,-1.146353891209890
subway,NG5 3FW,52.986768355652500,-1.141397000000000
La Mensa,NG5 3GF,52.994007916616500,-1.139199276579090
Coffee Hideout Woodthorpe LTD,NG5 4LW,52.991675440964100,-1.121412746036750
Maureens coffee shop & cafe ,NG5 5EJ,53.010427389572000,-1.174106754959770
Mark's munchies ,NG5 6AT,52.997261907247000,-1.141145000000000
McDonald's Arnold,NG5 6BN,52.998559661730000,-1.135905200958500
Golden Phoenix,NG5 6FZ,52.997040143242200,-1.152101836593250
LUIGI'S RESTAURANT,NG5 6LF,53.000913489653600,-1.130776918769900
Ohannes Burger Arnold,NG5 6LF,53.000913489653600,-1.130776918769900
Refresh cafe ,NG5 6ND,53.002126326538200,-1.128219294508880
SPRINTERS,NG5 7DQ,53.005018607381700,-1.129129709078940
Everest Fusion Lounge,NG5 7DS,53.005962359797300,-1.129110719854840
EMILIOS GREEK RESTAURANT LIMITED,NG5 7DZ,53.003013820162300,-1.129110436235980
Birds Bakery,NG5 7EA,53.002436943836900,-1.128898516964260
Costa Arnold,NG5 7EA,53.002436943836900,-1.128898516964260
FRONT STREET CAFE,NG5 7ED,53.005283916304900,-1.127306243998910
Himalayan Inn ,NG5 7EG,53.005127400531000,-1.126802710457370
delicci cafebar,NG5 7EG,53.005127400531000,-1.126802710457370
Cafe Amelia ,NG5 7EL,53.002050018100400,-1.128846697056050
Bestwood Lodge,NG5 8HT,53.013244000000000,-1.152679000000000
The Banyan Tree Restaurant,NG5 8PG,53.021323693524100,-1.131350787716560
Subway,NG5 9DD,53.002213048068300,-1.178286908023080
McDonald's Bulwell,NG6 8EP,53.010418145999600,-1.189756542639950
kfc,NG6 8EP,53.010418145999600,-1.189756542639950
Costa Bulwell,NG6 8EW,53.001615749404000,-1.196120265637590
limekiln pub,NG6 8GE,53.005221597837100,-1.208347928333290
Castle Marina McDonalds,NG7 1GX,52.945732000000000,-1.161394000000000
Ultimate Cafe Nottingham ,NG7 1GX,52.945732000000000,-1.161394000000000
Ultimate Cafe Nottingham,NG7 1GX,52.945732000000000,-1.161394000000000
Avocafe by Nutri2Go,NG7 1RR,52.949693447713200,-1.171349378886220
Sonnets Cafe,NG7 2BY,52.953154183167200,-1.176492897451680
subway,NG7 2DZ,52.947390753066700,-1.182628000000000
Chaska,NG7 2ET,52.948016707985800,-1.174551479438350
higoi japanese restaurant,NG7 2FQ,52.949647413904900,-1.175071133443270
Taste of India Restaurant,NG7 2NZ,52.942669569153400,-1.179980658701490
TV Conferencing Ltd,NG7 2PX,52.942637000000000,-1.171216000000000
jukebox cafe,NG7 3AD,52.960929571030600,-1.172534043016020
UK PIZZA,NG7 3BN,52.958219873647500,-1.175860774871760
The Garden Nottingham Ltd,NG7 3FY,52.955241226209800,-1.181916209766360
White Horse Cafe,NG7 3FY,52.955241226209800,-1.181916209766360
The Sir John Borlase Warren,NG7 3GD,52.955809493211100,-1.162822127788610
Aloowala,NG7 3HE,52.955645878469300,-1.171548228356310
Buns Burgers Shakes Fries Nottingham,NG7 3HE,52.955645878469300,-1.171548228356310
The Falcon Inn,NG7 3JE,52.956477454330200,-1.163211149310710
BOSPHORUS RESTAURANT,NG7 3JL,52.957225795256200,-1.164804407214710
Baklava Bistro,NG7 3JL,52.957225795256200,-1.164804407214710
Spice Hut,NG7 3JR,52.958863621391100,-1.167616211821210
The Compatriot Ltd ,NG7 3JR,52.958863621391100,-1.167616211821210
Sans Patrie LTD,NG7 3NG,52.956647000000000,-1.162836000000000
Tipoo Turkish Restaurant ,NG7 3NN,52.957229134936300,-1.164000492803220
subway,NG7 3NY,52.955936555200000,-1.183242942200000
crispy chicken,NG7 5DQ,52.963083251263700,-1.169411093999850
Mahmoods ,NG7 5DU,52.966495463911900,-1.171445099045790
Royal chicken and pizza ,NG7 5FW,52.965785554408400,-1.170193100159970
Yumi Ice Cream Parlour Limited ,NG7 5FW,52.965785554408400,-1.170193100159970
ALE BOSCO LTD,NG7 5GT,52.968114108463000,-1.172813801743630
Chaiiwala Nottingham,NG7 5JD,52.964967871665500,-1.171533853451260
Royal Sweet Centre,NG7 5JD,52.964967871665500,-1.171533853451260
kfc,NG7 5NH,52.964111064535800,-1.178905130673430
AFRICAN BASE RESTAURANT LTD,NG7 7AJ,52.975144096805100,-1.163848493057570
WILLOW TREE INN,NG7 7DA,52.977137910464100,-1.167429003971800
Hajis,NG7 7DG,52.979075000000000,-1.170505000000000
BestOfBoth World ,NG7 7EA,52.975712925466200,-1.173204873744180
McDonald's Valley Road,NG7 7EX,52.978902530897700,-1.174261022599350
Lion Inn,NG7 7FQ,52.971854000000000,-1.173934000000000
The Wollaton,NG8 1GR,52.958648402577500,-1.211208234364850
MR MAN'S RESTAURANT,NG8 2AD,52.953600000000000,-1.212967000000000
Birds Bakery,NG8 2QJ,52.946410392642600,-1.231283836614140
SUDA delicatessen & world Kitchen,NG8 2QJ,52.946410392642600,-1.231283836614140
The Cheesecake Shop Wollaton,NG8 2QJ,52.946410392642600,-1.231283836614140
The Cods Scallops,NG8 2QP,52.946409191541900,-1.232489326684180
Sycamore Dining -Foxton Gardens,NG8 3FR,52.966563000000000,-1.206270000000000
Gurkha kitchen ,NG8 4GY,52.957725000000000,-1.233420000000000
Nuthall Road McDonalds,NG8 5AZ,52.968098922343400,-1.183624110290180
Gingers cob shop,NG8 5BU,52.976147834185800,-1.189369935072730
The Indaba Hut Cafe,NG8 5GB,52.970862505446100,-1.197508000000000
kfc,NG8 6AD,52.983582000000000,-1.197255979277460
Clip'n Climb Nottingham,NG8 6AR,52.989680746489200,-1.202673000000000
The Nuthall,NG8 6AX,52.986836000000000,-1.209176000000000
Exceptional Hotels & Resorts Uk Ltd,NG8 6AZ,52.986515000000000,-1.201540000000000
Mulberry Tree Cafe,NG8 6PE,52.974871000000000,-1.248054000000000
Nottingham Belfry Hotel and Spa,NG8 6PY,52.981459293302400,-1.238124153573990
Japanese kitchen SORA -cafe & Izakaya Tapas,NG9 1EH,52.923915385239100,-1.218369426147090
Latino Restaurant ,NG9 1EH,52.923915385239100,-1.218369426147090
cottage balti restaurant,NG9 1ES,52.922938281304900,-1.220157058697300
Star Inn,NG9 1FX,52.924566000000000,-1.213273625947820
The Victoria Hotel,NG9 1JG,52.920697582157000,-1.210276661463060
RIVERSIDE BAR BEESTON MARINA,NG9 1NA,52.913563000000000,-1.205157000000000
Feed Me! Fully Loaded,NG9 1PX,52.921743233054400,-1.202627333370160
Amores Ristorante Ltd,NG9 2AZ,52.923710484589000,-1.210489597486270
subway,NG9 2FD,52.927496000000000,-1.203727000000000
Birds Bakery,NG9 2JG,52.926376104716500,-1.215468000000000
Costa Beeston,NG9 2JG,52.926376104716500,-1.215468000000000
The Bean,NG9 2LA,52.928426888733000,-1.214093106031240
Cafe 94,NG9 2LF,52.928159434151800,-1.213071498469800
The Circle Eatery Beeston,NG9 2LF,52.928159434151800,-1.213071498469800
Christine's Delights ,NG9 2LH,52.929202505517700,-1.211758336792170
Korea house,NG9 2LH,52.929202505517700,-1.211758336792170
Lucky Restaurant Ltd ,NG9 2LH,52.929202505517700,-1.211758336792170
GORKHA EXPRESS LTD,NG9 2LN,52.928985303614000,-1.211539135633900
Metro Beeston,NG9 2LN,52.928985303614000,-1.211539135633900
Sanchans Thai Restaurant,NG9 2LN,52.928985303614000,-1.211539135633900
Maltshovel,NG9 2LU,52.927756825548200,-1.213361440479580
Yak & yeti Indian and Nepalese cuisine,NG9 2NG,52.928394450961600,-1.217351573771290
Beeston Break ,NG9 2NR,52.927729767791000,-1.216069351801410
The Lobster Pot Beeston,NG9 2NY,52.928065242631200,-1.215140977744380
Cafe Roya,NG9 2PE,52.930013165623600,-1.218810057415720
The Doughmother,NG9 2QS,52.935493276791400,-1.220096000000000
Beeston Fields Golf Club,NG9 3DD,52.934015841862900,-1.230194133257260
The White lion ,NG9 3HH,52.934352122479800,-1.246316000000000
Digg Cafe / Trowell Garden Centre Ltd,NG9 3TG,52.949132672136400,-1.271003627623650
Chilwell Manor Golf Club,NG9 5AE,52.917604000000000,-1.224881703865050
Haveli ,NG9 5JW,52.911580519095600,-1.237551178166620
Attenborough Nature Centre,NG9 6DY,52.899659000000000,-1.235694000000000
The Manor,NG9 6EF,52.903825999681800,-1.249388171611230
CINNAMON,NG9 7AY,52.925477717162100,-1.280625000000000
VIVO Restaurant Ltd,NG9 7AY,52.925477717162100,-1.280625000000000
The Sanctuary Coffee House,NG9 7HA,52.928800000000000,-1.274082000000000
Lady Jayne's Tearoom,NG9 7JA,52.919576000000000,-1.263573000000000
Gurkha Curry Nights ,NG9 8AA,52.930367083613900,-1.271720517600200
Millysfishbar,NG9 8GQ,52.939462237645000,-1.272832661414990
