name,postcode,lat,lon
The Plough Inn,LE14 4HW,52.87201000000000,-0.85468000000000
THE THATCH RESTAURANT,NG13 0AA,52.94198380000000,-0.80657830000000
The Poppy Seed,NG13 0AH,52.94210000000000,-0.80320100000000
Little jacks farm & garden centre ltd,NG13 0AU,52.94415900000000,-0.81412700000000
Pauls Restaurant,NG13 0BW,52.94169300000000,-0.80220000000000
Windmill Inn,NG13 0GA,52.91057205200200,-0.81558001041412
Anchor Inn,NG13 0JJ,52.89797770000000,-0.85989400000000
The Orston Durham Ox LTD,NG13 9NS,52.96294900000000,-0.85455600000000
staunton arms ,NG13 9PE,52.98643000000000,-0.80078400000000
The Five Bells Inn,NG23 5BJ,53.03114100000000,-0.72930900000000
The Royal Oak,NG23 5DJ,52.99665300000000,-0.75878100000000
sixtytwo,NG23 5DL,52.9943,-0.7573
the reindeer inn,NG23 5EH,52.98971000000000,-0.75598600000000
The Wheatsheaf Inn,NG23 5HU,53.01038700000000,-0.73215500000000
The Brews Brothers,NG24 3RQ,53.0461,-0.7702
Iuliano's Italian Restaurant ,NG31 6BA,52.90917400000000,-0.64061100000000
Tinel Ltd,NG31 6BA,52.90917400000000,-0.64061100000000
shiva shakti company limited,NG31 6BA,52.9092,-0.6407
Costa Coffee,NG31 6BT,52.90695000000000,-0.64343100000000
Starbucks,NG31 6BT,52.90694900000000,-0.64343100000000
Costa Coffee,NG31 6EE,52.90983700000000,-0.64276100000000
BOMBAY BRASSERIE,NG31 6EY,52.90930100000000,-0.63915000000000
Pizza Hut Restaurant,NG31 6HS,52.90482500000000,-0.63610800000000
McDonalds,NG31 6HT,52.90223900000000,-0.63476200000000
Kitchen and Coffee,NG31 6LA,52.91087800000000,-0.64500400000000
Pizza Express,NG31 6LH,52.91224200000000,-0.64317700000000
Eden Wine Bar,NG31 6LJ,52.91339300000000,-0.64397400000000
Conduit Tea Gardens Ltd,NG31 6LQ,52.91281400000000,-0.64443800000000
Everest Inn Grantham LTD,NG31 6LT,52.91187000000000,-0.64366400000000
The Leaf Restaurant,NG31 6LT,52.91187000000000,-0.64366400000000
HOP SING LTD,NG31 6LU,52.91089200000000,-0.64387300000000
angelos coffee,NG31 6LX,52.9106,-0.6445
KATANA JAPANESE CUISINE GRANTHAM,NG31 6NJ,52.9115,-0.6434
Knightingales,NG31 6NJ,52.91153500000000,-0.64343700000000
Kings Walk Cafe,NG31 6NL,52.91169600000000,-0.64334300000000
The Black Dog,NG31 6NS,52.91382900000000,-0.64361800000000
The Garden Yard,NG31 6NZ,52.91416290000000,-0.64538190000000
Teaspoon tea company,NG31 6PN,52.91301700000000,-0.64257200000000
Prezzo,NG31 6QF,52.91026800000000,-0.64118600000000
Finkins,NG31 6QZ,52.91286280000000,-0.64133880000000
Compass Group at Crown House Restaurant,NG31 6SY,52.91381100000000,-0.63884500000000
Avenue Hotel Grantham LTD,NG31 6TH,52.91129200000000,-0.63792700000000
CM Restaurants (Holdings) Ltd,NG31 7ES,52.9039,-0.6303
Fun Farm Grantham,NG31 7LE,52.9098,-0.6529
Grantham Bowl,NG31 7LE,52.90903100000000,-0.65410300000000
BURGER KING-Grantham,NG31 7SA,52.9020,-0.6509
Burger King,NG31 7SA,52.90230560302730,-0.65096598863602
Costa Coffee,NG31 7SA,52.90230560302730,-0.65096598863602
KFC Grantham DT,NG31 7SA,52.90216500000000,-0.65110400000000
KFC,NG31 7SA,52.90216500000000,-0.65110400000000
Buzz Bingo,NG31 7XQ,52.90704200000000,-0.66501900000000
Urban Hotel Grantham,NG31 7XT,52.90073000000000,-0.66334000000000
Moy Park,NG31 8HZ,52.9221,-0.6514
Recruiting Sergeant,NG31 8JP,52.93487100000000,-0.66629100000000
Miller & Carter Grantham,NG31 8SR,52.91789000000000,-0.66401600000000
Elior (Belton Lane Community Primary School),NG31 9PP,52.92558200000000,-0.62660400000000
The Gregory Arms,NG32 1AD,52.88800900000000,-0.68757100000000
The Chequers Inn,NG32 1LU,52.89806200000000,-0.75627800000000
The Rutland by Belvoir ltd,NG32 1NY,52.90693800000000,-0.74806800000000
The Fuel Tank,NG32 1PA,52.89614486694340,-0.78311997652054
Cafe Allez! Belvoir Castle,NG32 1PE,52.89474800000000,-0.78266900000000
The Geese and Fountain,NG32 1QR,52.85280300000000,-0.76202600000000
The Manners Arms,NG32 1RH,52.87294769287110,-0.77363198995590
The Wheel Inn,NG32 1RU,52.85675811767580,-0.79856902360916
BB's Coffee Shop c/o Boundary Mill Stores,NG32 2AB,52.9480,-0.6784
Downtown Garden Centre Restaurant,NG32 2AB,52.94805100000000,-0.67849200000000
Downtown Grantham Restaurant,NG32 2AB,52.9480,-0.6784
Moto 101 Ltd,NG32 2AB,52.94805145263670,-0.67849200963974
Syston Park Farm Shop Ltd,NG32 2BZ,52.95349600000000,-0.61119200000000
The Welby Arms ,NG32 2EA,52.95328100000000,-0.72599500000000
Burger King,NG32 2HB,52.91917800000000,-0.73996600000000
Moto Hospitality,NG32 2HB,52.91917800000000,-0.73996600000000
The Thorold,NG32 2HH,52.98197800000000,-0.67432900000000
The Olde Barn Hotel,NG32 2HT,52.98001098632810,-0.67684698104858
Belton Garden Centre,NG32 2LN,52.94319000000000,-0.62711800000000
Belton Woods,NG32 2LN,52.94319000000000,-0.62711800000000
The Stag,NG32 2NB,52.96308000000000,-0.61435400000000
Red Lion,NG32 3DN,53.02477500000000,-0.60255200000000
School Run Cafe,NG32 3DR,53.02326202392580,-0.60281997919083
Waggon and Horses,NG32 3DR,53.02326000000000,-0.60292900000000
Hare & Hounds,NG32 3JJ,53.04225200000000,-0.58738400000000
Crown & Anchor,NG32 3LP,52.93389700000000,-0.55089000000000
The Houblon Arms,NG32 3NB,52.93936157226560,-0.50795501470566
The Plough,NG32 3NS,52.97527000000000,-0.50452900000000
Woody's Bar,NG32 3RT,52.97997500000000,-0.54610200000000
The Green Man,NG33 4BE,52.89613200000000,-0.52331000000000
Stoke Rochford Catering,NG33 5EW,52.83887100219730,-0.63016599416733
