name,postcode,lat,lon
cayman and Black cockatoo,AB23 8SH,57.254190000000000,-2.061673000000000
bushmaster and Bronzewing pigeon,AB23 8YL,57.274968000000000,-2.090181000000000
Mink and soft-shelled turtle,AB23 8YS,57.258424790000000,-2.085333743000000
harlequin snake and Perching duck,AB41 6AH,57.326923900000000,-2.038362571000000
cobra and Goose,AB41 6AJ,57.325365120000000,-2.051612672000000
boa and cerastes,AB41 6BA,57.299023000000000,-2.061217000000000
sea snake and Stint,AB41 6DG,57.307313000000000,-2.050297000000000
wall lizard and Marmoset,AB41 7YA,57.366533400000000,-2.084022574000000
Skunk and elapid,AB41 8AF,57.373022580000000,-2.062305028000000
sidewinder and box turtle,AB41 8BU,57.374772100000000,-2.066415248000000
cayman and jew lizard,AB41 8EB,57.396605070000000,-2.098184000000000
blind snake and Prion,AB41 8ES,57.410274000000000,-2.077249000000000
swift and flying lizard,AB41 8JR,57.379667340000000,-2.000234000000000
Triller and Egret,AB41 8NL,57.345540940000000,-2.050178969000000
hoop snake and copperhead,AB41 8QH,57.428023140000000,-2.091907317000000
gavial and Civet,AB41 8UX,57.440908000000000,-2.071999000000000
soft-shelled turtle and diamondback,AB41 8XS,57.459361100000000,-2.095002863000000
cobra de capello and milk snake,AB41 8YX,57.433065820000000,-2.072983328000000
Jackal and Maya,AB41 9BJ,57.364107410000000,-2.084997810000000
Badger and frill-necked lizard,AB41 9BU,57.373464280000000,-2.089459170000000
Prion and puff adder,AB41 9ED,57.368301370000000,-2.086404086000000
Vole and Mamo,AB41 9ES,57.371267830000000,-2.068320987000000
king cobra and Badger,AB41 9EZ,57.366061270000000,-2.061761194000000
Chickadee and cobra de capello,AB41 9GD,57.372384900000000,-2.091485081000000
Cloud rat and Marsh harrier,AB41 9GS,57.368452320000000,-2.088931541000000
gopher snake and flying lizard,AB41 9LA,57.365938020000000,-2.073897000000000
sidewinder and pit viper,AB41 9NS,57.361407980000000,-2.078292697000000
American sparrow and indigo snake,AB41 9NW,57.359662250000000,-2.083092632000000
horned viper and Parakeet,AB41 9QQ,57.364934820000000,-2.049673604000000
Siskin and Cloud rat,AB42 0HE,57.415514910000000,-1.847448440000000
Perching duck and bull snake,AB42 0HL,57.426698050000000,-1.913710487000000
python and Badger,AB42 0HX,57.423724000000000,-1.913701000000000
Grackle and Tattler,AB42 0NJ,57.416243240000000,-1.855719133000000
Vulture and anole,AB42 0PF,57.417947000000000,-1.861423991000000
tree snake and taipan,AB42 0QQ,57.425328020000000,-1.920274362000000
Schneider python and hognose snake,AB42 0QU,57.419874960000000,-1.955681834000000
perentie and Mamo,AB42 0QW,57.416117100000000,-1.863443956000000
boomslang and rat snake,AB42 0RE,57.444790070000000,-1.948704558000000
milk snake and Black cockatoo,AB42 0TA,57.412307330000000,-1.927093930000000
Ground sloth and Armadillo,AB42 3AS,57.471704800000000,-1.782542001000000
Condor and Warbler,AB42 3BF,57.459905600000000,-1.790162205000000
Rat and rat snake,AB42 3BH,57.468272000000000,-1.821639000000000
