name,postcode,lat,lon
iguana and Nukupu ªu,AB33 8QF,57.256947790000000,-2.727701309000000
Dolphin and Warbler,AB52 6NQ,57.324286270000000,-2.689227040000000
bull snake and Snipe,AB54 4HE,57.340722100000000,-2.836416976000000
puff adder and Wader,AB54 4JB,57.307626160000000,-2.865908519000000
Bronzewing pigeon and Rat,AB54 4PG,57.313032800000000,-2.734835579000000
python and tree snake,AB54 4PP,57.313748270000000,-2.756581263000000
Mouse and Kangaroo,AB54 4SH,57.455399330000000,-2.780454222000000
Elephant and Polecat,AB54 4UL,57.449876470000000,-2.799483000000000
Thrasher and Macaw,AB54 4XB,57.431085040000000,-2.939356407000000
boa constrictor and Fulmarine petrel,AB54 4XQ,57.452083750000000,-2.950643513000000
gopher snake and gaboon viper,AB54 6EW,57.445529320000000,-2.689173981000000
Greenbul and Goose,AB54 6JE,57.443310040000000,-2.774348941000000
Cuscus and Polecat,AB54 6JN,57.455279370000000,-2.754419908000000
Lemming and blind snake,AB54 8BN,57.447767500000000,-2.784207248000000
puff adder and Viscacha,AB54 8BZ,57.448331700000000,-2.788801522000000
anaconda and gavial,AB54 8EB,57.445418750000000,-2.779091967000000
taipan and Magpie,AB54 8EU,57.446992200000000,-2.783207598000000
Grosbeak and Guillemot,AB54 8FA,57.448614910000000,-2.779376559000000
Tahr and diamond python,AB54 8FL,57.441588900000000,-2.786823816000000
Coati and Diving bird,AB54 8RF,57.449151470000000,-2.797000665000000
