name,id,postcode,lat,lon
bearded dragon and Fish eagle,1579540,AB54 4XE,57.449191000000000,-2.954151000000000
gopher snake and Buzzard,1579742,AB54 4ES,57.382427000000000,-3.055640000000000
Towhee and Peafowl,1586725,AB38 7QP,57.457185970000000,-3.299871716000000
bearded lizard and Chipmunk,1586766,AB38 9LX,57.456554000000000,-3.260331000000000
Recurvebill and Minke whale,1579282,AB55 4DH,57.454871000000000,-3.127942000000000
black snake and Treepie,1586740,AB38 7RT,57.457125620000000,-3.344172417000000
brown snake and gavial,1579249,AB55 4AS,57.447217840000000,-3.128872841000000
Schneider python and Mouse,1579250,AB55 4AT,57.447967590000000,-3.125396703000000
River dolphin and American sparrow,1579562,AB54 4YU,57.443516000000000,-2.986651396000000
Jackal and water snake,1579311,AB55 4FG,57.444855630000000,-3.133831875000000
Treepie and snapping turtle,1579276,AB55 4DA,57.406056940000000,-3.184545633000000
Buzzard and bicycle lizard,1586787,AB38 9PH,57.465869000000000,-3.224858000000000
mud turtle and gaboon viper,1587066,AB37 9DE,57.340860040000000,-3.333075571000000
Black cockatoo and swift,1579254,AB55 4AY,57.446193000000000,-3.126802428000000
Schneider python and Dorcopsis,1587057,AB37 9BN,57.432491000000000,-3.358493000000000
amethystine python and box turtle,1587062,AB37 9BT,57.354000100000000,-3.336759836000000
B and fer-de-lance,1579318,AB55 4JT,57.470064170000000,-3.121624307000000
Komodo dragon and River dolphin,1579298,AB55 4ED,57.446898000000000,-3.049416000000000
Asiatic leopard and Parakeet,1586737,AB38 7RE,57.452798120000000,-3.276517369000000
