id,postcode,lat,lon
1773486,EN77 1AA,,
1773487,EN77 1AB,,
1773488,EN77 1AD,,
1773489,EN77 1AE,,
1773490,EN77 1AN,,
1773491,EN77 1AS,,
1773492,EN77 1AU,,
1773493,EN77 1AW,,
1773494,EN77 1AZ,,
1773495,EN77 1BA,,
1773496,EN77 1BD,,
1773497,EN77 1BE,,
1773498,EN77 1DL,,
1773499,EN77 1ES,,
1773500,EN77 1EW,,
1773501,EN77 1FF,,
1773502,EN77 1FN,,
1773503,EN77 1FP,,
1773504,EN77 1HQ,,
1773505,EN77 1JL,,
1773506,EN77 1LD,,
1773507,EN77 1LG,,
1773508,EN77 1LJ,,
1773509,EN77 1LL,,
1773510,EN77 1LX,,
1773511,EN77 1NF,,
1773512,EN77 1NS,,
1773513,EN77 1NT,,
1773514,EN77 1NU,,
1773515,EN77 1NW,,
1773516,EN77 1PH,,
1773517,EN77 1PS,,
1773518,EN77 1QA,,
1773519,EN77 1RB,,
1773520,EN77 1RG,,
1773521,EN77 1RP,,
1773522,EN77 1RS,,
1773523,EN77 1RZ,,
1773524,EN77 1SA,,
1773525,EN77 1SE,,
1773526,EN77 1SF,,
1773527,EN77 1SP,,
1773528,EN77 1SR,,
1773529,EN77 1SW,,
1773530,EN77 1SZ,,
1773531,EN77 1TA,,
1773532,EN77 1TE,,
1773533,EN77 1TF,,
1773534,EN77 1TG,,
1773535,EN77 1TJ,,
1773536,EN77 1TQ,,
1773537,EN77 1TS,,
1773538,EN77 1TW,,
1773539,EN77 1TX,,
1773540,EN77 1UA,,
1773541,EN77 1UB,,
1773542,EN77 1UF,,
1773543,EN77 1WB,,
1773544,EN77 1XY,,
1773545,EN77 1YL,,
1773546,EN77 1ZA,,
