name,postcode,lat,lon
Black jay and Asiatic leopard,HD1 5DG,53.654647031888700,-1.784371451383590
Stint and Petrel,HX5 0JL,53.683312000000000,-1.836127000000000
Logrunners and Siskin,HD7 4PL,53.642734713273600,-1.869515826409370
Old World vulture and Kestrel,HD8 0NP,53.613295000000000,-1.712373983811720
Chicken and Prion,HD9 5QW,53.595373121432500,-1.844716445419670
Cloud rat and Wader,HD8 8EL,53.589335275102400,-1.699455205995290
Ibex and Wallaby,HD5 0PA,53.648883477940900,-1.703449751316410
Mockingbird and Vole,HD9 3TQ,53.578295000000000,-1.785861298187990
Chickadee and Darwin's finches,HX5 0AZ,53.684156805848900,-1.843330723524270
Elephant and Hawaiian honeycreeper,WF12 0QD,53.657894000000000,-1.621677000000000
Fish eagle and Logrunners,WF12 8LG,53.681348080275600,-1.614699075905650
Vulture and Kākāriki,HD9 4DT,53.593727267880900,-1.830701802966260
Francolin and Wallaby,HD1 3RD,53.637868078345300,-1.790582246366150
Chickadee and Tit-tyrant,HD4 7AF,53.624640000000000,-1.831319000000000
Lemming and Siskin,WF4 4RB,53.646867133372600,-1.608645000000000
Grosbeak and Piping shrike,HX4 9ED,53.676765164259700,-1.862568444173320
American sparrow and Tit-tyrant,HD9 7RU,53.581017724999400,-1.771137202863230
Macaw and Black jay,HX6 3HP,53.683190096956000,-1.935524619874590
Partridge and Grouse,WF14 9LT,53.682636483297400,-1.693659356922370
Duck and Skunk,WF4 4UE,53.651240000000000,-1.601552133990670
Marsh harrier and New World blackbird,HD3 3JD,53.661329656139900,-1.825785716535920
Darwin's finches and Hawk,HD2 2QZ,53.666537602630200,-1.778998611796640
Recurvebill and Bronzewing pigeon,HD8 9TF,53.613059765306500,-1.667121271201920
Stilt and Nukupuʻu,WF14 9PX,53.675771794177600,-1.698099100209260
Badger and Dorcopsis,HD3 3ES,53.654439018155900,-1.821910496617370
Cloud rat and Polecat,HD3 4ER,53.642600304506000,-1.815138497710120
Wader and Ibex,WF14 8DL,53.676720050966400,-1.692793954839110
Piping shrike and Prion,HD3 4NG,53.639857238043100,-1.826040445646570
Wader and Jay,HD8 9RE,53.613262584458100,-1.631810000000000
Old World quail and Rabbit,WF12 0SE,53.669887510698400,-1.625852694607440
Francolin and Philippine hawk-owl,HD7 5JW,53.609154000000000,-1.845724000000000
Viscacha and American sparrow,HD5 9TJ,53.650397512652700,-1.740020486245980
Goose and Guillemot,HD8 9BG,53.593378849739100,-1.652514936167860
American sparrow and Nukupuʻu,HD1 4SP,53.643040250026300,-1.803534856549280
Petrel and Polecat,HX6 4LQ,53.669520978324800,-1.960640164447600
Asiatic leopard and Viscacha,HD3 3HJ,53.661215586769500,-1.827708026944010
Old World quail and Diving bird,HD2 2BY,53.660960159169100,-1.807507159559590
Pheasant and Elephant,HD2 2HS,53.677641538364800,-1.791005949972430
Minke whale and Wader,S36 1JQ,53.483883313890200,-1.603725547008120
Mockingbird and Shearwater,HD1 3UU,53.631782182396400,-1.798279450117680
Mink and Tree warbler,HD8 9TP,53.597039466456000,-1.609527949679900
Coati and Rabbit,HD2 1DQ,53.668696217098900,-1.770208857160140
Kite and Magpie,WF13 3HB,53.681846920340000,-1.660796033845080
Vulture and Boto,WF14 9QB,53.680440450972800,-1.710570999093510
Francolin and Kangaroo,SK13 1HN,53.467403657658500,-1.969849207309340
Thicketbird and Scimitar babbler,HD1 4JP,53.643653727155900,-1.810535496395620
Lemming and Jackal,HD2 2PU,53.662651927809100,-1.792532800366610
Old World quail and B,HD3 4SL,53.645049616888200,-1.843581342854250
Chickadee and Vole,HD9 5JF,53.591908762608800,-1.856014671244730
Crow and Puffleg,HD4 5RB,53.636532159455200,-1.814423924464040
Herring gull and Chickadee,HD4 7BX,53.614844967359100,-1.827397752899770
Macaw and Booted eagles,WF14 8JX,53.666689764109300,-1.696529423679910
Polecat and Piping shrike,HD5 8SA,53.636693488855600,-1.745609745992930
Herring gull and Solitaire,SK14 8HY,53.464395723338600,-1.988393259920570
Tit-tyrant and Myna,HD2 2JQ,53.678722542381200,-1.782265466738030
Linsang and Towhee,HX6 4DQ,53.674230243653600,-1.937930000000000
Fox and Linsang,HD2 2DF,53.661427905144800,-1.807732021533800
Warbler and Mouse,HD8 0TN,53.613020093238500,-1.693014000000000
Armadillo and Armadillo,HD3 3JU,53.661716540685600,-1.826056513644840
Ibex and Partridge,HD8 0DP,53.634283185518500,-1.713291000000000
Old World warbler and Kangaroo,HD8 9LA,53.586808000000000,-1.628082000000000
Tree warbler and Crow,HD2 2PS,53.665454089886000,-1.786192987799120
Peafowl and Goose,WF4 4AU,53.630177246072800,-1.611656864674870
Mamo and Zebra,S36 6FY,53.525225670583100,-1.624608729244800
Siskin and Minke whale,HD3 3DA,53.652165346138900,-1.810406616360400
Grackle and Old World quail,HD9 5PF,53.596116143940300,-1.856740749553090
Tattler and Tahr,S36 7JJ,53.539567219096100,-1.606586089589190
Booted eagles and Fish eagle,HD2 2SF,53.661203097638700,-1.786426332050190
Shearwater and Viscacha,WF14 9RZ,53.680919467144800,-1.700666351004970
Old World warbler and Eagle,HD5 8NG,53.633287000000000,-1.749227121632160
Marmoset and Kite,HD9 4HS,53.589006808073900,-1.857066886012740
Parrotbill and Jay,HD5 0BB,53.644043174875500,-1.723964000000000
Triller and Ice seal,WF4 4TG,53.640082910473300,-1.665486958465490
Philippine hawk-owl and Siskin,HD9 5JQ,53.592008700505600,-1.856905695879470
Parrotbill and Mink,WF14 9NR,53.676596262089100,-1.679836587362660
Philippine hawk-owl and Thrasher,HD8 0EH,53.632067876342700,-1.704006113277070
Asiatic leopard and Maya,HD1 2NG,53.644313652240000,-1.783910005466620
Nukupuʻu and Parrotbill,HX5 9JY,53.682251140040400,-1.817645000000000
Asiatic leopard and Vole,S36 9RP,53.527123287069500,-1.648637190402110
Scimitar babbler and Mockingbird,HD1 4DL,53.646951786658400,-1.788661490808270
Armadillo and Grouse,HD9 6NS,53.601892580773600,-1.787994618803660
Black cockatoo and Greenbul,HD2 2NN,53.667179428404700,-1.796294278108680
Pratincole and Eagle,HX6 4LS,53.672596532206100,-1.965920012357580
Buzzard and Triller,S36 6BX,53.514706373159100,-1.635318262336630
Tree warbler and Towhee,HD7 4AQ,53.638032867762900,-1.853090194393220
Pratincole and Goose,HD2 1XR,53.659313461312800,-1.761468175822830
Diving bird and Magpie,HD9 7SE,53.582744009465500,-1.771414875880700
Old World vulture and Kākāriki,HD1 3RB,53.637905244288000,-1.791277778937950
Moluccan boobook and Parrotbill,WF4 4DR,53.630151636091700,-1.646950822910570
New World blackbird and Mole,WF14 8AW,53.674396257026800,-1.694415407908870
White ibis and Tattler,HD5 9UG,53.649561163999100,-1.743868000000000
Parrotlet and Mockingbird,HD8 8SW,53.577233067814700,-1.648494010178410
Ice seal and Bunting,HD2 2NP,53.667145400261900,-1.792177793540470
Boto and Asiatic leopard,HD1 3EU,53.641990000000000,-1.782621000000000
Meadowlark and Petrel,HD5 8NH,53.635992594155700,-1.749969554755910
Condor and Mouse,HD5 8TE,53.635607465984600,-1.746342198772660
New World blackbird and Zebra,WF12 0QH,53.662276404231800,-1.604067912746160
Perching duck and Ibex,WF4 4RL,53.644568971749000,-1.614913141999690
Grackle and Vulture,HD9 1WA,53.559673000000000,-1.772974000000000
Ice seal and Tit-tyrant,WF14 9HW,53.674527970152100,-1.679458683557520
Stilt and Philippine hawk-owl,HD1 2ER,53.645943000000000,-1.781994904945900
Fulmarine petrel and Kākāriki,WF12 9DU,53.672428953479400,-1.636819434295760
Diving bird and Solitaire,HD4 5UE,53.635179979790900,-1.836403984797150
American sparrow and Rabbit,WF14 9HY,53.680055862044500,-1.682898812031450
Dolphin and White ibis,S36 4HF,53.537234000000000,-1.719152000000000
Tree warbler and Tattler,HD8 0PA,53.614381490374000,-1.712413227596260
Stilt and Mockingbird,WF14 9ST,53.683092407251000,-1.699787948749910
Chickadee and Triller,HD5 9RD,53.651442703095100,-1.754008506528740
Bunting and Recurvebill,HD1 1DT,53.648584830965700,-1.782072615383810
Pitohui and Jay,S36 7JA,53.538504098499500,-1.603412000000000
Herring gull and Grouse,WF12 0SD,53.669119416289300,-1.624542704722320
Polecat and Elephant,S75 4BB,53.585461000000000,-1.597867000000000
Hawk and Logrunners,HD3 3SY,53.670696000000000,-1.838567000000000
Wader and Armadillo,HD3 4SZ,53.645924891315400,-1.832792467836200
Marsh harrier and Booted eagles,WF13 3DF,53.682567493925500,-1.664529906011360
Parakeet and Diving bird,WF12 9HY,53.675620922212000,-1.658620752109110
Polecat and Magpie,WF14 8PL,53.671225721857800,-1.698873246699830
Mouse and Thrasher,HD4 6XF,53.591909585400800,-1.747782116020190
Parrotbill and Mink,HD7 4AR,53.638670650313900,-1.845631589445870
Dorcopsis and Goose,WF12 0EG,53.662130594665900,-1.631626491967190
Towhee and Puffleg,S36 6UH,53.519867181860500,-1.629934857180370
Black cockatoo and Kestrel,HD1 5DZ,53.654905709594100,-1.788304025363880
Night heron and Ice seal,HD7 4PN,53.644059343103000,-1.864444384032510
Towhee and Grackle,HD4 6SZ,53.624752000000000,-1.755736000000000
Prion and Polecat,SK14 8NL,53.462814130539900,-1.993229000000000
Polecat and Coati,HD1 6PG,53.654903000000000,-1.767091000000000
Tree warbler and Armadillo,HD9 6DU,53.599850493515100,-1.797373448189910
Hawaiian honeycreeper and Skunk,S36 6DR,53.513740122023300,-1.633848704093270
Jerboa and Guillemot,S36 1FA,53.480902644207500,-1.599383452126090
Grosbeak and Kestrel,HD8 9HE,53.592497781550900,-1.617078530750280
Viscacha and Zebra,HD3 3WY,53.663874000000000,-1.841212000000000
Grosbeak and Boto,WF13 3QN,53.684300536722400,-1.651343527352880
Parakeet and Bronzewing pigeon,HD2 1LH,53.670211837997900,-1.763843565711440
Macaw and Thicketbird,HX4 9EA,53.675068591919800,-1.872700982924930
American sparrow and Hawaiian honeycreeper,HD7 5DW,53.625263557570400,-1.889315981015120
Booted eagles and Civet,WF12 9EU,53.671696612878700,-1.644378805123710
Black cockatoo and Pitohui,HD9 1LT,53.578863089046200,-1.767795917287430
Nukupuʻu and Herring gull,HD7 6LJ,53.604370119970400,-1.916784129505690
Mink and Greenbul,HD2 2AQ,53.654473519643000,-1.798292118750690
Hawaiian honeycreeper and Vole,HD3 3HR,53.654381724736200,-1.825738667581550
Armadillo and Solitaire,HD4 7NP,53.618134501838300,-1.798495393089060
Mink and Guillemot,HD9 1SQ,53.561580610870300,-1.764252077620890
Kestrel and Siskin,HD9 1LZ,53.563034929490800,-1.754415489275670
Siskin and Ice seal,WF4 4UN,53.639255705620800,-1.662181166677920
Gull and Ibex,HD7 4AX,53.640339743654600,-1.843538238263780
Piping shrike and Kākāriki,HD5 8DF,53.644885482274600,-1.760505758931230
Rabbit and Old World vulture,HD4 7AB,53.628052000000000,-1.823095000000000
Black jay and Civet,HD7 6AF,53.604383223097100,-1.922511000000000
Herring gull and Fulmarine petrel,HX4 0DP,53.675726559745700,-1.929495993459060
Goose and Chipmunk,HD1 5AN,53.651077252213500,-1.783739000000000
Fulmarine petrel and Marsh harrier,HD5 0JP,53.656274000000000,-1.730770478554920
Bronzewing pigeon and Kite,HD9 5PD,53.596021614168100,-1.852903308549140
Pitohui and Quetzal,HD9 1EH,53.566451864837600,-1.778146088785430
Mamo and Vulture,HD9 4EB,53.582972000000000,-1.826606000000000
Thicketbird and Macaw,HD2 2DE,53.663295874044400,-1.812414871078950
Stilt and Mole,HD3 4SW,53.645468879008100,-1.841159479984770
Thicketbird and Marsh harrier,HD4 6QJ,53.632072748533200,-1.776789229752690
American sparrow and Meadowlark,HD8 8ED,53.586865720094900,-1.703959214896560
Minke whale and Kākāriki,HD9 4BL,53.592731343298000,-1.845315331568670
Egret and White ibis,WF13 3HS,53.678780099969400,-1.666543180100330
Philippine hawk-owl and Snipe,WF14 9HQ,53.673995583756000,-1.682051188340950
Nukupuʻu and Philippine hawk-owl,HX5 0AL,53.683189408321400,-1.839049552904140
Jackal and Viscacha,WF13 3AR,53.679110547284900,-1.665783618563540
Bunting and Vulture,HD8 8UL,53.561005394582400,-1.656509017922490
Hawk and Egret,HD1 6NZ,53.657032482563800,-1.771739939654520
Egret and Parakeet,HD7 6EL,53.601111123149800,-1.922366509887640
B and Stint,S36 1EG,53.481025000000000,-1.606118000000000
American sparrow and Goose,HD1 5AW,53.651407950622900,-1.782527077991630
Parakeet and Nukupuʻu,HD7 4ED,53.635718672898000,-1.849680314988390
Masked owl and Black cockatoo,HD2 2QB,53.662294000000000,-1.782728000000000
Dolphin and Old World vulture,HD9 6RN,53.592834795679900,-1.789354316005210
Dorcopsis and Vole,HD3 4QT,53.642306883054200,-1.829418568307030
Songlark and Buzzard,HD2 1UW,53.678063000000000,-1.739411000000000
Mouse and Zebra,HD2 1SQ,53.678038879382400,-1.749736028835200
Argus and Darwin's finches,HD3 3NH,53.664738707819100,-1.821397990883180
Pitohui and Elephant,HD5 8LY,53.636925265316600,-1.753291310658730
Perching duck and Kestrel,HD1 3BY,53.639915551084800,-1.779410000000000
Grosbeak and Crow,WF12 9QJ,53.679998000000000,-1.639888000000000
Peafowl and Zebra,SK13 1LF,53.473658872562300,-1.966997379774910
Triller and Perching duck,HD1 5PL,53.649318452354000,-1.790238149029950
Eagle and Moluccan boobook,HD9 7AZ,53.598736295806000,-1.777312324966400
Old World warbler and Ice seal,HD4 6JA,53.627545000000000,-1.797543000000000
Old World warbler and Grackle,HD2 2LJ,53.670089533778000,-1.795084532623160
Gull and Vole,WF12 9NU,53.679714000000000,-1.631988000000000
Moluccan boobook and Maya,HD9 3UJ,53.583987515978000,-1.792902615045620
Triller and Rat,WF13 3AX,53.678554295787100,-1.669391070224270
Maya and Kangaroo,SK14 8HQ,53.464139458900000,-1.990276365900000
Asiatic leopard and Masked owl,HD9 3UB,53.586155726743700,-1.778949385173660
Old World quail and Rabbit,HX6 4NH,53.677785000000000,-1.969125302848390
Gull and Jay,HD1 5BZ,53.651159000000000,-1.788338000000000
Ground sloth and Boto,HD1 1QF,53.647663674169100,-1.779687172229250
Ground sloth and Shearwater,HD8 8UP,53.559452190615900,-1.663465898236110
Wader and Darwin's finches,HD5 9XT,53.645330586994200,-1.741140758087880
Civet and Perching duck,HD1 4SW,53.643319575577600,-1.803957093871230
Minke whale and Rabbit,SK13 1DH,53.463241864924700,-1.969309894962050
Hawaiian honeycreeper and Tattler,S36 9DB,53.527908935446500,-1.640786435355240
Partridge and Black jay,HD5 0DU,53.652197115020600,-1.728738022119360
Marmoset and Crow,SK14 8NZ,53.459263468280400,-1.990201910088630
Jackal and Rabbit,HD8 8FH,53.586770447752000,-1.709095932451480
Fulmarine petrel and White ibis,WF14 0ED,53.679471491199500,-1.715058833858490
Vulture and Kite,S36 6DQ,53.519919608150000,-1.632362647610420
B and Thrasher,HD9 6QL,53.610577226276800,-1.779139418385790
River dolphin and Myna,HX6 4BJ,53.673771934279300,-1.938203069203190
Egret and Masked owl,HD7 6EU,53.599865000000000,-1.925300000000000
Eagle and Badger,HD3 3NQ,53.664016233916200,-1.819115866028970
Treepie and Crow,HD2 1PU,53.680756415823300,-1.764587050622090
Diving bird and Tahr,HD3 4EP,53.642776232399700,-1.818510828740810
Quetzal and Old World quail,WF12 0BH,53.663330405913100,-1.633053713120800
Grosbeak and Towhee,HD8 9JJ,53.588738476420600,-1.624907588714000
Wallaby and Elephant,HD9 6PY,53.603848353748100,-1.790871000000000
Kestrel and Hawaiian honeycreeper,HD2 1BP,53.665578000000000,-1.774675000000000
Cloud rat and Gull,HX5 0NS,53.678781527305000,-1.843047859215430
Linsang and Armadillo,HD4 6JJ,53.626866863958600,-1.785601000000000
Towhee and Wader,HD8 9AZ,53.598837000000000,-1.659209000000000
B and Kestrel,HD5 0DH,53.657972079842700,-1.726779286825400
Argus and Marmoset,HD9 7EG,53.591558137355000,-1.769645084700900
Eagle and Booted eagles,HD9 6BW,53.605131490501300,-1.794960421196570
Recurvebill and Goose,HX5 0AN,53.683153800954300,-1.839307076344070
Ibex and Ground sloth,WF14 9RD,53.678674770057100,-1.698017804932290
Darwin's finches and Solitaire,S36 9AR,53.523184175500000,-1.665397477700000
Viscacha and Piping shrike,HD1 3SB,53.637805561326300,-1.796027279669470
Hawk and Fulmarine petrel,WF12 0PW,53.660898389708800,-1.640232522944700
Grosbeak and White ibis,HD7 4HF,53.634317990846600,-1.850864876989430
Capuchin and Wader,SK13 7QG,53.458805000000000,-1.949388000000000
Vole and Herring gull,HD1 9WJ,53.644313652240000,-1.783910005466620
Tree warbler and Solitaire,HD8 9TT,53.596584570751800,-1.651446092057090
Skunk and Greenbul,HD2 1UL,53.672009725434800,-1.746366010955580
Petrel and Moluccan boobook,HD9 2LQ,53.566970000000000,-1.806544000000000
Grosbeak and Tree warbler,HX4 9HZ,53.664066342836700,-1.880724620847120
Bunting and Tattler,HD1 6EL,53.659415969101000,-1.782274062937620
Hawk and Goose,HD8 0PD,53.608717000000000,-1.734684000000000
Magpie and Tahr,HD1 3SE,53.637476685957200,-1.798206736607970
B and Maya,HD7 5BJ,53.626481896214200,-1.875976815306440
Puffleg and Tit-tyrant,HD8 0DF,53.633462336462100,-1.715490000000000
Jerboa and Ibex,HD3 3TQ,53.663254954739200,-1.846888787642390
Capuchin and Grosbeak,HX5 0HG,53.682456000000000,-1.834101000000000
Kangaroo and Booted eagles,HD9 7DU,53.573127000000000,-1.748785000000000
Condor and Mouse,WF14 9HN,53.674556672971100,-1.680109375533170
Tattler and Jerboa,WF12 9DQ,53.674700693247500,-1.633121495606870
Tit-tyrant and Towhee,HD7 4BZ,53.639895516855600,-1.847563120953860
Jerboa and Towhee,HX5 0AT,53.683424233179600,-1.839896530472200
Meadowlark and Grosbeak,HD3 3ZZ,53.656759947440700,-1.823247389016550
Towhee and Lemming,HD8 9LY,53.594304792478900,-1.611607939209110
Asiatic leopard and Condor,WF12 9BA,53.683632585142200,-1.626533419782770
Partridge and Grosbeak,HD8 8UT,53.563106000000000,-1.658410938408670
Partridge and Chickadee,HD1 4DU,53.649596700997000,-1.795048000000000
Badger and Capuchin,S36 1AQ,53.488737000000000,-1.617456000000000
Buzzard and Diving bird,HD1 6ND,53.652804000000000,-1.778825886412830
Buzzard and Wader,HD7 5WN,53.625875928828100,-1.872395160061780
Argus and Tattler,WF13 3JL,53.678458662828200,-1.657734911147070
Marmoset and Gull,HX6 4RJ,53.660962604589100,-1.955881349250190
Eagle and Tree warbler,HD9 1EA,53.566654692282900,-1.780908116757910
Quetzal and Vole,HD9 6RY,53.603486621462600,-1.800091000000000
Tree warbler and Argus,HX4 9JD,53.663574627179400,-1.883404624719940
Coati and Vole,HD2 1EJ,53.673362728427900,-1.761843021127060
Ground sloth and Greenbul,HD2 1JX,53.671784277299100,-1.754646981518620
Dorcopsis and Pheasant,HD5 8RU,53.634965165097400,-1.748644778791650
Cloud rat and Duck,S36 8ZZ,53.516884432175200,-1.599769000000000
Tahr and Cuscus,WF14 9BN,53.681039404567100,-1.701771000000000
Scimitar babbler and Minke whale,WF12 9JL,53.675044393857200,-1.627986854072690
Myna and Bunting,S36 9AB,53.525193997314400,-1.665441792867260
Siskin and Civet,HD2 2UD,53.661379304031100,-1.789497374993280
Fox and Kangaroo,HD5 9HZ,53.647179262154800,-1.752535660097830
Towhee and Fox,WF4 4DH,53.630145862744500,-1.638981813137160
Pratincole and Booted eagles,HD8 0EJ,53.632652976387900,-1.700735578719700
Boto and Mink,HD2 2SU,53.657469211564600,-1.792286064380470
Kākāriki and Jay,HD4 6ED,53.629288522939300,-1.787857496396210
Hawaiian honeycreeper and Petrel,HD3 4YL,53.650279816604200,-1.823486251860260
Vole and Darwin's finches,S36 6DL,53.523600000000000,-1.633206000000000
Towhee and Condor,HD8 8GX,53.574456000000000,-1.690636552060010
Rat and Black jay,OL3 5LL,53.572445031970700,-1.988500270485320
Guillemot and Tattler,HD4 7SW,53.613518269325800,-1.800724214762170
Old World vulture and Masked owl,HD9 2LU,53.561032472418600,-1.809832476094500
Songlark and Polecat,HD5 8PH,53.641805748064600,-1.740466537494430
Tit-tyrant and Prion,HD5 0PJ,53.665002618204500,-1.723631390213210
Nukupuʻu and Wader,HD5 9DL,53.645092000000000,-1.764422000000000
Thicketbird and Night heron,HD5 0EG,53.652987251933700,-1.724436123831640
Parakeet and Wader,HD1 3BA,53.639549810103100,-1.781045265748410
New World blackbird and Minke whale,HD3 3YP,53.657765373587700,-1.871754342419280
Black cockatoo and Chipmunk,HD6 3PP,53.682910296200100,-1.797232879344960
Asiatic leopard and Mink,WF14 8AZ,53.674302504162000,-1.696429351559850
Pratincole and Darwin's finches,HD2 1JL,53.670585565488100,-1.761934344848670
Zebra and Stint,HD5 9PL,53.656863204344000,-1.754309868154160
Guillemot and Chipmunk,WF12 0RW,53.670255439670800,-1.631464862541410
Guillemot and American sparrow,HD8 9DN,53.587433066569400,-1.647895827709000
Tahr and Jerboa,HD2 2JD,53.679528638473600,-1.790769532594710
Ground sloth and Jerboa,HX4 9QE,53.667357564989800,-1.891854555092650
Egret and Ice seal,HD8 8LB,53.596817000000000,-1.689656000000000
Vulture and Elephant,HD5 8PB,53.637208350684900,-1.751096676032170
Mouse and Grackle,HX4 0BE,53.678476714324800,-1.915079000000000
Cloud rat and Partridge,HD4 7WR,53.611542438149100,-1.807187543818020
Grackle and Moluccan boobook,WF14 9HF,53.674835793402500,-1.683679720670350
Boto and Grosbeak,HD8 8HN,53.598383588756700,-1.694752218639630
Mockingbird and B,HD8 8TJ,53.572491245247800,-1.655933000000000
Partridge and Darwin's finches,HD4 6SN,53.626587378422800,-1.748286264413470
Bunting and Jay,HD1 3NF,53.639018702793300,-1.795870188244400
Duck and Bronzewing pigeon,HD9 2JN,53.569034616842200,-1.789834846674570
Logrunners and Coati,HD9 1JD,53.569175636690100,-1.764194788203430
Vulture and Mole,WF12 0LE,53.666464564559700,-1.620374000000000
Badger and Piping shrike,HD2 1BB,53.661516574708500,-1.775968036827820
River dolphin and Kite,HD2 2JH,53.679032758011300,-1.779871906545490
Philippine hawk-owl and Francolin,HX6 4LP,53.668438119438300,-1.979711483489140
Dolphin and Egret,HD8 9JS,53.587612349044600,-1.626956913596560
Bunting and Siskin,HD3 4LT,53.637937641544700,-1.822690000000000
Old World quail and Tree warbler,HD1 6EF,53.657341000000000,-1.782648000000000
White ibis and Asiatic leopard,WF14 9RR,53.679540169920000,-1.699192000000000
Fish eagle and Kestrel,HD4 6SW,53.628187709514800,-1.748488442382010
Myna and New World blackbird,SK14 8HX,53.463469796151100,-1.987233719344100
Bunting and New World blackbird,WF13 3DH,53.682051388177000,-1.666396239938850
River dolphin and Greenbul,WF14 8AJ,53.674706542407300,-1.692732903832780
Warbler and Songlark,HD4 7BP,53.623818551267500,-1.817503464667020
Wader and Masked owl,SK13 1ES,53.463461791887100,-1.954247565652930
Meadowlark and Ibex,HD4 6YE,53.594191116205000,-1.726616402808200
Mole and Marsh harrier,HD9 7SY,53.582469477130800,-1.773818000000000
Zebra and Asiatic leopard,HD8 9UH,53.592951315740100,-1.647698904572070
Chicken and Hawk,HD5 8LD,53.633619383580000,-1.767677185141180
Solitaire and Guillemot,HD5 8YE,53.640365305652600,-1.743560904522910
Rabbit and Ibex,WF13 3AP,53.679804055957400,-1.666292869771120
Thicketbird and Parrotlet,HD5 9SH,53.651222991348200,-1.747761487225330
Marsh harrier and Buzzard,HD8 0RR,53.610645409667500,-1.702720000000000
Macaw and Viscacha,HD5 9PT,53.656547981039100,-1.762921210662250
Solitaire and Kangaroo,HD8 8XZ,53.560434422979300,-1.674116356862230
Buzzard and Mockingbird,HD9 2RZ,53.530980741257900,-1.771723560227970
Myna and Fish eagle,HD8 8SH,53.578261033512600,-1.649618216737890
Partridge and Capuchin,HD9 5LS,53.594382781304600,-1.857894863952450
Civet and River dolphin,HD1 3JT,53.639715724593100,-1.798785936121350
Ice seal and Parrotbill,HD1 1QX,53.648157436294500,-1.779366914886220
Ibex and Hawk,HD8 9BW,53.587013604752900,-1.651993077608780
Hawk and Moluccan boobook,WF12 0RB,53.664625388337300,-1.624567488344190
River dolphin and Stilt,WF14 8PN,53.671622372692700,-1.699476000000000
Jay and Thrasher,HX4 9ET,53.673660848941700,-1.875944547452490
Black jay and Gull,HD9 1UQ,53.565818000000000,-1.761088000000000
Fulmarine petrel and Night heron,HD7 5RX,53.626419698271700,-1.852767573416920
Treepie and Tree warbler,HD3 3FJ,53.648965645051800,-1.889526376629120
Petrel and Kite,HD8 0WE,53.610502071943800,-1.729352687975690
Old World quail and Cuscus,HX6 4EW,53.665266000000000,-1.949021000000000
Greenbul and Guillemot,HD1 6EE,53.657225664883800,-1.783828716825460
Viscacha and Parrotbill,HD8 8PZ,53.599357202898900,-1.699444580921840
Wader and Rabbit,HD9 7SH,53.579870354061900,-1.768440000000000
Marmoset and Chicken,HD8 8RW,53.573014317943100,-1.653557658027300
Parakeet and Kestrel,HX5 9BD,53.684252989100200,-1.828234930062120
Old World warbler and Greenbul,HD4 5HQ,53.631739838237500,-1.802180932501720
Warbler and Wader,WF13 3JQ,53.679476481658200,-1.655349810339870
Puffleg and River dolphin,WF14 8EE,53.651891229894400,-1.690796000000000
Black cockatoo and Dorcopsis,HD9 2LS,53.571910770308900,-1.829354252873800
Kangaroo and Night heron,HD9 1QG,53.575974000000000,-1.770168984934280
Capuchin and Tit-tyrant,S36 1AJ,53.484219547222400,-1.599427571461020
River dolphin and Snipe,HD3 3RQ,53.661318000000000,-1.829327000000000
Francolin and New World blackbird,HD5 9HY,53.646745956010800,-1.751630547461050
Civet and Tahr,HX6 4LW,53.667799238043300,-1.975776701287690
Eagle and Logrunners,HD3 4AP,53.649714230268600,-1.812096858867900
Old World quail and Hawaiian honeycreeper,HD6 3QR,53.679916707000300,-1.791675970735600
Linsang and Hawk,HD5 8NF,53.634150881406400,-1.750268000000000
Tree warbler and Triller,HD9 3RA,53.572445994937500,-1.808799783856810
Black cockatoo and Night heron,HD2 1XZ,53.659060570160200,-1.765403882998760
Minke whale and Towhee,HD9 1LU,53.576119342180200,-1.757556527078950
Thicketbird and Marsh harrier,HD9 4FB,53.588425000000000,-1.857930000000000
Philippine hawk-owl and Pratincole,HD1 6BB,53.653211281378100,-1.780717368966210
Kākāriki and Mouse,WF14 8EA,53.658283595282800,-1.702823968713710
Hawaiian honeycreeper and Francolin,HD9 6RQ,53.598183000000000,-1.805057000000000
Scimitar babbler and Minke whale,HD5 9SJ,53.650735752771800,-1.746871788549130
Darwin's finches and Peafowl,HD8 9TB,53.617242676655400,-1.661903285520420
Hawk and Asiatic leopard,HD9 6PN,53.603260758997000,-1.789106056129540
Marmoset and Puffleg,HD1 1EH,53.648990860661400,-1.782932834016510
Coati and Coati,HD3 4QR,53.642649528650000,-1.823956717144490
Triller and Black jay,SK14 8PA,53.460190000000000,-1.990759000000000
Egret and American sparrow,HD4 6NL,53.637072930620900,-1.778049000000000
Pratincole and Moluccan boobook,HX5 0DS,53.675462578112100,-1.845119120681270
Marmoset and Pheasant,WF14 9TS,53.676233668734000,-1.677311478964140
Kite and Vulture,HD8 8QB,53.571995376558000,-1.652433420703000
Mockingbird and Marsh harrier,WF14 8HS,53.661604784171200,-1.704661959897590
Cloud rat and Skunk,HD9 6DS,53.599564426224800,-1.798296560101380
Kestrel and Marmoset,HD5 9DA,53.645419573812500,-1.762408734197330
Argus and Cloud rat,HD8 0WH,53.610762078862500,-1.729063849805810
Viscacha and Hawaiian honeycreeper,HD9 6NA,53.608036660736700,-1.796110114068140
Francolin and Chipmunk,HD7 4BW,53.642550198278800,-1.843046042009240
Kestrel and Booted eagles,HD5 8XD,53.631748147708600,-1.749011686404560
Mamo and Vole,WF14 9NZ,53.678842215291700,-1.689948000000000
River dolphin and Dorcopsis,HD8 0GT,53.614900043067300,-1.707557447068390
Boto and Old World vulture,WF12 9BB,53.678556036282400,-1.621719000000000
Puffleg and Bunting,HX5 0NJ,53.680017076909200,-1.839409832207000
Badger and Philippine hawk-owl,WF14 9TE,53.682090520681500,-1.691059212997470
Myna and Petrel,HD5 0RL,53.682386000000000,-1.735266000000000
B and Mamo,HD3 3XT,53.662208000000000,-1.844971000000000
Crow and Argus,HD1 3JR,53.638760970306300,-1.797595632394100
Maya and White ibis,HD1 6AY,53.650825874479500,-1.778793232177790
Night heron and Gull,HD2 2LB,53.670622947722800,-1.825459857521170
Piping shrike and Moluccan boobook,HD8 8XY,53.557686217542000,-1.674937530302980
New World blackbird and Condor,WF4 4DE,53.632396204218000,-1.631204846667270
American sparrow and Coati,HD2 2LH,53.673009886289600,-1.779434023646850
Solitaire and Viscacha,HD5 9NU,53.651804413595000,-1.759513451868880
Egret and Chicken,HD5 9DR,53.645346529963800,-1.766402656486940
Mamo and Myna,HD9 6JF,53.603532341535900,-1.795406403719650
Boto and Mouse,SK13 1JX,53.472938710393100,-1.963246617760600
Night heron and Thrasher,HD1 5HF,53.656456916949700,-1.791292183658410
Gull and Masked owl,HD4 7LU,53.621418998332300,-1.795562000000000
Towhee and Francolin,WF14 8AH,53.674611000000000,-1.693551000000000
Ibex and Goose,HX5 0PY,53.684396256504900,-1.840877008928180
Thrasher and Tree warbler,HD9 6GN,53.602527693349700,-1.801969698440250
Mouse and Gull,HD2 2PE,53.663852039737000,-1.790060143902260
Ice seal and Jackal,HD7 6AB,53.602246089779000,-1.926248092114970
Warbler and Goose,HD1 6NG,53.653552156344100,-1.774906000000000
Greenbul and Jerboa,HD3 4YR,53.652714441812000,-1.828877351195540
Tit-tyrant and Recurvebill,HD1 4PL,53.653588490822600,-1.806663160704810
Piping shrike and Pratincole,HD9 4AY,53.596799000000000,-1.834966000000000
Triller and Night heron,S36 6AS,53.524709267384800,-1.626182026017860
Maya and River dolphin,HX4 0DA,53.679997629873800,-1.918013283817440
Flameback and Chickadee,HD7 6NJ,53.606242000000000,-1.950996000000000
Francolin and Badger,HD7 4RY,53.643950994937400,-1.848985532658580
Grouse and Mamo,HX6 4DU,53.674502191681500,-1.942682659821820
Ground sloth and Lemming,HD1 4LP,53.650177891063800,-1.804152255684800
Kangaroo and Fox,HD9 6QJ,53.607888717082100,-1.783506130631170
New World blackbird and Bronzewing pigeon,S36 9FR,53.508933000000000,-1.631207799938700
Recurvebill and Kākāriki,HD8 8JX,53.598762655571400,-1.702516191545240
Black cockatoo and Mole,HX5 0HR,53.680652950209000,-1.837711785782260
Warbler and Mockingbird,HD5 9UZ,53.649489683039400,-1.740010936361860
Maya and Duck,HD7 4DT,53.638025555289200,-1.847237116271920
Towhee and Condor,HD4 6UY,53.588656000000000,-1.756065000000000
Marmoset and Polecat,WF14 9EX,53.684473237803600,-1.702049283984010
Mamo and River dolphin,HD2 1PW,53.677098564775000,-1.760217311587210
Ibex and Warbler,HD9 2PQ,53.557166776325900,-1.815118100700320
Black cockatoo and American sparrow,S36 8ZX,53.517656124542900,-1.602098000000000
Vulture and White ibis,HD9 2NE,53.556624530353000,-1.819075419566860
Herring gull and Tree warbler,HD7 4AG,53.637888426101100,-1.852576470882540
Francolin and Dorcopsis,HD9 3XP,53.586219714121300,-1.794704414090950
Wader and Thicketbird,WF12 0DJ,53.663862216978500,-1.624831537973010
Gull and Shearwater,HD5 9DE,53.645169612712900,-1.763272369561740
Stilt and Ice seal,HD1 1JP,53.647440000000000,-1.784454937332310
Perching duck and Prion,HD3 3JX,53.662286019564000,-1.827825000000000
Minke whale and Meadowlark,HD8 9ED,53.594351425386700,-1.650059342522080
Tahr and Parrotlet,HD7 5HT,53.619364195821200,-1.886020618060160
Vole and Dorcopsis,HD4 7AZ,53.620670123703000,-1.810078919229980
Dolphin and Magpie,HD1 4PF,53.652509354392100,-1.806320112595700
Maya and Grouse,HD4 7HP,53.614518000000000,-1.812691000000000
Mamo and Elephant,HD7 6DF,53.602112420177300,-1.928152367451840
Thrasher and Wallaby,HD5 9EG,53.647608041576700,-1.764605098048240
Thrasher and Vole,HD1 3DH,53.643714203695500,-1.776864000000000
Zebra and Grackle,WF14 8AR,53.676781000000000,-1.695322000000000
Masked owl and Tree warbler,HD1 3PD,53.642529566065600,-1.769155997893590
Pitohui and Wader,HD9 2AH,53.561939831344200,-1.809541566361280
Ibex and Gull,WF4 4AS,53.638596998804700,-1.622197049630380
Darwin's finches and Duck,HD5 8XZ,53.632117864860600,-1.753924213619420
Macaw and Grouse,HD9 3XF,53.570333849109900,-1.839492784388780
Greenbul and Piping shrike,HD8 0WX,53.612149263349500,-1.726424953543220
Armadillo and Peafowl,HD9 5RB,53.597171606415000,-1.852264000000000
Chipmunk and White ibis,HX6 4RN,53.660710158928600,-1.953808471941360
Parrotbill and Ground sloth,HD2 1FA,53.664460000000000,-1.758957000000000
Armadillo and Quetzal,HD8 8DS,53.586712360428200,-1.707389351285110
Warbler and Gull,HD1 6EY,53.660945591369200,-1.783174140708220
Mink and Kestrel,S36 9RQ,53.529876372999500,-1.649534655081710
Fulmarine petrel and Siskin,HD2 2AS,53.664383080107600,-1.812183043816790
Capuchin and Duck,HD1 4BZ,53.647467850865300,-1.790791918282440
Recurvebill and Stint,HD1 9AN,53.648333000000000,-1.781499000000000
Perching duck and Philippine hawk-owl,WF12 9EA,53.676346000000000,-1.657283000000000
Peafowl and Pheasant,HD4 6RB,53.628140674067300,-1.779365367632930
Herring gull and Moluccan boobook,HD7 5RS,53.630959441779500,-1.846158706221120
Francolin and Thrasher,HD7 4LE,53.633482133308100,-1.866278000000000
Mink and Booted eagles,SK13 1HA,53.467770951214200,-1.965269585359040
Petrel and Snipe,HD7 6LA,53.602716367492700,-1.916908263095260
Prion and Fulmarine petrel,HD8 8RJ,53.570103868478800,-1.660451981089630
Marsh harrier and Cuscus,HD8 0JS,53.627792000000000,-1.719686631956260
Warbler and Tattler,HD9 3HN,53.571241111512800,-1.808518302549320
Warbler and Marsh harrier,HD4 6RD,53.627736569180700,-1.779564041235870
Vole and Coati,HD3 3PB,53.656958518520100,-1.830040414343490
Asiatic leopard and Jackal,HD7 4ND,53.643974000000000,-1.867440000000000
Magpie and Moluccan boobook,HD1 4QT,53.649155000000000,-1.810481000000000
Fish eagle and Fox,WF12 9NJ,53.682594735338000,-1.630978715121380
Coati and Mamo,HD2 1DL,53.665396000000000,-1.773632000000000
Condor and Chickadee,HD9 5LP,53.590652267801400,-1.857574994488210
Magpie and Thrasher,HD7 5NH,53.621998951274200,-1.853962178850390
Solitaire and White ibis,HD2 1JB,53.670069411717300,-1.755565081157110
Mink and Kite,HD8 9TS,53.594904883303300,-1.610952753275320
Zebra and Solitaire,S36 1AR,53.473741502318900,-1.600189083362410
Booted eagles and Stilt,HD1 6EA,53.656665389860900,-1.782167171199860
Grosbeak and Snipe,HD1 2JA,53.642451973736700,-1.785311000000000
Tattler and Fish eagle,HD9 1TP,53.541901197649100,-1.740624670319250
Jerboa and Stint,HD5 9TE,53.656838823583100,-1.742689356156260
Triller and Coati,SK13 2BT,53.458747655814500,-1.969403470921910
Vole and Old World warbler,HD4 5LF,53.631043607289500,-1.816534783267490
Jay and Bunting,HD4 5QH,53.632105108364500,-1.823108336844450
Marmoset and Grackle,HD9 7LT,53.579947625717100,-1.775628739346140
Cloud rat and Vole,WF14 9PA,53.676522877614600,-1.686074056182670
Thicketbird and Marsh harrier,HD1 3TL,53.632450372017600,-1.797081392750210
Bunting and Perching duck,HX6 4RH,53.642713000000000,-1.969135000000000
Hawk and Gull,HD9 1HY,53.563120677049000,-1.752407013412870
Shearwater and Darwin's finches,HX6 4QQ,53.659935990494200,-1.950813152390640
Wader and Hawaiian honeycreeper,HD3 4GE,53.654846522028800,-1.830200199029330
Prion and Bunting,HD2 1BJ,53.665315919334600,-1.779520000000000
Diving bird and Boto,HD9 3RG,53.565794236857300,-1.832549525211710
Jackal and Condor,HD8 0LF,53.623194000000000,-1.717554000000000
Mamo and Tahr,HD8 9BJ,53.592702000000000,-1.654469000000000
Coati and New World blackbird,HD4 6EN,53.630886075206000,-1.796877183617830
Nukupuʻu and Skunk,WF14 0QZ,53.682044000000000,-1.673240000000000
Logrunners and Cloud rat,HX6 4QB,53.660798264312700,-1.949389704891990
Old World warbler and Mink,HD8 0ET,53.631405945166200,-1.712705876643240
Wader and Mamo,HD8 0WB,53.610502071943800,-1.729352687975690
Egret and Asiatic leopard,HD4 7FL,53.628223000000000,-1.822716000000000
Guillemot and Badger,HD9 6EA,53.598509000000000,-1.795506000000000
Logrunners and Herring gull,WF12 8RZ,53.684032487781800,-1.605468943482090
Flameback and Ice seal,WF12 0NS,53.660957410235400,-1.644953385201890
Chicken and Piping shrike,HD8 9HT,53.591272217356800,-1.621742769090800
Songlark and Old World quail,HD1 4RR,53.643008000000000,-1.799784000000000
Stint and Nukupuʻu,HD5 9BW,53.644201280516000,-1.764487908556930
Shearwater and Maya,HD7 4JJ,53.635018349512400,-1.857667861351590
Wader and Prion,HD2 2LQ,53.672484408012600,-1.777181403345720
Nukupuʻu and Pratincole,S36 6LQ,53.523577572233500,-1.638153259816710
Parakeet and Ground sloth,HD8 0TH,53.612026996202600,-1.697979224104090
Fish eagle and Partridge,HD7 5BR,53.626518814509600,-1.876914158399970
River dolphin and Chickadee,HD8 8DB,53.582601882070700,-1.709925069570660
Cuscus and Grouse,HD7 4AT,53.639120272534700,-1.845796322298210
Shearwater and Meadowlark,HD1 4BQ,53.645582214000600,-1.791875257107370
Macaw and New World blackbird,HD1 6PS,53.654024197058400,-1.773193524722450
Logrunners and Grouse,HD5 9QX,53.654101343171000,-1.753100372462500
Kite and Chipmunk,HX4 9EU,53.673544487435000,-1.876414135935690
Black cockatoo and Macaw,HD9 1UE,53.565184878385900,-1.759702561378190
Chicken and Meadowlark,HD2 1JH,53.671130401598700,-1.751381361839470
Darwin's finches and White ibis,HD5 8EY,53.640566573076000,-1.758231162337540
Mole and Myna,HD9 3TF,53.589122000000000,-1.778662000000000
Magpie and Egret,SK13 1EP,53.459094883188200,-1.958333662979810
Darwin's finches and Warbler,HD1 2HF,53.645455000000000,-1.785521966680740
Quetzal and Parrotlet,HD3 4UA,53.650020024243600,-1.843532722106160
Viscacha and Grosbeak,HD8 8DJ,53.585735302695000,-1.712199695584890
Booted eagles and Marmoset,HD1 4QF,53.649519129897300,-1.808088693664630
Kestrel and Quetzal,HD1 4QW,53.648332117295800,-1.781499052664330
Parakeet and Cuscus,WF12 8PT,53.683899210237800,-1.603214205913760
Kite and Asiatic leopard,HD2 2GD,53.658116000000000,-1.793675000000000
Tattler and Perching duck,HD9 1XG,53.565156000000000,-1.762753000000000
Old World vulture and Kestrel,HD9 1HA,53.570080000000000,-1.785767169022890
Moluccan boobook and Siskin,HD9 1HF,53.570410311339600,-1.785041278109140
Kangaroo and Zebra,HD3 3JN,53.661202013552700,-1.824545368920410
Marsh harrier and Meadowlark,HD8 0PL,53.616863000000000,-1.716176000000000
Perching duck and Grackle,HD4 6QB,53.633588208325800,-1.774890899250230
Old World warbler and Fox,HD8 0RB,53.619040504356300,-1.717491323912880
Chipmunk and Pheasant,HD3 4EX,53.642789614690000,-1.815500695341200
Grouse and Hawaiian honeycreeper,HD9 1XT,53.578433940046100,-1.773688452473630
Polecat and Old World vulture,HD5 0RT,53.683246375155300,-1.738667746582950
Old World warbler and Fulmarine petrel,HD2 2XW,53.661111971249200,-1.796035978141880
Wallaby and Pratincole,WF12 0NQ,53.654860529460300,-1.672345185947760
Pratincole and Hawaiian honeycreeper,HD4 5TX,53.633098643460500,-1.832737246131010
Rabbit and Jackal,HD9 1EE,53.567228251261800,-1.779984114298000
Linsang and Lemming,HX5 0QB,53.682691884629000,-1.843442133293830
Mouse and Minke whale,HD1 5LN,53.649199000000000,-1.788301691769490
Siskin and Argus,HD8 0WN,53.610841157795200,-1.728262269363580
Meadowlark and Pheasant,HD8 0WQ,53.611175000000000,-1.728262269363580
Rat and Old World vulture,HD5 9QP,53.652390657882200,-1.756060601804330
Tit-tyrant and Macaw,HD1 3AW,53.641093012097400,-1.774699734924100
Magpie and Lemming,HD4 6ND,53.633531353791100,-1.778142584137230
Eagle and Hawk,WF14 0EG,53.684489731664800,-1.720082078785560
Pheasant and Goose,HD1 4RY,53.641317000000000,-1.799232000000000
Pheasant and Jay,SK14 8JH,53.466014101149700,-1.995276653566250
Meadowlark and Jackal,S36 1LA,53.484676013174500,-1.615261620687160
Viscacha and Chicken,HD3 4BN,53.648420436586600,-1.812420291109040
New World blackbird and Chicken,HD1 6RA,53.648859000000000,-1.774416000000000
Puffleg and Treepie,HD9 6RW,53.597736010568400,-1.796053880342900
Macaw and Dorcopsis,HX4 9AT,53.675385336252100,-1.866417895718930
Asiatic leopard and Skunk,HD8 8PP,53.581011517267700,-1.662146917797120
Nukupuʻu and Jay,HD5 8HG,53.642762141015800,-1.763966506344780
Mockingbird and Jackal,HD1 4SN,53.643268000000000,-1.804683000000000
Diving bird and Crow,HD2 1BQ,53.677888712716500,-1.746709197556370
Vulture and Flameback,HD1 3SP,53.636373933081500,-1.799875601440360
Bunting and Ground sloth,HD4 5LE,53.630429104288800,-1.820287599084670
Vulture and Tit-tyrant,S36 9LS,53.524734834171600,-1.671660004568100
Goose and Mink,HD1 6QB,53.655897000000000,-1.775742000000000
Pitohui and Jackal,HD3 3GT,53.659114355916300,-1.842228026371600
Siskin and Dolphin,HD4 6UW,53.605401000000000,-1.756014000000000
Kite and Hawk,HD9 3XQ,53.570492647260500,-1.818639000000000
Petrel and Skunk,HD3 4BQ,53.649639622078600,-1.816151618002580
Parrotbill and Tit-tyrant,HD5 0PY,53.673039680042100,-1.708987000000000
Thicketbird and Fish eagle,HD5 8UN,53.631350683138200,-1.743827217306020
Warbler and Stint,HD7 5SP,53.623502196041500,-1.848499001998860
Rat and Grouse,HD7 4PF,53.644189867813200,-1.860692593982010
Kangaroo and Vulture,HD4 5NQ,53.633492280209700,-1.825144105469740
Badger and Goose,HD4 6QE,53.633782238775800,-1.772923903592940
Stilt and Cuscus,HD1 5DL,53.650680872804600,-1.783060324281290
Warbler and Macaw,WF13 3DN,53.682236190027100,-1.668211603917550
Bronzewing pigeon and Dorcopsis,S36 1JP,53.483751831606700,-1.604736425420580
Perching duck and Moluccan boobook,HD8 9HL,53.589734349743700,-1.621469457398320
Chicken and Jackal,HD2 1UQ,53.670399409668300,-1.749962884363630
Pheasant and Flameback,HD8 9TE,53.617709622686000,-1.668400000000000
Chicken and Black cockatoo,HD5 8UW,53.633549431669300,-1.742256271342030
Marmoset and Eagle,HD9 2JL,53.567062598881200,-1.798209447625030
Guillemot and Stint,WF14 9LW,53.681687113517400,-1.694983418935640
Boto and Mamo,HD2 1EA,53.671265063113200,-1.769286722562350
Boto and Meadowlark,HD9 5QP,53.594041964612800,-1.851097141739300
Masked owl and Mamo,HD2 2FA,53.674244249928700,-1.786042577256270
Quetzal and Rabbit,WF12 8NR,53.684058199882900,-1.600714000000000
Minke whale and Triller,HD5 9HW,53.645805108339300,-1.748716537678260
Jay and Greenbul,HD8 8NS,53.575148042405300,-1.687685000000000
Eagle and Chickadee,HD2 2SW,53.665093675042000,-1.796001643618270
Grosbeak and Grosbeak,HD4 7EU,53.614529704899000,-1.814898181977770
Rabbit and Booted eagles,HD3 3HH,53.660375865239300,-1.831343198820460
Recurvebill and Tree warbler,HD4 5BN,53.638553649431500,-1.813870583088420
Dolphin and B,OL3 7ND,53.527898362675700,-1.984031812720800
Cloud rat and Parakeet,WF13 3LQ,53.677712464903300,-1.667247979762550
River dolphin and Francolin,HD9 2LG,53.566542609672200,-1.804432623514020
Piping shrike and Mockingbird,WF12 0HB,53.660893559981500,-1.621165536479740
Maya and Badger,WF4 4YG,53.649294000000000,-1.597306000000000
American sparrow and Armadillo,HD1 4ED,53.649806000000000,-1.795879000000000
Boto and Black jay,HD8 0QQ,53.613526757291200,-1.701052110563820
Magpie and Prion,HD9 5LU,53.589923248236300,-1.857200000000000
Tree warbler and Vole,HD8 8EA,53.585721811189500,-1.699390185163240
Wallaby and Tree warbler,HD3 4ED,53.649759615697000,-1.824244846311120
Zebra and Francolin,HD8 9PR,53.598406635065000,-1.609817555776400
Cloud rat and Bunting,HD7 4NP,53.638600982680200,-1.878890623095660
Asiatic leopard and Perching duck,HD3 3QG,53.660104062589700,-1.829815929432000
Flameback and Partridge,HD5 9SR,53.651602912435200,-1.744657739040310
Towhee and Quetzal,HD9 7AD,53.594153340045600,-1.773090865476400
Hawaiian honeycreeper and Piping shrike,S36 7JR,53.534812773832000,-1.603989804160930
Partridge and Diving bird,HD8 0LU,53.632073467946800,-1.695477144433970
Goose and Duck,HX5 0PF,53.678147633085600,-1.839477485838150
Minke whale and American sparrow,HD9 3EX,53.581808560344700,-1.790723137341370
Hawaiian honeycreeper and Mink,HD8 8LL,53.597917856443400,-1.684979390337610
Tahr and Tit-tyrant,HD1 6PD,53.656966065970300,-1.769909435218770
Civet and Skunk,HD2 1RY,53.681708175248600,-1.755119269176760
Mockingbird and Grosbeak,HD8 9BR,53.586850588819000,-1.651571445290040
Prion and Triller,HX6 4DZ,53.671942509007700,-1.946909181819730
Goose and Myna,HD4 5NU,53.629686644042500,-1.822679918121910
Songlark and Ground sloth,HD2 1RZ,53.681320016708400,-1.754303967488680
Skunk and Tahr,WF12 0JZ,53.664762000000000,-1.616424000000000
Herring gull and Marmoset,WF12 0PR,53.661336000000000,-1.635737882512810
Old World quail and Recurvebill,HD3 3FZ,53.654968552022900,-1.878964863193600
Pratincole and American sparrow,SK14 8LE,53.472163000000000,-1.993107000000000
Minke whale and Masked owl,HD3 4TX,53.651837636947400,-1.852195059422930
Hawaiian honeycreeper and Towhee,HD4 6JR,53.627821199696700,-1.786594710534200
Solitaire and Buzzard,HD5 8ET,53.641526836292200,-1.753098106650470
Thrasher and Pitohui,HD1 4HX,53.647839019628900,-1.803135000000000
Eagle and Prion,HD3 4LU,53.638207375696600,-1.822613991463180
Darwin's finches and Prion,HD7 6HB,53.597608642980300,-1.927056962269040
Fox and Mockingbird,SK13 1EH,53.462545954127100,-1.956914491757980
Linsang and Coati,HD8 8AR,53.582864620692000,-1.714530188035180
Chipmunk and Mink,WF13 3RS,53.683166150796000,-1.647628318017940
Magpie and Siskin,HD2 1ZH,53.674199147223000,-1.771344516717860
Dorcopsis and Logrunners,HD5 9YB,53.644714016325300,-1.747043950896020
Wader and Jerboa,HD1 6PW,53.655586491988100,-1.772322704648400
American sparrow and Prion,HD1 1QJ,53.647011800326700,-1.782020205602620
Eagle and Eagle,HD4 7PT,53.622253251412700,-1.789283649081090
Grackle and Stilt,S36 7JH,53.538868869791300,-1.607422455803990
Black cockatoo and Fish eagle,HD9 2JG,53.546995000000000,-1.778912000000000
Tree warbler and Solitaire,HD3 3TX,53.659062427581700,-1.843756534722330
Triller and Marsh harrier,HD8 0NA,53.635047560044500,-1.695077664248280
Ice seal and Cloud rat,HD8 9SR,53.612816066175100,-1.635879746989640
Partridge and Mouse,HD1 1QZ,53.648643406603900,-1.779697199687790
Tahr and Lemming,HD8 9RT,53.614593178920400,-1.629289000000000
Boto and Coati,WF12 9DP,53.676013490872400,-1.633291752922210
Bunting and Ibex,HD4 5PH,53.630560501363400,-1.824037207089760
Kangaroo and Linsang,HX4 9QA,53.661802472930900,-1.901841257297560
Guillemot and Chickadee,HX4 0AE,53.677537597288300,-1.898080721602110
Fish eagle and Jackal,HD4 6AW,53.635932943021800,-1.784013066942960
Eagle and Cloud rat,SK13 1LS,53.471512463138100,-1.974546607577710
Ice seal and Thrasher,HD3 3WJ,53.657092000000000,-1.828148000000000
Vulture and Treepie,HD9 6RL,53.589521174028100,-1.796319988672290
Elephant and Perching duck,S36 9AJ,53.524635208628700,-1.665386000000000
Gull and Black cockatoo,HD3 3TH,53.656466959106200,-1.852526906264090
Quetzal and Grouse,HD7 4WQ,53.625875928828100,-1.872395160061780
Old World quail and Diving bird,WF12 9NY,53.678999851354400,-1.634037924695990
B and Ibex,WF13 3BW,53.676766663156600,-1.673038231865520
Mamo and Petrel,HD9 7JL,53.573210949678600,-1.729937969396010
Treepie and Argus,HD5 9BR,53.642188744331600,-1.767539602772690
Piping shrike and Cuscus,HD2 2TT,53.661376088234400,-1.792811445941280
Buzzard and Kangaroo,HD3 3UR,53.661481553413200,-1.831444720539990
Masked owl and Herring gull,S36 6ED,53.523616356767900,-1.618800678784290
Cuscus and Kestrel,HD3 3FQ,53.649665341490100,-1.878662000000000
Recurvebill and Linsang,HD8 9TN,53.614665834148600,-1.632341809318050
Ibex and Grackle,S36 1EU,53.476901321500700,-1.598954038356460
Pratincole and Mole,HD8 9LQ,53.577051924307500,-1.621144000000000
Egret and Dolphin,HD9 5RG,53.597840779446800,-1.855813219345940
Scimitar babbler and Black jay,HD9 5LY,53.591652968644800,-1.860124842602640
Old World vulture and Rat,HD9 2AP,53.563761691605900,-1.781587352196820
Quetzal and Jay,WF4 4EQ,53.641831223831400,-1.667136965406900
Duck and Egret,HD2 2QS,53.666354970931500,-1.782344281369840
Hawk and Nukupuʻu,HX6 4BY,53.669237967732100,-1.948970987270160
Tattler and Fox,HD3 3WD,53.658626375921700,-1.827279750611010
Mink and Fox,HD5 8BN,53.641591705891200,-1.758467316019730
Wader and Mole,HD8 0UF,53.608131000000000,-1.688773000000000
Vole and Coati,WF13 3FA,53.680443661869700,-1.659111864258520
Masked owl and Cuscus,HD8 0NZ,53.613928628622400,-1.710980308158680
Pheasant and Meadowlark,HX5 9BL,53.682323523152200,-1.830332112171150
Civet and Partridge,HD9 1TJ,53.555300945595800,-1.752467712496980
Masked owl and Crow,SK13 1BW,53.464797535042000,-1.972050183891540
Parrotlet and Jay,HD9 3EN,53.580697173016100,-1.792541080694330
Parakeet and Maya,HD9 5QH,53.591382364012600,-1.851846749537410
Fish eagle and Francolin,HD5 8UG,53.635246784443900,-1.741595633209330
Chipmunk and Scimitar babbler,HD9 3JA,53.573197449185700,-1.785465094086590
Parakeet and Egret,HD5 8UU,53.633011977094800,-1.747340715105010
Ground sloth and Gull,HD9 7SJ,53.581813121558500,-1.768761544826750
Stint and Perching duck,HD7 6HQ,53.593896677107100,-1.927365502988700
Triller and Solitaire,HD2 2LL,53.671204283331900,-1.779988345754250
Darwin's finches and Armadillo,HD8 0TZ,53.621311596366100,-1.690822492104140
Quetzal and Pitohui,HD4 6XA,53.599572000000000,-1.740922000000000
Dolphin and Cloud rat,HD4 5DW,53.636837976431700,-1.808841871593120
Tattler and Mink,WF12 0LW,53.664931402201000,-1.621840648319620
American sparrow and Pratincole,HD5 9EB,53.646050417564700,-1.763252315140250
Greenbul and Diving bird,HX4 9DA,53.671765712520100,-1.860798590674420
Chipmunk and White ibis,HD7 5DQ,53.624988913187400,-1.884024827168160
Moluccan boobook and Quetzal,HD2 2HQ,53.676908403573800,-1.788103032636360
Chicken and Crow,WF4 4EA,53.640077336467300,-1.666712135065180
Ibex and Jay,HD5 0BN,53.645900509470400,-1.726600081514860
Polecat and Warbler,HD9 2HU,53.556316000000000,-1.816661000000000
Booted eagles and Viscacha,HD5 8EE,53.641135872431700,-1.750937449834830
Logrunners and Kestrel,HD3 4UL,53.645571040013900,-1.830570000000000
Stilt and Meadowlark,HD5 8HF,53.642589396810000,-1.762969156768540
Goose and Jerboa,OL3 5PZ,53.568175950604500,-1.993423790684890
Partridge and Triller,HD4 6QQ,53.633213029209400,-1.776132946854460
Lemming and Old World quail,HD3 4ST,53.644204414504200,-1.843342440808570
Asiatic leopard and Parrotbill,HD3 4US,53.648440339316600,-1.838440415086310
Nukupuʻu and Ice seal,HD9 1AS,53.563983912069800,-1.780227398652160
Marsh harrier and Tattler,SK13 1ND,53.469887367498100,-1.985559679898710
Petrel and Vulture,HD5 0RE,53.675372861638100,-1.734629248999670
Booted eagles and Argus,HD8 9NP,53.593598957540400,-1.615708815253910
Piping shrike and Cloud rat,HD9 7SZ,53.585959504425000,-1.770204194027720
Condor and Old World vulture,HD9 7TN,53.554918000000000,-1.745028000000000
Mole and Peafowl,HD9 7EE,53.591223214856800,-1.768423188342280
Kestrel and Old World vulture,HD7 4DS,53.638107601243100,-1.848144280058500
Fish eagle and Rat,SK13 1ET,53.463794518978900,-1.954653891813260
New World blackbird and Ibex,SK13 1LH,53.472688941538400,-1.970146802910490
Gull and Vulture,WF14 8AT,53.674291827612200,-1.695522000000000
Mockingbird and Zebra,HX4 0FB,53.676128716285500,-1.912132000000000
Eagle and Pheasant,HD2 1EH,53.673402065947700,-1.763553279263050
Darwin's finches and Kangaroo,HD2 1HQ,53.669317893951600,-1.766330784662900
Wallaby and Parakeet,HD9 2QN,53.557699797849800,-1.822859845179610
Armadillo and Kākāriki,WF12 0QZ,53.664238621361100,-1.624647000000000
Fox and Flameback,HD4 7QX,53.619688620969000,-1.792728136400690
Piping shrike and Crow,HD1 3JA,53.642055195903100,-1.794978252394040
Moluccan boobook and Viscacha,HD1 5BE,53.650208316671300,-1.785180761315830
Old World warbler and Elephant,WF4 4BY,53.629258923732200,-1.658556000000000
Moluccan boobook and Bronzewing pigeon,HD7 4NJ,53.644216089234500,-1.867983485725690
Guillemot and Treepie,HD9 5RA,53.596876254633100,-1.853519838700190
Bronzewing pigeon and Macaw,HD2 1UX,53.678625040260800,-1.742163124472580
Partridge and Macaw,HD3 4RE,53.643923738550800,-1.835114711696120
Towhee and Coati,WF13 3DY,53.684406932783300,-1.669875203029230
Chipmunk and Solitaire,HD9 1TB,53.562251477811600,-1.762602748359710
Macaw and Chipmunk,HD5 8UY,53.632333000000000,-1.749054000000000
Chickadee and Moluccan boobook,HD4 6NS,53.638312424392800,-1.777784791228360
Moluccan boobook and Vole,HD7 4LL,53.641499397999200,-1.862410848017980
Jerboa and Peafowl,HD3 4DP,53.649431073321700,-1.820887708859100
Argus and Mockingbird,HD4 5AS,53.638609443497200,-1.803767160565330
Mink and Parakeet,WF14 0PX,53.682733041904500,-1.682409367328120
Minke whale and Wader,HD8 0JD,53.629987085154000,-1.709509754906920
Guillemot and Hawaiian honeycreeper,HD8 0DU,53.634259562510800,-1.707075877848830
Vole and Armadillo,SK14 8PE,53.459515222711800,-1.991225986348940
Black cockatoo and New World blackbird,HD1 4DA,53.646840365487600,-1.786650094000380
Wader and Fox,HD1 6QR,53.646802396984300,-1.775850000000000
Greenbul and Fish eagle,HD1 5PZ,53.650492554846500,-1.793485015480430
Maya and Elephant,S36 4HD,53.538841804367500,-1.723079800666790
Capuchin and Macaw,S36 9RR,53.530787000000000,-1.649980000000000
Mink and Booted eagles,HD5 8XX,53.632790000000000,-1.743955000000000
Maya and Prion,HD2 1XQ,53.681210625994700,-1.740330000000000
Snipe and Partridge,HD1 4QD,53.650471895799900,-1.808099502090630
Marmoset and Kite,HD2 1NY,53.673846638898800,-1.775055023797720
Chickadee and Solitaire,HD9 6EH,53.597208702499400,-1.797824254979800
Hawk and Prion,HD7 6AL,53.605283140069000,-1.924671111099750
Kangaroo and Dolphin,HD8 8YH,53.555212065409700,-1.664314637923770
Grosbeak and Elephant,WF14 9BS,53.680292043197500,-1.701367211873780
Ibex and Jackal,HD1 4PW,53.653187590692000,-1.808889063223600
Herring gull and Grosbeak,HD5 8TX,53.635142871939700,-1.735168865590330
Asiatic leopard and Mole,HD8 8JW,53.596446113772200,-1.703499457951870
Egret and Condor,WF14 9RU,53.677430026373300,-1.696285777383770
Rat and Francolin,HX5 0JQ,53.682739332316500,-1.838551635688790
Mole and Francolin,HD2 2HF,53.673736492949500,-1.788769000000000
Jay and Francolin,HD8 0ER,53.632176269343200,-1.711596724513810
Prion and New World blackbird,SK13 1NQ,53.471574081220300,-1.968987569989660
Marsh harrier and Partridge,HD5 0PS,53.673819672127800,-1.727403442609960
River dolphin and Francolin,HD4 5TR,53.636616324115700,-1.828700423533350
Chickadee and Grackle,HD8 0DQ,53.634252390967300,-1.715287711283760
Grackle and Argus,WF14 9PL,53.679996000000000,-1.690711000000000
Mockingbird and River dolphin,HD1 4BL,53.643574828900500,-1.790145603124490
Warbler and Cuscus,HD9 7LA,53.580379682028800,-1.775958736359240
River dolphin and Francolin,HD9 2NU,53.559992173140000,-1.811316588216040
Flameback and Badger,HD5 0HP,53.659298887982200,-1.729222090578730
Chicken and Maya,WF13 3DT,53.683982749286100,-1.666002467926540
Nukupuʻu and Mink,HD5 0RR,53.682262738861900,-1.736872148993510
Philippine hawk-owl and Jay,HD3 4RH,53.643907585065000,-1.836445898309910
Tit-tyrant and Francolin,HX6 4RT,53.661286272285600,-1.956138267637520
Shearwater and Booted eagles,WF13 3QH,53.683284148123400,-1.651094526114870
Logrunners and Jackal,HD5 9XY,53.646311953042800,-1.741906246410810
Triller and Greenbul,WF12 9JJ,53.676981931819000,-1.626728452190690
Bronzewing pigeon and Magpie,HD9 7HU,53.560747136576100,-1.739407460073050
Civet and Vole,WF4 4PE,53.651935039608800,-1.597205229914150
Chipmunk and Dorcopsis,HD4 6RR,53.623439203380700,-1.779026999930120
Partridge and Warbler,HD5 9EX,53.645457351715200,-1.763331267896970
Fulmarine petrel and Stilt,OL3 6LP,53.555726825278400,-1.989033022591640
Nukupuʻu and Chicken,S36 6BE,53.521108958043600,-1.627480645382030
Thicketbird and Chicken,WF13 3JS,53.678728478019900,-1.660957319607970
Shearwater and Scimitar babbler,HD2 2HW,53.672909829355600,-1.788758818007540
Ice seal and Ice seal,HD1 3QF,53.637981000000000,-1.787738000000000
Bronzewing pigeon and Jerboa,HD1 4NP,53.652772280091900,-1.802203661766540
Gull and B,HD1 2NA,53.648332117295800,-1.781499052664330
Piping shrike and Duck,WF12 0PH,53.660267536310900,-1.636696925059410
Tit-tyrant and Tree warbler,HD8 8AD,53.583678079750900,-1.708935887344580
Guillemot and Chicken,HD8 9TQ,53.612047000000000,-1.664439000000000
Lemming and Chipmunk,HX6 4DF,53.674366101041000,-1.940079228389980
Mouse and Moluccan boobook,HD8 0AH,53.631548266728100,-1.715850291381730
Thrasher and Snipe,SK13 1QJ,53.466585586714500,-1.969367757059880
Mouse and Tahr,HD9 3JR,53.569060623978200,-1.805221306187460
Diving bird and Songlark,HD8 9HU,53.592189525526900,-1.621900770579600
Nukupuʻu and Siskin,HD5 8XL,53.629813575304000,-1.748116000000000
Rabbit and Gull,HD7 5PD,53.621089000000000,-1.858545696041920
Tahr and Capuchin,HX4 9PU,53.675382591111000,-1.900644175536510
Grosbeak and River dolphin,HX4 9FA,53.662815000000000,-1.881077000000000
Magpie and Grackle,S36 6FX,53.516318611606000,-1.636405341987790
American sparrow and Lemming,WF14 9SA,53.681268107047300,-1.699906889540480
Greenbul and Linsang,HD5 0PD,53.653191873395800,-1.708351850316750
Eagle and Moluccan boobook,HD8 9EQ,53.593018000000000,-1.645734000000000
Fish eagle and Vole,HD2 2BS,53.659417356678400,-1.803262000000000
Badger and Old World quail,HD9 1XQ,53.564958221216300,-1.763236833652580
Booted eagles and Flameback,HD4 7FD,53.612938538033200,-1.818034220494490
Fish eagle and Snipe,HD8 0TD,53.615447498028200,-1.703562971561890
Skunk and Magpie,HD4 5SF,53.637687655043200,-1.817685684455450
Philippine hawk-owl and Macaw,S36 6BL,53.520930816134900,-1.630905966164610
Vulture and Gull,HD8 8SA,53.574469695677800,-1.653304143607710
Dorcopsis and Fox,HD9 1RU,53.554910000000000,-1.772319000000000
Crow and Black cockatoo,HD9 5AH,53.597289483582600,-1.857462274067960
Thicketbird and Pitohui,HD5 0JG,53.658068581628600,-1.729699044257290
Mink and Vulture,S36 7GF,53.550154000000000,-1.664973000000000
Rat and Partridge,HD5 0HQ,53.664204211824000,-1.728237255282950
Magpie and Mink,HD3 4HH,53.644228875912500,-1.822210599832860
Wallaby and Francolin,HD1 9ZQ,53.648423000000000,-1.781454875936070
Petrel and Flameback,HD1 1JF,53.647944000000000,-1.784769000000000
Hawaiian honeycreeper and Booted eagles,WF14 9QA,53.679423048249300,-1.709851287536070
Kite and Ice seal,WF14 8BP,53.656667159454100,-1.705528847759660
Prion and Fish eagle,HD4 5JT,53.629639293701700,-1.803536000000000
Polecat and Black jay,HD9 4AE,53.592017933982600,-1.850017000000000
Kite and Towhee,HD1 4DX,53.650650860226800,-1.796706683590640
Fulmarine petrel and Treepie,SK13 1PD,53.463090387625500,-1.975063702601830
Asiatic leopard and Asiatic leopard,HD5 8LA,53.631658914359200,-1.767143548699110
Greenbul and Myna,HD3 3QP,53.667529314634400,-1.824292102858040
Chicken and Triller,HX6 4QF,53.657670076373200,-1.948667129268470
Nukupuʻu and Old World vulture,HD1 9PT,53.648335993413300,-1.781499241957230
Stilt and Gull,HD1 2JR,53.648332117295800,-1.781499052664330
B and Piping shrike,S36 7LP,53.544504000000000,-1.609726000000000
Quetzal and Kite,HD3 3AQ,53.654386009129100,-1.805161630715960
Tree warbler and Jackal,HD9 7RW,53.584349000000000,-1.778415000000000
Philippine hawk-owl and Perching duck,HD1 4PN,53.654676589858100,-1.806991055118740
River dolphin and Stilt,HD4 6NF,53.635093465821800,-1.777151386100310
B and Capuchin,HD1 6ED,53.656974488706600,-1.784102360022370
Fox and Stilt,WF12 0AU,53.671800034924300,-1.633948910313530
Marmoset and Parrotlet,HD9 5QS,53.594866254962400,-1.848994114247420
Chipmunk and Treepie,HX4 9AH,53.674874788883900,-1.868024081629230
Quetzal and Vulture,HD4 6PS,53.630391822436400,-1.767271489595340
Piping shrike and Black jay,HX6 4LX,53.676796520866600,-1.947856813553300
Magpie and Logrunners,HD2 1YE,53.659486461810700,-1.767171965059000
Herring gull and Petrel,HD7 4DY,53.636419275628100,-1.849299735723680
Grosbeak and Egret,HX5 9BU,53.682369638407400,-1.831164637304490
Ice seal and Fish eagle,WF14 9QQ,53.680557678286800,-1.707027535847410
Fulmarine petrel and Tahr,HD4 5QE,53.634496137889600,-1.823219334672810
Vole and Argus,HD9 2TZ,53.544774000000000,-1.780161000000000
Magpie and Parakeet,HD8 8DF,53.582400584265500,-1.712177013473180
Minke whale and Rat,HD3 3TY,53.661167904368800,-1.845489008333020
Jerboa and Goose,HD3 4NN,53.639678198052200,-1.826540302702620
Civet and Coati,HD8 9JH,53.588979876177800,-1.624497567346610
Petrel and Marmoset,HD1 4HG,53.643104429960900,-1.798875711581750
Minke whale and B,SK13 1AE,53.462306878659000,-1.968587598839550
Old World quail and Grouse,HX6 4NZ,53.681280552314900,-1.945489498009280
American sparrow and Crow,HX5 0JH,53.683267829527700,-1.837217253191750
Zebra and Marsh harrier,HD2 2ER,53.675763477950900,-1.791272577005560
Parrotbill and Hawk,HD3 3ZD,53.662247000000000,-1.840416000000000
Zebra and Shearwater,HD9 2DY,53.553999929024300,-1.786331902155150
Jerboa and Thrasher,WF4 4BZ,53.627076587505000,-1.652737361673910
Tree warbler and Linsang,HD9 2LY,53.567619420174700,-1.803340521751340
Kestrel and Flameback,HD4 5XA,53.629974164180300,-1.841882921837020
Skunk and Condor,HD8 8TB,53.578779246001200,-1.648556710198760
Quetzal and Cloud rat,HD1 9WD,53.644313652240000,-1.783910005466620
Kestrel and Myna,HD4 5NA,53.629969640407200,-1.819578841521480
Meadowlark and Pratincole,HD9 5LG,53.594986010803300,-1.858754052134560
Chicken and Civet,HD8 9QB,53.600087892272500,-1.609953181781270
Fish eagle and Mamo,WF12 0HD,53.658529000000000,-1.620684723320060
Capuchin and Marsh harrier,HD5 0EL,53.655816631394900,-1.727534614878640
Egret and Jackal,HD9 3XS,53.585801000000000,-1.796232000000000
Francolin and Duck,HD4 5EN,53.634635740501500,-1.803210897920220
Tahr and Gull,HD8 8AE,53.583987557990000,-1.710414000000000
Boto and Warbler,WF12 9PD,53.678461359663900,-1.634299949511860
Recurvebill and Chickadee,OL3 7NW,53.550095734762900,-1.965580053103010
New World blackbird and Songlark,HD1 4RU,53.642017727219600,-1.799395149727160
Vole and Stint,HD5 8QZ,53.642583177495000,-1.734290377813240
Skunk and Scimitar babbler,HD4 5SN,53.637453776520700,-1.823569966498270
Pheasant and Old World quail,HX4 9LB,53.658965000000000,-1.883629000000000
Cloud rat and Grouse,HD9 7NF,53.579716547789600,-1.758487488976820
Fulmarine petrel and Chipmunk,SK14 8PF,53.459804000000000,-1.991979000000000
Egret and Herring gull,HD1 6HB,53.659475246878300,-1.785239628321920
Pitohui and Rabbit,S36 7JU,53.540601109261700,-1.609398273559630
Hawk and Songlark,HD5 8RB,53.640436094674500,-1.734787864396780
Elephant and Wader,HD9 4ES,53.591362774726800,-1.850547561680990
Fulmarine petrel and Tree warbler,HD8 8DZ,53.585569682282100,-1.706913857242240
Thicketbird and Wader,HD3 3DE,53.654940033505200,-1.808729845055430
Solitaire and Pratincole,HD4 7QL,53.619094144820300,-1.791854000000000
Crow and Zebra,HD4 5HT,53.631726863829200,-1.805235648578290
Argus and Myna,HD1 4PU,53.654549609397500,-1.806174000000000
Puffleg and Wader,HD5 8PZ,53.644597068728000,-1.738619089651290
Maya and Rat,S36 7LY,53.541422914460300,-1.610884000000000
Black cockatoo and Skunk,HD4 7QW,53.618616931434200,-1.791523989493190
Kite and Lemming,HD2 2BL,53.658366186713500,-1.798757770964790
Solitaire and Triller,HD3 4DZ,53.645552188493600,-1.823596726177470
Bunting and Magpie,HD9 1QP,53.577584000000000,-1.775296547176940
Mockingbird and Elephant,HD1 3BP,53.642818304879500,-1.774463660690410
Cloud rat and Viscacha,HD5 0DJ,53.657811362954000,-1.727249398958250
Polecat and Grosbeak,HD7 4RH,53.642367500908100,-1.854996142159050
Mink and Diving bird,HD5 9DF,53.645153306479000,-1.763802000000000
Vole and Egret,SK13 1LZ,53.469445373579200,-1.975783103237280
Goose and Ice seal,SK13 1JR,53.472347406625200,-1.970252497694900
Civet and Armadillo,WF4 4BL,53.647390169696300,-1.637609306333130
Diving bird and River dolphin,HD7 4RP,53.642117035049100,-1.855995299887740
Duck and Moluccan boobook,HD6 3PW,53.684106400296600,-1.797635943343180
Minke whale and Stint,S36 6DS,53.526067000000000,-1.631857000000000
Chickadee and Guillemot,SK13 2AD,53.460167561231100,-1.968348188521040
New World blackbird and Capuchin,HD1 2BU,53.645423206740400,-1.783102000000000
Parrotlet and Condor,HD4 6XW,53.592693991789200,-1.724405160416570
Partridge and Grosbeak,S36 7AH,53.529391000000000,-1.634016000000000
Kite and Buzzard,HD1 5DX,53.655055637951200,-1.786684321485860
Linsang and Pitohui,HD8 8DH,53.585139975338900,-1.711327619883630
Petrel and Magpie,HD7 4BT,53.641412428731000,-1.845924105954800
Macaw and White ibis,HD8 0BG,53.643368932775600,-1.727962674066800
Bronzewing pigeon and Cuscus,HD8 8JF,53.595836004074400,-1.703941894679200
Masked owl and Crow,HD4 6SU,53.621956066227000,-1.751458455350400
Kestrel and Scimitar babbler,WF13 3HZ,53.677708004301300,-1.668882980392480
Argus and Moluccan boobook,HD3 3ST,53.661424619777100,-1.835485000000000
American sparrow and Booted eagles,HD7 5UU,53.632892000000000,-1.895466000000000
Tahr and Quetzal,HD7 5NW,53.623345310611900,-1.852658000000000
Buzzard and Marsh harrier,WF4 4DP,53.629988765081700,-1.649643807227300
Wader and Duck,HD8 9LR,53.591702665184200,-1.618596497947040
Treepie and Gull,HD1 2RX,53.644563023228500,-1.779839452663150
Dolphin and Rat,HX5 0DU,53.684067000000000,-1.836079000000000
Old World quail and Armadillo,HD8 8XF,53.571331826257200,-1.672114877589280
Dolphin and Hawk,HD8 0NL,53.640983944569700,-1.718827142359440
Condor and Jay,S36 6BP,53.527616161480300,-1.630244487848480
Linsang and Zebra,SK14 8NH,53.463802933818000,-1.995111200121600
Capuchin and Parakeet,HD5 0NW,53.652013000000000,-1.731798000000000
Mockingbird and Logrunners,HD8 0PS,53.598421000000000,-1.717009000000000
B and Skunk,HD8 9SQ,53.613942853119400,-1.628161018001350
Booted eagles and Scimitar babbler,HD3 4BP,53.651021512088600,-1.814662977567570
Stint and Bunting,S36 8HW,53.533466852916900,-1.627100704376280
Quetzal and Cuscus,HD8 8AN,53.585575903024800,-1.716974149355680
Vole and Coati,HD8 0EE,53.632482448157400,-1.704456885140850
Partridge and Jackal,HD2 1NB,53.676259546979200,-1.758662855547530
Moluccan boobook and B,WF12 0AR,53.672723212373500,-1.630171850697840
Tit-tyrant and Armadillo,HD9 5QR,53.593797000000000,-1.848559327593900
Francolin and Vole,HD9 2PJ,53.555612293690800,-1.815441860447350
Moluccan boobook and Old World quail,WF13 3HA,53.681279863643800,-1.660512929389630
Skunk and Parrotlet,HD4 7RA,53.620546293649800,-1.794931177379490
Night heron and Philippine hawk-owl,HD9 7LE,53.577277287506200,-1.780037725874840
Pheasant and Tahr,HD4 5DU,53.635570043784100,-1.808469509671980
Guillemot and Rabbit,HD8 9UP,53.594668260483500,-1.653924598997430
Asiatic leopard and Mole,WF14 8DH,53.674415815811800,-1.691524027239770
Songlark and Maya,HD9 6QZ,53.609757269213500,-1.788243000000000
Macaw and Piping shrike,HD2 1AP,53.664360022998100,-1.777678221476280
Grackle and Ground sloth,HD4 5TL,53.634972890969000,-1.829690079287570
River dolphin and Tahr,HD8 8AL,53.584025712771400,-1.715202099276560
Guillemot and Petrel,HD8 9RR,53.617982000000000,-1.628881000000000
Condor and Macaw,HD7 5SE,53.625868631810000,-1.850516615234710
Thrasher and Coati,HX4 9HN,53.671196682934200,-1.883504719377130
Perching duck and Coati,WF12 9HH,53.673148730245800,-1.638826654633820
Goose and American sparrow,HD8 8YR,53.572405000000000,-1.701374000000000
Wader and Mink,HX4 9JB,53.663868919186600,-1.881042981471680
Fish eagle and Philippine hawk-owl,HD3 4QF,53.637121051831900,-1.842400000000000
Rat and Kite,HD3 4HL,53.643856855225900,-1.825948380513960
Wader and Stint,HD1 4RP,53.642258070272600,-1.798002434902800
Night heron and Viscacha,HD9 6PR,53.597367207124500,-1.780628560415900
Peafowl and Vulture,HD2 2XJ,53.660789093722800,-1.796446111316470
Rabbit and Marsh harrier,HD1 3RT,53.636496704006500,-1.792781975606330
Rat and Jerboa,HD4 6XH,53.593815919482100,-1.727993000000000
Diving bird and Old World vulture,HD8 9GU,53.593560532716500,-1.622266441809600
Skunk and Magpie,WF12 0QY,53.664186000000000,-1.624481000000000
Argus and Cuscus,WF13 3AJ,53.682344000000000,-1.671133000000000
Meadowlark and Kangaroo,HD1 3UQ,53.633677211061500,-1.799858000000000
Ice seal and Parrotlet,HD8 8NB,53.593972646368200,-1.671833998150500
Grouse and Partridge,S36 8XB,53.525260605821400,-1.630053808991350
New World blackbird and Ibex,HD8 9RB,53.610432508455500,-1.632393670897680
Nukupuʻu and Eagle,HX5 0AQ,53.683378000000000,-1.838504000000000
Francolin and Rat,HD9 5JH,53.591501677569700,-1.853855654389320
Solitaire and Fish eagle,HD5 0NJ,53.661080333725000,-1.730012710939640
Snipe and White ibis,HD4 6PU,53.633934492322000,-1.772635752761120
Partridge and Rabbit,WF12 0DA,53.672590993646100,-1.625223289076670
Fox and Jay,HD9 2PA,53.559589337315800,-1.812360024069140
Booted eagles and Warbler,WF13 3BE,53.677110563692600,-1.670613434351420
Prion and Polecat,HD1 9US,53.644313652240000,-1.783910005466620
Crow and Armadillo,SK13 1EQ,53.462925000000000,-1.957516724698190
American sparrow and Linsang,HD5 9PN,53.657056215586600,-1.756396843683960
Siskin and Macaw,HD1 3LF,53.641221000000000,-1.795360000000000
Moluccan boobook and Rat,HD4 5DT,53.635785348380500,-1.808211436212160
Bunting and Chicken,HD4 5BR,53.639523860837000,-1.807846630404000
Mouse and Grackle,HD4 6RW,53.622969302827200,-1.777668747351500
Logrunners and Stilt,HD8 9AB,53.589851206902600,-1.657287501631330
Masked owl and Bronzewing pigeon,HD4 7QY,53.625009380118400,-1.797827664548540
Meadowlark and Ice seal,HD9 6QX,53.603345929964600,-1.771817591010940
Triller and Marmoset,HD5 8TA,53.634587535065700,-1.744336938295710
Peafowl and Dorcopsis,HD9 7NR,53.577284281161200,-1.755813066505620
Dolphin and Masked owl,HD8 1BA,53.586773477286400,-1.628897872844420
Cuscus and Boto,HD9 6GH,53.598004419953500,-1.795327308633300
