name,postcode,lat,lon
Hawk and Kākāriki,L28 4ED,53.441268333025400,-2.865564033662560
Mole and Herring gull,L32 9QZ,53.477420788544100,-2.877932059531240
Guillemot and Bronzewing pigeon,L3 3DA,53.414367419711900,-2.980340417516630
Siskin and Wallaby,CH45 3JX,53.426865703535900,-3.065931025045960
Crow and Cloud rat,L32 2AJ,53.487725892982400,-2.902726198915810
Coati and Fulmarine petrel,L39 5ER,53.548550267545500,-2.913664856286070
Logrunners and Herring gull,CH49 4SE,53.394895000000000,-3.105163000000000
Zebra and Prion,L23 0RJ,53.481299000000000,-3.024378000000000
Fish eagle and Perching duck,L2 6RD,53.406750543437600,-2.987280468769720
Fox and Marmoset,L4 4DS,53.439986798506200,-2.969082000000000
Stint and Dolphin,CH41 6EP,53.389729965683900,-3.031395402100500
Zebra and Towhee,L8 7NL,53.399508000000000,-2.968478000000000
Scimitar babbler and River dolphin,L4 6SG,53.444832613062600,-2.957960722759840
Myna and Prion,L30 1QL,53.479215128910000,-2.966857123242200
Night heron and Nukupuʻu,L15 7LS,53.403142991270700,-2.901295205000830
Buzzard and Capuchin,CH46 0ST,53.399582209326800,-3.113408166477450
Polecat and Cuscus,L31 8EP,53.516211065686900,-2.948018070861370
Marsh harrier and Siskin,L11 9DT,53.452745850607800,-2.906908269487420
Tahr and Francolin,L22 6QY,53.480803409772800,-3.039962755359570
Badger and Black jay,CH41 0BR,53.397521963682300,-3.053180718944250
Coati and Chipmunk,CH41 4DD,53.391101293867300,-3.032541722144160
Mamo and Condor,L14 0JW,53.415232385030000,-2.873685000000000
Masked owl and Snipe,CH43 7FD,53.391382758503200,-3.071329707103580
Badger and Polecat,L20 4UP,53.455928482842100,-3.002427095985190
Booted eagles and Rat,CH45 4RP,53.420963513706600,-3.050314124096410
Minke whale and Mamo,L10 3LQ,53.486375561891200,-2.947111340757380
Crow and Cuscus,L20 5DZ,53.459615995511500,-2.994651887300700
Old World warbler and Ibex,L3 6AA,53.411285000000000,-2.991312000000000
Badger and Egret,L15 6TP,53.393873075817600,-2.912257581282870
Recurvebill and Minke whale,L36 4QX,53.402873677552300,-2.849773155287440
Pitohui and Minke whale,L3 2BQ,53.409777910353700,-2.985334715634890
Rabbit and Piping shrike,L13 1BP,53.408295120502200,-2.919952439851000
Siskin and Guillemot,L20 6NW,53.463229000000000,-2.985969000000000
Pheasant and Treepie,L18 1HH,53.386775284646100,-2.921172280546740
Elephant and Rabbit,L20 6NR,53.464460000000000,-2.987127000000000
Prion and Ground sloth,L23 8SS,53.496821411050400,-3.048208715567810
Hawk and Kākāriki,L12 3HW,53.420641138701400,-2.893344020132520
Philippine hawk-owl and Ibex,L4 4DT,53.439772082656300,-2.969077446091500
Bronzewing pigeon and Macaw,L23 9TR,53.490027825077700,-3.002944867547120
Viscacha and Fish eagle,L7 8UH,53.410896161786800,-2.963847000000000
Grouse and Peafowl,L16 3NT,53.403953319019000,-2.885503537594600
Flameback and Minke whale,L33 7XB,53.481887000000000,-2.865909000000000
Grouse and Meadowlark,CH43 7TT,53.396917464772500,-3.083560454543620
Prion and Eagle,L31 2HJ,53.513570000000000,-2.944614387823230
Parrotbill and Myna,L31 7AU,53.506538565284100,-2.953742906897490
Egret and Thicketbird,L21 7PG,53.470477018362100,-3.000811491633880
Cloud rat and Black jay,L9 7LH,53.460952789440000,-2.936017023921700
Eagle and Partridge,L22 1RS,53.471190320324100,-3.018515277713320
Thrasher and Old World quail,L13 8EA,53.428408279951900,-2.935497343989100
Parrotbill and Duck,L11 1AA,53.440277516486200,-2.918355452221240
Egret and Solitaire,L23 6TU,53.487824307521000,-3.046072723115310
Pratincole and Pitohui,L3 3EN,53.412734360218300,-2.978888633526870
Cloud rat and Buzzard,CH43 1TG,53.386664782669800,-3.044823406159590
Greenbul and Nukupuʻu,L8 7LX,53.397091444600300,-2.970348095499450
Crow and Parrotlet,CH41 2XP,53.387282000000000,-3.032885000000000
Condor and Pheasant,L21 2NA,53.468241646353800,-3.006890156462010
Asiatic leopard and Macaw,L8 0SX,53.390267633632000,-2.951516981632430
Puffleg and Wallaby,L8 0RY,53.391825346482600,-2.946664557099010
Peafowl and Skunk,L31 1JZ,53.484133201252400,-2.913003017834780
Darwin's finches and Fox,L21 8PG,53.464785040790600,-2.995676549521600
Minke whale and Stilt,CH45 3NB,53.420259392130300,-3.059806873068790
Meadowlark and Mockingbird,L4 3RY,53.443907745178800,-2.973402292533650
Fox and Rat,L5 3PJ,53.420187000000000,-2.976712000000000
Jay and Triller,L23 0QN,53.485145506824000,-3.023250240336330
Dorcopsis and Kite,L14 0NY,53.419296997002000,-2.874567179055910
Darwin's finches and Siskin,L6 2PF,53.416575894160100,-2.964126255507960
Pratincole and Triller,L15 0HL,53.398563836222700,-2.935669638638320
Bronzewing pigeon and Kestrel,L20 7BS,53.441825295576500,-2.990532614063850
Tree warbler and Dorcopsis,CH43 8SQ,53.394262319426600,-3.052799450485820
Francolin and Black cockatoo,L8 2TB,53.393055522666800,-2.960331241456170
Stilt and Asiatic leopard,L9 2AY,53.454320533978300,-2.957376145350620
Shearwater and Chicken,L1 8AJ,53.398190000000000,-2.985518000000000
Guillemot and Nukupuʻu,L7 6QA,53.399863552433800,-2.948662889998670
Guillemot and Parrotbill,L23 4TR,53.498048496641100,-3.025927773896020
Badger and Chickadee,L21 9NH,53.473838451782700,-3.006209084188100
Jerboa and Parrotbill,L13 7DS,53.421353901043300,-2.923710444684260
Old World vulture and Herring gull,L20 4LP,53.456753696693000,-2.999419383698610
Viscacha and Ibex,CH44 0EL,53.421263154350000,-3.030367901170180
Minke whale and Myna,L23 2RN,53.488564653434000,-3.012300033714160
Pratincole and Siskin,L20 4DJ,53.448259366834500,-2.999520000000000
Guillemot and Civet,L30 1TG,53.475842053301500,-2.957092229471010
Night heron and Tahr,CH45 2NG,53.438623379041000,-3.049680864265940
Jay and Towhee,L4 3SL,53.440146713652700,-2.976056231245720
Moluccan boobook and Prion,L3 7BG,53.417331000000000,-2.998209000000000
Perching duck and Gull,CH44 0AX,53.417569646547700,-3.033378197680290
Chipmunk and Warbler,L25 2RQ,53.390737954332200,-2.858673826812510
Herring gull and Francolin,CH46 3RJ,53.415384140453300,-3.111564090178900
Shearwater and Rabbit,L1 4ED,53.403837624503100,-2.977693000000000
Kestrel and Grackle,L9 9ET,53.470075508605300,-2.933958000000000
Old World quail and Wader,L6 0DE,53.425862985088700,-2.949347152705900
Puffleg and Magpie,CH44 3BS,53.417102139406300,-3.049872874541950
Old World quail and Badger,L22 1RR,53.469645887535500,-3.022530790578850
Skunk and Fox,CH45 0NE,53.432630103522400,-3.058835000000000
Rat and Nukupuʻu,L33 3AP,53.492849000000000,-2.847698000000000
Warbler and American sparrow,L32 4SQ,53.480074028804500,-2.907792514893720
Old World warbler and Warbler,L22 0PT,53.475281553418900,-3.021521214339110
Grouse and Pratincole,L20 0BR,53.457136775500000,-2.974819391033590
Buzzard and Fish eagle,L13 2AW,53.414165025066800,-2.922260719373320
Armadillo and Fulmarine petrel,CH46 2QG,53.416008366099300,-3.094593207809010
Elephant and Civet,L8 7PA,53.398011588954900,-2.964398285788560
Chickadee and White ibis,L33 7BY,53.475902184946400,-2.865243000000000
Night heron and Piping shrike,L20 2EJ,53.442009727183800,-2.986712876114790
Condor and Myna,L36 2PN,53.414866284834100,-2.848297097979270
Duck and Civet,L5 7SB,53.426825957297300,-2.984720685010740
Cuscus and Rat,CH45 8NE,53.427357175956300,-3.074281115400940
Jackal and Grouse,CH45 5JE,53.431605000000000,-3.049553000000000
Stint and Buzzard,L30 5QG,53.490165839226500,-2.969894611167880
Parakeet and Bronzewing pigeon,L6 2WQ,53.415460948848000,-2.960821041486960
Fulmarine petrel and Chipmunk,L20 0BZ,53.461029303107700,-2.973673501851030
Old World warbler and Thicketbird,L13 8DT,53.429956961711200,-2.932867349890900
Dolphin and Grackle,L11 2TQ,53.444238582222000,-2.910957729749880
White ibis and Civet,L30 5RX,53.487837070758300,-2.969977109888560
Fox and Jay,L22 2BA,53.483105196333100,-3.032634842502660
Parrotbill and Jay,CH44 6RB,53.411447492211900,-3.024067659100840
Kangaroo and Mamo,L7 1PE,53.405647636650900,-2.954898794218850
Quetzal and Night heron,L11 1EZ,53.439565079296200,-2.915692000000000
Tree warbler and Argus,L5 0QX,53.429623803813800,-2.969057242342730
Siskin and Snipe,CH41 0AG,53.398938805072100,-3.050508494243200
Magpie and Thicketbird,CH46 6EG,53.397127385746200,-3.127857253041760
Jay and Hawaiian honeycreeper,L39 5RJ,53.555635912637500,-2.892654121847830
Booted eagles and Hawaiian honeycreeper,L1 5AF,53.398038000000000,-2.976641000000000
Old World quail and Macaw,CH44 7BR,53.406934006477600,-3.019987902900560
Jay and Black cockatoo,CH44 7JY,53.405866111584800,-3.024851000000000
Marmoset and Tree warbler,L1 4BT,53.402801000000000,-2.979127000000000
Magpie and Wallaby,CH46 6EY,53.397744687355000,-3.130069390913440
Argus and Shearwater,L20 6NN,53.468274789913300,-2.991103302561890
Viscacha and Parrotlet,L33 1TP,53.494007599777300,-2.880023258134560
Rat and Mouse,CH41 6NX,53.391525680249300,-3.021183278075940
Herring gull and Marmoset,CH49 4ND,53.391177000000000,-3.107698000000000
Macaw and Old World quail,CH45 7NQ,53.422858643529900,-3.038156479607670
Pheasant and Duck,L32 4UQ,53.478372141408600,-2.901065985086000
Stint and Jerboa,L11 3DU,53.452899846362600,-2.922015718829130
Treepie and Jackal,CH43 4UL,53.387589179692900,-3.040876518537310
Diving bird and Tahr,L14 5NR,53.416910000000000,-2.892408000000000
Tattler and Flameback,L31 2NA,53.524184000000000,-2.943513108767150
Old World quail and Tit-tyrant,L32 7RL,53.468704082526200,-2.889758560345040
Booted eagles and Philippine hawk-owl,L3 0AP,53.424340394847600,-3.002197000000000
Masked owl and Myna,CH46 8SG,53.406509080227800,-3.111874195166050
Philippine hawk-owl and Kangaroo,L31 7DP,53.509811317024400,-2.945944000000000
Crow and Philippine hawk-owl,CH45 1JE,53.430155000000000,-3.039659000000000
Asiatic leopard and Shearwater,L2 2SX,53.409503892559800,-2.988174000000000
Hawaiian honeycreeper and Kangaroo,L37 2DP,53.548737078008400,-3.080930659886920
Jay and Elephant,L1 3AW,53.404824162822400,-2.984347772911100
Hawaiian honeycreeper and Pitohui,L12 9YX,53.429668000000000,-2.904926000000000
Kangaroo and Kite,L36 3RB,53.421644879829200,-2.856964205754220
Songlark and Rabbit,CH43 7UA,53.397261971317500,-3.083238338188210
Fish eagle and Darwin's finches,L1 8DN,53.398352963850100,-2.986424273073620
Tit-tyrant and Armadillo,L1 6JQ,53.408063000000000,-2.984107000000000
Black cockatoo and Duck,L30 3SB,53.483294000000000,-2.971667000000000
Gull and Parrotbill,L25 2RA,53.389739788181800,-2.864954078115320
Argus and Peafowl,L7 3EY,53.405151126447200,-2.956286594505060
Snipe and Shearwater,CH45 3PZ,53.432939954876800,-3.074211209229330
Recurvebill and Ibex,L31 8AS,53.508718067346800,-2.950957034368910
Masked owl and Kākāriki,L4 9UN,53.443271545546300,-2.953092734727480
Wader and Warbler,CH41 0DG,53.397036019380400,-3.063380501279760
Shearwater and Guillemot,CH41 3RL,53.395064128712500,-3.030967972356070
Solitaire and Songlark,CH46 7SZ,53.405315436558400,-3.130811601414010
Mole and Tree warbler,L15 8JR,53.397511711052600,-2.917193157724750
Booted eagles and Pratincole,L75 2LL,53.446596345733500,-2.989695054661080
Civet and Old World vulture,L21 9NP,53.477148479291400,-3.005955926660580
Recurvebill and Moluccan boobook,L11 4RD,53.452433195245800,-2.901902080510630
Mink and New World blackbird,L18 0HT,53.390166321283700,-2.911516679297010
Fulmarine petrel and Towhee,L15 4LS,53.401639134655600,-2.928622779733870
Zebra and Kangaroo,L13 1ED,53.408916489697700,-2.917468637291120
Piping shrike and Parrotbill,L38 6JL,53.520400000000000,-3.016000000000000
Kākāriki and Tattler,L20 3AL,53.445561658970600,-2.988240000000000
Condor and Greenbul,CH41 2QS,53.388529000000000,-3.030118000000000
Old World quail and Gull,CH45 4LP,53.423702425384400,-3.046529145372890
Black cockatoo and River dolphin,L37 2EN,53.549837000000000,-3.071664652096260
Gull and Gull,L37 2EH,53.545891185961000,-3.088464600565140
Peafowl and Fulmarine petrel,L13 4BH,53.406778590795500,-2.903132066734630
Maya and Shearwater,L33 9XH,53.489690202927300,-2.866881525355480
Crow and Petrel,L21 1YT,53.469219000000000,-2.969084000000000
Black jay and Black jay,L23 3AH,53.488260930686000,-3.036376000000000
Polecat and River dolphin,L5 9RQ,53.422557554042700,-2.992161250348230
Pratincole and Bronzewing pigeon,L20 4RN,53.458018178043000,-3.005127049801370
Solitaire and Quetzal,L20 0BE,53.459290013890700,-2.976420042826160
Francolin and Wader,L8 5RE,53.393214552935400,-2.979478171706680
Tahr and Thicketbird,CH46 4TH,53.412396856668500,-3.117654604077290
Jackal and Armadillo,L20 6AT,53.462915116143200,-2.984863000992020
Polecat and Tit-tyrant,L9 8HR,53.468207211757300,-2.960867303654280
Diving bird and Crow,CH44 7DZ,53.408126132507600,-3.023536563234560
Moluccan boobook and Flameback,L6 4DQ,53.425658758933100,-2.941080481551010
Elephant and Night heron,L21 7NX,53.476165583383300,-2.988017613521560
Mole and Rabbit,L23 4UG,53.501299278253500,-3.007281551410300
Ice seal and Buzzard,CH45 9LF,53.437237340673500,-3.044754267539630
Eagle and Crow,L32 9BB,53.476799114196900,-2.890274503709990
Chipmunk and Mouse,CH41 4NZ,53.397191000000000,-3.035667000000000
Snipe and Moluccan boobook,L20 7AB,53.446482426034700,-2.994751497114370
Bronzewing pigeon and Mole,L4 4PE,53.435527650888000,-2.974806330363140
Zebra and Myna,L1 3BL,53.404932063131200,-2.985583000000000
Shearwater and Warbler,L1 8LW,53.402360000000000,-2.988969000000000
River dolphin and Hawk,L9 1JL,53.451907530672200,-2.954505885732120
Jackal and Ice seal,L11 1JL,53.440642000000000,-2.912159000000000
Stilt and Booted eagles,CH46 0TQ,53.393293099854600,-3.114988405171210
Towhee and New World blackbird,L12 1NE,53.426566664085300,-2.910940950198490
Kite and Condor,L32 7QU,53.466073495559000,-2.878405819163080
Stilt and Herring gull,L4 3RR,53.440925062570100,-2.972099600372860
Darwin's finches and Old World quail,L32 3YF,53.470413211578200,-2.884747490167030
Fox and Kite,L32 2AU,53.489121187154600,-2.900073055225840
Philippine hawk-owl and Duck,L2 2HF,53.407919422544500,-2.989413588374680
Ice seal and Hawaiian honeycreeper,L36 4AJ,53.415289000000000,-2.864358000000000
Armadillo and Chicken,L22 8QB,53.476739032280300,-3.032871980671120
Recurvebill and Ibex,L23 6BD,53.482988943694900,-3.039686000000000
Condor and Perching duck,L31 6BW,53.514813310482100,-2.939481193178230
Mink and Crow,L15 0EG,53.397182166698100,-2.936181000000000
Chickadee and Kestrel,L20 3DF,53.450287641480400,-2.986814433373040
Viscacha and Polecat,L15 7JY,53.401856402890300,-2.900260263314760
Elephant and Vole,L23 7XS,53.491546683816800,-3.031483402550300
Piping shrike and Ibex,L5 6SP,53.422873987888700,-2.957813001976790
Cloud rat and Pratincole,L12 9EN,53.421857201802600,-2.895506000000000
Ground sloth and Mink,L31 7BY,53.514362940916100,-2.947569624510140
Boto and Ice seal,CH41 4NT,53.393088000000000,-3.021491000000000
Rabbit and Thicketbird,L10 6LR,53.484334768584300,-2.936893512317170
Duck and Old World vulture,L21 7AB,53.469219000000000,-2.969084000000000
Diving bird and Bronzewing pigeon,L69 3UR,53.406399000000000,-2.975554000000000
Prion and Ground sloth,CH45 5AX,53.433614964117500,-3.042678489238260
Tahr and Argus,L23 7XB,53.497942745598300,-3.039206385394480
Fox and Minke whale,L2 4SX,53.406542141628600,-2.990735464421120
Fulmarine petrel and Boto,CH41 7DF,53.404942134948700,-3.067879784112270
Tree warbler and Bunting,L34 0EH,53.449252963322000,-2.850186931649290
Puffleg and Grouse,L31 6AZ,53.511167673269200,-2.930955922287860
Grackle and Francolin,L4 8SP,53.438302247996600,-2.940426570116160
Treepie and White ibis,CH41 2TF,53.387317461931900,-3.029713185048420
Hawaiian honeycreeper and Skunk,CH46 3SX,53.415483867360600,-3.108572531563680
Black jay and Lemming,CH41 0BL,53.397230563748400,-3.052586981183970
Tit-tyrant and Kākāriki,L1 5AP,53.402361227500800,-2.983506000000000
Mamo and Minke whale,L8 7LU,53.397293075104500,-2.969871422297480
Badger and Rabbit,L31 8EU,53.510795586389600,-2.956883000000000
Wallaby and Peafowl,L32 1BN,53.489503569436600,-2.882552502308500
Grackle and Scimitar babbler,CH41 8JN,53.402016927876800,-3.058210223388340
Chicken and Recurvebill,L31 2LU,53.524705851776100,-2.944557351757150
Rat and Black jay,L15 5BR,53.391240859709400,-2.919088326290110
Polecat and Cuscus,L15 4NB,53.402693593046500,-2.927111537577960
Parrotbill and Herring gull,L12 9HL,53.427703541093400,-2.885274805737120
Vole and Buzzard,L20 8LY,53.444740000000000,-2.997914360303600
Perching duck and Masked owl,L9 8HH,53.469136181759200,-2.964940722076910
Old World vulture and Scimitar babbler,L29 8YB,53.515489878098400,-2.991481201927170
Darwin's finches and Mamo,CH49 4RB,53.388573411522100,-3.117917452204820
Grouse and Macaw,L33 2EF,53.492657387349800,-2.897147000000000
Tit-tyrant and Tahr,L7 4LH,53.396393506690100,-2.941681000000000
Gull and Triller,CH46 2RP,53.418856587735200,-3.087849996807690
White ibis and Zebra,L5 3PH,53.423199039096900,-2.974298478928420
Parrotbill and Boto,L16 5HE,53.398673028730300,-2.884807325211190
Argus and Scimitar babbler,L12 6QL,53.434204861336600,-2.877642946466870
Darwin's finches and Treepie,L14 6UW,53.411151278994600,-2.880929200345240
Tattler and Armadillo,CH44 2DS,53.419336237683600,-3.063545741071980
Mole and Guillemot,L11 7BT,53.446880032781400,-2.936686228076030
Old World vulture and Shearwater,L20 6NT,53.463591000000000,-2.986700000000000
Towhee and Kestrel,L11 4SW,53.449094197088000,-2.904827791815540
Grackle and Shearwater,L20 4EH,53.454025563314200,-2.999957689712140
Pratincole and Stilt,L20 9LX,53.445150470088500,-2.978625142622460
Polecat and Pheasant,CH44 6JL,53.410344593928900,-3.021649149192760
Treepie and Fulmarine petrel,CH45 6UB,53.422947702626200,-3.059738310690100
Perching duck and Egret,L33 4BA,53.497590294269000,-2.892654765889790
Triller and Polecat,L9 9HZ,53.473262376377900,-2.937101000000000
Kākāriki and Mole,L36 2QA,53.419763384567200,-2.852336963473540
Flameback and Songlark,L28 1NR,53.435593000000000,-2.868595000000000
Shearwater and Zebra,L21 1AQ,53.470098266818900,-3.012689018889870
Myna and Snipe,L31 9DG,53.517676770793400,-2.925005533278200
Tit-tyrant and Nukupuʻu,L20 6HP,53.466083279539100,-2.973397531832770
Lemming and Pratincole,L14 7AA,53.409200000000000,-2.890855475999570
Linsang and Zebra,L5 4RT,53.423071733926700,-2.964514032500740
Linsang and Songlark,L25 4SR,53.390240681620200,-2.870242155387990
Masked owl and Scimitar babbler,L69 9BN,53.447734468727300,-2.990113006907110
Kākāriki and Logrunners,L15 1HS,53.400645530907300,-2.933850291876960
Chipmunk and Guillemot,L20 3NP,53.455115520689100,-2.984531873052260
Black jay and Perching duck,L30 2PG,53.484150484945700,-2.992015950732430
Thrasher and Jackal,L23 1UT,53.499947154054900,-2.999168877030600
Pheasant and Pitohui,L20 9ET,53.450355484575200,-2.973067894543800
Masked owl and Black cockatoo,L5 7TD,53.428308000000000,-2.983716000000000
B and Meadowlark,L12 5JZ,53.438543595531700,-2.904528293703000
Shearwater and Ground sloth,L39 4QT,53.562461551354600,-2.880538042204250
Warbler and Vulture,L8 8LD,53.389959049608900,-2.960862997018120
Grosbeak and Pratincole,L36 4JA,53.409644722786700,-2.864455344890130
Perching duck and Ground sloth,L33 0XN,53.481539776459000,-2.877640395721440
Hawk and Marsh harrier,L8 6AG,53.387551054702200,-2.972552243828710
Petrel and Skunk,L12 1LY,53.429320000000000,-2.905958000000000
Prion and Ground sloth,L23 0SN,53.486028663582900,-3.010310565837920
Pheasant and B,L37 1NB,53.561773433192600,-3.078651151904980
Marsh harrier and Herring gull,L32 2DP,53.488514140383800,-2.904160000000000
Maya and Masked owl,L21 8LT,53.471339368416900,-2.991309000000000
Towhee and Armadillo,L9 1JJ,53.453363974652400,-2.953348876373410
Recurvebill and Old World warbler,L6 2AY,53.418114359764300,-2.961332661064820
Maya and Argus,L21 7LU,53.471343802290400,-2.997125745651090
Mole and Asiatic leopard,L12 0HE,53.442942645443700,-2.901685946535110
Goose and Old World quail,CH44 2DZ,53.418671000000000,-3.061618000000000
Thicketbird and Wallaby,L5 0BB,53.429260576970800,-2.968401798112280
Booted eagles and Darwin's finches,CH41 3QA,53.395194705904600,-3.025888426347350
Myna and Civet,L12 7JH,53.433089925611500,-2.913639317266470
Night heron and Marmoset,L6 0AS,53.428809377307200,-2.949593429072900
Goose and Skunk,L9 7JN,53.457983107830200,-2.943301372053140
Meadowlark and Treepie,L32 1BD,53.490125957699100,-2.884690599138770
Duck and Zebra,L23 6SR,53.484375848642400,-3.046558000000000
Minke whale and Cuscus,L4 8RY,53.437811039679800,-2.938880245027750
Maya and Grosbeak,L4 4LF,53.435627511656700,-2.969163758348630
New World blackbird and Quetzal,L3 4FT,53.396611864718300,-2.988971130567100
Capuchin and Badger,L4 5UJ,53.444218076247500,-2.961725943413590
Puffleg and Black jay,CH45 6US,53.427570378983300,-3.055413500091520
Asiatic leopard and Diving bird,CH45 5DP,53.424732500170400,-3.042837297613560
Gull and Grosbeak,L32 6RA,53.472227423638600,-2.878864378096190
Scimitar babbler and Flameback,L69 3SE,53.406399000000000,-2.975554000000000
Lemming and Chickadee,CH44 1EE,53.422123609740700,-3.032736240115420
Tahr and Hawk,L13 3DJ,53.418881237106300,-2.914463138557670
Viscacha and Flameback,L33 0YJ,53.481820000000000,-2.878504000000000
Peafowl and Night heron,L72 1LA,53.473053606396800,-2.960690550684020
Thicketbird and Macaw,L33 9UH,53.488745108638300,-2.870765800262240
Argus and Kite,L5 1XG,53.428795153882700,-2.963710500488590
Petrel and Bronzewing pigeon,L30 3TX,53.488085914158400,-2.976945834602200
Herring gull and Old World quail,L8 5XJ,53.393603360393800,-2.978103593361200
Shearwater and Vulture,L6 1JJ,53.414257300475100,-2.958476913515680
Zebra and Grackle,L33 4HF,53.501119849826800,-2.891854521406290
Armadillo and Herring gull,L4 5QX,53.446001112714500,-2.972426312305330
Badger and Armadillo,CH46 1QB,53.414800621468500,-3.085098403540670
Linsang and Civet,L23 4UD,53.500866758047500,-3.007406980715340
Kangaroo and Chipmunk,L13 0BB,53.434895272899400,-2.918509943954750
Perching duck and Recurvebill,L9 0NL,53.472845554326400,-2.942802392163150
Condor and Chickadee,CH44 2EB,53.420040665416100,-3.061155713523460
New World blackbird and Scimitar babbler,L23 6XD,53.483588315197300,-3.040151447259010
Triller and White ibis,L12 0SQ,53.450879687223900,-2.875110657270580
Dolphin and Mink,L32 9PZ,53.474349737116500,-2.886034718943650
Asiatic leopard and Cloud rat,L23 2TL,53.495047000000000,-3.024860000000000
Vole and Ibex,L2 9XX,53.405393519125500,-2.989566000000000
Wallaby and Mouse,L7 3QB,53.401585314852000,-2.960418070831850
Herring gull and Mamo,L6 5AN,53.424606093313100,-2.951410957817040
Thrasher and Crow,CH46 9RG,53.398082000000000,-3.098957493563500
Wallaby and Bronzewing pigeon,L12 7JB,53.431836824784600,-2.910587074835990
Magpie and Eagle,L5 3NW,53.422935435946900,-2.973555075239160
Mamo and Vulture,L2 5RL,53.407671893267800,-2.988911420410150
Elephant and Jay,L37 4AL,53.553309733673800,-3.069574000000000
Kestrel and Wader,L25 2PQ,53.387600060047200,-2.856280101023300
Tattler and Egret,CH46 6DT,53.401417456308700,-3.133310324869300
Guillemot and Old World warbler,CH46 1QP,53.408213011853600,-3.099688310587930
Thicketbird and Nukupuʻu,L9 0JS,53.468968191009600,-2.953397324334700
Minke whale and Maya,L25 4TN,53.389445644243100,-2.874481273647540
Logrunners and Snipe,L8 8BG,53.387725133791900,-2.965894857420390
Parakeet and Civet,CH45 4PP,53.426157959703600,-3.052488959039570
Quetzal and Polecat,L6 4AU,53.423383515128100,-2.942354495913720
Macaw and Ice seal,L40 6JP,53.553049768579300,-2.863376374622360
Flameback and Ibex,L14 0NL,53.417563869493900,-2.878007337972440
Mockingbird and Parrotlet,CH41 6DJ,53.394916738011300,-3.012481909726210
Fox and River dolphin,L11 7BQ,53.450692851158500,-2.931891275015630
Wader and Grouse,L7 0EL,53.409303101030300,-2.945112064675930
Herring gull and Tattler,L36 4PA,53.412411902168600,-2.869596556659630
Parrotlet and Wallaby,CH44 6JA,53.410567757662000,-3.019728844890730
Crow and Ibex,L9 8DP,53.464501964453100,-2.963329278352450
Treepie and Masked owl,L39 5BU,53.552199278522000,-2.891087070347850
Wader and Booted eagles,L11 5AW,53.443580271258700,-2.929012000000000
Vole and Rat,L4 4PY,53.437183887663600,-2.969003487065540
Flameback and Guillemot,L5 3RJ,53.420213341828100,-2.977766368572570
Pheasant and Moluccan boobook,L4 5SZ,53.441486000000000,-2.964073000000000
Grosbeak and Francolin,L5 5AH,53.420696220240000,-2.978786033739820
Booted eagles and Towhee,L37 6AX,53.547520494786600,-3.055982000000000
Peafowl and Old World quail,CH45 5LA,53.430985969783000,-3.045218019666800
Skunk and Ibex,CH45 7QX,53.429578179302700,-3.033458815452290
Flameback and Kākāriki,L23 2XD,53.497128015071600,-3.010529257552500
Chickadee and Parrotlet,CH46 6AQ,53.401824571509800,-3.115858277444640
Mole and Kite,L30 4GB,53.472104672784500,-2.973535353713260
Rabbit and Macaw,CH44 0DE,53.419398995774200,-3.028910000000000
Hawk and Chipmunk,L7 6AH,53.399242681000800,-2.947611310987520
Mole and Triller,CH41 8DG,53.400539531441000,-3.046336545701610
Jay and Old World vulture,L13 9DG,53.434707912641400,-2.935695941261080
Towhee and Stilt,L4 9XD,53.443648168927700,-2.953206557232610
Coati and Tree warbler,L7 7EA,53.400542066788800,-2.970486786045780
Wallaby and Nukupuʻu,L12 0QG,53.452383504788000,-2.875969813003960
Eagle and Petrel,L1 9EN,53.400970005832700,-2.973128652317590
Jerboa and Pratincole,L15 0EZ,53.398018991728400,-2.931928000000000
Thicketbird and Mamo,L8 7NB,53.398987195248200,-2.963803710982910
Masked owl and Hawk,L32 9PG,53.472426650056100,-2.883538913152100
Macaw and Wader,L13 3BR,53.417545418529800,-2.917519002240600
Petrel and Stilt,L30 8RX,53.488780435586200,-2.952153679665510
Partridge and Rat,L10 7LJ,53.468526701273800,-2.920290612248550
Nukupuʻu and Egret,CH41 3PE,53.395428000000000,-3.023165462970300
Gull and Night heron,L11 8NR,53.434448000000000,-2.924145000000000
Quetzal and Fox,L20 4DT,53.454282308978500,-3.001499801058450
Badger and Duck,L9 9BR,53.466378137591000,-2.945641664088200
Buzzard and Jay,L14 0JL,53.413371153797400,-2.869947119450290
Scimitar babbler and Fulmarine petrel,L31 5JY,53.497373494162000,-2.944251084833650
Kite and Dolphin,L7 9LQ,53.410468916097800,-2.929431953146380
Quetzal and Treepie,L10 8JA,53.479351205008900,-2.935080958033990
Recurvebill and Nukupuʻu,L12 0LS,53.439762900890000,-2.879684464935060
Francolin and Rat,L12 5JD,53.434871604225300,-2.915739751569850
Skunk and Partridge,L16 4PL,53.399197038079100,-2.895301073386070
Scimitar babbler and Kestrel,L13 0BA,53.434579160976100,-2.919872904733380
Masked owl and Kite,L4 1QD,53.435672443754500,-2.982366240547800
Zebra and Pratincole,L1 1JA,53.408626960322300,-2.977726219904650
Darwin's finches and Jerboa,CH41 7EJ,53.407274769923200,-3.070632000000000
Nukupuʻu and Fox,L36 9TZ,53.411745453385400,-2.851063321161380
Partridge and Ice seal,L20 0AL,53.460347043092800,-2.977965534524130
Vulture and Siskin,L36 2NR,53.417449695753900,-2.864087055878570
Warbler and Kite,L11 0AU,53.459768573418300,-2.900641803390530
Peafowl and Pratincole,L25 1PL,53.394175673108700,-2.879119799359780
Old World quail and Chipmunk,L12 0JP,53.450822471761800,-2.896160873848540
Skunk and Jackal,L21 1ER,53.466251039605000,-3.016920743841620
Macaw and Grosbeak,L15 7NE,53.404482323691500,-2.900105129409080
Fox and Greenbul,L3 7AX,53.416951936370900,-2.996063157221550
Eagle and New World blackbird,L9 8AS,53.460803490984700,-2.962718365257340
Greenbul and Snipe,L13 5XE,53.413532308726300,-2.911008351063120
Mole and Warbler,L4 5UX,53.442947331378100,-2.966590283744440
Moluccan boobook and Pitohui,L39 6SJ,53.537221165305200,-2.916453718985780
Rabbit and Vole,L9 2BT,53.461186880535700,-2.960874417300500
Bunting and Goose,L11 3AT,53.449845043684900,-2.920669615800100
Marsh harrier and Rat,L21 9LH,53.475887778018300,-3.004087896254160
Nukupuʻu and Marsh harrier,CH45 7NE,53.423396119859000,-3.039403572474530
Guillemot and Mink,CH46 2QB,53.415767076677300,-3.090509515691150
Coati and Shearwater,L21 7QP,53.475834926996500,-2.992123277617910
Pitohui and Darwin's finches,L6 2AZ,53.417197416719200,-2.961342067077330
Treepie and Towhee,L11 1EL,53.437952662929500,-2.913668388473020
Kestrel and Fish eagle,L23 6YU,53.475609000000000,-3.027267000000000
Thicketbird and Logrunners,L1 4DS,53.403982726556000,-2.980643104889050
Fish eagle and Cuscus,CH49 6JE,53.387412500464000,-3.089874739224330
Maya and B,L36 2PA,53.417759839157300,-2.865823000000000
Bronzewing pigeon and Macaw,L9 2DB,53.462596475473800,-2.958842696316500
Buzzard and Scimitar babbler,CH41 4JQ,53.399082030631400,-3.036342000000000
Logrunners and Grouse,L5 1AD,53.428329609194400,-2.963083288022670
Chickadee and Gull,L1 4JX,53.400635456047500,-2.977541000000000
Grackle and Peafowl,L31 2HH,53.520695272455100,-2.947032230873510
Grosbeak and Flameback,L1 5HY,53.400831726629300,-2.984511289582770
Partridge and Pratincole,L32 6QR,53.473109688485100,-2.876230978547310
Minke whale and Kangaroo,L13 3HS,53.415250000000000,-2.928498000000000
Peafowl and Marmoset,L9 0LN,53.471613911732600,-2.956394442365560
Armadillo and Philippine hawk-owl,CH45 8RH,53.418964507510000,-3.074942239829470
River dolphin and Argus,CH44 8DJ,53.415450575545200,-3.024765691259650
Parakeet and Elephant,L20 9BP,53.455307763561600,-2.980831578553400
Dorcopsis and Goose,L8 1XF,53.393858000000000,-2.970091601236880
Mockingbird and Moluccan boobook,L37 4BJ,53.554233324850100,-3.058247000000000
Thicketbird and Night heron,L20 4NN,53.459558338767600,-3.000479321525810
Kite and Eagle,L11 1DP,53.448237183278000,-2.914672127335110
Night heron and Badger,L1 6DG,53.408632451200000,-2.983623371394350
Ice seal and B,L3 5NY,53.409073298972400,-2.970818000000000
Mockingbird and Parrotlet,L5 3LU,53.418159000000000,-2.976275000000000
Mink and Night heron,L33 2DA,53.491893356055900,-2.891193612677350
Asiatic leopard and Tahr,L8 2UX,53.392902993659900,-2.955816450242530
Booted eagles and Rabbit,L69 3TB,53.406399000000000,-2.975554000000000
Boto and Egret,L1 5DW,53.399030802197500,-2.977235445439130
River dolphin and Grosbeak,L13 3BT,53.414817415592400,-2.916918626493400
Bronzewing pigeon and Mink,L20 4PS,53.461224000000000,-3.002431000000000
Pheasant and Parakeet,CH46 0RW,53.397681213932100,-3.120592653301290
Coati and Tree warbler,L3 2EZ,53.410372000000000,-2.987364000000000
Thicketbird and Nukupuʻu,L21 9LR,53.478064052487900,-2.998609331038560
White ibis and Pitohui,CH45 8LN,53.420740711058300,-3.076341357944860
Bronzewing pigeon and Maya,L11 3AS,53.450951342384900,-2.921747629911930
Viscacha and Crow,L5 0RS,53.430417000000000,-2.973360104062190
Snipe and Snipe,L8 8EQ,53.392278343657200,-2.968629558924480
Perching duck and B,L6 0DL,53.429659441620600,-2.938715594610880
Viscacha and Argus,L5 7RZ,53.425673195989800,-2.986937000000000
Nukupuʻu and Egret,L9 0HY,53.468672860286000,-2.955484686699860
Vulture and Ice seal,L2 0NZ,53.406219597528500,-2.991796000000000
Black jay and Tit-tyrant,L20 8AL,53.444881416226900,-2.995948696726350
Armadillo and Wallaby,L2 1TS,53.404890235473400,-2.989403450926070
Parakeet and Mouse,L15 4JL,53.398110019599700,-2.928169930321150
Parrotlet and Philippine hawk-owl,L16 8PD,53.393237239988400,-2.897717361181210
Ground sloth and Thicketbird,CH46 8UJ,53.406912081650000,-3.101369650293510
Partridge and Treepie,L6 1RD,53.412936216511200,-2.959560526387280
Fox and Coati,L11 0DG,53.458489887455600,-2.897361570298580
Magpie and Bronzewing pigeon,L3 2DE,53.413611000000000,-2.986145000000000
Myna and Fulmarine petrel,L1 4BU,53.402801000000000,-2.979127000000000
Thrasher and Triller,L12 2AG,53.425926108822900,-2.902966095075390
Armadillo and Wader,L12 6RE,53.435111000000000,-2.881711000000000
Dolphin and Masked owl,L4 2RD,53.425107306872300,-2.953935370550480
Eagle and Cuscus,CH45 5LF,53.430008804070200,-3.042861124167580
Fox and Tit-tyrant,CH44 3AF,53.416017989478400,-3.051516284716350
Egret and Boto,CH45 7SH,53.424904941853900,-3.038522381995950
Warbler and River dolphin,L15 3HE,53.391971937588700,-2.930307007566830
Kite and Mouse,L15 5BY,53.391168575138900,-2.915628214050710
Macaw and Bronzewing pigeon,L39 5AU,53.556151764183200,-2.904590146129190
Zebra and Marmoset,L30 2QR,53.487538495471600,-2.987769548324350
White ibis and Old World vulture,L39 4QW,53.562544555712700,-2.879393000000000
Duck and Argus,L37 3PH,53.555598521968600,-3.069602703092400
Chickadee and Eagle,L32 6RN,53.471274988250000,-2.872682926061610
Night heron and Towhee,L13 7HF,53.424165047067000,-2.929805986340150
Minke whale and American sparrow,L32 8TS,53.476800152291000,-2.875538593901480
Greenbul and Rabbit,L36 4PF,53.414970603776300,-2.856348524453510
Capuchin and Recurvebill,CH45 8LU,53.423123380765200,-3.074279691457100
Piping shrike and Black jay,L1 6HB,53.407581000000000,-2.986999000000000
Grosbeak and Magpie,L5 6RD,53.427347440847200,-2.965604534715780
Cuscus and Mamo,CH45 0JT,53.435772233697100,-3.057001660326950
Quetzal and Jerboa,L4 9TF,53.442456160690400,-2.943710059227510
Diving bird and Ice seal,L36 3US,53.422176766982300,-2.851723131694130
Wallaby and Fish eagle,L33 0YE,53.483306868357500,-2.879364687782400
Jay and Mink,L39 7HX,53.554419203638800,-2.972994130279120
Cuscus and Argus,L31 2LR,53.523930782868500,-2.948220651987190
Buzzard and Fish eagle,L15 4AA,53.401517000000000,-2.931779000000000
Marsh harrier and Skunk,L31 2HF,53.515364785908300,-2.945917973017910
Thrasher and Towhee,L39 5EA,53.553842765669900,-2.906820196820930
Logrunners and Partridge,CH44 5UJ,53.417467078956200,-3.044134049650140
Tit-tyrant and Capuchin,L7 3RD,53.400143131547000,-2.953060907117050
Jay and Mole,L14 7BF,53.408857000000000,-2.888388000000000
Polecat and Parrotlet,L23 1UP,53.499187452506100,-2.999830000000000
Warbler and Pitohui,L37 3PT,53.556830787158200,-3.069513024141400
Snipe and Kestrel,L13 9AP,53.430892763761100,-2.926972714367170
Black jay and B,L21 1EF,53.469310873724800,-3.017551307179380
Mouse and Old World vulture,L33 6UT,53.488033761223300,-2.872167935793390
Flameback and Triller,L5 9SG,53.427727631099000,-2.994147896276630
Elephant and Treepie,L20 5EH,53.461005578008500,-2.991852726933830
Maya and Argus,L5 3SL,53.417694682443900,-2.974684201252100
Booted eagles and Meadowlark,L15 7NS,53.403713302990600,-2.901954050826530
Jerboa and Polecat,L1 3DN,53.403019026405900,-2.984999000000000
Ibex and Coati,L38 3RL,53.525293278213600,-3.053859575060740
Ground sloth and Moluccan boobook,L6 1EX,53.412922780878300,-2.966796832382230
Solitaire and Civet,L31 4EL,53.524267021940000,-2.951154525326670
Crow and Tattler,L40 6HH,53.557882251505900,-2.858855359548930
Mink and Prion,L39 6SD,53.538542887438000,-2.918745678099880
Guillemot and Towhee,L11 3EL,53.448921423623000,-2.918044673526060
Eagle and Eagle,L30 2SE,53.485902692481800,-2.983391151614650
Cuscus and Jay,L37 5AD,53.539042173643900,-3.030600785036910
Fish eagle and Maya,L30 2PZ,53.485365131025900,-2.990793440146900
Jerboa and Fox,L21 8LF,53.465283862510200,-2.997300017871090
Shearwater and Parrotbill,CH46 0SZ,53.396816780009600,-3.113065250179870
Marmoset and Bronzewing pigeon,L2 8UD,53.406868392266200,-2.993661355101450
Crow and Zebra,L31 1DE,53.487037005592300,-2.915295914002180
Piping shrike and Maya,L30 1SG,53.477503115417600,-2.965145669027130
Petrel and Kākāriki,L7 6HG,53.401391181484600,-2.941913464378370
Songlark and B,L12 0SF,53.445257747569900,-2.903406232061570
Siskin and Old World quail,CH46 9RB,53.397453355277000,-3.098688910117800
Thrasher and Snipe,L11 4SR,53.453950122724700,-2.903379928034160
Moluccan boobook and Logrunners,L32 7QJ,53.467254983693700,-2.875417414227270
Parakeet and Buzzard,L23 0SS,53.483269689957800,-3.027108186920780
Scimitar babbler and Rabbit,L12 0LL,53.448545935635100,-2.878330129501520
Gull and Myna,L20 8PY,53.436340000000000,-2.994133994208010
Linsang and Recurvebill,L10 7NH,53.467419000000000,-2.917100261392480
Buzzard and Fulmarine petrel,L2 0RR,53.406120099890000,-2.992846656713270
Puffleg and Bunting,CH44 8BH,53.423130705754700,-3.028531991886080
Dolphin and Fox,L37 2EL,53.548347260531100,-3.078309621048380
Hawaiian honeycreeper and Philippine hawk-owl,L30 2QU,53.486748401764800,-2.984390337993370
Kite and Mole,CH44 9DF,53.412086222983600,-3.032357599618220
Pheasant and Kite,L4 9US,53.444638688088300,-2.952987839257990
Rabbit and Elephant,L21 7PB,53.468977781565000,-2.999510769531100
Peafowl and Prion,L18 1JB,53.389449679449600,-2.925214734079720
Wallaby and Partridge,L37 6ES,53.549272435173700,-3.068371503038830
Nukupuʻu and Snipe,L32 6RB,53.472545416808800,-2.878403907140140
Greenbul and Flameback,L3 5DA,53.407477000000000,-2.968902321745440
Meadowlark and Prion,L37 3RL,53.556743173938500,-3.067246406159140
Grackle and Jackal,L9 1DZ,53.447114133324200,-2.971518205042060
Thicketbird and Ground sloth,CH44 6PQ,53.414320885590200,-3.021278061752650
Mouse and Night heron,L6 1NH,53.414195000000000,-2.962944000000000
Black cockatoo and Warbler,L36 4HH,53.409305496368600,-2.867848302677820
Jackal and Old World quail,L16 7PN,53.395879004173800,-2.889441463255720
Pitohui and Siskin,L21 8JG,53.463497248788400,-2.995962726832480
Solitaire and Gull,L39 5QF,53.550617000000000,-2.900880000000000
Partridge and Tit-tyrant,L6 8NH,53.417102855673000,-2.939747987627900
Perching duck and Herring gull,CH46 3SD,53.414779992438100,-3.106929277194820
Recurvebill and Dolphin,L3 5QD,53.408873000000000,-2.975189000000000
Viscacha and Cloud rat,L21 7RF,53.474468278621100,-2.991081920244950
Night heron and Partridge,CH41 6HB,53.393006000000000,-3.018563400375000
Triller and Songlark,L15 4JU,53.399210688017000,-2.927652448010860
Egret and Treepie,L12 0JG,53.449707668444900,-2.888969870649100
Piping shrike and Old World warbler,L15 4LD,53.401798000000000,-2.933725000000000
Civet and Greenbul,L23 5SX,53.487441805285700,-3.029047715317780
Piping shrike and Dolphin,L14 9PU,53.422603118895000,-2.866177942907780
Kangaroo and Boto,L14 0JA,53.413120501173700,-2.874726275812840
Moluccan boobook and Shearwater,CH44 7HY,53.406074556105800,-3.021682192985500
Recurvebill and Argus,L14 6TY,53.411662204633500,-2.871326406449100
Siskin and Parakeet,L6 2PG,53.421184039195700,-2.962289360447040
Pitohui and Hawk,L18 1LS,53.388285500840300,-2.910619425904780
Scimitar babbler and Linsang,CH49 4PA,53.391899000000000,-3.100636000000000
Mole and Boto,CH41 3QT,53.398217000000000,-3.027149000000000
Crow and Herring gull,L5 8XY,53.421536377591100,-2.988480805296910
Fulmarine petrel and Skunk,CH41 2TJ,53.386862230641900,-3.029341336778030
Maya and Goose,L25 2YH,53.395927000000000,-2.862267000000000
Capuchin and Cloud rat,CH44 6PP,53.412745071368200,-3.020548232470570
Chickadee and Grouse,L32 0TF,53.483215739845300,-2.901244002576020
Grouse and Snipe,L11 2SE,53.449872764045600,-2.913547817941140
Perching duck and Fish eagle,L15 9EE,53.393627000000000,-2.916297000000000
Elephant and Masked owl,L4 6UY,53.441325275648800,-2.952552349974750
Night heron and River dolphin,L1 6BU,53.407968000000000,-2.986933000000000
Fulmarine petrel and Mole,L23 2UD,53.497496408907400,-3.026366690515420
Snipe and Jay,L14 7PN,53.418178778246400,-2.883602326645670
Myna and Parrotbill,CH43 1YJ,53.390662375326300,-3.047161868769410
Black cockatoo and Masked owl,L12 0LP,53.450880774794900,-2.882293457037080
Perching duck and Parrotbill,L16 7PZ,53.397918196745700,-2.887197988011020
Jay and Songlark,L7 6HE,53.398535363951400,-2.940436635715270
Gull and Pitohui,L39 3LR,53.557701533011400,-2.907657547000930
Civet and Recurvebill,CH45 3HT,53.428322514684200,-3.066870511917310
Civet and Nukupuʻu,L15 9HW,53.391320780460900,-2.913360857691670
Vulture and Darwin's finches,L20 3JB,53.454416020978000,-2.988687203310050
Stint and Myna,L22 2AU,53.483535523919700,-3.031726026727630
Towhee and Snipe,L13 3DT,53.418650989913600,-2.911659476589940
Perching duck and Black cockatoo,L21 1EH,53.465369908216800,-3.015890421558050
Lemming and Kestrel,L23 2SX,53.497606840742800,-3.015545531858070
Logrunners and Buzzard,CH43 9XE,53.390735000000000,-3.084330898631380
Linsang and Hawk,L39 4YJ,53.561194100631300,-2.896273395969230
Kite and Petrel,CH44 2AT,53.419909631889900,-3.051582230258600
American sparrow and Parakeet,L37 1NU,53.562090935047300,-3.081316474926530
River dolphin and Perching duck,L4 1XB,53.438944766139600,-2.977940552239210
White ibis and Herring gull,CH43 7PW,53.389848275281500,-3.071035537770700
Ibex and Triller,CH45 5BS,53.432809962791600,-3.046002000000000
Duck and Grosbeak,CH41 8EG,53.400095000000000,-3.035542000000000
Snipe and Rat,L12 4YB,53.435104504024200,-2.890998000000000
Armadillo and Black jay,L20 7BW,53.442834723383800,-2.991293821684290
Condor and Songlark,L3 9TY,53.408831452848900,-2.994323901789840
Pitohui and Scimitar babbler,L12 8SL,53.428444378357700,-2.900400723381370
Badger and Pratincole,L38 3RJ,53.525354243877100,-3.053061591005060
Badger and Mouse,L20 8AF,53.435704000000000,-2.993671000000000
Thrasher and Piping shrike,L12 0PH,53.452776579294900,-2.881188284942690
Night heron and Siskin,CH44 2BR,53.421747803040400,-3.058203647406070
Rat and Black cockatoo,L3 5QB,53.408481802166900,-2.975571000000000
Kangaroo and Gull,L33 4BD,53.497391944056700,-2.895137928554910
Ice seal and Gull,CH44 8AT,53.418800000000000,-3.027344000000000
Tit-tyrant and Linsang,L22 2AY,53.482334502367600,-3.035479339218080
Logrunners and Viscacha,L30 8RU,53.489255131361000,-2.954621037054180
Lemming and Thicketbird,L20 9DR,53.456027793874500,-2.977429515181540
Parrotlet and Kangaroo,L11 6ND,53.457185127959700,-2.895150282034010
Stint and Civet,L37 4BA,53.552554441046100,-3.069254209520730
Chickadee and Gull,L31 1EE,53.495562685097400,-2.919413905671880
Grosbeak and Goose,L36 2LB,53.419653607096700,-2.855118493590820
Vole and Parakeet,L20 6GJ,53.467337252026500,-2.969133327202830
Dorcopsis and B,CH49 4PF,53.393584932108800,-3.100980338621280
Minke whale and Badger,L1 9DB,53.401675000000000,-2.969460000000000
Parrotlet and Jackal,L4 1AF,53.431150013161000,-2.981013047455230
Triller and Linsang,L30 5SB,53.490338242471800,-2.968587253975400
Pheasant and Diving bird,L8 0RJ,53.395970605257600,-2.945357955862520
Thicketbird and Stint,L32 8RG,53.481974819599200,-2.885681285991690
Tree warbler and Triller,L69 3TR,53.406399000000000,-2.975554000000000
Meadowlark and Perching duck,CH44 5SN,53.411759730859300,-3.051230686693690
Dolphin and Snipe,L6 1HW,53.416991000000000,-2.970575000000000
Asiatic leopard and Quetzal,CH45 2NE,53.438104779101400,-3.049367000680160
Chicken and Wallaby,L11 1ER,53.440422302654900,-2.908075921840010
Flameback and Piping shrike,CH46 3RN,53.415237364342300,-3.102186642213720
Mamo and Dolphin,L12 0SD,53.445401390162200,-2.905803236479610
Siskin and Ibex,L1 5DA,53.400104315607800,-2.979936000000000
Francolin and Jackal,L9 2BA,53.452430000000000,-2.960074000000000
Stint and Night heron,CH45 3JQ,53.429305406606300,-3.060468420887760
Quetzal and Grosbeak,L32 7RD,53.465962561254800,-2.884910992451930
Thicketbird and Stilt,L23 1XF,53.496123083833500,-2.998551342617020
Thrasher and Piping shrike,CH45 2PD,53.438429000000000,-3.053317000000000
Skunk and Recurvebill,L23 1UF,53.496274749067400,-2.996534928990750
Hawaiian honeycreeper and Dolphin,CH41 4PE,53.392687445826700,-3.021978025653480
Rat and Eagle,L5 6AB,53.426998769123800,-2.963143497213430
Capuchin and Solitaire,CH45 2LY,53.437425635409400,-3.043780397929530
Kangaroo and Dorcopsis,L22 8QE,53.477378149643200,-3.032766964042660
Mink and Stilt,L14 9AA,53.422207639288000,-2.866952771870860
Diving bird and Piping shrike,L34 9EN,53.462446000000000,-2.870604000000000
American sparrow and Mole,L1 8DL,53.399484936826800,-2.985412685695810
Prion and Parakeet,L3 3EH,53.412014996651100,-2.974524215499380
Viscacha and Skunk,L5 8SU,53.422510663989300,-2.985884999451890
Ice seal and Fish eagle,L25 4SH,53.393628181426900,-2.872882776572170
Warbler and Ground sloth,L20 3NY,53.452080346258200,-2.984160478787170
Triller and Tree warbler,L75 1AY,53.473404867939100,-2.968397372010820
Magpie and Siskin,L23 2TB,53.493575000000000,-3.027874578919950
Capuchin and Cloud rat,CH41 1EB,53.408386000000000,-3.057827000000000
Siskin and Recurvebill,L10 3JJ,53.487527381183300,-2.948086499466940
Quetzal and Stilt,L13 0AP,53.421467000000000,-2.909162000000000
Tit-tyrant and Warbler,L7 7ET,53.397776000000000,-2.961430000000000
Thrasher and Flameback,CH44 1AA,53.420827396740100,-3.043283433729380
Rat and Dolphin,CH43 9XY,53.393906441855800,-3.083065000000000
Jerboa and Cuscus,L39 7HE,53.561983401435000,-2.922499701991350
Civet and Greenbul,L7 2PS,53.408685335947000,-2.947069053235650
Minke whale and Partridge,L37 3JA,53.556232588695300,-3.069060152915240
Boto and Skunk,L11 0EL,53.461519000000000,-2.903510000000000
River dolphin and Shearwater,CH41 3RG,53.394027770799700,-3.028145786760370
Eagle and Thicketbird,L31 1LH,53.519040264758000,-2.916031022705750
Old World vulture and Mink,L14 2DA,53.419134408346800,-2.891687349492470
Black jay and Vole,L25 2NH,53.393235848497100,-2.860062487581850
Viscacha and Greenbul,L23 2TP,53.495615615566700,-3.025567544340540
Darwin's finches and Pheasant,L15 4JF,53.403052906570300,-2.922306000000000
Grackle and Ground sloth,L13 7EQ,53.421861476213700,-2.930116864282660
Capuchin and Kangaroo,L5 2SA,53.423935617035400,-2.983133940563910
Wader and Kestrel,L36 3RT,53.421714604970100,-2.853504591713590
Badger and Kākāriki,CH45 5DB,53.432361031327100,-3.049240000000000
Chicken and Flameback,L20 9HP,53.449076892710800,-2.977736669379070
Meadowlark and Flameback,CH45 5HN,53.427740909404400,-3.050345782249300
Maya and Tree warbler,L20 7SD,53.445782553033600,-2.994223609186770
Thicketbird and Siskin,L32 5TG,53.477631703218800,-2.895535504479870
Mamo and Triller,L21 0DZ,53.478081000000000,-2.993426000000000
Tit-tyrant and Linsang,L4 5RP,53.446782875774700,-2.972459228948990
Bunting and American sparrow,L14 4AW,53.427045522226400,-2.874545665703200
Black jay and Cloud rat,L14 6TL,53.410310420046500,-2.877933128636310
Maya and Parrotlet,L6 9HR,53.416275351805100,-2.952293220041720
Old World quail and Dolphin,CH45 4RU,53.420644579021600,-3.051826086303740
Buzzard and Old World quail,L16 1JU,53.401409193171200,-2.885540941902760
Cloud rat and Warbler,L10 2JZ,53.482920348027300,-2.943010756589080
Nukupuʻu and Grackle,CH44 3BT,53.419089978843800,-3.050749451214810
Parakeet and American sparrow,L39 5AX,53.555394831701100,-2.902460646336340
Kākāriki and Black cockatoo,L36 4PP,53.414916513557800,-2.866337652726940
Bronzewing pigeon and Mole,CH41 0DH,53.394682234625800,-3.059186188738950
Capuchin and Tit-tyrant,L14 7PJ,53.418590892010000,-2.882572641810050
Chipmunk and Pitohui,CH45 2NR,53.438556191498100,-3.045042547832030
Condor and Bunting,L7 0ER,53.408880000000000,-2.944170000000000
Black jay and Prion,L2 5QA,53.406771000000000,-2.988244000000000
Solitaire and Buzzard,L12 6QQ,53.434489546410200,-2.884136415621140
Vulture and Parrotlet,CH46 2PQ,53.415460844943100,-3.088605884147000
Dorcopsis and Warbler,L31 2HZ,53.524029170919000,-2.949414505966410
Old World warbler and Kangaroo,L21 8LR,53.471792469845300,-2.990357055316690
Minke whale and Viscacha,CH45 8JL,53.424293249224400,-3.073135363630490
Zebra and Zebra,L16 7QT,53.397349637940000,-2.887501984713210
Bunting and Grackle,L36 4PG,53.413686276729800,-2.857451096267330
Vole and Cloud rat,L3 2AF,53.410837200956400,-2.987300298658980
Lemming and Hawaiian honeycreeper,L20 4LJ,53.456387941146100,-3.001233093266570
White ibis and White ibis,L10 8LR,53.477408816397300,-2.925952422837060
Ibex and Dorcopsis,L31 0AT,53.519543719782700,-2.943748687906820
Minke whale and Jay,CH43 9XU,53.393381741377000,-3.084884211651670
Ground sloth and Towhee,L34 0EW,53.450009607706900,-2.851225983380580
Mouse and Buzzard,L2 2JD,53.409023525967500,-2.986340239793660
Peafowl and Diving bird,L21 5HH,53.472050335802900,-2.986731796927710
Grackle and Minke whale,L16 7QE,53.395646430353000,-2.885661889436830
Magpie and Solitaire,L4 4PW,53.436426347434400,-2.973728017413790
Fox and Ice seal,L11 7BH,53.447258687967300,-2.938832658255280
Linsang and Fish eagle,L12 4YQ,53.433730327283400,-2.890743612058600
Scimitar babbler and Tattler,L6 1NJ,53.413972867588600,-2.963661142126630
Polecat and River dolphin,CH44 9BT,53.414411260556900,-3.035829260623520
Parrotlet and Fulmarine petrel,L21 7LE,53.470513217760900,-2.997558231450630
Mole and Philippine hawk-owl,L69 3WQ,53.406399000000000,-2.975554000000000
Night heron and Jay,L14 5NU,53.408432603796900,-2.892366051704080
Booted eagles and Night heron,CH41 5HY,53.390507798056600,-3.013128000000000
Masked owl and Nukupuʻu,L33 9XL,53.491879327569400,-2.873618481349730
Triller and Armadillo,CH45 8PH,53.422057453444400,-3.073861557572070
Mole and Maya,L12 4YF,53.435653710669700,-2.888360334570580
Egret and Polecat,L31 7DE,53.513677406405600,-2.947871017947470
Parrotbill and Maya,L31 3DQ,53.503889783059000,-2.927102520297410
Old World warbler and Cloud rat,CH41 4AW,53.392287705674100,-3.026660217464820
Thrasher and Lemming,CH41 6AH,53.391525680249300,-3.021183278075940
Ground sloth and Chipmunk,L30 0QF,53.490008346255900,-2.980381275593890
Francolin and Recurvebill,L15 1HU,53.400040505048100,-2.933054942840200
Black cockatoo and Flameback,CH45 4RT,53.421532857495700,-3.050990275369420
Tattler and Fox,L15 8LR,53.401926169745800,-2.914731154641890
Rabbit and Petrel,L9 6DA,53.455095108706500,-2.922921692318560
Warbler and Perching duck,L20 6HZ,53.467617000000000,-2.972860000000000
Capuchin and Ibex,L33 1BA,53.495142000000000,-2.883226000000000
Parrotlet and Mouse,L8 7SU,53.400114818985300,-2.961076806080160
Badger and Petrel,L12 8QQ,53.428939823564300,-2.905016651619860
Macaw and Philippine hawk-owl,L23 9AE,53.486558060126900,-3.015357270991200
Guillemot and Towhee,L32 0TS,53.481837837315500,-2.902662000000000
Scimitar babbler and Marmoset,L28 6YD,53.431319681518800,-2.859070383179750
Armadillo and Logrunners,L23 7TJ,53.488812436450400,-3.033753179376760
Moluccan boobook and Quetzal,CH45 2JN,53.438825328255600,-3.043046947448400
Wallaby and Towhee,CH46 7UA,53.406697628563100,-3.118633391536990
Tahr and Greenbul,L2 5RQ,53.406884382211500,-2.988486994572650
New World blackbird and Marmoset,CH45 5AR,53.432972417211700,-3.043174529107630
New World blackbird and Ice seal,L1 4BB,53.401185276936500,-2.976380000000000
Armadillo and Tahr,L14 0JU,53.412312288345400,-2.874619419854940
River dolphin and Quetzal,L20 5EY,53.459956343936200,-2.990472723131160
Scimitar babbler and Puffleg,L14 7QF,53.413904847076900,-2.886597969088050
Meadowlark and White ibis,L3 8AB,53.411885490997400,-2.974972591450510
Meadowlark and Eagle,L20 0AF,53.461485575356400,-2.978338135510140
Masked owl and River dolphin,L33 1AD,53.499299210376900,-2.893715800733740
Old World vulture and Buzzard,CH44 1DY,53.422509007882700,-3.034942649188020
Puffleg and Capuchin,L23 6TY,53.485323306529200,-3.042198298859040
Parrotbill and Jay,L31 8BX,53.506513000000000,-2.959306000000000
Solitaire and Piping shrike,CH41 0BG,53.398380400328200,-3.051652810302890
Marmoset and Asiatic leopard,L11 2UJ,53.443209186703700,-2.908029979265590
Moluccan boobook and Petrel,L23 9UA,53.491489569873300,-3.008691948433440
Mouse and Black jay,L11 8NW,53.435561262303800,-2.924229346269280
Skunk and Polecat,L15 1HQ,53.400999056569900,-2.935768201558960
Warbler and Mouse,L11 2XY,53.444573428297000,-2.920043691523400
Flameback and Warbler,L10 4YB,53.465902401358500,-2.907309270191130
Tattler and Egret,L33 7XE,53.483826000000000,-2.863881170071580
Duck and Booted eagles,L13 1DS,53.407398627972300,-2.918473928591620
Tree warbler and Pratincole,L32 2BJ,53.490611377719400,-2.900330701938100
Perching duck and Ice seal,L15 3JN,53.392679000000000,-2.934232000000000
Quetzal and Greenbul,L37 1PW,53.559432723804300,-3.083030115732330
Diving bird and Cuscus,CH41 1JW,53.406037000000000,-3.036652775153600
Tahr and Minke whale,L9 7LQ,53.468610147669200,-2.935010500481810
New World blackbird and Chickadee,L8 1TX,53.395442798440900,-2.965257557284500
Grackle and Asiatic leopard,L11 7AE,53.448597968366300,-2.934254605950060
Mink and Tit-tyrant,L32 2AA,53.481325719031000,-2.885939004843730
Greenbul and Partridge,L10 8LT,53.477747223071800,-2.929832218606460
Pratincole and Chicken,CH43 4UN,53.389933539345900,-3.037055000000000
Rabbit and Condor,L33 2DQ,53.493487653064800,-2.894362304892050
Argus and Meadowlark,L15 1HF,53.400955652134400,-2.935571720261350
Fulmarine petrel and Darwin's finches,L12 0BD,53.450941778741200,-2.886194811497860
B and Chipmunk,CH46 6AF,53.400151056078000,-3.114942000000000
Fulmarine petrel and Francolin,L14 9AE,53.424102000000000,-2.862973000000000
Wallaby and Meadowlark,L9 1EH,53.447811704611700,-2.971955730461690
Ground sloth and Buzzard,L37 2JR,53.553527022338700,-3.078063976506350
Solitaire and Tit-tyrant,L31 4HB,53.527929497088100,-2.959275000000000
Moluccan boobook and Bronzewing pigeon,L37 9BB,53.549047000000000,-2.989187000000000
Black cockatoo and Jerboa,L15 1HL,53.401469308638600,-2.934259397026380
Kākāriki and Dorcopsis,L14 3LJ,53.409518919193600,-2.894946213359860
Old World quail and Peafowl,L34 0EE,53.448727736230900,-2.849468740310300
Lemming and Tree warbler,L25 1NY,53.396193576854900,-2.867461124380110
Marsh harrier and Prion,L13 5UH,53.413044183579700,-2.904272847172350
Tree warbler and Condor,CH41 6LW,53.393808424104200,-3.018079902873680
Ice seal and Thicketbird,L4 6TN,53.444629407877500,-2.960877037329680
Snipe and Vulture,L33 9TX,53.489742939486600,-2.869520198447450
Kangaroo and Parrotlet,CH41 2ZB,53.387025309896700,-3.025014940005670
Zebra and Piping shrike,L4 0RY,53.431905542242200,-2.967016983184020
Kite and Marsh harrier,L23 5TA,53.487453428503400,-3.026651648021030
Ground sloth and Cloud rat,L12 8SP,53.428945857107700,-2.900652132599070
Boto and Towhee,L4 0TD,53.432766243921600,-2.967292409845040
Moluccan boobook and White ibis,L30 1BB,53.475300176124500,-2.961886398194330
Myna and Cuscus,CH41 5BP,53.392928052626500,-3.017144000000000
Skunk and Chipmunk,L7 0HD,53.410680358570900,-2.943728458324900
Mouse and Philippine hawk-owl,L69 7ZE,53.402092178170400,-2.963332421199800
Mink and Warbler,L13 8BQ,53.422669114092200,-2.933746095104330
Francolin and Perching duck,L30 6UU,53.482695230017200,-2.966441000000000
Mouse and Badger,CH43 7XR,53.389535969967600,-3.071779536952400
Guillemot and Siskin,CH45 1NF,53.432186864063600,-3.036351860414140
B and Cuscus,L32 4UD,53.478422416496400,-2.903929973040790
Parrotbill and Quetzal,L36 4AR,53.408050000000000,-2.851079000000000
Night heron and Darwin's finches,L33 1UU,53.495559624072800,-2.890139954370730
Cloud rat and Scimitar babbler,L17 1AN,53.388293784668500,-2.929369724029210
Goose and Argus,L6 0DW,53.429947618532000,-2.939790560378420
Maya and Ground sloth,L23 3AT,53.486611934718700,-3.033548947795530
Viscacha and New World blackbird,L5 3SG,53.424622913959900,-2.972750891888660
B and Parrotbill,L31 6DN,53.514019129859600,-2.935301352551790
Fox and Maya,L20 5DN,53.460147614301700,-2.994498637815500
Piping shrike and Pheasant,L6 1PJ,53.411745984577700,-2.958901859579180
Macaw and Jackal,L16 1JN,53.404557651742200,-2.890058738263370
Masked owl and Meadowlark,CH45 4QQ,53.427431062473900,-3.052866569618100
Crow and Viscacha,CH46 0SL,53.400250190979200,-3.114072357847390
Marmoset and Greenbul,L69 7ZD,53.405066000000000,-2.962497000000000
Capuchin and Kākāriki,L3 5RD,53.405091822179200,-2.970319600319970
Parrotlet and Argus,L12 5HQ,53.431411856449900,-2.907372043325340
Cuscus and Hawaiian honeycreeper,L14 2EJ,53.421797254689700,-2.870690989323640
Kangaroo and Rabbit,L4 1RG,53.434571053942400,-2.982942936452490
Ibex and Condor,CH44 2BZ,53.421276886181900,-3.065670809984470
Pheasant and Rabbit,CH45 8PE,53.421616763923000,-3.066868113793780
Hawk and Ibex,L4 9SU,53.443706404564800,-2.944746512003030
Dorcopsis and Chickadee,L31 3WD,53.513016000000000,-2.944131000000000
Egret and Grosbeak,L30 7QN,53.491076328662200,-2.958430088794220
Guillemot and Old World warbler,L5 6PH,53.424344636180200,-2.956010095687350
Mockingbird and Kite,L32 7QX,53.466511864550200,-2.877465855093280
Partridge and Scimitar babbler,L20 6LZ,53.467171850893900,-2.987522465635520
Boto and Maya,CH44 5UH,53.418287088229700,-3.042875154940550
Prion and Egret,L16 3GF,53.401533782807600,-2.880850797534400
Eagle and New World blackbird,L14 7AH,53.409123830213300,-2.884798975464320
Asiatic leopard and Scimitar babbler,L20 3BZ,53.449255000000000,-2.986772081563930
Kākāriki and Elephant,L32 7QQ,53.467215235498600,-2.880824577165740
Nukupuʻu and Mamo,L23 6SP,53.483647000000000,-3.046003111371120
Jackal and Petrel,L6 4EU,53.423437000000000,-2.948194000000000
Badger and Bronzewing pigeon,CH46 3RG,53.415528170375000,-3.100870112820740
Chicken and Gull,L13 7HZ,53.425389501293000,-2.921435214950720
Warbler and Mole,L37 4DU,53.556589807598700,-3.061249436957900
Lemming and Egret,L32 4US,53.479395999201300,-2.899987695187300
Recurvebill and Guillemot,L39 3LN,53.558858814022500,-2.905583900409990
Dorcopsis and Elephant,L14 2DW,53.421553612727500,-2.877142000000000
Crow and Logrunners,L36 2LG,53.416776255656400,-2.853992473217980
Coati and Goose,L21 8PE,53.469652686049300,-2.988619554790420
River dolphin and Magpie,L4 4QA,53.432527333063300,-2.976378694269130
Kākāriki and Chickadee,L7 3HD,53.403762468463000,-2.954585818387150
Treepie and Dolphin,CH44 5SD,53.412732593701200,-3.049975860541960
Pheasant and Marsh harrier,CH45 7NJ,53.425868603527900,-3.039343504165110
Kangaroo and Kangaroo,L31 1DZ,53.491040384538400,-2.912503290674550
Egret and Night heron,L15 4LF,53.400237352426800,-2.927404057433320
Fulmarine petrel and Vole,L14 3LA,53.408723919244900,-2.896674550954730
Fish eagle and Vulture,L37 4HR,53.554423546694600,-3.066297397136800
Black cockatoo and Old World quail,CH41 1AY,53.396580705027100,-3.019755285431830
Rat and Hawk,L32 6SJ,53.473283713462500,-2.870871012249730
Mole and Quetzal,L11 5BD,53.447188061074600,-2.927161931028670
Towhee and Piping shrike,L33 5YL,53.481184928088400,-2.877000173478420
Treepie and Crow,L4 6SZ,53.445229320847300,-2.956689862337510
Francolin and Petrel,L13 9BP,53.432380228388900,-2.926418072474430
Vulture and Recurvebill,L23 0TG,53.488495718158000,-3.018296939504310
Masked owl and Polecat,L37 3JJ,53.562245735861300,-3.072110630128680
Bunting and Triller,L9 8BY,53.462857187371800,-2.963307094219090
Solitaire and Snipe,CH44 7HA,53.409984028125800,-3.028049236936600
Pitohui and American sparrow,L4 1RR,53.436230584425900,-2.983357573741100
Towhee and Towhee,L20 4RS,53.458916506317600,-3.005193455735860
Chicken and Ice seal,L15 3JJ,53.391822581553600,-2.932168392502380
Scimitar babbler and Tahr,L34 0JW,53.457321338784900,-2.851944554720590
Pratincole and Cloud rat,L18 1JA,53.388428494430200,-2.924756533364430
Ibex and Old World warbler,L11 6LA,53.458827398485200,-2.893106407544620
Black jay and Guillemot,L6 4DB,53.424515850987100,-2.940107146823030
Cloud rat and Triller,L37 3LX,53.561854444153400,-3.054587000000000
Capuchin and Partridge,CH44 0AE,53.425267270317900,-3.030585541520320
Egret and Tattler,L5 6PL,53.423193021643200,-2.960619204165090
Skunk and Bunting,CH41 6LA,53.391525680249300,-3.021183278075940
Condor and Peafowl,L17 2AE,53.390116564136700,-2.936521866280650
Elephant and Jerboa,L69 3TY,53.406896000000000,-2.967397000000000
Thrasher and Jay,L33 1EG,53.498711497781000,-2.895376784099190
Dorcopsis and Warbler,CH44 7BH,53.408318524494800,-3.021013895722390
Mole and Mink,L38 9GF,53.517421893630800,-3.058626170254960
Coati and Treepie,L32 0UF,53.482064000000000,-2.900372250601460
Grackle and Shearwater,L6 1HE,53.411192000000000,-2.967447059740090
Fish eagle and Egret,L23 7XY,53.492462298915000,-3.030586165079220
Night heron and Jerboa,L7 8SP,53.411050324416000,-2.954854347830760
Polecat and Fish eagle,CH43 9YX,53.391008911617400,-3.084853931227750
Quetzal and Civet,L34 0EA,53.447559495469200,-2.853209681443980
Wallaby and Quetzal,CH44 0EE,53.423117762783100,-3.031074894777860
Masked owl and Tree warbler,L32 3XU,53.467622409666700,-2.882896799821760
Rat and Chicken,L37 4DA,53.551689050140000,-3.060447535108790
Jackal and Partridge,L23 6WG,53.491120405915900,-3.053554555706150
Ibex and Stilt,L20 9EE,53.452655885155400,-2.976463587299030
Moluccan boobook and Petrel,L8 7PL,53.399010462833600,-2.967594321671170
Shearwater and Prion,CH46 7SP,53.405321758559000,-3.127291830818840
Parrotlet and Mockingbird,L72 8LJ,53.473053606396800,-2.960690550684020
Wader and Fulmarine petrel,CH45 7LJ,53.422404014961900,-3.041847301092310
Duck and Jay,CH41 3RY,53.394667674684800,-3.025860312909090
Bunting and Civet,L11 6LX,53.461090094600400,-2.892235134605170
Dorcopsis and Tattler,L30 7QT,53.492984655568200,-2.967019663306690
Gull and Hawk,L31 2JX,53.527161487206400,-2.944340467753500
Stint and Pratincole,L15 4JX,53.399317134100800,-2.927835244802950
Shearwater and River dolphin,L10 6LW,53.484315426792300,-2.933622865281520
Fish eagle and Hawaiian honeycreeper,L37 3PD,53.554261655188000,-3.069327454198100
Fish eagle and B,L20 7EQ,53.444149676127800,-2.992770208463390
Thicketbird and Dolphin,L23 9YF,53.487836839659700,-3.010142547109310
Herring gull and Viscacha,CH46 6JE,53.398871627688800,-3.132565850189960
Grackle and Civet,L21 3TA,53.465930827728400,-3.006971027918550
Prion and Cloud rat,L7 9PR,53.404789120036300,-2.933475135758370
Gull and Jerboa,L11 9DH,53.455659000000000,-2.916383000000000
Vulture and Jerboa,L5 7TY,53.426420251655500,-2.987044012735620
Tahr and Argus,L4 0SJ,53.430646842777300,-2.967048608799640
Flameback and American sparrow,L39 6TQ,53.541814623199100,-2.917594208177880
Grosbeak and Rat,L33 0XH,53.480025887665300,-2.877038000000000
Pitohui and Mockingbird,L21 8LS,53.464226025100500,-2.996958891641320
Wader and Philippine hawk-owl,L5 3QG,53.424675000000000,-2.970901000000000
Asiatic leopard and Coati,L21 0HA,53.483899555923500,-2.998399804996540
Armadillo and Prion,CH44 6LF,53.412677089563200,-3.023239644269810
Jerboa and Coati,L3 4FP,53.396449000000000,-2.989599000000000
Mamo and Recurvebill,CH41 8AB,53.396851644790700,-3.040440860532430
Cuscus and Pratincole,L16 6AY,53.400369391140000,-2.892392810511800
Lemming and Fish eagle,L22 2AG,53.481829690071400,-3.031488724045020
Badger and Fish eagle,L21 1HJ,53.468209429145900,-3.016003436904270
Stint and Grouse,L9 2BG,53.454768205061400,-2.957597053170960
Buzzard and Parakeet,L8 6TW,53.387859134428900,-2.979234909046430
Chicken and B,L31 1AN,53.515236000000000,-2.901034000000000
Viscacha and Jay,L5 7RL,53.431787177487900,-2.985889006227540
Logrunners and Dolphin,L11 4RP,53.450349791213400,-2.899252882729740
Fish eagle and Triller,L30 1QG,53.478798848870500,-2.964979196486750
Cuscus and Elephant,L39 5BB,53.556797700551200,-2.904754887471960
Francolin and Elephant,CH41 0AJ,53.399860015314300,-3.054095773342890
Armadillo and Jay,CH46 0TH,53.394203019900800,-3.114771577886460
Cuscus and Bunting,CH27 9BX,53.421734000000000,-3.043516000000000
Polecat and Buzzard,L4 5UR,53.443620192952400,-2.964527865022640
Jerboa and Prion,L1 1JD,53.407937775828600,-2.978237000000000
Songlark and Jerboa,CH27 9SA,53.415697271202700,-3.023251979394600
Parrotlet and River dolphin,L4 4PU,53.435190679386300,-2.968717285231620
Wallaby and Flameback,L7 6AJ,53.400274872629900,-2.946671662836800
Vole and Masked owl,L69 3GL,53.406735000000000,-2.968447000000000
Philippine hawk-owl and Kangaroo,L23 2RZ,53.491893048946200,-3.016237990104950
Armadillo and Mouse,L9 8DZ,53.464643694448800,-2.963588562604660
Petrel and Magpie,L33 1WB,53.493197711161300,-2.887437586669430
Mockingbird and B,L2 8TX,53.407186295930500,-2.994345697906750
Boto and Mole,L3 7HT,53.412620996123700,-2.995856619207630
Philippine hawk-owl and Kākāriki,L33 1RN,53.498968354711100,-2.876492874508410
Night heron and Treepie,L21 1AW,53.466268517942400,-3.010624472435740
Capuchin and Fox,L5 5EZ,53.428204453149300,-2.976476000000000
Wallaby and Bronzewing pigeon,L5 0RD,53.426864602773500,-2.969009519636570
Tree warbler and Mamo,L5 2QD,53.425582125967000,-2.985128365037930
Triller and Parrotlet,CH46 8TZ,53.405788000000000,-3.103431000000000
Fish eagle and Bronzewing pigeon,L3 4EQ,53.392262668178700,-2.982644294947420
Prion and Bronzewing pigeon,L1 6AA,53.407606000000000,-2.987285000000000
Chicken and Dorcopsis,CH44 7BD,53.408209025788500,-3.019100769308740
Mockingbird and Chicken,L5 3ST,53.418151006440100,-2.972738557646160
Siskin and Parrotbill,L28 0QB,53.435703920455700,-2.875476124549630
Eagle and Viscacha,L22 8QD,53.475701882275100,-3.033268668900490
Chickadee and Thrasher,L2 7LX,53.405274821144700,-2.990721053427930
Crow and Chipmunk,L22 9QW,53.479882316123300,-3.025896196377550
Bronzewing pigeon and Cloud rat,L20 8DL,53.441051519745900,-2.998177556066560
Black cockatoo and Argus,L1 9ED,53.403401590061100,-2.972567449706610
Night heron and New World blackbird,L8 8BR,53.386835368816100,-2.961424136514930
Polecat and Goose,L34 9EH,53.454922609572700,-2.853026000683260
Condor and Night heron,L20 1EA,53.445690981449700,-3.000183471341570
Zebra and Meadowlark,L10 8LX,53.478006397613700,-2.931178929810790
Crow and Gull,L13 0BX,53.427967209089900,-2.925193323107180
Philippine hawk-owl and Piping shrike,L37 1PB,53.562636054660600,-3.083655500018470
Tree warbler and Bronzewing pigeon,CH45 7LG,53.422671919224600,-3.042049482759250
Bronzewing pigeon and Fulmarine petrel,L33 1SW,53.496511478272300,-2.892677323177930
Chipmunk and Capuchin,L13 0BZ,53.428252785038300,-2.923137636627340
Black cockatoo and Fox,L6 2PN,53.419944646399100,-2.962156036391260
Gull and Capuchin,CH41 4HZ,53.396208510852800,-3.035838235522420
Guillemot and Hawaiian honeycreeper,L38 0BL,53.526145602673800,-3.060141076381850
Elephant and Darwin's finches,L31 3HG,53.510453510603700,-2.930322010293570
Scimitar babbler and Dolphin,L33 8YD,53.483548276828000,-2.877094141985240
Parakeet and Perching duck,L4 1RN,53.435015208299500,-2.983585404329820
Polecat and Songlark,L4 4PJ,53.431034000000000,-2.974918887416290
Armadillo and Greenbul,L37 5AE,53.549670042820000,-3.019750266726470
Guillemot and Mamo,L1 1JJ,53.408686753743700,-2.980163000000000
Mouse and Guillemot,L30 0QR,53.494143030847600,-2.980401301786450
Duck and Viscacha,L31 4JF,53.533765131670400,-2.942450595526620
Philippine hawk-owl and Parakeet,L9 1HB,53.455070977972800,-2.961308581225830
Meadowlark and Polecat,L67 1AB,53.449493279124500,-2.941577298795450
Minke whale and Scimitar babbler,L15 8JG,53.400804154060700,-2.919204219249840
Vulture and Diving bird,L18 2AA,53.389094000000000,-2.898682000000000
Guillemot and Jerboa,L21 8PA,53.470806653938400,-2.991463614765750
Macaw and Chipmunk,L4 8SY,53.438497408964500,-2.943035210684830
Mole and Chipmunk,L6 6BB,53.416122794642500,-2.948874360191070
Cloud rat and Grouse,CH44 7EZ,53.409788384132500,-3.027803815622680
Thrasher and Grouse,L3 5TL,53.404150472346200,-2.972223529921590
Philippine hawk-owl and Kangaroo,L10 7LR,53.467136203709200,-2.917594191636770
Wader and Ibex,L9 1DL,53.454182577232900,-2.961122857134540
Solitaire and American sparrow,L32 8SY,53.479072916727200,-2.878177130972520
Chicken and Kite,CH46 9AF,53.401346000000000,-3.096696000000000
Snipe and Linsang,CH43 8TG,53.394370035006600,-3.057900161836960
Hawk and Armadillo,L10 1LF,53.469431628140000,-2.918336698521140
Flameback and Marsh harrier,CH41 8HL,53.402457000000000,-3.051197000000000
Chicken and Grouse,L23 7UN,53.496265645284700,-3.037733286369630
Civet and Logrunners,L3 5RA,53.405686435417000,-2.972363856195770
Songlark and Moluccan boobook,L10 9LR,53.465706094310300,-2.927023238925420
White ibis and Lemming,L32 6RQ,53.472040144095200,-2.874988617221980
Prion and Piping shrike,L2 4UT,53.407019087400300,-2.990671335112990
Philippine hawk-owl and Chicken,L37 2LT,53.550584235112400,-3.085400252711000
Marsh harrier and Marmoset,L31 0AE,53.516611524706300,-2.943985140124860
Linsang and Argus,CH44 5SY,53.411853850866600,-3.048705504897740
Chicken and Crow,L30 1TF,53.475041107366800,-2.957209803121620
Mole and Duck,L21 7NN,53.477056277207300,-2.983563223735730
Bunting and Magpie,L8 0UZ,53.397676000000000,-2.950299000000000
Grouse and Black cockatoo,CH41 4BZ,53.388867754274900,-3.034426969963600
Armadillo and Parrotlet,L21 3TZ,53.463551764581200,-3.007682917590360
Ice seal and Egret,L13 5UR,53.413698038694000,-2.912847400222080
Argus and Fish eagle,L15 6XW,53.392618129046200,-2.904711891002690
Thrasher and Eagle,CH49 4PQ,53.393796502337300,-3.099481964029420
Ice seal and Kestrel,L10 4UP,53.464686058359900,-2.912404798684120
Old World vulture and Parrotlet,L3 5RF,53.405386000000000,-2.969619000000000
Warbler and Dolphin,L14 0LN,53.416752217136900,-2.874695502569230
Magpie and Vole,L32 0RL,53.481854483966200,-2.909053000000000
New World blackbird and Eagle,L21 6NQ,53.466445650177700,-3.002403790118110
Linsang and Wader,L21 4ND,53.460893299745600,-3.011671610158880
Vole and Armadillo,L23 6XS,53.485223928888500,-3.047395222176340
Grackle and Marsh harrier,L8 2YH,53.393900841685300,-2.956530955936440
Parrotlet and Macaw,CH41 4DP,53.389357486883700,-3.034183000000000
Ice seal and Petrel,L6 8PE,53.414797611692700,-2.937981958072670
Maya and Hawaiian honeycreeper,L27 1XR,53.391589349654100,-2.850240022642960
Recurvebill and Bunting,L9 8BN,53.465288601187800,-2.968318028490470
Songlark and Pheasant,L8 0HA,53.391658982301000,-2.952886350920680
Jackal and Chipmunk,L8 7TA,53.398482982080500,-2.968152000000000
Buzzard and B,L37 2XE,53.556497000000000,-3.063494000000000
Partridge and Parrotbill,L20 8LP,53.440088957234600,-2.997191496663590
Condor and Tit-tyrant,L23 6XG,53.489693953582100,-3.051198073662620
Prion and Greenbul,L4 2UR,53.429804810659700,-2.949886538106490
White ibis and Quetzal,L39 5DQ,53.550194360577100,-2.907874185839830
Dolphin and Piping shrike,L25 2QL,53.386871463012600,-2.858851600513710
Hawk and Lemming,L13 5YJ,53.413719118263900,-2.912441632901690
Boto and Old World quail,L23 9UF,53.494036803654200,-3.002949048176580
Chicken and Eagle,L36 3UH,53.422359092970300,-2.851365621891400
Treepie and Cloud rat,L4 5QY,53.447990996225400,-2.973119238849640
Buzzard and Solitaire,L21 7QN,53.475563911415100,-2.993367524515430
Boto and Coati,CH44 8BY,53.416600196383600,-3.023830374412270
Ibex and Mockingbird,L5 2QN,53.428984000000000,-2.982558000000000
Parakeet and Badger,L21 9HA,53.471199138745400,-3.000451846056640
Old World warbler and Quetzal,CH44 2DP,53.419815903138300,-3.065197891022370
Marmoset and Cloud rat,L30 0PN,53.492107068542400,-2.984228080993210
Quetzal and Mockingbird,L33 6UW,53.489227932481600,-2.876035754067100
Tree warbler and Moluccan boobook,L37 4AR,53.554745336526700,-3.059903000000000
Towhee and Piping shrike,L31 2LT,53.524192195915400,-2.945858255532070
Gull and Partridge,CH44 0BF,53.423938000000000,-3.030792000000000
Booted eagles and Warbler,CH45 8QW,53.419344668168700,-3.082610930656100
Eagle and Wader,L15 8LS,53.403024016162300,-2.914574213283960
Crow and Jackal,CH45 6UZ,53.427505873033300,-3.057624280987820
Condor and Vole,L36 8DU,53.428295378183100,-2.849587945906330
Elephant and Puffleg,L1 1DS,53.405940686232800,-2.984117832203720
Marmoset and Ibex,L21 9JF,53.478669530805000,-2.997146866794610
Mamo and Condor,L14 7QD,53.416579010156000,-2.883569153349370
Bronzewing pigeon and Siskin,L38 9GE,53.518401459518300,-3.058545000000000
White ibis and Masked owl,L21 6PG,53.466923738537600,-3.005292000000000
Moluccan boobook and Kangaroo,CH49 6NW,53.386729821126800,-3.111268381279880
Tattler and Civet,L23 1UH,53.498366956848800,-2.994639302400250
Lemming and Mockingbird,L32 4RZ,53.477351115348200,-2.902777000000000
Solitaire and Warbler,CH45 1HB,53.429268627651500,-3.038056847080360
Goose and Pitohui,L9 1EJ,53.447816113940400,-2.971413769648490
Rat and B,CH45 5AJ,53.432456107538500,-3.041566377807470
Tahr and Greenbul,CH44 0DT,53.420411503681200,-3.032183119509120
Philippine hawk-owl and Condor,CH46 8ST,53.405739279502600,-3.105716740651950
Jerboa and Elephant,L15 0HD,53.397582757437500,-2.930083505618840
Old World warbler and Shearwater,L3 7DY,53.419057456120500,-2.998189000000000
Grouse and Mink,L5 8SX,53.422973739154100,-2.983141840151850
Meadowlark and Pratincole,L5 8US,53.420033427711900,-2.985436443465100
Triller and Songlark,L3 1JH,53.405968974209400,-2.995881724055540
Ground sloth and Stilt,CH45 7LR,53.426701327407400,-3.040748412266000
Goose and Booted eagles,CH44 7BB,53.408926711441300,-3.019268364189930
Old World quail and Fish eagle,L31 7BU,53.515025336423600,-2.947237000000000
Partridge and Flameback,L4 5UN,53.440826000000000,-2.966768000000000
Ice seal and Mockingbird,L5 5BL,53.420948159967700,-2.979275000000000
Darwin's finches and Black cockatoo,L12 5EB,53.438649158443500,-2.908384345227700
Philippine hawk-owl and Magpie,L32 9QN,53.475293400052000,-2.883628614590890
Elephant and Armadillo,L3 8DR,53.413100076068800,-2.970426697854000
Wader and Chicken,L33 1ZX,53.493842030044500,-2.885401052703380
Francolin and Marmoset,L2 0AB,53.406088000000000,-2.993492000000000
River dolphin and White ibis,L23 6XN,53.487238423124200,-3.045229380387490
Thrasher and Bunting,L7 7BX,53.398473201181900,-2.966228545335720
Polecat and Capuchin,L9 0EQ,53.464272635870400,-2.957360000000000
American sparrow and Myna,L29 7WG,53.504357359203800,-2.970113091836010
Jackal and Kestrel,L15 4JD,53.403446976762400,-2.920359231927160
New World blackbird and Armadillo,L12 0BA,53.439204000000000,-2.881299000000000
Bunting and Capuchin,L9 8DY,53.464921082260700,-2.963745479329030
Moluccan boobook and Vulture,L31 1AH,53.498185763423600,-2.909053821900060
Mockingbird and Warbler,L31 8BL,53.512349000000000,-2.953466000000000
Guillemot and Grosbeak,L21 1HA,53.470092478528500,-3.016545573620770
Shearwater and Warbler,L23 8US,53.493953536775000,-3.040028315970340
Argus and Parrotbill,L9 9EJ,53.469645000000000,-2.938483000000000
Rabbit and Viscacha,L30 2PE,53.484077853729500,-2.991019627124600
Duck and Chicken,L20 6EQ,53.468288812802900,-2.982878396149870
American sparrow and Quetzal,L8 0QQ,53.392138057406500,-2.949167735176390
Pheasant and Zebra,L20 7ES,53.443817000000000,-2.992205000000000
Civet and Siskin,L32 8XB,53.479022443594300,-2.880150022296460
Coati and Night heron,L23 6SY,53.482612189888500,-3.042825035025840
Badger and Snipe,CH45 3LL,53.426347647305900,-3.067573539847940
Solitaire and Night heron,L1 6JG,53.408063000000000,-2.984107000000000
New World blackbird and Duck,CH45 7PN,53.426923870273900,-3.032717167990240
Moluccan boobook and Rabbit,L20 8BH,53.439758979510900,-2.992562053479240
Marmoset and Kākāriki,CH43 1TY,53.387568000000000,-3.050559000000000
Chipmunk and Black cockatoo,L13 1BW,53.408009307576600,-2.918547259752210
Egret and Solitaire,L11 0BU,53.455288858837700,-2.896300115271410
Chipmunk and Minke whale,CH41 6PX,53.396971037941700,-3.011450000000000
Dorcopsis and Cuscus,L9 3AL,53.460063611872300,-2.965292215867000
B and Fox,CH44 8BR,53.422954117336300,-3.029204913450780
Black jay and Peafowl,L23 9YD,53.475609000000000,-3.027267000000000
Grackle and Towhee,L8 7LS,53.397415511914700,-2.964745751709690
Logrunners and Dolphin,L4 4AH,53.435381591129600,-2.972876219376050
Skunk and Marsh harrier,CH44 3AH,53.415088517249900,-3.049883448733920
Viscacha and Bronzewing pigeon,L8 2TA,53.394187245478200,-2.962551000000000
Mole and Moluccan boobook,CH46 7AA,53.402686000000000,-3.113141000000000
Pheasant and Solitaire,L23 6TW,53.490369959985300,-3.050988708336640
Ground sloth and Chicken,L10 6NE,53.481903667854600,-2.933976767468980
Marsh harrier and Wallaby,L69 3SY,53.406896000000000,-2.967397000000000
Masked owl and Perching duck,L5 8XE,53.419968869737800,-2.988895862140030
Dolphin and Egret,L6 8NT,53.416463000000000,-2.938906000000000
Macaw and Kite,CH46 6DW,53.399319682654600,-3.119372324387890
Vulture and Siskin,CH45 8LQ,53.425163835662300,-3.072284430053280
Jackal and Moluccan boobook,L36 8EH,53.430675000000000,-2.852631000000000
Night heron and Kangaroo,L39 4SW,53.558047033318300,-2.897610812093510
Triller and Pratincole,L12 0NN,53.452770626917600,-2.884425826678780
Bunting and Wader,L6 2AB,53.416168000000000,-2.959092000000000
Marmoset and Jerboa,L33 9TP,53.490302285800800,-2.872937957285220
Snipe and Greenbul,L23 7UX,53.499494272338200,-3.040646374401040
Chickadee and Dorcopsis,CH44 5TN,53.418392450913900,-3.041102192461390
Stint and Viscacha,L39 5AT,53.556557256298900,-2.902077805523720
Fox and Rat,L15 6UR,53.397048573356200,-2.906039104449790
Pheasant and Pitohui,L20 2EB,53.443176280971100,-2.985866687217510
Viscacha and Francolin,L69 7ZH,53.401594236086200,-2.963772398197160
Marmoset and New World blackbird,L6 5AF,53.425111299003400,-2.951181453736180
Warbler and Shearwater,L13 3DR,53.418985396842300,-2.913773211890430
Scimitar babbler and Argus,L6 6AA,53.416827000000000,-2.947536000000000
Herring gull and Minke whale,L4 6TB,53.444492539284600,-2.955529042597400
Gull and Piping shrike,L10 8JX,53.479706622390100,-2.927539455247910
Elephant and Cuscus,L1 1HF,53.408329415118800,-2.982081000000000
Quetzal and Goose,L31 9DN,53.519423401618400,-2.928120439111580
Greenbul and Kangaroo,L14 4BN,53.427490202006100,-2.876420990930370
Vole and Warbler,L20 9HT,53.455414902303300,-2.979825030579420
Ibex and Badger,L30 9SE,53.470842332584600,-2.983886532791580
Goose and Peafowl,L13 4DN,53.411974402303600,-2.906657271758650
Flameback and Fox,L22 4RB,53.480190052786000,-3.018293881958020
Wader and Shearwater,L74 4AB,53.392998133202100,-2.988285423881710
Ibex and Eagle,CH46 2QZ,53.417716822233700,-3.090604554119400
Boto and Duck,L14 3NU,53.407758603105100,-2.874119820539980
Tit-tyrant and Night heron,L10 2JS,53.484616220490800,-2.946800874393810
Gull and Philippine hawk-owl,L4 3QT,53.437900092778100,-2.972677849079510
Logrunners and American sparrow,L32 9PX,53.474501942073700,-2.889744275639350
B and Towhee,L4 3QD,53.440798704083400,-2.971057935262860
Polecat and Snipe,L13 2AT,53.414241029159100,-2.922894268431410
Lemming and Old World vulture,L4 4DR,53.439438334386900,-2.969220392679470
Asiatic leopard and Prion,L31 9BU,53.518422613237100,-2.935428528162300
Fish eagle and Ibex,CH44 4DB,53.412194316151900,-3.043703971616480
Asiatic leopard and Wallaby,L21 4PF,53.459564362067200,-3.011504456277840
Wader and Cloud rat,L37 4EP,53.553306212292000,-3.049332917698260
Snipe and Snipe,L23 7UR,53.498036159153800,-3.040866936349970
Partridge and Parrotbill,CH41 0DR,53.397531600266400,-3.061227153448310
Thrasher and Myna,CH46 9SN,53.403658329702600,-3.096457160440850
Tit-tyrant and Old World quail,L7 7AG,53.402805859558700,-2.968085000000000
Bunting and Chicken,L20 6GH,53.464332164986600,-2.991388408768790
Stilt and Old World warbler,L30 9SH,53.469980402051500,-2.978292497642880
Armadillo and Thrasher,L13 8BA,53.425352474138100,-2.935445283829300
Herring gull and Wader,CH43 1YA,53.386874709175000,-3.046512562625210
Kestrel and Dorcopsis,CH46 1RN,53.415757867006800,-3.098378392259650
Vulture and Argus,CH43 6TJ,53.390521639304200,-3.059037756057690
Chicken and Macaw,L14 9NN,53.425110452847700,-2.871195132379280
Vole and B,L7 8RU,53.409635730417300,-2.957515489507030
Vulture and Magpie,L21 8LW,53.470351810771100,-2.988861785533210
Dolphin and Greenbul,L36 9TE,53.413836148071200,-2.854099050608140
Thrasher and Goose,CH41 5LD,53.392298000000000,-3.009791445770790
Fox and Towhee,L5 1UF,53.428587000000000,-2.966083000000000
Vole and Bronzewing pigeon,L4 6UZ,53.441298000000000,-2.952491000000000
Eagle and Meadowlark,L5 3RX,53.417252773289400,-2.972657866580890
Ground sloth and Darwin's finches,L9 0LL,53.472478250005300,-2.956218023664660
Tit-tyrant and Magpie,L16 3GH,53.400703714670300,-2.881269823490330
Herring gull and Ground sloth,CH41 7BL,53.403896544369200,-3.061144917076700
Mink and Parrotlet,L6 5LU,53.419189377093400,-2.953216033447340
Hawk and Ibex,L15 1EX,53.399657000000000,-2.936190000000000
Egret and Viscacha,L37 2JT,53.554454560521500,-3.077876227655460
Old World vulture and Ice seal,L22 0PJ,53.475281553418900,-3.021521214339110
Triller and Philippine hawk-owl,CH44 2HQ,53.420940901898900,-3.054918216219200
Asiatic leopard and Lemming,L8 2TN,53.394597734646600,-2.961929968824580
Siskin and Thrasher,L1 4BW,53.402745474980200,-2.979155634600590
Myna and Tahr,CH41 8AF,53.397728336004600,-3.049140141908150
Linsang and Macaw,L39 4TG,53.562756774892700,-2.892983000000000
Pitohui and Piping shrike,L15 0EN,53.395444714850200,-2.934518412917690
Goose and Viscacha,L39 4SS,53.558272000000000,-2.900270388852840
Mamo and Mouse,L32 9SA,53.472434582150900,-2.880028730993170
Nukupuʻu and Kestrel,L10 6NQ,53.485165876352600,-2.932918164052420
Philippine hawk-owl and Bunting,CH45 8JA,53.426962776187000,-3.073157466275990
Duck and Cloud rat,CH43 1XR,53.390704965515200,-3.054576255906940
Macaw and Fox,CH46 2QR,53.416422252762400,-3.092587630135890
Guillemot and American sparrow,L13 1AP,53.409512000000000,-2.920791000000000
Quetzal and Ibex,L9 9HY,53.472266216973100,-2.937606885907790
Ibex and Pratincole,L2 8US,53.406786000000000,-2.992922000000000
Bunting and Myna,L15 8AL,53.401977827822400,-2.910325250122250
Wallaby and Marsh harrier,L7 6AL,53.399223955875200,-2.950694493477920
Songlark and Minke whale,L23 6US,53.493227569814300,-3.046989552629510
Cloud rat and Wader,L23 3AN,53.485289927142600,-3.034662168846380
Civet and Chicken,L72 1LB,53.473053606396800,-2.960690550684020
Bronzewing pigeon and Black cockatoo,CH44 8ES,53.417055131590000,-3.027377224411550
Francolin and Jackal,L3 9TA,53.410134748248300,-2.968087545639480
Kite and Fish eagle,L31 2NF,53.522339220329900,-2.940326518278020
Cuscus and Lemming,L6 8PD,53.416342722939400,-2.938106245182310
Kākāriki and Grosbeak,L31 4DR,53.533411716609300,-2.955267195194170
White ibis and Dolphin,L6 6DL,53.412776308247700,-2.945805924758830
Mockingbird and Wallaby,L32 4TQ,53.476488787710900,-2.902337000000000
White ibis and Chicken,L38 9EA,53.520327581482300,-3.058366802043150
Darwin's finches and Grackle,L15 8HH,53.397308439965700,-2.917910674756890
Darwin's finches and Linsang,L9 6EX,53.456708000000000,-2.922278000000000
Parrotbill and Piping shrike,L5 6PT,53.423125198520800,-2.958992434468350
Songlark and Mouse,L20 4NH,53.460200522902500,-3.003220588258580
Macaw and Rabbit,CH46 1RH,53.412432385021900,-3.101256538424310
Goose and Old World vulture,L4 0TN,53.428578524284600,-2.954870986318410
Wallaby and Armadillo,L14 9PW,53.420121082344300,-2.871273676527940
Treepie and Rat,L4 5TT,53.443789231437300,-2.965856608184540
Puffleg and Logrunners,L20 1AH,53.450067000000000,-3.003719000000000
Ground sloth and Quetzal,L20 3BU,53.451431706771700,-2.985425456420130
Myna and Rabbit,CH44 7BE,53.408159209965100,-3.019671224334450
Black cockatoo and Vole,L11 4RQ,53.452247533308600,-2.902681200488260
American sparrow and Old World quail,L20 3UG,53.451642000000000,-2.988412000000000
Capuchin and Argus,L22 5QA,53.472714555897800,-3.027365479428260
Night heron and Solitaire,L7 2PR,53.409196331481600,-2.948374155870330
Petrel and Songlark,L23 8SD,53.494984338781800,-3.041395138286410
Argus and Snipe,L10 3LB,53.486443096622600,-2.943119054971960
Recurvebill and Maya,L6 6BG,53.415479792983700,-2.949476920708500
Civet and Meadowlark,CH41 0BA,53.398717068287400,-3.054247999117740
Songlark and Marmoset,L38 9EL,53.522383000000000,-3.061842000000000
Pheasant and Parrotlet,L37 3JS,53.558121393744800,-3.053739515208710
Prion and Fish eagle,L16 9JH,53.393126385081400,-2.890917916626090
Quetzal and Shearwater,L2 9SA,53.405488500188300,-2.988920000000000
Elephant and Stilt,L31 9PQ,53.517067960122300,-2.927013223378520
Marsh harrier and Tree warbler,L9 0HZ,53.470921467428100,-2.955309225092360
Ibex and Perching duck,L5 5AJ,53.425058000000000,-2.981279000000000
Chipmunk and Egret,L33 1ZL,53.493323220580200,-2.885058630327870
Scimitar babbler and Diving bird,L13 7EA,53.422812783892200,-2.928000764615260
Marmoset and Masked owl,L10 4XH,53.467422203540000,-2.910761246513750
Rat and Dolphin,L3 6JH,53.416062084266600,-2.983042555843940
Fox and Chickadee,L20 6ND,53.466371898404500,-2.989688151829470
River dolphin and Boto,L6 1PB,53.416043672504500,-2.966581762555300
Macaw and Grackle,L10 4XT,53.465515858183400,-2.910855999012190
Vulture and Eagle,L16 6AX,53.401390458615800,-2.894083707448710
Elephant and Chipmunk,L20 8DN,53.440555969426800,-2.998316485073140
Jerboa and Eagle,L39 9ER,53.528398985614300,-2.884809411480870
Mamo and Old World vulture,L30 0QS,53.493684599675900,-2.979305431102370
Stilt and Marsh harrier,L6 2BZ,53.417149554355200,-2.959866053355640
Ground sloth and B,L21 1BP,53.463795165327000,-3.010791654820350
Parakeet and Old World vulture,L32 1TQ,53.486630793808300,-2.888129366253480
Rabbit and Jackal,L11 4RR,53.449915902994700,-2.899574989209510
Francolin and Shearwater,L9 8AN,53.462964903305000,-2.968882701831140
Wader and Flameback,CH44 8HB,53.415861195840500,-3.028236156097390
Vulture and Elephant,CH44 4BB,53.411329751668200,-3.034477000000000
Minke whale and Zebra,L30 8RH,53.486499156942100,-2.957543183429780
Masked owl and Mockingbird,L4 5UB,53.444450177769600,-2.963389000000000
Grouse and Hawaiian honeycreeper,CH44 4DQ,53.413777751355500,-3.039424740565520
Kestrel and Diving bird,L31 2HE,53.514263183219400,-2.945410846563490
Grouse and Parakeet,L1 4NL,53.401977634485300,-2.977529000000000
Peafowl and Ice seal,L37 8BQ,53.557018000000000,-3.056607171602930
Booted eagles and Jerboa,L31 1BW,53.487882727978500,-2.911666853502250
Mole and Mole,CH46 3RR,53.414707617466800,-3.100171857215640
Scimitar babbler and Tattler,CH43 7ZH,53.401230006384200,-3.080827309047870
Macaw and Duck,L5 5AE,53.420578413343000,-2.981476468006000
Wader and Towhee,CH45 5DF,53.423685000000000,-3.043494554199460
Elephant and Viscacha,L33 2DZ,53.490867676288300,-2.891322826946470
Bunting and Parrotbill,L20 0DW,53.459437838039400,-2.973727448299000
Crow and Chickadee,L31 6AS,53.511632050846600,-2.929035885260760
Dolphin and Coati,L4 7US,53.435067624162500,-2.952728473402370
Wallaby and Towhee,L39 5RD,53.554944083983900,-2.891854232720220
Marmoset and Thrasher,L16 4PA,53.399761443179000,-2.895553567698770
Wallaby and Diving bird,CH44 7AW,53.409263964868100,-3.025023126297000
Meadowlark and Asiatic leopard,L6 0DA,53.429005177104100,-2.945308378101470
Bronzewing pigeon and Logrunners,L20 0BQ,53.459241499594100,-2.977955183422370
Fish eagle and Capuchin,L74 4AN,53.392998133202100,-2.988285423881710
Viscacha and Badger,L20 4QF,53.460661014020000,-3.005114178521200
Jackal and Fish eagle,L18 0HX,53.389515802662100,-2.913126731066000
Hawaiian honeycreeper and Peafowl,L1 9EW,53.400437550693300,-2.973387229436120
Vole and Parrotbill,L39 4RQ,53.560892000000000,-2.883884017033980
Parrotlet and Herring gull,L9 9BA,53.465028707686300,-2.951441171352820
Dorcopsis and Skunk,L20 3BN,53.448543803819900,-2.984635831271650
Gull and Pitohui,CH43 7QU,53.399588202758300,-3.077491849225170
Hawk and Myna,L4 8UW,53.440022709274400,-2.935391217154550
Puffleg and Towhee,L37 4EX,53.551767877123300,-3.049475978819620
Booted eagles and Ibex,CH43 7NU,53.399289333724000,-3.062699723562250
Nukupuʻu and Old World quail,L10 6LF,53.482795116549200,-2.937221248708030
Polecat and Civet,L4 1XY,53.432046587312100,-2.983863031079350
Fulmarine petrel and Armadillo,CH43 7ZA,53.399314249468700,-3.077966215313410
Crow and Stint,L25 2RX,53.393243589237900,-2.867686839975190
Maya and Myna,CH45 9JH,53.436369702668600,-3.051870000000000
Marsh harrier and Solitaire,L1 6ER,53.408722075531800,-2.983774000000000
Cloud rat and Buzzard,L7 4JB,53.397817872382900,-2.947053262321640
Philippine hawk-owl and Old World vulture,L22 3XY,53.472992219475200,-3.018031116661770
Boto and Meadowlark,CH41 3PY,53.396584903379900,-3.025560531823190
Ice seal and Goose,L32 3AD,53.469810000000000,-2.884779000000000
Vulture and Chipmunk,L21 7NL,53.476282983601200,-2.985775304713230
Scimitar babbler and Vole,L6 6DJ,53.413301075842700,-2.946509642566360
Towhee and Eagle,L20 6GB,53.466579213680500,-2.970607381967540
American sparrow and Siskin,L23 6SN,53.482897339806000,-3.045167846582430
Grouse and Gull,L32 8SR,53.480104124106200,-2.882176537930880
Herring gull and Snipe,L16 3NB,53.405701000000000,-2.880260000000000
Masked owl and Dolphin,L5 5BP,53.421857473599600,-2.980061315968440
Meadowlark and Hawaiian honeycreeper,L25 4SQ,53.392553305932600,-2.872364535632140
Rabbit and Kākāriki,L28 7RD,53.432432941013000,-2.864240518382940
Fish eagle and Capuchin,L36 8JL,53.433781503494700,-2.854213040186140
Armadillo and Francolin,L3 8ET,53.410334000000000,-2.971342000000000
Piping shrike and Jerboa,L10 4UU,53.464631623393200,-2.910114033978840
Ibex and Civet,L14 7QA,53.417908955891900,-2.886049325211180
Capuchin and Tahr,L33 1TB,53.495876885288800,-2.875177943074020
Capuchin and New World blackbird,L32 0RY,53.486652161535100,-2.896224000000000
Egret and Petrel,L8 6TT,53.388768337696500,-2.976880026320170
Bronzewing pigeon and Wader,L33 1RA,53.494846151390900,-2.873543815760380
Ice seal and Chickadee,L13 7EY,53.424065090196000,-2.931098002931920
Booted eagles and Boto,L16 4PD,53.398694120986200,-2.890432652485230
Linsang and Old World quail,L30 7QG,53.493605104387900,-2.958065068434890
Ground sloth and Prion,L31 9BN,53.517454303495500,-2.930505576285920
Thicketbird and Siskin,L20 8LR,53.440163045465700,-2.995687000000000
Towhee and River dolphin,L9 7AR,53.461305029536200,-2.941763000000000
Parrotlet and White ibis,L12 8RF,53.429787777675000,-2.898668179496670
Duck and Polecat,L69 3SB,53.406896000000000,-2.967397000000000
White ibis and Partridge,L3 9AG,53.407657000000000,-2.994131000000000
Myna and Skunk,L17 2AF,53.390641605536000,-2.936052209574100
Old World vulture and Minke whale,L16 8NY,53.393200326717500,-2.896648894279410
Pheasant and Tree warbler,L15 2HH,53.396058392706500,-2.936501962370470
Kite and Eagle,L31 6AR,53.512198947965100,-2.928957807985310
Greenbul and Jay,L3 9TX,53.409099000000000,-2.993638000000000
Francolin and Parrotlet,CH45 8QB,53.421363632384100,-3.071045132088150
Triller and River dolphin,CH45 5AT,53.433057112036700,-3.042740091635000
Coati and Snipe,L13 8AX,53.425687000000000,-2.933045000000000
Marmoset and Francolin,L2 8AD,53.406311000000000,-2.993723000000000
Polecat and Siskin,L39 5BF,53.554106000000000,-2.894720000000000
Marsh harrier and Asiatic leopard,CH44 8DN,53.415381982942100,-3.025426060221180
Masked owl and Grouse,L4 9UA,53.443407913722800,-2.948383360548090
Rat and Minke whale,L4 9XU,53.442395728719200,-2.939975002947060
Maya and Egret,L31 2JL,53.520628678637900,-2.949760776233630
Diving bird and Egret,CH45 9LG,53.435684485563500,-3.046552643209170
Pitohui and Petrel,L32 8WZ,53.481325719031000,-2.885939004843730
Old World vulture and Parrotlet,L8 7BB,53.398910027858200,-2.957755895898650
Ice seal and Goose,L30 8RF,53.485711935044600,-2.953697500539260
Philippine hawk-owl and Pheasant,L8 3UQ,53.388468971500800,-2.960603886983840
Francolin and Thicketbird,L1 9BB,53.400295673062300,-2.972045387644620
Greenbul and Triller,L23 1TN,53.501978000000000,-2.998267000000000
Mole and Treepie,L5 0RA,53.426858851906600,-2.971929060567270
Parrotbill and Pratincole,L7 4JE,53.396889036746000,-2.943858000000000
Prion and American sparrow,L20 7HL,53.449247000000000,-2.993193200296930
Crow and Polecat,CH45 3JE,53.430416902563800,-3.063852521228450
Kangaroo and Hawaiian honeycreeper,L8 7LF,53.395562073287300,-2.969395928400670
Skunk and Pitohui,L34 9EJ,53.450130469098400,-2.856950417830620
Parrotbill and Grosbeak,L16 8PA,53.393296985182300,-2.898139680565080
Cuscus and Crow,L9 6DN,53.456156448791100,-2.923879000000000
Condor and Asiatic leopard,L16 2LL,53.403222207267000,-2.879832784404730
Egret and Nukupuʻu,L33 1SP,53.496104476357100,-2.891809538654510
Peafowl and Warbler,L9 0JQ,53.468641312012700,-2.952681960142940
Maya and Parrotbill,L31 9PR,53.522332955868400,-2.934247674311060
Kangaroo and Polecat,L7 9LR,53.410201599895100,-2.934887068649470
Vulture and Parrotlet,L69 7SH,53.401885000000000,-2.966888560784530
Elephant and Towhee,CH43 6XS,53.388857000000000,-3.057312000000000
Stilt and Gull,L10 3JG,53.486725979066100,-2.949394872129560
Chicken and Eagle,CH43 7AB,53.393036589594700,-3.062965384412110
Vulture and Myna,L68 0AQ,53.473053606396800,-2.960690550684020
Viscacha and Pheasant,L21 3TB,53.465058923608500,-3.008034953021750
Stilt and Triller,L39 3LF,53.551921541492600,-2.917118584053370
Wallaby and Wallaby,CH41 3RQ,53.394459929455300,-3.028065974386140
Skunk and Guillemot,L23 9SY,53.488652548367100,-3.005082747207440
Skunk and Mole,L23 2TS,53.496827986629400,-3.022551720091800
Capuchin and Philippine hawk-owl,L36 3XW,53.426949465309100,-2.851773412742380
Condor and Puffleg,CH44 8BQ,53.421574986216900,-3.027561454354360
Logrunners and Hawk,L33 9TA,53.488498511652500,-2.870067456662740
Argus and Piping shrike,L36 2QS,53.415439398745400,-2.858659935038070
River dolphin and Fulmarine petrel,L21 9NG,53.473637535021000,-3.007650709263590
Tree warbler and New World blackbird,L11 2UQ,53.441568105477700,-2.908702560477230
Kestrel and B,CH44 0ET,53.424538368577300,-3.031034032727010
Fulmarine petrel and Kestrel,L21 4LE,53.460031422249300,-3.009421993071060
Tree warbler and New World blackbird,L32 4SX,53.478343789341700,-2.904817312587880
Herring gull and Treepie,L4 4QR,53.436354930033200,-2.970354464802950
Maya and Solitaire,CH46 8TB,53.403944740432300,-3.108272454362190
Puffleg and Thrasher,CH43 9UU,53.388727726602100,-3.084630511549860
Ice seal and Dorcopsis,L2 6RR,53.406034705835700,-2.988271000000000
Grosbeak and River dolphin,L20 5HF,53.455267292725000,-2.992261124527990
Fox and Zebra,L32 8SN,53.479990822228800,-2.882912545526700
Cuscus and Warbler,CH44 2AY,53.420509573115200,-3.053884291357380
Tit-tyrant and Night heron,L1 4AR,53.402886433205000,-2.979670000000000
Hawk and Diving bird,CH44 0EA,53.421974196469000,-3.031303038252190
Black jay and Ibex,CH41 2XY,53.390398403119000,-3.022511000000000
Marmoset and Chipmunk,L10 6LP,53.484083113025100,-2.935742640980480
Macaw and Fox,L13 7BX,53.423932001213300,-2.916934208804470
Greenbul and Black cockatoo,L12 0NJ,53.452616116386700,-2.885868265595170
Lemming and Tattler,L8 5XF,53.390174655507500,-2.978581332561190
Wader and Songlark,L4 1UL,53.437393946153200,-2.981803813472890
Greenbul and Tit-tyrant,CH46 8SW,53.407034912100200,-3.107525427033280
Grouse and Perching duck,L1 1NH,53.406611938724700,-2.980101879518300
Buzzard and Tattler,L22 8QH,53.476416000000000,-3.031855000000000
Booted eagles and Mamo,L8 3SG,53.389243791109500,-2.952531664738900
Peafowl and Snipe,L21 1AR,53.469557171272400,-3.013956660858530
Tattler and Perching duck,L32 4UW,53.480325464684000,-2.904362000000000
Mamo and Myna,L18 1ER,53.386885147197200,-2.915070164766770
New World blackbird and Chickadee,L32 7QE,53.468295756252200,-2.875679866558960
Mouse and Songlark,L8 2XA,53.392033000000000,-2.955744558625370
Mink and Ibex,L9 9BB,53.465232023109800,-2.947348474609550
Grackle and Jackal,L69 7ZT,53.401421651848100,-2.965107134193360
Thrasher and Lemming,L21 3UD,53.464272788858300,-3.006389505165930
Marsh harrier and Mole,L7 1PB,53.406134514576300,-2.954714147759880
Crow and Pratincole,L14 2DB,53.418716377861600,-2.892295523316590
Darwin's finches and Old World vulture,CH44 6LR,53.412625915476100,-3.025013713758660
Grouse and Argus,L10 0AY,53.469441383354000,-2.912371229785130
Petrel and Vole,CH46 7TR,53.401230880885700,-3.113977654707360
Badger and Kestrel,L1 4LF,53.403929667893100,-2.980536591993680
Black cockatoo and Jerboa,L1 7BX,53.395573653264000,-2.975697455425180
Stint and Chicken,L39 4AH,53.560843432341500,-2.871974476338330
Rabbit and Minke whale,L20 6EY,53.467966426310400,-2.975052519929720
Kite and White ibis,CH44 3BG,53.416561907566700,-3.058119999609490
Black cockatoo and Moluccan boobook,L36 4AB,53.408050000000000,-2.851079000000000
Badger and Vole,L22 6RD,53.479915472991500,-3.040769814345630
Bronzewing pigeon and Dolphin,L20 5EE,53.460287483853600,-2.991730553670870
Linsang and Grosbeak,CH46 8SQ,53.407301866728300,-3.107818182626260
Linsang and Meadowlark,CH45 5AF,53.434117393493000,-3.041757535054260
Duck and Treepie,L30 5QS,53.491041240071600,-2.971678081239670
Macaw and Partridge,L8 8LA,53.389513314157600,-2.960401856116610
Armadillo and Grackle,L11 3BL,53.447046313598900,-2.922250283443840
Cloud rat and Kestrel,L31 5JN,53.500730477383600,-2.943722661780580
Grouse and Hawaiian honeycreeper,L3 6LX,53.414857000000000,-2.986410071017270
Wader and Egret,L33 1UJ,53.492989684918900,-2.881539638424600
Viscacha and Polecat,L33 4EU,53.501779186999300,-2.885385564542270
Thrasher and Marmoset,L20 4JB,53.455375301373600,-3.001226000000000
Herring gull and Marsh harrier,L21 5HQ,53.472639129484500,-2.987272771471160
Quetzal and American sparrow,CH44 7BT,53.406579010119600,-3.020505905252770
Egret and Grackle,CH46 6JT,53.400490959763000,-3.133375942953640
Fox and Pitohui,L9 8AA,53.461543596047700,-2.962343498721690
Mink and Badger,L36 3RD,53.420923541456500,-2.854767791690400
Black jay and White ibis,L20 5DB,53.458545045239100,-2.996961319901740
Elephant and Scimitar babbler,L4 5SQ,53.440158294969400,-2.963561217290200
Parrotbill and Parrotbill,L20 4UN,53.455175130590300,-2.997109000000000
Buzzard and Goose,L2 3PH,53.407906448526800,-2.990977778854450
Myna and Hawaiian honeycreeper,L31 5NP,53.503543758368700,-2.942609160683420
Wader and Condor,L25 2NS,53.395142939254900,-2.858612135009320
Snipe and Prion,L32 5ST,53.478661180486600,-2.896099640362610
Tree warbler and White ibis,L12 5EW,53.436026258741600,-2.914033485007540
Mole and Kestrel,L8 7PP,53.398607863513300,-2.967359587656910
B and Night heron,CH44 1ED,53.422819890297200,-3.031218170698530
Kangaroo and Wallaby,L7 0LP,53.411801166015300,-2.938382389628330
Tit-tyrant and Elephant,L37 2FS,53.551919388128300,-3.073917440208200
Ice seal and Fulmarine petrel,L23 9UJ,53.493735756144300,-3.000258847430340
Partridge and Goose,L14 5NS,53.414630688584100,-2.891728518398130
Kestrel and Coati,CH45 5EP,53.431038762290800,-3.043292732255070
Vole and Kite,L11 8LH,53.437946746887800,-2.928420897828700
Marmoset and Gull,L9 6AH,53.452726971676600,-2.937296805535780
Jerboa and Lemming,L1 3DD,53.404712000000000,-2.983966191355760
Songlark and Lemming,L12 7HA,53.430598215261100,-2.922059639144540
Armadillo and Diving bird,L32 5SR,53.478861445024200,-2.896962746587450
Polecat and Logrunners,L3 5SX,53.404896886486200,-2.976587721187960
Rabbit and Ibex,L31 1HD,53.486268267141500,-2.926401621596540
Pheasant and Duck,L7 3RH,53.401358000000000,-2.957510000000000
Vole and Tree warbler,L31 1BQ,53.486274118651100,-2.911617278855190
Bronzewing pigeon and Gull,L15 9HQ,53.392264441203100,-2.912208135533970
Meadowlark and Scimitar babbler,L33 6YG,53.484424461485500,-2.873601256756090
Treepie and White ibis,CH44 5TY,53.419151034937200,-3.040699405439370
Goose and Perching duck,L13 4AB,53.408902303961400,-2.911104954919930
Boto and Fox,L36 4QS,53.409180048371600,-2.847777751003800
Chicken and Quetzal,L14 7PD,53.412321177335500,-2.883179984824710
Thrasher and Rat,L20 4DG,53.448144842167500,-3.000195960997960
Eagle and Mink,L3 5NF,53.409085186278700,-2.976653592539360
Goose and Chipmunk,L69 7ZA,53.403758222268100,-2.965175070323820
Night heron and Stilt,L22 5PL,53.474878034127000,-3.029783256961250
American sparrow and Linsang,L11 4SA,53.449664631943200,-2.901903641782180
Masked owl and Partridge,L36 4JX,53.413384990531500,-2.863086895487900
Warbler and Old World warbler,L32 3YJ,53.470034904661800,-2.886065341853170
Ground sloth and Lemming,L21 8JF,53.462933823271000,-2.995618157485560
Marsh harrier and Mouse,CH44 0EU,53.423842986151600,-3.031408473565690
Gull and Thrasher,L18 2DT,53.389177711073100,-2.906774097451820
Badger and Armadillo,CH45 2NJ,53.437855681278500,-3.056210363860580
Grackle and Dolphin,CH43 9SJ,53.387416605410500,-3.078537630904820
Masked owl and Zebra,L22 5NP,53.476236497835000,-3.029650416020540
Lemming and Stilt,L9 9DA,53.467668198518400,-2.945052711738390
Tahr and Stint,L16 5HH,53.396007302853800,-2.929237042653640
Buzzard and Magpie,L36 2QT,53.415683128357600,-2.857265589464270
Hawaiian honeycreeper and Black jay,L21 9HD,53.472416516316300,-2.998913620994210
Jerboa and Duck,CH43 7ZR,53.398638612368800,-3.083092829552850
Prion and Petrel,CH41 6AU,53.394221376618300,-3.015158000000000
Siskin and Booted eagles,L15 4NN,53.399516964524800,-2.926410779010530
Tattler and Chickadee,L11 9AU,53.451971000000000,-2.906124000000000
Jay and Fox,L12 2AE,53.421890077492000,-2.901782045746400
Moluccan boobook and Tahr,CH47 9RW,53.397837145370800,-3.146766069335310
Civet and Puffleg,L5 6QR,53.425412356064300,-2.959615797599440
Snipe and Tahr,L5 0SZ,53.426008251185800,-2.969306079818900
Asiatic leopard and Magpie,L9 3BJ,53.460198018908600,-2.969783634081790
Tattler and Tree warbler,L38 1QE,53.525148868264200,-3.024983735766830
Magpie and Marmoset,L15 0ES,53.395499406029900,-2.931213000000000
Chipmunk and Linsang,L3 6DG,53.418252295708900,-2.988073000000000
Ice seal and Rat,CH45 1JW,53.427682028318400,-3.041675388473650
Goose and Grosbeak,CH44 2DQ,53.421840252906100,-3.063984453947540
Recurvebill and Chickadee,L20 9HG,53.455286021634700,-2.979099186894140
Vulture and Cuscus,L37 2LD,53.555064884226600,-3.073982018758200
Jackal and White ibis,L4 7XD,53.436379057698100,-2.951719145138780
Marsh harrier and Chipmunk,L11 4UD,53.448707074310900,-2.903720364772410
Lemming and Rabbit,L1 1LG,53.406965336704300,-2.982801000000000
Egret and Scimitar babbler,L9 4SH,53.468803874742200,-2.957084485286740
Meadowlark and Moluccan boobook,L14 2DE,53.419959820909600,-2.887070050053610
Triller and Marsh harrier,L3 4EU,53.398109000000000,-2.988915000000000
Lemming and Grackle,L13 2DW,53.414062821964200,-2.916857254865860
Petrel and Wallaby,L8 8AJ,53.391732332215000,-2.960557084738150
Darwin's finches and Petrel,L14 2DU,53.421388117255800,-2.881125805552930
Asiatic leopard and Snipe,L37 4BX,53.552088750795100,-3.059974511208430
Ibex and Warbler,L22 0NN,53.476828398024500,-3.027721027933280
Asiatic leopard and Perching duck,CH41 4JJ,53.397998982662900,-3.037716579173450
Kangaroo and Capuchin,L13 4AE,53.408387610796200,-2.911409861744380
Macaw and Vulture,L1 8DG,53.399285355603300,-2.985876000000000
Partridge and Thrasher,L13 5XU,53.414799417132700,-2.911050484322010
Pitohui and Minke whale,L36 9AD,53.411033000000000,-2.851576000000000
Songlark and Shearwater,L12 0LR,53.440777559521500,-2.877387012427170
Marmoset and Marsh harrier,L37 2FP,53.546911521726800,-3.082016072589200
Condor and Skunk,L36 4JZ,53.413070753688400,-2.863035396946910
Mouse and Guillemot,L37 8BZ,53.557394258987100,-3.050566322945620
Logrunners and Masked owl,L37 5AG,53.551575000000000,-3.025185000000000
Songlark and Stint,L30 7PP,53.494519211588100,-2.970657225641990
Egret and Prion,L39 5EP,53.549333536953100,-2.912323343943040
Maya and Pratincole,L7 3QL,53.400815033220200,-2.952218609686370
Tattler and Rat,L11 5BG,53.448718810357100,-2.927978267681910
Vulture and White ibis,CH44 9EF,53.410199308358300,-3.031380000000000
White ibis and Dorcopsis,L3 7DX,53.419962683385100,-2.995499000000000
Vole and Mouse,L7 5QS,53.404988762182100,-2.946204739099500
Scimitar babbler and Capuchin,CH41 6LP,53.394356641954500,-3.020198372724080
Boto and Rabbit,CH41 3JP,53.395389872035100,-3.030433000000000
Treepie and Siskin,CH44 9DS,53.412439623443600,-3.028905846231390
Warbler and Prion,L1 4EZ,53.402903813193800,-2.977384384940200
Civet and Boto,L22 4QZ,53.480057519497100,-3.021183906099150
New World blackbird and B,CH46 8UA,53.406528762549300,-3.102969332322480
Eagle and Rat,L31 3HA,53.508336351836200,-2.930939092476220
Egret and Crow,L23 3DF,53.486227878054700,-3.028053784813330
Rabbit and Macaw,L10 1LX,53.470354692003800,-2.922198250635020
Crow and Grackle,CH45 3HB,53.428028073217200,-3.067735000000000
Logrunners and Myna,L8 8BJ,53.389394329288800,-2.961782546366160
Armadillo and Logrunners,CH27 9DY,53.421734000000000,-3.043516000000000
Cloud rat and Bronzewing pigeon,L33 2AD,53.495169000000000,-2.896567000000000
Moluccan boobook and Grouse,L20 2DF,53.443695824123900,-2.983906406187320
Puffleg and Dorcopsis,L20 5ET,53.460122606180100,-2.989934374726500
Herring gull and Old World warbler,L5 0TB,53.427759386780200,-2.975034895035450
Greenbul and River dolphin,L39 5DT,53.545864416881100,-2.906347756792660
Triller and Marmoset,L23 9UT,53.498106158340600,-3.003256162259800
Marmoset and Mink,L37 8EA,53.556399015392800,-3.048231987182510
Greenbul and Parrotbill,L31 9BR,53.517052853190100,-2.933573455337120
Siskin and Fox,L15 5BE,53.391757245375600,-2.916227310205860
Dorcopsis and Ibex,L33 5XP,53.481891483755500,-2.873805008229470
Grouse and Meadowlark,L4 5SS,53.441919304813500,-2.963661294973970
Gull and Snipe,L3 8HR,53.409498598796100,-2.977761257845790
Myna and Old World quail,L8 8HG,53.390696414484200,-2.965285473727910
Snipe and Buzzard,L25 2YS,53.395850020308600,-2.861528855608950
Old World vulture and Puffleg,L13 9AX,53.431661471929500,-2.936742819427760
Stilt and Cuscus,L36 8JG,53.432787915191100,-2.852371841573640
Snipe and Armadillo,L31 8EN,53.514200024222900,-2.954488059575160
Stint and Chicken,CH45 3JG,53.427889907340200,-3.060944890907010
Stilt and Fish eagle,L38 5DA,53.527095000000000,-3.032905000000000
White ibis and Night heron,L6 7UF,53.418738348895500,-2.945501899977780
Mink and Eagle,L33 7HT,53.479711000000000,-2.862263000000000
Tit-tyrant and Macaw,L11 1AY,53.438981339041000,-2.923671313483840
Peafowl and Jackal,L23 6AD,53.484759501522900,-3.046027437993270
Mink and B,CH45 5BP,53.432744284230800,-3.046645960696620
Buzzard and Diving bird,L32 3XE,53.469870449983200,-2.886423474654970
Dorcopsis and Guillemot,L12 9JL,53.426972995053400,-2.894048702857770
Cloud rat and Tahr,CH49 4QH,53.389054527640800,-3.114531763610950
Logrunners and White ibis,L32 5TP,53.481083691542900,-2.896693185910310
Philippine hawk-owl and Black jay,CH44 5UL,53.417950441244000,-3.042310183809470
Treepie and Kangaroo,L30 0QH,53.492786623984000,-2.982480255440890
Asiatic leopard and Diving bird,L23 5RT,53.490340053312900,-3.029645427101320
Peafowl and Nukupuʻu,CH27 9ZW,53.415698000000000,-3.023252000000000
Jackal and Civet,CH41 5DL,53.391523526089900,-3.014055476600520
Shearwater and Nukupuʻu,L13 6RQ,53.418810680033200,-2.922466600043380
Old World vulture and Ground sloth,L7 0HP,53.411301002678200,-2.942538654871380
Boto and Solitaire,CH43 4XQ,53.389244299659800,-3.039713972716770
Kestrel and Viscacha,L33 8WX,53.486695103660600,-2.880655532118610
Parrotlet and Triller,L22 2BH,53.482168165687600,-3.036002720474450
Elephant and Kite,L14 9PH,53.419207550852800,-2.876957821853690
Old World vulture and Kestrel,L1 8JS,53.397752635635000,-2.985101940391190
Fulmarine petrel and Boto,CH44 1BX,53.422542612795400,-3.039231000000000
Songlark and Vole,CH45 2PE,53.437134000000000,-3.041240490841530
Moluccan boobook and Minke whale,L8 0RZ,53.391652082476900,-2.946976496808780
Jay and Partridge,CH49 6JW,53.392301319968600,-3.090992159184160
American sparrow and Puffleg,L5 1AJ,53.428872000000000,-2.965292000000000
Treepie and Triller,L4 4DA,53.437385000000000,-2.968722000000000
Kestrel and Parakeet,L33 5XA,53.480139881559200,-2.874869012372950
Mink and Pitohui,L20 3DQ,53.450123805035900,-2.984883197957050
Pratincole and Buzzard,L5 7UA,53.427118562576600,-2.985209048255600
Francolin and Night heron,L2 0RG,53.405788050981800,-2.993861809453650
Tahr and Rabbit,L6 4ES,53.427848851675400,-2.939202447372660
Eagle and Polecat,L4 4BB,53.436529462312100,-2.972104621724790
Asiatic leopard and Mockingbird,L7 5DB,53.406881000000000,-2.948074730144490
Jay and Herring gull,L21 1EJ,53.468165406994000,-3.017056000000000
Marmoset and Crow,L13 5UD,53.416752275396100,-2.907210314560880
Perching duck and Elephant,L12 4XR,53.437163407144900,-2.892034753693680
Triller and Black cockatoo,L22 0NJ,53.476047713522800,-3.025472193322140
Diving bird and Myna,L30 0PF,53.491097079172500,-2.985711950098370
Kākāriki and Night heron,L5 2RE,53.423407643579500,-2.986116438365780
Ice seal and Wader,L23 7TE,53.492136377742400,-3.028769496146920
Duck and Bronzewing pigeon,L21 9PJ,53.473173790049300,-3.006148158005670
Warbler and Hawk,CH45 8NP,53.423374487796700,-3.072344733123800
Siskin and Quetzal,L9 2AS,53.455701060778500,-2.955600001979570
Perching duck and Herring gull,L4 7TW,53.434698228501100,-2.946051908211050
White ibis and Rat,L6 4DL,53.425789380409000,-2.942753855158280
River dolphin and Zebra,L23 5RF,53.490688917961700,-3.027754741586330
Tit-tyrant and Scimitar babbler,L4 5PP,53.445599944435000,-2.968698197520220
Piping shrike and Vulture,L9 0EL,53.465807596028500,-2.951835183715030
Hawaiian honeycreeper and Cloud rat,L32 9PA,53.476681314944100,-2.884350557690330
Darwin's finches and Recurvebill,L15 4LP,53.399213463698500,-2.923712000000000
Philippine hawk-owl and Bunting,L20 9DX,53.458031152805500,-2.979764791735410
Pitohui and Coati,L12 9HB,53.425748587184400,-2.893104993067630
Ice seal and Capuchin,CH43 6WB,53.388854000000000,-3.059628000000000
American sparrow and Meadowlark,CH41 4HQ,53.395633220145100,-3.033763929858400
Polecat and Polecat,CH41 8HX,53.402255118152100,-3.055674158142310
Jackal and River dolphin,L23 8SP,53.496529712351800,-3.045593609700110
Maya and Rabbit,CH44 3BZ,53.415926691211500,-3.049633269239350
Wallaby and Herring gull,L17 2AX,53.391726650173600,-2.934091084307880
Philippine hawk-owl and Rabbit,CH41 3QB,53.396059524640600,-3.022885984105160
Recurvebill and Civet,L20 6PB,53.468583416126600,-2.969929630988220
Night heron and Ice seal,CH45 5JA,53.428743099168600,-3.047796838941750
Siskin and Dorcopsis,CH41 4HE,53.399799000000000,-3.031237206246410
Civet and Bronzewing pigeon,CH41 4HN,53.396300470266400,-3.032486737982970
Kākāriki and Bronzewing pigeon,L1 3HJ,53.402067000000000,-2.986209000000000
Ibex and Herring gull,L15 4HL,53.402027446833100,-2.923757942617710
Old World quail and Kangaroo,L4 4AR,53.437989000000000,-2.971878096770360
Kestrel and Parakeet,L13 9BJ,53.432305294395000,-2.925648804551880
Snipe and Zebra,L15 8LP,53.400698341354500,-2.913080433145210
Kākāriki and Lemming,L31 3EP,53.511019000000000,-2.934074000000000
Treepie and Philippine hawk-owl,L4 4EG,53.441577045702000,-2.969193000000000
Herring gull and Grackle,L33 1TA,53.496832000000000,-2.873796000000000
Civet and Booted eagles,L2 4TQ,53.407049168633000,-2.990295962046910
Polecat and Pheasant,L15 4PW,53.404766552917600,-2.919425032851400
Partridge and Grosbeak,L30 3RU,53.486343708067500,-2.980040540015830
Mamo and Polecat,L15 7LB,53.400639035566200,-2.903152418591440
Kangaroo and Minke whale,L30 1QS,53.477986306241800,-2.969857834765390
Warbler and Jerboa,L25 1RE,53.397484341616600,-2.874119742602750
Booted eagles and Old World quail,L8 8BH,53.389038833685100,-2.961278326246380
Goose and Meadowlark,L7 7ER,53.399791792607200,-2.965461290061640
Jackal and Eagle,L10 2JW,53.482178814674300,-2.944712217890490
Duck and Parrotlet,L23 3DS,53.487393930730000,-3.033419000000000
Greenbul and Masked owl,L9 2DF,53.461534897452100,-2.958954328528920
Moluccan boobook and Prion,L6 2EP,53.417681544293800,-2.966348076893220
Condor and Quetzal,L12 4YT,53.437353004952900,-2.888305466792610
Fox and Thicketbird,L20 4QD,53.460998603126900,-3.004519675422260
Old World quail and Piping shrike,CH43 4YH,53.387324014522700,-3.037261409345310
Civet and Thrasher,CH45 6UN,53.428289832835500,-3.053339311198100
Wallaby and Grouse,L9 1AW,53.454477469748300,-2.964683585467540
Mockingbird and Petrel,L9 1JR,53.454066390594400,-2.954313358297040
Tree warbler and Rat,CH44 9AZ,53.412861853192200,-3.033098547667170
Gull and Condor,CH41 7EL,53.406663000000000,-3.063485000000000
Moluccan boobook and Old World vulture,L25 3NW,53.388610475907300,-2.852000025971560
Philippine hawk-owl and Rat,L36 4LB,53.410676980163100,-2.864656809601950
Thicketbird and Prion,L30 2RL,53.489272102618500,-2.981374112755170
Herring gull and Partridge,L8 7NR,53.398041704588200,-2.965120871353030
Rat and River dolphin,CH44 2EP,53.416750726604600,-3.060140906370120
Capuchin and Kestrel,L30 7PR,53.488782622217400,-2.957504199912440
Scimitar babbler and Black jay,L30 5QJ,53.490872511717000,-2.973633650111160
Diving bird and Jay,L9 0LH,53.471725981018100,-2.951365017568970
River dolphin and Logrunners,CH46 6HL,53.397873291631100,-3.127876981939030
Lemming and Recurvebill,L18 1LN,53.388405631486900,-2.913719450501020
Masked owl and Booted eagles,L15 8LL,53.401097023110200,-2.915014179557940
Greenbul and Hawk,L3 9LP,53.409273000000000,-2.992213000000000
Vole and Perching duck,CH46 8TT,53.402906949250000,-3.106771401013880
Cuscus and Triller,L7 3HT,53.404000739146400,-2.951763302120270
Partridge and Flameback,L9 9DN,53.467342276659500,-2.943072067753190
Francolin and Parrotbill,L21 9JH,53.474326797373600,-3.005859039247870
Grouse and Scimitar babbler,L31 5LB,53.500384785479300,-2.941966183670900
Greenbul and Maya,L8 0ST,53.393376935939600,-2.947105023610900
Dorcopsis and Warbler,L1 7BR,53.397566963078300,-2.974870771855330
Darwin's finches and Nukupuʻu,L20 4QA,53.462640195957200,-3.002781057191750
Kestrel and Wader,L39 5BA,53.555892645012000,-2.903195828552250
Pheasant and Condor,L5 8UX,53.421063926194200,-2.984737982479240
Guillemot and Marsh harrier,L16 0JW,53.394555352092700,-2.883397000000000
Cloud rat and Chicken,CH43 7ZT,53.396638623566600,-3.080921000000000
Black cockatoo and Pratincole,CH44 8BA,53.422104532998400,-3.029741174788030
Old World quail and Old World vulture,CH44 1BH,53.420874950451200,-3.038860534672400
Skunk and Logrunners,L22 1RA,53.472019596093400,-3.025601045282430
Quetzal and Black cockatoo,L38 9GG,53.516637500356800,-3.058893165597620
Fulmarine petrel and Prion,L5 5EH,53.426537503976400,-2.978257671783410
Wallaby and Puffleg,L33 4JB,53.499523749705400,-2.886786000000000
Booted eagles and Prion,CH43 9XQ,53.391600986067200,-3.083996811919270
American sparrow and Capuchin,L31 3ER,53.512784343692800,-2.925336278985330
Stint and Linsang,L6 1JX,53.413075376834100,-2.959022040628410
B and Asiatic leopard,L30 2NA,53.474881115684500,-2.976192000000000
Booted eagles and Prion,L11 2TD,53.442208702903000,-2.910748686485230
Bunting and Chickadee,L5 5AA,53.424529000000000,-2.979791000000000
Polecat and Petrel,L9 6ER,53.453653000000000,-2.936134550556960
Fulmarine petrel and Old World quail,L9 8EY,53.467113071669800,-2.966130078950220
Francolin and Myna,L30 7PU,53.493806727373500,-2.969842051834540
American sparrow and Egret,L31 6BR,53.515939000000000,-2.938239000000000
Pitohui and Piping shrike,L14 4DL,53.430232371673700,-2.876341959544430
Logrunners and Nukupuʻu,L6 9BB,53.412466500549600,-2.954239152122260
Scimitar babbler and Mouse,CH46 8SD,53.406726000000000,-3.113775000000000
Parakeet and Myna,L3 4EY,53.398478348159400,-2.988653072842320
Skunk and Diving bird,L31 6ER,53.512146703869900,-2.940236515848680
Parrotbill and Grouse,L23 9XJ,53.495348309496200,-3.008391623547250
Jackal and Crow,L7 2QA,53.409968731762100,-2.947323227921280
Kestrel and Snipe,L18 2EL,53.387929983372700,-2.904176411107760
Prion and Parrotlet,L10 0AP,53.470338273499500,-2.912631513512320
Vulture and Egret,L31 5JH,53.498724723919300,-2.942743440194610
Pratincole and Marsh harrier,CH46 6HU,53.400233484210700,-3.132090640920460
Skunk and Snipe,L13 4AH,53.406676243064500,-2.914216333067130
Jay and Tattler,L13 2BW,53.412137020390800,-2.919478717290700
Eagle and White ibis,L36 2PW,53.413859037942900,-2.848367318585280
Francolin and Siskin,L30 5RH,53.486696927638200,-2.969800379771270
Diving bird and Rat,L9 9DU,53.468035557643200,-2.940647010111960
Partridge and Triller,CH41 8DD,53.401292000000000,-3.055951000000000
Civet and Chipmunk,L72 1LR,53.473053606396800,-2.960690550684020
Wallaby and Diving bird,L38 9EH,53.523304799443500,-3.059165074261800
American sparrow and Triller,CH47 8XX,53.408066000000000,-3.143183531756560
B and Kangaroo,L17 1AR,53.389154495617800,-2.934260303757360
Kangaroo and Vulture,L71 2AA,53.472104672784500,-2.973535353713260
Wallaby and Parakeet,L36 4JR,53.411993187252800,-2.864126867146630
Hawk and Dorcopsis,L16 7PL,53.396864726604900,-2.891056175377640
Linsang and Masked owl,L33 5XF,53.483683025949700,-2.869727769341790
Bronzewing pigeon and Peafowl,L20 7EF,53.443401741643400,-2.992993657820770
Booted eagles and Buzzard,L10 9LD,53.468758495001200,-2.927511578707260
Dorcopsis and Jay,L16 3NR,53.403620447682200,-2.885541748195610
Peafowl and Triller,L13 4BD,53.406754997003500,-2.906245400645740
Mamo and Capuchin,L14 8XJ,53.427845286363500,-2.869655759457830
Duck and Herring gull,L1 9EH,53.401456175851800,-2.973034462489990
Thrasher and Coati,L9 1JZ,53.449752274654000,-2.968762588090400
Mouse and Asiatic leopard,L6 4BD,53.423529000000000,-2.940010000000000
Kite and Snipe,L13 3AN,53.415301418209500,-2.929883400493170
Ice seal and Tahr,CH46 0PX,53.393661070758600,-3.118516000000000
Goose and Old World vulture,L36 4NJ,53.413523951767200,-2.865000426877200
Booted eagles and Tree warbler,L11 2AR,53.443998655367900,-2.917440000000000
Solitaire and Wallaby,CH44 1AX,53.418491493501000,-3.036951643028300
Parrotbill and Meadowlark,L6 2JA,53.418489141037500,-2.959836042681140
Pratincole and White ibis,L2 0XR,53.406110987610700,-2.992861487041390
Perching duck and Parrotlet,L20 6PF,53.466359000000000,-2.994614000000000
Flameback and Fulmarine petrel,L2 9QF,53.405854000000000,-2.989154000000000
Lemming and Meadowlark,L4 6RW,53.447211897220600,-2.966114956757190
Maya and Ice seal,L1 0AX,53.395989000000000,-2.982128000000000
Shearwater and Fox,L15 8HN,53.398052226386700,-2.918062000000000
Snipe and Old World warbler,L37 4EH,53.553088040037700,-3.052678547268040
Jerboa and Tahr,L37 3NG,53.560366000000000,-3.057222000000000
Mouse and Flameback,L3 9NA,53.409208585092800,-2.992211544506450
Moluccan boobook and Zebra,L16 3NA,53.404302100681100,-2.877222760151040
Buzzard and Hawaiian honeycreeper,L13 0AJ,53.434131112042300,-2.927825927637810
Thrasher and Tit-tyrant,L20 3TZ,53.452768217835900,-2.986856894659220
White ibis and Warbler,L30 6UR,53.479146000000000,-2.957739000000000
Condor and Night heron,L37 8DG,53.558001036775700,-3.049026423358390
Skunk and Siskin,L11 6NF,53.456589065016100,-2.894324487412120
Pitohui and Petrel,L5 2BD,53.422667143430100,-2.988702670581660
White ibis and Logrunners,CH46 6BD,53.402657239200000,-3.117820839000000
Masked owl and Badger,L30 2RW,53.488739000000000,-2.983969000000000
Jackal and Zebra,L2 1TL,53.405148172976800,-2.986371000000000
Zebra and Nukupuʻu,L15 0HF,53.396780558555200,-2.932667788581450
Kangaroo and Night heron,CH41 6AF,53.391986863013400,-3.018651000000000
Condor and Mamo,L17 3AD,53.388178870128100,-2.944012443886620
Vole and Eagle,CH43 7NT,53.390851116867000,-3.072474224425690
Francolin and Tit-tyrant,L20 5AL,53.459089080151300,-2.988825915296970
Treepie and Bunting,L30 1SL,53.473053606396800,-2.960690550684020
Ground sloth and Fox,L1 5EY,53.396878416383100,-2.977865000000000
Pratincole and Civet,L10 9LZ,53.465327076040800,-2.922571275190350
Tree warbler and Snipe,CH45 6UX,53.426787546956600,-3.059562938870390
Magpie and Jay,L4 4DW,53.439069736595200,-2.969227056122780
Grosbeak and Marsh harrier,L33 4ES,53.500949895236300,-2.885699951751980
Cloud rat and Piping shrike,L10 1LU,53.471467021864400,-2.922493551923360
Wader and Cuscus,CH49 4RX,53.394602095568200,-3.106795000000000
Mouse and Mole,CH49 4GD,53.395501999595300,-3.092893753621270
Night heron and Wallaby,CH46 3RT,53.415571902671400,-3.112097000000000
Bronzewing pigeon and Gull,L16 5EN,53.400372154032100,-2.888407160539040
Thrasher and Night heron,L30 2RQ,53.488876802304700,-2.983535326685510
Tahr and Triller,L13 1UY,53.395999000000000,-2.929312000000000
Triller and Logrunners,CH45 0JN,53.431704924943300,-3.057487727773040
Ibex and Old World warbler,L7 4JG,53.397765296570200,-2.947682000000000
Quetzal and Hawaiian honeycreeper,CH46 6AR,53.402633106654000,-3.115909522022400
Goose and Fulmarine petrel,L6 4DF,53.425429475552700,-2.940518591683230
Francolin and Old World quail,L4 4DF,53.437725684793600,-2.968699689503530
Jay and Tit-tyrant,L12 0PG,53.452858645271600,-2.883463883839870
Polecat and Badger,CH45 5EZ,53.429919000000000,-3.047088000000000
Polecat and Badger,CH44 7DX,53.408878599199300,-3.023840460034950
Old World quail and Mamo,L4 6TG,53.445375609280900,-2.961977941245900
Mamo and Cuscus,L3 5GF,53.406066000000000,-2.977728000000000
Old World quail and Greenbul,L32 0TP,53.484057000000000,-2.899520348360250
Chicken and Scimitar babbler,L12 5NH,53.441105000000000,-2.907209217990910
Mole and Scimitar babbler,CH41 8HG,53.400675000000000,-3.051454000000000
Masked owl and Triller,L15 1EJ,53.399530160907200,-2.931645040111090
Boto and Thicketbird,L15 2HW,53.396074715661900,-2.936712866096580
Darwin's finches and Chicken,L3 1DP,53.404673000000000,-2.997235000000000
Coati and Hawk,L7 6LQ,53.402032397688700,-2.950606322168910
Marmoset and Macaw,L11 9DR,53.453608000000000,-2.905918000000000
Rabbit and Masked owl,L21 1DT,53.466866680415400,-3.013335000000000
Wader and Egret,L22 8QF,53.476789034977800,-3.031245894392480
Pitohui and Meadowlark,L3 9NY,53.409453072020500,-2.993992000000000
Jerboa and Black cockatoo,L39 3LL,53.558000685447600,-2.906139227523570
Civet and Black jay,L12 5EG,53.435567574180100,-2.909357253249330
Shearwater and Stilt,L32 0TG,53.484327000000000,-2.895857000000000
Mouse and Viscacha,CH41 0AU,53.398174415041000,-3.056655997509450
Scimitar babbler and Partridge,L8 6SL,53.390171721543400,-2.972340945485040
Tree warbler and Cuscus,L31 1JD,53.519068654393300,-2.918188425776310
Civet and Bunting,CH43 7YW,53.403126373938400,-3.082845837752270
Myna and Warbler,L20 3PQ,53.451230340934400,-2.990209394528060
Old World warbler and Magpie,CH49 4NG,53.390159146879100,-3.107884155590660
Black jay and Parakeet,L6 2PE,53.417051368413400,-2.964242338224850
Civet and Perching duck,L11 7BJ,53.445695009766300,-2.936494530127850
Diving bird and Rat,CH49 4RG,53.392437828337300,-3.103522205559340
Stilt and Tit-tyrant,L1 5AJ,53.400055000000000,-2.977319000000000
Coati and Badger,L1 4BH,53.401663567600700,-2.978453943918040
Meadowlark and Mockingbird,L38 9EF,53.517582813319100,-3.057710174079980
Wallaby and Buzzard,L7 7JE,53.403105000000000,-2.968304000000000
Marsh harrier and Wallaby,CH44 4SB,53.416077823059300,-3.022900010607660
Logrunners and Coati,L15 7JH,53.403566536013600,-2.910629921447930
Wader and Grackle,CH44 4DX,53.411691326770500,-3.041210000000000
Badger and Elephant,L8 0SN,53.393161717005000,-2.947040092472850
Solitaire and Ground sloth,L10 1LS,53.470926005509500,-2.921412000000000
Quetzal and Vole,CH44 6LZ,53.410117376318100,-3.018785341153470
Prion and Mouse,L12 4ZG,53.433747000000000,-2.885054000000000
Diving bird and Kangaroo,L3 4AB,53.399633000000000,-2.993718000000000
Solitaire and Thicketbird,L6 9AF,53.415014000000000,-2.957154000000000
Vole and Chipmunk,L5 7RN,53.432504784768400,-2.986071189141350
Parrotbill and Snipe,CH27 9ZZ,53.415697271202700,-3.023251979394600
Grouse and Maya,L4 1AD,53.431526000000000,-2.982776836588070
Lemming and Ibex,L4 0RF,53.430763762353300,-2.968150003380240
Bronzewing pigeon and Recurvebill,L2 2NZ,53.408326464845200,-2.992356487480700
Stint and Civet,L20 9JP,53.450963952213900,-2.977810138636140
Magpie and Black jay,CH46 0TN,53.394461081969100,-3.112161604054570
Night heron and Thicketbird,CH44 3DT,53.416043399188700,-3.056783063241920
Skunk and Viscacha,L4 0RP,53.431950000000000,-2.962743000000000
Masked owl and Coati,L8 0SE,53.392636239230600,-2.944156214611030
Rat and Jackal,CH45 9JB,53.433042179848300,-3.050596943695250
Chickadee and Pratincole,L31 3EQ,53.509741585924800,-2.931708775644480
Siskin and Wader,L23 0SE,53.482727734351200,-3.012673399430720
Grosbeak and Masked owl,L37 3NP,53.558074500840600,-3.061075253261650
Ground sloth and New World blackbird,CH44 5RH,53.418994834871600,-3.048279366935780
Dolphin and New World blackbird,L4 9SD,53.443671461252100,-2.938919157320230
Fish eagle and Ground sloth,L20 7SF,53.445782553033600,-2.994223609186770
Chicken and Herring gull,L14 6UH,53.409340006433000,-2.882757166186650
Shearwater and Ibex,L13 4BN,53.409794811643700,-2.910762983039330
Condor and Minke whale,L4 9RW,53.444765547098500,-2.938207000000000
Argus and Parakeet,L9 6AB,53.450363912388200,-2.938313889191580
Black cockatoo and Dolphin,L1 0AN,53.397166000000000,-2.982186000000000
Skunk and Viscacha,L3 3BL,53.414568136280700,-2.976688972388050
River dolphin and Flameback,L3 2AJ,53.409526000000000,-2.985539000000000
Gull and Dorcopsis,CH45 5JL,53.431553498421700,-3.051222491522610
Pratincole and Coati,L16 5EH,53.401744210007900,-2.894858211501530
Black cockatoo and Mole,L32 1TA,53.484495685285200,-2.886351687370780
Rabbit and Masked owl,L1 3FN,53.404849388178700,-2.984558944805930
Grackle and Hawaiian honeycreeper,L38 1QG,53.524691569429300,-3.024852015691220
Kangaroo and Rabbit,L37 6EX,53.544173432986900,-3.066281557753670
Cuscus and Goose,L39 3LW,53.555454206927100,-2.908862349471140
Triller and Eagle,L20 7AP,53.448991664769000,-2.992400000000000
Thicketbird and Diving bird,L31 2LB,53.527980000000000,-2.945644925853510
Viscacha and Chicken,L32 0SR,53.483802534927100,-2.902100359281430
Goose and Rabbit,L4 3SU,53.442031808632400,-2.976370444081470
Buzzard and Night heron,L31 4JP,53.529668174013500,-2.949027728806300
Night heron and Peafowl,L12 9EZ,53.425970697601900,-2.892251831548280
Magpie and Black cockatoo,L20 3FF,53.446083071215600,-2.988388000000000
Parrotbill and New World blackbird,L16 9JN,53.391230224177000,-2.886021298881500
Cloud rat and Magpie,L7 8UX,53.411458029175900,-2.958940514126740
American sparrow and Zebra,L23 4TX,53.508700468295700,-3.028160000000000
Magpie and Prion,L4 4HS,53.431935000000000,-2.968978651279430
Petrel and Linsang,L36 8JE,53.431266771882500,-2.855171035880480
River dolphin and Dolphin,L21 8NS,53.463903051111200,-2.997960542583940
Piping shrike and Siskin,L30 2PJ,53.483661707061700,-2.990256426072140
Snipe and Prion,L15 6TT,53.394656214550200,-2.910935914505530
Viscacha and Cuscus,L11 3ED,53.451581336979700,-2.920481299601580
Pitohui and Night heron,L9 1ET,53.447911000000000,-2.969790000000000
Marsh harrier and Marsh harrier,L14 5PS,53.416580055767400,-2.893093371129010
New World blackbird and Songlark,L23 1UY,53.495422361625200,-2.996349121525390
Greenbul and Cloud rat,CH41 3PB,53.396563698916700,-3.025936002740230
Fish eagle and Wallaby,L23 8UA,53.500292409068700,-3.043952482570110
Chickadee and Wader,L37 1PS,53.557540770306500,-3.085487776268980
Darwin's finches and Grouse,L20 5AP,53.455856466678100,-2.990588128543230
Treepie and Piping shrike,L20 1AS,53.451225838123700,-3.003671591609850
Jay and Grouse,L32 7RW,53.468464317369100,-2.888156710667020
Stilt and Grouse,L2 5AB,53.407632000000000,-2.988323000000000
Pratincole and Zebra,L11 2UG,53.441909052544200,-2.908785113402170
Coati and Vole,L9 8BA,53.462527798663300,-2.972894425702710
Fulmarine petrel and White ibis,L9 3BP,53.462097246942300,-2.969465433321070
Old World warbler and Hawaiian honeycreeper,CH43 7ZF,53.400356906088000,-3.079962900292340
Night heron and Pitohui,L30 5QL,53.489590390354600,-2.972127214848990
Bunting and Peafowl,L10 3JL,53.487710801510600,-2.946493026852990
Tree warbler and Moluccan boobook,L33 2DX,53.491537885204300,-2.893055166384450
Perching duck and Stilt,CH49 6NL,53.387859277946700,-3.106771883290370
Civet and Booted eagles,L13 1EZ,53.406744448446100,-2.915872491092910
Maya and Piping shrike,L15 6XT,53.399101924854100,-2.897194111956600
Tree warbler and Stilt,L23 7TQ,53.491918707094000,-3.027815000000000
Buzzard and Elephant,L33 4HU,53.497933288219000,-2.891260005162170
Partridge and Maya,L32 0TE,53.482853000000000,-2.901839000000000
Petrel and Booted eagles,L4 5TJ,53.443787825102600,-2.968250453776450
Tit-tyrant and Cloud rat,L9 1AF,53.453575111558400,-2.962781000000000
Goose and Towhee,CH45 7QU,53.429077758924000,-3.035192557287470
Night heron and Mink,L13 8AA,53.424308497848900,-2.934459229061880
Asiatic leopard and Capuchin,L14 5PQ,53.415117150442300,-2.896387792538200
Kangaroo and Piping shrike,L34 9HQ,53.461064494178500,-2.852667170417500
Greenbul and Marsh harrier,L7 2QR,53.410143000000000,-2.950366000000000
Hawk and Towhee,L1 1RQ,53.408290986563100,-2.977222000000000
Zebra and Logrunners,L40 6HB,53.557983998199700,-2.860955795750650
Grackle and Mink,CH46 4TD,53.410409000000000,-3.115993000000000
Marsh harrier and Badger,L15 6DA,53.398094873131800,-2.916167966526150
Towhee and Quetzal,L4 2QG,53.427380886029300,-2.956258840189940
Meadowlark and Cloud rat,L14 0LY,53.418494237247700,-2.871255456821790
Stilt and Parrotbill,L36 9UE,53.411835769833900,-2.848477487142360
Tahr and Philippine hawk-owl,L13 6RX,53.421151586367600,-2.913789575334910
Elephant and Towhee,L15 1EU,53.399402280100200,-2.936500203867750
Tree warbler and Songlark,L14 9PY,53.424270597483000,-2.874187720771140
Wallaby and Maya,L15 3JF,53.393535090796400,-2.928115474935540
Petrel and Polecat,L14 2HA,53.423247529474800,-2.869035202856520
Minke whale and Goose,L32 7PJ,53.468448539490400,-2.873227507469960
Pratincole and Dolphin,L36 3RF,53.421078625673800,-2.863197602639800
Pratincole and Puffleg,L9 8AB,53.461716660243500,-2.964290433787900
Peafowl and Masked owl,CH41 8DE,53.398415976700900,-3.049653378049410
Fulmarine petrel and Jay,L39 9EE,53.545276554733300,-2.876695023559830
Songlark and Night heron,L15 6ST,53.393398763291300,-2.911449000000000
Marmoset and White ibis,L3 5UF,53.408786000000000,-2.977105845630620
Hawk and Diving bird,L11 7AT,53.448741134335800,-2.933188662950950
Diving bird and Bunting,CH41 7EQ,53.405288191440300,-3.071393325726610
Old World vulture and Old World quail,L20 7BY,53.441898000000000,-2.988430929614980
Chicken and Pheasant,L9 6AD,53.455661159237200,-2.929906741506460
Ice seal and Philippine hawk-owl,L25 1PG,53.391971000000000,-2.873480000000000
Marmoset and Rabbit,L6 1PQ,53.412491000000000,-2.959204000000000
Zebra and Gull,L2 0PJ,53.405598356204600,-2.991994000000000
Macaw and Cuscus,CH41 7DJ,53.405708627212500,-3.072622336915260
Fish eagle and Old World warbler,CH45 0ND,53.434040045569500,-3.053647114138990
Ibex and Flameback,L12 0RH,53.439856041831300,-2.876344698042270
Kākāriki and Prion,L11 9BF,53.453197224183400,-2.905035878914910
Piping shrike and Linsang,L13 5TX,53.416363073013400,-2.907563134133320
Snipe and Gull,L23 9TT,53.490227688084600,-3.004833625151120
White ibis and Quetzal,L31 5LN,53.498145824783900,-2.940921587865080
Marmoset and B,CH45 1JQ,53.431375000000000,-3.040953000000000
Dorcopsis and Scimitar babbler,L36 2QD,53.415238282571800,-2.851072000000000
Coati and Viscacha,L23 2TD,53.492430918470200,-3.026922630553110
Snipe and Kestrel,L8 0UX,53.397203897388000,-2.954168284284510
Vole and Buzzard,CH41 1LU,53.394992353846000,-3.015220741980660
Ibex and Lemming,L3 6HU,53.412872245972800,-2.991589725530320
B and Wader,L10 8JB,53.480346665565500,-2.935374090572010
Chipmunk and Chicken,L12 4BE,53.434489084794600,-2.892656092279080
Crow and Condor,CH41 6RY,53.391963581915300,-3.022532109790030
Cuscus and Myna,CH46 6AD,53.401202227895400,-3.113194774334250
Tit-tyrant and Tattler,L37 3HU,53.556355431745500,-3.066376178217250
Moluccan boobook and Dorcopsis,L9 0NT,53.472633317899500,-2.944635740280280
Mockingbird and Moluccan boobook,CH46 0RS,53.395784143469300,-3.120633037295510
Thrasher and Perching duck,L32 0RT,53.483664358425000,-2.906106012953150
Black jay and Mamo,L1 2SP,53.402504424132100,-2.975660524742880
Viscacha and Vulture,L2 3PS,53.408147000000000,-2.991374000000000
Jay and Grouse,L25 2SB,53.393346167274800,-2.867177638267610
Grouse and Argus,L4 9UU,53.448032355209500,-2.942177386757960
Dolphin and Darwin's finches,L13 5SL,53.413240463617200,-2.911558776366060
Parakeet and Darwin's finches,L31 7BG,53.502933745466900,-2.945867280119750
Meadowlark and Linsang,L12 0JY,53.448682870152400,-2.885349731614280
Ice seal and Herring gull,L1 6JZ,53.408063000000000,-2.984107000000000
Shearwater and Mamo,L4 5QA,53.445070257309200,-2.969725027593300
Warbler and River dolphin,L3 0BE,53.427886546465600,-2.998802132992950
Mole and Linsang,L8 0PY,53.389487886136200,-2.950101179482290
Dorcopsis and Magpie,L12 0NB,53.449709759710700,-2.878971518200590
Maya and Dorcopsis,L9 8BB,53.462174564977500,-2.972118167783450
Treepie and Linsang,CH46 1QG,53.415166275171600,-3.083437621474840
Peafowl and Towhee,L23 6XU,53.491251900686800,-3.046775076606400
Duck and Duck,L33 7XW,53.468510000000000,-2.869884000000000
Myna and B,CH43 7SH,53.400017000000000,-3.059798000000000
Ibex and Quetzal,L23 7WD,53.475517869943800,-3.027269000000000
Cuscus and Hawk,L3 6LY,53.414788549831100,-2.985962117351600
Kangaroo and Mole,L6 5ES,53.419505151025500,-2.950815540519440
Perching duck and Zebra,L1 8DB,53.398786000000000,-2.985231000000000
Polecat and Black cockatoo,L18 1LT,53.387623593579400,-2.912544931764810
Polecat and Skunk,L14 0PG,53.417580887661800,-2.867068913462480
Magpie and Stilt,L18 1DZ,53.388182243924200,-2.919398326476560
Philippine hawk-owl and Black jay,L6 2WE,53.419541436947200,-2.965336950593610
Vulture and Siskin,L20 6NE,53.467627223746600,-2.990063840434980
Egret and Guillemot,L30 9TB,53.472173364141200,-2.979427689913730
Petrel and Wallaby,CH46 0QQ,53.398809560407800,-3.105627276248690
Guillemot and Civet,CH44 0EP,53.424770000000000,-3.031386000000000
Linsang and Wader,CH43 9RD,53.388776248242700,-3.075294038512600
Magpie and Grackle,CH44 4AS,53.409154211748500,-3.039793386125590
Eagle and Goose,L39 4TU,53.557242105801900,-2.900658257661120
Linsang and Solitaire,L31 2NJ,53.524159656540100,-2.942011035654850
Diving bird and Kite,CH44 9AH,53.415164484718700,-3.031890521353360
Snipe and Cloud rat,L7 7EB,53.400198528865700,-2.969621661415850
Philippine hawk-owl and Ground sloth,L6 4DP,53.424604789124200,-2.937942050899550
Linsang and Wader,L13 1FA,53.408655000000000,-2.925646000000000
Kite and Egret,L3 6LP,53.411904501858900,-2.990137972747760
Grackle and Mink,L9 4RY,53.465776570061100,-2.957965374010320
Greenbul and Marsh harrier,L13 1BB,53.408013432765400,-2.919179160376450
Vulture and Skunk,L6 7UW,53.422768066694600,-2.938322967171840
Darwin's finches and Armadillo,CH44 6LB,53.412156848230700,-3.026251145518620
Polecat and Maya,L6 5HJ,53.418594949447500,-2.955398000000000
Chicken and Parrotbill,L37 3QG,53.561836188766500,-3.072673990214760
Darwin's finches and Egret,L10 6ND,53.481077035543100,-2.932783224998920
River dolphin and Rabbit,L37 3JZ,53.562763132346200,-3.047938000000000
Mouse and White ibis,L12 1LD,53.425864155931700,-2.911121569672490
Siskin and Myna,CH41 1AE,53.404543000000000,-3.038854000000000
Myna and Dolphin,L8 3SD,53.388552000000000,-2.946959614505080
Egret and Dorcopsis,L9 0NW,53.473026409679500,-2.941525779151620
Civet and Minke whale,L20 2HL,53.439882412631600,-2.984164531105530
Chicken and Pheasant,L31 8EX,53.515291395337500,-2.955146002551820
Stilt and Macaw,CH46 0QD,53.397788038518300,-3.104307368818550
Eagle and Wallaby,L4 1RQ,53.434344825116100,-2.984217178502150
Coati and Minke whale,L20 9HW,53.449066012702400,-2.980160711632590
Wallaby and Hawk,L31 2NB,53.525852868777100,-2.939303166394930
Grosbeak and Siskin,L22 5RN,53.468965622201000,-3.024292084009160
Rat and Eagle,L13 1HW,53.410369000000000,-2.919245000000000
Mouse and Greenbul,L32 9PR,53.475311259222500,-2.890906294716510
B and Old World warbler,L39 6TT,53.540452898883900,-2.905206005062560
Mole and Piping shrike,L31 1LN,53.488908000000000,-2.916103000000000
Tree warbler and Grackle,L9 8EX,53.465509577163300,-2.966560627088540
Bunting and Grosbeak,L30 0PY,53.493990329407600,-2.981483079944950
Darwin's finches and Guillemot,L32 0XJ,53.481723877887100,-2.897777000000000
Wallaby and Quetzal,CH43 4UJ,53.386743661149100,-3.039908632823120
Cloud rat and B,L32 8TJ,53.477803932608900,-2.874715469960780
Jay and Eagle,L4 6TX,53.444501461940900,-2.958901803258220
Parakeet and Bronzewing pigeon,CH46 6BH,53.399943377531800,-3.124743138641730
Bunting and Mamo,CH41 6EN,53.390934971478400,-3.025078819478680
Duck and Tit-tyrant,L38 3RA,53.523666677746200,-3.041510435139150
