name,postcode,lat,lon
Recurvebill and Myna,SA48 8LY,52.154551073484200,-4.042203711024090
Quetzal and Nukupuʻu,SA40 9UD,52.073903176418900,-4.162104094231270
Condor and Nukupuʻu,SY25 6PP,52.208393768825700,-3.950853712061370
Condor and Cuscus,SY23 4BQ,52.325017000000000,-3.929464000000000
Herring gull and Buzzard,SY25 6PT,52.196101084476500,-3.985403374003270
Herring gull and Eagle,SY23 1EW,52.415294673010600,-4.073555906818780
Masked owl and Hawk,SY23 3NY,52.412746608511700,-3.929352003944710
Warbler and Parrotlet,SY23 5AF,52.313049836889000,-4.073613532880790
Snipe and Moluccan boobook,SY23 4HL,52.313851249289700,-3.987809660880180
Night heron and Wallaby,SY25 6AD,52.300027155417000,-3.911834000000000
Petrel and Wader,SY23 3GL,52.415429995175200,-4.061710003030960
Coati and Maya,SA48 8RF,52.219295000000000,-4.166145000000000
Old World vulture and Wallaby,SA19 8HQ,52.087348816341000,-3.951275482412680
Tattler and Cloud rat,SY23 1QU,52.404816082705700,-4.075798792595960
Goose and Old World vulture,SA19 8PX,52.129220552924200,-3.937837223420750
Bunting and Solitaire,SY23 3RF,52.407530765852000,-4.060429957243080
Mole and Chickadee,SY23 4QU,52.377574000000000,-3.875749000000000
Zebra and Asiatic leopard,SY23 4PS,52.356213897644100,-4.024661597837000
Tree warbler and Boto,SY23 3UJ,52.405493508190400,-4.057042413578840
Fish eagle and Meadowlark,SY23 1QQ,52.412787228313000,-4.084731052545350
Cuscus and Booted eagles,SY25 6EN,52.281339000000000,-3.860935000000000
Lemming and Capuchin,SY23 2NP,52.415371605730300,-4.079412119813980
Lemming and American sparrow,SA48 8ET,52.098714000000000,-4.061727000000000
B and Black cockatoo,SY23 3FD,52.413589293372400,-4.064653227021620
Mink and Fish eagle,SY23 4SA,52.355939157578900,-4.022328781339110
Jackal and Parakeet,SA48 7BY,52.110235000000000,-4.081055000000000
Moluccan boobook and Hawk,SY23 1SD,52.398748052714100,-4.069060802202130
Mouse and Songlark,SY23 1ED,52.414567000000000,-4.071022000000000
Minke whale and Mamo,SY25 6HQ,52.219788916670900,-3.935951951509370
Ice seal and Old World vulture,SY23 4ER,52.316868388399100,-4.054233918006930
Puffleg and Tit-tyrant,SY23 4RL,52.361353520287600,-3.881303851168830
Armadillo and Moluccan boobook,SY23 4BX,52.378447000000000,-4.075193000000000
Perching duck and Mockingbird,SA48 8JT,52.103300054159200,-4.063720415370190
Towhee and Logrunners,SY25 6AW,52.272127187302700,-3.931123598492880
Black jay and Bronzewing pigeon,SA48 7DT,52.113115661934100,-4.078253331775250
Nukupuʻu and Meadowlark,SY25 6HU,52.220058503697000,-3.934865675044060
Piping shrike and Ice seal,SY23 1NL,52.415048936895400,-4.081396805636710
Cloud rat and Old World quail,SY23 4SB,52.351487764786900,-4.017103696470160
Recurvebill and Rat,SY23 1RB,52.403870337652500,-4.073843224029440
Meadowlark and Egret,SY23 1AT,52.408777195385000,-4.086247422670280
Black cockatoo and Condor,SA48 7BN,52.114164877122100,-4.084524149118160
Mockingbird and Booted eagles,SA48 7AN,52.111166212520100,-4.079170362133140
Songlark and Tree warbler,SY23 4DD,52.372188000000000,-4.080838365220120
Bronzewing pigeon and Magpie,SY23 4DE,52.372099196449000,-4.083768678438430
Prion and Jerboa,SY23 1RU,52.400854588863600,-4.071996527883210
Pheasant and Capuchin,SY23 5BE,52.305203000000000,-4.087812000000000
Petrel and Jackal,SY23 3RP,52.401718300704200,-4.066318527160500
Rat and Scimitar babbler,SA48 7JS,52.105204150028100,-4.132428000000000
Kestrel and Prion,SA48 7HE,52.112917743380300,-4.078258729126800
Condor and Vulture,SA40 9SY,52.092193727856400,-4.188375717530490
B and Polecat,SA48 8AJ,52.140456000000000,-4.092284000000000
Marsh harrier and Egret,SY23 1EZ,52.413400000000000,-4.074482000000000
Ground sloth and Vole,SY25 6DP,52.334366338834200,-3.846810400918270
Elephant and Armadillo,SA48 8QF,52.200109443795500,-4.090125409165450
Petrel and Jerboa,SA48 7AP,52.110483897920400,-4.079109398248330
Francolin and Pheasant,SA48 8EF,52.101768670707700,-4.075652178050840
Old World vulture and Boto,SY25 6QT,52.213424673039500,-3.961423213067980
Bunting and Wader,SY23 1PJ,52.411800860114100,-4.082537755862350
Songlark and Black jay,SY23 3GX,52.403993000000000,-4.043138000000000
Parakeet and Francolin,SY23 1LS,52.414556117894300,-4.079256104484980
Siskin and Maya,SY23 4NL,52.356837151878500,-4.031827231285430
Hawk and Fish eagle,SA20 0PH,52.099156424781000,-3.793290255059080
Mouse and Siskin,SY23 3SB,52.400237440723400,-4.063588617858000
Rat and Logrunners,SA48 7SB,52.115045010580600,-4.089662695680090
Polecat and Treepie,SY23 3QW,52.411033663356900,-4.065798332333800
Parakeet and Tit-tyrant,SY23 4UB,52.380008266568400,-4.073238764260310
Marsh harrier and Marmoset,SY23 1JR,52.412699837027400,-4.088153000317890
Goose and American sparrow,SA19 8QB,52.082553581543800,-3.990137241155540
Diving bird and Elephant,SY23 1LW,52.415195800838600,-4.079183271509390
Kestrel and Kite,SY23 5ED,52.294544000000000,-4.130793000000000
Warbler and Elephant,SY23 5HJ,52.283580625058700,-4.175954000000000
Diving bird and White ibis,SY23 3NG,52.404170950799100,-4.040044435091410
Prion and Argus,SY23 4NB,52.381504878496200,-3.995197358842470
Pratincole and Zebra,SY23 1QX,52.404380922472200,-4.076513425615350
Puffleg and Chickadee,SA48 7HG,52.112652600219100,-4.077486926704460
Perching duck and Mockingbird,SY23 5BT,52.303739000000000,-4.147340000000000
Solitaire and Badger,SA48 8PA,52.153501892026800,-4.059098461892270
Capuchin and Old World warbler,SY23 4TR,52.262896727823600,-4.015848985856920
Grosbeak and Rat,SY23 1LF,52.413706269600500,-4.082583442205680
Recurvebill and Elephant,SY25 6LW,52.258732069089600,-3.959348895598760
Stilt and Flameback,SA48 7DZ,52.115733629195700,-4.074606754466340
River dolphin and Mouse,SY25 6RB,52.254112749457800,-4.063654021025220
Warbler and Chickadee,SY25 6JU,52.218568742622900,-3.935240090836680
Parrotbill and Herring gull,SY23 1SZ,52.403349808429600,-4.076347380009490
Quetzal and Greenbul,SY23 1BG,52.410195998072400,-4.085843893547250
Hawk and Pitohui,SY23 2BJ,52.415385534741300,-4.084236031434650
Kangaroo and Maya,SY23 4DF,52.369387546207900,-4.086608338944410
Pheasant and Treepie,SY25 6UL,52.193452081170700,-3.973404595683280
Wader and Buzzard,SY23 3JR,52.389401000000000,-3.839467000000000
Badger and Greenbul,SY23 4QP,52.391092467227300,-4.068761397610990
Piping shrike and Songlark,SY23 5NF,52.245593263177800,-4.118689670478220
Ibex and Asiatic leopard,SY23 4TW,52.258199784753400,-4.003899025569930
Parakeet and Magpie,SA48 7NP,52.143979241310000,-4.146322464957880
Tit-tyrant and Grouse,SY25 6QA,52.188310794876700,-4.055410929076250
Moluccan boobook and Triller,SY23 4BH,52.322198929835000,-3.930148921147210
Kite and Mamo,SY23 4PU,52.392624123376800,-4.069612015060010
Towhee and Peafowl,SY23 2AZ,52.415760000000000,-4.086018000000000
Duck and Thrasher,SY23 3SL,52.407345000000000,-4.057731000000000
Hawk and Tattler,SA48 7DF,52.111597960714900,-4.079672414656110
Bunting and Tit-tyrant,SA48 8NU,52.141037356869900,-4.069980971644490
Songlark and Diving bird,SY23 3RN,52.405860037666500,-4.064453885697520
Goose and Solitaire,SY23 5BA,52.301952918116700,-4.130737945921310
Booted eagles and Herring gull,SA48 8RE,52.204420228803800,-4.141053794007690
Triller and Black cockatoo,SY23 2BQ,52.415212000000000,-4.087871000000000
Wader and Black jay,SY23 2AS,52.415179837836600,-4.086211502075580
Buzzard and Ibex,SY23 3TQ,52.406882443172300,-4.065119131769510
River dolphin and B,SA48 7ET,52.115922896852000,-4.079683898383030
Prion and Parrotlet,SY25 6NF,52.219624597902000,-3.930513000000000
Condor and Duck,SA48 8DS,52.099652673947200,-4.072239504384080
Towhee and Kangaroo,SY23 1HE,52.411356271969300,-4.068430666850270
Capuchin and Thrasher,SA48 7BQ,52.112783154445400,-4.079771406507080
Ground sloth and Logrunners,SA48 7NF,52.143019535865600,-4.163405383112820
Jerboa and River dolphin,SA19 8YA,52.074551671365900,-3.919635476085940
Kangaroo and Myna,SY23 5LA,52.277225697096700,-4.166287684334160
Lemming and Pitohui,SY23 5NB,52.256370636325500,-4.135365116923010
Cuscus and Cloud rat,SA48 7SH,52.204362910237800,-4.191177358170750
Solitaire and Thicketbird,SY23 4QE,52.371200000000000,-4.047324000000000
Parrotlet and Rat,SY23 3NZ,52.412983232898400,-3.927524347646970
Triller and Myna,SY23 1JW,52.412426262549200,-4.087860695181570
Vulture and Diving bird,SA48 7HZ,52.116583263030600,-4.076910212715320
Bunting and White ibis,SY23 5DP,52.330880158180700,-4.120709624460730
Vole and Moluccan boobook,SY23 4AU,52.335940947814400,-3.949124686544520
Songlark and Moluccan boobook,SY23 4SP,52.309354287535600,-4.043206000000000
Mamo and Bronzewing pigeon,SY23 5HT,52.281522726914600,-4.179047046549070
Scimitar babbler and Ground sloth,SY23 9BF,52.403479000000000,-4.043595000000000
Hawaiian honeycreeper and Peafowl,SY23 5NE,52.249256487681100,-4.136942510120930
Masked owl and Darwin's finches,SY25 6DG,52.326735437322400,-3.844907570756230
Asiatic leopard and Civet,SA48 8JW,52.106347656741900,-4.067862406913640
Black jay and Bunting,SY23 4UJ,52.373156327566200,-4.064015004923110
Wader and Pheasant,LD5 4RU,52.107206000000000,-3.635628000000000
River dolphin and Magpie,SY23 4EE,52.393176853346400,-4.000985625313630
Peafowl and Puffleg,SY23 2LJ,52.414457738474200,-4.086368570484280
Partridge and Asiatic leopard,SY23 5HF,52.280508995283600,-4.177457936360970
Perching duck and Parrotlet,SY23 4AD,52.351293741061100,-3.784437277046980
Minke whale and Stilt,SY23 1QH,52.413648233900700,-4.084345243908460
Piping shrike and Kākāriki,SA40 9TA,52.099415580049000,-4.184331000000000
Siskin and Hawaiian honeycreeper,SA48 7DA,52.109924080059300,-4.082296280689790
Egret and Snipe,SA48 8PG,52.167213233368500,-4.096420795448610
Chicken and Recurvebill,SA48 8JR,52.104604483254000,-4.065226303616400
Nukupuʻu and Maya,SY23 3RZ,52.399425017671400,-4.064800170978780
Diving bird and Eagle,SY23 1DU,52.413502215676400,-4.086853000000000
Kite and Mouse,SY23 5JQ,52.251622609318300,-4.178181529499950
Rabbit and Dorcopsis,SY23 1BT,52.408495415949000,-4.084381573119530
Dolphin and Logrunners,LD5 4RJ,52.106980782412100,-3.632961822493730
Capuchin and Tahr,SY23 4BF,52.389593000000000,-4.071612000000000
Civet and Black cockatoo,SY23 1SS,52.402458380500800,-4.072321611739060
Meadowlark and Grackle,SY25 6AY,52.295169245355400,-3.869888839178050
Myna and Pheasant,SA48 8BG,52.172640406385900,-4.146122799811180
Asiatic leopard and Rabbit,SA48 7HF,52.112683371720800,-4.078291640830470
Recurvebill and Masked owl,SA48 7JR,52.104402000000000,-4.117713000000000
Pheasant and Herring gull,SA48 8PF,52.167641416041900,-4.087491541367760
Mamo and Mamo,SY23 3NR,52.403991594051600,-3.962502719638550
Rabbit and Puffleg,SY25 6JL,52.219808000000000,-3.933252698186370
Fulmarine petrel and Cloud rat,SA19 8LX,52.089985774417100,-3.979169569050330
Parrotbill and Parakeet,SY23 3HP,52.412485540736900,-4.026606525594630
Cloud rat and Marmoset,LD5 4SA,52.109623009747900,-3.633700926431300
Kākāriki and Coati,SA48 8HL,52.104338204225700,-3.997736703977000
Jackal and Mouse,SA48 7HL,52.183594750051400,-4.155866389807620
Bunting and Hawk,SA19 8QL,52.097629429968500,-4.010474694965980
Kestrel and Treepie,SY23 3AE,52.393373188191200,-3.855622777799400
Cuscus and Kite,SY23 4BE,52.337863389344500,-3.918248000000000
Moluccan boobook and Goose,SY23 1RE,52.404465831989300,-4.074238697551660
Marmoset and Perching duck,LD6 5HS,52.316571587374900,-3.632011944644070
Skunk and Vole,SA40 9XT,52.074759000000000,-4.160102000000000
Warbler and Kite,SY25 6TL,52.218258204494100,-4.023415320457390
River dolphin and Egret,SY25 6QU,52.212656042995600,-3.996519870371640
Fulmarine petrel and Perching duck,SA40 9UH,52.075782772067100,-4.170892550858200
Civet and Vulture,SY18 6TA,52.413428459636300,-3.659405976771330
Kite and Treepie,SY25 6RR,52.179262504827400,-3.959963204782080
Dolphin and Pitohui,SY25 6TN,52.217936054618100,-4.022800451404200
Bronzewing pigeon and Cloud rat,SY23 4PH,52.349364959538800,-4.043304254613500
Snipe and Zebra,SY23 5BD,52.294372261507400,-4.097128453376090
Polecat and New World blackbird,SY23 1SJ,52.401199971161000,-4.069219658478170
Grouse and Darwin's finches,SY23 1PG,52.410370000000000,-4.081647000000000
