name,postcode,lat,lon
Snipe and Tree warbler,HS2 0PN,58.218040387247300,-6.245428625003160
Elephant and Peafowl,HS1 2GR,58.209136961194600,-6.378897534169520
American sparrow and Philippine hawk-owl,HS2 9JP,58.151834111580200,-6.502615249128280
Civet and Jackal,HS1 2EY,58.218645853276300,-6.385609714376600
Thicketbird and American sparrow,HS1 2TW,58.217341869473400,-6.376449996839930
Gull and Quetzal,HS1 2AH,58.220611000000000,-6.395287000000000
Partridge and Vulture,HS1 2TN,58.216167785189400,-6.374498771719880
Fulmarine petrel and Night heron,HS2 0TS,58.472893462983400,-6.217963433029340
American sparrow and Fox,HS2 0DE,58.213729022220300,-6.417312556669560
Siskin and Meadowlark,HS1 2PP,58.213614003166000,-6.371082635556990
Ground sloth and Myna,HS2 0RR,58.426649000000000,-6.429202000000000
Gull and Piping shrike,HS2 9DZ,58.210026000000000,-6.738037687279500
Kākāriki and Guillemot,HS2 0BF,58.204396000000000,-6.340271000000000
Recurvebill and Cuscus,HS1 2TR,58.219026815061200,-6.384208075572790
Civet and Parrotlet,HS2 9QB,58.085050000000000,-6.540167000000000
Jay and Ibex,HS2 0EW,58.227692000000000,-6.169842000000000
Mamo and Cuscus,HS2 0DR,58.227285875529000,-6.392473800902580
Philippine hawk-owl and Old World warbler,HS2 0PT,58.234315445855100,-6.199569573907360
Guillemot and Petrel,HS2 0TA,58.480760098822100,-6.268767002881180
Chicken and Fish eagle,HS3 3AR,57.952233084105200,-6.949017252195380
Tit-tyrant and Mink,HS2 0XJ,58.486314000000000,-6.236626000000000
Eagle and Magpie,HS2 9AP,58.281547960166300,-6.793113169653090
Chipmunk and Hawk,HS2 9LY,58.206992736561800,-6.797425497351340
Vulture and Buzzard,HS2 0GT,58.230641468125900,-6.386171835885110
Jay and Tree warbler,HS2 9DD,58.333951557565400,-6.636327297485660
Partridge and Recurvebill,HS2 9DU,58.169889043497800,-6.570417639978790
Vulture and Perching duck,HS2 9EX,58.176462000000000,-7.048687000000000
Nukupuʻu and B,HS1 2BG,58.208120230610400,-6.389370041752000
Diving bird and Jerboa,HS1 2BS,58.207525000000000,-6.385224000000000
Fox and Mamo,HS2 0PH,58.211432110349100,-6.247552097328030
Capuchin and Myna,HS2 0QS,58.353461000000000,-6.522640000000000
Eagle and Vole,HS1 2ND,58.208754668080600,-6.384524272680170
Rabbit and Tree warbler,HS2 0TL,58.484895000000000,-6.238739000000000
Bronzewing pigeon and Egret,HS1 2XJ,58.208382062741300,-6.389968000000000
Diving bird and Ibex,HS1 2FE,58.209136961194600,-6.378897534169520
Vulture and Thrasher,HS2 0GS,58.224355712813800,-6.384065260619320
Cloud rat and Mink,HS2 0BN,58.213918000000000,-6.321851012245590
Grosbeak and Tahr,HS2 0RZ,58.412110909918800,-6.455754069757920
Marsh harrier and Philippine hawk-owl,HS2 0HT,58.246224529785000,-6.329118135291770
Peafowl and Chicken,HS1 2JE,58.210478747625800,-6.385384680745860
Perching duck and Kestrel,HS2 9QZ,58.054764491426100,-6.447125839655330
Diving bird and Songlark,HS2 0QN,58.348529000000000,-6.524779000000000
Minke whale and Marsh harrier,HS2 0LN,58.277235000000000,-6.293338000000000
Parrotlet and Meadowlark,HS1 2UR,58.212578773098800,-6.358243072292020
Thicketbird and White ibis,HS2 0RA,58.347781000000000,-6.516934000000000
Gull and Peafowl,HS2 9EU,58.178457000000000,-7.031241000000000
Minke whale and Prion,HS2 0RG,58.392233000000000,-6.484877000000000
Kangaroo and Rabbit,HS2 0NJ,58.342828591966500,-6.208733494962190
Prion and Condor,HS1 2DZ,58.214414738932200,-6.385734565865810
B and Grouse,HS2 0XS,58.210068691193500,-6.391809002630200
Marsh harrier and Minke whale,HS2 9EA,58.215212766134700,-6.743171557444670
Tahr and Linsang,HS1 2HL,58.217306030118000,-6.382990005787850
Gull and Chicken,HS1 2XQ,58.208621920185700,-6.388903859784020
Civet and Fulmarine petrel,HS2 9PA,58.150598083714400,-6.500689597812170
Argus and Fish eagle,HS2 9PN,58.093190337554100,-6.593009015896470
Logrunners and Old World warbler,HS2 9EN,58.112007148736500,-6.861897436738270
Parrotlet and B,HS2 0EN,58.247847000000000,-6.396829000000000
Maya and Herring gull,HS2 0NQ,58.340397459782900,-6.201724487917680
Stilt and Polecat,HS1 2SL,58.207762000000000,-6.370464000000000
Gull and Meadowlark,HS1 2DP,58.208258464978500,-6.386660967057140
Ibex and Night heron,HS1 2RP,58.205121971695900,-6.374824705988260
Chipmunk and Cloud rat,HS2 0QR,58.357544355995000,-6.528998080800910
B and Moluccan boobook,HS2 0AQ,58.195056205088300,-6.354151688132410
Cloud rat and Fulmarine petrel,HS2 9DH,58.341156000000000,-6.654618000000000
Fish eagle and Minke whale,HS1 2YD,58.223217461655500,-6.386566721907860
Pheasant and Towhee,HS2 0HS,58.244278462375400,-6.344472000000000
Solitaire and Quetzal,HS2 0AL,58.204579000000000,-6.346299715310890
Ibex and Mamo,HS2 9JD,58.196620152211600,-7.015254000000000
Tattler and Grosbeak,HS2 0PS,58.220921857106300,-6.223651363059460
Jay and Kangaroo,HS2 0SD,58.248765093198800,-6.407757800080780
