name,postcode,lat,lon
Towhee and Vulture,HA8 7NJ,51.612065490354200,-0.279089706971283
Marsh harrier and Egret,WD5 0JY,51.697080080768000,-0.423446448624190
Flameback and Grackle,HA3 5XH,51.585235265947700,-0.329686206463401
Mockingbird and Snipe,HP1 2DG,51.748556231619000,-0.503734307592531
Old World warbler and Egret,AL2 2JU,51.716405720000000,-0.332399871000000
Stint and Cuscus,HA3 9PT,51.590628340151900,-0.287103632475026
Ibex and Partridge,WD7 9AZ,51.683068722773800,-0.282850602933468
Badger and Francolin,HA8 5EH,51.603243695892100,-0.271105644503182
Thicketbird and Linsang,WD17 2FF,51.651785120796000,-0.390787782541802
Rat and Cuscus,WD25 8DL,51.665172784803000,-0.349854918371174
Goose and Wallaby,HP3 9WY,51.732969638778800,-0.458908179344204
Cuscus and Egret,HA4 7RD,51.582588087871700,-0.442567061439352
Elephant and Chipmunk,HA5 3ES,51.600847287430700,-0.385715858057474
Hawk and Siskin,WD6 1UN,51.659450000000000,-0.278683000000000
Skunk and Hawk,WD7 7LA,51.683769895790600,-0.317006920633334
Kākāriki and Dolphin,WD17 4BS,51.663204911418500,-0.403960381989574
Parrotbill and Coati,WD25 0BJ,51.702723000000000,-0.399363000000000
New World blackbird and Linsang,HA4 7EA,51.571567649542400,-0.434747476080689
Old World vulture and Old World quail,WD19 4DE,51.645688566240600,-0.377070374860986
Bunting and Cuscus,WD6 4LY,51.660024007697100,-0.285456862813280
Guillemot and Fish eagle,WD3 3TF,51.650291716037700,-0.428582722566601
Jackal and Francolin,HA7 1NE,51.597369954188800,-0.298675053246003
Perching duck and Coati,WD19 7PP,51.629688804243000,-0.405079112260047
Argus and Solitaire,WD7 8DX,51.680749283367900,-0.331554849657845
Old World quail and Thrasher,HA3 7EP,51.601253184899000,-0.336335000000000
Fulmarine petrel and Old World warbler,HA3 0TB,51.585237491545200,-0.288028097828315
Tree warbler and White ibis,WD4 8AB,51.713283024166000,-0.449763310795625
Stint and Tree warbler,AL1 2ZY,51.747650000000000,-0.301973000000000
Cloud rat and Darwin's finches,HA7 2RS,51.609065910572800,-0.305935481812965
Mouse and Condor,WD6 3SG,51.639927034786400,-0.307806111327567
Siskin and Zebra,HA8 7JX,51.615239920148100,-0.276037491182355
Bronzewing pigeon and Armadillo,AL1 5QD,51.740393090000000,-0.310138634000000
Marsh harrier and Parakeet,AL2 2JL,51.717727140000000,-0.345090705000000
B and Old World warbler,WD3 5SG,51.658148188368400,-0.503912000000000
Ice seal and Rat,AL2 2JY,51.713463000000000,-0.332754000000000
Grouse and Mockingbird,HP2 4NL,51.749677817692100,-0.423079018103938
Pitohui and Warbler,HA9 9QR,51.570631000000000,-0.279805347051912
Kangaroo and Bunting,WD24 6DH,51.675826484315200,-0.398440159255378
Parrotlet and Vole,WD7 8HL,51.682030708867300,-0.317375178289436
Skunk and Siskin,AL3 4LY,51.742122260000000,-0.361769105000000
Wader and Parakeet,HP3 8BQ,51.737258516573800,-0.445916134132815
Logrunners and Greenbul,NW9 9AU,51.588268129014800,-0.270259522035585
Diving bird and Cloud rat,AL2 3FP,51.702641000000000,-0.346039000000000
Piping shrike and Magpie,AL3 5JF,51.755586000000000,-0.343861627000000
Thrasher and Stint,WD25 9ET,51.678167135958300,-0.380478000000000
Old World vulture and Shearwater,HA3 9TW,51.579046152919200,-0.285244351216216
Wallaby and Parrotlet,WD23 9GJ,51.640496290395300,-0.357904636568511
Treepie and B,AL2 1NU,51.720687270000000,-0.294282012000000
Moluccan boobook and Crow,WD6 3QH,51.654103217296100,-0.282109556736887
Capuchin and Vulture,HA5 2SJ,51.583847653367900,-0.398515044048960
Herring gull and Old World vulture,HA6 2TP,51.607634949052600,-0.437449931280002
Philippine hawk-owl and Siskin,HA3 8JS,51.587511274512200,-0.311529840107901
Warbler and Marmoset,HA6 3NH,51.614025000000000,-0.420370642682283
Boto and Viscacha,WD25 9PL,51.693934564528200,-0.384518558614631
Thrasher and Night heron,SL9 0EH,51.620703629800000,-0.546757979400000
Vulture and Masked owl,HP3 9HR,51.742762000000000,-0.471930000000000
Meadowlark and Skunk,HA2 7LH,51.582399090772900,-0.364546207527124
Parrotbill and Siskin,HA4 4LA,51.574468000000000,-0.412071000000000
Viscacha and Hawk,AL2 3XL,51.703574250000000,-0.371512193000000
Vulture and Civet,HA2 0AX,51.572904934751900,-0.354367110755120
Mamo and Meadowlark,WD7 8JA,51.678409293020200,-0.322571853757990
White ibis and Hawk,UB9 4HH,51.572268807771800,-0.526412477033642
Wallaby and Mole,WD18 0AQ,51.652221427934300,-0.394415158065817
Snipe and Puffleg,WD18 7HL,51.656982023020300,-0.406578886443623
Macaw and B,HP3 9SZ,51.730273917788600,-0.458362719594195
Quetzal and Dolphin,AL2 1GB,51.721965340000000,-0.310981000000000
Tree warbler and Partridge,AL1 2AL,51.740179780000000,-0.349542621000000
Hawaiian honeycreeper and Black cockatoo,HA2 0HS,51.571684321300000,-0.341755938509474
Ice seal and Argus,HA8 7TJ,51.619107170209600,-0.290220695646369
Mole and Booted eagles,HA7 2SA,51.610533734319100,-0.306704066030996
Dorcopsis and Puffleg,WD4 9HS,51.713921376222800,-0.453852453168027
Mole and Badger,WD17 2LH,51.655097000000000,-0.393547000000000
Mockingbird and Parrotbill,AL1 5AA,51.738265240000000,-0.312868450000000
Wader and Kite,HA8 8QW,51.626636541382800,-0.279954289662019
Rat and Pheasant,HA3 8EP,51.585382158654800,-0.312922312269082
Zebra and Snipe,WD5 5BU,51.641755000000000,-0.427873000000000
Cloud rat and White ibis,WD3 0PL,51.639484000000000,-0.474602000000000
Mockingbird and Stint,HA3 6ED,51.606046000000000,-0.340542159267705
Maya and Cuscus,HA6 2BY,51.615245746068600,-0.430298876676883
Marsh harrier and Meadowlark,HA8 6ET,51.604729789972600,-0.280450132354132
Partridge and Perching duck,HA7 4TN,51.613885963062100,-0.302217346048911
Mole and Scimitar babbler,HA3 5EY,51.601626877070900,-0.344203166534192
Diving bird and Towhee,HA3 6TR,51.610642060776500,-0.342012083921539
Partridge and Mockingbird,WD25 7JH,51.699984643583100,-0.400177668627426
Chicken and Polecat,HA5 2AR,51.595896440893800,-0.395174872173869
Guillemot and Vulture,AL1 1UQ,51.736410590000000,-0.314588545000000
Lemming and Logrunners,HA6 2LJ,51.626663130507900,-0.436175075560417
River dolphin and Jerboa,WD4 8AR,51.724924707876000,-0.455011862193657
Linsang and Dorcopsis,WD3 7DF,51.639028087483500,-0.478684779892554
Flameback and Grouse,WD19 5ET,51.625593513226300,-0.380489125560802
Peafowl and Grackle,HA2 0AH,51.571711486490600,-0.353905152080664
Tattler and Maya,HA9 8PE,51.571482907216400,-0.295067317477645
Rabbit and Polecat,WD6 5XT,51.655281258567800,-0.279043537785237
Perching duck and Mink,HA5 5AY,51.578312912462200,-0.377883939864811
Rabbit and Philippine hawk-owl,HA4 8SU,51.581174233927200,-0.401611106897676
Marsh harrier and Fulmarine petrel,HA3 0TN,51.581517569671500,-0.293782481296983
Old World quail and Capuchin,WD3 1QL,51.633688515335400,-0.459500901487213
Triller and Marsh harrier,WD24 6PB,51.677092667437600,-0.406249210105944
Cuscus and Mole,WD6 4AJ,51.669936321518400,-0.285661085160419
Lemming and Philippine hawk-owl,UB9 5EN,51.577335378238400,-0.520100000000000
Viscacha and Pratincole,HA7 9JP,51.604469000000000,-0.295599000000000
Marmoset and Zebra,HA6 1EW,51.610567567420200,-0.418068687886379
Dorcopsis and Marsh harrier,HA8 8LL,51.616596420869900,-0.278398326974161
Kākāriki and Jackal,WD3 9UA,51.620900981611200,-0.518828462784584
Warbler and Bronzewing pigeon,HA5 1HY,51.581386364765100,-0.381657032249904
Masked owl and Towhee,HA1 4DU,51.577574439923600,-0.350705912045163
Ground sloth and Masked owl,HP3 9QX,51.740677473203800,-0.467987994411169
Tree warbler and Warbler,HA5 4EB,51.608214082583900,-0.369612036771559
Mamo and Wader,WD23 1HF,51.632049097373500,-0.346245588665439
Logrunners and American sparrow,NW9 9DX,51.585740000000000,-0.275499845136770
Bronzewing pigeon and Piping shrike,HA1 4PW,51.585602345532800,-0.359537884415888
B and Booted eagles,WD3 1DD,51.637813998666100,-0.468985464564238
Treepie and Duck,HA3 5EG,51.602897000000000,-0.339190000000000
Night heron and Puffleg,HA5 5LU,51.593593000000000,-0.381194000000000
Parakeet and Chicken,HA4 7PJ,51.578860978877200,-0.438177163020386
Badger and Scimitar babbler,HA5 5LX,51.593554337655500,-0.381773232033902
Badger and Mouse,UB9 6AW,51.591047721230100,-0.485716040544948
Tit-tyrant and Vole,WD25 8NN,51.672063069180000,-0.355794286587587
Parrotbill and Duck,HA0 3TJ,51.569423148244600,-0.313700732062633
Armadillo and Parrotlet,HA5 3HN,51.599408595229600,-0.386373304784633
Booted eagles and Fish eagle,HP3 0FQ,51.734230000000000,-0.468721000000000
Ice seal and Stint,WD17 3EG,51.668054000000000,-0.416689000000000
Capuchin and Moluccan boobook,WD3 8GW,51.640224053378600,-0.495437629265483
Duck and Thrasher,HA3 7QS,51.594187976444400,-0.331335732236762
Grosbeak and Shearwater,WD17 4JX,51.678716302354600,-0.425964584363163
Old World warbler and Moluccan boobook,WD5 0JF,51.695478598858700,-0.429420079560963
Mouse and Meadowlark,WD6 5JP,51.667072597016600,-0.268821384546639
Asiatic leopard and Flameback,WD6 1UE,51.657473087520400,-0.280117110700547
Pitohui and Black cockatoo,HA6 2JQ,51.629819000000000,-0.432671000000000
Jay and Vole,HA7 4NP,51.620825414007500,-0.303287380640490
Old World vulture and Duck,AL1 9DY,51.747828000000000,-0.301865000000000
Elephant and Wallaby,HA5 4TZ,51.609440352252000,-0.385468843204901
Jerboa and Vole,WD25 7JF,51.700519381900700,-0.401808508278683
Tit-tyrant and Stilt,UB9 6QB,51.603908395275900,-0.476147638893865
Shearwater and Jackal,AL2 1TL,51.718012840000000,-0.282294503000000
Black cockatoo and Coati,WD25 9RP,51.678964862925700,-0.378788326660998
Old World warbler and Gull,AL4 0SR,51.750600870000000,-0.285433639000000
Old World vulture and Dolphin,WD6 4ST,51.658995281763300,-0.283977599874478
Bronzewing pigeon and Cloud rat,WD19 5EA,51.632893989584300,-0.385633251784741
New World blackbird and Guillemot,WD3 4PB,51.693121000000000,-0.504999000000000
River dolphin and River dolphin,WD3 3LS,51.652116581804000,-0.432709000000000
Black cockatoo and Piping shrike,HA1 4DD,51.578464951756300,-0.349446929698303
Chickadee and Mole,HA8 4RR,51.613334000000000,-0.277800000000000
Piping shrike and Parakeet,HA7 1BY,51.600085076564500,-0.294920455039847
Petrel and Parrotlet,WD18 0TG,51.655716747909600,-0.399496079100592
Fox and Tree warbler,AL1 3HG,51.754943960000000,-0.335472132000000
Scimitar babbler and Meadowlark,WD25 7DS,51.692916578481900,-0.407429697257208
Civet and Asiatic leopard,WD7 8ET,51.694366250587200,-0.326076745394110
Shearwater and Crow,HP2 4QP,51.755881748656900,-0.440568110474330
Crow and Eagle,HA8 7PJ,51.614157196499500,-0.280079433621593
Solitaire and Tahr,HP1 2LL,51.754815710113500,-0.498498000000000
Ground sloth and Vole,WD18 7QD,51.652106846186100,-0.419109374955047
Asiatic leopard and Lemming,AL2 3AX,51.730737120000000,-0.361673937000000
Scimitar babbler and Towhee,HA7 9JQ,51.604469000000000,-0.295599000000000
Puffleg and Tree warbler,WD19 6LD,51.623597754405900,-0.387711236164790
Snipe and Kākāriki,WD17 3AS,51.660539736172000,-0.410993999053633
Jerboa and Peafowl,AL2 3EH,51.721149910000000,-0.363482730000000
Minke whale and Hawaiian honeycreeper,WD17 2DH,51.655275565077900,-0.394842129868574
Ice seal and Meadowlark,HA5 4ER,51.611741617985400,-0.369153471320291
Thrasher and Condor,AL4 0EY,51.745640830000000,-0.298050123000000
Peafowl and Snipe,WD6 1HJ,51.652659939562000,-0.270772798992521
Kestrel and Grackle,HA3 6HW,51.605917898795900,-0.341779827961709
Triller and Black jay,WD25 7AZ,51.691379208803200,-0.411433448597756
Night heron and Old World vulture,HA7 4FF,51.617249987718700,-0.314138677696672
Darwin's finches and Jay,HP3 8BS,51.733885000000000,-0.446394000000000
Rabbit and Darwin's finches,WD23 1HJ,51.633646300022400,-0.350479096785511
Hawk and Herring gull,WD19 7BZ,51.628791573428900,-0.397958721328336
Zebra and Black cockatoo,NW9 9NG,51.585490534798700,-0.273381852852229
Philippine hawk-owl and Moluccan boobook,HA4 8PD,51.576761689403600,-0.400481483428421
Skunk and Maya,HA8 7YB,51.614936212563900,-0.274951254444088
Buzzard and Philippine hawk-owl,NW9 0EY,51.593484701997400,-0.268502145840229
Nukupuʻu and Zebra,HP2 4AZ,51.752649000000000,-0.471596000000000
Pheasant and B,AL1 2BL,51.743011400000000,-0.334187027000000
Triller and Ice seal,HA1 4UU,51.591113610758100,-0.340918624243666
Diving bird and Maya,WD3 1LF,51.636134000000000,-0.461427000000000
Pratincole and Old World quail,HP3 9RL,51.733445424381000,-0.462280659458638
Cuscus and Cloud rat,HA1 9LQ,51.585237061215500,-0.329686216676317
Flameback and Badger,WD19 5BZ,51.629139918488200,-0.374886915960525
Stilt and Kākāriki,AL4 0WA,51.747650000000000,-0.301973000000000
Songlark and Darwin's finches,HA6 2PH,51.614278274912800,-0.438666168646560
Pheasant and Recurvebill,WD3 8HE,51.636894194362100,-0.493813744653970
Old World quail and Badger,HA8 7PZ,51.616467867341900,-0.280670975174148
Cuscus and Polecat,HA4 7DG,51.572370869901900,-0.432944968773689
Black cockatoo and River dolphin,HA5 4LH,51.607471545021700,-0.370534007572574
Night heron and River dolphin,HA4 7DS,51.571365729485000,-0.423022878858126
Civet and Kākāriki,WD25 9BF,51.682274112057100,-0.387812252364595
American sparrow and Solitaire,AL3 4GB,51.743023166643600,-0.356505000000000
Tree warbler and Peafowl,WD25 7HS,51.697369209494200,-0.393020409340550
Bunting and Recurvebill,WD17 2TA,51.654117000000000,-0.392859000000000
Kestrel and Lemming,HA8 9AR,51.608710908729300,-0.274768417927282
Prion and Argus,HA5 1RJ,51.578656000000000,-0.400184000000000
Meadowlark and Rabbit,AL2 1AU,51.718518820000000,-0.286155163000000
Old World quail and Crow,HA4 7RP,51.581984154579600,-0.437045329827777
Grackle and Prion,WD17 3AY,51.663006902489000,-0.418570995250703
Mockingbird and Duck,HA6 3RA,51.603691400302300,-0.415607343471416
Minke whale and Tree warbler,AL1 3BW,51.748906530000000,-0.330131211000000
Ground sloth and Kangaroo,WD25 9TR,51.696337436428900,-0.378789800095544
Rabbit and Duck,AL1 3AA,51.752843890000000,-0.337664571000000
Condor and Kangaroo,WD3 3SN,51.656172179158400,-0.438672627676289
Treepie and Black jay,HA5 1NS,51.578194342446300,-0.383950000000000
Dolphin and Ice seal,HA7 4TU,51.616567085264100,-0.303561745843403
Duck and Cuscus,WD24 6TN,51.641750000000000,-0.427895000000000
Jackal and Jackal,HA8 6EU,51.606178851477800,-0.280539798144530
Fox and Tit-tyrant,WD6 3BL,51.637634595640400,-0.304105235656426
Partridge and Grouse,HA7 4NJ,51.620673655694300,-0.303986438264417
Kākāriki and Solitaire,HA7 4LW,51.634134943801800,-0.305232823652141
Flameback and Logrunners,WD17 2QQ,51.659444000000000,-0.393267951862722
Booted eagles and Marmoset,WD3 3FN,51.642717154264500,-0.445074899798125
Parrotlet and Magpie,HA8 5EP,51.600753222227500,-0.268081297704623
Chicken and Eagle,WD25 7SU,51.700088526060700,-0.393951513379686
Nukupuʻu and Ibex,WD3 1BU,51.638613557503700,-0.468929637083411
Mink and Hawk,AL1 2PG,51.738778790000000,-0.344553459000000
Jerboa and Dolphin,WD3 5FH,51.642768000000000,-0.501597000000000
Coati and Skunk,HA3 0LR,51.580577897144500,-0.304831000000000
Herring gull and Hawaiian honeycreeper,WD25 9NE,51.698662173557900,-0.381094350965859
Stilt and Nukupuʻu,WD6 5DU,51.664847034192400,-0.277076051751694
Jerboa and Gull,WD3 1FR,51.637521627611700,-0.470700511597137
Old World warbler and Thrasher,HA6 2LU,51.621126041543900,-0.437001034609352
Solitaire and Kākāriki,AL5 9FZ,51.747650000000000,-0.301973000000000
Linsang and Linsang,HA1 3BX,51.576611961936200,-0.341749787649779
Darwin's finches and Parakeet,WD5 0PA,51.704898983034300,-0.408589000000000
Stint and Chipmunk,NW9 9RY,51.583981143313100,-0.281435602041268
Duck and Mouse,WD4 8BB,51.724149399130800,-0.461712877680620
B and Jay,HA7 1PD,51.600865413015800,-0.300363796699816
Hawaiian honeycreeper and Kite,WD23 3AS,51.648830269712900,-0.365004214320673
White ibis and Recurvebill,AL3 4SH,51.753714720000000,-0.354178051000000
Mole and Grouse,WD6 5AJ,51.663436616583300,-0.272271185074265
Hawk and Myna,WD18 6PZ,51.643694208421800,-0.420066810698466
Capuchin and Duck,WD4 8SS,51.712473866644000,-0.442293035946145
Fox and Fox,HA7 3AB,51.620271713557600,-0.316670248163239
Hawk and Black cockatoo,HA8 5PS,51.595616876026600,-0.283263191720859
Elephant and B,WD23 2BJ,51.665145292091700,-0.366384000000000
Mouse and Ibex,HA5 5HJ,51.591475298489300,-0.379032016240118
Fish eagle and Towhee,WD3 7PG,51.645226118813100,-0.487236039049744
Linsang and Dolphin,HA2 6NT,51.598893633956900,-0.349977019345365
Capuchin and Snipe,HA1 3EX,51.577979000000000,-0.341657000000000
Mamo and Marmoset,WD3 7DD,51.639550896640900,-0.477395553747672
Masked owl and Grackle,WD5 0GP,51.704004595400000,-0.406172070879544
Elephant and Buzzard,HA3 6TT,51.611120339716000,-0.344680996143206
Partridge and Nukupuʻu,WD17 1LD,51.641750000000000,-0.427895000000000
Marsh harrier and Chipmunk,HA3 0XX,51.586660787795600,-0.299723000000000
Treepie and Booted eagles,AL1 3RB,51.752123340000000,-0.328071226000000
Rabbit and Partridge,HA4 8PP,51.572410730468800,-0.420346059634521
Macaw and Asiatic leopard,WD19 4PZ,51.644932037025600,-0.388081940002278
Capuchin and Fish eagle,WD19 6YA,51.616114843646900,-0.390879690434933
Goose and Wallaby,WD6 4JE,51.669719166227700,-0.278192729208063
Viscacha and Parakeet,AL1 9JH,51.747655000000000,-0.301949000000000
Quetzal and Zebra,HA7 3WB,51.604508123353600,-0.295623000000000
Goose and American sparrow,AL1 1RG,51.747585920000000,-0.337828622000000
Rabbit and White ibis,SL9 0AY,51.609821239152400,-0.546758787363536
Marmoset and Moluccan boobook,HA3 0UU,51.585235265947700,-0.329686206463401
Grouse and Philippine hawk-owl,HA9 8PP,51.570598623045000,-0.296096063532656
Myna and Boto,HA8 8NQ,51.616717665266200,-0.274407038525145
Mamo and Cloud rat,HA1 1SD,51.586756925318300,-0.338695558585960
Crow and Linsang,HA7 1LY,51.598536404715600,-0.297259781447046
Capuchin and Mink,WD19 7SY,51.626129591516900,-0.393519000000000
Bunting and Scimitar babbler,WD6 5HE,51.663244936584500,-0.275748725457249
Stilt and Old World warbler,HA1 4LB,51.585503969273100,-0.360219849916535
Chipmunk and Tahr,WD6 4DY,51.667947988046200,-0.283740548710507
Vulture and Parrotbill,HA1 2JJ,51.581216773769500,-0.329000000000000
Philippine hawk-owl and Logrunners,HP2 5YG,51.755418960124900,-0.471129000000000
Myna and Fox,HP2 4PT,51.750849189324200,-0.432790000000000
Pratincole and Thrasher,WD18 7RN,51.652514748365000,-0.407371593862732
Elephant and Fox,HA8 8RS,51.627240461090900,-0.275149191395564
Dorcopsis and Parrotlet,HP3 8HH,51.746602462844500,-0.439236284796351
Treepie and Zebra,HA1 4UX,51.592230886724800,-0.342350460465926
Tattler and Snipe,WD19 5JD,51.641750000000000,-0.427895000000000
Flameback and Diving bird,AL1 3AX,51.750188240000000,-0.332372895000000
Condor and Fulmarine petrel,HA7 1AD,51.605512281541300,-0.301461083210866
Vole and Fox,WD25 9RW,51.686791414210400,-0.384776000000000
Capuchin and Dolphin,HA8 4DY,51.613332458522800,-0.277799649928712
Philippine hawk-owl and Peafowl,HP3 9RE,51.736510107440600,-0.463537989569480
Lemming and Zebra,HA3 9HJ,51.594201911991500,-0.294765396697195
Flameback and Tahr,HA5 1PN,51.579187338148400,-0.390452360636553
Bunting and Jackal,AL1 9FP,51.747650000000000,-0.301973000000000
Masked owl and Tahr,WD23 1AU,51.637107172272300,-0.353604990937684
Grouse and Egret,AL2 2LU,51.720583920000000,-0.338529421000000
Polecat and Piping shrike,AL2 2DP,51.724152640000000,-0.354426497000000
American sparrow and Ibex,WD18 6UW,51.642717400268900,-0.420982369902862
Philippine hawk-owl and Vulture,HA1 4JG,51.581894000000000,-0.348880961274686
Parrotlet and Crow,WD25 0RH,51.686679467103000,-0.403699183805212
Zebra and Egret,HA4 7UG,51.582595191406700,-0.430947871055960
Chickadee and Moluccan boobook,HA8 8AS,51.628156230558600,-0.269422000000000
Boto and Scimitar babbler,UB9 6RD,51.601927338631400,-0.482177482708051
Ground sloth and Dolphin,WD23 4QH,51.646487637791700,-0.349882992637312
Parakeet and Duck,AL2 2TU,51.721581770000000,-0.353202350000000
Kākāriki and Grackle,WD24 6DL,51.675385968346000,-0.399106534578700
Philippine hawk-owl and Wader,WD3 3AJ,51.646492000000000,-0.455938283282760
Chicken and Rabbit,WD6 3SU,51.640909340369100,-0.311079098245623
Black jay and Chickadee,AL1 9YL,51.753408337354000,-0.336122676535098
Stint and Black cockatoo,HA8 6QU,51.607648834873100,-0.294391587611740
Piping shrike and Coati,WD23 2JX,51.653241909065000,-0.380327872724217
Chickadee and Wader,WD17 1TB,51.658943498074800,-0.397416142490097
Puffleg and Boto,HA7 4PQ,51.618492992843000,-0.306162271326766
Linsang and Bunting,WD19 6EX,51.620453331272600,-0.384644654145204
Cuscus and Pitohui,HA5 2LN,51.591555127111100,-0.407858635250820
Hawk and Crow,AL2 1RL,51.722376090000000,-0.295405668000000
Rabbit and Diving bird,WD7 7BZ,51.689032513939000,-0.316536867364122
Thrasher and Peafowl,WD7 0AQ,51.682945964015500,-0.317239989778771
Marmoset and Marsh harrier,HA5 5AA,51.577363359570800,-0.379447528208109
Thrasher and Macaw,AL4 0AS,51.745053630000000,-0.301592153000000
Kangaroo and Moluccan boobook,HA2 0EF,51.571412140238200,-0.362718299251353
Partridge and Bunting,HA7 1PN,51.600691265168100,-0.303243746185910
Perching duck and Pitohui,HA8 6DW,51.600335390774400,-0.286175278146249
Ibex and Minke whale,HA6 2RT,51.613702624326000,-0.437978196464576
Macaw and Jackal,HA5 2HH,51.590797526388900,-0.397779830714402
Logrunners and Diving bird,WD25 9RG,51.687882889833000,-0.385168002078915
Chipmunk and Perching duck,WD23 4SL,51.641141914033300,-0.343183344306943
Magpie and New World blackbird,AL4 0TE,51.749884590000000,-0.288111886000000
Greenbul and Dolphin,HA4 8HB,51.575578882099100,-0.421376221171657
Badger and Scimitar babbler,WD19 5AU,51.633439000000000,-0.383977297215342
Pheasant and B,WD17 4LF,51.667030056433700,-0.410188517006321
Grackle and Magpie,NW9 9JN,51.591243964005500,-0.270218670958830
Shearwater and Ibex,HA3 7SE,51.595986039323900,-0.334634000000000
Dolphin and Shearwater,HA2 6BX,51.589442009943000,-0.357609546509563
Prion and Mouse,HA8 8PT,51.618316887295900,-0.274924183248732
Chicken and Condor,HP3 9TW,51.736525062534300,-0.455760405903117
Puffleg and Condor,HA6 1JE,51.597050836879700,-0.411954583997737
Chicken and Tit-tyrant,WD3 5SW,51.659096617868100,-0.498831940214285
Snipe and Flameback,UB9 5DJ,51.593018000000000,-0.506064000000000
Petrel and Coati,WD19 4QL,51.639646485074200,-0.388211550704380
Elephant and Old World warbler,HA7 3NN,51.615008961968800,-0.324679133756965
Hawaiian honeycreeper and Zebra,WD25 9BG,51.681266354996400,-0.377968496801103
Pheasant and Parrotbill,AL2 1NE,51.726555750000000,-0.305861950000000
Eagle and Dolphin,HP3 9QN,51.734600794974500,-0.462617974448609
Vole and Minke whale,WD19 4TS,51.638759421394900,-0.393691170712463
Recurvebill and New World blackbird,SL9 7BP,51.571321861032400,-0.544927609089873
Greenbul and Treepie,WD3 7HJ,51.639993850681300,-0.490112602291252
Kite and Fox,HP1 1NP,51.745803248650600,-0.480926000000000
Jackal and Quetzal,HA2 6PZ,51.593867683790000,-0.350664448573490
Lemming and Eagle,WD25 0BH,51.684570437696000,-0.405986649754536
Partridge and Wallaby,WD18 0FJ,51.641750000000000,-0.427895000000000
Pratincole and Ibex,HA5 3TZ,51.598805939958800,-0.402797008613771
Grosbeak and Myna,WD3 3BY,51.645913158756300,-0.446194036204389
Viscacha and Triller,WD24 7PQ,51.673079780407100,-0.384349519167910
Jackal and Mockingbird,AL3 5BU,51.755585630000000,-0.337607363000000
Maya and Coati,AL1 2PH,51.742121860000000,-0.345054104000000
Magpie and Flameback,HA1 1TG,51.586347582750300,-0.337728921088931
Thicketbird and Parrotbill,HP3 0LY,51.725165728109800,-0.526282638678349
River dolphin and Civet,WD5 0AL,51.704880585887300,-0.418603000000000
Towhee and Darwin's finches,HP3 9PN,51.739248662815500,-0.463923055486611
American sparrow and Guillemot,HP3 8QY,51.745480115924000,-0.436653115109601
Black cockatoo and Stilt,WD18 0HE,51.649099008997700,-0.407462390091860
Black jay and Dorcopsis,WD7 9LE,51.693800263055700,-0.285584267085631
Wader and Herring gull,AL1 5WD,51.748645780000000,-0.317523038000000
Mamo and Peafowl,UB9 5BD,51.574042421833300,-0.499615133868586
Old World warbler and Maya,WD5 0EA,51.708162386298200,-0.412408747081678
Quetzal and Guillemot,HA2 9PF,51.570576411748000,-0.379602296338952
Badger and Stint,HA3 0TA,51.584088226021900,-0.288764133841734
Asiatic leopard and River dolphin,WD3 5HR,51.646610345144200,-0.523223041287916
Shearwater and Ibex,HA4 8UH,51.573653070975400,-0.409941688371023
Jay and Hawaiian honeycreeper,HA4 6AE,51.570444183874400,-0.412030509834330
Stilt and Jackal,HA1 3BJ,51.578435247977700,-0.340326789560521
Snipe and Ice seal,HA6 3TU,51.618568386186900,-0.416577136161050
Vole and Maya,HA2 0DE,51.570315740876600,-0.346091366857847
Crow and Nukupuʻu,HA5 3RT,51.601944456098500,-0.388998080459483
Grouse and Flameback,WD6 4LA,51.669253024196100,-0.290603709704660
Treepie and Greenbul,HA6 3JL,51.622159133881200,-0.412797297913648
New World blackbird and Tit-tyrant,WD19 7QB,51.629223168453900,-0.412521878658073
Badger and Pitohui,HA2 7QG,51.584351227574600,-0.371072522400492
Vole and Duck,HP3 0FN,51.731304000000000,-0.474395077415039
Parrotbill and Diving bird,WD23 1PF,51.639512255962800,-0.334138163176954
Old World warbler and Egret,HA3 9HR,51.591286764870400,-0.298368183134384
Duck and Parakeet,HP3 9FJ,51.735248088472400,-0.461234698180763
Chicken and Mouse,WD17 4RA,51.663744073823300,-0.402611180161635
Recurvebill and Recurvebill,HA1 2SP,51.588522384674700,-0.328771699913544
Macaw and Tree warbler,WD23 2HP,51.655890097104800,-0.383919966000111
Kangaroo and Capuchin,HA6 1PW,51.601316706155600,-0.407575019452850
Guillemot and Peafowl,WD17 3JN,51.658962657749100,-0.403444367020938
Hawk and Armadillo,HA6 9HD,51.603661000000000,-0.415645000000000
Hawk and Hawk,HP1 2DY,51.743235000000000,-0.525267000000000
Cuscus and Songlark,AL1 1LE,51.750470400000000,-0.337056329000000
Perching duck and Goose,WD19 6JG,51.623801322913300,-0.397325471792452
Goose and Elephant,WD23 2NB,51.647594063292000,-0.380919422180893
Ice seal and Ground sloth,WD18 6JS,51.644234942193200,-0.412156632636750
Moluccan boobook and Maya,AL3 4PH,51.752152970000000,-0.342862029000000
Argus and Magpie,HA5 3AT,51.598219928130600,-0.375817560804475
Grouse and Tattler,HA3 8EU,51.584108977443300,-0.316938860154754
Kākāriki and Eagle,HA4 8TR,51.572680034046300,-0.409802475101791
Parrotbill and Eagle,AL2 1UW,51.723959000000000,-0.314709515000000
Maya and Linsang,WD3 5LZ,51.639480000000000,-0.474556753427907
Boto and Fish eagle,AL1 3PD,51.755046380000000,-0.327485153000000
Eagle and Pratincole,HP1 1BX,51.749168495574000,-0.473727123515512
Scimitar babbler and Moluccan boobook,WD3 8JQ,51.633491949177300,-0.492857171925929
Mouse and Nukupuʻu,HA8 5WF,51.613332458522800,-0.277799649928712
Mouse and Argus,HA1 3EB,51.573544587611800,-0.335959230392841
Marmoset and Songlark,WD6 1PS,51.659266590249200,-0.272429789769933
Grouse and Polecat,WD19 7PR,51.630145415323700,-0.404933060933983
Songlark and Thicketbird,WD3 6HL,51.680396283261700,-0.493744974989809
Prion and Mamo,AL3 4SF,51.754602030000000,-0.353971933000000
Mockingbird and Darwin's finches,HA3 0LP,51.580858352710900,-0.305382556248090
Mockingbird and Old World warbler,WD23 2FS,51.657391584411000,-0.382464275272286
Towhee and Pheasant,WD3 1AZ,51.639251205957100,-0.465425371612849
Old World vulture and Maya,UB9 6NE,51.602940861622200,-0.477811731656537
Grosbeak and Marmoset,WD24 7NA,51.676658017140400,-0.380389367586283
Vole and Jay,HA7 2LQ,51.597266354299800,-0.305811468174406
Chickadee and Fish eagle,UB9 6JY,51.608860469049500,-0.478725772823069
Dorcopsis and Skunk,HP1 1AN,51.747096000000000,-0.475390000000000
Condor and Solitaire,HA4 7YP,51.589426769505700,-0.434133774309573
Hawk and Puffleg,AL1 5LD,51.748583380000000,-0.308789966000000
Crow and Civet,UB9 5NB,51.579945510090200,-0.497140403601109
Thrasher and Viscacha,HA6 3NP,51.615724403933200,-0.414393953263161
River dolphin and Marsh harrier,WD25 7GP,51.691741655961200,-0.412968859656354
New World blackbird and Wallaby,WD3 5JJ,51.650358020789800,-0.518070969040111
Rat and Partridge,AL1 1RB,51.748064560000000,-0.340519999000000
Grosbeak and Mamo,HA1 4SX,51.590256188391300,-0.344515566497160
Buzzard and Puffleg,AL1 4LB,51.752592410000000,-0.315579891000000
Peafowl and Black cockatoo,HA3 8TG,51.593624698292100,-0.315821994154778
Nukupuʻu and Piping shrike,HA8 6TB,51.611176185426400,-0.298895511716956
Flameback and Recurvebill,HA6 2BL,51.613589962252100,-0.432898018250387
Black jay and Partridge,HA6 3BX,51.625088299184100,-0.421765000000000
Herring gull and Meadowlark,WD23 1NY,51.633016758566100,-0.333913753149807
Herring gull and Argus,HA7 4TP,51.615690538740000,-0.302020011229222
Pheasant and Mole,WD17 4BX,51.670536936689100,-0.408055682877198
Partridge and Peafowl,UB9 5DA,51.578139118187500,-0.504964382580811
Dolphin and Egret,HA3 0JF,51.582988716498300,-0.306573479827822
Logrunners and B,HA2 7HW,51.578926235268200,-0.366994495110733
Coati and River dolphin,WD3 7HA,51.642667054199900,-0.488032000000000
Wader and Skunk,HA3 8WE,51.585235265947700,-0.329686206463401
Diving bird and Parrotlet,HA3 9PZ,51.590063821737100,-0.285392534926743
Warbler and Ibex,WD4 4BR,51.641750000000000,-0.427895000000000
Towhee and Pratincole,AL1 9UT,51.747650000000000,-0.301973000000000
Chickadee and Buzzard,WD4 9DJ,51.697807997282700,-0.501747686662454
Wallaby and Night heron,HA1 2JX,51.583853400665900,-0.329260554873935
New World blackbird and Parrotbill,HA5 3PH,51.595938037043700,-0.393614126552507
Darwin's finches and Myna,HA3 5NB,51.603054896000000,-0.354952421260687
Crow and Pratincole,HA6 1LD,51.596914378198000,-0.415164591101619
Parrotlet and Lemming,AL5 9FW,51.747650000000000,-0.301973000000000
Hawaiian honeycreeper and Cloud rat,HA3 5PZ,51.602596410768200,-0.346001776270906
Diving bird and Tahr,WD4 8JE,51.723228546266400,-0.449281000000000
Mockingbird and Cuscus,WD3 1LN,51.632493150841800,-0.435064284316731
Cloud rat and Goose,HA2 7DB,51.578712879619000,-0.362008545808904
Cloud rat and Tit-tyrant,WD6 4BD,51.670875922127700,-0.283384108195868
Egret and Chipmunk,WD18 7EF,51.651774000000000,-0.415030000000000
Black jay and Francolin,HA1 4AP,51.576011887917100,-0.345105312006797
Tattler and Darwin's finches,HA9 9QS,51.569709276245200,-0.283200364358154
Eagle and Linsang,HA6 2JA,51.630519274038200,-0.430002923115632
White ibis and Solitaire,HA3 9DX,51.595929000000000,-0.295803000000000
Maya and Duck,AL1 5JF,51.750595240000000,-0.312380083000000
Old World quail and Jackal,HA6 1QE,51.604746615023200,-0.404552479518696
Booted eagles and Snipe,HP3 9FB,51.737652725877000,-0.456040589014868
Flameback and Perching duck,HA3 8AE,51.580778571446000,-0.319847490973883
Fox and Wallaby,AL1 2PB,51.738284000000000,-0.343805277000000
Tahr and Rabbit,WD19 4DZ,51.642975868200900,-0.379233972525839
Stilt and Nukupuʻu,HA4 7EF,51.572888329566200,-0.425250196313564
Kestrel and Puffleg,HA6 3FF,51.617480000000000,-0.419526000000000
Magpie and Tit-tyrant,WD3 1HT,51.642496258846900,-0.465344732005412
Bunting and Prion,HP3 9NQ,51.742621457921000,-0.461925704214261
Tahr and White ibis,HA3 5EX,51.602546961136200,-0.341859306486753
Puffleg and Guillemot,WD6 3XY,51.655281258567800,-0.279043537785237
Kestrel and Minke whale,HA1 1XH,51.592633137257200,-0.337095254057647
Pitohui and Gull,HA8 7RT,51.614489440946000,-0.286812151304026
Mole and Chicken,HA6 3NY,51.613328778211000,-0.413451958472506
Stilt and Macaw,WD23 3BY,51.642224407204800,-0.358795999340477
Marmoset and Stint,HA6 1AB,51.611559160164700,-0.422930290333864
Grouse and Diving bird,HA8 8JZ,51.622436656246100,-0.280532053497032
Linsang and Coati,WD23 3DN,51.645286424228700,-0.368166932521880
Quetzal and Herring gull,HA5 2AF,51.597766900777600,-0.393867244945629
Kestrel and Bunting,HP3 0BJ,51.737664303067800,-0.486656828461352
Kestrel and Viscacha,HA8 5LE,51.599727190940000,-0.268019258084675
Polecat and Elephant,WD4 8AN,51.723668263565400,-0.455879956596418
Cloud rat and Diving bird,HA2 6BE,51.589588196322100,-0.353923139951539
Maya and Coati,WD3 3RE,51.651921754698600,-0.434828954454039
Armadillo and Myna,WD24 7GL,51.678972000000000,-0.387115542674616
Marsh harrier and Parrotlet,HA4 8UD,51.574010528999300,-0.401833534863842
Duck and Capuchin,WD17 3HJ,51.675535359204200,-0.420101629216557
Fulmarine petrel and Chipmunk,HA3 7SQ,51.595929538503900,-0.331762794957223
Partridge and Shearwater,HA3 9QZ,51.584506020281600,-0.286583289123567
Crow and Hawaiian honeycreeper,WD23 3AX,51.649364603365900,-0.362050665934621
Masked owl and Lemming,HP3 0LU,51.722486774041900,-0.528483505983214
Quetzal and Polecat,WD6 4HY,51.668908618785900,-0.285482965396274
Civet and Tattler,HP3 0HF,51.725609321569600,-0.533710345525011
Wader and White ibis,WD3 3PF,51.652552733702500,-0.443740838772706
Buzzard and Kākāriki,WD23 2TD,51.655577506588400,-0.373652333758684
Ibex and Cuscus,WD3 0PY,51.639484000000000,-0.474602000000000
Tree warbler and Eagle,UB9 5LY,51.585379243112500,-0.500151111954507
Buzzard and Masked owl,WD17 2AH,51.651734981760700,-0.391584690751114
Thrasher and Puffleg,WD19 4NN,51.640427680663100,-0.394036877446848
Macaw and Cloud rat,HA6 3QZ,51.611469030794400,-0.406930935309781
Bunting and Wallaby,HA5 5QE,51.592670484614200,-0.378325381533522
Kangaroo and New World blackbird,HA8 8QX,51.634759025220700,-0.284430074180093
Prion and Cloud rat,HA6 1ED,51.608119856562500,-0.415929759009267
Eagle and Francolin,WD17 2RE,51.658427682394700,-0.389945283099400
Duck and Parrotbill,WD18 7AT,51.655297818047000,-0.420357271696825
Buzzard and Cuscus,WD23 3AL,51.651811049457000,-0.365966678097282
Macaw and Zebra,HA7 2RG,51.611178429121300,-0.310882917724482
Treepie and Viscacha,WD3 1LZ,51.633061959320500,-0.469347755462905
Solitaire and White ibis,HA7 4TH,51.611623002368300,-0.303673853418640
Mamo and Kangaroo,UB9 5NR,51.581106403989300,-0.498617564921689
American sparrow and Tattler,WD19 6JT,51.624194066928700,-0.393165418424424
Tree warbler and Rat,HA3 5JL,51.604109958896900,-0.342379988317052
Puffleg and Coati,HA5 4TR,51.605747331510800,-0.386321888032642
Bunting and Vole,WD24 4HB,51.671291353870300,-0.385729170726085
Kestrel and Chipmunk,WD25 9JZ,51.685553693710700,-0.391702840467602
Chickadee and Grackle,HA6 2EJ,51.623597873344400,-0.432206546475153
Boto and Solitaire,WD24 5EL,51.673298455450200,-0.402969273719548
Elephant and White ibis,HA1 4DH,51.577478108859700,-0.347693112432650
Eagle and Mink,HA5 4QJ,51.613380128742900,-0.378381817695098
Grackle and Wader,NW9 9TE,51.593603036295400,-0.280220679086880
Black jay and Ibex,HA3 8EL,51.586541605540700,-0.312258663904318
Night heron and Perching duck,HA5 2LU,51.591528193158500,-0.409851793416329
Piping shrike and American sparrow,HA7 4JH,51.621044177180300,-0.305359429750018
Asiatic leopard and Meadowlark,WD25 7GD,51.690062101569600,-0.415110945394652
Petrel and River dolphin,WD3 5HE,51.646978510395700,-0.519612084923640
Boto and Kangaroo,WD25 0AZ,51.686504286785400,-0.408681842640894
Songlark and Stint,WD4 8NX,51.719388049016100,-0.424711995855239
Buzzard and Buzzard,WD23 2JN,51.652058167610200,-0.379256982490672
Kite and Solitaire,WD17 4BN,51.674370907240300,-0.413764107263015
Darwin's finches and Flameback,HA9 9SZ,51.574285758523800,-0.291787609788634
Grosbeak and Linsang,HP3 9TB,51.728908128698600,-0.456381980456068
Kite and Philippine hawk-owl,WD6 5JG,51.666810613263100,-0.272403118029422
Petrel and Tahr,HA8 8LY,51.620276000000000,-0.277124770697397
Recurvebill and Polecat,HA1 4TH,51.588626272142600,-0.346263771071241
Towhee and Masked owl,HP3 9FU,51.737024118985200,-0.463650900422474
Siskin and Treepie,WD6 1NS,51.660875589733800,-0.275448282265975
Towhee and Argus,AL2 1JH,51.724803500000000,-0.295994881000000
Prion and Darwin's finches,HA8 9LB,51.612921833583500,-0.268224795590645
Greenbul and Gull,WD7 7EN,51.683360044583600,-0.307257759670012
River dolphin and White ibis,WD7 7LB,51.682835916544200,-0.316462930495819
Piping shrike and Minke whale,AL2 1GE,51.720874520000000,-0.311457000000000
Boto and Egret,HA7 4RZ,51.615556575595700,-0.300840589907212
Jackal and Parrotbill,HA5 3UY,51.604435648742000,-0.402844964794782
Kākāriki and Mole,WD17 4UU,51.674856440827700,-0.413761607531514
Greenbul and Triller,AL2 3LW,51.706256550000000,-0.360200000000000
Tree warbler and American sparrow,HA3 0NB,51.582294137952700,-0.302687796472358
Shearwater and Pitohui,AL1 5NG,51.747739450000000,-0.308256520000000
Capuchin and Ground sloth,HA7 4SR,51.619192203141200,-0.296689004872034
Coati and Jackal,AL1 5LB,51.749492520000000,-0.309480353000000
Jay and Solitaire,HA5 3XD,51.604460796592500,-0.402049856832660
Masked owl and Philippine hawk-owl,AL2 1SA,51.722033220000000,-0.297184890000000
Argus and Night heron,AL1 5FJ,51.751527600000000,-0.309056669000000
Tree warbler and Marsh harrier,HA8 8SJ,51.622070354531400,-0.274565146002967
Coati and Dorcopsis,HA7 3AY,51.619133347032500,-0.321320408542413
Solitaire and Ground sloth,WD6 1TH,51.661026232602800,-0.268574695662237
Parrotbill and Mouse,HA6 3DD,51.625962395242700,-0.417432183571722
Parakeet and Rat,HA6 2NT,51.617190020298800,-0.439216251594721
Capuchin and Condor,WD17 4FS,51.681460000000000,-0.425927000000000
Hawk and Myna,HA6 2SA,51.612958696831000,-0.437483780686535
Gull and Tit-tyrant,WD25 0JN,51.702703041766200,-0.394452281551924
Pitohui and Kākāriki,AL1 3AF,51.748047870000000,-0.328554891000000
River dolphin and Parakeet,HA5 3JE,51.594155285291600,-0.382314927667528
Polecat and Night heron,WD23 2AR,51.667168043121100,-0.371690039375504
Polecat and Maya,WD23 3AY,51.648321193128300,-0.363316902029143
Jerboa and Petrel,AL1 1EX,51.750127740000000,-0.339531704000000
Jackal and Jackal,AL2 2NA,51.722607740000000,-0.340482182000000
Parrotlet and Ibex,WD6 1PW,51.661248027429300,-0.274479865892936
Cloud rat and Tattler,HA9 8TP,51.576576186416100,-0.310867153505044
Civet and Thrasher,WD3 5TF,51.657626271755400,-0.495656562622234
Grouse and Booted eagles,HA5 3NN,51.596775000000000,-0.392018000000000
American sparrow and Argus,HP3 9HP,51.737418010827300,-0.470256232572260
Logrunners and Chicken,WD6 4QT,51.664719924197300,-0.281288684791910
Night heron and Fox,WD25 7DP,51.695017775219900,-0.404563373327343
Armadillo and B,WD25 8BL,51.677160437850100,-0.346107049517625
Parakeet and Wader,HA8 6LE,51.610153857235200,-0.279956334973451
Snipe and Bunting,WD5 0GE,51.705203840047600,-0.405753641929510
Black jay and Coati,HA6 2RE,51.607897738734100,-0.444372827133767
White ibis and Piping shrike,WD17 4YA,51.663607148982500,-0.403122069930525
Civet and Solitaire,WD4 8QN,51.702487576662300,-0.459625649518241
Minke whale and Siskin,HA1 2EQ,51.581246944579700,-0.331246899672310
Crow and Marmoset,AL2 2RB,51.720796440000000,-0.350422228000000
Fox and Crow,HA1 2AL,51.583835000000000,-0.328496000000000
Night heron and Old World quail,HA5 1NE,51.579813728940000,-0.384339643590299
Grackle and Old World warbler,HA6 2YU,51.607514222840100,-0.423041568444274
Vole and Guillemot,AL2 2NY,51.728372710000000,-0.340560668000000
Old World quail and Argus,HA3 8FJ,51.598777000000000,-0.314944000000000
Philippine hawk-owl and Puffleg,WD3 1JP,51.632372947290800,-0.464096978330324
Old World quail and Myna,HP1 1QE,51.745198199850600,-0.490055368966281
Greenbul and Philippine hawk-owl,HP2 4LJ,51.750276380322600,-0.463520021788102
Tattler and New World blackbird,HP3 9LX,51.742157984170000,-0.450600267756475
Triller and Capuchin,HA2 6QQ,51.594730322059400,-0.348063333553749
Rat and Mouse,HA7 2NF,51.599350862246100,-0.308188526236648
Egret and White ibis,WD6 9SE,51.659524107048700,-0.268545200814426
Scimitar babbler and Parrotbill,WD7 7JP,51.678260147912100,-0.314665513615288
Prion and Maya,HA5 3BL,51.595822544322900,-0.379324828918261
Solitaire and Buzzard,WD25 0RJ,51.683543746416000,-0.403881794080851
Masked owl and Crow,UB9 6HL,51.602795000000000,-0.495000000000000
Night heron and Hawk,WD4 4AG,51.641750000000000,-0.427895000000000
Logrunners and River dolphin,WD6 1DS,51.654833652102800,-0.277340146762821
Old World vulture and Prion,HA7 3LS,51.614749138262000,-0.328530766170087
Wader and Kite,HA6 3EJ,51.621031780847700,-0.420550637478947
Grosbeak and Tit-tyrant,UB9 6NN,51.603415342756900,-0.474878982204817
Booted eagles and Meadowlark,HA1 3LT,51.569404786489800,-0.340165064202940
Dorcopsis and Hawaiian honeycreeper,AL2 3QA,51.708680180000000,-0.368810417000000
Rabbit and Kestrel,HA3 0XJ,51.586247604963500,-0.306206925150409
Nukupuʻu and Old World warbler,AL2 3LP,51.705416350000000,-0.361720421000000
Masked owl and Fox,HA6 2TE,51.607221515929700,-0.446952044655623
Quetzal and Petrel,HA5 2AB,51.598087092729100,-0.394924395260893
Bronzewing pigeon and American sparrow,WD24 4LL,51.668033261769500,-0.385512386625738
Elephant and Francolin,WD4 9HT,51.711934465819000,-0.449780466878348
Stilt and Polecat,HA2 6ED,51.586893131826000,-0.362464996102649
Lemming and Fish eagle,WD19 4GU,51.643498561192400,-0.378666124517301
Cuscus and Songlark,HA8 8ST,51.626403938154000,-0.272074672081611
Perching duck and Cuscus,HA1 1TY,51.590068629428800,-0.337607541063849
Towhee and Nukupuʻu,HA8 5EG,51.603830778553200,-0.271892012391886
Peafowl and Mouse,WD3 4AA,51.644553522651600,-0.461763169323333
Darwin's finches and Darwin's finches,WD19 4DJ,51.644687145464100,-0.376831519329096
Jerboa and Linsang,AL3 4LU,51.741849960000000,-0.364168865000000
Argus and Myna,AL2 3NH,51.710343790000000,-0.374656058000000
Boto and Scimitar babbler,HA6 9HB,51.603661000000000,-0.415645000000000
Thicketbird and Gull,WD25 8BN,51.677790103985100,-0.341021749832849
Fulmarine petrel and Mamo,HA2 9SU,51.574463592291100,-0.373287605346447
Mole and Warbler,HA5 2TQ,51.588629026406400,-0.397018861466007
Triller and Lemming,HA6 2LD,51.624174225536500,-0.439019957980496
B and Dorcopsis,HA5 4UB,51.607269246644200,-0.383870659964409
Shearwater and Black cockatoo,AL4 0DG,51.747836310000000,-0.296287191000000
Pratincole and River dolphin,HA3 7LY,51.596976918224800,-0.334597621131167
Cuscus and Jerboa,HA4 7TD,51.579825692699600,-0.432298889380627
Pitohui and Songlark,AL1 2AW,51.745468660000000,-0.341353884000000
Viscacha and Old World quail,HA6 3LJ,51.617563529378100,-0.416077657338783
Buzzard and Solitaire,NW9 0EN,51.592196184320000,-0.270153625814921
Ibex and White ibis,HA5 1PY,51.578012873111900,-0.389397011387976
Wallaby and Philippine hawk-owl,HA5 1BN,51.590317675086700,-0.385728220655179
Tahr and Jerboa,WD7 8AW,51.677515318006300,-0.321679200431016
Bunting and Elephant,HA3 7NB,51.596506444626300,-0.333127710546723
Lemming and Triller,HA2 9UY,51.571611495378900,-0.367992556597972
Petrel and Jackal,HA7 4FW,51.615917718872200,-0.320312402032686
Prion and Stint,WD3 3UD,51.651527072383400,-0.450497703767108
Meadowlark and Condor,HA8 8NT,51.618473748139000,-0.270916933928777
Gull and Tahr,UB9 5LA,51.587253084721500,-0.507480053365677
Marmoset and Jerboa,HA6 2EW,51.627220400051600,-0.434133245103463
Thicketbird and Rabbit,HA5 4RQ,51.606548286541700,-0.378538588505180
Magpie and Stilt,HA8 7TB,51.616629322858500,-0.287410467296819
Warbler and Linsang,UB9 6BQ,51.607645306209800,-0.491171505370236
Myna and Partridge,AL2 1UQ,51.724864920000000,-0.315220655000000
Francolin and Old World warbler,WD3 7PP,51.643356106660700,-0.483078085307323
Treepie and Hawaiian honeycreeper,WD19 5DT,51.628340156686800,-0.384046684968902
Vulture and Chipmunk,WD24 7AB,51.672224000000000,-0.378957000000000
Lemming and Old World quail,HA2 9UG,51.571387526405100,-0.370641272887032
Ibex and Recurvebill,WD3 3LB,51.655183958843900,-0.451645171623284
Puffleg and Greenbul,WD24 6HL,51.677089241410000,-0.402025969860573
Thicketbird and Rat,AL3 4JP,51.743480230000000,-0.363718893000000
Solitaire and Cuscus,HA6 2FX,51.608875753490900,-0.427341383894354
Parrotbill and Macaw,HA6 3HG,51.621996843786900,-0.416761168263637
Maya and Perching duck,WD25 0BF,51.702318000000000,-0.399971000000000
Shearwater and Jackal,WD23 1ND,51.635640586501000,-0.342039927926280
Thicketbird and Thrasher,HA3 5AY,51.591845554034400,-0.332287762143074
Badger and Tahr,AL2 1DP,51.718464590000000,-0.288603820000000
Prion and Polecat,AL2 3HU,51.726069890000000,-0.357136903000000
Tree warbler and Booted eagles,WD24 5FQ,51.683142000000000,-0.406231000000000
Mouse and Puffleg,WD3 5JU,51.646163092714300,-0.526272813509675
Towhee and Rat,WD18 0WR,51.650917670903600,-0.407629939942058
Old World vulture and Mouse,AL1 1UE,51.735788270000000,-0.315712364000000
Myna and Wader,HA5 3QA,51.602892862092300,-0.386033198195019
Egret and Thicketbird,AL5 4ZJ,51.747650000000000,-0.301973000000000
Duck and Ground sloth,HA1 2BH,51.585046603483700,-0.326068000000000
Stilt and Chickadee,WD5 0BL,51.706168761658900,-0.425967199764405
Minke whale and Towhee,WD24 5HS,51.673953564565000,-0.405520568159374
Quetzal and Prion,WD23 4SR,51.640501704260500,-0.348163717162170
Jerboa and Marmoset,NW9 9SH,51.581638828814300,-0.276847538102572
Macaw and Flameback,HA3 5LA,51.604182040709900,-0.349280000000000
Thicketbird and Egret,HA4 7LW,51.577128464690500,-0.433676118555538
Francolin and Linsang,HA9 8PR,51.570728665656400,-0.298111000000000
Skunk and Ice seal,AL1 3NS,51.753448710000000,-0.331484933000000
Grackle and Kestrel,HA9 9TH,51.576271596571900,-0.287369214060654
Dolphin and Magpie,AL1 5RE,51.746299830000000,-0.314452290000000
Kestrel and Guillemot,WD23 2RN,51.653168713330800,-0.369705406248046
Wallaby and Chickadee,HA2 9EE,51.571797199030800,-0.371651166833701
Cloud rat and Warbler,HP3 0PH,51.701193612674100,-0.529159857156257
Marmoset and Fox,WD18 7NL,51.651609600140600,-0.410251039106941
Kākāriki and American sparrow,HA1 4QE,51.585243507841300,-0.350615886118143
Stint and Stilt,HA7 4TZ,51.614866197653800,-0.302845190814617
Grackle and Marsh harrier,HA5 4DQ,51.613594704730900,-0.360810974222067
Old World vulture and Guillemot,WD25 8EE,51.667730064756800,-0.336718465878452
River dolphin and Siskin,HA5 5HY,51.584649282676100,-0.373761064559841
Old World vulture and Dorcopsis,WD19 5RL,51.624994804932800,-0.374254880199181
Tahr and Tattler,AL2 1HP,51.726231500000000,-0.297736636000000
Lemming and Flameback,HP3 9DU,51.737956183158900,-0.472381443172457
Egret and Darwin's finches,HA8 8BL,51.622813085333900,-0.287712249588790
Booted eagles and Bunting,HA3 7DB,51.604391656117800,-0.331439000000000
Cuscus and Grosbeak,HP1 2AJ,51.749114313824600,-0.495328232287773
Kestrel and Jackal,AL1 5NJ,51.747442900000000,-0.307644692000000
Duck and Elephant,AL1 5RF,51.746637190000000,-0.314150015000000
Darwin's finches and Booted eagles,HA4 8JR,51.573407226660100,-0.422375009511013
Piping shrike and Ground sloth,HP3 9UA,51.737051911287500,-0.452063859619280
Pheasant and Jay,HA5 3PG,51.594816830050500,-0.394476614104096
Argus and Meadowlark,WD7 7NG,51.689199445453500,-0.320031825941667
Thicketbird and Snipe,AL2 2TX,51.721408900000000,-0.351775329000000
River dolphin and Night heron,WD23 4JH,51.639868375640700,-0.342145873789933
Kangaroo and Piping shrike,WD17 4NX,51.662649363765600,-0.406090910514583
Petrel and Jerboa,WD19 5AS,51.632265147424400,-0.384369586801967
Old World vulture and Treepie,HA3 8RX,51.598626591857700,-0.316604361496809
Chipmunk and Fulmarine petrel,HA3 0PS,51.572254982905700,-0.294980709588895
Armadillo and Mink,SL9 8DQ,51.584854262443500,-0.541983878732334
Ground sloth and Moluccan boobook,WD24 5LT,51.683949839831300,-0.415946407656040
Piping shrike and Chicken,WD6 5HP,51.665846596439900,-0.276560945701520
Vole and Linsang,WD23 9AJ,51.640496000000000,-0.357905000000000
Linsang and Peafowl,AL2 3UL,51.706235300000000,-0.375367747000000
Herring gull and Herring gull,HA8 6PZ,51.610563964920500,-0.285862300446581
Flameback and Lemming,SL9 7BG,51.574341248720600,-0.529621236646564
Booted eagles and Grouse,HA8 9YL,51.607027348125200,-0.267914759714357
Fox and Rabbit,WD23 4FY,51.638411000000000,-0.350957000000000
Greenbul and Bronzewing pigeon,AL1 3BJ,51.752484000000000,-0.331825000000000
Kangaroo and Francolin,HA2 6HR,51.595152781265900,-0.362167968204102
Gull and Wallaby,HA3 6JX,51.607434257054400,-0.344092988401018
Prion and Badger,WD23 4NP,51.646360479632400,-0.352995190078752
B and Fish eagle,WD18 7PH,51.657227587601200,-0.423441848391338
Rabbit and Dolphin,HA8 6PD,51.611054898933700,-0.287461395838517
Stilt and Pratincole,WD23 9FB,51.640496290395300,-0.357904636568511
Vulture and Greenbul,HA8 0FQ,51.603036000000000,-0.267879000000000
Peafowl and Black jay,WD6 1PA,51.660667245311700,-0.276569500230497
Mink and Marsh harrier,WD23 4HN,51.642390268747300,-0.354584306570414
Tit-tyrant and Boto,WD6 1FL,51.655188327818400,-0.279451848175862
Herring gull and Wallaby,WD17 4EP,51.661778000000000,-0.402782000000000
Perching duck and Recurvebill,HP2 4BS,51.751907361403700,-0.456235478366118
Cuscus and Rabbit,WD25 9UW,51.683645589505600,-0.379141909969071
Greenbul and Fulmarine petrel,HA4 8TX,51.572650906873400,-0.408317163649700
Crow and Kākāriki,UB9 5HX,51.580835281525800,-0.501325437073051
Linsang and Marmoset,WD24 6RW,51.679917803093200,-0.399756732598221
Night heron and Meadowlark,HA8 6JX,51.610835406888700,-0.279829474949000
Kākāriki and Condor,WD7 0FY,51.683007000000000,-0.317272000000000
Recurvebill and Gull,AL2 3TT,51.701919000000000,-0.350125000000000
Elephant and Dorcopsis,WD7 7ED,51.690464490401900,-0.311680372925802
Bronzewing pigeon and Buzzard,HA8 5PT,51.595770226087900,-0.281452671340520
Bunting and Ibex,WD23 2GW,51.653684000000000,-0.369577000000000
Kākāriki and Siskin,WD6 1HF,51.654085112568900,-0.272294312502441
Kite and Hawaiian honeycreeper,WD7 7PL,51.688573531535500,-0.323425892930055
Perching duck and Songlark,UB9 6HH,51.604397000000000,-0.488146000000000
Greenbul and Duck,HA8 9HL,51.613332458522800,-0.277799649928712
Logrunners and Tattler,HA8 6DA,51.602228975475400,-0.282840556911119
Jay and Bunting,AL2 2NW,51.730559080000000,-0.343202977000000
Tahr and Black jay,HA4 6ER,51.571223428909600,-0.425148996893321
Diving bird and Fox,HP3 9UJ,51.739310803051400,-0.448119615356916
River dolphin and Treepie,HA2 9SL,51.574302188278200,-0.372023443769309
Snipe and Booted eagles,WD19 4BY,51.646801822671000,-0.378244754958021
Wader and Peafowl,WD5 0HT,51.703328000000000,-0.402636000000000
Logrunners and Tree warbler,WD3 8RW,51.641019549227100,-0.498576275307750
Chicken and Kite,HA1 1QS,51.584448512953500,-0.335070156338567
Guillemot and Puffleg,WD24 7XG,51.673428965670300,-0.392103415319224
Solitaire and Guillemot,AL1 3JJ,51.752066480000000,-0.337374386000000
Peafowl and Grackle,UB9 4HR,51.572281842688200,-0.527451020641015
Mockingbird and Armadillo,WD25 9AX,51.682290715190200,-0.386538641380064
Triller and Lemming,AL4 0GP,51.739860950000000,-0.301917220000000
Tahr and Vulture,WD24 7RN,51.674327954012200,-0.393402148421849
Triller and Civet,HA5 2PN,51.592306710427200,-0.405594685079162
Armadillo and Marmoset,WD23 9HR,51.640500000000000,-0.357881000000000
Old World quail and Jerboa,AL1 3RR,51.754359500000000,-0.333800000000000
Cuscus and Thicketbird,HA8 8JX,51.623186397730000,-0.279535788448767
Old World warbler and Maya,NW9 9QU,51.588601663584100,-0.281333428670357
Asiatic leopard and Chickadee,WD19 6RU,51.625830893459500,-0.386490822354818
Asiatic leopard and B,WD18 9AG,51.639427000000000,-0.432665000000000
Grackle and Gull,NW9 9PL,51.584645750233700,-0.276473967159657
Marmoset and Solitaire,SL9 8BA,51.583278769710100,-0.545455049219940
Greenbul and Bronzewing pigeon,HP3 9HB,51.745979256500300,-0.468417044261034
Boto and Goose,WD24 7EA,51.673966672749800,-0.388034848436050
White ibis and Scimitar babbler,WD19 4XB,51.641750000000000,-0.427895000000000
Hawk and Armadillo,AL4 0BL,51.747808890000000,-0.299982237000000
Elephant and Myna,AL1 9WS,51.747650000000000,-0.301973000000000
Quetzal and Chipmunk,HA8 9GL,51.607497217416800,-0.272835994090603
Buzzard and River dolphin,HA8 8PJ,51.616498648976700,-0.273577564265564
Petrel and Warbler,HA5 4AG,51.617554455187700,-0.364265040442174
Old World vulture and Stilt,AL4 0DB,51.745906530000000,-0.299633566000000
Towhee and New World blackbird,AL1 3YS,51.751522170000000,-0.338087000000000
Siskin and Tattler,HA4 9SL,51.573755501700300,-0.399073000000000
Jerboa and Egret,AL1 2JZ,51.738279710000000,-0.336591450000000
Towhee and Coati,HA5 1TW,51.581850775535000,-0.389925260007215
Skunk and Moluccan boobook,WD7 7HJ,51.700245956965600,-0.319072839739464
White ibis and Stilt,UB9 6RJ,51.610192423195900,-0.496965014497496
Partridge and Old World vulture,HP3 0HU,51.720118981659300,-0.531122813919718
Peafowl and Herring gull,HA7 3NF,51.615680791466300,-0.331443146758303
Coati and Gull,WD4 8EW,51.709760207956500,-0.447191594989209
Thrasher and Logrunners,HA5 3PE,51.593291774711700,-0.394082839378381
Quetzal and Myna,AL2 1UJ,51.722145800000000,-0.316856408000000
Zebra and Solitaire,WD3 4ES,51.653173973656100,-0.485063295129211
Herring gull and Kite,HA3 6BU,51.611329959071900,-0.334072393435540
Kite and Solitaire,WD4 8DS,51.708821258217200,-0.445544806121419
Badger and Tree warbler,WD25 7FB,51.690576000000000,-0.407373000000000
Partridge and Coati,WD4 8FH,51.707950000000000,-0.445641786205709
New World blackbird and Mamo,AL2 2TB,51.718925960000000,-0.344019072000000
Petrel and Ice seal,HP3 8NR,51.748813409684100,-0.436451122635372
Marsh harrier and Dolphin,AL1 3RU,51.754237850000000,-0.332600428000000
Dolphin and Dorcopsis,WD5 0RX,51.706188001798500,-0.410697703514961
Goose and Fulmarine petrel,HA3 0YF,51.585192000000000,-0.298961538215516
Stint and White ibis,WD6 4ET,51.668821555711500,-0.280757462354263
Treepie and Marsh harrier,HA6 1PN,51.600949379639300,-0.407674504368182
Buzzard and Quetzal,WD6 4UB,51.665763442295000,-0.285008835633568
Francolin and Maya,WD4 8HX,51.715533145903900,-0.441768131465800
Rat and Vulture,WD6 9JQ,51.655282962172600,-0.279043546199616
Diving bird and Tit-tyrant,AL3 4SZ,51.754838470000000,-0.350312238000000
Piping shrike and Darwin's finches,HA2 2JB,51.585229000000000,-0.329664000000000
Dolphin and Civet,AL2 1JF,51.727263770000000,-0.297610982000000
Chickadee and Hawk,HA7 3LH,51.614412000000000,-0.324326000000000
Grosbeak and Puffleg,WD6 1EQ,51.657161263386500,-0.272350818360024
Wallaby and Grosbeak,WD3 0LZ,51.639480000000000,-0.474623000000000
Marmoset and Thicketbird,WD18 7PG,51.651102000000000,-0.415834000000000
Chickadee and Parrotbill,AL1 3NG,51.754008601309300,-0.330261848864170
Chipmunk and Badger,WD19 7BN,51.629737978482200,-0.390888959486158
Meadowlark and Fox,HA7 4HQ,51.614905610208700,-0.305573626087294
Magpie and Myna,HA8 5RY,51.601172105631900,-0.280671161872199
B and Kite,WD18 1EP,51.641755000000000,-0.427873000000000
Tit-tyrant and Badger,HP1 1RX,51.755265766106000,-0.490502001653680
Kite and Siskin,HA5 3LU,51.601402021699200,-0.388786244067845
Flameback and Tattler,HA1 4ET,51.581018866411900,-0.346900770247140
Kite and Ibex,WD18 0QQ,51.655775786345600,-0.401850454490722
Mole and Parakeet,HP3 9WZ,51.732649748500000,-0.458513585432394
Hawk and Chickadee,AL1 3DA,51.753973000000000,-0.331625000000000
Cuscus and Stilt,HA3 5BU,51.593156423004100,-0.335314832266195
Thrasher and Old World warbler,AL4 0AN,51.733411980000000,-0.289400536000000
Fish eagle and Viscacha,WD25 9TF,51.682270419422000,-0.381794761567598
Vole and Pheasant,WD25 0GL,51.707173836334800,-0.397217588950008
Coati and Gull,HA1 4TJ,51.589430145892800,-0.344603336809765
Peafowl and Puffleg,HA7 2NL,51.595414653667800,-0.302747375665430
Ibex and American sparrow,UB9 6HT,51.612071625451000,-0.496253026481655
Gull and Old World vulture,UB9 6AQ,51.594226277639900,-0.483964515914790
Parrotbill and Triller,WD19 6XB,51.618863302135900,-0.384758890969153
Old World vulture and Old World warbler,WD23 1SP,51.636871680362400,-0.341344745250913
Parrotbill and Hawaiian honeycreeper,HA7 2SB,51.614589512557500,-0.314222810061913
Kākāriki and Puffleg,HP1 1DH,51.748780000000000,-0.473479000000000
Treepie and Maya,AL3 4DL,51.754647530000000,-0.345045406000000
Maya and American sparrow,AL1 4PL,51.755283330000000,-0.323289171000000
Egret and Coati,HA1 1SU,51.585715975794800,-0.335673385356895
Pratincole and Boto,WD24 5AT,51.670982593156000,-0.399305161608107
River dolphin and Rat,HA2 6BZ,51.590505852893100,-0.359736596549613
Black cockatoo and Asiatic leopard,HA5 4LU,51.607232763009100,-0.373416393832213
Skunk and Warbler,AL1 3PE,51.755801720000000,-0.327600000000000
Vulture and Badger,WD23 4RN,51.641375402669400,-0.342524481040062
Grackle and Kākāriki,HA8 9UR,51.614486291801700,-0.274318338660341
Treepie and Tit-tyrant,WD4 8DE,51.718695697020000,-0.455875614789335
Tree warbler and Jackal,AL2 3RW,51.711142570000000,-0.371949647000000
Flameback and Moluccan boobook,WD6 5LR,51.674303067249100,-0.274374249094420
Polecat and Fox,HA7 1PF,51.599599241199300,-0.300483264133056
Armadillo and Mouse,HA7 4QN,51.619851816753500,-0.296288723809080
Towhee and Duck,HP3 0HX,51.720433490781300,-0.532545865418819
Warbler and Zebra,WD3 3HL,51.647437768322000,-0.456115205670088
Bunting and Vulture,WD3 9RN,51.624949626202900,-0.509060619039594
Rat and Ibex,HA4 7TN,51.585376658972500,-0.434392000000000
Pheasant and Civet,HA8 5RU,51.599929011269700,-0.279909514081031
Crow and Tattler,WD25 8DS,51.667480064034000,-0.347674298877720
Grackle and Cuscus,HA7 3DB,51.625810582393100,-0.321045079517102
New World blackbird and Bronzewing pigeon,WD7 7NF,51.687892368736400,-0.321063979470827
Dolphin and Wader,AL1 3PQ,51.755560550000000,-0.326176000000000
Francolin and Pheasant,HA8 7PG,51.614368025147400,-0.280966980709078
Darwin's finches and Jay,HA7 3SW,51.614320422153400,-0.321801296530141
Thicketbird and Parrotlet,WD3 0YY,51.639480000000000,-0.474623000000000
Snipe and River dolphin,HA9 9PH,51.570681265357900,-0.287564881379466
Jerboa and Pitohui,HA3 7JJ,51.602585943324600,-0.334450179322138
Cloud rat and Jay,WD3 8QR,51.636827355813600,-0.500535487795290
Nukupuʻu and Marmoset,HA4 7AB,51.574500269654700,-0.425425386516220
Dolphin and Fish eagle,UB9 4LF,51.573504123069100,-0.518825400307722
Nukupuʻu and Mamo,NW9 9SJ,51.581964912018900,-0.277008405771172
Solitaire and Kākāriki,HA8 7PR,51.614148946775600,-0.279516439394282
Jackal and Badger,HA5 3UH,51.601386060057400,-0.396815173645078
Buzzard and Pheasant,HA7 4JE,51.618788013248500,-0.307913598022919
Viscacha and Argus,AL1 1HU,51.737310470000000,-0.313381947000000
Chicken and Snipe,WD4 8JA,51.718538435591200,-0.445196000000000
Pratincole and Tit-tyrant,AL2 3SE,51.710080840000000,-0.371900922000000
Goose and Shearwater,HA1 4XF,51.590920309312400,-0.343148851664723
Capuchin and Mole,AL2 3EN,51.722070820000000,-0.365042059000000
Pitohui and Fox,HA6 3JQ,51.620881453971600,-0.414734257603798
Mink and Dolphin,WD23 3AZ,51.647403727673000,-0.363942563490598
Linsang and Parrotlet,WD25 0LN,51.694413556598900,-0.386657402488358
Macaw and Warbler,WD6 3XZ,51.655281258567800,-0.279043537785237
Nukupuʻu and Prion,WD18 7PL,51.650357918848600,-0.419444862089158
Chickadee and Gull,WD5 0HP,51.703681293189900,-0.418846459981575
Perching duck and Linsang,HA4 9YS,51.574548519661800,-0.412092000000000
Lemming and Grackle,HA4 8QQ,51.575630579218100,-0.412542475187960
Piping shrike and Condor,HA3 0TJ,51.581227457754200,-0.293620147914747
Bronzewing pigeon and Chickadee,HP1 2LR,51.755659058233600,-0.500152730619200
Badger and Hawk,WD17 3HG,51.670547755087300,-0.415647492800639
Parrotlet and Armadillo,HA3 9RY,51.584975505505400,-0.283635429329143
Stilt and Dolphin,WD6 1AT,51.657865293924200,-0.271919229919945
Minke whale and Duck,WD24 6QE,51.676235144697000,-0.399394784660143
Rabbit and Pheasant,WD18 1FJ,51.641755000000000,-0.427873000000000
Booted eagles and Old World vulture,HA4 8RJ,51.576874837531300,-0.403508171954085
Cloud rat and Old World warbler,WD23 2BY,51.666230423047000,-0.369569091813560
Pheasant and Chickadee,HA1 4EL,51.579997304009600,-0.354832574390744
Linsang and Cloud rat,HA8 5PD,51.597036688436300,-0.278286191713797
Stint and Grackle,HP3 8HN,51.746301444469800,-0.438913489799596
Armadillo and Night heron,WD23 1HH,51.634055871006000,-0.350189689506462
Marmoset and Pratincole,HA5 3DN,51.599872112475100,-0.381505358957307
Buzzard and Guillemot,WD3 0JW,51.639480000000000,-0.474556770438289
Minke whale and Darwin's finches,WD19 7SG,51.626485176275100,-0.389747110879324
Wallaby and Bunting,HA4 7LR,51.576864414401800,-0.436802434339362
Thicketbird and Cuscus,HA7 3BN,51.619826879599600,-0.313869838059221
Linsang and Treepie,AL2 3HB,51.732009860000000,-0.354300443000000
Fish eagle and Mole,NW9 0EU,51.592647352791200,-0.269039279219919
Dorcopsis and Vulture,HA8 7NT,51.611501936168400,-0.285437009950980
Skunk and Treepie,HA3 9TY,51.578970651477000,-0.288696577508048
Mockingbird and Rat,WD23 1PP,51.639785634301400,-0.331859212228330
Thrasher and Bronzewing pigeon,WD3 5PD,51.647369588317600,-0.527115382315488
Guillemot and Condor,AL1 1AU,51.741438000000000,-0.319187000000000
Tattler and Ibex,WD7 9BH,51.690984465547700,-0.279961252302295
Myna and New World blackbird,WD18 8AD,51.648263000000000,-0.423363000000000
Kangaroo and Fulmarine petrel,HA5 1BL,51.590516953618800,-0.383873340104063
Bunting and Fulmarine petrel,WD7 9HX,51.696842368619500,-0.291329678382220
Rabbit and Bronzewing pigeon,WD3 3AT,51.646119178555700,-0.440029743086600
Recurvebill and Jay,HA3 5BA,51.591418036692600,-0.326889751386785
Fish eagle and Flameback,HA3 8SY,51.595034357622300,-0.315047972837773
Kite and Skunk,WD24 5BQ,51.671042000000000,-0.396989000000000
Armadillo and Tattler,HA2 6PY,51.593991212691900,-0.351136402691692
Buzzard and Egret,WD3 0BR,51.639480000000000,-0.474556753427907
Chipmunk and Tahr,HA6 3QY,51.611970495932500,-0.404790282372815
Darwin's finches and Tit-tyrant,WD6 3JB,51.645814376493500,-0.279170771735960
Treepie and Civet,WD7 9BW,51.692440716955200,-0.281772505569853
Condor and Argus,WD17 4QR,51.665545296140900,-0.402157414872947
Prion and Chicken,WD4 9PS,51.712933663519500,-0.454103000000000
Francolin and Masked owl,AL1 1XT,51.747840080000000,-0.341180107000000
Puffleg and Marsh harrier,HA5 4NR,51.606775360692300,-0.372205234314527
Mink and River dolphin,WD24 5JN,51.679986491952100,-0.412106980615084
Rabbit and Elephant,HA3 5DY,51.599972894293300,-0.339151868821534
Rat and Quetzal,HA3 9JZ,51.591052683893800,-0.292775611635827
Cloud rat and Solitaire,HA3 5ES,51.603500288075600,-0.339961786057342
Rat and New World blackbird,HA1 2QD,51.586151738060900,-0.329003032946500
Chipmunk and Chickadee,AL1 2JA,51.740884940000000,-0.335148761000000
Crow and Marmoset,WD25 9AL,51.688874171555100,-0.377493963108523
Tree warbler and Peafowl,HA7 3PB,51.611943511276200,-0.329676000000000
Night heron and Wallaby,HA1 3GE,51.575379000000000,-0.344113259670937
Old World vulture and Hawk,WD25 9NT,51.694721611570000,-0.381596690935000
Hawaiian honeycreeper and Meadowlark,HA4 7RL,51.583089094441100,-0.434265029841201
Solitaire and Ibex,HA5 5SP,51.595091985467200,-0.368132864226877
Pitohui and Chicken,NW9 0QP,51.594973125827600,-0.268820923789053
Hawk and Tattler,HA5 4NP,51.606902989337200,-0.372330641352885
Fox and White ibis,HA5 1SJ,51.583200067283200,-0.397844991755361
Darwin's finches and Fish eagle,WD18 6NX,51.645732738131000,-0.419201005589376
Stint and River dolphin,HA3 7QA,51.597420230979800,-0.324676697220088
Fish eagle and Nukupuʻu,UB9 5ND,51.580318889206100,-0.498210536826539
Jackal and Bronzewing pigeon,HA6 3HJ,51.619341369244100,-0.415885755312416
Mole and Pitohui,HA3 5RT,51.596211391003400,-0.336415928784383
Maya and Civet,WD17 2AA,51.651668027514600,-0.391948447807741
Treepie and Pheasant,WD24 5DY,51.668206518604600,-0.400805701528913
Boto and Mamo,HA5 2HY,51.585194289641000,-0.410260562896841
Rabbit and Partridge,WD6 3DJ,51.642984000000000,-0.303963000000000
Capuchin and Buzzard,WD19 6LH,51.621270853963400,-0.386551365940051
Eagle and Wallaby,AL2 3UF,51.706430460000000,-0.378429025000000
Wallaby and Recurvebill,WD17 1DE,51.662052563611100,-0.396597976324357
Songlark and Prion,WD19 4LR,51.637386372005000,-0.393233899171439
American sparrow and Meadowlark,HA2 7SY,51.586082358325300,-0.361714671123916
Mouse and Capuchin,WD25 9DB,51.676526432821100,-0.378672914223818
Partridge and Kite,WD23 3RU,51.651240422219900,-0.346400118167136
Perching duck and Asiatic leopard,AL2 3SR,51.707995980000000,-0.369399494000000
Old World quail and Triller,WD17 4XA,51.667253544054500,-0.408763572549543
Civet and Herring gull,HA8 6SB,51.610370000000000,-0.297247650961268
Civet and Grouse,WD18 0GZ,51.646641000000000,-0.405401000000000
Diving bird and Shearwater,WD18 8YS,51.648240552766100,-0.428509101895465
Tahr and Masked owl,WD17 4PD,51.666359426550000,-0.407811609272060
Piping shrike and Chicken,WD3 6EE,51.672888943391400,-0.525709310600719
Darwin's finches and Polecat,WD7 8NU,51.677372859119000,-0.322407656506040
Gull and Bronzewing pigeon,HA7 2SD,51.615535403123500,-0.313090010560242
Elephant and Francolin,WD5 0TG,51.696883842032500,-0.406899749824033
Thicketbird and Tahr,WD3 6DD,51.682616914884900,-0.488116657188488
Prion and Zebra,HA1 3BG,51.576235970394300,-0.338689537515269
Recurvebill and Moluccan boobook,HA1 2EX,51.580694000000000,-0.332635386535039
Old World warbler and American sparrow,HA7 3FE,51.615015690190000,-0.320620212224045
Logrunners and Greenbul,WD17 1DA,51.662818095742500,-0.396686626112433
Capuchin and Fulmarine petrel,WD23 1DT,51.638099000000000,-0.361983533050665
Crow and Treepie,HA3 8LD,51.589847076536200,-0.315759596223280
Night heron and Hawaiian honeycreeper,HA5 9PZ,51.595050000000000,-0.385171000000000
Pitohui and Chipmunk,WD3 7NY,51.642193438618100,-0.483564905091340
Kākāriki and Hawk,HA6 2QN,51.610067781292800,-0.432427173875907
Grackle and Night heron,HA3 8UJ,51.591357175300500,-0.310087965194300
Mink and Towhee,HA8 8BT,51.622477000000000,-0.286873000000000
Macaw and Rat,WD3 4JH,51.660219676964600,-0.479883694151694
Nukupuʻu and New World blackbird,HP3 9SH,51.736685789621800,-0.468731246294102
Logrunners and Snipe,HA1 4AF,51.574999046595200,-0.351087755708393
Chicken and Pitohui,WD4 8BS,51.718713549594000,-0.451083196624787
Cuscus and Stilt,SL9 0ED,51.620223000000000,-0.546470000000000
Triller and Philippine hawk-owl,HA7 4LB,51.630026458431700,-0.323461305726157
New World blackbird and Rat,HA5 4PG,51.612086101152700,-0.378442374084652
Vole and Black cockatoo,WD25 7NW,51.696804659240100,-0.401071180237964
Grackle and Mouse,HA4 9PR,51.571546828623300,-0.391313856914330
Myna and Maya,HA8 7BQ,51.611705000000000,-0.275968255542910
Minke whale and Parrotlet,HA3 5LR,51.598581004214400,-0.346292045794121
Jerboa and American sparrow,HA4 8TY,51.574752954925700,-0.404188618398298
Stint and Grosbeak,AL1 9YQ,51.753408337354000,-0.336122676535098
Dolphin and Francolin,AL3 4SY,51.755351960000000,-0.350380458000000
Chicken and Egret,UB9 5HZ,51.580369400458600,-0.502163424171856
Crow and Nukupuʻu,AL2 2JX,51.714560120000000,-0.333510002000000
Mockingbird and Flameback,WD19 5BW,51.628714998461500,-0.381230415158233
American sparrow and Bunting,HA1 2RB,51.587029060238400,-0.324943464570418
Warbler and Wader,AL1 2NY,51.734638300000000,-0.343618604000000
Solitaire and Siskin,HA7 9AF,51.604508123353600,-0.295623000000000
American sparrow and Pheasant,HA6 2NH,51.611444287292300,-0.434502826194657
Polecat and Ibex,HA6 2PT,51.608506581129900,-0.441463680052290
Zebra and Thicketbird,WD19 6EU,51.620284921578800,-0.387438618735811
Dolphin and Fox,WD19 4FB,51.644166328462500,-0.382096600470730
Zebra and Gull,HA1 2DE,51.579681187648100,-0.333700084047191
Mink and Triller,UB9 6JD,51.593404583652000,-0.484396102492522
Thicketbird and Gull,HA4 7DD,51.572059038156600,-0.427400000000000
Mockingbird and White ibis,HA3 8QR,51.597228243675000,-0.315659821137157
Coati and Fulmarine petrel,WD25 7AT,51.693115708167200,-0.408189547480791
Parrotbill and Buzzard,HA3 5SH,51.596541076721200,-0.336837024628098
Nukupuʻu and Egret,AL1 3DU,51.753435030000000,-0.337958000000000
Greenbul and Bunting,WD3 5BH,51.646839764569100,-0.530760439447278
Badger and Magpie,WD4 8AP,51.725197909805100,-0.455958152323172
White ibis and Buzzard,HA1 1TN,51.588098045427400,-0.334344895944133
Masked owl and Polecat,AL2 1FH,51.725832308516300,-0.296752632872153
Coati and Zebra,HA3 9AH,51.590948931477900,-0.304227526447147
Ground sloth and Minke whale,WD6 3AA,51.660831629764300,-0.303297168442389
Kākāriki and Goose,WD3 3BP,51.646145799435600,-0.450189741264902
Myna and Chickadee,HA7 1PG,51.599685553149500,-0.301476341043772
Greenbul and Duck,WD23 3AJ,51.650838984348400,-0.365900445393962
Ibex and Rat,HA8 5PR,51.595495114295600,-0.281219000000000
Treepie and Tattler,AL3 4HW,51.738480910000000,-0.352790836000000
Rat and Ground sloth,HP3 9DE,51.738018000000000,-0.464798000000000
Mole and Songlark,WD18 6AD,51.645910137806500,-0.408874000000000
Quetzal and Old World quail,HA6 2UD,51.607760942323300,-0.440634000000000
Thicketbird and Kestrel,WD18 9SR,51.638443780741500,-0.443024393604137
Scimitar babbler and Jackal,AL3 4TZ,51.754933580000000,-0.348121005000000
Old World quail and Masked owl,HA1 4AQ,51.575355033129100,-0.354668270820544
Mamo and Petrel,HA2 6NR,51.600305182436300,-0.354445337232238
Marsh harrier and Magpie,WD23 1HN,51.635823727470700,-0.348015766082280
Jackal and Tit-tyrant,HA2 9LR,51.571846764662800,-0.373280005134704
Masked owl and Tree warbler,WD19 4ND,51.635885267773900,-0.388026976994469
Scimitar babbler and Old World vulture,HA7 3HF,51.626758544154500,-0.323827382489759
Boto and Dolphin,HA8 5DS,51.599992677581500,-0.273221732747332
Mole and Black jay,HA8 5RZ,51.601154027116600,-0.280050941089451
Logrunners and Solitaire,SL9 0FH,51.621970000000000,-0.546437000000000
Mink and Thrasher,HA3 8HZ,51.590228796492500,-0.311660063986424
Songlark and Scimitar babbler,HA1 1AR,51.581021000000000,-0.336798000000000
Thrasher and Kākāriki,HA1 2JU,51.580577377099100,-0.328428123647174
Bronzewing pigeon and Fish eagle,HA9 8QS,51.570165751624000,-0.307194300658210
Parrotlet and Tit-tyrant,AL3 4ST,51.755107630000000,-0.350910950000000
Flameback and Argus,HA8 8DB,51.626018064448400,-0.294010000000000
Fish eagle and Kākāriki,WD6 4PP,51.661606632017500,-0.284225960378176
Mouse and Dolphin,HA6 2AD,51.612609586564100,-0.426158008536266
Nukupuʻu and Songlark,WD18 1YW,51.641750000000000,-0.427895000000000
Masked owl and Francolin,HA8 7DD,51.610041034750300,-0.279007398210651
Grouse and Parrotlet,AL1 5QN,51.744163360000000,-0.309070908000000
Bunting and Hawk,WD25 9UE,51.681694040830000,-0.381077590725785
Dolphin and Warbler,HA6 2XU,51.607203942520700,-0.444266568497820
Greenbul and Tattler,HA4 8SZ,51.579280549827000,-0.401879598707025
Black cockatoo and Piping shrike,WD23 4RD,51.646990000000000,-0.346497000000000
American sparrow and Polecat,HA8 7RF,51.614320103677000,-0.290617242477307
Darwin's finches and Ice seal,WD19 7TD,51.626624206589900,-0.395188000000000
Chipmunk and Bunting,HA6 1QG,51.603234000000000,-0.405674000000000
Parrotbill and Chickadee,HA5 2TR,51.595986640138700,-0.397828245599051
Argus and Rat,WD24 4AE,51.668110549870000,-0.397063756817167
Flameback and Ibex,HA1 2DJ,51.585728000000000,-0.332007000000000
Hawaiian honeycreeper and Jackal,HA8 8HU,51.622365788616600,-0.283062844018864
Treepie and Thrasher,HP2 4AF,51.755083018534500,-0.468036649496626
Gull and Scimitar babbler,AL2 2RE,51.720138680000000,-0.350967350000000
Viscacha and Greenbul,WD18 0PT,51.653711374554200,-0.400144961705382
Ibex and Maya,HA2 0XH,51.570454259831400,-0.364960463057636
Condor and Night heron,UB9 5LJ,51.584307981916900,-0.500056477949662
Hawk and Wader,AL1 1DU,51.731177210000000,-0.315840331000000
Gull and Marmoset,HA5 3RB,51.604489061163300,-0.394236564379731
Chickadee and Perching duck,HA7 3DZ,51.620789877025800,-0.316434387237945
Grosbeak and Parakeet,AL1 5RT,51.744520460000000,-0.310766836000000
Kākāriki and Mockingbird,HA6 1DS,51.608195742823400,-0.420895036908185
Badger and Skunk,UB9 5EH,51.580811075738500,-0.523538304055045
Greenbul and Songlark,HA2 0RZ,51.573243226817100,-0.359261311424147
Buzzard and Civet,WD3 7AW,51.638283366236900,-0.480198161565328
Jerboa and Vole,WD23 2PT,51.640494455889500,-0.357904625225253
Treepie and B,WD6 4EW,51.669845227889500,-0.279431635331707
Parrotbill and Mamo,WD18 0BG,51.654158027010600,-0.395315297385895
Flameback and Mockingbird,HA5 1BU,51.589459683486500,-0.387418741339804
Capuchin and Grackle,WD25 9LB,51.689682273396100,-0.389169368735998
Siskin and Ice seal,WD4 8LD,51.710213832948100,-0.440706153334843
Vole and Marmoset,HP1 1TN,51.755066753142300,-0.483423837715520
Asiatic leopard and Old World quail,HP3 0PU,51.700888811341500,-0.536434158666342
Solitaire and Buzzard,HA4 8FT,51.583111000000000,-0.408414000000000
Rat and Cloud rat,HA4 8DL,51.576507774836100,-0.418905103792807
Crow and Jerboa,HA5 1SW,51.582656844553000,-0.391657665696292
Treepie and Rabbit,UB9 6EY,51.605550599066600,-0.470359704493623
Civet and Peafowl,HA3 9XH,51.579911417498300,-0.291547811517255
Masked owl and Marsh harrier,WD4 8FG,51.712754856164500,-0.449260273207064
Thicketbird and Bunting,WD6 4QZ,51.662728684844900,-0.281017012497466
Vulture and Greenbul,WD6 3BE,51.643671381057500,-0.308056947577813
Grouse and White ibis,AL2 3BD,51.731596480000000,-0.361396687000000
Hawaiian honeycreeper and Capuchin,WD3 8RB,51.639932226166400,-0.499334764066137
Tit-tyrant and Kangaroo,AL2 2LB,51.712155790000000,-0.333265451000000
Quetzal and Egret,AL1 1QN,51.749055410000000,-0.341280452000000
Perching duck and Flameback,HA2 9QW,51.573539639320600,-0.377346754772552
Viscacha and Cuscus,WD3 3TE,51.650187615603000,-0.430884659999394
Tahr and Crow,WD25 8DP,51.665969658630100,-0.353455452456966
Ice seal and Civet,WD25 7HB,51.694886479461300,-0.402180565591759
Tit-tyrant and Tree warbler,AL2 1QN,51.722069080000000,-0.292840112000000
Jerboa and Kākāriki,HP3 8TU,51.742961358334000,-0.437927787144149
Pitohui and Mouse,HA7 1QH,51.592862000000000,-0.287318069697740
Old World warbler and Jerboa,UB9 5JP,51.581714571097700,-0.503288279469369
Treepie and Towhee,WD18 7LJ,51.655776924764200,-0.422552496965576
Mockingbird and Minke whale,WD3 3BJ,51.646061300206400,-0.453329055203833
Chipmunk and Duck,HA7 4UZ,51.620407818339900,-0.307997805109614
Peafowl and Cloud rat,HA7 4NN,51.621876000000000,-0.303775676913681
Dorcopsis and Pitohui,WD3 3HG,51.648712950133800,-0.442369064329763
Black jay and Guillemot,HA1 1PB,51.583552566135900,-0.342810000000000
Partridge and Ice seal,HA6 2PN,51.614477262930100,-0.434701796930143
Minke whale and Recurvebill,HA7 2AG,51.600936644280500,-0.323449890783893
Linsang and Stilt,AL1 3RG,51.752373410000000,-0.328583550000000
Marsh harrier and Ground sloth,WD17 2HS,51.656077938971300,-0.394336705569660
Bronzewing pigeon and Greenbul,HA5 5EH,51.575567236182400,-0.371170090657601
Wader and Tattler,HA6 2YY,51.607871718791300,-0.428242567434890
Asiatic leopard and Stilt,AL3 4EZ,51.751266090000000,-0.343097312000000
Shearwater and Asiatic leopard,HA4 8TU,51.573043830395600,-0.408115843273510
Kite and Dolphin,WD3 5PN,51.648884260971200,-0.531026797935382
Greenbul and Francolin,WD6 4RN,51.655218000000000,-0.280810000000000
Wallaby and Cuscus,WD19 4RD,51.643954980591200,-0.391717000000000
Hawk and Zebra,WD17 4RU,51.671213676697800,-0.412355920364474
Triller and Hawk,HA5 2SY,51.587571000000000,-0.392528284769824
Bronzewing pigeon and Grouse,HA6 3PL,51.614339149211100,-0.410488000000000
Minke whale and Parrotlet,HA6 1JU,51.599084591679000,-0.414063896281935
Pitohui and Fulmarine petrel,HA7 4ZP,51.630976000000000,-0.320975000000000
Darwin's finches and Tattler,HP1 3QG,51.755687813250600,-0.492559790236262
Gull and Egret,HA5 4BY,51.611651196155900,-0.362832000000000
Viscacha and Petrel,HA3 6HY,51.605198855782700,-0.343076813834451
Linsang and Cuscus,AL1 9JU,51.747655000000000,-0.301949000000000
Flameback and Tit-tyrant,HA3 0JX,51.578130925069000,-0.300836812001550
Logrunners and Condor,WD25 7NA,51.694622000000000,-0.415733000000000
Asiatic leopard and Moluccan boobook,WD5 0DN,51.701101059498300,-0.427590173126315
Logrunners and Eagle,HA3 3NR,51.585229000000000,-0.329664000000000
Mink and Pheasant,WD4 9AW,51.685529018357600,-0.476880736037017
Fish eagle and Philippine hawk-owl,WD6 4JZ,51.667807440268900,-0.287664738306130
Prion and Parrotbill,HA5 3AN,51.595789651635000,-0.376294071505810
Tree warbler and White ibis,UB9 5EB,51.579362923954500,-0.519933854901646
Argus and Chickadee,AL2 2BE,51.714027300000000,-0.350552720000000
Chickadee and Towhee,HA4 9TG,51.572179678163600,-0.398795242307113
Stilt and Mink,HA1 4SG,51.589125264279300,-0.346577672824940
Solitaire and Rat,WD24 7TF,51.672630357402900,-0.385016308188539
Dorcopsis and Kākāriki,WD24 6BP,51.672333267906500,-0.397464253647964
Philippine hawk-owl and Triller,WD23 2FT,51.648910000000000,-0.383041000000000
Coati and Macaw,WD19 4QA,51.644428715792100,-0.390065422939879
Fish eagle and River dolphin,WD24 7EL,51.673202043379100,-0.386702532620892
Guillemot and Ice seal,HA2 0AR,51.572107185860200,-0.351986061128895
Ground sloth and Mole,WD5 0TF,51.696810237367400,-0.408103331795296
Wallaby and Grosbeak,AL4 0XG,51.752361260000000,-0.297044140000000
River dolphin and Coati,HA6 1LR,51.599632278451700,-0.408023788425399
Flameback and Snipe,HP3 9TZ,51.737317640440800,-0.453807188608583
Masked owl and Mouse,HA2 6NH,51.601509148402600,-0.358228311595278
Coati and Snipe,HA6 3RB,51.612013196523200,-0.407272956940699
Minke whale and Tahr,AL1 2LH,51.736863200000000,-0.336889670000000
Buzzard and Marmoset,AL3 4RF,51.750991660000000,-0.347236225000000
Triller and Elephant,WD4 4EG,51.641755000000000,-0.427873000000000
Myna and Triller,HA8 9QD,51.617635867917600,-0.270197645587025
New World blackbird and Kestrel,AL2 2SF,51.717251000000000,-0.354619000000000
Thrasher and Parrotbill,AL1 2QL,51.734016830000000,-0.347233000000000
Maya and Kangaroo,WD23 4SG,51.642116490617100,-0.340878775388129
Duck and Logrunners,HA4 8DY,51.580507303794900,-0.411434418596488
Mole and Tit-tyrant,HA3 0RL,51.576903624459400,-0.298053931213395
Fox and Siskin,HP3 8QS,51.744925000000000,-0.432008000000000
Zebra and Black jay,HA5 5PN,51.594069887334500,-0.380686557704471
Dolphin and Jay,HA7 2JD,51.598540430552000,-0.311857204786426
Booted eagles and Old World vulture,HP3 8JR,51.735686381284300,-0.450792635856716
Jay and Vulture,UB9 5ED,51.579192264620100,-0.523518601034460
Hawk and Rabbit,WD25 8DN,51.664064245782400,-0.352237631551969
Piping shrike and Stilt,HA2 0HH,51.570370079249600,-0.360216105436433
Marsh harrier and Night heron,WD7 8NN,51.679348485274700,-0.331693121393787
Stint and Black jay,WD23 1GD,51.636098932628200,-0.342659041000064
Myna and Grosbeak,WD17 2EH,51.651686058305700,-0.390776835140154
Asiatic leopard and Francolin,HA3 7SJ,51.594680187562500,-0.334612000000000
Chickadee and Flameback,HA3 7AN,51.598358000000000,-0.334157312651350
Black cockatoo and Buzzard,HA7 4ZE,51.630485064988400,-0.320944744685189
Viscacha and B,HP2 4DB,51.752279219564400,-0.448283647628121
Grackle and Civet,AL2 3XD,51.705851860000000,-0.371054119000000
Songlark and Mole,WD24 6DJ,51.676458993184700,-0.400645206064707
Boto and Fish eagle,HA5 5BT,51.578324132271200,-0.374795045859242
Rabbit and Night heron,WD17 2SB,51.657650850129000,-0.389033082789343
New World blackbird and Cloud rat,WD24 7RG,51.680215925914800,-0.389331728820545
Stint and Fox,HA4 8FP,51.583083000000000,-0.408992000000000
Chipmunk and Parakeet,WD24 7JG,51.676273000000000,-0.390860000000000
Moluccan boobook and Tree warbler,WD6 4NT,51.661870621203100,-0.289377819910310
Tahr and Towhee,WD5 0BR,51.703377495267700,-0.435109007587084
Partridge and Asiatic leopard,WD19 4AW,51.642849978713300,-0.381189575687711
Asiatic leopard and Booted eagles,WD23 3LH,51.644935111414900,-0.359217000000000
Mole and Perching duck,HP3 0NX,51.740745293149500,-0.496214561133013
Elephant and Parrotbill,HA4 8FW,51.583273000000000,-0.407744000000000
Elephant and Pitohui,UB9 6LB,51.613218395228800,-0.484039591355541
Capuchin and Hawk,AL2 1TA,51.719463760000000,-0.284975730000000
White ibis and Old World quail,WD19 4QN,51.640374548201700,-0.389500859942088
Marsh harrier and Petrel,HP3 8HS,51.741038755196200,-0.447553478708243
Bronzewing pigeon and Jerboa,HA7 2LB,51.596158527900900,-0.310054144550835
Pitohui and Black cockatoo,WD3 7HU,51.636798641682900,-0.491273604744956
Parrotbill and Coati,HA8 0EF,51.607060000000000,-0.272506000000000
Siskin and Shearwater,HA8 6PN,51.610011314973700,-0.285448000000000
Fulmarine petrel and Tattler,HA3 7NF,51.596555418157900,-0.332144128826760
River dolphin and Boto,HA3 6DF,51.610361036745400,-0.338036208952512
B and Treepie,HA7 1ND,51.596836087348100,-0.295966179244782
Polecat and Boto,WD23 4AA,51.643916850450600,-0.349181480183337
Thicketbird and Viscacha,AL3 4QU,51.753472160000000,-0.347145675000000
Gull and Nukupuʻu,WD3 3LW,51.652048400760700,-0.441647604026999
Jackal and Logrunners,AL1 9NB,51.747650000000000,-0.301973000000000
Darwin's finches and Hawk,AL5 9AY,51.747650000000000,-0.301973000000000
Wader and Tahr,WD18 7LP,51.653490319427300,-0.416343509672558
Fish eagle and Bunting,HA8 8NF,51.621694972343200,-0.290366000000000
Cuscus and Dolphin,WD3 1PR,51.621404000000000,-0.468252000000000
Perching duck and Thrasher,WD17 4UD,51.669902611449800,-0.409827652113032
Meadowlark and Parrotbill,WD23 1AW,51.635132087592300,-0.352549387475912
Perching duck and Maya,HA5 1DE,51.586421795554200,-0.389489424619152
Old World vulture and Flameback,HA6 1SD,51.605650973692500,-0.414889297312679
Shearwater and Black jay,WD3 6EW,51.663534571843400,-0.514069746378751
Flameback and Black jay,HA1 1SF,51.587634219225000,-0.336512709016726
Bronzewing pigeon and Myna,WD19 4JP,51.640373770115000,-0.398648933482811
Elephant and Tahr,HA4 7AA,51.574807795164600,-0.425559070416349
Fulmarine petrel and Meadowlark,WD17 2JD,51.647391951760900,-0.384525703349381
Condor and Kangaroo,WD25 9SP,51.686147898876000,-0.380629392524618
Perching duck and Jerboa,WD19 4AU,51.641708441696900,-0.377313644237645
Civet and Jerboa,WD5 0QE,51.715625000000000,-0.412920059942912
Thrasher and Jerboa,WD5 0DY,51.708749513045800,-0.411939509492790
Diving bird and White ibis,WD6 3LY,51.649489697488100,-0.283917380935199
Piping shrike and Cuscus,WD5 0DJ,51.702583107315400,-0.425454878183214
Jackal and Quetzal,HP2 4UN,51.751996391198800,-0.434517000000000
Mouse and Capuchin,WD19 4JX,51.642512215687200,-0.396550242169826
Wader and Old World quail,WD3 3TA,51.648962743132000,-0.436130592103073
Kākāriki and Night heron,HP3 9UH,51.738247350855500,-0.449980906697729
Vole and Greenbul,WD4 8ES,51.714462354794400,-0.449187397805720
New World blackbird and Partridge,WD6 5EB,51.667001827613100,-0.276849698669527
Egret and Dolphin,WD3 4JA,51.658865844261100,-0.476025430062900
Kākāriki and Cloud rat,HA3 8PG,51.590281056421400,-0.322831672577996
Logrunners and Scimitar babbler,WD23 2BP,51.665198215286600,-0.369056672292956
Egret and Condor,HA1 2SA,51.588396040395000,-0.330003352583577
Chickadee and Nukupuʻu,WD5 0FQ,51.700733000000000,-0.432472000000000
Cuscus and Quetzal,WD17 4QL,51.666610000000000,-0.406299000000000
Polecat and Vole,WD3 3RH,51.655476067957000,-0.433665641951333
Grosbeak and Grosbeak,WD24 5LQ,51.681409641239400,-0.415615569727959
Cloud rat and Recurvebill,WD23 4TE,51.641962555297800,-0.357432470369711
Hawaiian honeycreeper and Mamo,HP2 4LL,51.750881495281200,-0.463035903714489
Kākāriki and Zebra,HA5 2QZ,51.584334789431800,-0.403910698694391
Quetzal and Bronzewing pigeon,HP2 4JT,51.747777147101900,-0.460809011201265
Stilt and Tree warbler,WD7 7NJ,51.687674799928900,-0.319683189235275
Armadillo and Egret,HA5 4AX,51.612657711085700,-0.358750472397803
Grosbeak and Buzzard,HA8 8UP,51.624638793575800,-0.269944000000000
Thrasher and Bunting,AL4 0DP,51.750656080000000,-0.298513537000000
Francolin and Marsh harrier,HA3 0JW,51.577474473249100,-0.305811493644691
Linsang and Goose,HA4 7HY,51.573938655060300,-0.429817308328068
Piping shrike and Tahr,AL3 4NB,51.742574770000000,-0.360043561000000
Triller and Pitohui,WD23 3EP,51.650770241551500,-0.353124550303094
Buzzard and Towhee,WD18 0JB,51.647597996565700,-0.406185203571629
Vole and Pratincole,HP1 2JL,51.752848305282800,-0.503969154130685
Ibex and Thrasher,HA9 8TR,51.575597237843900,-0.310326186207142
Cloud rat and Macaw,HP3 8NX,51.749997411880000,-0.437583670815968
Jay and Stint,HA1 3AA,51.577776874691600,-0.334476904441685
Fish eagle and Kākāriki,WD3 1NQ,51.632393025298400,-0.468387723728788
Guillemot and Skunk,HP1 2DL,51.748621286202400,-0.506020985809515
Tree warbler and Snipe,WD23 1AR,51.637259343122600,-0.349712169882339
Logrunners and Grouse,HA3 8QL,51.597709287655000,-0.319107255687366
Peafowl and Goose,HA3 8ED,51.586265049579400,-0.310536730631773
Vulture and Coati,HA2 9RJ,51.570546144502000,-0.384581634076397
Snipe and Cloud rat,WD7 8LR,51.682920066829400,-0.330549261038890
Pratincole and Fox,HA4 7LD,51.575793683714200,-0.432350000000000
River dolphin and Parrotbill,HA6 2XQ,51.610742573486600,-0.431782906925551
Lemming and B,HA2 6AS,51.587747797302600,-0.352214120708641
Old World vulture and Dolphin,WD17 1SJ,51.663443757049400,-0.400366103222008
Black cockatoo and Magpie,HA4 8HD,51.576463967647200,-0.421663051429429
Herring gull and Towhee,WD19 4TP,51.642446414195100,-0.388459134600744
Petrel and Partridge,HA8 4GQ,51.613332458522800,-0.277799649928712
Magpie and Shearwater,WD23 1JB,51.631092940549600,-0.337755437277911
Songlark and Chipmunk,WD17 4NQ,51.664777102046000,-0.405842728466077
Triller and Greenbul,HA5 4NG,51.605762971693600,-0.373122337138792
Fish eagle and Triller,HA3 3LA,51.585228073700000,-0.329686546300000
Dorcopsis and Stilt,HA3 0QH,51.574448234133000,-0.293065889222088
Guillemot and Old World vulture,AL3 4HN,51.748164000000000,-0.346238000000000
Peafowl and Old World warbler,HA6 2RW,51.615451663442000,-0.438322583708237
Jay and Rabbit,WD3 3FH,51.648571268477700,-0.447967779133740
Partridge and Jerboa,AL1 9JB,51.747655000000000,-0.301949000000000
Tattler and Jerboa,HP1 1TX,51.749225771846300,-0.478838923620141
Recurvebill and Armadillo,WD23 1AZ,51.640455475473900,-0.357689253672128
Black jay and Peafowl,HA6 1JQ,51.598042601499600,-0.413479340584907
Kestrel and Grouse,WD3 5QF,51.654717780086000,-0.533006653521317
Booted eagles and Solitaire,WD7 8DZ,51.682945964015500,-0.317239989778771
Kite and Black jay,HA6 2FR,51.607231889650100,-0.424784307779942
Zebra and Chipmunk,WD3 1NW,51.630001407165000,-0.470476607157569
Condor and Pheasant,WD7 7BX,51.686115939218200,-0.315690262238354
Old World vulture and Puffleg,HA2 7BL,51.576191000000000,-0.369250000000000
Treepie and Buzzard,WD25 9DT,51.679516471158300,-0.380316315574833
Macaw and Crow,AL3 4FD,51.740420156030600,-0.354371553562266
B and Linsang,AL2 3LU,51.703721760000000,-0.362071074000000
Chicken and Dolphin,WD6 5QQ,51.671329258017900,-0.278840311260882
Masked owl and Pratincole,WD23 1LQ,51.632897859901000,-0.348411057518079
Civet and Marsh harrier,UB9 6PE,51.588812337284800,-0.481703000000000
Booted eagles and Boto,HA8 7TY,51.614169753633100,-0.282577000000000
Mole and Buzzard,SL9 0PY,51.589264707814800,-0.545235023461493
Scimitar babbler and Flameback,WD19 4QQ,51.641108170776700,-0.389229183257061
Jay and Fish eagle,HA5 4DZ,51.610437464825700,-0.362672232927902
Badger and Ground sloth,WD3 5LX,51.662802200841900,-0.511621241339965
Peafowl and Viscacha,WD17 1QE,51.660779512701300,-0.398855042737949
Triller and Linsang,WD23 4XA,51.646076058077500,-0.351950371592687
Diving bird and American sparrow,HA4 8DW,51.576644973380500,-0.418409668016566
Peafowl and Diving bird,WD17 2TN,51.655055794770300,-0.392724000000000
Songlark and Old World warbler,HA8 7BD,51.612428000000000,-0.275509000000000
Siskin and Parrotbill,HA8 7LU,51.612682625092300,-0.277636482298683
Prion and Moluccan boobook,AL2 2AR,51.715777850000000,-0.352269578000000
Thicketbird and Fish eagle,HP3 9FR,51.733085845957500,-0.457485054178270
Piping shrike and Kestrel,WD3 8LN,51.642464966349600,-0.500508513340545
Peafowl and Meadowlark,HA1 1UF,51.588277175158900,-0.342552107294019
Pitohui and Rat,WD25 7SX,51.700292000000000,-0.394943000000000
Kākāriki and Old World warbler,HP2 4TF,51.749400000000000,-0.468635000000000
Dolphin and Zebra,WD24 4WW,51.666384146340500,-0.394435097275138
Mouse and Ibex,WD17 1NB,51.659645953990200,-0.401454063969398
Masked owl and Ibex,HA8 7PN,51.612992343774800,-0.279747935668869
Siskin and Bronzewing pigeon,HA4 9QN,51.570687621598400,-0.389641472201274
Parrotlet and Flameback,WD4 9LD,51.720557581976500,-0.494727235779980
Tahr and Chipmunk,HA8 6LD,51.609609757644900,-0.280872322854191
Polecat and Herring gull,HA8 5QY,51.596832171583100,-0.285816250862340
Warbler and Mamo,WD25 7JD,51.701058039598800,-0.399763559988736
Jackal and Peafowl,WD23 4NS,51.644851290370600,-0.356952290025191
Badger and Jerboa,HA9 9QP,51.569820747568100,-0.282214946931760
Jackal and Jerboa,HA7 4NE,51.619411961237900,-0.306908105369307
Stint and Zebra,WD4 9BB,51.692031116880000,-0.485300017118167
Rat and Condor,AL2 1QF,51.723568020000000,-0.295129182000000
Vulture and Armadillo,HA4 4HS,51.574550451600000,-0.412092000000000
Maya and Chicken,AL2 1BG,51.718902140000000,-0.287776583000000
Old World quail and Condor,AL2 2QS,51.721910870000000,-0.347182040000000
Pheasant and Booted eagles,HA1 1LH,51.580535845062300,-0.334361607406533
Peafowl and Ground sloth,WD3 5AP,51.652058770274700,-0.523884403634689
Partridge and Triller,HA2 6ET,51.595056000000000,-0.349170000000000
Kestrel and Flameback,HA5 4ZJ,51.595048860067800,-0.385170683550690
Fox and Kestrel,AL1 3BX,51.747440640000000,-0.330750228000000
Fulmarine petrel and Mink,WD17 2WH,51.654137270841100,-0.392482601672680
Shearwater and Jackal,WD3 4JN,51.657380708803100,-0.482161713429785
Ice seal and Rabbit,WD6 5LP,51.671015306806100,-0.272156377624501
Jay and Vole,NW9 9ES,51.585556429645500,-0.276641592490367
Cloud rat and Guillemot,HA8 5TB,51.598154575661400,-0.282777657470087
Jackal and Tit-tyrant,WD19 6TY,51.617722784096500,-0.395358455066845
Recurvebill and Asiatic leopard,HA5 1LQ,51.583549693272400,-0.385953637466103
Mole and Vole,HA2 6EW,51.589519788389800,-0.367697358257706
Guillemot and Parrotbill,WD7 9EN,51.687836518994100,-0.276751000000000
Kite and Tit-tyrant,HA3 0ST,51.582201244181500,-0.316215500674085
River dolphin and Fulmarine petrel,WD25 8EX,51.664566000000000,-0.353541000000000
Minke whale and Flameback,HA7 2AR,51.603523588248900,-0.323253528216411
Parrotlet and Moluccan boobook,WD19 6HR,51.622372284351200,-0.390802813982397
Badger and Egret,WD18 1ER,51.641750000000000,-0.427895000000000
Parakeet and Old World quail,HA1 3BS,51.577674715763500,-0.342504871903271
Polecat and Duck,HA7 1EB,51.594876060297500,-0.289802488094930
Logrunners and Myna,HA5 2PJ,51.592057841683600,-0.407133669893597
Bunting and Prion,HA4 8TB,51.580095000000000,-0.402156614088136
Masked owl and Ice seal,HA5 5QF,51.591770154036300,-0.375643384802058
Gull and Coati,WD19 6US,51.616757518771000,-0.396446937912819
Warbler and Hawaiian honeycreeper,WD23 1QR,51.643896135451800,-0.361958671965418
Duck and Goose,HA2 0FD,51.573855000000000,-0.364348000000000
Old World vulture and Nukupuʻu,AL2 1FN,51.722249432481400,-0.294614206434727
Mouse and Pratincole,HA8 6EX,51.605972673942100,-0.279969941343488
American sparrow and Quetzal,HA8 6SS,51.609189547318600,-0.297698863916331
Quetzal and Asiatic leopard,HA9 8NE,51.569654674042600,-0.294255507242653
Fish eagle and Warbler,WD23 3RY,51.648548687889300,-0.346557000000000
White ibis and Bronzewing pigeon,WD3 3GH,51.655281092915800,-0.443199320572121
Pitohui and Mouse,HP3 9JS,51.744333140997900,-0.463547830642446
Hawaiian honeycreeper and Jackal,WD3 1LD,51.634338210581100,-0.468611201885019
Eagle and Triller,HA2 9TZ,51.572768862280500,-0.367157432139556
Masked owl and Hawaiian honeycreeper,HP2 4BA,51.747140578525200,-0.468522627634432
Gull and Maya,HP1 1FZ,51.746241331463800,-0.484472638034381
Bunting and Peafowl,AL1 9JX,51.747650000000000,-0.301973000000000
Dolphin and Quetzal,AL1 3RY,51.754561190000000,-0.332574031000000
Pratincole and Kangaroo,AL1 5SR,51.744035830000000,-0.317100413000000
Parrotbill and Darwin's finches,SL9 0NF,51.618787948713300,-0.545446822891984
Crow and Booted eagles,AL1 5AJ,51.741732540000000,-0.306366177000000
Kestrel and Rabbit,WD19 4AG,51.645559443701100,-0.381396600844968
Francolin and Magpie,HA5 4BL,51.610317907416500,-0.358618222169210
New World blackbird and Tahr,HA2 6AR,51.587356670962200,-0.351896263353699
Solitaire and Maya,HA4 9JD,51.571640168880500,-0.393532793397178
Hawk and Dorcopsis,HA8 5BB,51.604412345772900,-0.277198536851532
Skunk and Triller,WD3 9TZ,51.620070104412800,-0.519967796827056
Minke whale and Ibex,WD18 0GF,51.647997293566100,-0.392598607164458
Darwin's finches and Tattler,HA5 3TY,51.599043992502300,-0.401128201395135
Tahr and Prion,HP3 9EP,51.744663294140800,-0.466795765957298
Dorcopsis and Tattler,HA3 0JR,51.578490969540600,-0.303969645645428
Chickadee and Polecat,HA5 4AS,51.615673058962600,-0.360894984848251
Asiatic leopard and Parrotlet,WD4 9EX,51.711779550222200,-0.491067111580439
Fox and Black jay,HA3 3FP,51.585235265947700,-0.329686206463401
Viscacha and Minke whale,WD5 0TT,51.699014630724900,-0.405551513525458
Vole and Jerboa,WD3 1LL,51.632024874707300,-0.435687264482508
Old World vulture and Chicken,HA4 8LL,51.573435013866300,-0.423773815112385
Prion and Philippine hawk-owl,AL1 4SY,51.752071310000000,-0.311224002000000
Tit-tyrant and Stint,WD19 6JZ,51.624073666630700,-0.398832779669024
Rat and Condor,AL1 3ED,51.754276120000000,-0.337206309000000
Fox and Black jay,HA3 7EA,51.600781593925400,-0.332133692275722
Coati and Buzzard,HA4 8SS,51.578564316667000,-0.402770656716401
Kākāriki and Parrotlet,WD19 5ZZ,51.641750000000000,-0.427895000000000
Boto and Civet,AL1 2LU,51.735108590000000,-0.336058000000000
Puffleg and Capuchin,WD3 5BA,51.647204195091400,-0.528985289202623
Wallaby and Pitohui,AL2 1NL,51.719585900000000,-0.300809289000000
River dolphin and Greenbul,WD19 4HP,51.644516494066800,-0.395164296839708
Dolphin and Gull,HP1 1RW,51.753678043924900,-0.488700485492457
Goose and Hawk,WD17 2TE,51.656077938971300,-0.394336705569660
Macaw and Chickadee,HA5 3DB,51.599740144014300,-0.380412686426989
Mockingbird and Booted eagles,AL4 0BE,51.748490230000000,-0.299840765000000
Kite and Mockingbird,HA2 6FD,51.595676000000000,-0.350432000000000
Francolin and Old World vulture,WD7 8JU,51.682321885111900,-0.321385757839014
Dolphin and Diving bird,AL2 2PJ,51.721511620000000,-0.337366143000000
Solitaire and Cuscus,AL3 4HX,51.745215400000000,-0.357253657000000
Maya and Tattler,WD5 0FE,51.697880376190700,-0.425314310218396
Crow and Rabbit,HA3 8DT,51.587940264984900,-0.303863184821924
Rabbit and Black cockatoo,WD23 2LE,51.648367476190900,-0.375717172720942
Piping shrike and Dorcopsis,HA3 6NT,51.605110744785100,-0.359210344519461
Thrasher and Black jay,HA1 4UY,51.592081000000000,-0.343107000000000
Jerboa and Dorcopsis,SL9 0LZ,51.619161377835600,-0.547152000000000
Magpie and Mamo,WD5 0NG,51.701080644784500,-0.415362727141274
Goose and Towhee,WD18 8SA,51.646818000000000,-0.426954000000000
Mouse and Rat,HA4 8GJ,51.581998000000000,-0.405898000000000
Badger and Grackle,HA6 1PF,51.602280007590800,-0.409649527869397
Lemming and River dolphin,WD25 7SL,51.699940189554800,-0.396257632961003
Dorcopsis and Greenbul,HA8 9AF,51.609371634849600,-0.271392770140854
Black jay and Night heron,HA1 4QB,51.584888666203700,-0.350960724946424
Towhee and Black cockatoo,AL2 3UJ,51.703685370000000,-0.363331463000000
Puffleg and Kestrel,WD19 4AF,51.644714144778500,-0.382698592256118
Chickadee and Mole,WD23 2LZ,51.649184749700600,-0.377595985425909
Partridge and Grackle,WD4 8HA,51.715413346772800,-0.449024587616116
Siskin and Kangaroo,HA7 2QL,51.602330739194600,-0.310301529955493
Wader and Lemming,HA9 8RH,51.572302444795500,-0.303218713503795
Black jay and Cuscus,AL2 2JQ,51.718110490000000,-0.346133513000000
Meadowlark and Recurvebill,HA3 7JG,51.600261444378300,-0.325914991827555
Songlark and Nukupuʻu,HP2 4LZ,51.748370473397200,-0.423486701394436
Parrotbill and Macaw,HP3 9JW,51.747371604782500,-0.452522358946121
Black jay and Grosbeak,UB9 6EH,51.606528605414900,-0.479193616922939
Piping shrike and Philippine hawk-owl,HA2 6NB,51.602857000000000,-0.358093000000000
Crow and Kangaroo,AL2 2PL,51.721663360000000,-0.336651160000000
Scimitar babbler and Masked owl,WD23 3DE,51.644672914615700,-0.364142034110423
Quetzal and Tahr,WD18 6US,51.642232585544600,-0.421707379964371
Vulture and Parrotbill,WD6 1AG,51.656166749998800,-0.275655945806200
Diving bird and Petrel,HP1 2AR,51.750408294733100,-0.497371339718084
Partridge and Kite,HA8 6DQ,51.601884645607400,-0.286968901065467
Old World vulture and Egret,HP3 8LN,51.744167440424100,-0.428572374961452
Shearwater and Kākāriki,AL1 9PD,51.747655000000000,-0.301949000000000
Pheasant and Tit-tyrant,WD24 6NW,51.676384283581100,-0.404408306613050
White ibis and Armadillo,WD3 1HA,51.639126809391800,-0.464851515294615
Nukupuʻu and Dolphin,HA5 3SP,51.601972583233800,-0.400260041679816
Parrotbill and Badger,WD25 7EJ,51.699760863184500,-0.399592257863948
Dorcopsis and Polecat,HA5 3LN,51.597970000000000,-0.392200000000000
B and Old World quail,WD7 7HP,51.694279817641700,-0.335181040723708
Skunk and Old World vulture,WD3 3LD,51.654705751721200,-0.450273000000000
Gull and River dolphin,WD17 1RT,51.665807000000000,-0.399103000000000
Skunk and Old World quail,HA4 8TD,51.580894720842300,-0.403137000000000
Philippine hawk-owl and Kite,HA8 8NA,51.620725036046600,-0.277866488766264
Old World quail and Stilt,WD4 8QG,51.685586207118800,-0.432019154887985
Grackle and Ibex,HA8 9UJ,51.617853512711800,-0.272153881667420
Black jay and Black jay,HA1 1UX,51.590456000000000,-0.332526000000000
Diving bird and Puffleg,WD25 9NX,51.694872841942000,-0.380173307718705
Myna and Logrunners,WD25 9SH,51.681075000000000,-0.380064000000000
Condor and Philippine hawk-owl,HA3 0NS,51.575528252463100,-0.304296400126575
Kestrel and New World blackbird,HA3 7BU,51.606679185948600,-0.335845611282992
Bunting and Towhee,WD17 4YN,51.664193095847400,-0.405877684960407
Dolphin and Jackal,WD23 1RB,51.631813174827900,-0.339087339834310
Tattler and Vulture,AL1 3FW,51.754633658241700,-0.328688530024227
Black cockatoo and Mamo,HA3 5XL,51.585235265947700,-0.329686206463401
Flameback and Dorcopsis,WD19 7QZ,51.628673061193000,-0.403120888644228
Thrasher and Flameback,WD25 0NL,51.691111679155700,-0.387179906794258
Booted eagles and Bronzewing pigeon,HP2 4PZ,51.748250000000000,-0.432559000000000
Jerboa and Macaw,HA1 4FP,51.579116456000700,-0.352165581080791
Vulture and Boto,AL3 6AD,51.750237180000000,-0.360780147000000
Skunk and Ibex,HA1 2AE,51.583894813697300,-0.331539617213756
Night heron and Chipmunk,AL2 3RY,51.707905800000000,-0.375872367000000
Piping shrike and Black cockatoo,WD4 8NZ,51.719624141243300,-0.421533305061940
Petrel and Greenbul,HA5 2JS,51.586407250236600,-0.408861364185485
Bronzewing pigeon and Capuchin,HA6 2UU,51.612395436833400,-0.428967346111565
Piping shrike and Solitaire,HA3 8RB,51.602088000000000,-0.318293722917726
Skunk and Pheasant,HA7 3SF,51.613634191942800,-0.319717853194641
Capuchin and Old World vulture,WD6 1EP,51.655460933966200,-0.272907010938695
Fox and Magpie,HP3 9PR,51.736449916819100,-0.461686280765756
Siskin and Scimitar babbler,HA4 7JL,51.574146486966300,-0.435279421849779
White ibis and Eagle,HA6 2QZ,51.614191814711300,-0.438250273863085
Tree warbler and Peafowl,WD19 6FH,51.619751392478300,-0.385911878206660
Francolin and Snipe,WD24 7NS,51.674998791603900,-0.383312216657045
Parrotlet and Civet,HA3 6QR,51.608129206440800,-0.349382256500181
Nukupuʻu and Prion,WD18 6QJ,51.643253222012800,-0.420038780078796
Armadillo and Stint,WD18 6XR,51.642243475774400,-0.419842636937470
Greenbul and Jerboa,WD23 1EB,51.635222621661500,-0.343644705879473
Boto and Solitaire,WD19 6NL,51.623900114485900,-0.391398863803919
Snipe and Parakeet,AL2 2HS,51.719000720000000,-0.348561000000000
Old World vulture and Black jay,WD19 5AH,51.629205359673200,-0.384076000000000
Diving bird and River dolphin,HA8 6NY,51.610641261176100,-0.282537585398884
B and Pitohui,HA3 5JX,51.603551000000000,-0.345269750399559
American sparrow and New World blackbird,HA9 9NP,51.570983725558400,-0.281189866202667
Mink and Tit-tyrant,WD5 0HU,51.700293534323700,-0.429065257124307
Black jay and Darwin's finches,AL4 0TL,51.748775210000000,-0.286647215000000
Mamo and Towhee,UB9 5EJ,51.580427259791000,-0.519480732279114
Flameback and Coati,AL2 3XG,51.707267750000000,-0.372001915000000
Mink and Pitohui,WD23 1JZ,51.631797318987800,-0.348162044857358
American sparrow and Stilt,AL4 0JY,51.750426000000000,-0.278284000000000
Rabbit and Mole,HA4 7BU,51.573572768785000,-0.425327558868897
Capuchin and Greenbul,UB9 5HR,51.585557000000000,-0.497778000000000
Songlark and Solitaire,HA5 3AW,51.596875167391000,-0.376110979479380
Greenbul and Kestrel,WD6 4DZ,51.667723612710700,-0.284385302696783
Marmoset and Petrel,UB9 4HQ,51.571191510640400,-0.525119774308783
Crow and Grouse,HP2 4JX,51.747312244454100,-0.461013128967184
Crow and Wader,HA4 8BL,51.581357035927500,-0.412211000000000
Armadillo and Old World vulture,HA5 4NJ,51.605134853852800,-0.374516656335155
Mouse and Snipe,HA3 0BZ,51.576567294458100,-0.307129654187642
Herring gull and Argus,WD25 7QF,51.691899344182600,-0.403370875210842
Minke whale and Crow,HP3 9DA,51.737496000000000,-0.464605000000000
Partridge and Bronzewing pigeon,HA8 7PU,51.615667464915300,-0.278823472132654
Ibex and Towhee,WD18 8ZW,51.641750000000000,-0.427895000000000
Buzzard and Triller,AL1 2AN,51.738610750000000,-0.351149502000000
Kangaroo and Vole,HA3 0DZ,51.581252000000000,-0.308900100582975
Towhee and Old World vulture,HA9 9NS,51.569421639081500,-0.280137704771350
Hawk and Bronzewing pigeon,WD3 3BR,51.644084377926900,-0.447976456270779
Mouse and Snipe,HA1 2NZ,51.582044776320100,-0.326021622368128
Tattler and Tahr,WD3 8LX,51.645664625083100,-0.496876328389853
Ground sloth and Masked owl,WD23 3EL,51.645158489186000,-0.366726180233813
Quetzal and Stilt,WD3 9SE,51.623935942310200,-0.505713365554363
Pratincole and Thicketbird,WD18 0HR,51.650055800246000,-0.407067487152129
Herring gull and Kestrel,WD4 8RE,51.693199127745300,-0.435821784227304
New World blackbird and Booted eagles,AL2 1QA,51.719833580000000,-0.290607924000000
Argus and Grouse,WD25 7BN,51.690009545816800,-0.410555465158262
Scimitar babbler and Stint,HA6 1NZ,51.601087550295300,-0.409243564496797
Darwin's finches and Stint,HA8 9XF,51.613460194728400,-0.273028448969491
Jerboa and Grackle,HP3 8PX,51.752283828657000,-0.436418209595397
Macaw and Petrel,AL2 1LN,51.720191400000000,-0.302263295000000
Ibex and Snipe,WD6 5JF,51.666738985641200,-0.271812962801730
Solitaire and Fox,HA3 9DZ,51.587125000000000,-0.298978279289877
Tahr and Puffleg,HA4 9SD,51.570035014404600,-0.407052146291952
Gull and Guillemot,WD3 5TQ,51.656355771969000,-0.496855173380821
Black jay and Night heron,AL4 0XX,51.753759000000000,-0.296600000000000
Badger and Asiatic leopard,HA6 3HQ,51.620458526799800,-0.417378080396161
Night heron and Zebra,AL1 2AZ,51.743994510000000,-0.339481363000000
Mouse and Elephant,WD23 2PS,51.653465000000000,-0.366751000000000
Parrotbill and River dolphin,HA3 7QR,51.593867626885800,-0.330307991843887
Viscacha and Fish eagle,WD3 7BX,51.642426704476000,-0.477431000000000
Ibex and Hawaiian honeycreeper,HA5 4NT,51.606892379727600,-0.371565632597425
Meadowlark and Fox,AL4 0GY,51.741919000000000,-0.301217230000000
Jackal and Eagle,WD3 5NY,51.649465122068700,-0.527148652537814
Cloud rat and Petrel,HA1 2HJ,51.580189865751400,-0.330895932683260
Jackal and Prion,HA3 7DN,51.606401763705700,-0.334671577085287
Coati and Flameback,WD23 1AL,51.636607126100900,-0.351932359893664
Prion and Capuchin,HA2 6HH,51.592732890238000,-0.362096200503911
Pitohui and Mamo,WD25 9DS,51.680042515096000,-0.381295599913136
Nukupuʻu and Gull,HA7 3JT,51.612537691555100,-0.314111063335994
Maya and Badger,UB9 5NF,51.581256500750500,-0.496996127276047
Macaw and Badger,HP3 0TB,51.720277318352200,-0.528685522294475
Meadowlark and Black cockatoo,WD3 3SZ,51.646579826664900,-0.451735949108038
River dolphin and Pratincole,HA8 4QF,51.613334000000000,-0.277800000000000
Chickadee and Treepie,WD19 6NF,51.622474039306100,-0.395609799112374
Shearwater and Vulture,WD19 6FZ,51.641750000000000,-0.427895000000000
Tattler and Myna,WD6 4ES,51.669223209106600,-0.279325051818565
Skunk and Duck,HA6 2QQ,51.605917833156500,-0.425480000000000
Thicketbird and Coati,HP3 8TF,51.743664142022600,-0.436006044018759
Treepie and Mamo,AL2 1QX,51.719141440000000,-0.289388988000000
Maya and Polecat,WD6 1PD,51.661244198501100,-0.276056013110301
Siskin and Warbler,HA5 3RG,51.609040811816000,-0.388458057615217
Jay and Ice seal,UB9 5NS,51.584831924471900,-0.500948573381823
Moluccan boobook and Capuchin,HA1 4JD,51.581368616735700,-0.348749965280001
Argus and Parrotlet,HA7 9JT,51.604469000000000,-0.295599000000000
Fish eagle and Condor,AL2 3XQ,51.706332570000000,-0.370703975000000
Grosbeak and Grouse,WD17 4LE,51.666256914787300,-0.410030000000000
Darwin's finches and Mink,WD17 4UJ,51.664977768386900,-0.400760328759003
Grackle and Hawk,AL1 2LG,51.735731000000000,-0.338771000000000
Chickadee and Mouse,HA2 6PH,51.592007175432500,-0.349446977258570
Stilt and Argus,WD17 4SH,51.675061407906000,-0.412293693560435
Cuscus and Buzzard,WD19 6FS,51.619887677203300,-0.387322691035157
Tit-tyrant and Jay,AL1 1RJ,51.747949100000000,-0.338076045000000
Fish eagle and Myna,WD19 4EL,51.642038923035100,-0.380409122413477
Cloud rat and Cuscus,HA3 9SR,51.580432263296800,-0.291499412685368
Parrotbill and Condor,WD3 4DS,51.647069565203400,-0.480973969917363
Tit-tyrant and Condor,HA9 9SD,51.573210643829000,-0.285276355741667
Grackle and River dolphin,WD3 5JQ,51.650734978214100,-0.515167677927376
Mink and Vulture,HA4 7PL,51.578421011018900,-0.439577730955154
Darwin's finches and Armadillo,AL2 3NB,51.705291220000000,-0.362419628000000
Coati and Siskin,AL2 3PG,51.703992920000000,-0.358949755000000
Minke whale and Buzzard,HA4 8AL,51.580111472357800,-0.416745030153282
Vole and Greenbul,HA4 6DG,51.571646522100800,-0.418496562924991
Diving bird and Eagle,WD6 3PH,51.652552853214700,-0.283700503540342
Marsh harrier and Boto,WD17 4JT,51.678842664071100,-0.424658435193562
Thicketbird and Rat,WD23 3BN,51.649316277300800,-0.356660770568242
Coati and Fish eagle,HP3 9DX,51.737539584132000,-0.472844456440688
Towhee and Macaw,HA1 4GA,51.581346000000000,-0.343114000000000
Recurvebill and Rabbit,WD19 5ED,51.631153010703900,-0.385232690502479
Parrotbill and Booted eagles,HP2 4RS,51.751162166129600,-0.443367320922857
Marmoset and Triller,UB9 5NN,51.582009972148500,-0.498255823871965
Bunting and Triller,HA5 1LE,51.582901792347300,-0.383306367527341
Solitaire and Chicken,WD7 7AZ,51.687909788640600,-0.309113459228573
Black jay and Mink,AL3 4SN,51.751547610000000,-0.353532454000000
Skunk and Diving bird,WD18 0GY,51.646807000000000,-0.405078000000000
Capuchin and Treepie,HA5 3BP,51.597063247703900,-0.379309542388535
Chickadee and Macaw,WD18 8SS,51.647749023037000,-0.429407802703830
Prion and Lemming,HP3 9AL,51.741089626697600,-0.477562390594524
Meadowlark and Flameback,AL1 5JH,51.749524650000000,-0.310129000000000
River dolphin and Stint,HP1 2RT,51.745441280920000,-0.528360690009953
Coati and Jay,WD25 0AW,51.683372142787900,-0.403164550096844
Lemming and Kite,HP3 9FE,51.732346942666900,-0.457365397506830
Tree warbler and Viscacha,WD7 8HP,51.684194035624800,-0.320882539119678
Fox and Ground sloth,HP2 5BL,51.754574596437100,-0.471806299663790
Grouse and Shearwater,AL1 5DQ,51.751564410000000,-0.308490281000000
Philippine hawk-owl and Nukupuʻu,WD3 3QU,51.648687831010900,-0.440476391144584
Wader and Kākāriki,WD24 7RH,51.673394621395000,-0.393536409528546
Pitohui and Logrunners,WD23 2AX,51.655318104112300,-0.376350560778139
Pitohui and Vulture,HA1 3LL,51.571732790108000,-0.338824846689923
Booted eagles and Mamo,WD23 3ST,51.653422769786400,-0.356454432122937
Prion and River dolphin,HP1 2RR,51.731961828897600,-0.534055066537967
Mole and Macaw,WD25 7DU,51.694903054050100,-0.407374440230991
Buzzard and Grouse,WD7 8HT,51.681467984453000,-0.320780871768610
Hawaiian honeycreeper and Coati,WD23 4LB,51.639046018530500,-0.346959325817115
Solitaire and Boto,HA2 2JW,51.585229000000000,-0.329664000000000
Boto and Nukupuʻu,HP3 9AH,51.742314907873300,-0.484705405234102
Francolin and Parakeet,HA4 7HU,51.575408436079200,-0.429449175462599
Moluccan boobook and Pitohui,WD18 0FA,51.649288036794700,-0.400719951775839
Mockingbird and Hawaiian honeycreeper,WD17 1NJ,51.659936904518600,-0.401689613642998
Egret and Francolin,AL1 5PG,51.746961220000000,-0.310415041000000
Tattler and Greenbul,HP2 7FU,51.755264000000000,-0.438090000000000
Pitohui and Chicken,UB9 5EX,51.578691611997900,-0.500342402183659
B and Fish eagle,HA5 1LA,51.586166037796200,-0.384619543836827
Pratincole and Stilt,WD3 5EU,51.649272921395500,-0.504822631702565
B and Coati,AL3 4ER,51.751387010000000,-0.342107743000000
Dorcopsis and Francolin,HP3 9WG,51.732790761841800,-0.459667288722020
Maya and Boto,HA1 1NT,51.583479059163400,-0.342178207772276
Stilt and Solitaire,HA8 6AX,51.595958861858500,-0.286975291230900
Polecat and Crow,HA4 9QX,51.575878062171800,-0.394379153524066
Linsang and Condor,HA3 9EL,51.589814308869800,-0.299765748898752
Fulmarine petrel and Guillemot,HA7 3SQ,51.612353842268800,-0.320732819580006
Philippine hawk-owl and Mole,WD18 7JA,51.655331135734300,-0.412159213733861
Logrunners and Kangaroo,HA4 7QW,51.580646847157200,-0.430495390506300
Linsang and Pratincole,WD25 0HW,51.688748297606500,-0.397145068224849
New World blackbird and Hawk,HA5 5AW,51.580224129407700,-0.373688104406048
Quetzal and Asiatic leopard,AL1 1LJ,51.749545600000000,-0.334613046000000
Hawk and Stilt,HA7 4WS,51.630191767706200,-0.322443797414699
Treepie and White ibis,WD4 4BX,51.641750000000000,-0.427895000000000
Old World vulture and Ibex,HA2 6EN,51.589259185770000,-0.368356304882198
Mink and Quetzal,WD6 3LZ,51.648903257074900,-0.285630736592095
Partridge and Mockingbird,AL1 3RD,51.751291510000000,-0.329014648000000
Viscacha and Greenbul,WD17 4AR,51.641750000000000,-0.427895000000000
Parrotbill and Diving bird,WD17 4WE,51.673191550848700,-0.414325950172207
Mink and Fox,WD18 7DP,51.651355000000000,-0.415572000000000
Egret and Prion,WD23 3HN,51.645092963876700,-0.366284000000000
Dorcopsis and Booted eagles,HA3 5HN,51.600293371926300,-0.340194241899409
Fox and Tit-tyrant,HA5 3NS,51.594796957370700,-0.387778353402550
Dorcopsis and Hawk,HA1 4NQ,51.585377879418700,-0.355706395837424
Duck and Black jay,HA1 3BB,51.576910650285000,-0.338708232948181
Diving bird and Perching duck,WD25 9QG,51.686757990141700,-0.382488292364760
Boto and Shearwater,WD7 9AG,51.688084347144700,-0.295681356913322
Shearwater and Jackal,HA5 1JG,51.578458346285700,-0.381905360917140
Capuchin and Diving bird,WD3 8UZ,51.626953296876900,-0.494142957677227
Kākāriki and Solitaire,WD6 2AF,51.650480716320400,-0.275452517249653
Armadillo and Fox,HA8 8HE,51.619340181676900,-0.281544707865083
Scimitar babbler and Crow,HA3 0XD,51.586243316450800,-0.304041857735606
Cloud rat and Mouse,HA9 9SL,51.574214907185800,-0.286926998709125
Dolphin and Lemming,WD18 1XB,51.641751042519300,-0.427895303722714
Piping shrike and Towhee,WD7 7BL,51.687649375679800,-0.316023960853141
Chicken and Lemming,HA5 4JG,51.611036493125800,-0.371475115056115
Shearwater and Jay,HA2 7PU,51.583771502561400,-0.365593915513588
Siskin and Elephant,AL4 0JP,51.742403470000000,-0.301763958000000
Goose and Petrel,SL9 0EW,51.613395095468300,-0.545633645558042
Black jay and Dolphin,WD19 5DS,51.631979883032200,-0.381937800781512
Herring gull and Vulture,WD6 1NP,51.660488579058500,-0.274812343065272
Pratincole and Skunk,WD18 8AJ,51.647204000000000,-0.428892000000000
Logrunners and Minke whale,HA7 4HJ,51.616964203479800,-0.308024762886461
Guillemot and Pheasant,AL1 4NH,51.755618530000000,-0.320944062000000
Towhee and Moluccan boobook,AL1 3UR,51.751462000000000,-0.334486965000000
Civet and Ice seal,AL1 9XW,51.753408337354000,-0.336122676535098
Diving bird and Zebra,WD17 3BP,51.667469043207500,-0.420064118555040
Armadillo and Vulture,HA4 7YN,51.581044836833300,-0.444178580219427
Fox and Rabbit,HP1 2JA,51.750750342809000,-0.505863821565942
Masked owl and Marsh harrier,HA1 4PJ,51.586601000000000,-0.358841376864810
Duck and Egret,WD25 9TU,51.694992502976900,-0.377116010171007
Puffleg and Kite,WD3 3RY,51.650585319382900,-0.433733033151184
Gull and Viscacha,WD18 0DZ,51.651429338108300,-0.398967685910939
Mamo and Ibex,WD7 7NT,51.688958138381100,-0.320764133685551
Treepie and Polecat,WD3 1ET,51.639012184924900,-0.466401679479313
Boto and Fulmarine petrel,HA8 5DD,51.604257360436000,-0.272771134902538
Recurvebill and American sparrow,WD19 4LY,51.634111486549000,-0.394418917857915
Francolin and Parakeet,HA2 9NH,51.569561417588200,-0.379032347405512
Petrel and Badger,HA7 4TF,51.616358168409500,-0.306530638374372
Piping shrike and Chickadee,HA1 3JD,51.570061509634400,-0.338914624976213
Mamo and Snipe,WD3 4LP,51.662650212564300,-0.463507228678920
Rabbit and Pheasant,AL1 9TP,51.747828000000000,-0.301865000000000
Jerboa and Rat,HA5 9HU,51.595048860067800,-0.385170683550690
Ice seal and Polecat,HA1 2UW,51.585235265947700,-0.329686206463401
Nukupuʻu and Towhee,WD18 7NQ,51.654106756259700,-0.407402530834334
Triller and Francolin,HA8 0AG,51.604101899408600,-0.269542346488572
Jerboa and Petrel,WD23 2RT,51.653254637205800,-0.367476094682382
Black cockatoo and Black jay,HA8 5QB,51.597544318299200,-0.274888390661263
Siskin and Hawaiian honeycreeper,WD18 0JX,51.657891185292400,-0.401356775812150
Mamo and Stint,WD19 6UG,51.619572030289100,-0.397763371984150
Rabbit and Thicketbird,HA5 4AP,51.614828986085100,-0.362268666967239
Old World vulture and Francolin,WD3 7AU,51.637629570500700,-0.483182446295553
Condor and Darwin's finches,HA4 7SN,51.586588417139000,-0.439529000000000
Armadillo and Thicketbird,WD3 9YB,51.602946000000000,-0.504684000000000
B and Asiatic leopard,WD19 4HN,51.643826220873200,-0.394003523197487
Partridge and Peafowl,HA3 8QU,51.597225910644400,-0.317378066377466
Mamo and Treepie,WD3 3NZ,51.655383270573900,-0.437499839703610
Myna and Moluccan boobook,HA5 3NL,51.595896832876800,-0.387984851384649
Boto and Macaw,SL9 0NJ,51.588364255528400,-0.545133867039143
Bronzewing pigeon and Siskin,HA6 1UD,51.605280949804100,-0.418122459817871
Rabbit and Booted eagles,HA6 3DG,51.625225550473400,-0.418136831412593
Minke whale and Grouse,WD3 4DZ,51.648878203590900,-0.481766332524739
White ibis and Gull,AL3 4JZ,51.746377550000000,-0.360512000000000
Petrel and Darwin's finches,HA9 8TW,51.575058316329700,-0.306002350965068
Vole and Condor,HA8 5HJ,51.599645430398200,-0.272845047084100
Nukupuʻu and Elephant,WD19 5EG,51.627713446511400,-0.383592172448230
Wallaby and Ibex,HA2 0DX,51.571445261382900,-0.364232000000000
Zebra and Prion,HA7 4JA,51.615052949811900,-0.305813686901965
Booted eagles and Grouse,HA2 9RY,51.574659677329100,-0.371216963279254
Partridge and Rat,HA7 2NW,51.597149180033300,-0.303924410328236
Solitaire and Argus,HA3 9NX,51.587410491127400,-0.289664212370520
Treepie and Ibex,HA6 1PZ,51.607598656777400,-0.404004820458220
Hawaiian honeycreeper and B,WD23 2LX,51.649507873053800,-0.379506940905079
Stint and Viscacha,WD5 0RU,51.725309960190700,-0.407754043306359
Thrasher and Quetzal,HP2 4DH,51.753425666528200,-0.467817458432896
Shearwater and Parakeet,HA5 3ZB,51.599740986784200,-0.398028302581091
Moluccan boobook and Wader,HA4 9UW,51.575920055356900,-0.397451567124632
American sparrow and Condor,AL1 2DJ,51.745551000000000,-0.347082886000000
Tit-tyrant and Tahr,HA7 4QS,51.619039107506600,-0.291104415759538
Dolphin and Kestrel,HA9 9TD,51.575661620934200,-0.291305000000000
Minke whale and Herring gull,WD18 7BJ,51.656039961847500,-0.419247000000000
Flameback and Night heron,WD23 1HD,51.633429390158800,-0.347842660469076
Chicken and River dolphin,HA9 9TG,51.575952854399900,-0.289560368379092
Skunk and Kestrel,WD17 4TZ,51.674985822321700,-0.418688927297409
Francolin and Coati,HA2 0AG,51.572165892608600,-0.352965198813411
Cuscus and Skunk,WD17 3EJ,51.668846757225400,-0.414202900590196
Night heron and Skunk,HA2 6EZ,51.589915958194300,-0.366441670859826
Armadillo and Greenbul,HA7 2AQ,51.601624510390200,-0.324392016661275
Booted eagles and Parrotlet,HA1 1GW,51.579885000000000,-0.335792000000000
Masked owl and Stilt,AL2 2JZ,51.712797330000000,-0.332851041000000
Moluccan boobook and Moluccan boobook,WD25 9QY,51.690249753950500,-0.382696590388982
Duck and Songlark,HA7 1SG,51.604508123353600,-0.295623000000000
American sparrow and Quetzal,WD6 2HQ,51.648188536398800,-0.269396306000082
Mockingbird and Condor,WD23 4SA,51.647961820103100,-0.346649504007835
Snipe and Black jay,WD24 5GU,51.674167967753200,-0.406742362479808
Kākāriki and Greenbul,HA8 6NX,51.610638397524100,-0.282956529610231
Francolin and Rat,WD4 8EJ,51.710891968443200,-0.452551744138697
Philippine hawk-owl and Bronzewing pigeon,WD23 1EX,51.634505000000000,-0.344343116085918
Guillemot and Fulmarine petrel,HA7 3AG,51.620044367984300,-0.317747631646681
Dorcopsis and Logrunners,WD17 1EE,51.657024030114000,-0.399088597236156
Bunting and Egret,HA3 7AH,51.596022000000000,-0.335008000000000
Petrel and Lemming,WD23 2FR,51.657721905981900,-0.382944067152532
Armadillo and Fish eagle,HA4 9TW,51.570641304575000,-0.400061390739810
Darwin's finches and Mink,HP3 8AF,51.732149208401900,-0.450537068548861
Chicken and Black cockatoo,HA7 3JF,51.622495807679600,-0.345986183542944
Coati and Logrunners,WD18 8AL,51.650830197873400,-0.424070000000000
Asiatic leopard and Warbler,HA1 1XJ,51.592605362754500,-0.337673740698406
Zebra and Mockingbird,WD6 5LQ,51.667387396594500,-0.268216495537950
Puffleg and Asiatic leopard,WD6 5DN,51.667153740705300,-0.279851741238657
Ibex and Chicken,HA2 6PT,51.593612989603300,-0.350604000000000
Ibex and Maya,WD3 9TN,51.621171293143100,-0.514601548419495
Pheasant and Cloud rat,AL2 2JS,51.720373050000000,-0.336336572000000
Magpie and Myna,WD24 5HP,51.672983872623100,-0.405626930740664
Stilt and Logrunners,HP2 4NJ,51.749847559513700,-0.423667064569098
Recurvebill and Petrel,HP3 0TS,51.733102150457300,-0.472501657501253
Towhee and Armadillo,HA5 4ZN,51.595048860067800,-0.385170683550690
Solitaire and Songlark,AL1 2PU,51.740558170000000,-0.347674892000000
Quetzal and Francolin,HA8 8AA,51.618651945966800,-0.288131000000000
Perching duck and Myna,HA8 8DA,51.621250000000000,-0.290906000000000
Dolphin and Mockingbird,UB9 6HN,51.607673205665800,-0.497553653612831
Vulture and Condor,HA4 8AJ,51.580636503779000,-0.416337096223462
Piping shrike and Coati,WD3 4HR,51.653920116322800,-0.473936161430102
Treepie and Night heron,HA1 4DE,51.578128696478100,-0.349834348531365
Marsh harrier and Warbler,HA1 4DQ,51.577831062284600,-0.347853497745081
Parakeet and Parrotlet,HA3 0RJ,51.578226656771400,-0.298754988524073
Cuscus and Viscacha,AL1 1TT,51.747228710000000,-0.339275855000000
Mouse and Chicken,HA1 1XX,51.590128868191400,-0.336147303648008
Vole and Zebra,HA7 2NB,51.603875303080500,-0.307659356485001
Treepie and Condor,HA7 2EH,51.605655559633100,-0.313268475283924
River dolphin and Vole,HA8 5NJ,51.594513498611200,-0.280373978677603
Kangaroo and Parrotlet,WD4 9JW,51.710711471875000,-0.482143147565632
Wallaby and Mink,HA5 5SH,51.596374093610400,-0.362051846312827
Parakeet and Warbler,HA8 5NN,51.594909158701200,-0.284675888022103
Parrotlet and Puffleg,HA2 2HQ,51.585229000000000,-0.329664000000000
Magpie and Guillemot,HA3 9NH,51.585235265947700,-0.329686206463401
Flameback and Logrunners,HA4 9AD,51.571624541596000,-0.410878268117735
Crow and Rabbit,HA8 8NZ,51.619653075628700,-0.272229987031298
Puffleg and Guillemot,AL1 1BH,51.746851010000000,-0.338000457000000
Scimitar babbler and Chicken,HA5 5RJ,51.591247027084700,-0.367750939582322
Stilt and Boto,WD6 5JW,51.665810645300100,-0.272889422397142
Guillemot and Egret,HA7 9HH,51.604509860174400,-0.295623000000000
Mockingbird and Warbler,HA8 6BD,51.597853142745900,-0.287380490061702
Quetzal and Tattler,WD19 4NJ,51.640514582230900,-0.392501902304883
Armadillo and Partridge,HA5 1PX,51.577959175373600,-0.390726660917812
Kite and Dolphin,WD3 3NH,51.656929663765100,-0.444255944732667
Crow and Skunk,WD3 3FE,51.645629391799600,-0.458778254334761
Jerboa and Duck,HA1 1UU,51.589665411402400,-0.339614410324861
Nukupuʻu and Puffleg,WD17 3XE,51.658385610343300,-0.405315219470568
Ground sloth and Partridge,WD17 2NH,51.653416002151200,-0.389718102184527
Linsang and Grosbeak,HA6 2HP,51.629747428793000,-0.437528313033436
Mouse and Herring gull,AL2 1DF,51.712119450000000,-0.286976063000000
Elephant and American sparrow,WD3 8LF,51.645018588133500,-0.496871000000000
Buzzard and Philippine hawk-owl,AL2 1QW,51.721310590000000,-0.292622556000000
Tahr and Hawk,AL1 1TN,51.741292480000000,-0.321446218000000
Fish eagle and Cloud rat,HP3 0JD,51.719246776116100,-0.534003007566346
Thrasher and Vole,WD6 3RA,51.642496558131100,-0.285337632590487
Siskin and Scimitar babbler,HA6 1AQ,51.611896757629500,-0.418614637381094
Kestrel and Hawaiian honeycreeper,HA7 2JA,51.599295515837400,-0.312464520353519
Shearwater and Quetzal,UB9 5FN,51.586752000000000,-0.498180000000000
Wader and Black cockatoo,UB9 5DE,51.586245801960000,-0.511006212597228
Skunk and Goose,WD7 7LG,51.667972348796800,-0.308351975973273
Vole and Ground sloth,HA5 4SU,51.599687000000000,-0.368069000000000
Badger and Mouse,WD23 4UQ,51.642590656581100,-0.356051224001908
Parakeet and Coati,WD3 6BW,51.686768084743700,-0.493475653512799
Masked owl and Viscacha,WD19 4PX,51.644644295545200,-0.389392937427578
Quetzal and Triller,WD24 5RX,51.671357111361500,-0.403037550809030
Songlark and Tahr,WD5 0EQ,51.704241557288000,-0.416381126449931
Condor and Chickadee,AL2 3TW,51.711026840000000,-0.362751000000000
Polecat and Myna,HA5 1BY,51.588466798562300,-0.387800346086886
Parakeet and Mouse,HA7 1NS,51.600100829618500,-0.297114000000000
Chipmunk and Zebra,HP3 9NY,51.739747665494000,-0.460140430074843
Jerboa and Bunting,AL3 4NF,51.738264870000000,-0.355984992000000
Fish eagle and Crow,WD17 3DH,51.662911503242900,-0.409508504597370
Nukupuʻu and Fulmarine petrel,HA2 7LD,51.586202961529600,-0.363269284903116
Ground sloth and Meadowlark,WD3 3QH,51.650879450307900,-0.443682501189415
Pratincole and Armadillo,HP3 8JN,51.736862872981500,-0.447276586267813
Francolin and Tit-tyrant,HA8 6LY,51.608413146796500,-0.283285999686191
Crow and Mockingbird,WD6 2BH,51.649685086933300,-0.272100229011139
Grosbeak and Gull,HA5 3WA,51.595048860067800,-0.385170683550690
Meadowlark and Fish eagle,WD4 8DQ,51.717373287903600,-0.456514186255018
Parrotlet and Prion,AL1 4TU,51.755624260000000,-0.309425251000000
Bunting and Chickadee,WD18 6SX,51.647614544517400,-0.412053015718878
Chipmunk and Ibex,WD25 7FA,51.699824000000000,-0.402389000000000
Marsh harrier and Rat,HA4 8SP,51.578046947370900,-0.403077435432024
Vulture and Partridge,HA3 6SS,51.610288251103400,-0.349448371706204
Marmoset and Pheasant,WD18 6ST,51.647178243993200,-0.411042023805390
Peafowl and Herring gull,HA1 2DP,51.579359000000000,-0.331034000000000
Ice seal and Pratincole,WD23 4DN,51.646793501356600,-0.351172747866247
Chipmunk and Badger,WD7 9JD,51.697472823861600,-0.288310589077736
Partridge and Thrasher,HA5 5HZ,51.582883000000000,-0.374719000000000
Kite and Marsh harrier,HA1 2PA,51.582129025478300,-0.324993747442720
American sparrow and Macaw,HP3 8AX,51.731077776983700,-0.449067710731998
Perching duck and Kestrel,WD3 0GF,51.639480000000000,-0.474556753427907
River dolphin and Zebra,HA5 5BY,51.578359882881200,-0.375428788760850
Recurvebill and Grosbeak,WD7 9AA,51.682246000000000,-0.289261000000000
Herring gull and Mole,WD6 3DP,51.641488923104100,-0.302631821233128
Jerboa and Songlark,HA7 4BQ,51.613627413977600,-0.310474251127694
Armadillo and Parakeet,HA5 1AS,51.589726247689000,-0.389805647713003
Goose and Armadillo,HA2 7TA,51.587076638973700,-0.363903000000000
Magpie and Coati,AL2 2LL,51.719339710000000,-0.336388974000000
Herring gull and Elephant,HA5 5SG,51.595279552239900,-0.363520544133802
Solitaire and Mockingbird,HA6 1BN,51.605893561610700,-0.416873693260432
Francolin and American sparrow,AL3 4DE,51.752820480000000,-0.341099054000000
Towhee and Eagle,HA8 8QJ,51.626593404721600,-0.280692753690034
Black jay and Meadowlark,HA6 2GY,51.618458025423900,-0.443289534278322
Night heron and Condor,WD23 2JP,51.650413461748700,-0.376713722157792
Guillemot and Snipe,WD6 5AG,51.665418118218600,-0.268826610060243
Duck and Grouse,HA8 9TS,51.617209259472400,-0.271759452300666
Black cockatoo and Songlark,WD3 0LY,51.639480000000000,-0.474556770438289
Old World warbler and Maya,AL1 3UL,51.752809280000000,-0.332519000000000
Minke whale and New World blackbird,HP1 1PX,51.745524621845800,-0.486655000000000
Condor and Siskin,WD18 7QR,51.651377417759500,-0.422372748878429
Night heron and Greenbul,AL3 4GF,51.742978492905100,-0.359203393257398
Fulmarine petrel and Grouse,WD4 9LG,51.715896267698200,-0.505015056620637
Kangaroo and Partridge,HA8 7SB,51.618198582213600,-0.287726964963883
Grouse and Eagle,HA3 8DP,51.587540058242300,-0.302304645618016
Jerboa and Parakeet,WD7 8AY,51.689174455581600,-0.322058208813547
Thicketbird and Crow,AL1 1UR,51.735201660000000,-0.309926783000000
Goose and Viscacha,WD18 7JG,51.653596251842400,-0.419534606518552
Partridge and Songlark,WD24 4PJ,51.664631151203200,-0.389869988469369
Argus and Partridge,WD24 4RD,51.663414022700600,-0.391604863363243
Thrasher and Kite,HA1 2PQ,51.583384462901500,-0.325380600869031
Cuscus and Elephant,HA1 2HH,51.579236234192600,-0.332128774545669
Nukupuʻu and Jackal,WD3 1AG,51.639285918338400,-0.470843484767839
River dolphin and Shearwater,HA4 9SU,51.574869465565200,-0.399537729775768
Minke whale and Rat,WD3 0PZ,51.639484000000000,-0.474602000000000
Partridge and Kangaroo,HA3 9TU,51.587055000000000,-0.298512000000000
Snipe and Fish eagle,WD19 4QH,51.644785194640200,-0.388520746639969
Magpie and New World blackbird,WD17 1ER,51.664181789111300,-0.399096598103643
Scimitar babbler and Grackle,UB9 5NQ,51.580161093162600,-0.495718896382064
Greenbul and Bunting,WD19 7HN,51.625486000000000,-0.396204828118393
Pitohui and Chickadee,HA7 2RP,51.609991318261700,-0.310248188442808
Ibex and Parakeet,HA6 2XA,51.605382566464400,-0.434422501049599
Zebra and Crow,HA5 5AJ,51.579611967372100,-0.376235666597969
Civet and Viscacha,HA7 4SJ,51.617466804699400,-0.295525797432466
Moluccan boobook and Francolin,WD18 9RE,51.638313000000000,-0.439156000000000
Chicken and Zebra,NW9 8PU,51.569411520706600,-0.269662224031237
Snipe and Viscacha,HP3 9PL,51.739390947855800,-0.465178283067603
Chipmunk and Old World quail,HP2 4FY,51.747393846452600,-0.472092083036034
Tahr and Fox,WD24 6BT,51.673264688919500,-0.401148205523658
Parakeet and Asiatic leopard,WD3 5DE,51.640760399902000,-0.520667233389156
Peafowl and Goose,AL1 5AQ,51.742598250000000,-0.305913750000000
Chipmunk and Magpie,NW9 9QN,51.586552416300400,-0.283244000669057
Capuchin and Pheasant,HA2 7JG,51.576882901037000,-0.368135681202439
Egret and Thicketbird,AL4 0UJ,51.752648980000000,-0.300148212000000
Chicken and B,WD3 1JJ,51.634821000000000,-0.466254000000000
Civet and Vulture,HA1 9QD,51.585229000000000,-0.329664000000000
Masked owl and Ice seal,HA3 5RA,51.594982770837300,-0.339189517041381
Stint and Mouse,HA8 7PF,51.614683635426900,-0.281027276188645
Old World quail and Tahr,AL1 5TD,51.745253310000000,-0.309204038000000
Dorcopsis and Hawaiian honeycreeper,WD6 1SL,51.653490059455100,-0.278923451263987
Mamo and Black jay,HP2 5XQ,51.753315373698000,-0.469704606040601
Thicketbird and Lemming,HP3 9QP,51.740384723091000,-0.462783771711394
Parrotbill and Fish eagle,AL2 1QU,51.719171060000000,-0.288953554000000
Towhee and Goose,HA1 4PF,51.586016613541000,-0.357011328949515
Kākāriki and Recurvebill,HA1 4JP,51.582288946972900,-0.351531141147879
Linsang and Grouse,WD24 6PY,51.678912749013100,-0.396610046969784
Coati and Meadowlark,AL3 4JF,51.745613810000000,-0.361961485000000
Fish eagle and Marsh harrier,WD3 6DL,51.682616914884900,-0.488116657188488
Civet and Parrotbill,HA6 3QB,51.610532177829200,-0.414112708462846
Solitaire and Triller,WD3 5TE,51.658373000000000,-0.497005000000000
Black jay and Viscacha,AL2 1JG,51.725983710000000,-0.295530603000000
Macaw and Fulmarine petrel,HA5 3XX,51.606413000000000,-0.398732954381672
Logrunners and Tit-tyrant,WD23 2GX,51.651658934057100,-0.378479000000000
Linsang and Kestrel,WD3 4EJ,51.645058878272300,-0.475693464651306
Chicken and Wader,WD18 6QE,51.644588000000000,-0.408271000000000
Peafowl and Herring gull,WD3 1PZ,51.614612780420700,-0.450339580896564
Chickadee and Parrotbill,HA3 6RD,51.607906000000000,-0.347484000000000
Capuchin and Myna,WD25 9NQ,51.685204639745900,-0.391165494875799
Duck and Crow,WD18 8JY,51.644260186927600,-0.428068596042085
Goose and Puffleg,HA6 2PL,51.618103247418000,-0.432843681084069
Duck and Rat,WD18 6QS,51.644924180864400,-0.407276242280790
Nukupuʻu and Piping shrike,HA7 1JZ,51.601489032625600,-0.296239639736799
Kākāriki and Buzzard,WD4 9LU,51.715144323402100,-0.509527269062142
Skunk and Elephant,HA7 4LU,51.623862164849000,-0.294419344679970
Greenbul and Darwin's finches,WD19 5HA,51.625795000000000,-0.382635000000000
Pratincole and Grouse,HP3 8UY,51.744697089434000,-0.437274033161547
Partridge and Linsang,HA7 4WL,51.631578418184400,-0.321944717028441
Scimitar babbler and Mole,WD3 6BL,51.685325000000000,-0.493741000000000
Kestrel and Egret,HA2 6BB,51.590075713712900,-0.352779512424531
Mink and Elephant,WD3 5GB,51.654518918515900,-0.501585299145272
Chickadee and Cloud rat,HA4 7AQ,51.574410620485900,-0.431489459869773
Prion and Jerboa,WD19 4NZ,51.633261044639200,-0.397989104624276
Stilt and Pratincole,AL1 3BB,51.749409840000000,-0.332647838000000
Flameback and B,AL1 3XZ,51.751121240000000,-0.339205524000000
White ibis and Puffleg,AL1 1HH,51.744323890000000,-0.336702623000000
Argus and Coati,WD6 4TB,51.666721818897900,-0.294010427242284
Greenbul and Vulture,HP3 8JP,51.737107831410800,-0.448803352100236
Grosbeak and Linsang,HP3 0GG,51.726300000000000,-0.531552000000000
Herring gull and Triller,HA5 5SN,51.596095944557200,-0.364675107573095
Scimitar babbler and Chicken,WD23 3PR,51.647668903253700,-0.355246003190534
Mouse and Puffleg,HA7 2HT,51.600745514386700,-0.315125382977273
Hawaiian honeycreeper and Gull,WD3 5AB,51.651380981743400,-0.518412000000000
Kākāriki and Stilt,WD6 3PP,51.653957989106400,-0.285093065563442
Kestrel and Songlark,HA1 4GD,51.581377000000000,-0.347818000000000
Mouse and Chickadee,WD6 3AL,51.653752249868300,-0.319376717315475
Kite and Jerboa,HA7 4UH,51.612542000000000,-0.304314460543925
Perching duck and Thicketbird,HA3 6HP,51.604531408764400,-0.338480121999837
Minke whale and Booted eagles,HA3 6NY,51.604118000000000,-0.358842000000000
Zebra and Meadowlark,AL2 1TE,51.718185920000000,-0.283677726000000
B and Dorcopsis,WD7 8EF,51.682945964015500,-0.317239989778771
Marsh harrier and Grosbeak,WD3 6AZ,51.683258292246400,-0.494648117450666
Pitohui and Vulture,HP3 9HN,51.744196746450900,-0.471707452444801
Thrasher and Cuscus,WD25 7GE,51.690227405015600,-0.414700075478128
Scimitar babbler and Guillemot,HA8 8DH,51.627326336529100,-0.296427723415626
Chipmunk and Petrel,UB9 6QA,51.603679950275200,-0.477252733872620
Macaw and Parrotbill,HA5 4WA,51.595048860067800,-0.385170683550690
Jerboa and Mamo,WD24 5JL,51.680139458344600,-0.414777566303902
Pheasant and Eagle,WD23 4GE,51.637454043085400,-0.339285901020807
Black jay and White ibis,WD24 4ET,51.670964601511300,-0.390093739479285
Petrel and Lemming,WD7 9HT,51.697271798653800,-0.290561054042642
Civet and B,HA6 1AW,51.610729776168700,-0.417427582416210
Maya and Dolphin,HA8 6AE,51.600761655912200,-0.287040038763441
Goose and Grouse,HA6 3HU,51.624260416253700,-0.416581255214056
Minke whale and Solitaire,HA5 5RY,51.591641289168700,-0.372183234839467
Jay and Thicketbird,WD3 1QF,51.639755591966600,-0.471694781327769
Chicken and Chickadee,HA1 3GP,51.574199969168000,-0.318098666702513
Magpie and Chipmunk,HA1 4UT,51.592213135020800,-0.341730329528648
Tree warbler and Stilt,HP3 9QZ,51.736320687638500,-0.465426000000000
Gull and Goose,AL1 2NF,51.741882510000000,-0.343382664000000
Linsang and Cuscus,HA2 7AX,51.580028217170400,-0.355755156754498
Guillemot and Mamo,AL2 3AN,51.728670790000000,-0.363095293000000
Minke whale and Grosbeak,WD25 7AU,51.691617724587300,-0.409124656912895
Guillemot and Old World vulture,HA3 8NB,51.591565271273200,-0.317688288322486
Kite and Cuscus,WD17 1BU,51.658941000000000,-0.402005000000000
Peafowl and Wallaby,HA4 9AW,51.569405429066100,-0.405717792819525
Triller and Ibex,HA1 1GX,51.579472000000000,-0.335836000000000
Pheasant and Treepie,WD25 0HZ,51.690257438546400,-0.400332543776926
Egret and Egret,AL2 1JN,51.726249300000000,-0.292146904000000
Kākāriki and B,HA6 1RU,51.606284488240600,-0.411199214245316
Vulture and Zebra,WD23 2QG,51.654553546216900,-0.375033433919415
Bronzewing pigeon and Tahr,WD7 9EG,51.691108808264000,-0.276787992921317
Macaw and Macaw,WD17 3LN,51.663766901643000,-0.414915251201095
Zebra and Parakeet,WD24 5EG,51.672885000000000,-0.402246000000000
Mole and Goose,WD24 5AL,51.671468399888800,-0.404609970213395
Greenbul and Tahr,WD18 1DX,51.658969000000000,-0.403421000000000
Nukupuʻu and Hawaiian honeycreeper,WD25 7QH,51.692447395814300,-0.403337122318754
Mouse and Pratincole,WD25 7EU,51.697515733392100,-0.401784093091885
Grackle and Minke whale,HA7 4JS,51.622151915492300,-0.313595855421539
Old World quail and Herring gull,HP3 0QB,51.701669539497600,-0.532704342287896
Marmoset and Peafowl,WD3 8YQ,51.634437792319600,-0.500715435565148
Greenbul and Recurvebill,HP3 9SP,51.736105590583900,-0.467679166079926
Boto and Night heron,HA4 8AN,51.579595526087900,-0.415160946055857
Grosbeak and Magpie,AL1 5EW,51.749266830000000,-0.325119997000000
Bunting and Tahr,WD7 7DL,51.692739982684800,-0.315604000000000
Gull and Night heron,WD5 0PL,51.699827731888100,-0.418474303101311
Buzzard and Dorcopsis,WD7 9BX,51.693843020953300,-0.281371000000000
Perching duck and Black jay,WD23 1GW,51.635511000000000,-0.338192000000000
Petrel and Shearwater,WD3 5PG,51.647704095541300,-0.525109887968769
Thrasher and Piping shrike,WD17 1ES,51.664199017103000,-0.397722341660356
Civet and Old World warbler,WD4 8LN,51.701592185454700,-0.437442597798216
Old World quail and Hawaiian honeycreeper,HA6 2EE,51.620824725539300,-0.429918591360305
Ibex and Grackle,HA1 4TU,51.593822555983900,-0.339809321812003
Pratincole and River dolphin,UB9 5JJ,51.582283000000000,-0.505478000000000
Black cockatoo and Elephant,AL2 2RF,51.720255610000000,-0.352251588000000
Mockingbird and Nukupuʻu,WD3 3LE,51.653702009293000,-0.449050214508995
Francolin and Mole,HA3 0SQ,51.582346368812800,-0.295743278923698
Macaw and Mamo,AL1 2HU,51.737174040000000,-0.332808574000000
Maya and Petrel,WD19 6YH,51.616341228139100,-0.388372827537153
Masked owl and Peafowl,HP3 9EY,51.746420023098200,-0.464983535187328
Old World warbler and Myna,WD17 2DN,51.655359115891900,-0.395692120857862
Hawaiian honeycreeper and Lemming,HA4 9NE,51.574985911989200,-0.397527713583223
Marmoset and Badger,WD5 0JE,51.697163277407000,-0.430331243631373
Pitohui and Skunk,WD6 4LJ,51.667000812218600,-0.290934313362308
Guillemot and Peafowl,HA3 7PZ,51.597462206735500,-0.323837727046684
Hawaiian honeycreeper and Nukupuʻu,HA3 9PE,51.591701115724500,-0.290990036649369
Jackal and Ice seal,HA8 8TP,51.622238772466900,-0.272565164531591
Elephant and Darwin's finches,HA7 3BP,51.620472165343700,-0.314972684734927
Night heron and Chipmunk,HP3 8PB,51.750855635917700,-0.439811000000000
Parrotlet and Black jay,UB9 6BP,51.605140693588400,-0.488871000000000
Capuchin and Thicketbird,WD17 1QT,51.663098413750200,-0.399438422690037
Bronzewing pigeon and Macaw,HP3 9DZ,51.743393000000000,-0.466506000000000
Hawk and Flameback,WD25 9TP,51.696734690366900,-0.378254688915215
Grouse and Nukupuʻu,WD19 6JW,51.624523849250300,-0.394266176086043
Bronzewing pigeon and Black jay,HA8 5RL,51.604267840510400,-0.278994642086252
Tree warbler and Petrel,HA8 8FN,51.621501223105400,-0.288397258136240
Chicken and Jerboa,HA6 1AE,51.611429272452400,-0.417287715729922
Tree warbler and American sparrow,WD17 3TU,51.675648517559400,-0.429209426471351
Pratincole and Eagle,AL4 0XD,51.754299890000000,-0.299897876000000
Parrotlet and Eagle,HA8 8QP,51.628550817853500,-0.279881888357353
Thicketbird and Duck,HP3 8PG,51.749169015180700,-0.444276055647991
Elephant and Grosbeak,WD23 1GL,51.637130822975400,-0.343777500384383
Pratincole and Rat,WD5 0SW,51.701201127259900,-0.408311023488437
Guillemot and Zebra,WD6 2BX,51.653584732856100,-0.276794790731575
Chicken and Old World warbler,WD18 6NY,51.646150650150800,-0.419936000000000
Argus and Badger,HA6 2TX,51.603685403985500,-0.442033076418745
Black cockatoo and Piping shrike,WD7 8HB,51.693914773640200,-0.324053264701654
Old World quail and Petrel,HA3 5LZ,51.602036509831600,-0.352866576549619
Vulture and Puffleg,HA2 7ES,51.576309788380200,-0.370248787677972
Vole and Petrel,NW9 0EP,51.591928999556500,-0.271549699564848
Grackle and Rat,HA8 6QH,51.607325395355100,-0.292555189805591
Kestrel and Herring gull,WD3 9XN,51.613578221642900,-0.515008287361256
Philippine hawk-owl and Quetzal,WD7 7DQ,51.690526758606200,-0.316018455768710
Towhee and Moluccan boobook,HA1 4DB,51.578519828269900,-0.350152125463399
Fox and Wallaby,WD3 5HN,51.646209417172500,-0.524233362119125
Mamo and Magpie,WD18 7BG,51.652935042217300,-0.407862818160822
White ibis and Kangaroo,HA5 5RT,51.590305640760700,-0.366658669595935
Jackal and Stilt,WD23 3EJ,51.644845189741900,-0.361664308759078
Towhee and Coati,WD25 9BN,51.681812113420300,-0.388219218780648
Flameback and Warbler,HA7 3RD,51.611541379674000,-0.328070879122210
Tattler and Quetzal,HA8 8EZ,51.620840031850200,-0.287454263794840
Magpie and Asiatic leopard,WD7 7AF,51.682945964015500,-0.317239989778771
Nukupuʻu and Dorcopsis,HA4 7HG,51.570920592286400,-0.433427729788834
Flameback and Pratincole,WD4 8DA,51.717679321749700,-0.452435888542835
Argus and Kestrel,WD3 6DB,51.675917554220100,-0.506360699730109
Chipmunk and Logrunners,AL4 0DW,51.751030510000000,-0.296427774000000
B and Partridge,WD3 3NY,51.657135803640500,-0.438784084307686
Tree warbler and Parakeet,HA5 3EH,51.594924569426700,-0.383327095456799
Tit-tyrant and Moluccan boobook,WD3 1DQ,51.637318283802800,-0.468207363093210
Pratincole and New World blackbird,WD25 0AA,51.688217000000000,-0.405156000000000
Myna and Macaw,HA5 3NW,51.596530143897800,-0.392856900639816
Tit-tyrant and Mole,NW9 9LB,51.591035222839800,-0.274976182664892
Pitohui and Duck,WD19 4PA,51.633634073815200,-0.398308306320163
Perching duck and Meadowlark,AL1 1BY,51.749886330000000,-0.341539752000000
Argus and Parakeet,HP3 0LF,51.714664000000000,-0.535599000000000
Kākāriki and Stilt,HA1 1GY,51.579417000000000,-0.335795000000000
Triller and Zebra,AL4 0GB,51.740789100000000,-0.300187786000000
Egret and Elephant,HA3 0WD,51.585235265947700,-0.329686206463401
Parrotlet and Jackal,AL1 3FY,51.747463000000000,-0.326597083826402
Fish eagle and Recurvebill,HA1 1PF,51.583876366431300,-0.341543000000000
Jay and Cloud rat,WD18 6PB,51.647114244645900,-0.420294820616445
Ibex and Quetzal,WD23 4HR,51.640392294937600,-0.351896300381589
Viscacha and River dolphin,HA3 5AE,51.597443488721100,-0.338839943061951
Kākāriki and Chickadee,WD6 4RS,51.653956564283200,-0.280076749041491
Fox and Elephant,HA7 3SL,51.613534181786300,-0.321526981347831
Snipe and Chickadee,WD3 3UP,51.639480000000000,-0.474556753427907
Bronzewing pigeon and Philippine hawk-owl,WD3 4DA,51.644282444379000,-0.493568944773655
