name,postcode,lat,lon
Buzzard and Black cockatoo,HP5 2RQ,51.711224730180200,-0.625391828994084
Parrotlet and Nukupuʻu,HP10 9SX,51.607231639745500,-0.700147295653742
Jackal and Wallaby,HP11 1GD,51.620156207734800,-0.724117000000000
Parrotbill and American sparrow,HP11 2TR,51.626375000000000,-0.754744000000000
Wader and Perching duck,HP13 7RW,51.627279056544900,-0.724351554287581
Mockingbird and Snipe,HP1 2DG,51.748556231619000,-0.503734307592531
Bunting and Diving bird,HP8 4BP,51.662292000000000,-0.564426000000000
Scimitar babbler and Pheasant,SL9 8RW,51.595799651209000,-0.566985668622185
Recurvebill and Dorcopsis,HP6 9SG,51.675422700684700,-0.603364610453156
Dolphin and Coati,SL7 1UF,51.578156724607300,-0.759583794226222
Puffleg and Black cockatoo,SL9 9HU,51.602686000000000,-0.567505000000000
Goose and Wallaby,HP3 9WY,51.732969638778800,-0.458908179344204
Jackal and Goose,HP13 5BU,51.641067000000000,-0.753872003655839
Masked owl and Tree warbler,HP7 9BT,51.668135169092200,-0.602735000000000
Booted eagles and Mouse,SL7 3PP,51.591568305822800,-0.783239840549217
Civet and Mink,HP7 0NE,51.652823042114000,-0.641614593668792
Parrotbill and Ibex,HP10 9TP,51.607737808784500,-0.698760939467650
Badger and Fox,HP6 5JY,51.685018212306400,-0.609723553106957
Tree warbler and White ibis,WD4 8AB,51.713283024166000,-0.449763310795625
B and Old World warbler,WD3 5SG,51.658148188368400,-0.503912000000000
New World blackbird and Tattler,HP13 5EN,51.641981609715900,-0.758002191394414
Coati and Stint,HP14 4LL,51.668540029018900,-0.757709917769560
Wader and Parakeet,HP3 8BQ,51.737258516573800,-0.445916134132815
Elephant and Francolin,SL2 3LH,51.565673962949300,-0.617752370113488
American sparrow and Prion,HP14 4XA,51.680013000000000,-0.795552000000000
Dolphin and Parrotbill,HP16 0LQ,51.695733306317800,-0.734350508625530
Parrotlet and Capuchin,HP9 1HW,51.608828584024400,-0.656690699389524
Booted eagles and Ibex,SL9 8JH,51.593208000000000,-0.550595000000000
Thrasher and Night heron,SL9 0EH,51.620703629800000,-0.546757979400000
Gull and Minke whale,HP11 9SN,51.627426815191300,-0.748951126192552
Mockingbird and Ibex,HP11 1BY,51.616026000000000,-0.746847000000000
Vulture and Masked owl,HP3 9HR,51.742762000000000,-0.471930000000000
Grackle and Wallaby,HP8 4RU,51.642317000000000,-0.574466000000000
White ibis and Hawk,UB9 4HH,51.572268807771800,-0.526412477033642
Bronzewing pigeon and Civet,UB10 8SA,51.566922824903900,-0.452004755853284
Macaw and B,HP3 9SZ,51.730273917788600,-0.458362719594195
Stint and Mouse,HP7 0AB,51.673439346285200,-0.607662911698811
Recurvebill and Moluccan boobook,HP9 1TG,51.619135785167100,-0.653771917461319
Rat and Kangaroo,SL7 3JX,51.581378739945200,-0.771835979752182
Diving bird and Herring gull,HP7 0ER,51.668274422477200,-0.618015861556251
Dorcopsis and Puffleg,WD4 9HS,51.713921376222800,-0.453852453168027
Fox and Dorcopsis,HP13 7AQ,51.624414830092400,-0.730542670368349
Cloud rat and White ibis,WD3 0PL,51.639484000000000,-0.474602000000000
Siskin and Civet,UB10 8ND,51.563712826414800,-0.445895519629618
Chipmunk and Herring gull,HP10 8NL,51.622373870875500,-0.689631593010667
Shearwater and Pratincole,SL9 9RU,51.607839260656900,-0.559588184720391
Treepie and American sparrow,SL9 7HQ,51.570099461798000,-0.555889648601285
Fulmarine petrel and Bunting,HP8 4LA,51.629598679455200,-0.580918200895946
Wader and Jerboa,HP7 0HF,51.665109967041500,-0.619601460271667
Flameback and B,HP10 0ET,51.584819109258300,-0.684375636721743
Vole and Fulmarine petrel,HP4 2NL,51.752601191924600,-0.547352874001959
Snipe and Vole,HP10 9UW,51.607924000000000,-0.701615000000000
River dolphin and Jerboa,WD4 8AR,51.724924707876000,-0.455011862193657
Marmoset and Fish eagle,HP8 4JD,51.630188149203600,-0.560643178364217
Old World vulture and Meadowlark,HP13 6GF,51.631327000000000,-0.744512564076218
Linsang and Dorcopsis,WD3 7DF,51.639028087483500,-0.478684779892554
Booted eagles and Guillemot,HP15 6WG,51.627758396455600,-0.748002927687814
Old World quail and Capuchin,WD3 1QL,51.633688515335400,-0.459500901487213
Linsang and Meadowlark,HP9 2HD,51.608960303693900,-0.634591265569528
Lemming and Philippine hawk-owl,UB9 5EN,51.577335378238400,-0.520100000000000
Prion and Egret,HP11 1QS,51.619252000000000,-0.747024000000000
Pheasant and Boto,SL9 8QQ,51.592365189323900,-0.560409694272338
Ground sloth and Fish eagle,HP11 9TX,51.627431000000000,-0.748932000000000
Kākāriki and Jackal,WD3 9UA,51.620900981611200,-0.518828462784584
Francolin and Puffleg,HP9 1NL,51.610984522676900,-0.645767000000000
Skunk and Magpie,SL2 3XZ,51.571168106458800,-0.605594758607447
Ground sloth and Masked owl,HP3 9QX,51.740677473203800,-0.467987994411169
River dolphin and Towhee,HP11 1NL,51.627971075823800,-0.744170000000000
B and Booted eagles,WD3 1DD,51.637813998666100,-0.468985464564238
Chipmunk and Boto,HP10 8EW,51.634048000000000,-0.701057000000000
Guillemot and Eagle,SL8 5SA,51.578495382646700,-0.711832000000000
Armadillo and Songlark,SL2 3YY,51.571825433477800,-0.599629562888200
Solitaire and Stint,HP5 2JF,51.708002000000000,-0.615745047030865
Herring gull and Kite,HP9 2LS,51.618975680943200,-0.649226572250686
Badger and Mouse,UB9 6AW,51.591047721230100,-0.485716040544948
Ground sloth and Wader,HP11 9TB,51.627426815191300,-0.748951126192552
Pitohui and Parakeet,HP16 0HJ,51.687900000000000,-0.734960000000000
Crow and Philippine hawk-owl,HP13 7HX,51.632673322436500,-0.712742222437092
Booted eagles and Fish eagle,HP3 0FQ,51.734230000000000,-0.468721000000000
Capuchin and Moluccan boobook,WD3 8GW,51.640224053378600,-0.495437629265483
Dorcopsis and Cuscus,HP6 6NU,51.673367013657300,-0.593289822966689
Rat and Old World vulture,SL9 0NA,51.618662433429200,-0.548383120448441
Coati and Grackle,HP13 5XR,51.647131111911100,-0.771418886378661
Piping shrike and Coati,HP9 2PL,51.612999321372800,-0.644045679902052
Tit-tyrant and Stilt,UB9 6QB,51.603908395275900,-0.476147638893865
American sparrow and Marmoset,HP11 9SY,51.627426815191300,-0.748951126192552
Solitaire and Mink,HP8 4DR,51.627289847219500,-0.579603280264795
New World blackbird and Guillemot,WD3 4PB,51.693121000000000,-0.504999000000000
Prion and Mamo,SL8 5AU,51.576774176497300,-0.706471271267355
Greenbul and Flameback,SL9 9TJ,51.606986908733600,-0.553160016105451
Grackle and Moluccan boobook,SL6 9AF,51.562680693660500,-0.736720131423736
Condor and Mamo,HP6 6NG,51.675274000000000,-0.590223000000000
Nukupuʻu and Tattler,HP6 9NQ,51.675536000000000,-0.607287000000000
Marmoset and Stilt,SL7 2FS,51.570318000000000,-0.777368000000000
Wader and Pitohui,HP5 3QG,51.722786464809100,-0.575425666339108
Quetzal and Magpie,SL8 5RX,51.578440690611000,-0.712470876018870
Macaw and Viscacha,HP13 5DJ,51.640156000000000,-0.752748000000000
Old World warbler and Argus,HP7 9EU,51.672162913635500,-0.594108054425525
Goose and Parrotlet,HP13 5RJ,51.643319892947700,-0.768963828795017
Kākāriki and Herring gull,HP15 7UG,51.648994087958900,-0.711167079695055
Darwin's finches and Jay,HP3 8BS,51.733885000000000,-0.446394000000000
Piping shrike and Ground sloth,HP5 3AQ,51.710375981295000,-0.607527863628410
Zebra and Old World quail,HP3 0NW,51.716782000000000,-0.547545000000000
Tit-tyrant and Lemming,HP11 2DG,51.630665419569500,-0.753326568492103
Eagle and Old World warbler,HP14 4NG,51.675875142793200,-0.766042226080154
Nukupuʻu and Zebra,HP2 4AZ,51.752649000000000,-0.471596000000000
Maya and Quetzal,SL7 3JP,51.580137163504100,-0.771768419378163
Grouse and Lemming,HP7 9RW,51.666270000000000,-0.603559000000000
Diving bird and Maya,WD3 1LF,51.636134000000000,-0.461427000000000
Buzzard and Grackle,HP6 6RL,51.670662749339100,-0.560083788442504
American sparrow and Hawaiian honeycreeper,HP15 6HX,51.676523000000000,-0.720586805484212
Pratincole and Old World quail,HP3 9RL,51.733445424381000,-0.462280659458638
Prion and Tree warbler,HP14 4SH,51.670061513377100,-0.784536466670087
Solitaire and Tree warbler,HP10 0DW,51.600863496465500,-0.690265196147803
Skunk and Pratincole,HP15 7JG,51.655864994404500,-0.703107949899158
Pheasant and Recurvebill,WD3 8HE,51.636894194362100,-0.493813744653970
Puffleg and Tit-tyrant,HP11 1GN,51.618683684418300,-0.717818060562725
Minke whale and Gull,HP14 4LB,51.655269320539300,-0.750179703892732
Francolin and Polecat,SL9 9BN,51.603011540213000,-0.556737469543712
Recurvebill and Marmoset,HP5 1RR,51.701293466429000,-0.599891044984390
Songlark and Stint,HP13 7DT,51.619699560153200,-0.714510452605687
Argus and Armadillo,SL9 0PW,51.623589504362400,-0.557095935555386
Pheasant and Duck,HP14 4UY,51.678816007546100,-0.792054598611847
Stilt and Black cockatoo,SL7 1AW,51.571004001486100,-0.776314480719488
Bronzewing pigeon and Prion,HP15 7PD,51.646876116803000,-0.699302993452379
Meadowlark and Minke whale,HP13 6NQ,51.630054835802600,-0.747128000000000
Booted eagles and Marmoset,WD3 3FN,51.642717154264500,-0.445074899798125
Hawaiian honeycreeper and Bronzewing pigeon,HP10 0NT,51.609183891263200,-0.680090004696559
Nukupuʻu and Ibex,WD3 1BU,51.638613557503700,-0.468929637083411
Jerboa and Dolphin,WD3 5FH,51.642768000000000,-0.501597000000000
Jerboa and Gull,WD3 1FR,51.637521627611700,-0.470700511597137
Coati and Hawaiian honeycreeper,HP10 9UB,51.610535000000000,-0.702754000000000
Goose and Chipmunk,SL8 5XJ,51.577874166662200,-0.703481569236501
Grosbeak and Warbler,HP6 5NS,51.684840933192000,-0.615269353325660
Thrasher and Jackal,HP7 0PB,51.647193798187500,-0.654863410876172
Duck and Mouse,WD4 8BB,51.724149399130800,-0.461712877680620
Parrotbill and Ground sloth,HP13 5LU,51.643277008399400,-0.770020006174964
Meadowlark and Petrel,HP6 5SH,51.691260197426600,-0.653094698555471
Eagle and Hawaiian honeycreeper,HP9 1EP,51.600408368626000,-0.658715112943337
Perching duck and Thrasher,HP15 7TY,51.648682803805100,-0.711479441822848
Thrasher and Crow,HP11 1HL,51.613921419002800,-0.704202480016201
Meadowlark and Petrel,HP16 0JL,51.679238231749100,-0.749057179839079
Pitohui and Egret,HP12 3QS,51.621887723127400,-0.773603000000000
Peafowl and Tahr,HP6 6BQ,51.683560639901300,-0.598297193898295
Booted eagles and Flameback,HP9 1ND,51.601464392296100,-0.637198544907765
Fish eagle and Towhee,WD3 7PG,51.645226118813100,-0.487236039049744
Fulmarine petrel and Philippine hawk-owl,HP9 1EB,51.604482000000000,-0.642234000000000
Bunting and Logrunners,HP8 4BH,51.660492915832700,-0.561548329736078
Myna and Perching duck,HP11 9UE,51.627763000000000,-0.747983000000000
Mamo and Marmoset,WD3 7DD,51.639550896640900,-0.477395553747672
Marmoset and Tree warbler,HP13 7EH,51.621043535014300,-0.716538155166469
Moluccan boobook and Petrel,HP12 4SY,51.618188119162800,-0.789735862554290
New World blackbird and Fish eagle,HP11 2DL,51.630339357134400,-0.752874000000000
Civet and Kestrel,HP15 6PU,51.663676866243100,-0.692387813427439
Stint and Old World vulture,SL8 5JE,51.576302593015800,-0.694737738226426
Shearwater and Recurvebill,HP12 4BX,51.634663262101700,-0.782840000000000
Towhee and Quetzal,HP15 6BE,51.663419699997900,-0.719795000000000
Quetzal and Prion,SL9 7HB,51.574333930393500,-0.570518039690463
Kākāriki and B,HP13 5RQ,51.637049263754100,-0.760709174754737
Zebra and Mockingbird,SL7 9DT,51.570718683100000,-0.775166000000000
Moluccan boobook and Grouse,HP13 6SG,51.631587255961500,-0.750382686989845
Marmoset and Solitaire,HP5 3BP,51.711558545371100,-0.601861066233692
Rabbit and White ibis,SL9 0AY,51.609821239152400,-0.546758787363536
Prion and Marmoset,HP16 9NT,51.742681747985900,-0.698233000000000
Crow and Mouse,SL9 7JF,51.571149580286300,-0.556462421489787
Myna and Petrel,HP9 1NH,51.610878988844700,-0.645755255514370
Old World warbler and Hawk,HP13 7LF,51.631813359264500,-0.731217541682466
Darwin's finches and Warbler,HP5 2TY,51.733158455345600,-0.659901151724980
Tree warbler and Wader,HP16 9JT,51.728505955088700,-0.684234096844358
Meadowlark and Vole,HP5 2QP,51.716432145043500,-0.625494522039778
Black cockatoo and Jay,HP12 4AN,51.640845683928200,-0.786098034021155
Grouse and Peafowl,HP13 5JP,51.644574327351100,-0.782341947787990
Triller and Goose,HP6 6PW,51.672989718882500,-0.560660793735588
Tahr and Old World warbler,HP11 1BN,51.626293449485200,-0.738826118641407
Wader and Wader,HP6 9HJ,51.675532486281100,-0.607309567966647
Cloud rat and Flameback,HP7 0JG,51.664080831359800,-0.614673263560270
Dolphin and Kangaroo,HP10 9UY,51.609263170463200,-0.702529903638713
Philippine hawk-owl and Peafowl,HP3 9RE,51.736510107440600,-0.463537989569480
Capuchin and New World blackbird,HP13 7AS,51.623141580510500,-0.726721136107392
Magpie and Chipmunk,HP6 6QT,51.671049813825400,-0.564770000000000
American sparrow and Darwin's finches,HP13 7DY,51.622842235988200,-0.714103847246761
White ibis and Night heron,HP17 0UZ,51.742952084289100,-0.778902748608205
Marmoset and B,HP6 5QY,51.681190065851700,-0.623668900652968
Boto and Scimitar babbler,UB9 6RD,51.601927338631400,-0.482177482708051
Polecat and Thrasher,HP13 5JY,51.643849945576500,-0.782722660942383
Argus and American sparrow,HP6 5AL,51.674766025685200,-0.603529339754913
Philippine hawk-owl and Wader,WD3 3AJ,51.646492000000000,-0.455938283282760
Civet and Darwin's finches,HP13 5SB,51.638830000590100,-0.769533367599309
Booted eagles and Asiatic leopard,HP13 5SJ,51.638416037136300,-0.755845269491552
Civet and Wallaby,SL8 5HR,51.578214247490900,-0.699272265749631
Jerboa and Solitaire,HP7 0BN,51.667524305991700,-0.604764219634694
Ibex and Maya,SL9 7HD,51.572727000000000,-0.570642650422402
Chicken and Condor,HP3 9TW,51.736525062534300,-0.455760405903117
Jay and Siskin,SL9 9ES,51.606587605488700,-0.560176547356561
Black jay and Flameback,HP11 9TR,51.627431000000000,-0.748932000000000
Chicken and Tit-tyrant,WD3 5SW,51.659096617868100,-0.498831940214285
Snipe and Flameback,UB9 5DJ,51.593018000000000,-0.506064000000000
Eagle and Dolphin,HP3 9QN,51.734600794974500,-0.462617974448609
Recurvebill and New World blackbird,SL9 7BP,51.571321861032400,-0.544927609089873
New World blackbird and Jerboa,HP10 0EU,51.588241000000000,-0.683992532618706
Argus and Gull,HP12 3QH,51.620081000000000,-0.770187472787352
Cuscus and Skunk,HP5 1WA,51.699978270702000,-0.610292554591420
Jay and Old World warbler,SL7 1DB,51.572551665329200,-0.776417227814161
Greenbul and Treepie,WD3 7HJ,51.639993850681300,-0.490112602291252
Kite and Fox,HP1 1NP,51.745803248650600,-0.480926000000000
Peafowl and Black cockatoo,HP6 5LL,51.686189889696200,-0.600111066954334
Argus and Ground sloth,HP23 6NF,51.754299939071500,-0.656045000000000
Meadowlark and Booted eagles,HP7 9BY,51.665378526947600,-0.601258627158772
Grosbeak and Myna,WD3 3BY,51.645913158756300,-0.446194036204389
Parrotlet and Elephant,SL3 6HU,51.565569687169700,-0.550233133825293
Dolphin and Wallaby,HP16 0EA,51.681941801825100,-0.712170187885460
Thicketbird and Parrotbill,HP3 0LY,51.725165728109800,-0.526282638678349
Cloud rat and Grackle,SL7 3AZ,51.577866817731000,-0.779103091620743
Towhee and Darwin's finches,HP3 9PN,51.739248662815500,-0.463923055486611
Elephant and B,HP13 6UR,51.637733149314700,-0.734014731890581
Siskin and Mouse,SL3 6HL,51.562631430278300,-0.562993000000000
Mamo and Peafowl,UB9 5BD,51.574042421833300,-0.499615133868586
Asiatic leopard and River dolphin,WD3 5HR,51.646610345144200,-0.523223041287916
Tattler and Treepie,SL9 9LZ,51.607285885331100,-0.565800936220605
Eagle and Thrasher,HP3 0NN,51.711906071061700,-0.554779589197797
Maya and Grackle,HP13 6HG,51.629438000000000,-0.737289000000000
Hawk and Jerboa,HP6 6AZ,51.676752232850700,-0.596656104865460
Crow and Scimitar babbler,SL9 1EF,51.587109468800000,-0.554022529100000
Francolin and Chipmunk,SL7 1XD,51.571004001486100,-0.776314480719488
Cloud rat and Parrotbill,HP17 0UX,51.736425637209200,-0.780773031695809
Vole and Duck,HP3 0FN,51.731304000000000,-0.474395077415039
Wallaby and Old World vulture,SL7 3NZ,51.588040120127700,-0.774269075644050
Flameback and Marmoset,SL7 2NH,51.570863846857200,-0.779261817439749
Duck and Parakeet,HP3 9FJ,51.735248088472400,-0.461234698180763
Bunting and Old World warbler,HP16 0QY,51.707328280123300,-0.684834071910301
Hawk and Hawk,HP1 2DY,51.743235000000000,-0.525267000000000
Asiatic leopard and Duck,HP7 0HZ,51.664881000000000,-0.619193216281161
Mouse and Duck,SL8 5XW,51.576271843970400,-0.701694408069948
Maya and Linsang,WD3 5LZ,51.639480000000000,-0.474556753427907
Gull and American sparrow,HP5 2AL,51.709419156671800,-0.612536148480763
Eagle and Pratincole,HP1 1BX,51.749168495574000,-0.473727123515512
Mink and Herring gull,HP9 2TA,51.614042000000000,-0.597941000000000
New World blackbird and Recurvebill,SL7 2YT,51.570716156181800,-0.775166000000000
Scimitar babbler and Moluccan boobook,WD3 8JQ,51.633491949177300,-0.492857171925929
Maya and Peafowl,HP7 0LJ,51.647571000000000,-0.632145000000000
Flameback and Hawaiian honeycreeper,SL9 9RS,51.608994890756400,-0.557038762396467
Songlark and Thicketbird,WD3 6HL,51.680396283261700,-0.493744974989809
Dorcopsis and Vulture,HP12 4UE,51.616310853107800,-0.787315919497220
Jackal and Puffleg,SL2 3XJ,51.579486000000000,-0.593477000000000
Towhee and Pheasant,WD3 1AZ,51.639251205957100,-0.465425371612849
Old World vulture and Maya,UB9 6NE,51.602940861622200,-0.477811731656537
Mink and Triller,HP8 4HR,51.633670838235600,-0.563076058450039
Chickadee and Fish eagle,UB9 6JY,51.608860469049500,-0.478725772823069
Dorcopsis and Skunk,HP1 1AN,51.747096000000000,-0.475390000000000
Civet and Crow,HP11 1TJ,51.615031994071400,-0.760427695333588
Pitohui and Meadowlark,HP11 1NN,51.618288940197200,-0.719548067309673
Crow and Civet,UB9 5NB,51.579945510090200,-0.497140403601109
Parrotlet and Gull,HP5 2SZ,51.714330011386000,-0.648921047632821
Bunting and Fulmarine petrel,SL9 0HW,51.613235525011000,-0.555286685749255
Wader and Old World warbler,SL9 9LN,51.608270123609700,-0.571300987882295
New World blackbird and Wallaby,WD3 5JJ,51.650358020789800,-0.518070969040111
Wader and Parrotbill,HP13 7YD,51.628903801909700,-0.713383473437068
Mole and Triller,SL7 3XB,51.577010294897700,-0.782344202720400
Perching duck and Kākāriki,HP13 6AB,51.627824363096000,-0.742395523075796
Fish eagle and Booted eagles,HP15 7AJ,51.660054165948800,-0.715291869917455
Darwin's finches and Eagle,HP5 3HA,51.712494587294100,-0.606595000000000
Armadillo and Hawk,SL7 1HW,51.578388091537600,-0.764469838268068
Partridge and Peafowl,UB9 5DA,51.578139118187500,-0.504964382580811
Scimitar babbler and Piping shrike,HP16 0LX,51.694929414047000,-0.738192685829047
Coati and River dolphin,WD3 7HA,51.642667054199900,-0.488032000000000
Chickadee and Buzzard,WD4 9DJ,51.697807997282700,-0.501747686662454
B and Fish eagle,HP13 6JA,51.632911540268300,-0.732993032855401
Greenbul and Piping shrike,SL9 7NH,51.579991457412900,-0.558881173816404
Rat and Jackal,SL2 3RR,51.565340176159900,-0.605498902169236
Linsang and Snipe,SL8 5AR,51.578508782463600,-0.708846572659581
Old World vulture and Pitohui,HP13 7QA,51.640413984247900,-0.722509015793786
Parakeet and Crow,HP5 2BB,51.715741932669400,-0.611908408664333
Prion and Guillemot,HP13 6LX,51.633056324136000,-0.746484424838131
American sparrow and Snipe,HP10 9AW,51.598890592472700,-0.711055294531243
Diving bird and Tahr,WD4 8JE,51.723228546266400,-0.449281000000000
Cuscus and Egret,HP13 5PN,51.639159012377800,-0.750449172617378
Elephant and Ground sloth,HP5 3RD,51.721866300661300,-0.578147415422359
Dolphin and Wallaby,HP6 6JP,51.675870455017400,-0.581006000000000
Chickadee and Thrasher,SL8 5UT,51.578387907445300,-0.704405016402666
Macaw and Songlark,HP13 5PT,51.645114692227800,-0.737292322880754
Booted eagles and Snipe,HP3 9FB,51.737652725877000,-0.456040589014868
Linsang and Linsang,HP7 0RN,51.671394000000000,-0.631703000000000
Magpie and Tit-tyrant,WD3 1HT,51.642496258846900,-0.465344732005412
Viscacha and Nukupuʻu,SL8 5DE,51.575268000000000,-0.708919000000000
Mockingbird and Linsang,HP13 7UG,51.624004985372300,-0.720947380229817
Bunting and Prion,HP3 9NQ,51.742621457921000,-0.461925704214261
Kite and Prion,HP16 9RA,51.712396712902000,-0.764093422850289
Flameback and Peafowl,SL6 9SQ,51.560027926475900,-0.707625000000000
Grouse and Thrasher,HP12 3NT,51.624707239473500,-0.767271703859291
Kestrel and Bunting,HP3 0BJ,51.737664303067800,-0.486656828461352
Tit-tyrant and Goose,HP15 6NL,51.661308937677900,-0.723164956611078
Polecat and Elephant,WD4 8AN,51.723668263565400,-0.455879956596418
Marsh harrier and Polecat,HP23 6NJ,51.754166466397100,-0.668913866061897
Lemming and Elephant,HP12 3LS,51.623176363889700,-0.783434786479139
B and Petrel,SL9 9LB,51.606163150353400,-0.570327385578546
Grosbeak and Warbler,HP14 4RB,51.665908359866400,-0.780295298403580
Masked owl and Lemming,HP3 0LU,51.722486774041900,-0.528483505983214
Thicketbird and Kangaroo,SL9 9JH,51.606148833982400,-0.561793350559448
Jackal and Ice seal,HP11 1RG,51.617295264029600,-0.719128262321129
Civet and Tattler,HP3 0HF,51.725609321569600,-0.533710345525011
Maya and Hawaiian honeycreeper,HP13 7SU,51.629709398311000,-0.720454667633317
Fish eagle and Solitaire,HP15 6HW,51.676178547292500,-0.723744810579730
Wader and White ibis,WD3 3PF,51.652552733702500,-0.443740838772706
Ibex and Cuscus,WD3 0PY,51.639484000000000,-0.474602000000000
Tree warbler and Eagle,UB9 5LY,51.585379243112500,-0.500151111954507
Rabbit and Ice seal,SL3 6HS,51.561676195692300,-0.558998521860996
Condor and Argus,HP14 4QH,51.662618528748600,-0.772633909691540
Capuchin and Thrasher,HP13 7PH,51.641559546949300,-0.725323829304925
Philippine hawk-owl and Viscacha,SL9 9TQ,51.605775869417000,-0.551205698979016
Viscacha and Moluccan boobook,HP5 3LE,51.721845587434400,-0.595115773626679
Tahr and Minke whale,HP13 7DQ,51.619214627531200,-0.714567487082718
Treepie and Viscacha,WD3 1LZ,51.633061959320500,-0.469347755462905
Mamo and Kangaroo,UB9 5NR,51.581106403989300,-0.498617564921689
Pitohui and Kestrel,HP13 6EX,51.629371595266600,-0.739101968583024
Macaw and Herring gull,HP11 2NE,51.634892096514000,-0.763585531857461
B and Nukupuʻu,HP6 6FA,51.671169000000000,-0.574920000000000
American sparrow and Black jay,SL9 8SD,51.599467108437600,-0.563939199981333
Chicken and Coati,HP15 6UZ,51.667924152657600,-0.695099744845447
Fox and Chipmunk,HP15 7AF,51.659958482596100,-0.712301840990860
Petrel and River dolphin,WD3 5HE,51.646978510395700,-0.519612084923640
B and Pitohui,HP15 6BJ,51.664494281443700,-0.718419599696413
Mockingbird and Rat,SL7 2AY,51.566184618557500,-0.786730866189427
B and Flameback,UB10 8AT,51.561559864573000,-0.468171726571105
Grosbeak and Linsang,HP3 9TB,51.728908128698600,-0.456381980456068
Towhee and Masked owl,HP3 9FU,51.737024118985200,-0.463650900422474
Philippine hawk-owl and Piping shrike,HP5 1QG,51.694489043918000,-0.599334165491434
Rat and Ice seal,HP15 6YS,51.627758396455600,-0.748002927687814
Old World quail and Armadillo,SL6 9AH,51.563385252661700,-0.741201822624562
Stilt and Siskin,SL6 9SZ,51.560546536135000,-0.705085141978660
Gull and Lemming,HP6 6JN,51.675025857827700,-0.591401680068061
Thrasher and Old World warbler,HP12 3AZ,51.634545452089200,-0.768247696788245
Tree warbler and Coati,HP11 1UN,51.617332351130700,-0.763456163967296
Fulmarine petrel and Solitaire,HP9 2JN,51.599916854977400,-0.635569978860599
Duck and Zebra,HP13 7YE,51.631470315573600,-0.716200588219987
Civet and Thrasher,WD3 5TF,51.657626271755400,-0.495656562622234
Chipmunk and Logrunners,HP15 7DU,51.654467456913600,-0.715854581547708
Minke whale and Fulmarine petrel,HP13 6JE,51.630514562055700,-0.736569000000000
Recurvebill and Viscacha,HP9 1TX,51.599793487146200,-0.656841768766884
American sparrow and Argus,HP3 9HP,51.737418010827300,-0.470256232572260
Elephant and Old World vulture,HP9 2YT,51.615670725758700,-0.608001288854530
Warbler and Parakeet,HP16 0SL,51.694604759108700,-0.730401000000000
Black jay and Coati,HA6 2RE,51.607897738734100,-0.444372827133767
Civet and Solitaire,WD4 8QN,51.702487576662300,-0.459625649518241
Vulture and Thicketbird,HP5 1TJ,51.689846446782800,-0.590825986254430
Stilt and Hawaiian honeycreeper,HP6 6LE,51.679527943596600,-0.594169274994355
Vole and Rabbit,SL7 1UJ,51.575703274017000,-0.760559716953432
American sparrow and Fulmarine petrel,HP15 7LP,51.650557102935500,-0.709388196897161
Cuscus and Grosbeak,HP12 4UF,51.615299286541800,-0.789494936264258
Rat and Capuchin,HP10 0FF,51.596503776774700,-0.683951456406259
Philippine hawk-owl and Puffleg,WD3 1JP,51.632372947290800,-0.464096978330324
Magpie and Nukupuʻu,HP11 2HU,51.630282259783700,-0.753654930331149
Old World quail and Myna,HP1 1QE,51.745198199850600,-0.490055368966281
Jerboa and Hawaiian honeycreeper,SL8 5PN,51.585161589057300,-0.719411279943835
Greenbul and Philippine hawk-owl,HP2 4LJ,51.750276380322600,-0.463520021788102
Tattler and New World blackbird,HP3 9LX,51.742157984170000,-0.450600267756475
Masked owl and Crow,UB9 6HL,51.602795000000000,-0.495000000000000
Grosbeak and Tit-tyrant,UB9 6NN,51.603415342756900,-0.474878982204817
Snipe and Gull,SL9 8BZ,51.587695077161700,-0.548460839194370
Masked owl and Fox,HA6 2TE,51.607221515929700,-0.446952044655623
Elephant and Francolin,WD4 9HT,51.711934465819000,-0.449780466878348
Mockingbird and Parakeet,HP10 9EL,51.604492506956700,-0.715979582770392
Polecat and Chickadee,HP10 9TQ,51.609307199095000,-0.698383917767648
Jay and Old World vulture,SL3 6HX,51.565823858794800,-0.550427042158310
Mamo and Chickadee,HP5 2UN,51.748741678531500,-0.652095648340091
Peafowl and Mouse,WD3 4AA,51.644553522651600,-0.461763169323333
Cloud rat and Logrunners,SL7 3QA,51.595468296406100,-0.783871934615554
American sparrow and Gull,HP12 3DR,51.633834286272200,-0.769885277280044
Jay and Hawk,HP15 7NU,51.647992688847200,-0.698635071701846
Jerboa and Piping shrike,HP16 0LT,51.695820133806800,-0.740757876885802
Moluccan boobook and Duck,HP9 1ZR,51.610878988844700,-0.645755255514370
Perching duck and Cloud rat,HP10 9RA,51.607507523238500,-0.696501000000000
Civet and Thicketbird,HP12 9ET,51.622164000000000,-0.770369000000000
Chicken and Kangaroo,HP11 1UA,51.612033000000000,-0.774461000000000
Old World vulture and Chickadee,SL9 8SU,51.572090289519300,-0.578279572065087
Masked owl and Prion,HP9 1TD,51.617446434498500,-0.653085243766539
Mamo and Jackal,HP11 2JH,51.628789075739400,-0.762956810679126
Perching duck and Parrotlet,HP6 5AQ,51.674076365814800,-0.603000981684982
Prion and Stint,WD3 3UD,51.651527072383400,-0.450497703767108
Gull and Tahr,UB9 5LA,51.587253084721500,-0.507480053365677
Philippine hawk-owl and Armadillo,HP13 5QF,51.641391148050400,-0.744751661796623
Diving bird and Ice seal,HP5 2TZ,51.732678943380000,-0.668343228326171
Viscacha and Mole,SL7 1NS,51.572020190242600,-0.767730411680409
Guillemot and Prion,HP12 3ES,51.633400362214400,-0.774824168295290
Warbler and Linsang,UB9 6BQ,51.607645306209800,-0.491171505370236
Francolin and Old World warbler,WD3 7PP,51.643356106660700,-0.483078085307323
Ice seal and Mole,HP13 5RL,51.642727609750500,-0.769933705130216
Wallaby and Elephant,SL9 7PZ,51.585316355259200,-0.562682114071120
Ibex and Recurvebill,WD3 3LB,51.655183958843900,-0.451645171623284
Greenbul and Parakeet,HP10 0EN,51.586586465101200,-0.683213147058004
Grouse and Shearwater,HP13 7BH,51.614956012352900,-0.703436409511843
Dorcopsis and Francolin,HP14 4WQ,51.622142368825800,-0.770490331512096
Marmoset and Macaw,HP13 6NG,51.630247920077400,-0.747891056553378
Pitohui and Stint,HP13 6RX,51.630475444548200,-0.749835304322834
Mouse and Puffleg,WD3 5JU,51.646163092714300,-0.526272813509675
Pratincole and Dolphin,SL9 7LE,51.574902659421000,-0.553818137307411
Old World quail and Diving bird,HP9 2ZJ,51.610878988844700,-0.645755255514370
Night heron and Vole,SL9 8QF,51.591989490511400,-0.558371619795681
Coati and Philippine hawk-owl,HP8 4LQ,51.629367410421500,-0.582615844975429
Puffleg and Bronzewing pigeon,HP6 6LL,51.679899974203000,-0.589948680406974
Rabbit and Jackal,SL8 5HU,51.578207816203000,-0.699503356684162
Magpie and Marmoset,HP10 9PU,51.594649475609600,-0.706425591228777
Kākāriki and Parrotlet,HP16 9NQ,51.738472393843900,-0.693430864032822
Marsh harrier and Magpie,SL9 0JS,51.616292863700300,-0.552373038537050
Cloud rat and Warbler,HP3 0PH,51.701193612674100,-0.529159857156257
Cloud rat and Kite,HP12 3DN,51.633427257721600,-0.768798151723098
Lemming and Flameback,HP3 9DU,51.737956183158900,-0.472381443172457
Chipmunk and Egret,SL9 1DB,51.587109468800000,-0.554022529100000
Cuscus and Grosbeak,HP1 2AJ,51.749114313824600,-0.495328232287773
Kestrel and Dorcopsis,SL6 9AR,51.562287255800000,-0.743626954660396
Tit-tyrant and Marmoset,HP12 4SQ,51.615641857445000,-0.784358391082194
Macaw and Kite,HP16 0EY,51.688870197241500,-0.703611754112464
Piping shrike and Ground sloth,HP3 9UA,51.737051911287500,-0.452063859619280
Myna and Recurvebill,HP9 1JZ,51.617162829364500,-0.655014707488534
Argus and Old World vulture,HP13 5AS,51.634869494032000,-0.757184967311052
Armadillo and Mink,SL9 8DQ,51.584854262443500,-0.541983878732334
Buzzard and Grosbeak,HP9 1RB,51.609511116864300,-0.638661748748039
Flameback and Lemming,SL9 7BG,51.574341248720600,-0.529621236646564
Duck and Rat,SL7 2DP,51.570431690826100,-0.785275914372600
Mockingbird and Linsang,HP16 9NP,51.742608000000000,-0.714458000000000
Moluccan boobook and Warbler,SL7 1JE,51.580264384402700,-0.765039550377166
Towhee and Puffleg,HP13 6DW,51.630034676788400,-0.744761690240072
Elephant and Moluccan boobook,HP6 6LH,51.680043895955100,-0.592952768018995
Pratincole and Ibex,SL7 2DF,51.565738000000000,-0.791302000000000
Perching duck and Recurvebill,HP2 4BS,51.751907361403700,-0.456235478366118
White ibis and Tattler,HP13 5BA,51.645139583637100,-0.735427206077373
Crow and Kākāriki,UB9 5HX,51.580835281525800,-0.501325437073051
Flameback and Thrasher,HP7 0BD,51.668542000000000,-0.607050547468411
Hawaiian honeycreeper and Grackle,HP9 2BQ,51.621845710686100,-0.650932618267733
Ground sloth and Vulture,HP6 5QF,51.683013402715000,-0.615845846421674
Perching duck and Songlark,UB9 6HH,51.604397000000000,-0.488146000000000
Diving bird and Fox,HP3 9UJ,51.739310803051400,-0.448119615356916
Moluccan boobook and Greenbul,SL9 9AJ,51.605612333081800,-0.556178470357853
Pratincole and River dolphin,SL9 8PE,51.587756431114200,-0.554160684962972
Logrunners and Tree warbler,WD3 8RW,51.641019549227100,-0.498576275307750
Dorcopsis and Chicken,HP5 1ED,51.704750464711400,-0.611608028261093
Jerboa and Cloud rat,HP15 6HY,51.675861811554600,-0.721078111769355
Peafowl and Grackle,UB9 4HR,51.572281842688200,-0.527451020641015
Wader and Gull,SL8 5TU,51.585809787495600,-0.711266661566754
Zebra and Philippine hawk-owl,HP11 2QB,51.630594369996300,-0.759353440534804
Flameback and Booted eagles,SL6 9UB,51.560924898280100,-0.753315603791013
Maya and Tahr,HP15 6LG,51.655019000000000,-0.736714000000000
Stint and Vulture,HP12 3EH,51.630745777244700,-0.773768709777360
Mamo and Mamo,HP13 6PQ,51.632823337718400,-0.744034519458239
Marmoset and Solitaire,SL9 8BA,51.583278769710100,-0.545455049219940
Logrunners and Kangaroo,HP12 4NZ,51.615283000000000,-0.781667000000000
Greenbul and Bronzewing pigeon,HP3 9HB,51.745979256500300,-0.468417044261034
Parrotbill and Chickadee,HP6 6SN,51.669788101372000,-0.551839826256271
Rabbit and Asiatic leopard,HP15 7QL,51.647642795396200,-0.718331086234331
Black jay and Elephant,HP7 9NU,51.667721683437100,-0.566640801125927
White ibis and Stilt,UB9 6RJ,51.610192423195900,-0.496965014497496
Partridge and Old World vulture,HP3 0HU,51.720118981659300,-0.531122813919718
Coati and Tattler,HP11 2LZ,51.633744323496100,-0.766910000000000
Coati and Gull,WD4 8EW,51.709760207956500,-0.447191594989209
Zebra and Solitaire,WD3 4ES,51.653173973656100,-0.485063295129211
Night heron and Elephant,HP6 5BX,51.676170000000000,-0.607381676600690
Kite and Solitaire,WD4 8DS,51.708821258217200,-0.445544806121419
Dolphin and Siskin,HP5 1ND,51.701406465035400,-0.612448395989972
Towhee and Recurvebill,HP10 9JH,51.594541387339500,-0.697463356500372
Partridge and Coati,WD4 8FH,51.707950000000000,-0.445641786205709
Dorcopsis and White ibis,HP10 0PB,51.603936619674500,-0.690884340310917
Mamo and Black cockatoo,HP16 9QU,51.703385966037000,-0.746162795266137
Triller and Parrotlet,SL9 0LE,51.618540634488700,-0.549441470349628
Puffleg and Night heron,HP13 7HR,51.630709724259400,-0.709156812761203
Dolphin and Chickadee,HP11 1SE,51.616412770241300,-0.718185367800108
Rat and Pitohui,SL7 2FP,51.571845000000000,-0.778399000000000
Wallaby and Grosbeak,WD3 0LZ,51.639480000000000,-0.474623000000000
Ibex and Partridge,HP7 0PL,51.643823121997700,-0.655758043984374
Viscacha and Polecat,HP16 0SW,51.693058529155700,-0.735625967463482
Kite and Tree warbler,SL9 0AD,51.608710527000600,-0.550014726388156
Stint and Puffleg,HP5 3DR,51.713668641914100,-0.603880394828375
American sparrow and Kite,HP15 7PZ,51.649173280939500,-0.717030000000000
Cuscus and Kākāriki,SL8 5DJ,51.574912940060200,-0.710564683551157
Mole and Parakeet,HP3 9WZ,51.732649748500000,-0.458513585432394
Cuscus and Bunting,HP7 9AT,51.672426002425300,-0.596558413184299
Argus and Vole,HP5 2EQ,51.717452549719800,-0.615142116799278
Parrotlet and Boto,HP6 6HH,51.678275594271200,-0.597578000000000
Stint and Grackle,HP15 7TL,51.646724904631900,-0.702703883455678
Ibex and American sparrow,UB9 6HT,51.612071625451000,-0.496253026481655
Kestrel and Parakeet,HP5 2PH,51.716833379543300,-0.619069528001854
Gull and Old World vulture,UB9 6AQ,51.594226277639900,-0.483964515914790
Parakeet and Maya,HP5 2BY,51.721135881819400,-0.616390463451631
Myna and Treepie,HP5 2EY,51.716561925587700,-0.616631379767539
Kākāriki and Puffleg,HP1 1DH,51.748780000000000,-0.473479000000000
Old World vulture and Maya,HP11 1BA,51.628138864953500,-0.748266957866369
Maya and Old World vulture,HP4 3BW,51.754507527579400,-0.572312578748060
Treepie and Tit-tyrant,WD4 8DE,51.718695697020000,-0.455875614789335
Wader and River dolphin,SL7 3PR,51.594039148461800,-0.783924533666802
Towhee and Duck,HP3 0HX,51.720433490781300,-0.532545865418819
Kākāriki and Perching duck,SL8 5AS,51.577683058426600,-0.709506000000000
Wader and Grosbeak,HP7 9ET,51.671888240608400,-0.593697170977818
Triller and Moluccan boobook,HP5 3JA,51.713264678783400,-0.606208800358596
Stint and Piping shrike,SL9 1ED,51.587109468800000,-0.554022529100000
Warbler and Zebra,WD3 3HL,51.647437768322000,-0.456115205670088
Puffleg and Crow,SL9 7RL,51.584189698099200,-0.560263916701049
Siskin and Black cockatoo,HP13 7EG,51.625130044034200,-0.708722836884316
Bunting and Vulture,WD3 9RN,51.624949626202900,-0.509060619039594
Myna and Lemming,SL9 7LA,51.577262047924500,-0.555561639122473
Triller and Gull,SL9 9QS,51.610427829185100,-0.555837961605960
Dolphin and Snipe,SL7 2NN,51.572317580866800,-0.780709145950352
Tree warbler and B,HP6 6RP,51.671004106438000,-0.555662241839430
Thicketbird and Moluccan boobook,HP10 8LN,51.636576000000000,-0.693030082594930
Vulture and Towhee,HP13 5BE,51.641385657062100,-0.740878755663292
Thicketbird and Parrotlet,WD3 0YY,51.639480000000000,-0.474623000000000
Wader and Bronzewing pigeon,HP9 1LX,51.601773583299900,-0.638375000000000
Cloud rat and Jay,WD3 8QR,51.636827355813600,-0.500535487795290
Egret and Civet,HP10 0JQ,51.574549155655600,-0.689087887401737
Greenbul and Philippine hawk-owl,HP8 4ET,51.631332144135400,-0.576298311804675
Pratincole and Mouse,SL9 8LU,51.597001651134100,-0.560133173820215
Dolphin and Fish eagle,UB9 4LF,51.573504123069100,-0.518825400307722
Chicken and Snipe,WD4 8JA,51.718538435591200,-0.445196000000000
Eagle and Viscacha,HP7 0AF,51.673946304497800,-0.609469611172060
Wallaby and Night heron,HP9 2LZ,51.613379189071800,-0.648136155427719
Snipe and Myna,HP5 3HH,51.717770239249000,-0.607025724090892
Tree warbler and Scimitar babbler,HP7 9HN,51.668959927303200,-0.589449639373329
Hawk and Fox,HP13 6AQ,51.627445297861200,-0.739747703814938
Tahr and Egret,HP11 1SL,51.616462741792900,-0.715352971179500
Marsh harrier and Thicketbird,HP8 4EH,51.633851322528200,-0.584600171145488
Marsh harrier and Diving bird,HP13 6DG,51.629480037353400,-0.743346652447867
Capuchin and Civet,HP12 3LX,51.621762209011300,-0.783198136820498
Wallaby and Wader,HP15 6BD,51.664427409462500,-0.719708343568676
Marsh harrier and Booted eagles,SL7 1UN,51.575400839064400,-0.760019573918957
Peafowl and Thrasher,HP15 6PA,51.662622002741000,-0.714944543865778
Tahr and Puffleg,UB10 8DS,51.564339514925300,-0.457142000000000
Lemming and Black cockatoo,HP10 9AB,51.599826823501200,-0.713613291546506
American sparrow and Crow,SL7 1JN,51.574691045886300,-0.765190579905442
Buzzard and Guillemot,WD3 0JW,51.639480000000000,-0.474556770438289
Meadowlark and Dolphin,SL7 3HP,51.575438906910500,-0.773915347567925
Bunting and White ibis,HP8 4LN,51.627754731752600,-0.585338903827829
Duck and Capuchin,SL9 0DF,51.612319000000000,-0.550163764851141
Minke whale and Wader,HP5 1PL,51.700166328361500,-0.607190082706405
Jay and Grackle,SL7 2TH,51.567852844959400,-0.789440000000000
Fox and Peafowl,HP12 4QA,51.612078694648700,-0.782388307557005
Thrasher and Bronzewing pigeon,WD3 5PD,51.647369588317600,-0.527115382315488
Jerboa and Dolphin,HP13 5TT,51.647476283627900,-0.775196402064305
Egret and Towhee,HP16 0SB,51.694103774877000,-0.736667513772136
Lemming and Crow,HP13 6AU,51.627601383875600,-0.734195603230060
Polecat and Hawk,HP13 6RG,51.629528174756900,-0.748068000000000
Buzzard and Egret,WD3 0BR,51.639480000000000,-0.474556753427907
Dolphin and Tit-tyrant,SL9 8HA,51.588342000000000,-0.548354000000000
Parrotbill and Mink,HP7 9EW,51.668903551847400,-0.596002072898098
Prion and Chicken,WD4 9PS,51.712933663519500,-0.454103000000000
Mamo and Ibex,HP9 1PD,51.607158298385200,-0.645923716775168
Kite and Piping shrike,HP15 7JR,51.657971950796200,-0.704999512586204
Flameback and Mouse,HP9 2AJ,51.621313926379300,-0.649258269307760
Lemming and Towhee,HP9 2LE,51.600376809597300,-0.632596235937483
Solitaire and Goose,HP9 1BU,51.603862015019000,-0.661934537659339
Masked owl and Ground sloth,HP13 7PR,51.625539000000000,-0.711985000000000
Armadillo and Chicken,HP7 0AX,51.669621863117300,-0.607431000000000
Linsang and Badger,SL6 9TJ,51.566788134425200,-0.728223614705687
Darwin's finches and Grouse,HP12 3AR,51.638738085123800,-0.776226588530087
Lemming and Towhee,SL8 5DN,51.573162669376200,-0.709214483167934
Fish eagle and Nukupuʻu,UB9 5ND,51.580318889206100,-0.498210536826539
Egret and New World blackbird,HP7 0RP,51.655315000000000,-0.643925000000000
Diving bird and Myna,SL7 2BY,51.568742000000000,-0.784369000000000
Buzzard and Snipe,SL7 1DT,51.575826000000000,-0.771780000000000
Parrotbill and Coati,HP5 2BZ,51.721032871111400,-0.612991449696551
Tree warbler and Mole,SL8 5FW,51.571654880000000,-0.697023000000000
Hawaiian honeycreeper and Mole,HP23 6NP,51.754649293203300,-0.684648053952012
River dolphin and Parakeet,HP14 4NL,51.682307894973800,-0.774126733264124
Piping shrike and Chicken,WD3 6EE,51.672888943391400,-0.525709310600719
Magpie and Jackal,SL6 9TP,51.570423645596700,-0.740156133406021
Buzzard and Jerboa,SL9 8HG,51.589109428308200,-0.550855343143428
Thicketbird and Tahr,WD3 6DD,51.682616914884900,-0.488116657188488
Gull and Triller,HP27 0PP,51.686402000000000,-0.794283000000000
Logrunners and Kite,HP5 2BD,51.714510617606100,-0.609673498684164
Ice seal and Tit-tyrant,SL2 3XT,51.571863739379700,-0.605111721385383
Tit-tyrant and Macaw,HP6 5PE,51.688491546860100,-0.613740220325576
Pitohui and Chipmunk,WD3 7NY,51.642193438618100,-0.483564905091340
Parrotlet and Stilt,SL9 9RZ,51.607247000000000,-0.560274403080182
Parakeet and Darwin's finches,HP11 2LQ,51.633482339562300,-0.760358346421455
Macaw and Rat,WD3 4JH,51.660219676964600,-0.479883694151694
Nukupuʻu and New World blackbird,HP3 9SH,51.736685789621800,-0.468731246294102
Chipmunk and Nukupuʻu,HP15 6DP,51.672914799141200,-0.732904059237078
Diving bird and Ice seal,HP8 4NB,51.628883660324000,-0.562057019633132
Pratincole and Mole,SL8 5NF,51.582484925555000,-0.706554504205218
Goose and Goose,HP10 8EA,51.638365042596400,-0.699676534236960
Chicken and Pitohui,WD4 8BS,51.718713549594000,-0.451083196624787
Mink and Mamo,UB10 8EU,51.562868795903000,-0.458259550688460
Cuscus and Stilt,SL9 0ED,51.620223000000000,-0.546470000000000
Kangaroo and Bunting,HP9 2JD,51.602043594174500,-0.632878280170273
Fox and Parakeet,HP13 6DU,51.628669043464600,-0.741505309262029
Grouse and Triller,HP15 6RP,51.661530009837500,-0.695008703897836
Ice seal and Parrotbill,HP10 9EH,51.605691000000000,-0.715282000000000
Pheasant and Chicken,HP16 9AD,51.705289828686100,-0.708584048472356
Chicken and Egret,UB9 5HZ,51.580369400458600,-0.502163424171856
Dorcopsis and Magpie,HP13 6JL,51.638125311172900,-0.727226000000000
Solitaire and Grosbeak,HP8 4SS,51.638022646637800,-0.557187076825115
Egret and Parakeet,SL9 0JL,51.620420769048300,-0.553151750656675
Bunting and Gull,HP12 3AT,51.634900705214300,-0.775564026690689
Civet and Ground sloth,HP10 8DN,51.637069322359600,-0.700407206511821
Piping shrike and White ibis,SL9 8QP,51.589111214166100,-0.552457612195934
Mink and Triller,UB9 6JD,51.593404583652000,-0.484396102492522
Gull and Chipmunk,HP8 4QB,51.633053332248100,-0.569207623583183
Treepie and Moluccan boobook,HP10 0AD,51.592051000000000,-0.675706102665090
Flameback and Songlark,HP5 2JG,51.709173667079400,-0.616118608406092
Tree warbler and Thrasher,HP14 4SE,51.671691676053900,-0.785664204929902
Boto and Parrotbill,HP9 2WS,51.623017266840800,-0.650377821349786
Greenbul and Bunting,WD3 5BH,51.646839764569100,-0.530760439447278
Crow and Mink,HP9 1HH,51.610259565663800,-0.648213000000000
Asiatic leopard and Guillemot,HP10 9NF,51.596483650274400,-0.697465551756243
Badger and Magpie,WD4 8AP,51.725197909805100,-0.455958152323172
Duck and Piping shrike,SL7 1DZ,51.571903814207000,-0.769493972280194
Kākāriki and Goose,WD3 3BP,51.646145799435600,-0.450189741264902
Prion and Ibex,SL7 1AT,51.570704797636300,-0.776077216189056
Old World quail and Eagle,HP13 7TU,51.625505366873900,-0.720832961216996
Snipe and Jerboa,HP7 9ES,51.672467282838100,-0.592493371384172
Stilt and Pitohui,SL9 7LQ,51.575923890858700,-0.556426633918278
Argus and Francolin,SL9 8SB,51.599916017077300,-0.564618102146816
Rat and Ground sloth,HP3 9DE,51.738018000000000,-0.464798000000000
Thicketbird and Kestrel,WD18 9SR,51.638443780741500,-0.443024393604137
Old World quail and Francolin,SL9 1FD,51.587111000000000,-0.554003000000000
Wallaby and Badger,SL9 7NR,51.578580106279900,-0.572895998013092
Diving bird and Parakeet,HP6 6LJ,51.679733242922800,-0.591790802316979
River dolphin and Mink,SL9 8EL,51.588203291315600,-0.551750277357451
Black jay and Bunting,HP10 0BX,51.595525343975000,-0.684903714719851
Goose and Marmoset,HP12 4PT,51.613022643405600,-0.785843731170706
Mink and Towhee,SL9 7LB,51.575945501124000,-0.553799472703354
Logrunners and Solitaire,SL9 0FH,51.621970000000000,-0.546437000000000
Jay and Jackal,SL8 5PS,51.581901789100300,-0.724756461406661
Pheasant and Polecat,HP13 7QJ,51.635849948419100,-0.725339381928162
Duck and Asiatic leopard,HP6 5JW,51.679039518838800,-0.606001395004724
Songlark and Recurvebill,SL7 2JT,51.570966053268600,-0.792620618663082
Stilt and Polecat,HP12 3JG,51.627244445020300,-0.780335429018443
Siskin and Old World vulture,SL9 8JS,51.597221017096700,-0.553109401564803
Kestrel and Viscacha,SL7 3FJ,51.577654000000000,-0.750747000000000
Rabbit and Snipe,HP11 1JF,51.615716049789500,-0.707126759657734
Tree warbler and Shearwater,HP13 6DD,51.637545819858700,-0.734988130770908
Dolphin and Warbler,HA6 2XU,51.607203942520700,-0.444266568497820
Rat and Pitohui,HP6 5RB,51.683326602157400,-0.612668410167534
Jerboa and Francolin,HP6 9SU,51.675422700684700,-0.603364610453156
Badger and Rabbit,HP10 8JT,51.644261317894800,-0.715101000000000
Tahr and Solitaire,HP12 4AL,51.645163172004300,-0.794782000000000
Armadillo and White ibis,HP8 4PD,51.630433981291100,-0.583073852472876
Puffleg and Argus,HP6 6AL,51.676381713067500,-0.600268854224369
Condor and Night heron,UB9 5LJ,51.584307981916900,-0.500056477949662
Triller and Coati,HP11 2UT,51.622967248180700,-0.757452348829662
Herring gull and Mockingbird,HP14 4XF,51.679436784007000,-0.793152000000000
Badger and Skunk,UB9 5EH,51.580811075738500,-0.523538304055045
Buzzard and Civet,WD3 7AW,51.638283366236900,-0.480198161565328
Tree warbler and Peafowl,HP10 0AN,51.600863000000000,-0.689312000000000
Mamo and Zebra,SL7 2LR,51.570059000000000,-0.777826000000000
Macaw and Dolphin,HP11 1FY,51.618632255591500,-0.719697295779658
Puffleg and Pheasant,SL7 1PB,51.572589794100800,-0.766315316785958
Pheasant and Treepie,HP12 3QG,51.636538089703500,-0.770435000000000
Asiatic leopard and Old World quail,HP3 0PU,51.700888811341500,-0.536434158666342
Chipmunk and Condor,HP13 7NN,51.624873408497500,-0.722252040374991
Treepie and Rabbit,UB9 6EY,51.605550599066600,-0.470359704493623
Night heron and Black jay,SL9 1AG,51.587108600000000,-0.554022499999974
Masked owl and Marsh harrier,WD4 8FG,51.712754856164500,-0.449260273207064
Ice seal and Piping shrike,HP15 6UL,51.668397030576700,-0.696387592138549
Stilt and Black jay,SL7 2PP,51.575216432475500,-0.784513438463367
Towhee and Crow,SL9 7QE,51.586798574833400,-0.554508650617859
Logrunners and Solitaire,HP10 0BW,51.593104397075100,-0.679906427793983
Zebra and Parrotlet,HP9 1HE,51.622747131119500,-0.655831940091599
Maya and Skunk,SL7 2SZ,51.566672279511700,-0.786934306996419
Hawaiian honeycreeper and Capuchin,WD3 8RB,51.639932226166400,-0.499334764066137
B and Shearwater,SL8 5JY,51.582733267636100,-0.710328934429358
Philippine hawk-owl and Puffleg,HP15 6PF,51.670127760219700,-0.708991209477370
Diving bird and Dorcopsis,HP10 0LZ,51.599201429724000,-0.683960117357904
Skunk and Old World vulture,HP10 8EQ,51.636383000000000,-0.697551000000000
Old World warbler and Jerboa,UB9 5JP,51.581714571097700,-0.503288279469369
Mockingbird and Minke whale,WD3 3BJ,51.646061300206400,-0.453329055203833
Black cockatoo and Masked owl,HP16 0PQ,51.695768500211100,-0.743493956415850
Condor and Argus,HP9 2DU,51.603433471992900,-0.635637862643533
Macaw and Viscacha,HP8 4ED,51.628347497668800,-0.583658000000000
Coati and Philippine hawk-owl,HP12 4BB,51.638889995814600,-0.781323656952163
Stilt and Thrasher,HP12 4HA,51.627854143765100,-0.786242497364949
Kite and Dolphin,WD3 5PN,51.648884260971200,-0.531026797935382
Stint and Kestrel,HP14 4RD,51.665925207107500,-0.777590924825347
Mole and Linsang,HP9 1PU,51.608761453783500,-0.644590733981039
Prion and Asiatic leopard,HP9 1QH,51.609572246257800,-0.643165741486242
Recurvebill and Goose,HP8 4QN,51.628328727700700,-0.570367599021987
Mink and Pheasant,WD4 9AW,51.685529018357600,-0.476880736037017
Tree warbler and White ibis,UB9 5EB,51.579362923954500,-0.519933854901646
Philippine hawk-owl and Gull,HP5 3DB,51.715056518327100,-0.599610851365945
Vulture and Tattler,HP10 0NJ,51.603289000000000,-0.689141000000000
Nukupuʻu and Solitaire,UB10 8BG,51.565265850035600,-0.445698292928116
Tit-tyrant and Booted eagles,HP10 9DN,51.609382395700600,-0.716650373084548
Logrunners and Kākāriki,SL7 3PZ,51.593832521549600,-0.784810680774407
Macaw and Vole,HP8 4PS,51.632720636517200,-0.572902633360837
Fish eagle and Black jay,HP15 7FR,51.645317216743000,-0.726071190657053
Siskin and Tahr,HP5 2EZ,51.715803950665400,-0.615641214318969
Flameback and Snipe,HP3 9TZ,51.737317640440800,-0.453807188608583
Gull and Towhee,HP4 2JJ,51.753542329293100,-0.558796980636319
Greenbul and Parrotbill,HP15 7LY,51.650029326934000,-0.706367738281019
Meadowlark and Pheasant,SL7 1AN,51.570886000000000,-0.765492000000000
Linsang and Thrasher,SL7 3EE,51.578765489382000,-0.773017662204862
Buzzard and Towhee,HP7 9NN,51.669491987666000,-0.571718545198724
Booted eagles and Old World vulture,HP3 8JR,51.735686381284300,-0.450792635856716
Bronzewing pigeon and Triller,UB10 8NF,51.564004013970300,-0.448194003647739
Grackle and Bunting,HP10 8HG,51.622708076449100,-0.702724336378599
Jay and Vulture,UB9 5ED,51.579192264620100,-0.523518601034460
Skunk and Kangaroo,HP13 5BZ,51.639824500231500,-0.746240034344598
Viscacha and B,HP2 4DB,51.752279219564400,-0.448283647628121
Ground sloth and Cloud rat,HP7 9FG,51.668965000000000,-0.589427000000000
B and Meadowlark,HP11 2ET,51.632025131943900,-0.758116000000000
Mole and Perching duck,HP3 0NX,51.740745293149500,-0.496214561133013
Elephant and Pitohui,UB9 6LB,51.613218395228800,-0.484039591355541
Marsh harrier and Petrel,HP3 8HS,51.741038755196200,-0.447553478708243
Badger and Marmoset,HP12 9FU,51.622164000000000,-0.770369000000000
Pitohui and Black cockatoo,WD3 7HU,51.636798641682900,-0.491273604744956
Masked owl and Duck,HP16 0EB,51.682216699137300,-0.712639726329299
Moluccan boobook and Old World quail,SL9 9DH,51.603440088454800,-0.560882575165962
Ibex and Philippine hawk-owl,HP5 1QD,51.696973202831200,-0.604828275392118
B and Hawk,HP13 7PA,51.635445804996200,-0.724555968893807
Wader and Coati,HP15 6XL,51.668717849253900,-0.692083624700655
Bunting and Macaw,HP15 7DQ,51.656894000000000,-0.715670000000000
Zebra and Bunting,HP16 0LE,51.695264789259800,-0.734262294392599
Cuscus and Dolphin,WD3 1PR,51.621404000000000,-0.468252000000000
Flameback and Kākāriki,HP12 4PP,51.613329025092500,-0.785907771284524
Buzzard and Kākāriki,HP6 9TZ,51.675422700684700,-0.603364610453156
Warbler and Partridge,HP13 5YN,51.651743000000000,-0.774607365179348
Shearwater and Black jay,WD3 6EW,51.663534571843400,-0.514069746378751
Old World warbler and Jay,HP6 6NT,51.673840286811200,-0.593014841352971
Kākāriki and Night heron,HP3 9UH,51.738247350855500,-0.449980906697729
Vole and Greenbul,WD4 8ES,51.714462354794400,-0.449187397805720
Snipe and Viscacha,UB10 8NN,51.561302579261300,-0.449266972934098
Chipmunk and Fox,SL7 1RH,51.566299152204900,-0.773526347705801
Marmoset and Kestrel,HP5 1NR,51.699471462248700,-0.602436184759315
Jerboa and Tree warbler,HP6 5FH,51.674176000000000,-0.606418000000000
Buzzard and Tit-tyrant,HP5 2TE,51.724254211786000,-0.640893871234698
Egret and Dolphin,WD3 4JA,51.658865844261100,-0.476025430062900
Ibex and Grosbeak,HP11 2AP,51.631336865905100,-0.769244848651655
Eagle and White ibis,HP11 1TA,51.617753054277800,-0.765221258841249
Marmoset and Chickadee,HP10 8LR,51.636383711795000,-0.696149549446178
River dolphin and Rabbit,HP8 4SL,51.655087573700400,-0.559247421357532
Hawaiian honeycreeper and Mamo,HP2 4LL,51.750881495281200,-0.463035903714489
River dolphin and Snipe,HP10 0PE,51.582710000000000,-0.691855000000000
Quetzal and Bronzewing pigeon,HP2 4JT,51.747777147101900,-0.460809011201265
American sparrow and Old World warbler,HP9 2UU,51.608922657778200,-0.603109797550745
Jay and B,SL1 8PZ,51.560670930934000,-0.646770962766854
Jerboa and Egret,HP11 2RZ,51.633043548177800,-0.760529246158648
Chicken and Kite,HP10 8LA,51.635696000000000,-0.692456000000000
Vole and Pratincole,HP1 2JL,51.752848305282800,-0.503969154130685
Vulture and Coati,HP5 3NJ,51.735958815865100,-0.610680869919590
Duck and Vulture,HP11 2QH,51.631990905298000,-0.761323714696777
Fish eagle and Kākāriki,WD3 1NQ,51.632393025298400,-0.468387723728788
Mamo and Dolphin,HP10 0LA,51.579958000000000,-0.665422000000000
Maya and Mamo,HP5 3QX,51.721756688389400,-0.568378501930853
Guillemot and Skunk,HP1 2DL,51.748621286202400,-0.506020985809515
Bronzewing pigeon and Argus,UB10 8AQ,51.567963613467800,-0.468966537721684
Wallaby and Logrunners,HP7 9AX,51.672489716884000,-0.599636808098142
Jay and Rabbit,WD3 3FH,51.648571268477700,-0.447967779133740
Tattler and Jerboa,HP1 1TX,51.749225771846300,-0.478838923620141
Kestrel and Grouse,WD3 5QF,51.654717780086000,-0.533006653521317
Ibex and Pitohui,SL7 3LF,51.582464545961200,-0.772485060591223
Ice seal and Triller,HP12 3RB,51.625232000000000,-0.770958728719411
Fox and Mockingbird,HP7 0BG,51.666639111429800,-0.606700121568161
Zebra and Chipmunk,WD3 1NW,51.630001407165000,-0.470476607157569
American sparrow and Flameback,SL9 9FJ,51.604434000000000,-0.559430000000000
B and Kangaroo,HP10 8JR,51.640661000000000,-0.713716000000000
Grouse and Hawk,HP7 0NU,51.647267499867100,-0.652664268047132
Civet and Marsh harrier,UB9 6PE,51.588812337284800,-0.481703000000000
Condor and Parrotbill,HP9 2RR,51.624479929664300,-0.654032719616364
Mole and Buzzard,SL9 0PY,51.589264707814800,-0.545235023461493
Dorcopsis and Pheasant,HP11 9SZ,51.627426815191300,-0.748951126192552
Badger and Ground sloth,WD3 5LX,51.662802200841900,-0.511621241339965
Booted eagles and White ibis,HP6 9TE,51.675422700684700,-0.603364610453156
Macaw and Skunk,SL9 7EY,51.576368504636600,-0.570713979088190
Thicketbird and Fish eagle,HP3 9FR,51.733085845957500,-0.457485054178270
Piping shrike and Kestrel,WD3 8LN,51.642464966349600,-0.500508513340545
Philippine hawk-owl and Pratincole,SL9 9SH,51.610505231553000,-0.561410173862714
Kākāriki and Old World warbler,HP2 4TF,51.749400000000000,-0.468635000000000
Parrotlet and Flameback,WD4 9LD,51.720557581976500,-0.494727235779980
Chipmunk and Black jay,HP22 6QH,51.740235894731200,-0.753137926288818
Darwin's finches and Tahr,HP5 1DS,51.704974857459500,-0.613858813899985
Stint and Zebra,WD4 9BB,51.692031116880000,-0.485300017118167
Peafowl and Ground sloth,WD3 5AP,51.652058770274700,-0.523884403634689
Magpie and Viscacha,HP12 4RP,51.622115382686900,-0.786915638412360
Shearwater and Jackal,WD3 4JN,51.657380708803100,-0.482161713429785
Fulmarine petrel and Dolphin,SL2 3JT,51.560176074490500,-0.618193142995057
Herring gull and Wader,HP5 2FE,51.719955986032400,-0.620045703935505
Eagle and Hawaiian honeycreeper,HP9 2QP,51.620632071105200,-0.602519183752293
Badger and Old World quail,HP11 1DZ,51.622352664034600,-0.740278808778087
Grackle and Badger,SL6 9SH,51.559944000000000,-0.708262000000000
Songlark and Egret,HP9 1TS,51.599724518683900,-0.653176401424716
Snipe and Diving bird,HP10 9EU,51.603028474821800,-0.712701000000000
White ibis and Bronzewing pigeon,WD3 3GH,51.655281092915800,-0.443199320572121
Coati and Armadillo,HP5 1XJ,51.706280534937000,-0.581617420979617
Pitohui and Mouse,HP3 9JS,51.744333140997900,-0.463547830642446
Egret and Mouse,HP9 9DA,51.610835355000000,-0.645669998000000
Scimitar babbler and Capuchin,HP5 3LZ,51.711539982312900,-0.593524465261037
Old World warbler and Stint,SL8 5TN,51.582701315299900,-0.711513354625015
Hawaiian honeycreeper and Jackal,WD3 1LD,51.634338210581100,-0.468611201885019
Mouse and Zebra,SL8 5DX,51.578735934998700,-0.713155262955430
Masked owl and Hawaiian honeycreeper,HP2 4BA,51.747140578525200,-0.468522627634432
Petrel and Chickadee,HP16 0QN,51.691004758982300,-0.726959268390674
Gull and Maya,HP1 1FZ,51.746241331463800,-0.484472638034381
Jackal and Rat,SL7 1EY,51.573659211580700,-0.760283411331788
Parrotbill and Darwin's finches,SL9 0NF,51.618787948713300,-0.545446822891984
Jay and Ice seal,SL2 3LJ,51.565480909597500,-0.615868183380696
Scimitar babbler and Grouse,HP6 6UT,51.675600975939400,-0.588375575092935
Skunk and Triller,WD3 9TZ,51.620070104412800,-0.519967796827056
Magpie and Triller,HP5 2HD,51.708130904437500,-0.614616273242521
Tahr and Prion,HP3 9EP,51.744663294140800,-0.466795765957298
Siskin and Bronzewing pigeon,HP12 3QA,51.619820815202600,-0.771188636878913
Old World warbler and Gull,HP9 1YB,51.618054457331200,-0.664593879186115
Wader and Night heron,HP15 6ET,51.673828415509500,-0.727585456854281
Asiatic leopard and Parrotlet,WD4 9EX,51.711779550222200,-0.491067111580439
Civet and Chipmunk,HP10 0BN,51.596750006852000,-0.679454243204415
Nukupuʻu and River dolphin,HP11 1EG,51.618017000000000,-0.744684000000000
Moluccan boobook and Grosbeak,HP15 7ET,51.659973031657300,-0.710349644211497
Duck and Tahr,HP27 0ST,51.690079181348900,-0.776954949143213
Puffleg and Capuchin,WD3 5BA,51.647204195091400,-0.528985289202623
Cuscus and Eagle,HP8 4PY,51.632095399112700,-0.571029436735935
Kākāriki and Petrel,SL9 7NN,51.577038420698700,-0.561514518985039
Dolphin and Gull,HP1 1RW,51.753678043924900,-0.488700485492457
Wallaby and Crow,HP12 4LP,51.624688135903600,-0.786153612097801
Hawaiian honeycreeper and Mink,HP12 4QH,51.628389597262100,-0.789334426637124
Ibex and Triller,SL7 1AA,51.570716156181800,-0.775166000000000
Parakeet and Wallaby,HP11 1QH,51.615903212381800,-0.751231000000000
Thrasher and Flameback,HP5 2AJ,51.710766577846200,-0.612598000000000
Guillemot and Greenbul,HP13 6GR,51.637111000000000,-0.725420000000000
Jerboa and Dorcopsis,SL9 0LZ,51.619161377835600,-0.547152000000000
Recurvebill and Eagle,HP11 2RF,51.633178840956400,-0.767403317333855
Francolin and Recurvebill,SL7 3HT,51.576533432761500,-0.772817999822518
Partridge and Grackle,WD4 8HA,51.715413346772800,-0.449024587616116
Wader and Cuscus,SL8 5NU,51.583307968407800,-0.717644786148542
Condor and Wallaby,SL9 8SZ,51.585475000000000,-0.578584000000000
Grouse and Hawk,HP8 4FB,51.665662000000000,-0.562108000000000
Parrotbill and Macaw,HP3 9JW,51.747371604782500,-0.452522358946121
Puffleg and Grosbeak,HP7 0JE,51.665433251516900,-0.615354000000000
Black jay and Grosbeak,UB9 6EH,51.606528605414900,-0.479193616922939
New World blackbird and Boto,HP5 2FF,51.719149738225700,-0.620188000000000
Diving bird and Petrel,HP1 2AR,51.750408294733100,-0.497371339718084
Herring gull and Grackle,HP15 7NP,51.646997000000000,-0.701150000000000
Fish eagle and Partridge,HP10 9HT,51.593917652242700,-0.693121314115567
White ibis and Armadillo,WD3 1HA,51.639126809391800,-0.464851515294615
Mink and Prion,SL9 9SZ,51.607628673223600,-0.560013644627452
Skunk and Old World vulture,WD3 3LD,51.654705751721200,-0.450273000000000
Scimitar babbler and Duck,HP6 5BU,51.676417808269700,-0.607846377639163
Coati and Recurvebill,HP8 4SN,51.653439258591000,-0.564894072586171
Recurvebill and Tree warbler,SL6 9RP,51.564394424702000,-0.722493000000000
Ice seal and Mamo,HP13 7HE,51.628807517116200,-0.716087925411664
White ibis and Zebra,HP12 3JH,51.630117829313900,-0.779088085907221
Tattler and Polecat,HP13 5HR,51.631710305613300,-0.753500208177050
Minke whale and Mole,SL7 1BY,51.571437063521400,-0.774730042278508
Mockingbird and Magpie,SL7 3RY,51.581696841499600,-0.738242408643306
Recurvebill and Shearwater,HP5 3DA,51.715875865806100,-0.598948616897941
Jerboa and Darwin's finches,HP9 1BZ,51.603447239868800,-0.646106000000000
Meadowlark and Eagle,SL9 8RD,51.592334000000000,-0.565136784216246
Puffleg and Siskin,SL7 3PA,51.589677342027600,-0.771756591408548
Jackal and Herring gull,HP5 3HT,51.713215238235400,-0.611146219513943
Recurvebill and Tahr,HP9 2AH,51.621766332544500,-0.650284920359082
American sparrow and Chickadee,SL9 8QT,51.592330104902400,-0.555358070312428
Fox and Magpie,HP3 9PR,51.736449916819100,-0.461686280765756
Cuscus and Kangaroo,SL7 3RE,51.592374832597300,-0.755529832062606
Booted eagles and Kangaroo,HP15 6UR,51.667937091969500,-0.699509739218274
Fish eagle and Recurvebill,HP14 4XB,51.681416820655700,-0.795775071415914
Mamo and Towhee,UB9 5EJ,51.580427259791000,-0.519480732279114
Rabbit and River dolphin,HP15 7UF,51.649990000000000,-0.713336000000000
Capuchin and Greenbul,UB9 5HR,51.585557000000000,-0.497778000000000
Crow and Chicken,HP9 1PX,51.609031732137900,-0.650099359077226
Philippine hawk-owl and Bunting,HP10 0ND,51.599010305391200,-0.684557612704660
Marmoset and Petrel,UB9 4HQ,51.571191510640400,-0.525119774308783
Crow and Grouse,HP2 4JX,51.747312244454100,-0.461013128967184
Dolphin and Armadillo,HP5 3AU,51.715641858063200,-0.607250344560543
Duck and Hawaiian honeycreeper,HP15 7AN,51.660385196266900,-0.715962025527364
Crow and Argus,HP5 3QF,51.722204297099400,-0.578585622072306
Minke whale and Crow,HP3 9DA,51.737496000000000,-0.464605000000000
Marsh harrier and Coati,SL7 3RL,51.585644000000000,-0.747324624361113
Kangaroo and Thrasher,HP16 9HH,51.700815172708100,-0.744555251983416
Hawk and Bronzewing pigeon,WD3 3BR,51.644084377926900,-0.447976456270779
Night heron and Chipmunk,HP11 1TP,51.614247725526600,-0.772220147231727
Tattler and Tahr,WD3 8LX,51.645664625083100,-0.496876328389853
Quetzal and Stilt,WD3 9SE,51.623935942310200,-0.505713365554363
Tit-tyrant and Booted eagles,HP16 0HZ,51.691845000000000,-0.763011000000000
Diving bird and Kangaroo,HP16 0QE,51.695435248490200,-0.728397619950894
Dolphin and Recurvebill,HP13 7LN,51.632686407010900,-0.727971067500328
Night heron and Ground sloth,SL1 8PW,51.569968000000000,-0.648140000000000
Gull and Guillemot,WD3 5TQ,51.656355771969000,-0.496855173380821
Chicken and Skunk,HP14 4RL,51.661875472669600,-0.768649064407140
Civet and Shearwater,HP16 0JD,51.683977645214000,-0.745758689744943
Viscacha and Fish eagle,WD3 7BX,51.642426704476000,-0.477431000000000
Asiatic leopard and Piping shrike,SL9 0DJ,51.611536360611300,-0.547296162412998
Mamo and Greenbul,HP11 1HF,51.610871365518300,-0.708116463247635
Tahr and Recurvebill,HP5 2NG,51.721556621472900,-0.620054888792350
Jackal and Eagle,WD3 5NY,51.649465122068700,-0.527148652537814
Maya and B,SL7 1HS,51.578663622856600,-0.761604876398666
Maya and Badger,UB9 5NF,51.581256500750500,-0.496996127276047
Condor and Tahr,HP16 0RQ,51.701881955845800,-0.667510921999004
Macaw and Badger,HP3 0TB,51.720277318352200,-0.528685522294475
Meadowlark and Black cockatoo,WD3 3SZ,51.646579826664900,-0.451735949108038
Prion and Perching duck,HP12 4AX,51.638142000000000,-0.779215176208800
Bunting and Capuchin,HP5 1BU,51.704724251510100,-0.612433738200110
Mouse and Dolphin,HP8 4RB,51.626543399917000,-0.569224593269045
Jay and Ice seal,UB9 5NS,51.584831924471900,-0.500948573381823
Herring gull and Guillemot,UB10 8AR,51.560092878936700,-0.465613000000000
Grackle and Mink,HP6 5RN,51.691352190731700,-0.649359290910917
Thrasher and Crow,HP10 8LZ,51.632455019017300,-0.691363998048360
Kite and Petrel,SL9 8HY,51.589967962168300,-0.551203353570073
Parrotbill and Condor,WD3 4DS,51.647069565203400,-0.480973969917363
White ibis and Mink,HP6 6NQ,51.676342970961800,-0.590261628527536
Minke whale and Vulture,HP5 3EN,51.716085573704400,-0.605239068272930
Grackle and River dolphin,WD3 5JQ,51.650734978214100,-0.515167677927376
Chickadee and Dorcopsis,HP11 1JL,51.608267979723300,-0.704421190586496
Darwin's finches and Crow,HP10 9BT,51.603486523470900,-0.711156214101316
Civet and Kangaroo,HP10 9QR,51.603753000000000,-0.695265000000000
Ice seal and Gull,HP15 6XG,51.667946000000000,-0.692916000000000
Solitaire and Bunting,HP7 9HP,51.664683001437700,-0.600238973984831
Warbler and Mole,HP11 2HZ,51.627675103357100,-0.753697472060395
Vole and Kite,HP9 2HX,51.602741354131400,-0.632568535440437
Coati and Fish eagle,HP3 9DX,51.737539584132000,-0.472844456440688
Parrotbill and Booted eagles,HP2 4RS,51.751162166129600,-0.443367320922857
Badger and Petrel,SL7 2FQ,51.569940000000000,-0.778215000000000
Marmoset and Triller,UB9 5NN,51.582009972148500,-0.498255823871965
Boto and Jackal,HP9 1QL,51.609511176932000,-0.644411000000000
Elephant and Kestrel,SL7 3QQ,51.599109385542700,-0.784684301057273
Rat and Zebra,HP9 1BJ,51.605869188934200,-0.665269063630206
Flameback and Mouse,HP8 4HP,51.634017610256100,-0.561287798725122
Prion and Lemming,HP3 9AL,51.741089626697600,-0.477562390594524
River dolphin and Stint,HP1 2RT,51.745441280920000,-0.528360690009953
Lemming and Kite,HP3 9FE,51.732346942666900,-0.457365397506830
Fox and Ground sloth,HP2 5BL,51.754574596437100,-0.471806299663790
Quetzal and Mole,HP16 0JQ,51.684475062105200,-0.738468835829889
Thrasher and Snipe,SL7 3HH,51.572057000000000,-0.777123000000000
Grosbeak and Songlark,SL8 5SN,51.581337610917100,-0.715073494464992
Prion and River dolphin,HP1 2RR,51.731961828897600,-0.534055066537967
American sparrow and Treepie,SL6 9SS,51.560748273223400,-0.705440067071855
Grouse and Scimitar babbler,SL7 2AD,51.567285060442900,-0.774942638559370
Triller and Hawaiian honeycreeper,HP15 6RD,51.662023102069600,-0.697307873426232
Crow and Viscacha,SL9 9AF,51.604062479083400,-0.556646390050772
Boto and Nukupuʻu,HP3 9AH,51.742314907873300,-0.484705405234102
Pitohui and Chicken,UB9 5EX,51.578691611997900,-0.500342402183659
Pratincole and Stilt,WD3 5EU,51.649272921395500,-0.504822631702565
Crow and Hawk,HP8 4HN,51.635341304156700,-0.559974314610604
Elephant and Lemming,SL7 2DT,51.564439345411800,-0.791004491566118
Masked owl and Cuscus,SL9 8LT,51.596457636955900,-0.561233202565648
Dorcopsis and Francolin,HP3 9WG,51.732790761841800,-0.459667288722020
Jackal and Mouse,SL9 7PN,51.585332973144700,-0.565510683612964
Snipe and Thicketbird,SL7 3HX,51.576513881078000,-0.771808350647908
Old World quail and Perching duck,SL9 7LG,51.575066125061100,-0.554678804438611
Egret and Grosbeak,SL9 9FQ,51.605229000000000,-0.558322000000000
Old World quail and Crow,HP5 1BA,51.708832520723300,-0.600222773790139
Meadowlark and Snipe,HP27 0RU,51.692390287440200,-0.783909599724213
Vole and Eagle,HP9 1SY,51.616098857082600,-0.651622977468346
Fulmarine petrel and Boto,SL9 9UB,51.605997592676400,-0.548772599709632
Scimitar babbler and Zebra,HP14 4QG,51.663438785585400,-0.774549213021977
Jerboa and Fox,SL9 8TT,51.609466648512300,-0.578758719304446
Capuchin and Diving bird,WD3 8UZ,51.626953296876900,-0.494142957677227
Zebra and Booted eagles,HP6 6EJ,51.680131387160600,-0.596508260153883
Chipmunk and Mink,HP16 9QG,51.708637846273600,-0.687763105758625
Goose and Petrel,SL9 0EW,51.613395095468300,-0.545633645558042
Scimitar babbler and Wader,HP5 2NZ,51.711633000000000,-0.616366158134769
Black cockatoo and Pheasant,SL7 1HP,51.578467368626100,-0.762605998091572
Badger and Partridge,HP10 0NR,51.603545923519200,-0.683285821502523
Grouse and Cloud rat,HP6 6RR,51.670149577479400,-0.556369091566858
Armadillo and Vulture,HA4 7YN,51.581044836833300,-0.444178580219427
Fox and Rabbit,HP1 2JA,51.750750342809000,-0.505863821565942
Myna and Logrunners,HP5 1BT,51.706539348395700,-0.611567742127488
American sparrow and Zebra,SL9 8LH,51.595073392032900,-0.553957252661856
Stilt and Snipe,HP9 2BF,51.599650958727500,-0.637252919939056
Treepie and Polecat,WD3 1ET,51.639012184924900,-0.466401679479313
Parakeet and Egret,HP10 0BS,51.591003095711700,-0.680154997140408
Mamo and Snipe,WD3 4LP,51.662650212564300,-0.463507228678920
Kākāriki and Vulture,HP9 1FY,51.608774320877000,-0.637932828302771
Jerboa and Civet,SL9 9AA,51.601651000000000,-0.554142269955717
Coati and Kangaroo,HP22 6QL,51.743824736966800,-0.760904151590058
Fox and Songlark,SL9 8RN,51.595177494090300,-0.564637534833486
Pheasant and Badger,HP9 9BU,51.610881298220300,-0.645755283727223
Rat and Prion,HP15 7EP,51.658367065501700,-0.709036255242325
Old World vulture and Francolin,WD3 7AU,51.637629570500700,-0.483182446295553
Jerboa and White ibis,SL7 2BA,51.565606571493400,-0.787352209170820
Kangaroo and Nukupuʻu,HP14 4UF,51.674804811625700,-0.791091090697140
Armadillo and Thicketbird,WD3 9YB,51.602946000000000,-0.504684000000000
Boto and Macaw,SL9 0NJ,51.588364255528400,-0.545133867039143
Minke whale and Grouse,WD3 4DZ,51.648878203590900,-0.481766332524739
Diving bird and Rat,HP15 7JY,51.660156896097300,-0.704995066646082
Darwin's finches and Myna,HP27 0PY,51.693585226444500,-0.791661510965892
Mockingbird and Old World quail,HP8 4AW,51.660467727432900,-0.555100845390088
Duck and Old World warbler,HP16 9RG,51.707242364614300,-0.779487000000000
Thrasher and Quetzal,HP2 4DH,51.753425666528200,-0.467817458432896
Bronzewing pigeon and Dorcopsis,SL7 3JZ,51.581782200406200,-0.771724075175008
Tattler and Macaw,HP7 9AN,51.673485807723200,-0.606273124784606
Myna and Skunk,HP13 6PG,51.633064776420000,-0.744750304786524
Stilt and Boto,HP15 7TD,51.644517586570100,-0.705570710283263
Snipe and Mouse,HP8 4QF,51.632017000000000,-0.569616000000000
Francolin and Rat,WD4 8EJ,51.710891968443200,-0.452551744138697
Darwin's finches and Mink,HP3 8AF,51.732149208401900,-0.450537068548861
Jerboa and Black cockatoo,HP7 0SJ,51.664578052237400,-0.611853003040394
Ibex and Maya,WD3 9TN,51.621171293143100,-0.514601548419495
Recurvebill and Petrel,HP3 0TS,51.733102150457300,-0.472501657501253
Ice seal and Nukupuʻu,HP10 0HE,51.591191398269900,-0.683310991183260
Dolphin and Mockingbird,UB9 6HN,51.607673205665800,-0.497553653612831
Piping shrike and Coati,WD3 4HR,51.653920116322800,-0.473936161430102
Grackle and Tit-tyrant,HP9 2AF,51.619783200365600,-0.647512537476349
Tattler and Nukupuʻu,HP13 6DS,51.629957822545100,-0.744301472891474
Gull and Guillemot,SL7 9DZ,51.570795000000000,-0.775166000000000
Kangaroo and Parrotlet,WD4 9JW,51.710711471875000,-0.482143147565632
Boto and Gull,HP7 9NZ,51.668867794677800,-0.566980607997220
Linsang and Boto,SL8 5NA,51.581538942392500,-0.709655535989071
Grosbeak and Philippine hawk-owl,SL9 8WQ,51.587107306499300,-0.554022507297402
Treepie and Black jay,HP13 7XA,51.631585449663400,-0.717685546704474
Vulture and Dolphin,HP7 0RB,51.682241962994300,-0.672889792271489
Herring gull and Prion,HP13 6PF,51.631977014523000,-0.746456377721367
Kākāriki and Wallaby,SL1 8PP,51.565964933047900,-0.650480494465993
Tit-tyrant and Kite,HP12 4PS,51.616054679649400,-0.776490038448542
Bunting and Parrotbill,HP13 6GQ,51.632502000000000,-0.751378000000000
Songlark and Fox,HP10 0DU,51.599217439253500,-0.687800265877663
Kite and Dolphin,WD3 3NH,51.656929663765100,-0.444255944732667
Crow and Skunk,WD3 3FE,51.645629391799600,-0.458778254334761
Elephant and American sparrow,WD3 8LF,51.645018588133500,-0.496871000000000
Wader and Snipe,HP16 0HP,51.692226000000000,-0.739165000000000
Fish eagle and Cloud rat,HP3 0JD,51.719246776116100,-0.534003007566346
Linsang and Chipmunk,HP7 0EH,51.669591056420900,-0.622935868768256
Goose and Tahr,SL8 5QH,51.577748775344800,-0.710874092574290
Shearwater and Quetzal,UB9 5FN,51.586752000000000,-0.498180000000000
Wader and Black cockatoo,UB9 5DE,51.586245801960000,-0.511006212597228
Parakeet and Coati,WD3 6BW,51.686768084743700,-0.493475653512799
Tahr and Stilt,SL9 7HF,51.572711135008200,-0.564277396461795
Crow and Minke whale,HP13 6DT,51.629120365082500,-0.740828222689139
Triller and Macaw,HP15 6PY,51.663451694878100,-0.693970303358764
Rabbit and Cuscus,HP13 7QE,51.637391789669900,-0.722420519135805
Meadowlark and Skunk,HP9 1JH,51.613955251675500,-0.656019424492607
Myna and Rabbit,HP5 1WR,51.716203869907800,-0.608694000000000
Maya and Parrotbill,HP9 1ES,51.599682728862400,-0.660526871904393
Chipmunk and Zebra,HP3 9NY,51.739747665494000,-0.460140430074843
Argus and Chicken,HP9 1BA,51.600704615996000,-0.664193164803186
Vole and Stilt,HP15 7RL,51.648046323994500,-0.704299456950398
Puffleg and Peafowl,HP10 9PD,51.603757161264200,-0.703885332820515
Kite and Fish eagle,SL7 2NL,51.572277427089200,-0.780306187697012
Magpie and Civet,HP12 4AH,51.643665787949300,-0.792757541654349
Rat and Flameback,SL9 0AA,51.608593786451200,-0.553672157324762
Night heron and Coati,HP6 6UY,51.675794153819200,-0.587241465483977
Parrotbill and Goose,SL9 9YZ,51.606093000000000,-0.555701000000000
Logrunners and Towhee,SL9 8PR,51.590189607290700,-0.555674000000000
Ground sloth and Meadowlark,WD3 3QH,51.650879450307900,-0.443682501189415
Pratincole and Armadillo,HP3 8JN,51.736862872981500,-0.447276586267813
Meadowlark and Fish eagle,WD4 8DQ,51.717373287903600,-0.456514186255018
Ice seal and Dolphin,HP10 9PS,51.595490936235000,-0.704452669819729
Towhee and Towhee,SL9 7FE,51.575992675400000,-0.569946574800000
American sparrow and Macaw,HP3 8AX,51.731077776983700,-0.449067710731998
Perching duck and Kestrel,WD3 0GF,51.639480000000000,-0.474556753427907
Elephant and Asiatic leopard,HP5 1TP,51.684521448533300,-0.577986680304394
Pheasant and Kestrel,SL7 3RS,51.585424000000000,-0.742744000000000
Parakeet and Rat,SL9 0JR,51.616441927879800,-0.552064971302216
Vole and Kangaroo,HP16 9AU,51.708204060413500,-0.711945655492789
Fox and Puffleg,HP8 4LL,51.628175800396100,-0.585210225754530
Black cockatoo and Nukupuʻu,HP15 6EY,51.673550167176800,-0.730124096820506
Black jay and Meadowlark,HA6 2GY,51.618458025423900,-0.443289534278322
Darwin's finches and Duck,HP13 7YB,51.629732972119700,-0.712738752604639
Treepie and Mink,HP16 9PN,51.718824188541000,-0.736051191561203
Mink and Gull,HP9 1AW,51.608600627648600,-0.636694000000000
Black cockatoo and Songlark,WD3 0LY,51.639480000000000,-0.474556770438289
Minke whale and New World blackbird,HP1 1PX,51.745524621845800,-0.486655000000000
Ice seal and Marmoset,HP10 0NQ,51.600010000000000,-0.686998000000000
Warbler and Diving bird,HP12 4NE,51.625970321145100,-0.791031295099040
Fulmarine petrel and Grouse,WD4 9LG,51.715896267698200,-0.505015056620637
Chickadee and Pratincole,HP11 2SZ,51.631105693899200,-0.762648180388717
Prion and Parrotbill,SL9 9QX,51.609674000000000,-0.557349000000000
Nukupuʻu and Jackal,WD3 1AG,51.639285918338400,-0.470843484767839
Black jay and Polecat,HP8 4TG,51.655989000000000,-0.576292000000000
Minke whale and Rat,WD3 0PZ,51.639484000000000,-0.474602000000000
Scimitar babbler and Grackle,UB9 5NQ,51.580161093162600,-0.495718896382064
Quetzal and Peafowl,HP8 4BS,51.665943154136400,-0.563848352964240
Snipe and Viscacha,HP3 9PL,51.739390947855800,-0.465178283067603
Chipmunk and Old World quail,HP2 4FY,51.747393846452600,-0.472092083036034
Mole and Condor,HP10 0SU,51.597861351877500,-0.681529956641759
Parakeet and Asiatic leopard,WD3 5DE,51.640760399902000,-0.520667233389156
Goose and Marmoset,SL9 9RP,51.608116615561300,-0.558741807040641
Chicken and B,WD3 1JJ,51.634821000000000,-0.466254000000000
Stint and Eagle,HP5 1FL,51.716203869907800,-0.608694000000000
Zebra and Macaw,SL9 9RY,51.607451420717400,-0.560826000000000
Mamo and Black jay,HP2 5XQ,51.753315373698000,-0.469704606040601
Thicketbird and Lemming,HP3 9QP,51.740384723091000,-0.462783771711394
Tattler and Skunk,HP5 3RE,51.735385461233100,-0.585977884963835
Dolphin and Eagle,HP15 7SY,51.643545671589100,-0.707130343154876
Jerboa and Viscacha,SL8 5EL,51.571164035598100,-0.703282854503245
Fish eagle and Marsh harrier,WD3 6DL,51.682616914884900,-0.488116657188488
Gull and Recurvebill,HP13 6QW,51.634546986067400,-0.740417881196476
White ibis and Mouse,HP16 6AF,51.703951000000000,-0.707739000000000
Solitaire and Triller,WD3 5TE,51.658373000000000,-0.497005000000000
Jay and Ground sloth,HP15 6TD,51.667003817617100,-0.690773747113366
Siskin and Cuscus,HP12 4SG,51.615998310275800,-0.782312322900542
Linsang and Kestrel,WD3 4EJ,51.645058878272300,-0.475693464651306
Siskin and Kestrel,SL9 9QP,51.609981890013900,-0.555404410177726
Peafowl and Herring gull,WD3 1PZ,51.614612780420700,-0.450339580896564
Minke whale and Black jay,HP5 3NF,51.714156826580400,-0.593544622096806
Kākāriki and Buzzard,WD4 9LU,51.715144323402100,-0.509527269062142
Mamo and Vulture,HP9 2XX,51.618217503518100,-0.607417817944047
River dolphin and Pratincole,HP5 3BE,51.710136708747300,-0.600254887954345
Scimitar babbler and Mole,WD3 6BL,51.685325000000000,-0.493741000000000
Mink and Elephant,WD3 5GB,51.654518918515900,-0.501585299145272
Greenbul and Vulture,HP3 8JP,51.737107831410800,-0.448803352100236
Grosbeak and Linsang,HP3 0GG,51.726300000000000,-0.531552000000000
Hawaiian honeycreeper and Gull,WD3 5AB,51.651380981743400,-0.518412000000000
Hawaiian honeycreeper and Mink,HP15 6JA,51.672762857622300,-0.718894895176187
Jackal and Black jay,SL8 5AQ,51.576987441661800,-0.707056901451296
Elephant and Ground sloth,HP12 9FD,51.622164000000000,-0.770369000000000
Marmoset and Dorcopsis,HP11 1SF,51.618353195637400,-0.725454024628019
Chicken and Ice seal,HP10 9LB,51.595120655899300,-0.701864531886361
Coati and Solitaire,HP11 9SP,51.627426815191300,-0.748951126192552
Kangaroo and Ice seal,HP9 1UJ,51.610878988844700,-0.645755255514370
Armadillo and Logrunners,HP5 2PF,51.713889541991700,-0.618768358264644
Marsh harrier and Grosbeak,WD3 6AZ,51.683258292246400,-0.494648117450666
Pitohui and Vulture,HP3 9HN,51.744196746450900,-0.471707452444801
Chipmunk and Petrel,UB9 6QA,51.603679950275200,-0.477252733872620
Parrotbill and Mink,HP5 1AN,51.709806238005100,-0.605736145826801
Bronzewing pigeon and Hawk,HP15 7DF,51.661234073427900,-0.707277653952528
B and Hawk,SL9 7DJ,51.582027365790300,-0.557719858009931
Jay and Thicketbird,WD3 1QF,51.639755591966600,-0.471694781327769
Maya and Wallaby,HP12 3UT,51.629396589061000,-0.779107000000000
Philippine hawk-owl and Diving bird,SL9 0RP,51.626224000000000,-0.549702000000000
Tree warbler and Stilt,HP3 9QZ,51.736320687638500,-0.465426000000000
Diving bird and Myna,HP12 3HF,51.628936321016400,-0.770985738641252
Magpie and Badger,HP5 2NN,51.711693000000000,-0.613871000000000
Cloud rat and Darwin's finches,HP11 2FZ,51.628664000000000,-0.754922000000000
Perching duck and Grouse,HP7 9HL,51.664796129298100,-0.597661723426028
Dorcopsis and Polecat,HP15 7AH,51.659931972280000,-0.716451936575119
American sparrow and Parakeet,SL9 0HZ,51.619676332232800,-0.553305430219909
Vulture and Tit-tyrant,HP13 6RZ,51.630375568567600,-0.750589355871804
Chicken and Grouse,SL9 8TU,51.610482600068800,-0.578004888362392
Old World quail and Herring gull,HP3 0QB,51.701669539497600,-0.532704342287896
Marmoset and Peafowl,WD3 8YQ,51.634437792319600,-0.500715435565148
Greenbul and Recurvebill,HP3 9SP,51.736105590583900,-0.467679166079926
Logrunners and Black cockatoo,HP9 2SX,51.614441000000000,-0.594477000000000
Linsang and Chipmunk,HP5 3PJ,51.735912132802200,-0.587902044365814
Quetzal and Night heron,SL8 5PX,51.583951871735000,-0.717323558393300
Petrel and Shearwater,WD3 5PG,51.647704095541300,-0.525109887968769
Linsang and Warbler,HP5 1LD,51.702865850079800,-0.612678714125712
Thicketbird and Linsang,HP15 7RP,51.648329535363100,-0.705519970678630
Pratincole and River dolphin,UB9 5JJ,51.582283000000000,-0.505478000000000
Parakeet and White ibis,HP11 1RL,51.618243532858800,-0.718682682050183
Mockingbird and Nukupuʻu,WD3 3LE,51.653702009293000,-0.449050214508995
Masked owl and Flameback,SL7 3SB,51.579179000000000,-0.740636000000000
Ice seal and Linsang,HP10 0EX,51.587955412322700,-0.685815146035990
Masked owl and Peafowl,HP3 9EY,51.746420023098200,-0.464983535187328
Badger and Badger,HP12 4AB,51.639710091708000,-0.779913000000000
Tree warbler and Bronzewing pigeon,HP7 9QS,51.666224659117400,-0.565545715070391
Lemming and Black cockatoo,HP12 3QP,51.620582087403800,-0.773479286801023
Mamo and Bunting,HP6 5PN,51.690174000000000,-0.612081817303663
Grackle and Kangaroo,HP12 3PQ,51.626925249496100,-0.767847269634562
Parrotlet and Black jay,UB9 6BP,51.605140693588400,-0.488871000000000
Partridge and Grosbeak,SL9 9BA,51.601185000000000,-0.558774000000000
Bronzewing pigeon and Macaw,HP3 9DZ,51.743393000000000,-0.466506000000000
Kangaroo and Badger,HP8 4BW,51.663958841700100,-0.564084599672424
Fulmarine petrel and Grouse,HP11 2UB,51.624296314651900,-0.763252335409548
Buzzard and Scimitar babbler,HP16 0NS,51.697667523838000,-0.740301456847800
Thicketbird and Duck,HP3 8PG,51.749169015180700,-0.444276055647991
Recurvebill and Mole,HP12 4LY,51.627235447572700,-0.788151583050573
Jerboa and Puffleg,HP6 6ED,51.681273749347500,-0.598801744289902
Cloud rat and Dorcopsis,HP15 6HT,51.674508156345800,-0.730574562322275
Kite and Macaw,HP4 2NW,51.752888907079500,-0.554645367402111
Kestrel and Herring gull,WD3 9XN,51.613578221642900,-0.515008287361256
Fox and Wallaby,WD3 5HN,51.646209417172500,-0.524233362119125
Stilt and Fox,HP6 5BQ,51.674685000000000,-0.607960700352430
Eagle and Mole,HP13 5RT,51.639043613846200,-0.766753008078059
Thrasher and Elephant,HP11 9JZ,51.627752035800000,-0.748017654800000
Piping shrike and Snipe,SL7 1DA,51.571988045792400,-0.776692091872914
Rat and Condor,HP16 0RF,51.697125000000000,-0.678474000000000
Flameback and Pratincole,WD4 8DA,51.717679321749700,-0.452435888542835
Argus and Kestrel,WD3 6DB,51.675917554220100,-0.506360699730109
Tit-tyrant and Moluccan boobook,WD3 1DQ,51.637318283802800,-0.468207363093210
American sparrow and Old World warbler,HP9 2BE,51.620341001263200,-0.645199177784785
Treepie and Jerboa,HP12 4BD,51.639602836756400,-0.783298801775181
Chickadee and Night heron,SL9 8GX,51.587107306499300,-0.554022507297402
Argus and Parakeet,HP3 0LF,51.714664000000000,-0.535599000000000
Treepie and Peafowl,SL9 8JW,51.596842694579900,-0.553785562722750
Cloud rat and Linsang,HP5 2SJ,51.721543004507300,-0.641264705613183
B and Parrotlet,HP8 4AS,51.630743358199900,-0.554600550402922
Thrasher and Francolin,HP15 6AU,51.666021929500600,-0.719157317019220
Snipe and Chickadee,WD3 3UP,51.639480000000000,-0.474556753427907
Crow and Triller,HP11 2DX,51.632741481843600,-0.756621815765399
Bronzewing pigeon and Philippine hawk-owl,WD3 4DA,51.644282444379000,-0.493568944773655
Dolphin and Songlark,HP10 8BJ,51.642075279344900,-0.701810474863307
