name,postcode,lat,lon
Hawaiian honeycreeper and Civet,KA4 8JJ,55.600844542494600,-4.375266431933010
Marsh harrier and River dolphin,KA16 9ED,55.607836832831900,-4.324181329033790
Peafowl and Jay,KA3 6JA,55.656680385719600,-4.407423285398520
B and Night heron,KA3 6JW,55.663085000000000,-4.409875346642350
Moluccan boobook and Peafowl,KA16 9AS,55.606360965220700,-4.326173917038230
Grackle and Towhee,KA16 9DP,55.608069149650300,-4.319002000000000
Booted eagles and Zebra,KA17 0DJ,55.612135809335400,-4.287722410702890
Snipe and Skunk,ML10 6HW,55.676628000000000,-4.081042474442070
Philippine hawk-owl and Gull,KA4 8JS,55.599101391271800,-4.373383107756400
Dolphin and Night heron,KA4 8BT,55.598260913803200,-4.392111486599970
Old World quail and B,KA17 0HN,55.610537737815800,-4.277975055691720
Wallaby and Rabbit,KA16 9HJ,55.606287337575400,-4.332885612202090
Jay and Civet,KA4 8JL,55.600474860211200,-4.374863080856820
Capuchin and Pitohui,KA16 9DX,55.608467754651400,-4.318867760573000
Stilt and Marsh harrier,KA17 0NT,55.613791213429300,-4.271937000000000
Shearwater and Grouse,ML10 6XX,55.676899000000000,-4.084482000000000
Zebra and Francolin,KA16 9DW,55.608563368895900,-4.321304000000000
Booted eagles and Kākāriki,ML10 6HX,55.675914780540800,-4.083282484968670
Jerboa and Buzzard,KA16 9EF,55.607907262027000,-4.326154348274550
Solitaire and Wader,KA4 8NQ,55.571762308150900,-4.378808163609970
Capuchin and Chipmunk,KA4 8ER,55.600837461788100,-4.384425996268140
Black jay and Chicken,ML10 6GX,55.636649377700000,-4.083136320800000
Armadillo and B,KA17 0BA,55.612008385138000,-4.278155634273380
Kestrel and Nukupuʻu,KA17 0JR,55.610497632279500,-4.280132232525210
Old World warbler and Scimitar babbler,KA16 9DT,55.609442526454700,-4.317226319485900
Treepie and Solitaire,KA17 0HF,55.608881677471300,-4.289676409189940
Goose and Tit-tyrant,KA4 8BL,55.599760431308600,-4.390345430848400
Scimitar babbler and Viscacha,KA16 9LQ,55.615569000000000,-4.354241000000000
Viscacha and Vole,KA4 8AQ,55.600256519064600,-4.381945991087220
Francolin and Civet,KA4 8HX,55.597475109991600,-4.379380425324800
Pheasant and Night heron,KA17 0LL,55.609629664489600,-4.298214962266390
Black jay and Booted eagles,ML10 6QL,55.630919197455800,-4.186299726677330
Gull and Wallaby,KA4 8PU,55.633928038590200,-4.405312152676580
Asiatic leopard and Grosbeak,KA4 8DJ,55.597002000000000,-4.384796000000000
Black cockatoo and River dolphin,KA1 5JY,55.571559610333900,-4.410332423213880
Eagle and Marmoset,KA17 0EN,55.606931355089400,-4.293039851121260
Egret and Ground sloth,KA17 0NQ,55.620485094297200,-4.281474616466390
Ibex and Magpie,KA16 9AT,55.607213836536300,-4.323382343092000
Partridge and Meadowlark,KA17 0EJ,55.605388000000000,-4.292457000000000
Linsang and Capuchin,KA17 0ET,55.607372369400900,-4.296368115953810
Old World vulture and Grosbeak,KA16 9DN,55.608400157029300,-4.322802000000000
Mamo and Mink,KA16 9EY,55.606807120682100,-4.319230168064610
New World blackbird and Gull,KA17 0DD,55.609168418853900,-4.282976650698370
Boto and Mink,KA17 0HW,55.610699484631000,-4.271680568188720
Chicken and Siskin,KA16 9LB,55.609847000000000,-4.306770000000000
Chicken and Kestrel,KA17 0EL,55.606552469609000,-4.291191860378530
Parrotlet and Tahr,KA4 8ND,55.579072259139700,-4.342281837131050
Viscacha and Kite,ML10 6XP,55.673385000000000,-4.083404000000000
Partridge and Viscacha,KA4 8LN,55.595567042289200,-4.377661708081470
Moluccan boobook and Egret,ML10 6HQ,55.674811439987700,-4.078389006250180
Tahr and Mole,KA17 0LP,55.609868614756200,-4.259739596551130
Guillemot and Logrunners,KA16 9HX,55.606200991353100,-4.344947158277020
Bronzewing pigeon and Logrunners,KA17 0AL,55.611949000000000,-4.282447289582200
Stilt and Night heron,KA5 6HB,55.528890623602000,-4.359675299189270
Rabbit and Minke whale,KA5 6EY,55.532661039496300,-4.383118004886460
B and Masked owl,ML10 6RN,55.688113000000000,-4.089535871420510
