name,postcode,lat,lon
Siskin and Wallaby,CH45 3JX,53.426865703535900,-3.065931025045960
Logrunners and Herring gull,CH49 4SE,53.394895000000000,-3.105163000000000
Greenbul and New World blackbird,CH31 9AS,53.329736753735100,-3.098884753755990
Buzzard and Capuchin,CH46 0ST,53.399582209326800,-3.113408166477450
Night heron and Gull,CH60 7TE,53.334880357829800,-3.099662754271320
Old World vulture and Elephant,CH48 5EA,53.376106368314600,-3.178561449278140
Puffleg and Pheasant,CH49 0XE,53.382943907152000,-3.097834127902740
Masked owl and Snipe,CH43 7FD,53.391382758503200,-3.071329707103580
Guillemot and Grosbeak,CH43 9JJ,53.378146000000000,-3.072020000000000
Mockingbird and Parrotbill,CH61 4UT,53.356153000000000,-3.114815000000000
Grouse and Meadowlark,CH43 7TT,53.396917464772500,-3.083560454543620
Tit-tyrant and Lemming,CH61 9PF,53.347821038438600,-3.095173719174250
Marmoset and Darwin's finches,CH48 1PX,53.365165925549700,-3.153402000000000
Triller and Vulture,CH47 3DL,53.393961130426200,-3.173162000000000
Grackle and Parrotlet,CH48 6EA,53.373100513855900,-3.167024685468830
Minke whale and Stilt,CH45 3NB,53.420259392130300,-3.059806873068790
Stint and Skunk,CH47 7BW,53.402034714670800,-3.153331705630780
Boto and Lemming,CH48 4HB,53.372492193316700,-3.184970062125610
Night heron and Booted eagles,CH48 6EX,53.375713093112300,-3.157205017029080
Greenbul and Black jay,CH61 6UZ,53.338461162566500,-3.107099132810590
Parakeet and Thicketbird,CH47 5BH,53.396298666156700,-3.174637705177250
Snipe and Magpie,CH60 9HT,53.329588958606200,-3.116015000000000
Herring gull and Francolin,CH46 3RJ,53.415384140453300,-3.111564090178900
Skunk and Fox,CH45 0NE,53.432630103522400,-3.058835000000000
Puffleg and Gull,CH49 7LF,53.373732450428900,-3.080837293190550
Pitohui and Minke whale,CH61 4UB,53.353117860489000,-3.118191157008640
Armadillo and Fulmarine petrel,CH46 2QG,53.416008366099300,-3.094593207809010
Cuscus and Rat,CH45 8NE,53.427357175956300,-3.074281115400940
Kangaroo and Logrunners,CH48 6DA,53.377644568863400,-3.172064670308120
Vole and Armadillo,CH43 0UE,53.371224166554600,-3.061850541540880
Black jay and Warbler,CH61 1AP,53.347235853249800,-3.079611000000000
B and Snipe,CH49 3PZ,53.370122186150700,-3.124257799829050
Magpie and Thicketbird,CH46 6EG,53.397127385746200,-3.127857253041760
Tree warbler and Tahr,CH60 8QH,53.319533309023400,-3.098967824232800
Magpie and Wallaby,CH46 6EY,53.397744687355000,-3.130069390913440
Herring gull and Marmoset,CH49 4ND,53.391177000000000,-3.107698000000000
Chickadee and Asiatic leopard,CH48 6EW,53.374648186097800,-3.164105758555700
Masked owl and Myna,CH46 8SG,53.406509080227800,-3.111874195166050
Condor and White ibis,CH60 9JR,53.325842228030500,-3.109925000000000
Songlark and Rabbit,CH43 7UA,53.397261971317500,-3.083238338188210
Parrotlet and Marsh harrier,CH48 2HS,53.364862946303900,-3.171969223694790
Snipe and Shearwater,CH45 3PZ,53.432939954876800,-3.074211209229330
Wader and Warbler,CH41 0DG,53.397036019380400,-3.063380501279760
Solitaire and Songlark,CH46 7SZ,53.405315436558400,-3.130811601414010
Skunk and Flameback,CH60 4RY,53.322213591773900,-3.105612482787770
Tahr and Thicketbird,CH46 4TH,53.412396856668500,-3.117654604077290
Fox and Pheasant,CH60 9LF,53.321447686646600,-3.106778700275690
Ice seal and Prion,CH60 8PD,53.321375637845900,-3.097063497286900
Grouse and Argus,CH61 1AW,53.347414778675000,-3.079585474953160
Stilt and Booted eagles,CH46 0TQ,53.393293099854600,-3.114988405171210
Civet and Ice seal,CH60 8NB,53.322880909086800,-3.088769679149510
Pratincole and Grackle,CH47 4AL,53.387360313118100,-3.184962021000140
Fulmarine petrel and Boto,CH41 7DF,53.404942134948700,-3.067879784112270
Hawaiian honeycreeper and Skunk,CH46 3SX,53.415483867360600,-3.108572531563680
Marsh harrier and Scimitar babbler,CH61 3XB,53.355777524997700,-3.094070570362840
Grackle and Scimitar babbler,CH41 8JN,53.402016927876800,-3.058210223388340
Darwin's finches and Mamo,CH49 4RB,53.388573411522100,-3.117917452204820
Gull and Triller,CH46 2RP,53.418856587735200,-3.087849996807690
Mouse and Eagle,CH48 5JG,53.374329536007800,-3.185517119601110
Minke whale and Duck,CH60 1XT,53.325778000000000,-3.075766000000000
Tattler and Armadillo,CH44 2DS,53.419336237683600,-3.063545741071980
Prion and Jackal,CH61 3UY,53.357227831844100,-3.092755433054940
Treepie and Fulmarine petrel,CH45 6UB,53.422947702626200,-3.059738310690100
Prion and Rabbit,CH61 7UA,53.355943056169000,-3.091700857467330
Jerboa and Wallaby,CH49 0WJ,53.379024000000000,-3.100799000000000
Polecat and American sparrow,CH47 8XN,53.401003687743800,-3.153980660249350
Polecat and American sparrow,CH47 2BN,53.394731981691300,-3.175812695834190
Buzzard and Badger,CH60 7RZ,53.335621996551100,-3.099171228282080
Stint and Parrotbill,CH48 2HR,53.365216977948100,-3.170701528169700
Goose and Old World quail,CH44 2DZ,53.418671000000000,-3.061618000000000
Bunting and Buzzard,CH60 0AE,53.326541206826400,-3.095319000000000
Towhee and Mole,CH47 5BJ,53.395950520852200,-3.174102165701740
Condor and Stint,CH49 6JA,53.386365589317200,-3.092298816527560
Old World quail and Chickadee,CH61 8AB,53.329754000000000,-3.098884000000000
Philippine hawk-owl and Zebra,CH49 5LY,53.372174444917300,-3.093979786475690
New World blackbird and Mamo,CH47 6AZ,53.402745576532000,-3.157953000000000
Badger and Armadillo,CH46 1QB,53.414800621468500,-3.085098403540670
Condor and Chickadee,CH44 2EB,53.420040665416100,-3.061155713523460
Thrasher and Crow,CH46 9RG,53.398082000000000,-3.098957493563500
Fox and Rat,CH60 4TG,53.326992534234200,-3.099159557949050
Tattler and Egret,CH46 6DT,53.401417456308700,-3.133310324869300
Tahr and Thrasher,CH49 0TB,53.384779802988500,-3.088770054553830
Guillemot and Old World warbler,CH46 1QP,53.408213011853600,-3.099688310587930
Ice seal and Kangaroo,CH61 8SQ,53.344364646789700,-3.110256293481000
Minke whale and Fish eagle,CH60 6SQ,53.330755000000000,-3.107515000000000
Wallaby and Old World vulture,CH43 9TB,53.384100224119400,-3.059404569740880
Chickadee and Parrotlet,CH46 6AQ,53.401824571509800,-3.115858277444640
Rabbit and Magpie,CH43 3HA,53.367439168031700,-3.062928654799400
Warbler and Crow,CH48 6DB,53.377388086235400,-3.171636710492620
Night heron and Pheasant,CH47 6AR,53.401350171893900,-3.156261245643720
Capuchin and Viscacha,CH61 1DD,53.346499617129900,-3.081379972216280
River dolphin and Parrotbill,CH48 2HJ,53.365438845240000,-3.169159678959890
Shearwater and Triller,CH60 2TW,53.328137198429400,-3.087056667116610
Argus and Marsh harrier,CH61 7UL,53.351949206219100,-3.093957484543980
Herring gull and Parrotlet,CH48 7HR,53.367440673855500,-3.171273502110570
Vulture and Night heron,CH48 2JP,53.356464730948200,-3.161175945467860
Zebra and Puffleg,CH48 5EU,53.376005257299200,-3.182421936146280
Prion and Dorcopsis,CH47 7BL,53.402388117521300,-3.152107865014580
Grackle and Thrasher,CH49 6QD,53.382606640286000,-3.101268331503990
Darwin's finches and Jerboa,CH41 7EJ,53.407274769923200,-3.070632000000000
Towhee and Tahr,CH8 9SX,53.329395235288800,-3.295644105130000
Kākāriki and Fulmarine petrel,CH60 8PH,53.319887781240500,-3.101468985935660
Bunting and Bronzewing pigeon,CH60 1XL,53.324892370225000,-3.075128046948330
Guillemot and Mink,CH46 2QB,53.415767076677300,-3.090509515691150
Ice seal and Songlark,CH61 8RJ,53.347971492981500,-3.096409398537660
Fish eagle and Cuscus,CH49 6JE,53.387412500464000,-3.089874739224330
Polecat and White ibis,CH60 3RP,53.320316000000000,-3.083266642371990
Armadillo and Philippine hawk-owl,CH45 8RH,53.418964507510000,-3.074942239829470
Vole and Snipe,CH61 3XW,53.354763865438800,-3.097755682378640
Bunting and Old World warbler,CH49 8HX,53.374736000000000,-3.088243000000000
Pheasant and Parakeet,CH46 0RW,53.397681213932100,-3.120592653301290
Peafowl and Goose,CH49 0TL,53.384288765398400,-3.097237264240510
White ibis and Pitohui,CH45 8LN,53.420740711058300,-3.076341357944860
Tattler and Darwin's finches,CH61 1BS,53.349828079033500,-3.083086699621830
Ground sloth and Thicketbird,CH46 8UJ,53.406912081650000,-3.101369650293510
Siskin and Macaw,CH48 7EP,53.370043710015100,-3.172442000000000
B and Jackal,CH60 7SS,53.333899120499600,-3.098841592663090
Old World vulture and Badger,CH8 9UF,53.330539800492200,-3.300573701617300
Capuchin and Recurvebill,CH45 8LU,53.423123380765200,-3.074279691457100
Condor and Vole,CH49 3NB,53.377651579164900,-3.116007778587600
Old World vulture and Badger,CH60 3SJ,53.319218000000000,-3.084443000000000
Pratincole and Skunk,CH60 0AG,53.325808005231100,-3.092087335002370
Wader and Nukupuʻu,CH48 1NF,53.365581980305600,-3.143254452001860
Wader and Meadowlark,CH60 4SX,53.326631545891900,-3.109990916896700
Shearwater and Parrotbill,CH46 0SZ,53.396816780009600,-3.113065250179870
Grackle and Kite,CH47 6BQ,53.401723759772400,-3.163145227700500
Tree warbler and Tattler,CH48 2JZ,53.364893000000000,-3.172631000000000
Goose and Quetzal,CH61 3XG,53.354084417335900,-3.095394416460240
Siskin and Old World quail,CH46 9RB,53.397453355277000,-3.098688910117800
Myna and Prion,CH47 5AN,53.400736422235000,-3.168517979314500
Perching duck and Herring gull,CH46 3SD,53.414779992438100,-3.106929277194820
Snipe and Diving bird,CH49 0WN,53.378407000000000,-3.102421000000000
Scimitar babbler and Linsang,CH49 4PA,53.391899000000000,-3.100636000000000
Solitaire and Ibex,CH49 7LQ,53.372388794114500,-3.086259446150260
American sparrow and Dorcopsis,CH48 3HS,53.366788638951400,-3.181790915645700
Philippine hawk-owl and Snipe,CH60 9LA,53.326936865897700,-3.120599334751390
Civet and Recurvebill,CH45 3HT,53.428322514684200,-3.066870511917310
Chickadee and Tahr,CH61 6XZ,53.341128570324300,-3.103473363314810
Logrunners and Buzzard,CH43 9XE,53.390735000000000,-3.084330898631380
White ibis and Herring gull,CH43 7PW,53.389848275281500,-3.071035537770700
Night heron and Siskin,CH44 2BR,53.421747803040400,-3.058203647406070
Cuscus and Elephant,CH61 3UD,53.355069450855700,-3.109422727569990
Chicken and Mockingbird,CH61 3UJ,53.353630414623800,-3.117212975815320
Dorcopsis and B,CH49 4PF,53.393584932108800,-3.100980338621280
Ibex and Piping shrike,CH43 9JW,53.378825771360100,-3.064219483698290
Viscacha and Fish eagle,CH47 3EP,53.395829649264700,-3.172970475145040
Flameback and Piping shrike,CH46 3RN,53.415237364342300,-3.102186642213720
Ice seal and Linsang,CH43 2LT,53.376083775713700,-3.059056000000000
Stint and Kangaroo,CH49 3AP,53.378462697997000,-3.131061985960920
Stint and Night heron,CH45 3JQ,53.429305406606300,-3.060468420887760
Logrunners and Grackle,CH49 2PL,53.380643000000000,-3.116296000000000
Fulmarine petrel and Stilt,CH49 3NL,53.375039729714200,-3.127062998828890
Kestrel and Thrasher,CH60 4RA,53.327584837676100,-3.100240855904740
Rat and Dolphin,CH43 9XY,53.393906441855800,-3.083065000000000
White ibis and River dolphin,CH47 6AS,53.402724598133700,-3.161909037637830
Francolin and Egret,CH61 3XE,53.355837000000000,-3.096578456327640
Bronzewing pigeon and Mole,CH41 0DH,53.394682234625800,-3.059186188738950
Crow and Hawk,CH8 9TW,53.329015021050200,-3.294475913174620
Vulture and Parrotlet,CH46 2PQ,53.415460844943100,-3.088605884147000
Ice seal and Petrel,CH43 9TQ,53.383878616491500,-3.063097630713490
Parrotlet and Prion,CH43 3AP,53.369577914215400,-3.069038913786430
Minke whale and Viscacha,CH45 8JL,53.424293249224400,-3.073135363630490
Minke whale and Jay,CH43 9XU,53.393381741377000,-3.084884211651670
Old World quail and Siskin,CH60 2SG,53.328663000000000,-3.084728000000000
Old World vulture and Booted eagles,CH48 1PN,53.385867000000000,-3.140911000000000
Vole and Songlark,CH61 6UW,53.334743675567400,-3.093997611840320
Triller and Armadillo,CH45 8PH,53.422057453444400,-3.073861557572070
Francolin and Marsh harrier,CH61 8RX,53.350144863728200,-3.103450874124390
Wallaby and Towhee,CH46 7UA,53.406697628563100,-3.118633391536990
Masked owl and Kākāriki,CH43 6US,53.386194415236900,-3.061456314181170
Pratincole and Jerboa,CH60 4RG,53.326156318556600,-3.100159049654700
Triller and Old World warbler,CH48 1LB,53.365652109352300,-3.162973757983570
Chipmunk and Nukupuʻu,CH60 8QB,53.319149340683000,-3.100639312458020
Skunk and Flameback,CH61 4YN,53.359117776254000,-3.113900516817570
B and Chipmunk,CH46 6AF,53.400151056078000,-3.114942000000000
Jerboa and Marmoset,CH49 8HZ,53.374670763571600,-3.091323052695890
American sparrow and Prion,CH61 4YQ,53.358927785137200,-3.116915807901960
Mouse and Badger,CH43 7XR,53.389535969967600,-3.071779536952400
Fox and Boto,CH60 7SF,53.330989123358200,-3.104412900758610
Crow and Viscacha,CH46 0SL,53.400250190979200,-3.114072357847390
Kangaroo and Puffleg,CH47 3BU,53.393557878427200,-3.174547177363890
Ibex and Condor,CH44 2BZ,53.421276886181900,-3.065670809984470
Pheasant and Rabbit,CH45 8PE,53.421616763923000,-3.066868113793780
American sparrow and Parakeet,CH60 9LQ,53.330324325297800,-3.117880131640210
Badger and Bronzewing pigeon,CH46 3RG,53.415528170375000,-3.100870112820740
Hawaiian honeycreeper and Towhee,CH48 3JE,53.363676476209100,-3.174701781750500
Marmoset and Dorcopsis,CH47 0LW,53.397678000000000,-3.162403000000000
Cloud rat and Mockingbird,CH60 2SQ,53.328703882163500,-3.084052974097970
Rat and Buzzard,CH49 6PA,53.385181578594900,-3.108596866629030
Dolphin and Flameback,CH47 9SE,53.393356575001700,-3.152781208159030
Vulture and Darwin's finches,CH60 1UB,53.332172033392200,-3.078284436206710
Masked owl and Songlark,CH61 6UQ,53.339768313785300,-3.096964899340150
Dorcopsis and Tahr,CH60 5SS,53.330751406066500,-3.095096729484730
Nukupuʻu and Cloud rat,CH61 9NR,53.344821513961100,-3.092903747051260
Mockingbird and Recurvebill,CH47 9SG,53.394394265571000,-3.149575947731480
Polecat and Fish eagle,CH43 9YX,53.391008911617400,-3.084853931227750
Buzzard and Grosbeak,CH48 9UX,53.373477797103900,-3.155040028614720
Darwin's finches and Songlark,CH43 9YU,53.382286689987300,-3.075235717353410
Shearwater and Prion,CH46 7SP,53.405321758559000,-3.127291830818840
Black jay and Solitaire,CH47 7BY,53.403048941563500,-3.150696760947900
Tattler and Parakeet,CH48 9XT,53.372991415265000,-3.150487470355680
Herring gull and Viscacha,CH46 6JE,53.398871627688800,-3.132565850189960
Macaw and Herring gull,CH48 1LJ,53.360825000000000,-3.149138000000000
Recurvebill and Badger,CH43 9YT,53.382044000000000,-3.075335000000000
Pitohui and Parrotlet,CH61 1BZ,53.346258464432400,-3.082200056183560
Logrunners and Crow,CH61 7UW,53.354012907535400,-3.094370926908360
Pheasant and River dolphin,CH61 7UH,53.351040311085100,-3.095045931055720
Armadillo and Jay,CH46 0TH,53.394203019900800,-3.114771577886460
Petrel and Lemming,CH61 8TB,53.348267000000000,-3.105400000000000
Dolphin and Mink,CH60 2UE,53.325520165039700,-3.082245602099700
Triller and Parrotlet,CH46 8TZ,53.405788000000000,-3.103431000000000
Thicketbird and Triller,CH49 5NT,53.370645936223200,-3.092933000000000
Grackle and New World blackbird,CH49 0UX,53.383934060297200,-3.093891000000000
New World blackbird and Viscacha,CH48 3HU,53.365281784834000,-3.180546927940910
Parrotlet and Mouse,CH47 9SL,53.396728349084900,-3.148962092649520
Chicken and Kite,CH46 9AF,53.401346000000000,-3.096696000000000
Magpie and Parrotlet,CH47 9RJ,53.395836771220200,-3.152518000000000
Thrasher and Eagle,CH49 4PQ,53.393796502337300,-3.099481964029420
Mockingbird and Thicketbird,CH61 8SY,53.346911278340500,-3.107062729951840
Old World warbler and Quetzal,CH44 2DP,53.419815903138300,-3.065197891022370
American sparrow and Perching duck,CH48 1LF,53.365077922837300,-3.161936189665100
Parakeet and Badger,CH61 6XQ,53.341326589777600,-3.109261139276730
Booted eagles and Warbler,CH45 8QW,53.419344668168700,-3.082610930656100
Linsang and Kākāriki,CH49 0WB,53.383651662214300,-3.098092896490800
Hawaiian honeycreeper and Peafowl,CH61 0HL,53.348985970399900,-3.134052045680810
Moluccan boobook and Kangaroo,CH49 6NW,53.386729821126800,-3.111268381279880
Philippine hawk-owl and Condor,CH46 8ST,53.405739279502600,-3.105716740651950
Snipe and Viscacha,CH48 5JA,53.378287128160900,-3.174367336401800
Viscacha and Pratincole,CH60 0AS,53.326777000000000,-3.096030000000000
Jay and Greenbul,CH47 0LB,53.398666383397900,-3.167859643698060
Polecat and Pratincole,CH61 8SR,53.344724583053900,-3.111181934163580
Macaw and Peafowl,CH47 5AR,53.400391391340800,-3.170704479306630
Piping shrike and Kākāriki,CH47 5AH,53.399630912675200,-3.168502723067300
Gull and Minke whale,CH48 4DS,53.369973704546600,-3.182405149807850
Badger and Snipe,CH45 3LL,53.426347647305900,-3.067573539847940
Magpie and Parrotbill,CH43 0XB,53.374459267458400,-3.066996645714990
Mole and Moluccan boobook,CH46 7AA,53.402686000000000,-3.113141000000000
Black cockatoo and Piping shrike,CH47 0LG,53.398477916098100,-3.165989507657560
Parrotbill and Skunk,CH60 8QE,53.320217290848000,-3.098880314561200
Mamo and Vole,CH60 6SD,53.331558000000000,-3.106199000000000
Macaw and Kite,CH46 6DW,53.399319682654600,-3.119372324387890
Vulture and Siskin,CH45 8LQ,53.425163835662300,-3.072284430053280
Rabbit and Warbler,CH49 2RQ,53.384114799906000,-3.117920897753220
Kestrel and Cloud rat,CH43 9SS,53.383078675408200,-3.076127680835580
Triller and Parakeet,CH60 5SB,53.329744141182800,-3.086301692733990
Ibex and Eagle,CH46 2QZ,53.417716822233700,-3.090604554119400
Thrasher and Prion,CH48 2JW,53.357175677864400,-3.165010000000000
Pheasant and Goose,CH48 0RA,53.369971817670100,-3.183502294401670
Partridge and Parrotbill,CH41 0DR,53.397531600266400,-3.061227153448310
Thrasher and Myna,CH46 9SN,53.403658329702600,-3.096457160440850
Buzzard and Egret,CH61 6XW,53.343903553131300,-3.111506060044270
Tahr and Fox,CH49 6NN,53.386380172309000,-3.111051000000000
Armadillo and Recurvebill,CH49 0XT,53.382079443521500,-3.094083395960990
Kestrel and Dorcopsis,CH46 1RN,53.415757867006800,-3.098378392259650
Vulture and Argus,CH43 6TJ,53.390521639304200,-3.059037756057690
Marsh harrier and Rat,CH49 0UH,53.382847648402400,-3.100477723585450
Elephant and Armadillo,CH61 8TE,53.347100043865800,-3.104153367101770
Quetzal and Rat,CH49 0TE,53.384463097590200,-3.095873556636250
Fulmarine petrel and B,CH60 3RF,53.318622464909900,-3.087520355161310
Grouse and Booted eagles,CH60 9HL,53.331859495011800,-3.122875756433070
Moluccan boobook and Ground sloth,CH47 2DW,53.393969722378200,-3.178363270327020
Herring gull and Ground sloth,CH41 7BL,53.403896544369200,-3.061144917076700
American sparrow and Asiatic leopard,CH47 2DD,53.395409596809400,-3.179109891520670
Philippine hawk-owl and Bunting,CH45 8JA,53.426962776187000,-3.073157466275990
Macaw and Fox,CH46 2QR,53.416422252762400,-3.092587630135890
Elephant and Bronzewing pigeon,CH49 5LR,53.373616765746300,-3.093535756581950
Macaw and Rabbit,CH46 1RH,53.412432385021900,-3.101256538424310
Meadowlark and Flameback,CH49 1QZ,53.375469794237500,-3.104270000000000
Vulture and Partridge,CH47 3AJ,53.397425726751300,-3.178849804289920
Logrunners and Parrotbill,CH48 9XX,53.370454204374800,-3.160130000000000
Greenbul and Cuscus,CH60 5TY,53.330576337210300,-3.087704321764600
Darwin's finches and Francolin,CH49 7NR,53.375967199468800,-3.079240365508180
B and Puffleg,CH48 5EZ,53.376435610283000,-3.178901253995540
Pratincole and Tahr,CH43 9TG,53.384636016736600,-3.060681000000000
White ibis and Wallaby,CH43 3HG,53.364242616338300,-3.065554092777410
Buzzard and Treepie,CH60 5RJ,53.328198095021900,-3.094160436758720
Mole and Mole,CH46 3RR,53.414707617466800,-3.100171857215640
Scimitar babbler and Tattler,CH43 7ZH,53.401230006384200,-3.080827309047870
Lemming and Mamo,CH61 9NQ,53.345279203201400,-3.093966944136840
Greenbul and Old World vulture,CH48 1QT,53.352399711299200,-3.160449452532030
Gull and Pitohui,CH43 7QU,53.399588202758300,-3.077491849225170
Mamo and Jackal,CH43 3DT,53.366186000000000,-3.066421299000240
Booted eagles and Ibex,CH43 7NU,53.399289333724000,-3.062699723562250
Fulmarine petrel and Armadillo,CH43 7ZA,53.399314249468700,-3.077966215313410
Pitohui and Argus,CH60 5SJ,53.332952878739900,-3.093230963005830
Eagle and Grackle,CH43 9TJ,53.383183267147200,-3.063456168444100
Parakeet and Mole,CH29 9FR,53.390175000000000,-3.179430000000000
Booted eagles and Maya,CH48 8AN,53.370283420703400,-3.168300379020850
Partridge and Grackle,CH61 6XX,53.341647286705600,-3.106671001676100
Fox and Skunk,CH60 0EE,53.325220870974700,-3.093378575338110
Francolin and Parrotlet,CH45 8QB,53.421363632384100,-3.071045132088150
Myna and Songlark,CH61 1BG,53.352840465446900,-3.084950932391340
Gull and Goose,CH47 3AP,53.396649380175700,-3.178271881527720
Linsang and Marmoset,CH48 4DQ,53.370912725561200,-3.181078423979470
Crow and Polecat,CH45 3JE,53.430416902563800,-3.063852521228450
Duck and Old World quail,CH43 0TR,53.370892639081400,-3.059708000276340
Chicken and Eagle,CH43 7AB,53.393036589594700,-3.062965384412110
Parrotbill and Black jay,CH47 8AB,53.400032000000000,-3.153260000000000
Ice seal and Parrotlet,CH48 8BQ,53.369910365249600,-3.153981571540520
Maya and Solitaire,CH46 8TB,53.403944740432300,-3.108272454362190
Puffleg and Thrasher,CH43 9UU,53.388727726602100,-3.084630511549860
Ground sloth and Lemming,CH47 1HA,53.391995184605100,-3.185316355468990
Greenbul and Tit-tyrant,CH46 8SW,53.407034912100200,-3.107525427033280
Wader and Guillemot,CH48 7EQ,53.373610284343800,-3.171083000000000
Snipe and Philippine hawk-owl,CH48 2HQ,53.362550385758300,-3.173122970514030
Pratincole and Polecat,CH47 5BA,53.402340000000000,-3.166471000000000
Petrel and Vole,CH46 7TR,53.401230880885700,-3.113977654707360
Kite and White ibis,CH44 3BG,53.416561907566700,-3.058119999609490
Linsang and Grosbeak,CH46 8SQ,53.407301866728300,-3.107818182626260
Grackle and Quetzal,CH49 3NS,53.371396976856200,-3.123479729923500
Egret and Grackle,CH46 6JT,53.400490959763000,-3.133375942953640
Armadillo and Moluccan boobook,CH61 8RA,53.348582000000000,-3.096620000000000
Kākāriki and Ibex,CH60 4RN,53.326592902735400,-3.105788000000000
Argus and Philippine hawk-owl,CH48 2WG,53.390175000000000,-3.179430000000000
Goose and Grouse,CH61 8TF,53.347177497838700,-3.103554490762640
Solitaire and American sparrow,CH48 3HL,53.366858024166900,-3.180229820995690
Pheasant and Guillemot,CH48 9UR,53.371682042646400,-3.154826095460420
Old World quail and Fulmarine petrel,CH49 0UW,53.377914255706100,-3.096396876327070
Vulture and Maya,CH49 8HS,53.375014475881700,-3.089122177476500
Grosbeak and Booted eagles,CH60 5RX,53.328941818227100,-3.089374000000000
Darwin's finches and Maya,CH48 9YE,53.374934553238800,-3.154057292340100
Thicketbird and Capuchin,CH49 8HE,53.377764253126500,-3.092168832115610
Grackle and Dolphin,CH43 9SJ,53.387416605410500,-3.078537630904820
Jerboa and Duck,CH43 7ZR,53.398638612368800,-3.083092829552850
Moluccan boobook and Tahr,CH47 9RW,53.397837145370800,-3.146766069335310
Goose and Grosbeak,CH44 2DQ,53.421840252906100,-3.063984453947540
Elephant and Mockingbird,CH48 5DD,53.377575000000000,-3.187396000000000
Solitaire and Kestrel,CH43 0UT,53.375364807862700,-3.067259794913360
Rabbit and Recurvebill,CH48 7EX,53.370604996646900,-3.176741179555640
New World blackbird and B,CH46 8UA,53.406528762549300,-3.102969332322480
Crow and Grackle,CH45 3HB,53.428028073217200,-3.067735000000000
Dolphin and Francolin,CH48 1QJ,53.371776159001700,-3.136596436442940
Quetzal and Solitaire,CH48 1NG,53.366495000000000,-3.139064655548840
Shearwater and Cloud rat,CH61 1AZ,53.353980000000000,-3.082381000000000
Polecat and Tree warbler,CH49 5NA,53.371792137461700,-3.093519069578390
Stint and Chicken,CH45 3JG,53.427889907340200,-3.060944890907010
Zebra and Jerboa,CH60 1UT,53.331075441011500,-3.077159000000000
Cloud rat and Tahr,CH49 4QH,53.389054527640800,-3.114531763610950
Jay and Partridge,CH49 6JW,53.392301319968600,-3.090992159184160
Cloud rat and Dorcopsis,CH48 3JW,53.367671607383800,-3.174587000000000
Coati and Darwin's finches,CH60 5RZ,53.327435945522300,-3.092745000000000
Tahr and Pheasant,CH49 6NR,53.385767359742200,-3.092839813450890
Skunk and Snipe,CH48 0QN,53.370703098714300,-3.184995545290070
Minke whale and Shearwater,CH26 9EU,53.365704000000000,-3.065905000000000
Warbler and Hawk,CH45 8NP,53.423374487796700,-3.072344733123800
Perching duck and Guillemot,CH61 3XY,53.355167652301000,-3.110461987926150
Francolin and American sparrow,CH49 7NH,53.374329099716100,-3.078477430424990
Ice seal and Capuchin,CH43 6WB,53.388854000000000,-3.059628000000000
Old World warbler and Bunting,CH49 9DW,53.381291140989600,-3.097701398036830
Guillemot and Mole,CH48 4EH,53.373048914412600,-3.174117981300140
Rabbit and Macaw,CH49 8EH,53.376293888142400,-3.086824841643360
Recurvebill and Cuscus,CH48 5BW,53.377711251859700,-3.177162623306810
Ice seal and Kangaroo,CH61 5UY,53.343951129573100,-3.104447509159390
Fulmarine petrel and Treepie,CH60 2TR,53.324393199345300,-3.088537937842260
Piping shrike and Moluccan boobook,CH60 7SP,53.330785138064600,-3.102170217656020
Gull and Condor,CH41 7EL,53.406663000000000,-3.063485000000000
Rat and Thrasher,CH60 1UA,53.333868520988800,-3.077561355527650
Rat and River dolphin,CH44 2EP,53.416750726604600,-3.060140906370120
River dolphin and Logrunners,CH46 6HL,53.397873291631100,-3.127876981939030
Coati and Black jay,CH47 1HG,53.390542058244500,-3.182283541833830
Vole and Perching duck,CH46 8TT,53.402906949250000,-3.106771401013880
Parakeet and Mamo,CH61 6UY,53.337297377036400,-3.102698605414800
Zebra and Pratincole,CH49 8HA,53.378533360819900,-3.084717132040330
Cloud rat and Chicken,CH43 7ZT,53.396638623566600,-3.080921000000000
Philippine hawk-owl and Old World quail,CH49 4GP,53.386026014456900,-3.119249011517830
Booted eagles and Prion,CH43 9XQ,53.391600986067200,-3.083996811919270
Scimitar babbler and Mouse,CH46 8SD,53.406726000000000,-3.113775000000000
Triller and Ibex,CH60 5RN,53.326340765555500,-3.092806630764030
Maya and Viscacha,CH48 5HJ,53.376504123105000,-3.172860128527250
Pratincole and Marsh harrier,CH46 6HU,53.400233484210700,-3.132090640920460
American sparrow and Triller,CH47 8XX,53.408066000000000,-3.143183531756560
Flameback and Stilt,CH47 3DF,53.395868878319200,-3.170805909063990
Ice seal and Tahr,CH46 0PX,53.393661070758600,-3.118516000000000
Thicketbird and Prion,CH43 9TS,53.382802171238700,-3.058801029543460
Peafowl and Civet,CH49 1RJ,53.376660391663000,-3.120100721560820
Hawaiian honeycreeper and Thicketbird,CH49 5LF,53.372417513674200,-3.076144446294530
Thicketbird and Flameback,CH48 8GG,53.367588068351000,-3.163147000000000
White ibis and Logrunners,CH46 6BD,53.402657239200000,-3.117820839000000
Minke whale and Chipmunk,CH49 5LX,53.373830111487400,-3.093796755397560
Vole and Eagle,CH43 7NT,53.390851116867000,-3.072474224425690
Tree warbler and Snipe,CH45 6UX,53.426787546956600,-3.059562938870390
Civet and B,CH49 5LB,53.370179293052200,-3.075141126268680
Mole and B,CH47 4AG,53.383654344294600,-3.184302795154860
Wader and Cuscus,CH49 4RX,53.394602095568200,-3.106795000000000
Mouse and Mole,CH49 4GD,53.395501999595300,-3.092893753621270
Night heron and Wallaby,CH46 3RT,53.415571902671400,-3.112097000000000
Quetzal and Hawaiian honeycreeper,CH46 6AR,53.402633106654000,-3.115909522022400
Coati and Partridge,CH49 6NB,53.385839494227000,-3.103562012833300
Civet and Bunting,CH43 7YW,53.403126373938400,-3.082845837752270
Jerboa and Grouse,CH48 8AF,53.372255994705500,-3.165137765801580
Old World warbler and Magpie,CH49 4NG,53.390159146879100,-3.107884155590660
Diving bird and Rat,CH49 4RG,53.392437828337300,-3.103522205559340
Bronzewing pigeon and Lemming,CH48 2LA,53.358478711390700,-3.162057139582430
Songlark and Bunting,CH60 9JG,53.325302810794600,-3.111575000000000
Mamo and Kākāriki,CH60 9JJ,53.320495810199300,-3.113434666313010
Magpie and Black jay,CH46 0TN,53.394461081969100,-3.112161604054570
Flameback and Badger,CH60 5SN,53.329623179389800,-3.091674262730740
Fox and Vulture,CH48 4DZ,53.372963339121700,-3.183690464039300
Lemming and Puffleg,CH8 9HA,53.326527048989600,-3.290136321821600
Old World warbler and Black cockatoo,CH49 2PT,53.381000460436300,-3.115478979961670
Songlark and Booted eagles,CH48 1PD,53.354272000000000,-3.140717085504820
Old World warbler and Hawaiian honeycreeper,CH43 7ZF,53.400356906088000,-3.079962900292340
Flameback and Philippine hawk-owl,CH48 3HT,53.366110410713900,-3.181291221136410
Tit-tyrant and Recurvebill,CH61 9PW,53.350427062257600,-3.093302555289790
Perching duck and Stilt,CH49 6NL,53.387859277946700,-3.106771883290370
Triller and White ibis,CH48 1ND,53.354820070898900,-3.162062762704280
B and Grosbeak,CH60 4SE,53.324906000000000,-3.108114000000000
Grackle and Mink,CH46 4TD,53.410409000000000,-3.115993000000000
Jay and Jay,CH60 9HE,53.335238400581300,-3.121072286309900
Cloud rat and Coati,CH48 6DY,53.373842296979800,-3.167465848973130
Diving bird and Bunting,CH41 7EQ,53.405288191440300,-3.071393325726610
Macaw and Cuscus,CH41 7DJ,53.405708627212500,-3.072622336915260
Cuscus and Myna,CH46 6AD,53.401202227895400,-3.113194774334250
Old World quail and Fulmarine petrel,CH49 9AT,53.381270526443200,-3.096032099880510
Mockingbird and Moluccan boobook,CH46 0RS,53.395784143469300,-3.120633037295510
Vulture and Boto,CH43 3DW,53.367437098091700,-3.058104287542320
Ibex and Booted eagles,CH49 3AJ,53.375197414570100,-3.128450093370250
Treepie and Linsang,CH46 1QG,53.415166275171600,-3.083437621474840
Myna and B,CH43 7SH,53.400017000000000,-3.059798000000000
New World blackbird and Mole,CH48 5HL,53.379235238911800,-3.175761464198120
Petrel and Wallaby,CH46 0QQ,53.398809560407800,-3.105627276248690
Linsang and Wader,CH43 9RD,53.388776248242700,-3.075294038512600
Armadillo and Masked owl,CH49 3AD,53.374611870215800,-3.123819896907530
Peafowl and Herring gull,CH49 0WG,53.379252000000000,-3.099467000000000
Herring gull and Diving bird,CH43 2NB,53.376164608810900,-3.061133000000000
Magpie and Pitohui,CH48 9UF,53.373277506419800,-3.159934785495430
Guillemot and Armadillo,CH43 3ET,53.364228000000000,-3.067312000000000
Stilt and Macaw,CH46 0QD,53.397788038518300,-3.104307368818550
Capuchin and Tree warbler,CH48 2JF,53.360827116223700,-3.160903875942450
Marmoset and Mockingbird,CH49 0TU,53.384058652302300,-3.088992209230300
Asiatic leopard and Scimitar babbler,CH60 9JN,53.325805241968400,-3.111846271056900
Parakeet and Bronzewing pigeon,CH46 6BH,53.399943377531800,-3.124743138641730
