name,postcode,lat,lon
Philippine hawk-owl and Minke whale,BN3 1XW,50.834407670000000,-0.168063165000000
Black cockatoo and Duck,BN2 1DN,50.818160360000000,-0.121366710000000
New World blackbird and Night heron,BN2 1JZ,50.819678000000000,-0.127311000000000
Wallaby and Civet,BN1 6HP,50.837105880000000,-0.142478075000000
Asiatic leopard and Thrasher,BN43 5PN,50.830415930000000,-0.259798207000000
Marsh harrier and Jerboa,BN1 1UX,50.825154680122600,-0.139061976873212
Egret and Ground sloth,BN1 1HP,50.820283770000000,-0.139383330000000
Prion and Mamo,BN1 2HX,50.822244750000000,-0.151856493000000
Shearwater and Chipmunk,BN1 3PT,50.830330210000000,-0.145643958000000
Perching duck and Viscacha,BN3 2WS,50.824435070000000,-0.175595466000000
Chipmunk and Petrel,BN3 8AP,50.848416770000000,-0.206097860000000
Old World vulture and Meadowlark,BN3 3AS,50.829878110000000,-0.163114155000000
Ice seal and Fish eagle,BN52 9ZQ,50.834403000000000,-0.168035000000000
Bronzewing pigeon and Ice seal,BN43 9SQ,50.832959870000000,-0.268181692000000
Grosbeak and Triller,BN3 3PH,50.833791000000000,-0.167696382000000
Treepie and Condor,BN1 3PH,50.829731440000000,-0.143054819000000
Mockingbird and Capuchin,BN3 5LG,50.833679280000000,-0.198681713000000
Triller and Vulture,BN1 9PG,50.863036140000000,-0.078736642000000
Viscacha and Mink,BN1 7HZ,50.849155630000000,-0.132808020000000
Chicken and Macaw,BN2 0HQ,50.826728800000000,-0.122897116000000
Siskin and Thicketbird,BN2 6SR,50.835996140000000,-0.066965736000000
Kite and Old World warbler,BN2 9YE,50.826744420000000,-0.119957194000000
Pitohui and Magpie,BN1 9QZ,50.865958000000000,-0.090114000000000
Ibex and Darwin's finches,BN1 9EP,50.865899290000000,-0.113664341000000
Ice seal and Parakeet,BN1 8RG,50.867413010000000,-0.137919711000000
Mole and Argus,BN2 6PA,50.829246000000000,-0.070349721000000
Rabbit and Vulture,BN1 3DG,50.826931670000000,-0.150805245000000
Fox and Hawk,BN2 3EE,50.832051900000000,-0.116136871000000
Elephant and Civet,BN3 4JU,50.827359960000000,-0.193642710000000
Meadowlark and Polecat,BN1 9SN,50.867405000000000,-0.089486000000000
Scimitar babbler and Moluccan boobook,BN1 3PQ,50.831009600000000,-0.144253764000000
Chipmunk and Black jay,BN1 8NP,50.862985980000000,-0.140597129000000
Fox and Rat,BN3 3BF,50.829889990000000,-0.170739290000000
Viscacha and New World blackbird,BN3 1DD,50.825712590000000,-0.157881979000000
Philippine hawk-owl and Black cockatoo,BN1 2EA,50.823074000000000,-0.145676000000000
Chickadee and Ground sloth,BN1 9PT,50.862730770000000,-0.077669197000000
Argus and Myna,BN3 8LF,50.846596600000000,-0.195953997000000
Rabbit and White ibis,BN43 5TN,50.843063310000000,-0.276344387000000
Puffleg and Black cockatoo,BN1 8HL,50.857804530000000,-0.140519047000000
Moluccan boobook and Grouse,BN2 3FX,50.832114250000000,-0.133445524000000
Minke whale and Black cockatoo,BN1 7BP,50.844609170000000,-0.125219446000000
Rabbit and Night heron,BN42 4RJ,50.842749800000000,-0.240277428000000
Ibex and Kangaroo,BN2 9ND,50.828689930000000,-0.133582109000000
Thrasher and Parakeet,BN2 5SN,50.811816160000000,-0.100584290000000
B and Parakeet,BN3 7LN,50.847727210000000,-0.186506174000000
Rabbit and Mouse,BN2 4TS,50.846899040000000,-0.111064087000000
Tattler and Mamo,BN1 7BW,50.842806920000000,-0.127237683000000
Duck and Hawaiian honeycreeper,BN41 1LH,50.834934360000000,-0.216570320000000
Fulmarine petrel and Tit-tyrant,BN2 0EL,50.825065780000000,-0.120152415000000
Shearwater and Chicken,BN43 5FS,50.842620470000000,-0.274372135000000
Old World warbler and Polecat,BN2 1NE,50.816542950000000,-0.113651983000000
Bronzewing pigeon and Buzzard,BN1 6UD,50.848047840000000,-0.150211900000000
Kite and Parrotlet,BN2 0BJ,50.822823780000000,-0.124459355000000
Capuchin and Dorcopsis,BN3 5SJ,50.835229410000000,-0.204728869000000
Mink and Dorcopsis,BN1 7FF,50.846800070000000,-0.120529011000000
Gull and Mink,BN2 7LG,50.803688620000000,-0.056519545000000
Badger and White ibis,BN2 9AB,50.826458908870700,-0.133613000000000
Ibex and Marmoset,BN1 4EB,50.828453650000000,-0.139058528000000
Tattler and Grouse,BN3 2NN,50.825342280000000,-0.169781117000000
Tattler and Perching duck,BN2 9UN,50.829938710000000,-0.127326706000000
Eagle and Grouse,BN2 6SW,50.837385000000000,-0.066112991000000
Kestrel and Vulture,BN43 5DT,50.832949190000000,-0.275353663000000
Grosbeak and Mouse,BN2 5DQ,50.826332270000000,-0.140818402000000
Marsh harrier and Parrotbill,BN1 8EP,50.855101610000000,-0.141905277000000
Argus and Chicken,BN43 6PP,50.836383440000000,-0.263751708000000
Kestrel and Kestrel,BN2 9SQ,50.830099940000000,-0.128967512000000
Towhee and Armadillo,BN3 7NR,50.843968640000000,-0.188285437000000
Bronzewing pigeon and Coati,BN3 7GJ,50.837867000000000,-0.203065000000000
Mamo and Lemming,BN2 1NB,50.817225280000000,-0.114135569000000
Fish eagle and Gull,BN41 2HG,50.848351730000000,-0.221826296000000
Jerboa and Chipmunk,BN5 9LW,50.902245040000000,-0.242970536000000
Vulture and Boto,BN43 6HB,50.844528010000000,-0.265338620000000
Pitohui and B,BN2 9XB,50.830149830000000,-0.123114903000000
Logrunners and Francolin,BN2 4LT,50.842279000000000,-0.095100000000000
Dorcopsis and Dolphin,BN3 3RW,50.834075600000000,-0.170973301000000
Meadowlark and Solitaire,BN7 3AR,50.903635260000000,-0.074534136000000
Partridge and Jay,BN43 5SE,50.828697420000000,-0.271846789000000
Gull and Duck,BN3 1FP,50.827660370000000,-0.159921070000000
Nukupuʻu and Badger,BN2 9ZE,50.827645250000000,-0.121724376000000
Kangaroo and Old World warbler,BN1 8YQ,50.865354750000000,-0.152141852000000
Philippine hawk-owl and Fox,BN2 1PS,50.819267190000000,-0.132466000000000
Kestrel and Zebra,BN41 2HJ,50.848117290000000,-0.221195948000000
Flameback and Rabbit,BN2 1JG,50.819957340000000,-0.123495198000000
Duck and Vulture,BN51 9DJ,50.804821680000000,-0.058672435000000
Solitaire and Parrotbill,BN1 7GH,50.845506660000000,-0.128464867000000
Eagle and Treepie,BN1 5JG,50.854039560000000,-0.164012096000000
Stilt and Shearwater,BN3 5QE,50.831848460000000,-0.189052958000000
Wallaby and Condor,BN2 4TF,50.845694930000000,-0.111126925000000
Grouse and Shearwater,BN1 8HN,50.860248080000000,-0.138659850000000
Asiatic leopard and Masked owl,BN3 2FN,50.827161490000000,-0.167651041000000
American sparrow and Kangaroo,BN41 2BQ,50.839495880000000,-0.210232231000000
Minke whale and Myna,BN1 3FP,50.826342490000000,-0.149380194000000
Asiatic leopard and Scimitar babbler,BN41 1AU,50.832875314215300,-0.208270157173470
Shearwater and American sparrow,BN41 1DB,50.831876430000000,-0.210097648000000
Flameback and Myna,BN3 5DQ,50.832880650000000,-0.180378000000000
Hawk and Parrotbill,BN1 6WL,50.850640110000000,-0.149214334000000
Ground sloth and Kākāriki,BN41 2LL,50.842232230000000,-0.220382857000000
Puffleg and Puffleg,BN51 9EZ,50.804823133198700,-0.058672438961446
Old World warbler and Peafowl,BN43 9DH,50.833706790000000,-0.273067723000000
Macaw and Piping shrike,BN3 7SH,50.844104530000000,-0.198805819000000
Old World quail and Vulture,BN1 8HS,50.859251450000000,-0.141584030000000
Chickadee and Parakeet,BN1 8EF,50.854817920000000,-0.137085833000000
Parrotlet and Tit-tyrant,BN2 4HZ,50.840240260000000,-0.103080688000000
Kestrel and Jackal,BN2 6LF,50.827059460000000,-0.068558000000000
Masked owl and Mink,BN1 5RA,50.852785000000000,-0.165368000000000
Grackle and Minke whale,BN1 6RX,50.849418740000000,-0.152160766000000
Linsang and Guillemot,BN43 9SH,50.832959870000000,-0.268181692000000
American sparrow and Boto,BN2 6WJ,50.825255990000000,-0.064683132000000
Piping shrike and Rat,BN3 4FL,50.829777060000000,-0.186548662000000
Buzzard and Tattler,BN43 5ES,50.833641450000000,-0.279602752000000
Tattler and Night heron,BN2 5PB,50.824133110000000,-0.101433368000000
Partridge and Diving bird,BN1 8EB,50.854271220000000,-0.142847578000000
Marmoset and Dolphin,BN43 5RH,50.829254450000000,-0.265748610000000
Badger and Coati,BN43 5TF,50.836340930000000,-0.282145095000000
Tree warbler and Jackal,BN3 4LR,50.828405920000000,-0.196144117000000
Capuchin and Tattler,BN3 4QT,50.828774480000000,-0.204294901000000
Old World vulture and Logrunners,BN2 3LL,50.835140500000000,-0.121395086000000
Peafowl and Ground sloth,BN1 7BE,50.839719940000000,-0.127659542000000
Duck and Argus,BN2 9AQ,50.823827000000000,-0.134018000000000
Wader and Condor,BN3 3RS,50.833174630000000,-0.172016817000000
Towhee and Hawk,BN2 4AH,50.839180070000000,-0.121488527000000
Parrotlet and Bronzewing pigeon,BN1 3TA,50.830483490000000,-0.146234309000000
Tahr and Masked owl,BN2 9NA,50.828046000000000,-0.134293734000000
Recurvebill and Grackle,BN2 6ST,50.828972840000000,-0.063208795000000
Skunk and Darwin's finches,BN43 5DP,50.832685620000000,-0.275775208000000
Kestrel and Recurvebill,BN1 6YA,50.850500200000000,-0.152302718000000
Mouse and Zebra,BN1 2NN,50.823420810000000,-0.152292804000000
Masked owl and Dorcopsis,BN2 5XJ,50.811816750000000,-0.095104995000000
Armadillo and Partridge,BN1 4DW,50.829259670000000,-0.139409881000000
Old World quail and Mouse,BN41 2FT,50.845757710000000,-0.213913235000000
Flameback and Songlark,BN3 2DE,50.827670910000000,-0.178934050000000
Black jay and Jay,BN41 1QF,50.833428730000000,-0.219269162000000
Prion and Cuscus,BN1 5HA,50.858989340000000,-0.166517454000000
Eagle and Badger,BN41 2DD,50.839816400000000,-0.210021122000000
Piping shrike and Shearwater,BN42 4NH,50.835038470000000,-0.220443459000000
Tit-tyrant and Tahr,BN1 3LB,50.826790180000000,-0.143029529000000
Petrel and Black jay,BN2 6TE,50.828418960000000,-0.062890916000000
Bunting and Argus,BN43 5HD,50.828615720000000,-0.259694748000000
Marmoset and Mockingbird,BN2 4DL,50.840556890000000,-0.113734834000000
Chicken and Duck,BN3 6WB,50.848408840000000,-0.178879544000000
Boto and Petrel,BN1 9PB,50.862829030000000,-0.077082524000000
Lemming and Capuchin,BN43 6GL,50.836784940000000,-0.255698293000000
Chicken and Parrotbill,BN45 7AT,50.893327490000000,-0.208311746000000
Mouse and Chipmunk,BN43 5LX,50.828035070000000,-0.276315736000000
Wader and Fox,BN1 2RE,50.822379000000000,-0.144365562000000
Tahr and Marmoset,BN43 5US,50.833817000000000,-0.274370000000000
Scimitar babbler and Grouse,BN3 3JX,50.829905180000000,-0.168267831000000
Booted eagles and Meadowlark,BN2 4FH,50.842369140000000,-0.102369364000000
Shearwater and Bronzewing pigeon,BN3 3HA,50.832904580000000,-0.177750482000000
Warbler and Songlark,BN2 5RY,50.817671320000000,-0.105031675000000
Tit-tyrant and Siskin,BN41 2FN,50.845492030000000,-0.210073814000000
Myna and Wallaby,BN3 6XH,50.851176040000000,-0.177549990000000
Condor and Egret,BN41 1HS,50.833995170000000,-0.208240000000000
Polecat and Rabbit,BN50 8HT,50.826333849600000,-0.140818406900000
Pheasant and Black cockatoo,BN3 5DL,50.832582810000000,-0.180759460000000
Treepie and Chicken,BN1 9AB,50.858672150000000,-0.105558340000000
Viscacha and Parrotbill,BN2 9ZP,50.830011770000000,-0.117894661000000
Rat and Puffleg,BN2 4BP,50.840171000000000,-0.117684786000000
Logrunners and Dorcopsis,BN1 6JU,50.848314000000000,-0.135730188000000
Linsang and Black cockatoo,BN2 9XJ,50.829477970000000,-0.122162028000000
Armadillo and Magpie,BN43 6YF,50.838312040000000,-0.246579970000000
Fox and Vole,BN3 1JE,50.825408990000000,-0.162011646000000
Philippine hawk-owl and Shearwater,BN43 5JJ,50.830133030000000,-0.264352823000000
Vole and Old World quail,BN52 9HJ,50.834403000000000,-0.168035000000000
Cloud rat and Tahr,BN2 9ZA,50.828356090000000,-0.123982043000000
Gull and Jackal,BN2 6PF,50.837761370000000,-0.068015000000000
Maya and Kākāriki,BN2 9NP,50.827963570000000,-0.131466901000000
Macaw and Old World warbler,BN2 3RT,50.834307710000000,-0.133386423000000
Condor and Capuchin,BN1 6RE,50.845989640000000,-0.149767000000000
Marsh harrier and Elephant,BN52 9ZB,50.834403000000000,-0.168035000000000
Viscacha and Triller,BN1 7ER,50.844800820000000,-0.127072615000000
Quetzal and Herring gull,BN3 1RA,50.831054170000000,-0.153297878000000
Duck and Skunk,BN43 5RR,50.829594300000000,-0.273503485000000
Snipe and Philippine hawk-owl,BN1 8SE,50.869524670000000,-0.129933430000000
Ice seal and Guillemot,BN1 2FJ,50.823112260000000,-0.149280737000000
Booted eagles and Moluccan boobook,BN1 2LN,50.821637000000000,-0.152590000000000
Maya and Prion,BN2 0JT,50.822791330000000,-0.130281951000000
Lemming and Grouse,BN2 5QL,50.831031260000000,-0.105868172000000
Gull and Petrel,BN3 7GF,50.841064070000000,-0.202843120000000
Treepie and Logrunners,BN1 4GY,50.832792310000000,-0.139297816000000
Coati and Petrel,BN2 1DH,50.817964150000000,-0.120352412000000
Wader and Old World warbler,BN3 4HD,50.827131520000000,-0.193410136000000
Black cockatoo and Thrasher,BN1 9GW,50.862926020000000,-0.106664874000000
Magpie and Dolphin,BN1 9JU,50.856690630000000,-0.100949792000000
Thrasher and Wallaby,BN41 1AW,50.830615000000000,-0.210430000000000
Thicketbird and Gull,BN1 8TE,50.864813430000000,-0.135421000000000
Cloud rat and Francolin,BN43 6BG,50.842132830000000,-0.256692014000000
Wader and Magpie,BN2 6BD,50.838146640000000,-0.076279288000000
Moluccan boobook and Thrasher,BN2 6QJ,50.835734570000000,-0.059335696000000
Ibex and Armadillo,BN3 7AZ,50.841656620000000,-0.174966479000000
Vulture and Civet,BN1 5BD,50.844929870000000,-0.158915017000000
Old World vulture and Ibex,BN1 8LS,50.860657210000000,-0.138373573000000
Eagle and Chipmunk,BN42 4RG,50.841646600000000,-0.241668293000000
Mamo and American sparrow,BN1 1UR,50.825131410000000,-0.139957370000000
Diving bird and Towhee,BN2 4TA,50.844688010000000,-0.112815367000000
Magpie and Tree warbler,BN3 7EA,50.839163570000000,-0.182335765000000
Towhee and Crow,BN43 9EJ,50.833706790000000,-0.273067723000000
Cuscus and Pheasant,BN3 2WE,50.824775390000000,-0.176079159000000
Puffleg and Petrel,BN1 9BA,50.859162870000000,-0.111975295000000
Francolin and Fox,BN41 1AE,50.832966820000000,-0.210240555000000
Linsang and Hawaiian honeycreeper,BN1 8NY,50.861334280000000,-0.143050109000000
Tahr and Old World vulture,BN42 4AX,50.831417400000000,-0.234867116000000
Songlark and Darwin's finches,BN1 5LG,50.857173140000000,-0.169984554000000
Mink and Snipe,BN41 2TB,50.847164500000000,-0.223590306000000
Black cockatoo and American sparrow,BN2 6QB,50.837473960000000,-0.062260342000000
Ibex and Mink,BN3 2FJ,50.826630000000000,-0.165294821000000
Badger and Partridge,BN2 9SS,50.830586640000000,-0.130155107000000
Pratincole and Peafowl,BN2 4FD,50.840990610000000,-0.108305682000000
Elephant and Black jay,BN3 5LS,50.831974350000000,-0.194274042000000
Civet and Badger,BN3 6FH,50.834782370000000,-0.159300144000000
Tit-tyrant and Ibex,BN52 9ZF,50.834403000000000,-0.168035000000000
Mole and Grackle,BN2 4DQ,50.840178680000000,-0.114261414000000
Mink and Thrasher,BN3 6LA,50.840220000000000,-0.159555000000000
Partridge and Kākāriki,BN1 8GQ,50.863411830000000,-0.125616407000000
Treepie and Parrotbill,BN3 6WU,50.834407670000000,-0.168063165000000
Grackle and Thicketbird,BN3 5HF,50.835491320000000,-0.187349737000000
Pitohui and Night heron,BN3 1AF,50.825495740000000,-0.158387482000000
Rabbit and Treepie,BN2 3RE,50.835782860000000,-0.132276605000000
Meadowlark and Kangaroo,BN1 3TR,50.831830790000000,-0.146692170000000
Chickadee and Parrotbill,BN2 5HB,50.827861000000000,-0.105520292000000
Badger and Black cockatoo,BN3 6FR,50.833208830000000,-0.159319443000000
Pratincole and Jackal,BN2 0TF,50.826332270000000,-0.140818402000000
Mockingbird and Meadowlark,BN1 7HS,50.853959500000000,-0.127842379000000
Bronzewing pigeon and Hawaiian honeycreeper,BN43 6DA,50.832853100000000,-0.273113430000000
Vulture and Egret,BN2 6DS,50.835071690000000,-0.087270322000000
Recurvebill and Old World warbler,BN43 5NQ,50.841347020000000,-0.278268310000000
Tattler and Jerboa,BN1 8JE,50.859019780000000,-0.137770946000000
Flameback and Grackle,BN3 4LJ,50.827448990000000,-0.194746842000000
Warbler and Wader,BN1 1UJ,50.824496000000000,-0.140054000000000
Snipe and Eagle,BN1 2FF,50.822402010000000,-0.149862546000000
Hawk and Towhee,BN1 7AZ,50.842661450000000,-0.124899794000000
B and Jackal,BN3 8DB,50.851119000000000,-0.199885000000000
Philippine hawk-owl and Darwin's finches,BN3 6QT,50.851474220000000,-0.166158622000000
Armadillo and Tree warbler,BN3 7BD,50.838716680000000,-0.176021000000000
Old World warbler and Thrasher,BN2 6LN,50.835291740000000,-0.071681558000000
Towhee and Scimitar babbler,BN2 0FY,50.827702080000000,-0.125257841000000
Warbler and Chickadee,BN3 4QR,50.830448900000000,-0.207326355000000
Jerboa and Jackal,BN41 1GS,50.837170360000000,-0.216939567000000
Piping shrike and Linsang,BN2 5RP,50.814751230000000,-0.091961881000000
Bronzewing pigeon and Herring gull,BN3 6TG,50.846145070000000,-0.162036000000000
Herring gull and Tree warbler,BN2 4PX,50.851637150000000,-0.109863983000000
Tahr and Maya,BN2 0JH,50.822850470000000,-0.131727815000000
Asiatic leopard and Ice seal,BN1 9PN,50.880862930000000,-0.086093000000000
Thrasher and Old World vulture,BN41 1PZ,50.831888000000000,-0.219555000000000
Francolin and Night heron,BN43 6RF,50.832211140000000,-0.272752000000000
Marsh harrier and Parrotbill,BN43 6NG,50.838745800000000,-0.250313288000000
Snipe and Grosbeak,BN3 6QN,50.849774920000000,-0.170771314000000
Parrotbill and Fox,BN1 5JN,50.853881460000000,-0.165396448000000
B and Armadillo,BN2 5NJ,50.823203290000000,-0.103984210000000
Chicken and Bronzewing pigeon,BN3 8JD,50.845719590000000,-0.192166643000000
B and Badger,BN41 2RW,50.855315000000000,-0.234345392000000
Lemming and Nukupuʻu,BN2 1RQ,50.821275120000000,-0.131634515000000
Dorcopsis and Stilt,BN3 4QF,50.830775690000000,-0.205183749000000
Jackal and New World blackbird,BN3 3AR,50.830065180000000,-0.164143443000000
Parakeet and Maya,BN3 3EL,50.833268370000000,-0.162526619000000
Cuscus and Diving bird,BN2 1EH,50.817072290000000,-0.116356396000000
Egret and Stilt,BN1 8XP,50.861105720000000,-0.149609950000000
Kestrel and Darwin's finches,BN2 6LQ,50.836603900000000,-0.071627474000000
Black cockatoo and Kestrel,BN2 9WH,50.829320270000000,-0.131384329000000
Treepie and Old World warbler,BN2 1TW,50.819104210000000,-0.136477206000000
Perching duck and Towhee,BN41 1AR,50.833887735921200,-0.221425000000000
Badger and Moluccan boobook,BN3 8ER,50.851958090000000,-0.198957942000000
Greenbul and Lemming,BN2 1FY,50.815178570000000,-0.111591750000000
Goose and Guillemot,BN3 3LS,50.834430330000000,-0.175248361000000
Magpie and Thicketbird,BN43 5WX,50.834323740000000,-0.271752000000000
Philippine hawk-owl and Viscacha,BN3 3GF,50.830446720000000,-0.161529774000000
Logrunners and Mouse,BN42 4RP,50.842473720000000,-0.239265120000000
Macaw and Recurvebill,BN1 7HL,50.846745130000000,-0.132067000000000
Masked owl and Vole,BN2 1AP,50.819075000000000,-0.125508911000000
Songlark and Parrotbill,BN3 2DL,50.828093940000000,-0.174927441000000
Peafowl and Vole,BN42 4TB,50.834764860000000,-0.234399994000000
Herring gull and Wader,BN2 1WB,50.822303680000000,-0.135213982000000
Kite and Tit-tyrant,BN3 4QA,50.830733440000000,-0.204191329000000
Kangaroo and Coati,BN2 4FZ,50.846477390000000,-0.113908013000000
Kite and Ground sloth,BN3 6NE,50.838332700000000,-0.155751746000000
Old World vulture and Civet,BN3 3PG,50.831975810000000,-0.167831751000000
Kite and Capuchin,BN3 7QB,50.844559370000000,-0.177708385000000
Kestrel and Argus,BN3 3YB,50.830186000000000,-0.172985591000000
Treepie and Hawk,BN2 5ZG,50.820928000000000,-0.103679000000000
Argus and Flameback,BN2 1QJ,50.820649050000000,-0.131290365000000
Shearwater and Dolphin,BN3 1DF,50.826355000000000,-0.156896157000000
Macaw and Pitohui,BN1 5AW,50.837616850000000,-0.151433927000000
Buzzard and Perching duck,BN1 6SQ,50.842872700000000,-0.153371074000000
Stint and River dolphin,BN43 6TB,50.841100730000000,-0.250225208000000
Civet and Snipe,BN2 5JY,50.818089290000000,-0.109174446000000
Vole and Grackle,BN3 5PN,50.832090260000000,-0.182624742000000
Dolphin and Treepie,BN43 5RL,50.828118500000000,-0.268418000000000
Tattler and Puffleg,BN1 1AB,50.822957220000000,-0.141790162000000
Ice seal and Tit-tyrant,BN2 0BS,50.822513500000000,-0.127538599000000
Linsang and Snipe,BN2 9NB,50.828581490000000,-0.134111835000000
Piping shrike and Vulture,BN43 6RE,50.832478000000000,-0.268342000000000
Boto and Ice seal,BN2 5HX,50.829273840000000,-0.105641101000000
Moluccan boobook and Tattler,BN3 3EY,50.832658580000000,-0.166640516000000
Coati and Black cockatoo,BN2 4AJ,50.838965590000000,-0.121014231000000
Thicketbird and Linsang,BN1 2PW,50.823175410000000,-0.155652000000000
Songlark and Masked owl,BN3 3EA,50.833521210000000,-0.168509000000000
Puffleg and American sparrow,BN2 0LA,50.823684440000000,-0.133824309000000
Solitaire and Masked owl,BN1 6BT,50.836088230000000,-0.142390658000000
Recurvebill and Polecat,BN1 3PN,50.829610100000000,-0.146169505000000
Thrasher and Towhee,BN2 5PJ,50.829062470000000,-0.102042800000000
Meadowlark and Egret,BN2 5PP,50.826436520000000,-0.103711232000000
Old World quail and White ibis,BN1 4JW,50.832300770000000,-0.134986010000000
Tree warbler and Thicketbird,BN3 4JQ,50.829748550000000,-0.192826298000000
Greenbul and Egret,BN1 3PJ,50.830578370000000,-0.143717041000000
Puffleg and Chipmunk,BN3 5AX,50.834214230000000,-0.179261660000000
Buzzard and Peafowl,BN41 1DR,50.831267790000000,-0.212634457000000
Thrasher and Bronzewing pigeon,BN2 4LH,50.844294300000000,-0.092475695000000
Francolin and Grackle,BN1 6ZA,50.853572840000000,-0.142477505000000
Linsang and Civet,BN1 5FH,50.857381120000000,-0.167191503000000
Polecat and Tattler,BN1 1HA,50.822184670000000,-0.141281304000000
Marmoset and Rabbit,BN2 0JN,50.822564030000000,-0.129566922000000
Cloud rat and Diving bird,BN2 5BF,50.818801700000000,-0.117635534000000
Jackal and Fish eagle,BN3 7AF,50.837343710000000,-0.178671183000000
New World blackbird and Maya,BN1 2JU,50.826332270000000,-0.140818402000000
Tit-tyrant and Civet,BN6 8RN,50.905399870000000,-0.084488897000000
Logrunners and Eagle,BN1 7JF,50.844646630000000,-0.133726691000000
Ibex and Songlark,BN3 5BF,50.833859170000000,-0.178409181000000
American sparrow and Nukupuʻu,BN1 6UY,50.847573000000000,-0.150231000000000
Petrel and Chipmunk,BN1 5PG,50.835715210000000,-0.149478153000000
Thicketbird and Macaw,BN2 5PX,50.827535060000000,-0.102686936000000
Kākāriki and Mole,BN43 6DJ,50.841643000000000,-0.257336000000000
Duck and Peafowl,BN1 6PD,50.845361260000000,-0.143570733000000
Myna and Night heron,BN3 5BL,50.833671000000000,-0.182407000000000
Kestrel and Myna,BN43 5HP,50.828682470000000,-0.251527341000000
Myna and Tree warbler,BN2 9SH,50.831335000000000,-0.128591508000000
Night heron and Ibex,BN2 5EB,50.820822900000000,-0.109149214000000
Old World warbler and Fulmarine petrel,BN2 4JN,50.842139070000000,-0.096526566000000
Mole and Nukupuʻu,BN1 2JN,50.826332270000000,-0.140818402000000
Night heron and Chipmunk,BN43 5AX,50.835384800000000,-0.274639006000000
Chicken and Boto,BN3 3AT,50.831227000000000,-0.171965000000000
Night heron and Fish eagle,BN2 5TS,50.821292000000000,-0.097005000000000
Towhee and Tattler,BN3 2RY,50.827362030000000,-0.174132407000000
Kestrel and Wader,BN3 4LF,50.830562840000000,-0.198375661000000
Capuchin and Snipe,BN3 3UL,50.830801140000000,-0.169198404000000
Francolin and Siskin,BN42 4QH,50.841674500000000,-0.227463396000000
Mouse and Asiatic leopard,BN3 1QB,50.830934850000000,-0.151061000000000
Rabbit and Stilt,BN3 7HN,50.838444990000000,-0.203881126000000
White ibis and Civet,BN3 4JF,50.828012520000000,-0.192225946000000
Flameback and Macaw,BN41 1AN,50.833281630000000,-0.207899494000000
Cloud rat and Guillemot,BN2 9QG,50.824934420000000,-0.133817067000000
Kestrel and Bunting,BN1 6AE,50.835692940000000,-0.141852468000000
White ibis and Buzzard,BN42 4DY,50.833430650000000,-0.237162795000000
Buzzard and Snipe,BN1 3ER,50.824869920000000,-0.146258000000000
Darwin's finches and Duck,BN3 3GN,50.828562560000000,-0.166957185000000
Black jay and Peafowl,BN43 5LT,50.831947000000000,-0.281682000000000
Buzzard and Tree warbler,BN1 7JL,50.844755290000000,-0.133210977000000
Badger and Darwin's finches,BN2 4EB,50.840139150000000,-0.120171692000000
Night heron and Argus,BN43 6AD,50.842515430000000,-0.268495534000000
Asiatic leopard and Goose,BN3 1AZ,50.824232130000000,-0.156392591000000
Mole and Cloud rat,BN45 7EE,50.901805000000000,-0.174867126000000
Booted eagles and Pitohui,BN1 6LB,50.843977860000000,-0.144236444000000
Wader and Stilt,BN3 1FQ,50.826747830000000,-0.160794715000000
Piping shrike and Grackle,BN1 8YA,50.863962980000000,-0.151145282000000
Moluccan boobook and Jay,BN41 1PE,50.832879260000000,-0.219801316000000
Duck and Vole,BN50 8JF,50.826328000000000,-0.140790000000000
Flameback and Gull,BN2 6SJ,50.835226150000000,-0.062836317000000
Jackal and New World blackbird,BN3 7FU,50.842576120000000,-0.199418637000000
Booted eagles and Mouse,BN2 1SR,50.821469280000000,-0.133089146000000
Tree warbler and Fish eagle,BN1 4EF,50.827765950000000,-0.139923660000000
Jackal and Parrotlet,BN43 5PJ,50.830307530000000,-0.259163222000000
Wallaby and Solitaire,BN2 3RH,50.837023290000000,-0.131673183000000
Masked owl and Tit-tyrant,BN3 5HS,50.835829570000000,-0.190020837000000
Parrotbill and Parrotlet,BN1 3TD,50.830992670000000,-0.146583357000000
Moluccan boobook and Snipe,BN2 6DP,50.835930020000000,-0.089706438000000
Thrasher and Armadillo,BN3 1TQ,50.832085290000000,-0.150828803000000
River dolphin and Capuchin,BN2 7FB,50.811568800000000,-0.063659056000000
River dolphin and Old World quail,BN43 6YJ,50.838990360000000,-0.248031660000000
Tit-tyrant and River dolphin,BN3 5FA,50.833687530000000,-0.181241964000000
Ground sloth and Tit-tyrant,BN42 4RU,50.842302870000000,-0.236288704000000
Fulmarine petrel and Flameback,BN50 8NG,50.826328000000000,-0.140790000000000
Greenbul and Marmoset,BN41 2WA,50.848752430000000,-0.226882608000000
Solitaire and Rat,BN1 8EJ,50.856420750000000,-0.137775015000000
Pheasant and Cloud rat,BN1 9GL,50.862118170000000,-0.111756452000000
Skunk and Magpie,BN3 5FD,50.835703340000000,-0.182029000000000
Songlark and Argus,BN3 3DH,50.828862520000000,-0.171745056000000
Magpie and Thrasher,BN3 7EL,50.837603500000000,-0.183220135000000
New World blackbird and Black cockatoo,BN3 3DA,50.830224360000000,-0.171990061000000
Jerboa and American sparrow,BN3 7GT,50.837571020000000,-0.202608036000000
Kestrel and Bronzewing pigeon,BN2 7HX,50.803708450000000,-0.058250221000000
Macaw and Solitaire,BN43 5BJ,50.830742780000000,-0.259402640000000
Ibex and Jay,BN1 2BE,50.823821720000000,-0.142991117000000
Guillemot and Tahr,BN41 2DN,50.841781300000000,-0.207375025000000
Kestrel and American sparrow,BN1 4ZL,50.831705974669800,-0.134626000000000
Viscacha and Old World vulture,BN1 2QD,50.824181170000000,-0.154307395000000
Cuscus and Kangaroo,BN1 5EG,50.857815550000000,-0.156517819000000
Moluccan boobook and Egret,BN41 2FW,50.845634640000000,-0.208818309000000
Greenbul and Thrasher,BN2 3HR,50.834487860000000,-0.128351789000000
Old World warbler and New World blackbird,BN3 3GH,50.829839570000000,-0.161809234000000
Darwin's finches and Greenbul,BN3 5PB,50.832162160000000,-0.184354476000000
Magpie and Prion,BN2 0GH,50.826840670000000,-0.126499307000000
Gull and Lemming,BN3 4AD,50.829667410000000,-0.182392230000000
Songlark and Macaw,BN1 4GH,50.832220190000000,-0.138951337000000
Quetzal and Marmoset,BN3 6UR,50.846656200000000,-0.173194583000000
Tree warbler and Crow,BN2 3RG,50.836249870000000,-0.133053000000000
Partridge and Civet,BN43 5YG,50.828665540000000,-0.276988307000000
Ice seal and Hawk,BN2 3FD,50.834275690000000,-0.130263313000000
Chickadee and Argus,BN1 9GG,50.861698420000000,-0.113606516000000
Recurvebill and Kite,BN41 2QA,50.845758800000000,-0.227550100000000
Bronzewing pigeon and Philippine hawk-owl,BN45 7FE,50.897812330000000,-0.163570985000000
Francolin and Pheasant,BN2 5ZD,50.818721000000000,-0.110895000000000
Peafowl and Partridge,BN3 8LU,50.845120580000000,-0.201124712000000
Minke whale and Marmoset,BN2 1LQ,50.820940960000000,-0.125940369000000
Tree warbler and American sparrow,BN1 4HF,50.830903080000000,-0.135879560000000
Nukupuʻu and Polecat,BN2 3RY,50.835711740000000,-0.132890139000000
White ibis and Kākāriki,BN3 3PY,50.832227800000000,-0.164981667000000
Tahr and Guillemot,BN1 3RR,50.829819450000000,-0.145195585000000
Thrasher and Condor,BN41 1DL,50.830997670000000,-0.209476000000000
Minke whale and Dolphin,BN42 4HU,50.840275980000000,-0.235329000000000
Ibex and Stilt,BN42 4YF,50.844802690000000,-0.236862068000000
B and Myna,BN1 6YS,50.850700620000000,-0.154170085000000
Booted eagles and Siskin,BN1 5EJ,50.861821170000000,-0.156743519000000
Recurvebill and Bronzewing pigeon,BN3 8BH,50.851343830000000,-0.197617744000000
Myna and Duck,BN2 9SP,50.830424750000000,-0.129593552000000
Buzzard and Badger,BN3 4BD,50.831159450000000,-0.192757610000000
Perching duck and Black jay,BN1 3HA,50.826441720000000,-0.147132771000000
Solitaire and Scimitar babbler,BN1 8GA,50.857515680000000,-0.130882747000000
Pratincole and Masked owl,BN1 4ZJ,50.831327000000000,-0.135302808730280
Treepie and Masked owl,BN41 9DX,50.832072000000000,-0.207548000000000
Condor and Badger,BN2 1PF,50.819836070000000,-0.131067266000000
Tree warbler and Kite,BN3 5SP,50.833871590000000,-0.204156099000000
Pratincole and Tattler,BN1 6HG,50.842880500000000,-0.144791339000000
Condor and Greenbul,BN43 6YQ,50.836095870000000,-0.244532705000000
Diving bird and Night heron,BN1 9JE,50.855363110000000,-0.104484729000000
White ibis and Gull,BN1 6FE,50.842123390000000,-0.135659701000000
Old World quail and Thrasher,BN1 3RN,50.828760660000000,-0.144783148000000
Fish eagle and Grosbeak,BN1 4QG,50.835327000000000,-0.141384000000000
Fish eagle and White ibis,BN2 5LE,50.826049590000000,-0.104252284000000
Boto and Masked owl,BN3 3RB,50.831618760000000,-0.173739102000000
Wallaby and Stint,BN2 3RB,50.834992950000000,-0.132933026000000
Fulmarine petrel and Scimitar babbler,BN2 6TN,50.831150960000000,-0.061144711000000
Parakeet and Piping shrike,BN1 4DJ,50.831007000000000,-0.140079000000000
Grouse and Flameback,BN3 2NQ,50.825000960000000,-0.169808662000000
Ground sloth and Meadowlark,BN41 2RJ,50.853287870000000,-0.234183710000000
Hawk and Kangaroo,BN2 4NP,50.852972670000000,-0.106258124000000
Mink and Parakeet,BN3 3WJ,50.832779410000000,-0.173013000000000
Elephant and Wader,BN2 7HB,50.806050630000000,-0.056861522000000
Minke whale and Buzzard,BN2 7DP,50.809458260000000,-0.053568978000000
Asiatic leopard and Goose,BN52 9YX,50.834403000000000,-0.168035000000000
Francolin and Badger,BN1 2HE,50.824049940000000,-0.150564133000000
Dorcopsis and Philippine hawk-owl,BN88 1WY,50.826332270000000,-0.140818402000000
Crow and Magpie,BN3 1JT,50.824346640000000,-0.161939774000000
Polecat and Civet,BN3 3TN,50.832280500000000,-0.169481349000000
Grackle and Elephant,BN3 8PQ,50.849307640000000,-0.193888955000000
Bronzewing pigeon and Macaw,BN43 6HX,50.844738920000000,-0.261270000000000
Herring gull and Kākāriki,BN3 1GH,50.826564340000000,-0.159424586000000
Tahr and Partridge,BN3 7FE,50.839724510000000,-0.198207490000000
Solitaire and Mamo,BN2 3LF,50.834484760000000,-0.126477271000000
Thicketbird and Wallaby,BN3 7RF,50.846230090000000,-0.183922038000000
Herring gull and Hawk,BN41 1LQ,50.832347350000000,-0.215007399000000
Nukupuʻu and Quetzal,BN3 3EW,50.833389210000000,-0.167350364000000
Grouse and Buzzard,BN1 9RW,50.869435360000000,-0.088891333000000
Goose and Shearwater,BN42 4GG,50.835302990000000,-0.237276877000000
Cuscus and Maya,BN3 7FJ,50.840663210000000,-0.199009347000000
Masked owl and Skunk,BN2 5NE,50.819539120000000,-0.104302990000000
Eagle and Francolin,BN45 7BJ,50.896890000000000,-0.162954000000000
Bronzewing pigeon and Meadowlark,BN3 2TU,50.826394000000000,-0.180673450000000
Cloud rat and Flameback,BN41 1GT,50.836192580000000,-0.215925867000000
Parakeet and Mockingbird,BN2 4PW,50.850942620000000,-0.104195103000000
Vulture and Vulture,BN1 6JA,50.837968210000000,-0.133396604000000
Linsang and Herring gull,BN3 2JJ,50.824434630000000,-0.165244621000000
Solitaire and Eagle,BN3 3TD,50.832828150000000,-0.170567623000000
Goose and White ibis,BN43 6LG,50.835152130000000,-0.251157770000000
Viscacha and Grouse,BN1 6XZ,50.852573200000000,-0.155999940000000
Pitohui and Thrasher,BN1 1RF,50.824526180000000,-0.140918542000000
Mockingbird and Myna,BN2 7FE,50.813479180000000,-0.065510649000000
Vole and Dolphin,BN3 5NF,50.833155310000000,-0.195037943000000
American sparrow and Mink,BN3 8AJ,50.847450120000000,-0.204060914000000
Logrunners and Ground sloth,BN1 1RE,50.823315540000000,-0.141137008000000
Dorcopsis and Wallaby,BN41 2DH,50.844289890000000,-0.211440854000000
Macaw and Tahr,BN2 3PZ,50.831592280000000,-0.121097313000000
Warbler and Greenbul,BN2 4NB,50.839051860000000,-0.104662830000000
Songlark and Wader,BN43 5WS,50.836077450000000,-0.277084627000000
Old World warbler and Vole,BN1 6UF,50.847000350000000,-0.152571000000000
Towhee and Jerboa,BN42 4WB,50.841498970000000,-0.231305074000000
Old World warbler and Stilt,BN2 4PU,50.854229520000000,-0.103905541000000
Masked owl and Triller,BN3 2SB,50.825900000000000,-0.174956198000000
Parakeet and Bronzewing pigeon,BN1 2RG,50.822270570000000,-0.144983597000000
Quetzal and Tree warbler,BN5 9YF,50.904804740000000,-0.271661584000000
White ibis and Fulmarine petrel,BN1 4AQ,50.826908880000000,-0.139190951000000
Kākāriki and Ground sloth,BN43 6TF,50.842701610000000,-0.244242198000000
Grackle and Duck,BN1 2AJ,50.824882458268000,-0.150218929926839
Dorcopsis and Hawaiian honeycreeper,BN3 2GU,50.824812510000000,-0.165826160000000
Old World vulture and Puffleg,BN43 6DB,50.833773190000000,-0.272085376000000
Jerboa and New World blackbird,BN43 5FR,50.844295080000000,-0.275105811000000
Mamo and New World blackbird,BN3 2RJ,50.826124800000000,-0.174379463000000
Hawk and Fox,BN43 6RJ,50.832738080000000,-0.258717774000000
Flameback and Mole,BN2 7HY,50.803208040000000,-0.055205394000000
Thicketbird and Lemming,BN42 4QN,50.841358440000000,-0.229747974000000
Booted eagles and Wader,BN3 8FB,50.854365110000000,-0.200499118000000
Maya and Magpie,BN1 5FL,50.856769010000000,-0.163151856000000
Darwin's finches and Grackle,BN1 6RY,50.849566340000000,-0.150691677000000
Viscacha and Tit-tyrant,BN3 3RU,50.834201340000000,-0.171536453000000
Badger and Old World quail,BN42 4TX,50.840482800000000,-0.237848691000000
Philippine hawk-owl and Quetzal,BN2 3QE,50.836928810000000,-0.122984980000000
Parrotbill and Egret,BN2 5SF,50.811298990000000,-0.095892580000000
Minke whale and New World blackbird,BN1 6TA,50.847326600000000,-0.154644194000000
Jay and Chicken,BN42 4BA,50.831961000000000,-0.233289918000000
Fox and Kite,BN2 4HN,50.850962120000000,-0.110942578000000
Tattler and Hawaiian honeycreeper,BN1 6HB,50.840908380000000,-0.142369693000000
Ice seal and Shearwater,BN1 9PW,50.858017000000000,-0.091234000000000
Grackle and Condor,BN2 5GY,50.823341000000000,-0.107452551000000
Lemming and Thicketbird,BN1 4ZR,50.833369064876600,-0.140964923024207
Duck and Tit-tyrant,BN3 8AF,50.846384580000000,-0.202027853000000
Rat and Linsang,BN3 2LR,50.824721600000000,-0.166908831000000
Kākāriki and Booted eagles,BN43 5FX,50.844605720000000,-0.275435268000000
Dorcopsis and Dorcopsis,BN3 1FB,50.826722090000000,-0.159162792000000
Chicken and Thicketbird,BN2 5WB,50.813298020000000,-0.102667689000000
Cloud rat and Night heron,BN45 7AU,50.893728760000000,-0.206917034000000
Bronzewing pigeon and Tree warbler,BN41 1SA,50.835939640000000,-0.217029076000000
Linsang and Night heron,BN1 7FH,50.843751040000000,-0.123307805000000
Towhee and B,BN1 7BF,50.842025550000000,-0.126743414000000
Crow and Scimitar babbler,BN2 0LS,50.821177230000000,-0.119385723000000
Mink and Thrasher,BN2 0HG,50.823472470000000,-0.129573215000000
Thicketbird and Kestrel,BN2 9AE,50.830295069864400,-0.116406473435382
Jackal and Treepie,BN1 5AN,50.840885260000000,-0.155082962000000
Capuchin and Grackle,BN2 5GB,50.822232630000000,-0.104023528000000
Black jay and Lemming,BN50 8LY,50.826328000000000,-0.140790000000000
Partridge and Herring gull,BN1 8QG,50.863330940000000,-0.146452374000000
Vulture and Elephant,BN3 2LY,50.826207000000000,-0.173278218551525
Tree warbler and Wallaby,BN1 6PL,50.846824500000000,-0.143967228000000
Stilt and Fox,BN1 9AQ,50.858318590000000,-0.109821192000000
Kangaroo and Thicketbird,BN2 1EE,50.818574860000000,-0.121974745000000
Darwin's finches and Fish eagle,BN3 5QT,50.833627910000000,-0.189552147000000
Old World vulture and Grouse,BN41 2DP,50.844175790000000,-0.208107125000000
Logrunners and Kākāriki,BN42 4LH,50.838710560000000,-0.227717728000000
Coati and Eagle,BN2 6DD,50.834744100000000,-0.086488404000000
Pheasant and Eagle,BN1 4FN,50.828854630000000,-0.138261576000000
Mole and Warbler,BN2 7AZ,50.802230564037800,-0.056367224292039
Minke whale and Pheasant,BN50 9AW,50.826332270000000,-0.140818402000000
Tattler and River dolphin,BN1 9HW,50.855776950000000,-0.102279865000000
Cloud rat and Songlark,BN1 8AE,50.857109700000000,-0.133612841000000
Fulmarine petrel and Prion,BN3 3PF,50.831071600000000,-0.168094366000000
River dolphin and Badger,BN5 9TP,50.901822360000000,-0.274929319000000
B and Black jay,BN43 6QG,50.832620930000000,-0.252686680000000
Black cockatoo and Peafowl,BN3 6DA,50.854505380000000,-0.169620115000000
Siskin and Marmoset,BN2 3AZ,50.832494070000000,-0.127962901000000
Parakeet and Snipe,BN3 2PJ,50.826787640000000,-0.171911307000000
Kangaroo and River dolphin,BN3 1GS,50.829105787349600,-0.161369520740451
Pitohui and B,BN3 1RE,50.831775360000000,-0.157387697000000
Macaw and Chicken,BN3 7BT,50.843121970000000,-0.177806998000000
Wader and Grackle,BN50 8HX,50.826334000000000,-0.140818000000000
Old World quail and Fulmarine petrel,BN3 8DA,50.851118030000000,-0.199885325000000
Wallaby and Vulture,BN1 7JA,50.841476400000000,-0.132319153000000
Kangaroo and Philippine hawk-owl,BN41 2HF,50.848317390000000,-0.222523690000000
Francolin and Zebra,BN41 1UY,50.828785320000000,-0.206168883000000
River dolphin and Eagle,BN3 7SB,50.843642590000000,-0.201508258000000
Linsang and Parakeet,BN42 4HE,50.837158440000000,-0.238059119000000
Logrunners and Linsang,BN2 6RD,50.830957380000000,-0.066279245000000
Marmoset and Dorcopsis,BN2 0EE,50.822936690000000,-0.119740983000000
Ibex and B,BN3 3DE,50.830135720000000,-0.172646744000000
Stint and Piping shrike,BN2 0AQ,50.821613440000000,-0.125814060000000
Egret and Civet,BN3 5PE,50.830646210000000,-0.182297409000000
Treepie and Francolin,BN2 6PG,50.838172150000000,-0.068026269000000
Vulture and Perching duck,BN1 1EG,50.821361490000000,-0.138162073000000
Grosbeak and Capuchin,BN2 1QA,50.821324730000000,-0.131362776000000
Triller and Mole,BN1 7FD,50.845509740000000,-0.122498566000000
Logrunners and White ibis,BN1 4QQ,50.836395040000000,-0.135689148000000
Solitaire and Viscacha,BN2 4JL,50.840215430000000,-0.098792202000000
Mink and Kestrel,BN1 4JX,50.832156000000000,-0.137671542000000
Guillemot and Fulmarine petrel,BN41 2EP,50.847523810000000,-0.216488040000000
Argus and Jackal,BN2 7FS,50.816515670000000,-0.063142137000000
Ice seal and Skunk,BN3 4JJ,50.829730110000000,-0.192216398000000
Thicketbird and Snipe,BN2 9NZ,50.826158090000000,-0.128798520000000
Ice seal and Mink,BN1 2FU,50.821685000000000,-0.148849097000000
Recurvebill and Kite,BN2 4RR,50.850887520000000,-0.103018168000000
Piping shrike and Vulture,BN6 9BS,50.904996380000000,-0.185320080000000
Pratincole and Scimitar babbler,BN43 5PQ,50.838865420000000,-0.282577908000000
Flameback and Cuscus,BN1 1NN,50.820220560000000,-0.138688000000000
Zebra and Moluccan boobook,BN42 4QD,50.841411760000000,-0.232671934000000
Badger and Quetzal,BN1 8QT,50.857052290000000,-0.154885505000000
Vulture and Chipmunk,BN1 6PY,50.850083700000000,-0.147588398000000
Fulmarine petrel and Thicketbird,BN1 4LS,50.832003420000000,-0.139456996000000
Jerboa and Minke whale,BN2 5QU,50.830753330000000,-0.104814367000000
Rat and Old World warbler,BN1 8NT,50.862072790000000,-0.140292412000000
Viscacha and Philippine hawk-owl,BN1 8LR,50.861203410000000,-0.136532947000000
Perching duck and Eagle,BN2 5RQ,50.812562470000000,-0.085719994000000
Parrotbill and Jackal,BN41 2RE,50.855927810000000,-0.233913508000000
Philippine hawk-owl and Old World vulture,BN3 7BX,50.839191040000000,-0.176657000000000
Triller and Fox,BN42 4NJ,50.835818300000000,-0.227955106000000
Rabbit and Bronzewing pigeon,BN1 2GR,50.821518370000000,-0.146319610000000
Quetzal and Fish eagle,BN1 3JL,50.830345830000000,-0.147759221000000
Magpie and Linsang,BN1 4GZ,50.829762460000000,-0.138793474000000
Prion and Ground sloth,BN2 9NW,50.826891890000000,-0.129692149000000
Linsang and Polecat,BN3 3BB,50.829575440000000,-0.169033352000000
Warbler and Viscacha,BN3 3JJ,50.829060750000000,-0.166611068000000
Logrunners and Capuchin,BN3 3ZU,50.834407670000000,-0.168063165000000
Warbler and Eagle,BN42 4AL,50.832088150000000,-0.232656000000000
Fulmarine petrel and Diving bird,BN1 9PX,50.864247670000000,-0.085692841000000
Kangaroo and Grosbeak,BN2 7BQ,50.817212800000000,-0.077181000000000
Herring gull and Eagle,BN43 9DT,50.833706790000000,-0.273067723000000
Moluccan boobook and Jackal,BN45 7FA,50.899365830000000,-0.163993402000000
Ground sloth and Badger,BN42 4NA,50.836908020000000,-0.232799460000000
Piping shrike and Grosbeak,BN1 8AL,50.860172089817800,-0.148481787982270
Treepie and Parrotlet,BN43 6NS,50.836089700000000,-0.260936389000000
Capuchin and Tit-tyrant,BN1 3PG,50.829654570000000,-0.142745462000000
Hawk and Scimitar babbler,BN1 9QD,50.887078470000000,-0.108643145000000
Grackle and Mink,BN3 2NF,50.826578600000000,-0.169477181000000
Jackal and Old World warbler,BN43 6NF,50.838359000000000,-0.249692674000000
Kestrel and Jerboa,BN2 7BB,50.818731000000000,-0.075161000000000
Cuscus and Mouse,BN2 4JB,50.841679670000000,-0.103661497000000
Partridge and Dorcopsis,BN1 5JX,50.857462090000000,-0.172928663000000
Hawk and Skunk,BN2 9DG,50.829431130000000,-0.114240132000000
Tree warbler and Lemming,BN42 4FW,50.836516430000000,-0.238424151000000
Vole and Elephant,BN1 3HB,50.826482220000000,-0.148551105000000
Jackal and Tahr,BN2 0BL,50.823913520000000,-0.123435983000000
Dorcopsis and Meadowlark,BN41 2EU,50.847907390000000,-0.216871173000000
Chickadee and Chickadee,BN3 7JN,50.839550710000000,-0.184096133000000
Elephant and Logrunners,BN2 4AW,50.837660750000000,-0.129361076000000
Kangaroo and Ground sloth,BN3 2JA,50.825425530000000,-0.163061725000000
Parakeet and Meadowlark,BN3 2BB,50.827506440000000,-0.167282544000000
Stint and Fish eagle,BN42 4DT,50.831760000000000,-0.234840000000000
Elephant and Dolphin,BN2 1JF,50.820072490000000,-0.127863400000000
Petrel and Vulture,BN2 5TA,50.816370390000000,-0.107994588000000
Elephant and River dolphin,BN3 4JD,50.831145080000000,-0.195629000000000
Kestrel and Condor,BN1 6PW,50.849274720000000,-0.140829832000000
Philippine hawk-owl and New World blackbird,BN3 3TQ,50.831883550000000,-0.168829431000000
Meadowlark and Philippine hawk-owl,BN3 7AQ,50.839202980000000,-0.179095909000000
Coati and Minke whale,BN2 1SA,50.821331700000000,-0.134045888000000
Kestrel and Jerboa,BN41 2FR,50.846356630000000,-0.210154368000000
Armadillo and Marsh harrier,BN2 1HJ,50.819496860000000,-0.120589014000000
Kākāriki and Parakeet,BN2 0GU,50.823603190000000,-0.129312418000000
Kākāriki and White ibis,BN3 5AD,50.834843390000000,-0.179237177000000
Goose and Black cockatoo,BN1 6LT,50.847025490000000,-0.136828029000000
Tree warbler and Petrel,BN3 1QD,50.830501860000000,-0.150791971000000
Macaw and Prion,BN1 8DJ,50.861758190000000,-0.128912000000000
Triller and Greenbul,BN2 3HQ,50.833736000000000,-0.127956000000000
Shearwater and Chicken,BN1 4HY,50.830489040000000,-0.136421476000000
Parrotlet and Parrotlet,BN50 8HE,50.826333849604900,-0.140818406894673
Darwin's finches and Boto,BN1 3BL,50.827096000000000,-0.153142000000000
Minke whale and Egret,BN2 5JH,50.817239890000000,-0.112814694000000
Hawaiian honeycreeper and Minke whale,BN1 8TD,50.863927200000000,-0.140403367000000
Dorcopsis and Shearwater,BN1 1HW,50.821454560000000,-0.140614600000000
Songlark and Old World vulture,BN3 1JR,50.831507590000000,-0.160366225000000
Ice seal and Coati,BN52 9YQ,50.834403000000000,-0.168035000000000
Mole and Wallaby,BN2 7FJ,50.813118000000000,-0.062616000000000
Hawk and Snipe,BN41 1LA,50.832693410000000,-0.214113726000000
Civet and White ibis,BN1 5GB,50.860382460000000,-0.161318921000000
Snipe and Boto,BN2 9YF,50.828319280000000,-0.116116733000000
Partridge and Piping shrike,BN3 4HQ,50.827720760000000,-0.189070688000000
Elephant and New World blackbird,BN43 5FT,50.842337000000000,-0.274055900000000
Parrotbill and Duck,BN42 4TS,50.839462200000000,-0.237560462000000
Francolin and Pheasant,BN1 4JA,50.830174470000000,-0.136434004000000
Wallaby and Night heron,BN42 4XZ,50.832071120000000,-0.207548227000000
Perching duck and Hawk,BN2 5JP,50.819152360000000,-0.109287677000000
Skunk and Grackle,BN3 5SD,50.834769680000000,-0.199406631000000
Dorcopsis and Badger,BN2 6DF,50.836164200000000,-0.084243150000000
Jerboa and Masked owl,BN2 3FQ,50.835487100000000,-0.129533199000000
Mockingbird and Ibex,BN3 6HP,50.835753980000000,-0.170183379000000
Fox and Zebra,BN3 2TS,50.826713580000000,-0.180405438000000
Minke whale and Condor,BN1 7BH,50.841934450000000,-0.124431794000000
Songlark and Cuscus,BN3 3PR,50.832184460000000,-0.166801104000000
Scimitar babbler and Marmoset,BN50 8NJ,50.826328000000000,-0.140790000000000
Bronzewing pigeon and White ibis,BN3 3YR,50.830838700000000,-0.174465377000000
Flameback and Old World quail,BN2 5UZ,50.813689970000000,-0.100777992000000
B and Flameback,BN1 2GB,50.822524010000000,-0.149616355000000
Greenbul and Magpie,BN3 5HE,50.834753520000000,-0.188486062000000
Old World vulture and Goose,BN1 8UP,50.866947290000000,-0.140297407000000
Old World quail and Pheasant,BN1 7HP,50.844889000000000,-0.132012421000000
Mouse and Masked owl,BN3 8AS,50.849474400000000,-0.204111031000000
Jerboa and Old World vulture,BN2 5EY,50.819753590000000,-0.109760302000000
Chipmunk and Old World warbler,BN1 4BL,50.833718340000000,-0.134773289000000
Boto and Ground sloth,BN3 2WH,50.824363150000000,-0.173298082000000
Masked owl and Old World vulture,BN2 4QA,50.852051050000000,-0.102672612000000
Meadowlark and Bronzewing pigeon,BN3 3DL,50.830689510000000,-0.171829884000000
Viscacha and Crow,BN3 5FG,50.836159750000000,-0.183489232000000
Fulmarine petrel and Viscacha,BN50 9WA,50.826332270000000,-0.140818402000000
Flameback and Greenbul,BN1 9RX,50.866292530000000,-0.083704729000000
Puffleg and Dorcopsis,BN3 5FF,50.833985980000000,-0.183658835000000
Black cockatoo and Condor,BN3 2PX,50.825998890000000,-0.170933973000000
Crow and Darwin's finches,BN2 3QH,50.837358620000000,-0.121192395000000
Thrasher and Hawk,BN2 6WL,50.826737640000000,-0.062378326000000
Egret and Black cockatoo,BN2 5QF,50.833350280000000,-0.104680777000000
Siskin and Marmoset,BN5 9YA,50.902730420000000,-0.270657492000000
Chipmunk and Treepie,BN43 6YT,50.836043000000000,-0.247531000000000
Guillemot and Mole,BN2 4PA,50.849465350000000,-0.110704709000000
Skunk and Triller,BN2 6LB,50.827551530000000,-0.067527567000000
Francolin and Marsh harrier,BN42 4AU,50.831410710000000,-0.233830715000000
Buzzard and Booted eagles,BN3 6WD,50.848115790000000,-0.179257000000000
Elephant and Elephant,BN3 4LB,50.830098090000000,-0.199146174000000
Guillemot and Parrotbill,BN2 6BA,50.835936280000000,-0.079679326000000
Viscacha and Hawk,BN1 9EZ,50.863610440000000,-0.113758000000000
Rabbit and Herring gull,BN1 3RJ,50.828404450000000,-0.143874272000000
Diving bird and Wader,BN41 2FQ,50.846049100000000,-0.211799736000000
B and Chickadee,BN2 3AJ,50.834609320000000,-0.125833199000000
Magpie and Skunk,BN1 8DQ,50.860315040000000,-0.135531056000000
Buzzard and Jerboa,BN42 4FU,50.836964570000000,-0.238918565000000
Hawk and Grackle,BN1 5FE,50.855180010000000,-0.165047125000000
B and Eagle,BN3 5RF,50.831822810000000,-0.192124000000000
Fish eagle and Songlark,BN3 2DF,50.827263440000000,-0.179333293000000
Ice seal and Snipe,BN1 3RE,50.827974280000000,-0.145666312000000
Elephant and Darwin's finches,BN3 6EN,50.833606490000000,-0.153751005000000
Logrunners and Kite,BN52 9FL,50.834403000000000,-0.168035000000000
Rabbit and Masked owl,BN2 5ND,50.819354070000000,-0.103983946000000
Skunk and Skunk,BN3 8BJ,50.852185840000000,-0.196235614000000
Zebra and Linsang,BN1 5DG,50.834380920000000,-0.148139153000000
Petrel and Old World warbler,BN1 7EE,50.840658990000000,-0.127891826000000
Myna and Quetzal,BN43 5FB,50.881983630000000,-0.263096000000000
Diving bird and Vulture,BN3 2TQ,50.825924320000000,-0.179967551000000
Black cockatoo and Ice seal,BN3 1HG,50.824751400000000,-0.160802172000000
Stilt and Vole,BN3 8LD,50.845023030000000,-0.195389676000000
Mouse and Pitohui,BN41 2RT,50.855087930000000,-0.235465480000000
Prion and Asiatic leopard,BN43 5GG,50.840859410000000,-0.272050903000000
Wader and Meadowlark,BN1 8LH,50.862092510000000,-0.133641248000000
Tahr and Prion,BN2 5FB,50.818787160000000,-0.106179064000000
Prion and Pheasant,BN3 1EB,50.825387880000000,-0.158391725000000
Lemming and Solitaire,BN1 8RE,50.867129330000000,-0.138741084000000
