name,postcode,lat,lon
Masked owl and Tit-tyrant,L39 3BN,53.564969799567500,-2.888985053360020
Coati and Fulmarine petrel,L39 5ER,53.548550267545500,-2.913664856286070
Chicken and Masked owl,L37 7AE,53.568748738502900,-3.048326049175790
Dorcopsis and Recurvebill,PR8 2HF,53.629434418596200,-3.022005717986920
Polecat and Cuscus,L31 8EP,53.516211065686900,-2.948018070861370
Moluccan boobook and Tree warbler,PR8 2TD,53.597304345891000,-3.052599165232710
Kangaroo and Gull,PR8 1AU,53.642593468512900,-3.009330149403440
Tree warbler and Linsang,L37 0AQ,53.571922655635400,-3.036882191110580
Prion and Eagle,L31 2HJ,53.513570000000000,-2.944614387823230
Diving bird and Wallaby,PR8 6LU,53.636299992788700,-2.995552828429240
Bunting and Puffleg,PR9 9UG,53.669537495484200,-2.967320270985940
Puffleg and Hawk,PR8 2NJ,53.624601926914100,-3.024761764034440
Flameback and Quetzal,PR26 9AX,53.680342000000000,-2.816583409786360
Partridge and Towhee,L40 7AF,53.576105000000000,-2.874401000000000
Armadillo and Night heron,PR9 0JX,53.658125745229400,-2.991043328021980
Marmoset and Mouse,PR8 1NF,53.640951579570600,-3.012288000000000
Fulmarine petrel and Guillemot,PR8 6HY,53.640436385758400,-2.981205108817180
Thrasher and Vulture,L40 5TW,53.602282262609000,-2.844205852817180
Warbler and Mole,L39 1RN,53.574771366994700,-2.890867060551500
Pratincole and Peafowl,PR9 8BU,53.669990597591500,-2.921270772020220
Piping shrike and Elephant,L39 3PA,53.564776298957000,-2.898040202673580
River dolphin and Black jay,PR8 2RL,53.602189806129900,-3.053098469385220
Ice seal and Masked owl,PR8 6PY,53.640873121609700,-2.998234000000000
White ibis and Coati,PR4 6LE,53.667987171633100,-2.875623604617300
Kangaroo and Prion,PR8 3AY,53.616468804772700,-3.021420331248090
Grackle and Duck,PR9 0NU,53.655303194178900,-2.999707775934130
Old World quail and Songlark,L39 4TY,53.563146203125200,-2.885202476811460
Lemming and Diving bird,PR9 9UU,53.674632828516300,-2.957400520484840
Tree warbler and Jackal,L39 0HL,53.514405484883800,-2.828100792490660
Jay and Night heron,PR8 6NH,53.635335648569900,-2.987181673527270
Mockingbird and Stilt,PR9 0PN,53.649890434296700,-2.997749060869720
Piping shrike and Armadillo,PR9 8RF,53.675955506489100,-2.921718866758040
Jay and Hawaiian honeycreeper,L39 5RJ,53.555635912637500,-2.892654121847830
Asiatic leopard and Marmoset,PR9 8HG,53.682468416501300,-2.918696693469040
Tattler and Flameback,L31 2NA,53.524184000000000,-2.943513108767150
Egret and Lemming,PR9 9JQ,53.652334403807500,-2.988108400749470
Condor and Peafowl,L37 1QN,53.564829000000000,-3.079617000000000
Hawaiian honeycreeper and Kangaroo,L37 2DP,53.548737078008400,-3.080930659886920
Magpie and Marmoset,L39 3AZ,53.572866557263000,-2.894375875466590
Peafowl and Ice seal,L40 8AB,53.588984000000000,-2.865015000000000
Herring gull and Kite,PR8 2AB,53.638859789468000,-3.010798890805830
Peafowl and Elephant,PR8 2PX,53.603548039822100,-3.047873041906790
Vulture and Puffleg,L39 3NQ,53.569219449450900,-2.896473334102900
Crow and Kestrel,PR4 6SJ,53.708352946096500,-2.844510416358980
Mamo and Maya,PR8 5JF,53.629628631924800,-2.966165034148950
Piping shrike and Parrotbill,L38 6JL,53.520400000000000,-3.016000000000000
Black cockatoo and River dolphin,L37 2EN,53.549837000000000,-3.071664652096260
Gull and Gull,L37 2EH,53.545891185961000,-3.088464600565140
Jay and Mamo,PR8 1AD,53.646775473431000,-3.003711617569590
Logrunners and American sparrow,L39 1PX,53.570157737308600,-2.886195000000000
Parrotlet and Chickadee,PR4 6EN,53.699698421800000,-2.840005454500000
Ground sloth and Badger,L40 1SH,53.632471055187900,-2.816226542769940
Ground sloth and Snipe,PR9 8GY,53.677587277293800,-2.917576128813290
Old World warbler and Maya,PR8 9SU,53.647560318306300,-3.005515410542070
Condor and Perching duck,L31 6BW,53.514813310482100,-2.939481193178230
Treepie and Wader,PR9 8AN,53.629339730408000,-2.907487000000000
Ground sloth and Mink,L31 7BY,53.514362940916100,-2.947569624510140
Magpie and Darwin's finches,PR9 9LH,53.659613712710600,-2.985010039021160
Parrotlet and American sparrow,PR9 0QX,53.649390029553900,-2.996315114978570
Chicken and Recurvebill,L31 2LU,53.524705851776100,-2.944557351757150
Magpie and Old World quail,L39 2HH,53.566626868581600,-2.877604722479200
Partridge and Myna,PR9 0DS,53.650845417543100,-3.006077740769250
Old World vulture and Scimitar babbler,L29 8YB,53.515489878098400,-2.991481201927170
Mamo and Coati,PR9 0JU,53.656586000000000,-2.991491000000000
Capuchin and Puffleg,PR8 4TH,53.622841752045600,-3.023524667129450
Black cockatoo and Eagle,PR8 6DS,53.641131451565200,-2.978649817223820
Marmoset and American sparrow,PR8 6NX,53.638380131861700,-2.991850801627330
Myna and Snipe,L31 9DG,53.517676770793400,-2.925005533278200
Jackal and Marsh harrier,L40 4BF,53.597446047486200,-2.830933613630480
Shearwater and Ground sloth,L39 4QT,53.562461551354600,-2.880538042204250
Pheasant and B,L37 1NB,53.561773433192600,-3.078651151904980
Stilt and Condor,PR9 7RW,53.644793161846700,-2.969401040692890
Triller and Puffleg,PR8 6JG,53.640833000000000,-2.989897000000000
Boto and Condor,PR9 0SH,53.644587619725500,-2.987942377379910
Rat and Tree warbler,PR9 8SL,53.675634000000000,-2.915382000000000
Parakeet and B,L40 8HQ,53.598365117076100,-2.925377671035240
B and Logrunners,PR4 6AG,53.698198232947400,-2.840369014345550
Chicken and Condor,L40 0AA,53.608954159600000,-2.844656730300000
Kangaroo and Chickadee,PR9 0BW,53.652246000000000,-2.999724000000000
Nukupuʻu and Kite,L40 0SW,53.605506248658800,-2.844134514361750
Pratincole and Vole,PR9 8BA,53.676721338303400,-2.929622868153970
Badger and Minke whale,L40 4AS,53.615800000000000,-2.825202000000000
Peafowl and Polecat,L40 7SU,53.589766224736600,-2.857522000000000
Jerboa and Lemming,PR8 5JH,53.631509000000000,-2.971667000000000
Old World warbler and Greenbul,PR8 4QD,53.620232000000000,-3.021957345832890
Perching duck and Night heron,PR8 6NB,53.635496279615800,-2.986232610041380
Herring gull and Jay,PR8 2NR,53.627587310887300,-3.026724271976810
Elephant and Jay,L37 4AL,53.553309733673800,-3.069574000000000
Boto and Night heron,PR4 6EP,53.694683546500000,-2.845024615200000
Macaw and Ice seal,L40 6JP,53.553049768579300,-2.863376374622360
Chickadee and Linsang,PR8 2TN,53.637341225036200,-3.019217307083170
Treepie and Masked owl,L39 5BU,53.552199278522000,-2.891087070347850
Fox and Duck,PR8 2SD,53.600534721618200,-3.054251109439650
Fish eagle and Prion,PR8 2TQ,53.598351000000000,-3.048167000000000
Perching duck and Dolphin,L40 7AT,53.596900000000000,-2.850051000000000
Partridge and Jackal,PR8 3EL,53.610701505011100,-3.019966072664060
Polecat and Grosbeak,L40 8HA,53.584097153324900,-2.912905881810630
Fish eagle and Wallaby,PR8 3EF,53.611537331530000,-3.016811962595010
Booted eagles and Towhee,L37 6AX,53.547520494786600,-3.055982000000000
Peafowl and Tit-tyrant,PR4 6LL,53.679447245672600,-2.853242748590590
Grackle and Cuscus,L39 3BT,53.565534000000000,-2.890658000000000
Maya and Grouse,L40 9QD,53.607323035211400,-2.908268160243080
Capuchin and Rabbit,PR8 4JU,53.623595000000000,-3.002617000000000
Jay and Ground sloth,PR9 7FL,53.640415000000000,-2.969603000000000
Grackle and Old World vulture,PR9 7DR,53.650903471944000,-2.975169427077350
Goose and Songlark,L37 7DZ,53.571524733872600,-3.064160000000000
Dolphin and Philippine hawk-owl,PR9 8NN,53.666781634404700,-2.965758747736170
Snipe and Polecat,PR8 3PY,53.598079323215300,-3.044171522058480
Gull and Mole,L40 7UR,53.589838236648900,-2.862388956959380
Pitohui and Elephant,L37 7HE,53.569576486575900,-3.054371665809760
Dorcopsis and Parakeet,L39 0HD,53.539344000000000,-2.832858000000000
Polecat and Chipmunk,PR9 7SR,53.645605481267800,-2.967876657107140
Peafowl and Egret,PR8 1ES,53.644512933884300,-3.004474750865480
New World blackbird and Chickadee,PR4 6TA,53.707080073298200,-2.851635497676440
Pitohui and Darwin's finches,L40 1UE,53.639736508440000,-2.845604183542810
Moluccan boobook and Pitohui,L39 6SJ,53.537221165305200,-2.916453718985780
Kangaroo and Kite,PR9 9RE,53.676558507712800,-2.951494687718000
Philippine hawk-owl and Wader,PR8 2NN,53.625617000000000,-3.026936160263540
Macaw and Parrotbill,PR9 9FS,53.674737920711100,-2.959991512358990
Petrel and Old World vulture,L40 1SQ,53.650240364411300,-2.824225134955510
Eagle and Rabbit,L40 7SY,53.591611630431400,-2.851985309398850
Parrotlet and Ice seal,L39 4AE,53.565566506749900,-2.874653940185530
Grackle and Peafowl,L31 2HH,53.520695272455100,-2.947032230873510
Pitohui and Civet,PR8 1DA,53.647560318306300,-3.005515410542070
Polecat and Pratincole,PR9 9LX,53.659317922430800,-2.987091435202380
Bronzewing pigeon and Bunting,PR4 6XQ,53.704622261365400,-2.864734890155160
Mockingbird and Moluccan boobook,L37 4BJ,53.554233324850100,-3.058247000000000
Cuscus and Fulmarine petrel,PR9 7AP,53.647010595929300,-2.965291674889730
Mink and Mink,PR8 4EB,53.630112004511400,-3.009954615052070
Zebra and Elephant,PR9 8AD,53.637763000000000,-2.933530000000000
Jerboa and Guillemot,L39 2SW,53.567802197958200,-2.880347016358190
Grouse and Pheasant,PR4 6RP,53.695078179967000,-2.835596000000000
Rabbit and White ibis,PR8 5AS,53.634074822700000,-3.004378343200000
Old World quail and Mink,PR8 1QW,53.646735793561600,-3.010563701107080
Greenbul and Black jay,PR9 7BZ,53.650169055313300,-2.963745005249550
Herring gull and B,PR9 8AU,53.676197591257200,-2.932245440127120
Greenbul and Tattler,PR8 4SW,53.631787937801700,-3.014788562484340
Jerboa and Capuchin,L40 6JG,53.565154658634000,-2.822977104562420
Partridge and Moluccan boobook,PR8 3ND,53.602131987204900,-3.034085000000000
Macaw and Bronzewing pigeon,L39 5AU,53.556151764183200,-2.904590146129190
White ibis and Old World vulture,L39 4QW,53.562544555712700,-2.879393000000000
Duck and Argus,L37 3PH,53.555598521968600,-3.069602703092400
Ibex and Puffleg,PR9 0JJ,53.658045052432300,-2.999666746772520
Cuscus and Coati,PR8 1BW,53.643467079106500,-3.001636285050780
Jay and Mink,L39 7HX,53.554419203638800,-2.972994130279120
Cuscus and Argus,L31 2LR,53.523930782868500,-2.948220651987190
Marsh harrier and Skunk,L31 2HF,53.515364785908300,-2.945917973017910
Thrasher and Towhee,L39 5EA,53.553842765669900,-2.906820196820930
Chipmunk and Parrotlet,L40 9RJ,53.622471752537900,-2.919645667246980
Warbler and Pitohui,L37 3PT,53.556830787158200,-3.069513024141400
Warbler and Thrasher,PR4 6EH,53.690253982333600,-2.831139812476060
Diving bird and Francolin,PR8 2ES,53.631604000000000,-3.023873000000000
Ibex and Coati,L38 3RL,53.525293278213600,-3.053859575060740
Solitaire and Civet,L31 4EL,53.524267021940000,-2.951154525326670
Crow and Tattler,L40 6HH,53.557882251505900,-2.858855359548930
Mink and Prion,L39 6SD,53.538542887438000,-2.918745678099880
Cuscus and Jay,L37 5AD,53.539042173643900,-3.030600785036910
Darwin's finches and Nukupuʻu,PR8 5LL,53.623285487320500,-2.950099134977680
Magpie and Buzzard,PR9 9HW,53.650823785858200,-2.994684676603440
Old World quail and Fulmarine petrel,L39 2EJ,53.567335000000000,-2.878901000000000
Darwin's finches and Gull,PR8 1EH,53.645505862943500,-3.005862000000000
Masked owl and Grouse,PR8 4JD,53.623487237491400,-2.992982000000000
Herring gull and B,L40 1SB,53.633652000000000,-2.815932000000000
Myna and Snipe,PR9 7LE,53.659438864157700,-2.965651367285790
Dolphin and Fox,L37 2EL,53.548347260531100,-3.078309621048380
Stint and Ice seal,PR9 0RD,53.647936058460100,-2.990637898225250
Wallaby and Partridge,L37 6ES,53.549272435173700,-3.068371503038830
Perching duck and Stilt,PR4 6TS,53.707754226308200,-2.843515000000000
Meadowlark and Prion,L37 3RL,53.556743173938500,-3.067246406159140
Solitaire and Gull,L39 5QF,53.550617000000000,-2.900880000000000
Grosbeak and American sparrow,L39 7LP,53.564214662117100,-2.972162093844740
Polecat and Old World quail,L40 9QT,53.613640116858500,-2.923776890322460
Black jay and Mouse,L40 0RW,53.611108696520100,-2.850594286790460
Chickadee and Pheasant,PR8 4JS,53.624003648095600,-3.009491211967570
Snipe and Lemming,L40 7AQ,53.578527000000000,-2.873862000000000
Tit-tyrant and Myna,PR8 3SP,53.587642680055400,-3.041164680095470
Jackal and Meadowlark,PR9 9NG,53.657949486464400,-2.980794774515340
Night heron and Gull,PR8 5NA,53.636994820490800,-3.009181333609070
Gull and Pitohui,L39 3LR,53.557701533011400,-2.907657547000930
Elephant and Siskin,L40 5BU,53.596610000000000,-2.832563000000000
Dorcopsis and Fish eagle,PR9 8GR,53.681932405738900,-2.920607879290780
Prion and Grosbeak,PR8 2HH,53.630466467026200,-3.020292000000000
Mole and Moluccan boobook,PR9 0SS,53.646886358485300,-2.993654041610630
Linsang and Hawk,L39 4YJ,53.561194100631300,-2.896273395969230
Kākāriki and Quetzal,PR8 1FD,53.646752000000000,-3.005342000000000
American sparrow and Parakeet,L37 1NU,53.562090935047300,-3.081316474926530
Badger and Pratincole,L38 3RJ,53.525354243877100,-3.053061591005060
Warbler and Kākāriki,PR8 2SY,53.598006984134000,-3.053447727864260
Prion and Argus,L39 7HY,53.563570296490100,-2.971815150109920
Old World warbler and Jerboa,L40 5BX,53.595487000000000,-2.832541000000000
Pratincole and Moluccan boobook,PR9 9AH,53.650524790696000,-2.981908403578280
Stint and Civet,L37 4BA,53.552554441046100,-3.069254209520730
Pheasant and Petrel,L40 9RE,53.615162550979700,-2.940650142027820
Chipmunk and Duck,PR8 1AF,53.646330143380500,-3.005365113228070
Skunk and Old World warbler,L40 9QJ,53.613102000000000,-2.924855835236020
River dolphin and Crow,L37 7DL,53.566553825945900,-3.059732292403330
Macaw and Herring gull,L40 7RF,53.594767010392100,-2.846866313672070
Tahr and Quetzal,PR4 6WB,53.676132010561000,-2.830013954298400
Marmoset and Fox,L40 1UN,53.633441371889800,-2.818922066133120
New World blackbird and Stilt,L40 0TW,53.609465398029000,-2.842747021530270
Zebra and Petrel,PR9 0DA,53.650277000000000,-3.004309000000000
Mamo and Buzzard,PR8 4QE,53.619693889102400,-3.017416234044830
Macaw and Jay,PR8 3RN,53.593167205306600,-3.037432631510010
Stint and Philippine hawk-owl,PR8 2NF,53.630521535881700,-3.026266244308470
Jerboa and Cuscus,L39 7HE,53.561983401435000,-2.922499701991350
Minke whale and Partridge,L37 3JA,53.556232588695300,-3.069060152915240
Partridge and Chicken,PR8 4AQ,53.633699236371500,-3.011991235669410
Macaw and Grouse,L39 8YX,53.571179000000000,-2.879404000000000
Eagle and Thicketbird,L31 1LH,53.519040264758000,-2.916031022705750
Snipe and River dolphin,PR8 1HA,53.643318149544200,-3.008666748252180
White ibis and Skunk,PR8 1AG,53.645856916697700,-3.003916715451930
Goose and Moluccan boobook,L39 2DZ,53.571556863260600,-2.873342621504750
Logrunners and Diving bird,PR8 6PL,53.640302000000000,-2.983573550643340
Egret and Kangaroo,L40 1WJ,53.571179000000000,-2.879404000000000
Parakeet and American sparrow,L39 5AX,53.555394831701100,-2.902460646336340
Dorcopsis and Warbler,L31 2HZ,53.524029170919000,-2.949414505966410
Francolin and Flameback,PR8 6DU,53.638844000000000,-2.972409000000000
Ibex and Dorcopsis,L31 0AT,53.519543719782700,-2.943748687906820
Guillemot and Prion,PR8 6AZ,53.646771621650700,-2.979219157498400
River dolphin and Argus,PR9 0UE,53.647971225512000,-3.003679508278170
Egret and Old World warbler,PR8 3LL,53.602890300655400,-3.036703755972090
River dolphin and Perching duck,PR8 2EG,53.634615105799900,-3.020573213563560
Egret and Polecat,L31 7DE,53.513677406405600,-2.947871017947470
Towhee and Old World vulture,PR9 8EB,53.688168000000000,-2.899801000000000
Dorcopsis and Duck,L40 9RU,53.605288941031400,-2.934294707344640
Guillemot and Skunk,PR8 1SN,53.649829610702300,-3.007157983205120
Flameback and Treepie,PR4 6EB,53.690153908046500,-2.830017226842300
Tahr and Francolin,PR8 1RF,53.646082311872300,-3.010245515448860
Skunk and Petrel,L39 7JH,53.564732782882100,-2.968127510547800
Dorcopsis and Jerboa,PR8 1NB,53.642092224394700,-3.011358000000000
Stilt and Puffleg,PR8 1HY,53.641867818799900,-3.006907728973600
Zebra and Jay,PR8 2QA,53.606770285943200,-3.056582849609760
Boto and Diving bird,PR4 6RL,53.695754723878000,-2.838896655481040
Nukupuʻu and Chipmunk,PR8 2LQ,53.632318966619500,-3.029440329455320
Asiatic leopard and Goose,PR9 9LJ,53.658593094542200,-2.985606661228930
Parrotbill and Bunting,PR4 6EX,53.681281000000000,-2.826406000000000
Tahr and Masked owl,PR9 9NU,53.671796329619400,-2.973638755274820
Quetzal and Greenbul,L37 1PW,53.559432723804300,-3.083030115732330
Perching duck and Hawaiian honeycreeper,PR9 8LQ,53.669195163571300,-2.947181453221520
Crow and Ice seal,PR8 2JE,53.633640024875500,-3.031559532983730
Shearwater and Night heron,L39 1NG,53.570986575811700,-2.886106208189250
Ground sloth and Buzzard,L37 2JR,53.553527022338700,-3.078063976506350
Solitaire and Tit-tyrant,L31 4HB,53.527929497088100,-2.959275000000000
Moluccan boobook and Bronzewing pigeon,L37 9BB,53.549047000000000,-2.989187000000000
Egret and Chickadee,PR8 4LP,53.621481086691900,-3.010171835182350
Partridge and Fox,PR8 5NY,53.632383340607600,-2.974515340787300
Gull and Hawk,PR9 8DJ,53.663373000000000,-2.900408000000000
Coati and Philippine hawk-owl,PR9 9HA,53.653778123033300,-2.993952317495320
B and Parrotbill,L31 6DN,53.514019129859600,-2.935301352551790
Elephant and Macaw,L40 0RY,53.610448466527300,-2.866194734859580
Dorcopsis and Chickadee,L31 3WD,53.513016000000000,-2.944131000000000
River dolphin and Ground sloth,L37 3PA,53.563488420922700,-3.060772930576940
Lemming and Thicketbird,PR8 2DT,53.634874520575900,-3.015437362870470
Warbler and Mole,L37 4DU,53.556589807598700,-3.061249436957900
Recurvebill and Guillemot,L39 3LN,53.558858814022500,-2.905583900409990
Fish eagle and Vulture,L37 4HR,53.554423546694600,-3.066297397136800
Old World warbler and Bunting,PR9 0BG,53.652415397649500,-3.000002560424940
Masked owl and Polecat,L37 3JJ,53.562245735861300,-3.072110630128680
Dolphin and Chipmunk,PR9 8BP,53.672863832406800,-2.916989060305390
Crow and Armadillo,L40 5TR,53.572965310583000,-2.865065790768870
Scimitar babbler and Zebra,PR8 2BZ,53.642055000000000,-3.020980000000000
Parrotbill and Goose,PR9 9EA,53.651767000000000,-2.981862000000000
Black jay and Chicken,PR8 1DL,53.646753629109700,-3.006313131257390
Stint and Asiatic leopard,PR8 6HG,53.644521432030800,-2.975188545135220
Cloud rat and Triller,L37 3LX,53.561854444153400,-3.054587000000000
Mole and Mink,L38 9GF,53.517421893630800,-3.058626170254960
Badger and Mockingbird,PR9 9PJ,53.672456431507000,-2.974259470272840
Darwin's finches and Boto,PR8 3EQ,53.614484357397500,-3.014842057285810
Scimitar babbler and Maya,L40 7RQ,53.592879877299600,-2.841706735980330
Rat and Chicken,L37 4DA,53.551689050140000,-3.060447535108790
Vulture and Perching duck,PR9 8DY,53.692534113550000,-2.899939986699610
Bronzewing pigeon and White ibis,PR8 3HF,53.604972833000400,-3.027656626957170
Linsang and Linsang,L40 0RE,53.611207281511100,-2.841738770093890
Magpie and Boto,PR9 8JH,53.674959612456800,-2.947961738296300
Gull and Hawk,L31 2JX,53.527161487206400,-2.944340467753500
Fish eagle and Hawaiian honeycreeper,L37 3PD,53.554261655188000,-3.069327454198100
Vulture and Black jay,PR9 9PQ,53.657807221446900,-2.976206469357610
Tahr and Snipe,PR8 3DL,53.610966000000000,-2.996151000000000
Kite and Wader,L40 6HU,53.564729202097300,-2.847851328381130
Flameback and American sparrow,L39 6TQ,53.541814623199100,-2.917594208177880
Ice seal and Treepie,PR9 0PE,53.649798222510700,-3.001256852725950
Chicken and B,L31 1AN,53.515236000000000,-2.901034000000000
Warbler and Minke whale,PR9 7LT,53.661754228326200,-2.964993038653410
Cuscus and Elephant,L39 5BB,53.556797700551200,-2.904754887471960
Jerboa and Dorcopsis,PR8 3DB,53.616815767489900,-3.013386249021740
Grosbeak and Black jay,L40 5SD,53.600130000000000,-2.839805343653080
Asiatic leopard and American sparrow,PR4 6UQ,53.677514039869200,-2.832917523577330
Booted eagles and Mink,PR8 2BH,53.643097000000000,-3.014630706456700
Philippine hawk-owl and Ground sloth,L37 1ND,53.562995894675300,-3.077655578355050
Peafowl and Hawaiian honeycreeper,L40 6HS,53.562275854879600,-2.845235636849530
Scimitar babbler and Pheasant,PR9 9AJ,53.647363000000000,-2.985103000000000
Ice seal and Songlark,L40 8HF,53.588577304158900,-2.915524000000000
Recurvebill and Thrasher,PR8 3TP,53.596022302097000,-3.046069976510790
Philippine hawk-owl and Piping shrike,L37 1PB,53.562636054660600,-3.083655500018470
Wallaby and Booted eagles,L37 3LJ,53.564731249483700,-3.047245246733530
Guillemot and Hawaiian honeycreeper,L38 0BL,53.526145602673800,-3.060141076381850
Marsh harrier and Grouse,L40 5SS,53.598337022051400,-2.842827656465030
Armadillo and Greenbul,L37 5AE,53.549670042820000,-3.019750266726470
Duck and Viscacha,L31 4JF,53.533765131670400,-2.942450595526620
Chicken and Boto,PR8 6JZ,53.638548877145300,-2.979118000000000
Pitohui and Parrotbill,L40 5XD,53.593054290478000,-2.825710099721210
Crow and Badger,PR9 7NZ,53.664534470642200,-2.952298271861640
Parrotbill and Francolin,PR9 9LR,53.656753594412300,-2.983036752418360
Philippine hawk-owl and Chicken,L37 2LT,53.550584235112400,-3.085400252711000
Marsh harrier and Marmoset,L31 0AE,53.516611524706300,-2.943985140124860
Kestrel and Grackle,L39 8SU,53.583412708596100,-3.013523371908580
Buzzard and B,L37 2XE,53.556497000000000,-3.063494000000000
Flameback and Ground sloth,PR9 0BS,53.651237755546700,-3.002168491366450
White ibis and Quetzal,L39 5DQ,53.550194360577100,-2.907874185839830
Tree warbler and Moluccan boobook,L37 4AR,53.554745336526700,-3.059903000000000
Towhee and Piping shrike,L31 2LT,53.524192195915400,-2.945858255532070
Condor and Stilt,L39 3PL,53.572987801095200,-2.896040000000000
Snipe and Bunting,PR8 2TP,53.637024781116300,-3.018377822036080
Bronzewing pigeon and Siskin,L38 9GE,53.518401459518300,-3.058545000000000
Logrunners and B,PR8 3QH,53.592198494075400,-3.042364531629810
Grackle and Night heron,L39 4AG,53.565032504046600,-2.875156276969520
Old World quail and Mouse,PR8 2DX,53.633486063490700,-3.015933329964360
Boto and Tree warbler,PR8 9RN,53.627005000000000,-2.985821000000000
Bronzewing pigeon and Condor,PR9 8GS,53.676375803000000,-2.914537589300000
Old World quail and Fish eagle,L31 7BU,53.515025336423600,-2.947237000000000
Fox and Parrotbill,L39 7JJ,53.565446227025200,-2.966603708930520
Perching duck and Tree warbler,L40 7TS,53.594749000000000,-2.844486955911270
Logrunners and Stilt,PR8 1LY,53.640037000000000,-3.010903000000000
Old World quail and Mamo,PR8 4PB,53.622096533275200,-3.012862648689200
Linsang and Wallaby,PR9 8EJ,53.682197000000000,-2.909682000000000
Chicken and Shearwater,PR8 5LH,53.626996938081300,-2.985762187745180
Pratincole and Black jay,PR4 6RN,53.695894000000000,-2.835832177307950
Marmoset and Cloud rat,PR9 7QS,53.653675889148600,-2.957984629023520
Diving bird and Pitohui,PR9 9RP,53.662354717000700,-2.974086941653140
Tree warbler and Ice seal,WN8 8BU,53.542607001115400,-2.818359425176610
Cuscus and Minke whale,L39 1PN,53.577366736062200,-2.879035456273550
Night heron and Kangaroo,L39 4SW,53.558047033318300,-2.897610812093510
Old World quail and Darwin's finches,PR8 2DG,53.633847973588400,-3.015654680907930
Stint and Viscacha,L39 5AT,53.556557256298900,-2.902077805523720
Scimitar babbler and Herring gull,L40 5UN,53.578972168013900,-2.825284531318430
Quetzal and Goose,L31 9DN,53.519423401618400,-2.928120439111580
Buzzard and Siskin,PR8 6DP,53.641011357070900,-2.980144510957300
Parakeet and Mole,PR9 9EF,53.652737111771500,-2.980673756361650
Asiatic leopard and Prion,L31 9BU,53.518422613237100,-2.935428528162300
Elephant and Kestrel,PR4 6JL,53.665918000000000,-2.868588000000000
Wader and Cloud rat,L37 4EP,53.553306212292000,-3.049332917698260
Elephant and Gull,PR9 9RS,53.664340320215700,-2.974193281827770
Kestrel and Egret,L40 9RR,53.611040866154300,-2.938986519394560
Grosbeak and Thrasher,L40 5TF,53.592070990921500,-2.817064068331340
Viscacha and Perching duck,PR8 3RX,53.590665000000000,-3.034818000000000
Egret and Viscacha,L37 2JT,53.554454560521500,-3.077876227655460
Philippine hawk-owl and Maya,PR9 7SX,53.643369087413300,-2.967659040944040
Jerboa and Prion,PR9 9WZ,53.626996938081300,-2.985762187745180
Linsang and Macaw,L39 4TG,53.562756774892700,-2.892983000000000
Pratincole and Chicken,L40 5UR,53.591401743812300,-2.821598686831990
Goose and Viscacha,L39 4SS,53.558272000000000,-2.900270388852840
Skunk and Recurvebill,PR8 6AB,53.644216276871100,-2.986254000000000
Civet and Flameback,L39 1NY,53.575729924906000,-2.886462162553140
Eagle and Cloud rat,PR9 9EE,53.654515079401200,-2.979792050647360
Jackal and Snipe,PR9 0LY,53.654066491964000,-2.997106288557260
Hawk and Kite,PR8 1JX,53.645632470406400,-3.008162265801050
Kite and Fish eagle,L31 2NF,53.522339220329900,-2.940326518278020
Badger and Booted eagles,PR8 1QN,53.647005982755300,-3.009435548497770
Kākāriki and Grosbeak,L31 4DR,53.533411716609300,-2.955267195194170
White ibis and Chicken,L38 9EA,53.520327581482300,-3.058366802043150
Mockingbird and Maya,L40 8HL,53.597337875049400,-2.902175992340040
Tahr and Buzzard,PR9 9TJ,53.663576876289500,-2.967471274008220
Duck and Crow,L40 8WE,53.571163000000000,-2.879393243552660
Fish eagle and Tattler,PR8 4DH,53.627134776803100,-3.012317999041980
Songlark and Marmoset,L38 9EL,53.522383000000000,-3.061842000000000
Pheasant and Parrotlet,L37 3JS,53.558121393744800,-3.053739515208710
Guillemot and Piping shrike,PR8 6HN,53.643890260998000,-2.974326866148840
Chipmunk and Mink,PR8 1LL,53.645047691842200,-3.008223951705080
Elephant and Stilt,L31 9PQ,53.517067960122300,-2.927013223378520
Jerboa and Eagle,L39 9ER,53.528398985614300,-2.884809411480870
Fulmarine petrel and Meadowlark,PR9 9FU,53.675122170202200,-2.961392965737540
Piping shrike and Vulture,PR9 9TL,53.662683078365400,-2.966845447257620
Maya and Kestrel,PR9 9PD,53.660516004634400,-2.981308366334050
Hawk and Prion,L37 7DA,53.569632768989700,-3.069292491611100
Peafowl and Elephant,PR8 6XU,53.628352895920200,-2.973847831024790
White ibis and Tree warbler,PR9 8NA,53.671359025368600,-2.952013242181930
Kestrel and Diving bird,L31 2HE,53.514263183219400,-2.945410846563490
Peafowl and Ice seal,L37 8BQ,53.557018000000000,-3.056607171602930
Fulmarine petrel and Tahr,PR8 4SB,53.623932319556500,-3.014736129321560
Booted eagles and Fish eagle,PR8 6QW,53.638829877313300,-2.996141799997730
Armadillo and Badger,PR8 6JD,53.642421782506700,-2.988980855527200
Wallaby and Towhee,L39 5RD,53.554944083983900,-2.891854232720220
Maya and Quetzal,PR8 1BH,53.646698503985600,-3.004195000000000
Vole and Parrotbill,L39 4RQ,53.560892000000000,-2.883884017033980
Civet and Minke whale,L40 1XB,53.642115598152700,-2.825412899523560
Puffleg and Towhee,L37 4EX,53.551767877123300,-3.049475978819620
White ibis and Siskin,L39 3RD,53.568876872820500,-2.888176109988940
Minke whale and Egret,PR8 5NP,53.631912069832500,-2.976092366060620
Mouse and Parrotbill,PR9 0LP,53.653127325980800,-2.997628814428930
Buzzard and Jerboa,PR8 1DQ,53.643818573847100,-3.002719000000000
Philippine hawk-owl and Argus,L40 7TB,53.591071425631900,-2.852110411192780
Fulmarine petrel and Logrunners,PR9 0UH,53.648668534735000,-3.003180000000000
Ground sloth and Prion,L31 9BN,53.517454303495500,-2.930505576285920
Polecat and Siskin,L39 5BF,53.554106000000000,-2.894720000000000
Maya and Egret,L31 2JL,53.520628678637900,-2.949760776233630
Maya and Mouse,PR9 7JH,53.657469086405400,-2.969147193758910
Thicketbird and Logrunners,PR8 6RU,53.643477000000000,-2.997310000000000
Fox and Mockingbird,PR9 0JT,53.656816797810800,-2.993887635918120
Triller and Rabbit,PR9 0HQ,53.655995051501600,-2.999739281568080
Maya and Parrotbill,L31 9PR,53.522332955868400,-2.934247674311060
Petrel and Vole,PR8 5LP,53.619816440112800,-2.939786063595710
Stilt and Triller,L39 3LF,53.551921541492600,-2.917118584053370
Parrotlet and Masked owl,L37 7HD,53.570098172836400,-3.050247031624490
Wallaby and Warbler,L40 6LA,53.549021526848000,-2.835734503672170
Recurvebill and Mamo,L39 1PP,53.577002568064400,-2.880885571114350
Songlark and Mamo,PR8 5PD,53.631761027634500,-2.974773204655000
Hawk and Scimitar babbler,L39 8TL,53.608669000000000,-2.965994341547600
Minke whale and Diving bird,PR9 8NE,53.675010527452400,-2.949476696204210
Treepie and Mole,PR8 3AF,53.615220307330800,-3.023415842949860
Hawaiian honeycreeper and Tattler,L39 4QR,53.564745924354300,-2.882805005312930
Chipmunk and Linsang,PR8 2JU,53.635919855385900,-3.026714909408930
Mockingbird and Fish eagle,PR9 0LF,53.653731795085200,-2.996281336970270
Diving bird and Maya,PR8 5BX,53.638757314077000,-3.004821970950370
Flameback and Guillemot,L37 3LA,53.565509652793200,-3.048683800874330
Philippine hawk-owl and Thrasher,PR9 8QU,53.669158881521500,-2.954990000000000
Pratincole and Thrasher,PR9 0LL,53.652623000000000,-2.996845000000000
Mamo and Logrunners,L40 7UA,53.594161703421900,-2.843484876088310
Prion and Diving bird,L40 9RA,53.605108792920800,-2.899152790688670
Stint and Chicken,L39 4AH,53.560843432341500,-2.871974476338330
Tahr and Perching duck,PR8 5EN,53.633041553904600,-2.998258758758160
Guillemot and Stint,PR8 4ND,53.616991727834000,-3.011712426117200
Black jay and Fulmarine petrel,PR8 4AF,53.633284616599600,-3.014249803665930
Triller and Rabbit,L39 2EN,53.569224365581000,-2.884951938616610
Black cockatoo and River dolphin,PR8 4AA,53.637831740686800,-3.009065191234200
Tit-tyrant and Elephant,L37 2FS,53.551919388128300,-3.073917440208200
Black jay and Boto,L39 6WY,53.571163000000000,-2.879392755211590
Boto and Hawaiian honeycreeper,PR8 3FD,53.607711000000000,-3.023990000000000
Elephant and River dolphin,PR8 6DZ,53.642808511000000,-2.979823540400000
Elephant and Ice seal,L39 1NH,53.573868748883500,-2.885320780573960
Grosbeak and Old World quail,PR8 3QJ,53.595747156310100,-3.035652000000000
Myna and Greenbul,PR8 9PY,53.627002743900000,-2.985762712500000
Chickadee and Duck,L40 1AA,53.631757000000000,-2.819191000000000
River dolphin and Magpie,PR9 7RU,53.641862712602700,-2.962661000000000
Tattler and Tree warbler,L38 1QE,53.525148868264200,-3.024983735766830
Herring gull and Pratincole,PR8 5WT,53.627002743900000,-2.985762712500000
Towhee and Diving bird,L39 0HW,53.522634735773600,-2.827431732817850
Vulture and Cuscus,L37 2LD,53.555064884226600,-3.073982018758200
Macaw and Gull,PR9 8LZ,53.670361632255700,-2.950840378217790
Boto and Vulture,L39 4QD,53.565686540833000,-2.879578316187940
Thrasher and Partridge,PR8 3HS,53.602654725158500,-3.035746000000000
Chipmunk and Condor,PR8 6HL,53.641408999582700,-2.972167128666200
Asiatic leopard and Snipe,L37 4BX,53.552088750795100,-3.059974511208430
Marmoset and Marsh harrier,L37 2FP,53.546911521726800,-3.082016072589200
Mouse and Guillemot,L37 8BZ,53.557394258987100,-3.050566322945620
Skunk and Shearwater,PR8 2RE,53.600979145220800,-3.044575518518610
Logrunners and Masked owl,L37 5AG,53.551575000000000,-3.025185000000000
Fulmarine petrel and Herring gull,PR9 9YX,53.675937173545500,-2.955023086319480
Egret and Prion,L39 5EP,53.549333536953100,-2.912323343943040
Parrotbill and Eagle,PR9 7QX,53.649373725565200,-2.963167091235930
Zebra and Bronzewing pigeon,PR8 3QE,53.598044766681900,-3.035738879972620
Old World quail and Vulture,PR8 5AQ,53.639946209096700,-3.005606518831540
Greenbul and River dolphin,L39 5DT,53.545864416881100,-2.906347756792660
Marmoset and Mink,L37 8EA,53.556399015392800,-3.048231987182510
Mamo and Puffleg,PR4 6AQ,53.684519113157100,-2.831178259728670
Greenbul and Parrotbill,L31 9BR,53.517052853190100,-2.933573455337120
Snipe and Armadillo,L31 8EN,53.514200024222900,-2.954488059575160
Stilt and Fish eagle,L38 5DA,53.527095000000000,-3.032905000000000
B and Rabbit,PR9 9QA,53.662980442096000,-2.976719534053280
Night heron and Masked owl,L39 4QU,53.563677241711100,-2.872878280131930
Tree warbler and Puffleg,PR9 7QW,53.651955000000000,-2.964292382225570
Fulmarine petrel and Jay,L37 1LF,53.566382000000000,-3.071060637224880
Goose and Mockingbird,PR9 0LG,53.654463256522600,-2.993711214039450
Marsh harrier and Elephant,PR8 3SY,53.588329193759300,-3.032479776173040
Rabbit and Moluccan boobook,L40 9QS,53.620176522281200,-2.918885192029010
Minke whale and Capuchin,PR9 9TS,53.674408908849800,-2.958424821745700
Grosbeak and Vole,PR4 6LT,53.678931908663800,-2.833248293985410
Night heron and Tit-tyrant,PR8 1ER,53.643084000000000,-3.003442000000000
Linsang and Treepie,L40 6JX,53.548898834549600,-2.833996395312800
Masked owl and Condor,PR9 8EZ,53.685641134947100,-2.914026352285440
Capuchin and River dolphin,L37 7HG,53.570563497018300,-3.055589201047450
Perching duck and Chickadee,PR9 9BW,53.650014326573900,-2.992577783076090
Marmoset and Puffleg,PR8 3LR,53.603888042577200,-3.037740755328370
Towhee and Mamo,L40 8JW,53.600350301996700,-2.864265371692770
Civet and Fulmarine petrel,PR8 2PJ,53.607657503458900,-3.038407533634960
Ibex and Puffleg,PR9 8AH,53.653602000000000,-2.908779000000000
Mamo and Kākāriki,PR8 2BX,53.638563944457800,-3.024649000000000
Triller and B,L39 8RL,53.574736117810500,-2.936656352776490
Kestrel and Wader,L39 5BA,53.555892645012000,-2.903195828552250
Piping shrike and Kite,PR9 0HA,53.652889170309400,-3.000316381009530
Quetzal and Black cockatoo,L38 9GG,53.516637500356800,-3.058893165597620
Eagle and Warbler,L39 3NG,53.570020555078000,-2.896324176637240
American sparrow and Egret,L31 6BR,53.515939000000000,-2.938239000000000
Fox and Civet,L37 7BP,53.563802265088600,-3.068573000000000
Wallaby and Diving bird,L38 9EH,53.523304799443500,-3.059165074261800
Magpie and Wader,PR9 8BR,53.641743087260400,-2.901943806054190
Coati and Capuchin,PR8 3AZ,53.613850848966900,-3.020631537784760
Philippine hawk-owl and Wader,PR4 6ST,53.706897331093800,-2.843163255991700
Snipe and Old World warbler,L37 4EH,53.553088040037700,-3.052678547268040
Jerboa and Tahr,L37 3NG,53.560366000000000,-3.057222000000000
Darwin's finches and Dorcopsis,PR9 8PW,53.667522587945400,-2.956316022847030
Condor and Night heron,L37 8DG,53.558001036775700,-3.049026423358390
Polecat and Old World vulture,PR4 6TN,53.706706000000000,-2.846214716385580
Jerboa and Quetzal,L40 4AR,53.610780791622800,-2.833326332221160
Quetzal and Siskin,L40 6JZ,53.556820000000000,-2.835103000000000
Chicken and Thicketbird,PR8 2DE,53.639228965667100,-3.022363540036610
Condor and Perching duck,PR9 7DP,53.650495592796800,-2.976688081593370
Mouse and Jerboa,PR4 6EG,53.683449995700000,-2.885801657100000
Badger and Ibex,L40 0RQ,53.609028044912600,-2.843584717204560
Parrotbill and Darwin's finches,L37 3PB,53.562986099164500,-3.060654670931370
American sparrow and Bronzewing pigeon,PR8 4NF,53.618923786780400,-3.007510438294410
Treepie and Guillemot,PR9 9AE,53.646766220076700,-2.983167458209710
Jerboa and Black cockatoo,L39 3LL,53.558000685447600,-2.906139227523570
Zebra and Chickadee,PR8 4QF,53.619457000588600,-3.018846779242940
Solitaire and Warbler,L39 7LB,53.565505651892000,-2.935395406886750
Grosbeak and Parrotlet,PR8 3YT,53.626996938081300,-2.985762187745180
Tree warbler and Cuscus,L31 1JD,53.519068654393300,-2.918188425776310
Meadowlark and Mockingbird,L38 9EF,53.517582813319100,-3.057710174079980
Pitohui and New World blackbird,L40 8JJ,53.596244319987800,-2.880046908151030
Tahr and Black cockatoo,PR9 7QH,53.651812773597000,-2.965008020016260
Black cockatoo and Buzzard,L40 1TZ,53.646891816517500,-2.868136750247370
Grosbeak and Masked owl,L37 3NP,53.558074500840600,-3.061075253261650
Peafowl and Parrotbill,PR9 7LU,53.661440695418200,-2.963744943710340
Grackle and Hawaiian honeycreeper,L38 1QG,53.524691569429300,-3.024852015691220
Kangaroo and Rabbit,L37 6EX,53.544173432986900,-3.066281557753670
Cuscus and Goose,L39 3LW,53.555454206927100,-2.908862349471140
Thicketbird and Diving bird,L31 2LB,53.527980000000000,-2.945644925853510
Civet and Snipe,PR9 0TH,53.647261538543400,-3.001484179010390
Moluccan boobook and Polecat,L37 0AH,53.579579266461500,-3.033488000000000
Buzzard and Night heron,L31 4JP,53.529668174013500,-2.949027728806300
Parrotlet and Siskin,L39 2EL,53.570202132888600,-2.884005920510020
Linsang and Philippine hawk-owl,L39 3NP,53.564572993524600,-2.897582936361290
Minke whale and Fox,PR8 3SZ,53.587644909912300,-3.036768591532060
Chickadee and Wader,L37 1PS,53.557540770306500,-3.085487776268980
Puffleg and Old World vulture,PR8 2QB,53.605751284426300,-3.063041104891030
Moluccan boobook and Towhee,L40 0RA,53.607100000000000,-2.841748000000000
Scimitar babbler and Chickadee,PR8 5AG,53.640071927579600,-3.004550710681800
Egret and Piping shrike,PR4 6LA,53.660583163521000,-2.882627942523860
Bronzewing pigeon and Warbler,PR8 3DZ,53.614953929151100,-3.012464877697660
Marsh harrier and Grosbeak,PR8 6UJ,53.629676788033700,-2.982331493788040
Zebra and Logrunners,L40 6HB,53.557983998199700,-2.860955795750650
Fulmarine petrel and Jay,L39 9EE,53.545276554733300,-2.876695023559830
Recurvebill and Petrel,L39 2BS,53.567803000000000,-2.880347000000000
Parrotbill and Recurvebill,PR8 5AB,53.640137391443700,-3.003175825482230
Parrotlet and Booted eagles,PR4 6ET,53.682854000000000,-2.826147000000000
Old World vulture and Magpie,PR9 9EZ,53.653424175419100,-2.993278248903910
Tit-tyrant and Tattler,L37 3HU,53.556355431745500,-3.066376178217250
Flameback and Goose,PR8 3LE,53.604328525503100,-3.037736443419920
Kite and Diving bird,PR9 0TX,53.646203363767100,-3.000112716806920
Tree warbler and Piping shrike,L39 3NJ,53.566034000000000,-2.895862000000000
Parakeet and Jackal,PR8 4HT,53.624998063022000,-3.008819415427860
Viscacha and Triller,PR8 5EZ,53.633145000000000,-3.002089917846560
Marmoset and Puffleg,PR8 6US,53.628457172439200,-2.979792987030840
Moluccan boobook and Lemming,PR8 6TL,53.635297112982100,-2.983127549721340
Mockingbird and Black jay,PR8 4SZ,53.627658878931000,-3.018348815543390
Eagle and Goose,L39 4TU,53.557242105801900,-2.900658257661120
Linsang and Solitaire,L31 2NJ,53.524159656540100,-2.942011035654850
Shearwater and American sparrow,PR9 0HD,53.654655270707800,-3.000872653794010
Egret and Linsang,PR8 1NY,53.647828000000000,-3.006883000000000
Ice seal and Flameback,PR8 5EH,53.634648092285600,-3.002848947068130
Chicken and Parrotbill,L37 3QG,53.561836188766500,-3.072673990214760
Peafowl and Greenbul,PR8 2JF,53.632890606324100,-3.029725000000000
River dolphin and Rabbit,L37 3JZ,53.562763132346200,-3.047938000000000
Treepie and Tree warbler,PR8 2JB,53.633127590365600,-3.034692667193920
Marsh harrier and Capuchin,L39 2SG,53.567802197958200,-2.880347016358190
Chicken and Pheasant,L31 8EX,53.515291395337500,-2.955146002551820
Wallaby and Hawk,L31 2NB,53.525852868777100,-2.939303166394930
Mamo and Pitohui,PR8 2RS,53.604733121149900,-3.054174337384760
Cloud rat and Marsh harrier,L37 7DF,53.565095698079200,-3.065010686103640
B and Old World warbler,L39 6TT,53.540452898883900,-2.905206005062560
Greenbul and Cuscus,PR4 6AL,53.693488000000000,-2.852012000000000
Duck and Tit-tyrant,L38 3RA,53.523666677746200,-3.041510435139150
