name,postcode,lat,lon
Maya and Grackle,LL58 8UD,53.295075000000000,-4.139031000000000
Grosbeak and Cloud rat,LL57 1LP,53.226116642713200,-4.127965777810450
Macaw and Philippine hawk-owl,LL57 1NS,53.224176064340200,-4.129397588638640
Magpie and Mouse,LL57 1UP,53.228543109519800,-4.123486510645580
Kestrel and Parrotbill,LL57 3AF,53.180927973036500,-4.064232765787220
American sparrow and Old World warbler,LL55 1AZ,53.176908464289500,-4.193991580225520
Masked owl and B,LL57 3RS,53.186492760708800,-4.060099625037020
Dorcopsis and Condor,LL57 4BT,53.197263050256500,-4.181781310144680
Mamo and Parakeet,LL57 2AN,53.228187746638400,-4.133312359746490
Parrotbill and Pitohui,LL57 3HD,53.191199957561900,-4.059801439949380
Philippine hawk-owl and Chicken,LL57 2EN,53.226801699729600,-4.137408412675200
Moluccan boobook and Logrunners,LL57 3PE,53.177772692130700,-4.055895558066750
Mockingbird and Rabbit,LL57 4PW,53.188770751618100,-4.092391154147990
Towhee and Marmoset,LL58 8LF,53.278194163875700,-4.091148354025700
Triller and Shearwater,LL74 8RS,53.325870245831000,-4.226878000000000
Minke whale and River dolphin,LL74 8SN,53.321781810173900,-4.226600541132330
Masked owl and Wallaby,LL56 4QT,53.189554811228200,-4.209262268523120
Parrotlet and Pitohui,LL57 3AH,53.181228475344400,-4.062975104024260
Macaw and Bunting,LL77 7HS,53.254356506887800,-4.293662765447090
Diving bird and Armadillo,LL77 7UH,53.294514656688000,-4.303647946559340
Piping shrike and Thrasher,LL58 8UF,53.295136155916900,-4.138058991310940
Rat and Old World warbler,LL73 8PL,53.336319061452500,-4.238157863317700
Old World warbler and Kite,LL57 2BD,53.228640758048600,-4.132615725026930
Armadillo and Hawaiian honeycreeper,LL61 6UA,53.179599415002400,-4.271516836098530
Peafowl and Jerboa,LL59 5YD,53.244402836854000,-4.137041818924310
Quetzal and Fish eagle,LL57 2JD,53.225362000000000,-4.139044000000000
Night heron and Guillemot,LL57 4RN,53.177291880187000,-4.091248638631240
Ice seal and Night heron,LL58 8UU,53.304590620036300,-4.136250107562500
Bunting and Myna,LL57 3YN,53.219134047711700,-4.069620183788550
Piping shrike and Cuscus,LL55 4BL,53.149783046964800,-4.185269000000000
Mamo and Jackal,LL57 2TB,53.234999667003700,-4.122907099977520
Cloud rat and Recurvebill,LL57 2DZ,53.211196599087600,-4.160189345619440
Quetzal and Maya,LL57 2NN,53.208326000000000,-4.168791000000000
Mamo and White ibis,LL59 5PU,53.250447363935100,-4.144388581496300
Badger and Perching duck,LL57 2QN,53.206703000000000,-4.164521000000000
Peafowl and Elephant,LL59 5DE,53.224819000000000,-4.161624000000000
Wallaby and Treepie,LL58 8NA,53.292703692483700,-4.089156373376330
Civet and Zebra,LL71 8BP,53.342384754468700,-4.276318133444570
River dolphin and Viscacha,LL57 3UA,53.175603200543500,-4.046140098361930
Chickadee and Polecat,LL59 5PA,53.240157416408000,-4.140175000000000
Kite and Darwin's finches,LL77 7WD,53.258669031707800,-4.303609439527750
Scimitar babbler and Treepie,LL61 6UX,53.224008454624800,-4.207260799872480
Solitaire and Eagle,LL56 4QS,53.187010521934100,-4.200030730625850
Masked owl and Parakeet,LL57 4LZ,53.167670803146100,-4.081220000000000
Mink and Towhee,LL57 3BN,53.181561515744200,-4.058276817071750
Elephant and Crow,LL77 7FA,53.248632136690100,-4.316291222149010
Cloud rat and Dorcopsis,LL56 4AB,53.185726582306300,-4.206192220054290
White ibis and Old World warbler,LL57 2QB,53.205268524225400,-4.167332000000000
Meadowlark and Minke whale,LL61 5NJ,53.221452436688300,-4.195729332053340
Coati and Buzzard,LL57 4NW,53.190781000000000,-4.083418000000000
Argus and Parakeet,LL60 6DL,53.219756000000000,-4.275239119567770
Duck and Magpie,LL77 7QE,53.259185922137500,-4.321449837263230
Quetzal and Ice seal,LL77 7TH,53.276807892129300,-4.273415439771920
Chicken and Logrunners,LL77 7LH,53.259090419214500,-4.298549227910980
Hawk and Recurvebill,LL57 4YD,53.178607454727600,-4.074117889358000
Grouse and Petrel,LL61 5JX,53.225341787842300,-4.200797412854970
Kākāriki and Peafowl,LL57 4NU,53.183850878195900,-4.088409854321660
Buzzard and Old World warbler,LL57 4AY,53.191087881467500,-4.097129554017060
Guillemot and Skunk,LL56 4JA,53.185491703662800,-4.208739004929300
Greenbul and Black cockatoo,LL58 8TX,53.291524780270200,-4.138403734760800
Siskin and Civet,LL60 6NN,53.205666143822300,-4.261005742752140
Wader and Philippine hawk-owl,LL59 5HY,53.228502784454600,-4.170619669853410
Puffleg and Armadillo,LL58 8EE,53.262094363355900,-4.098189436324260
Recurvebill and Mole,LL61 5HX,53.223004305871500,-4.196407983190530
Mockingbird and Warbler,LL58 8SE,53.303234711063500,-4.080230224947000
Fox and Tattler,LL57 1SS,53.226277151104800,-4.113017000000000
Hawaiian honeycreeper and Night heron,LL61 6DY,53.202780000000000,-4.216057000000000
Polecat and Herring gull,LL55 3BE,53.151358043028700,-4.177762336973430
Meadowlark and Tit-tyrant,LL59 5PG,53.248322186960400,-4.130042270676350
Myna and Rabbit,LL58 8YD,53.308250762776300,-4.117039418572900
Nukupuʻu and Tattler,LL57 2AJ,53.218665368322000,-4.144402809709210
Fox and Kestrel,LL59 5AJ,53.225010334367900,-4.164555000000000
Fish eagle and Hawk,LL58 8BD,53.262293670525800,-4.094525606534620
Black cockatoo and Kākāriki,LL61 5TX,53.221532875881600,-4.206459331542380
Mockingbird and Nukupuʻu,LL57 4YP,53.176052753182200,-4.071615315980760
Jay and Logrunners,LL57 4SN,53.214863920756400,-4.141816417996500
Thrasher and Armadillo,LL57 2QL,53.218607000000000,-4.140191000000000
Stint and Triller,LL58 8UY,53.308394000000000,-4.137853373016240
Chicken and Kangaroo,LL57 1HT,53.224664711398300,-4.126200889498030
Buzzard and Meadowlark,LL57 2YN,53.221748434028800,-4.139942991730720
Thicketbird and Capuchin,LL57 1LE,53.225796144671400,-4.129298221831760
Wallaby and Snipe,LL59 5LW,53.230669848495500,-4.177007378464530
Marsh harrier and Quetzal,LL57 2EL,53.224216721640400,-4.137669136186020
Zebra and Tattler,LL57 3PN,53.176848774709200,-4.052125252759800
Nukupuʻu and Wader,LL57 3UR,53.216636023500600,-4.090139728224870
Greenbul and Asiatic leopard,LL59 5LL,53.230228034925700,-4.174123153966860
Parrotlet and Jerboa,LL57 4PY,53.189503494885700,-4.093669255018000
Scimitar babbler and Bronzewing pigeon,LL58 8EU,53.263835621618600,-4.096310396362280
Kangaroo and Civet,LL58 8TA,53.308437220350900,-4.090164943005440
Chicken and Viscacha,LL58 8LB,53.277461565134000,-4.091397568795400
Ibex and Cuscus,LL57 3DH,53.198855604849200,-4.084333450396630
Tree warbler and Flameback,LL57 1EA,53.228946000000000,-4.120105000000000
Rabbit and Civet,LL57 3EB,53.190346000000000,-4.062470000000000
Piping shrike and Vole,LL78 8JJ,53.319606086236900,-4.260525696095860
Dorcopsis and Myna,LL77 7UG,53.287649682075500,-4.311800565515630
Greenbul and Grouse,LL58 8RD,53.279525715292800,-4.079273183920130
Ground sloth and Crow,LL75 8YS,53.266208644633800,-4.216092870157980
Quetzal and Buzzard,LL61 6AZ,53.176462529798700,-4.313491978972090
Black cockatoo and Minke whale,LL77 7TW,53.253027405776300,-4.309872495764640
Marsh harrier and Piping shrike,LL59 5UF,53.243804587400000,-4.140818923235830
Mamo and Mamo,LL57 4PD,53.188512919514100,-4.086076877637580
Jay and Treepie,LL78 8JN,53.320380830153100,-4.261392491669510
Bronzewing pigeon and Minke whale,LL77 7HP,53.253998537796200,-4.299640371345990
Peafowl and Tahr,LL57 1NG,53.222942930020700,-4.113322176057260
Eagle and Tahr,LL60 6BL,53.222732573772500,-4.269889851304370
Peafowl and Civet,LL57 1BU,53.232770399273400,-4.119350440895390
Thrasher and Treepie,LL57 3SN,53.180529454446600,-4.053483294716010
Boto and Ground sloth,LL57 4PE,53.190180183275400,-4.085334545059610
Petrel and Hawaiian honeycreeper,LL77 7HD,53.249652106771400,-4.314697394264270
Grackle and Duck,LL57 2SZ,53.234515079324000,-4.121774868491810
Greenbul and Meadowlark,LL74 8RN,53.316953596274700,-4.223241247325030
Bunting and Treepie,LL59 5UW,53.244489259935200,-4.149231488402370
Rabbit and Towhee,LL75 8HA,53.290133127871500,-4.220422361645810
Pitohui and Logrunners,LL56 4JT,53.190602144886700,-4.197849500405440
Hawaiian honeycreeper and Puffleg,LL59 5NB,53.231542271721900,-4.176497261991730
Philippine hawk-owl and Masked owl,LL55 3BU,53.154580134004500,-4.160306298544540
Capuchin and Old World warbler,LL57 1BJ,53.230184525770300,-4.122189324306730
Coati and Stint,LL59 5ND,53.231565616029100,-4.173741442936660
Ground sloth and Greenbul,LL73 8PD,53.338128513950200,-4.242819119282390
Perching duck and Night heron,LL57 4RL,53.180198066362100,-4.093679794334370
Herring gull and Snipe,LL57 3YP,53.218922128965200,-4.062782000000000
Buzzard and Wader,LL58 8TT,53.289540000000000,-4.139340000000000
Black cockatoo and Fulmarine petrel,LL57 3ET,53.191245501481200,-4.060806568823580
Grouse and Treepie,LL57 1UL,53.228024161087300,-4.123577000000000
Capuchin and Vulture,LL77 7SU,53.270271413084000,-4.263979957925950
Nukupuʻu and American sparrow,LL61 5TQ,53.221646328304000,-4.203244394057740
Pitohui and Shearwater,LL57 4PS,53.189981000000000,-4.092051000000000
Asiatic leopard and Grackle,LL71 8BD,53.331075000000000,-4.314164000000000
Philippine hawk-owl and Viscacha,LL57 2GE,53.225489000000000,-4.142961000000000
Shearwater and Mockingbird,LL55 3PN,53.156441665390300,-4.166218262191580
Marmoset and Pitohui,LL55 1YA,53.165185000000000,-4.208129000000000
Asiatic leopard and Mamo,LL58 8RW,53.295350239706200,-4.063670715183470
Greenbul and Kite,LL77 7RP,53.261268000000000,-4.299431000000000
Quetzal and Piping shrike,LL61 5YX,53.221634000000000,-4.214164000000000
Kangaroo and New World blackbird,LL57 3DN,53.189885628553400,-4.079557214740280
Condor and Coati,LL74 8UG,53.318485997927500,-4.225918408330750
Treepie and Mockingbird,LL57 2SF,53.235265317359800,-4.122126052161960
Coati and B,LL57 2BH,53.229581119345000,-4.134325579332010
Pratincole and Darwin's finches,LL75 8EQ,53.294100000000000,-4.222294000000000
Triller and Gull,LL57 1NT,53.224895700049300,-4.128369637313840
Fox and Kākāriki,LL55 3BA,53.154290797468000,-4.175831000000000
Thrasher and Pheasant,LL33 0HE,53.242696377869300,-4.002820848571070
Old World quail and Kangaroo,LL59 5BP,53.227944323591300,-4.165737103717640
Old World vulture and Lemming,LL58 8TS,53.291148640409700,-4.137319623633300
Recurvebill and Parrotbill,LL57 4DQ,53.172137965495100,-4.076484041694620
Linsang and Warbler,LL60 6BW,53.222478226441000,-4.268138620720240
Egret and New World blackbird,LL57 1AD,53.235146000000000,-4.121311000000000
Triller and Grackle,LL77 7RQ,53.279169214207300,-4.318007000000000
Armadillo and Ground sloth,LL60 6AA,53.232306000000000,-4.282294000000000
Flameback and Kākāriki,LL56 4JR,53.189523660260000,-4.195878275123360
Pitohui and Mamo,LL57 4AL,53.191301909251600,-4.093652123130700
Peafowl and Old World vulture,LL57 1LZ,53.223093952964700,-4.134602085842170
Stint and Songlark,LL57 2JR,53.226468892892000,-4.141421944722150
Pheasant and Mouse,LL77 7UA,53.268499562040500,-4.272989424370190
Puffleg and Duck,LL57 1HY,53.224341025349400,-4.127712916089540
Chicken and Parakeet,LL57 1UB,53.227109266323700,-4.123612000000000
Snipe and Quetzal,LL57 1EX,53.223305026437200,-4.126822620187400
Mouse and Kestrel,LL60 6HH,53.222248666496900,-4.275931449754200
Crow and Viscacha,LL58 8UH,53.294478000000000,-4.134710000000000
Booted eagles and Macaw,LL57 4PF,53.189822345788200,-4.088310954898030
Triller and Asiatic leopard,LL75 8DQ,53.290770978848100,-4.221895893597030
Old World vulture and White ibis,LL33 0LN,53.233765566669500,-4.014839948078580
Hawk and Treepie,LL61 6SZ,53.172633448971400,-4.274709977878930
Tattler and Gull,LL57 2SS,53.233460866934200,-4.125003646477150
Booted eagles and Diving bird,LL77 7PR,53.256450607545900,-4.305814059092870
Moluccan boobook and Badger,LL57 2HA,53.227774794420100,-4.136288279243490
Badger and Songlark,LL57 1TT,53.227117928650100,-4.114651490739610
Puffleg and Polecat,LL58 8UT,53.305297052174500,-4.140473019564940
Warbler and Thrasher,LL57 2HZ,53.218563854572200,-4.160964633151310
Quetzal and Quetzal,LL74 8RH,53.315130237309200,-4.239961178230130
Herring gull and Flameback,LL75 8YB,53.279644638240300,-4.219263357326730
White ibis and Mink,LL61 6UT,53.175588542991800,-4.304780444613180
New World blackbird and Crow,LL58 8PA,53.299198662558100,-4.096616904576100
Piping shrike and Kestrel,LL56 4SX,53.179897503076300,-4.214168383583030
Snipe and Peafowl,LL59 5LJ,53.228158139756400,-4.171770866457210
Chicken and Black jay,LL55 1UE,53.170780215067200,-4.241110319130400
Armadillo and Maya,LL61 6EJ,53.192152131550900,-4.229096487180390
Mole and Old World warbler,LL57 4AD,53.201905000000000,-4.093001000000000
Old World quail and Parrotlet,LL77 7SE,53.248696626844300,-4.292970139771930
Night heron and Black jay,LL58 8SW,53.305062169059800,-4.069242316029510
Parakeet and Jackal,LL59 5DB,53.224648000000000,-4.162140000000000
Rat and Warbler,LL55 4BN,53.149729080080000,-4.186189384032180
White ibis and Chicken,LL57 1DA,53.232088320878500,-4.118777323078770
Linsang and Moluccan boobook,LL57 2HU,53.222427005713200,-4.148695449467270
Diving bird and Tree warbler,LL77 8YX,53.260561523194000,-4.305705426776110
Vole and Parakeet,LL75 8YW,53.266410583338900,-4.196443567827710
Triller and Fulmarine petrel,LL57 2PZ,53.223538486850500,-4.153859581244750
Cloud rat and Old World vulture,LL57 3EE,53.191936095750300,-4.062980349442200
Kite and Grouse,LL60 6BA,53.226058155234100,-4.229958987193660
Marmoset and Puffleg,LL57 3TT,53.176403929544100,-4.048198375024500
Perching duck and Bronzewing pigeon,LL58 8DY,53.263636343490700,-4.094861152938400
Herring gull and Kākāriki,LL77 7QD,53.258340221005600,-4.319169984546620
Old World vulture and Jay,LL57 4RH,53.181382000000000,-4.094920000000000
Hawk and Stilt,LL56 4JZ,53.191296984545500,-4.194786321804040
Parrotbill and Mole,LL61 5QQ,53.226298416180300,-4.203033854104250
Dorcopsis and Chicken,LL57 2JQ,53.226488000000000,-4.140419000000000
Eagle and Fox,LL58 8AA,53.263372515574500,-4.092479103224600
Wader and Bunting,LL61 5NZ,53.221986460293300,-4.199921221182820
Kākāriki and Logrunners,LL55 3PR,53.158280803402300,-4.173341225934690
Chickadee and Asiatic leopard,LL57 3PY,53.173315363529600,-4.054739689627790
Crow and Treepie,LL77 7ST,53.269559191281700,-4.265502025989590
Greenbul and Rabbit,LL57 3NA,53.181424729750200,-4.067728722095340
Warbler and Bronzewing pigeon,LL57 1BY,53.232028494746600,-4.119613456179750
Masked owl and Gull,LL57 2SL,53.235508198611900,-4.121613597554690
Treepie and Jackal,LL58 8SA,53.303855407474700,-4.084327785753530
Capuchin and Pheasant,LL60 6LW,53.204230207261900,-4.315616976410120
Mockingbird and Wallaby,LL77 9BG,53.253784000000000,-4.308434000000000
Fox and Grosbeak,LL59 5UL,53.244438444881400,-4.152046712694870
Tit-tyrant and Egret,LL61 5DZ,53.223945000000000,-4.219917000000000
Hawaiian honeycreeper and Mink,LL33 0LP,53.231177559878900,-4.009444316979970
Ground sloth and Flameback,LL58 8BN,53.261041814445900,-4.098737645067110
Philippine hawk-owl and Philippine hawk-owl,LL57 4LB,53.216363244289200,-4.101045540487560
Cuscus and Elephant,LL55 4AY,53.150185364916300,-4.178465694280110
Condor and Meadowlark,LL57 2AT,53.228094119499700,-4.130505998156970
Marsh harrier and Black cockatoo,LL57 2TQ,53.227472000000000,-4.130175000000000
Old World vulture and Linsang,LL57 1NW,53.227163050283900,-4.125499000000000
Petrel and Flameback,LL57 1YE,53.229107304741800,-4.121087241059600
Macaw and Gull,LL57 4AT,53.193045500969200,-4.092150285458100
Capuchin and Diving bird,LL75 8DJ,53.291512289844900,-4.222159453038250
Bronzewing pigeon and Piping shrike,LL59 5NH,53.231914000000000,-4.160064000000000
Old World vulture and Rabbit,LL59 5SR,53.274131271376700,-4.161157818042850
Wader and Old World warbler,LL59 5BE,53.227719476248600,-4.164257482340010
Partridge and Petrel,LL58 8DU,53.263166314176100,-4.094493295649800
Old World warbler and Prion,LL59 5ES,53.227257169325700,-4.160503597019330
Armadillo and Grouse,LL57 2YT,53.222807077006000,-4.139066997450970
Warbler and Marmoset,LL57 2TZ,53.221603000000000,-4.138038628242440
Warbler and Condor,LL57 4AP,53.192083968594900,-4.091100482325650
Wallaby and Night heron,LL58 8YB,53.313224921848700,-4.122464853247080
Old World warbler and Black cockatoo,LL59 5BF,53.228092899283200,-4.169430295146150
B and Viscacha,LL57 9EH,53.221620000000000,-4.138085000000000
Ground sloth and Vole,LL59 5PB,53.240760154488100,-4.138628706154280
Thicketbird and Mouse,LL60 6BY,53.222574127083800,-4.276308255361850
B and Mole,LL74 8SA,53.315384097013900,-4.247015705545800
Grackle and Mole,LL57 4EJ,53.163624000000000,-4.106217000000000
Jackal and Duck,LL57 3PA,53.178937000000000,-4.054664000000000
Herring gull and Fox,LL57 4RP,53.180734030873900,-4.102550675030600
Wader and Nukupuʻu,LL61 6PJ,53.187902000000000,-4.237154000000000
Quetzal and Chicken,LL60 6DS,53.212942283971500,-4.267964145603710
Puffleg and Vole,LL55 1LL,53.149489460796100,-4.262045132676960
Kangaroo and White ibis,LL57 4EB,53.179321382690100,-4.151433226102770
