name,postcode,lat,lon
Cloud rat and Chicken,PH2 6DZ,56.539606872816800,-3.370045073428710
River dolphin and Macaw,PH10 6PB,56.586981589486300,-3.339763101494130
Elephant and Triller,PH2 6ED,56.541876278492100,-3.370387268707470
Snipe and Stilt,PH12 8UA,56.559181000000000,-3.141971000000000
Magpie and Jay,PH10 7NQ,56.668128000000000,-3.451466000000000
Thrasher and Viscacha,DD8 5NG,56.655145460190000,-3.150969000000000
Mamo and Flameback,PH11 8PT,56.707622585188900,-3.246840518060230
Boto and Jay,PH1 4JU,56.551292257365900,-3.451138692610180
Towhee and Kestrel,PH10 7JA,56.603480566375000,-3.335313666903610
Tahr and Nukupuʻu,PH10 6BL,56.589392313692300,-3.340336929738990
Bunting and Elephant,PH10 6NF,56.592112965419200,-3.337159973732790
Perching duck and Meadowlark,PH13 9AQ,56.546611376953700,-3.265321148240210
Cloud rat and Fox,PH12 8SA,56.585880351817900,-3.162574725332920
Night heron and Mouse,PH13 9AD,56.545993000000000,-3.267783965575640
Treepie and Solitaire,PH10 7AD,56.593889192456300,-3.333232707804880
Kangaroo and Herring gull,PH11 8EJ,56.619623728804400,-3.226467538309270
Vole and Jackal,PH11 8NL,56.612622960500300,-3.234238000000000
Dorcopsis and Ibex,PH12 8TR,56.556047030378200,-3.149539131489010
Duck and Kestrel,PH12 8TD,56.585062834900000,-3.169273908834510
Fulmarine petrel and Triller,PH12 8UQ,56.557967505182800,-3.141983073149800
Mole and Badger,DD8 5LF,56.663823115398100,-3.040471359580830
Boto and Masked owl,PH12 8UE,56.558044317272900,-3.144377063044450
Black jay and Parrotbill,DD8 4RS,56.775279949021700,-3.098257986157420
Booted eagles and Kestrel,PH10 6EY,56.592895072336600,-3.341291510455450
Myna and Old World warbler,PH10 6PD,56.584756272219800,-3.338658605158720
Hawaiian honeycreeper and Bunting,PH11 8HR,56.685484350467900,-3.238778685980430
Hawaiian honeycreeper and Black cockatoo,PH11 8DY,56.623905000000000,-3.232402786741870
Nukupuʻu and Hawaiian honeycreeper,PH10 7AX,56.597069177664700,-3.329093787391760
Elephant and New World blackbird,PH10 6NB,56.585704000000000,-3.325699000000000
Boto and Old World vulture,PH10 6HG,56.593822668233600,-3.343588100871580
Bronzewing pigeon and Badger,DD8 1SX,56.591128891791900,-3.050310908840240
Egret and Fish eagle,PH10 7FH,56.598901000000000,-3.329859000000000
New World blackbird and Macaw,PH10 6SR,56.583209326141200,-3.337968951059210
Quetzal and Grouse,PH13 9LX,56.516258000000000,-3.270908000000000
Bunting and Argus,PH11 8LL,56.630511671270700,-3.246496462158920
Tahr and Myna,PH12 8RW,56.587825141332200,-3.164883000000000
Kākāriki and Grackle,PH10 6LU,56.570515000000000,-3.310031000000000
Boto and White ibis,PH11 8LD,56.642646494120600,-3.246049000000000
Kite and Maya,DD8 5NX,56.623785890256100,-3.098319237186440
Kākāriki and Mink,DD8 1SJ,56.607095000000000,-3.085844000000000
Moluccan boobook and Black cockatoo,PH10 6PY,56.576871179748600,-3.345819167290650
Buzzard and Herring gull,PH10 7LQ,56.676702594811500,-3.410583922511610
Prion and Vulture,PH10 6FH,56.580291520372900,-3.339428737330100
Macaw and Duck,PH13 9EU,56.566773000000000,-3.234000000000000
Piping shrike and Egret,PH13 9PD,56.520211774170800,-3.302069027702790
Myna and Flameback,PH13 9BE,56.547300409192400,-3.268239414223910
Marmoset and Marsh harrier,PH10 7AE,56.594479246362400,-3.334196000000000
Kestrel and Solitaire,DD8 1SB,56.612024000000000,-3.023617000000000
Parrotlet and Towhee,PH11 8BB,56.621255973593000,-3.227677587826030
Scimitar babbler and Cuscus,PH12 8TT,56.559568413520100,-3.145708454775170
Vulture and Rat,DD8 5LZ,56.643626000000000,-3.043780000000000
Rat and Linsang,PH10 6BG,56.590415977370000,-3.339558958905170
Old World quail and Pheasant,DD8 5LB,56.662248786834700,-3.038568112072290
Black jay and Goose,PH1 4EZ,56.526355342598100,-3.454509350241030
Parrotbill and Rat,PH12 8SL,56.583739163077200,-3.121806642244970
Mouse and Duck,PH11 8NZ,56.596991194244700,-3.210913018907880
Ibex and Boto,PH10 6RY,56.587923809890400,-3.353148694691000
Pheasant and American sparrow,PH12 8SQ,56.568211201326300,-3.125089924057350
Buzzard and New World blackbird,PH11 8BZ,56.624164614381500,-3.231848000000000
Petrel and Solitaire,PH13 9NE,56.532191000000000,-3.296708000000000
Duck and Night heron,PH10 7AB,56.593678001867300,-3.332818127302370
Vole and Minke whale,PH12 8QU,56.587019004155800,-3.180943686847020
White ibis and Greenbul,PH2 6EE,56.550939113523500,-3.398076676128470
Asiatic leopard and Jay,PH12 8RR,56.588903761646400,-3.161120662210740
Scimitar babbler and Petrel,DD8 5JQ,56.691146576524700,-3.185965818746600
Piping shrike and Snipe,PH10 6AB,56.592516652944400,-3.338053633863950
Kangaroo and Old World quail,PH10 7AU,56.596604928960200,-3.328816893517480
American sparrow and Bronzewing pigeon,PH13 9DE,56.544275845421900,-3.266154021068510
Darwin's finches and Gull,PH10 6LH,56.575357378947500,-3.346221160108640
Tahr and Booted eagles,DD8 5JH,56.676804000000000,-3.171169000000000
Stilt and Masked owl,PH11 8LR,56.615440000000000,-3.220678000000000
Night heron and Rat,PH11 8LQ,56.648750362477400,-3.287104841147360
American sparrow and Towhee,PH10 6PW,56.584544566539800,-3.342461053311230
Armadillo and White ibis,PH13 9AG,56.547377039315600,-3.263362293472450
Thicketbird and Guillemot,PH1 4FD,56.528819000000000,-3.460522000000000
Argus and Marsh harrier,PH13 9ER,56.549469735392700,-3.254566782957080
Asiatic leopard and Crow,PH12 8UY,56.560157296492900,-3.140291806058440
Scimitar babbler and Fish eagle,PH2 6EH,56.563867000000000,-3.388546000000000
Chickadee and Fox,PH10 6EJ,56.584053795016000,-3.344641664403650
Crow and Shearwater,DD8 5HL,56.682880806048900,-3.086523249263580
Jackal and Kākāriki,PH10 6NP,56.586564768017400,-3.329752000000000
Crow and Greenbul,PH13 9DU,56.546586901559900,-3.271240893338600
Partridge and Marmoset,PH13 9JS,56.540660508471300,-3.209683195941930
Perching duck and Gull,DD8 5BB,56.662520000000000,-3.038380000000000
Fulmarine petrel and Eagle,PH10 7AN,56.598430800635300,-3.333669590978570
Guillemot and Wader,PH1 4QJ,56.515057000000000,-3.413657000000000
Piping shrike and Stilt,PH13 9NQ,56.525752727367000,-3.298032461965290
Old World vulture and Marmoset,DD3 0QL,56.518555093125800,-3.079344913449890
Greenbul and Chicken,PH1 4EU,56.528253903650800,-3.458110092686920
Boto and Thrasher,PH11 8NQ,56.612338394383900,-3.236333243096620
Triller and Hawaiian honeycreeper,PH13 9JN,56.537035984051900,-3.238333455693530
Black jay and Old World warbler,DD8 5NY,56.630353423135300,-3.110474937961670
Ground sloth and Philippine hawk-owl,PH10 6AE,56.593473756216900,-3.337615184675290
Kangaroo and Cuscus,PH13 9JY,56.527079689778800,-3.235878000000000
Goose and Rat,PH10 7FE,56.596319143200000,-3.326608587400000
Philippine hawk-owl and Parakeet,PH10 6AP,56.590987543872600,-3.338211283811540
Lemming and Jackal,PH12 8RF,56.618182846675900,-3.135978835924850
Civet and Scimitar babbler,PH13 9DD,56.544993000000000,-3.265478000000000
Old World warbler and Civet,PH10 6NL,56.590869000000000,-3.335862000000000
Parakeet and Partridge,PH10 7LG,56.655264154264600,-3.405884340263940
Grackle and Siskin,PH10 6SA,56.586870122659700,-3.364883509485800
Marsh harrier and Skunk,PH12 8QT,56.602565705982100,-3.110343455597000
Puffleg and Mamo,PH10 6RZ,56.586731485920300,-3.354555245240830
Capuchin and Tahr,DD3 0QT,56.538052865967800,-3.082290042427130
Coati and Kite,PH12 8RQ,56.625781788441100,-3.160525338678040
Dorcopsis and Buzzard,PH13 9NU,56.520084541638900,-3.301462000000000
Nukupuʻu and Capuchin,DD8 5RA,56.664067000000000,-3.041343000000000
Condor and Booted eagles,PH10 6TU,56.583541144285600,-3.333845220184310
Rat and Siskin,DD8 1QP,56.642873664210400,-3.061305000000000
Fish eagle and Condor,PH11 8QJ,56.740730830135600,-3.314984709239680
Flameback and Piping shrike,PH10 7AP,56.597665463011800,-3.330466580531920
American sparrow and Ibex,PH10 6UY,56.580244833300200,-3.336252503993790
Parrotbill and Petrel,PH10 6AT,56.591801121100300,-3.337751498607330
Hawaiian honeycreeper and Jerboa,PH13 9NN,56.520667872311800,-3.300556773614730
Black jay and Grackle,DD3 0QR,56.527109381250800,-3.054114310184560
Old World vulture and Coati,PH10 7BZ,56.593616669190800,-3.329314554861050
Thicketbird and Dolphin,PH10 6DE,56.591951000000000,-3.341372000000000
Stint and Maya,DD8 4SQ,56.708567556805100,-3.039190000000000
Coati and Philippine hawk-owl,PH10 6SF,56.609088000000000,-3.397357000000000
Triller and Parrotlet,PH10 7EY,56.589307357013700,-3.319718650545710
Treepie and Linsang,PH13 9DQ,56.542625533067600,-3.265871234388690
Recurvebill and Egret,PH10 6PJ,56.586138308012800,-3.342143064460000
Buzzard and Goose,PH10 6LQ,56.574569127978500,-3.344337511932730
Argus and Mouse,PH11 8EB,56.619655174210400,-3.224187035825570
