name,postcode,lat,lon
Fish eagle and Old World warbler,AB38 9NT,57.434032000000000,-3.294053000000000
Stint and Bunting,AB38 9TF,57.489179340000000,-3.183683215000000
Thrasher and Bronzewing pigeon,AB38 7RP,57.458151000000000,-3.348260000000000
Herring gull and Kestrel,AB37 9BX,57.353710200000000,-3.328505350000000
Civet and Vulture,AB37 9HA,57.254349000000000,-3.382661000000000
Perching duck and Herring gull,AB37 9BH,57.429924680000000,-3.343191508000000
Treepie and Greenbul,AB38 7RG,57.454231540000000,-3.270684131000000
Civet and Parrotbill,AB55 4AY,57.446193000000000,-3.126802428000000
Fox and Greenbul,AB37 9AD,57.403028610000000,-3.387842745000000
Greenbul and Linsang,AB38 9SR,57.489717430000000,-3.188555157000000
Fish eagle and Old World quail,AB38 7AL,57.527901583159000,-3.230678950497020
Songlark and Treepie,AB38 7QQ,57.480566490000000,-3.284440920000000
Goose and Philippine hawk-owl,AB38 7BF,57.528279290000000,-3.202201210000000
Thicketbird and River dolphin,AB37 9HF,57.253687000000000,-3.380730000000000
Siskin and Solitaire,AB38 7BY,57.526221840000000,-3.205055797000000
Mockingbird and Marmoset,AB37 9BN,57.432491000000000,-3.358493000000000
Jerboa and Mink,AB38 7BG,57.528019310000000,-3.204029625000000
Treepie and Flameback,AB55 4AF,57.447246180000000,-3.138704735000000
Bunting and Thicketbird,AB38 9NU,57.452772260000000,-3.250418148000000
Treepie and Badger,AB38 9NW,57.451046740000000,-3.238660582000000
Thrasher and Bunting,AB55 4AR,57.443523000000000,-3.127159000000000
Greenbul and Linsang,AB38 9TE,57.485529480000000,-3.182047200000000
Wallaby and Tahr,AB38 9QN,57.471164540000000,-3.222437000000000
Maya and Guillemot,AB37 9EW,57.250534730000000,-3.379866594000000
Masked owl and Pheasant,AB38 9TG,57.485501000000000,-3.183147000000000
Gull and Stilt,AB38 9LN,57.465956000000000,-3.190484000000000
Mouse and Capuchin,AB55 4AE,57.444797820000000,-3.129414000000000
Wallaby and Cuscus,PH26 3NP,57.269906444907800,-3.530359000000000
Goose and Gull,AB38 7BA,57.525396210000000,-3.206848699000000
Marsh harrier and Marsh harrier,AB37 9DA,57.350914510000000,-3.348098576000000
White ibis and Lemming,AB55 4AX,57.451327650000000,-3.130382663000000
Elephant and Petrel,AB38 9LX,57.456554000000000,-3.260331000000000
Myna and Darwin's finches,AB37 9DQ,57.361016140000000,-3.290301250000000
Recurvebill and Logrunners,AB38 9SJ,57.482646000000000,-3.252723000000000
Chickadee and Black cockatoo,AB37 9EX,57.249781000000000,-3.376523000000000
Condor and Pheasant,AB38 9PU,57.469419680000000,-3.218190834000000
Dolphin and Civet,AB55 4BT,57.435524500000000,-3.150400515000000
Thicketbird and Duck,AB37 9AS,57.402271860000000,-3.359204872000000
