name,postcode,lat,lon
Black cockatoo and Nukupuʻu,PA5 8LH,55.832124993982400,-4.507719219530790
Thicketbird and Eagle,PA7 5LF,55.912247561765600,-4.514619871270820
Mamo and Mink,PA15 3DX,55.932835946407000,-4.737271391923230
Maya and Vole,PA6 7JG,55.869522423129000,-4.554122025502960
Puffleg and Stint,PA5 8PA,55.833643692181500,-4.512576248878830
Dolphin and Shearwater,PA8 6JE,55.899495829779700,-4.463849965374640
Jerboa and Recurvebill,PA15 1ZA,55.942620000000000,-4.741934000000000
Myna and Thicketbird,PA5 9RD,55.827530351497300,-4.500190000000000
Petrel and Treepie,PA2 9NJ,55.830828246665100,-4.450337920095890
Meadowlark and Mink,PA11 3NT,55.856934024282000,-4.578480699893480
Treepie and Snipe,PA14 5BS,55.927999000000000,-4.679018000000000
Warbler and Quetzal,PA15 2JJ,55.936288528818900,-4.733991976124980
Moluccan boobook and Grouse,PA2 6HG,55.829059845505700,-4.439831234447870
Cuscus and Pitohui,PA1 1UG,55.844191535772500,-4.418382000000000
Old World quail and Ground sloth,PA1 2UJ,55.842225914246100,-4.440800052739970
Prion and Pratincole,PA2 0HD,55.825710000000000,-4.470765774181980
Guillemot and Old World vulture,PA7 5DJ,55.908962781106200,-4.494949291902070
Grosbeak and Kestrel,PA4 9LE,55.883643717041900,-4.444343615222870
Scimitar babbler and Vole,PA1 1YU,55.840460948060500,-4.424157313996130
Fish eagle and Francolin,PA7 5EB,55.904622372162000,-4.494910459181060
Elephant and Dolphin,PA2 9DA,55.832240242703700,-4.457948512686430
Ground sloth and Capuchin,PA2 8PE,55.822699568647200,-4.442386583360690
Thicketbird and Masked owl,G82 2TE,55.935664647428800,-4.524560225897380
Crow and Masked owl,G78 3PG,55.785383398270600,-4.420032182377130
Wallaby and Quetzal,PA15 2HJ,55.938474376334200,-4.722967742321620
Dorcopsis and Ibex,PA15 4DJ,55.943045184647500,-4.765909254681300
B and Myna,PA5 8RW,55.829511634720100,-4.526490092248490
Black jay and Treepie,PA11 3LT,55.855348283172600,-4.567061929719560
Greenbul and Jerboa,PA14 6YX,55.923492925421900,-4.590840976459890
Jerboa and Old World vulture,PA2 0LB,55.827472672705700,-4.460841230681720
Pitohui and Egret,PA8 7EN,55.891679000000000,-4.446176000000000
Moluccan boobook and Petrel,PA3 2BY,55.850932054707400,-4.424601787364600
Logrunners and Cuscus,PA3 3HN,55.851153751554900,-4.493683000000000
Vulture and Herring gull,PA3 9TS,55.845596131491500,-4.417607807904090
Guillemot and Stilt,PA14 5RE,55.931931511998800,-4.673720147218620
Pheasant and Marsh harrier,PA3 2LL,55.853208703789500,-4.430383951637140
Grosbeak and Kite,PA13 4RG,55.896643831873800,-4.626514935924980
Solitaire and Recurvebill,PA14 6DZ,55.921691220002800,-4.649307499551890
Booted eagles and Kangaroo,PA7 5JL,55.909284831828400,-4.508861000000000
Wallaby and Jackal,PA3 2BE,55.848816369437900,-4.425236859962090
Night heron and Egret,PA2 8TP,55.817803161200000,-4.432243000000000
Kite and Grackle,G60 5DL,55.921127484122000,-4.450000856638570
Mamo and Mole,PA6 7EU,55.869120000000000,-4.554048000000000
Parrotbill and Masked owl,PA1 2NR,55.843132675325700,-4.441304180514350
Shearwater and Old World warbler,PA5 9HB,55.832929685312000,-4.490682879354100
Thrasher and Triller,PA5 9UR,55.830261777094100,-4.492380652570160
Moluccan boobook and Old World vulture,PA2 9LW,55.829844622322100,-4.445118134283240
Greenbul and Perching duck,PA3 9FP,55.848402000000000,-4.438232000000000
Booted eagles and Francolin,PA1 2BB,55.845102954570200,-4.429861878195880
Tahr and Parakeet,G81 6SH,55.926749621584300,-4.432538226800520
Fulmarine petrel and Ice seal,PA7 5DF,55.918376500268200,-4.494594000000000
Duck and Pratincole,PA2 0AZ,55.820543934555700,-4.459892722271090
Magpie and Petrel,PA8 6DU,55.905724027880000,-4.456932000000000
Moluccan boobook and Herring gull,PA2 6LD,55.832254633704600,-4.433276196291540
Thrasher and Kangaroo,PA2 6DZ,55.834873139728500,-4.426300892840020
Parrotlet and Chipmunk,PA11 3PN,55.856883180635900,-4.578333506425850
Old World vulture and Old World warbler,PA2 9LB,55.827079382142100,-4.447675017063790
Moluccan boobook and Thicketbird,PA2 6AX,55.835219133689400,-4.430171428620360
Snipe and Polecat,PA14 6JB,55.922785010569000,-4.664013430551260
Fulmarine petrel and Mouse,PA14 6XF,55.923677007592000,-4.594903292401360
Kite and Argus,PA3 2JH,55.851148874318800,-4.423177330438800
Tattler and Philippine hawk-owl,PA3 3HD,55.848638392392500,-4.498334330656190
Ibex and Shearwater,PA1 1JR,55.841868278434300,-4.418414591818360
Jerboa and Civet,G60 5HP,55.919508155794300,-4.446009283752200
Buzzard and Darwin's finches,PA11 3DW,55.851005000000000,-4.575324000000000
Macaw and Pheasant,PA6 7NA,55.856274542162800,-4.523609406667690
Partridge and Myna,PA14 6LF,55.919811601676200,-4.660191818392780
Bronzewing pigeon and Ice seal,PA2 8QN,55.816348192999700,-4.439514204512590
Argus and Crow,G81 3QZ,55.914346000000000,-4.425280000000000
Fish eagle and B,PA2 8NJ,55.821617217973400,-4.438503017301940
Eagle and Partridge,PA16 9BW,55.943004265607100,-4.777310344468110
Towhee and Wader,PA14 6BH,55.925878096224700,-4.648968982768430
Warbler and Condor,PA14 6YJ,55.904532151497400,-4.576371000000000
Petrel and White ibis,PA2 6HJ,55.828775360938400,-4.441937195568410
Booted eagles and Magpie,PA11 3HE,55.850553000000000,-4.586606000000000
Marsh harrier and Eagle,PA3 9BU,55.848406302095900,-4.438247963926490
Ice seal and Meadowlark,PA5 0LP,55.825000000000000,-4.530413000000000
Elephant and Tree warbler,PA2 7TR,55.819811660660000,-4.417061387946800
Fulmarine petrel and Siskin,PA14 5QG,55.930339000000000,-4.685763000000000
Civet and Songlark,PA3 9DR,55.848413515600000,-4.438249087300000
Old World quail and Viscacha,G82 2QE,55.940728669891500,-4.539239067524760
Warbler and Jay,G78 3AE,55.790353000000000,-4.428301000000000
Booted eagles and Cuscus,PA2 0RL,55.818188148939800,-4.471589323702090
Flameback and Lemming,PA8 6AR,55.900725526417100,-4.476470380703130
Mink and Hawaiian honeycreeper,PA2 0BG,55.823562000000000,-4.459987000000000
Viscacha and Eagle,PA15 2LP,55.939813139275100,-4.737988034566290
Peafowl and Mouse,PA2 0EQ,55.828750023763800,-4.468858211915220
Cloud rat and Ice seal,G81 6RW,55.935882311269500,-4.418795862106370
Tree warbler and Black cockatoo,PA1 2SX,55.841563315661500,-4.452419202572740
Capuchin and Fish eagle,PA15 3LU,55.938271876494500,-4.742619596437690
Goose and Peafowl,PA8 6EG,55.908139346259900,-4.460398075575220
Kestrel and Tit-tyrant,PA3 9SR,55.845596131491500,-4.417607807904090
Buzzard and Hawaiian honeycreeper,PA13 4RZ,55.905576000000000,-4.627417234969170
Asiatic leopard and Philippine hawk-owl,PA1 2PU,55.845059550045700,-4.437958457525670
Polecat and Piping shrike,PA8 7BD,55.900189551519500,-4.434410260744430
Polecat and Argus,PA13 4HR,55.894049668807500,-4.633921650328790
Rat and Parrotbill,PA3 3JA,55.844113468091200,-4.501622279580020
Black cockatoo and Fish eagle,PA3 3BZ,55.848638984374700,-4.492103467280730
Old World warbler and Old World vulture,G82 2TG,55.936158086622100,-4.521533886033870
Night heron and Pheasant,PA7 5BB,55.909065354672800,-4.500524419849470
Piping shrike and Marmoset,G81 6EB,55.925005662024200,-4.426634089112200
Argus and Treepie,PA1 2AB,55.844414000000000,-4.468989000000000
Cuscus and Bunting,PA2 6RU,55.832335000000000,-4.418787161112950
Pheasant and New World blackbird,PA5 8LA,55.835517457518100,-4.506644010177850
Ice seal and Crow,PA8 6NG,55.898456926556600,-4.469047099240370
Rabbit and Mamo,PA5 0LD,55.828108399308600,-4.526542787260920
New World blackbird and Rabbit,PA5 8FB,55.837009000000000,-4.518287000000000
Wader and Diving bird,PA5 0BY,55.827301117697200,-4.505380719432540
Kākāriki and Greenbul,G81 6JJ,55.926585412559400,-4.426284632182830
New World blackbird and Condor,PA7 5FN,55.896595950700000,-4.499706484800000
Parrotbill and Moluccan boobook,PA13 4JQ,55.891478785112200,-4.640641195970140
Grosbeak and Diving bird,PA13 4BY,55.896059525962900,-4.625675592779510
Shearwater and Asiatic leopard,PA6 7DS,55.865337812861600,-4.537431907377290
Logrunners and Scimitar babbler,PA5 0SJ,55.817400156564100,-4.533255727119240
Prion and Wader,PA1 2HQ,55.841107155465500,-4.430123635108600
Wallaby and Booted eagles,PA11 3PA,55.857056000000000,-4.579527000000000
Triller and Mamo,PA3 1TH,55.848054307293400,-4.433784539346880
Marmoset and Parrotbill,G81 4QG,55.919392718102200,-4.435966530225670
Mouse and Pitohui,PA13 4JW,55.892043440433900,-4.642391057476590
Grouse and Night heron,PA2 8PX,55.821099797421700,-4.443739126894080
B and Thicketbird,PA13 4SL,55.906643711437300,-4.660185771415720
Prion and Fulmarine petrel,PA14 6HS,55.922181683232900,-4.661987058110910
Buzzard and Black jay,PA6 7NU,55.860209839283600,-4.524120382449630
Darwin's finches and Old World warbler,PA3 1NB,55.847751781238200,-4.447217467802130
American sparrow and Wader,PA7 5EY,55.910691232513700,-4.504549668429540
Tahr and Perching duck,PA15 2JW,55.938349990321300,-4.733448654604020
Petrel and Mockingbird,PA2 7TJ,55.821816674928600,-4.421592202282900
Parakeet and Solitaire,PA11 3RZ,55.864825249525400,-4.613001311024990
Crow and Black jay,G60 5LJ,55.923868993658600,-4.456304766897360
Armadillo and Myna,PA4 9RU,55.879413611008500,-4.450057569586280
Boto and Snipe,G81 4ED,55.908213538026500,-4.420848456604640
Duck and Polecat,PA3 9DB,55.848413515600000,-4.438249087300000
Cuscus and Thicketbird,PA3 1RS,55.846990672387400,-4.450684288838960
Partridge and Thicketbird,PA11 3TA,55.861063818788600,-4.583421220746230
Badger and Wallaby,PA2 8HT,55.818993076978000,-4.427131903244440
Parrotbill and Tahr,PA5 0JA,55.823605000000000,-4.526554000000000
Kangaroo and Black cockatoo,PA13 4QY,55.901797746815500,-4.626767453379040
Dolphin and Ice seal,PA10 2BH,55.829900000000000,-4.531641000000000
Mole and Wader,PA5 0BP,55.828193999942500,-4.505230562676240
Gull and Pheasant,PA2 9BQ,55.832991351142500,-4.460838593583280
Puffleg and Petrel,G78 3QP,55.778070392714400,-4.442020000000000
Piping shrike and Puffleg,PA3 9UJ,55.844192000000000,-4.418191000000000
Argus and Cloud rat,PA14 5BG,55.935478000000000,-4.698609000000000
Ibex and Old World quail,PA5 8QT,55.834074000000000,-4.517060000000000
Kestrel and American sparrow,PA1 2SS,55.844880595239200,-4.436557436244540
Nukupuʻu and Tattler,PA3 3QQ,55.849758611597700,-4.499380846108970
Grouse and Greenbul,PA2 0AG,55.826080757755100,-4.458161000000000
Mole and Hawk,PA2 9LE,55.826804531961600,-4.450643670136190
Polecat and Asiatic leopard,PA3 3RF,55.850786137813300,-4.500565265844800
Old World vulture and Peafowl,PA1 2HZ,55.842835762764200,-4.426333883244840
Coati and Macaw,PA1 1YL,55.842827038713600,-4.423585816221650
Herring gull and Francolin,G82 4BQ,55.941448000000000,-4.583296000000000
Fox and Bronzewing pigeon,PA3 3LH,55.846327645328000,-4.508969651583790
Condor and Dorcopsis,PA4 9PH,55.890821000000000,-4.436846000000000
Ibex and New World blackbird,PA5 0NX,55.823889462106500,-4.534571830206600
Pratincole and Cuscus,G81 4SE,55.909260000000000,-4.428402000000000
Mink and Marmoset,PA3 2DW,55.853036000000000,-4.427498000000000
Cloud rat and Hawaiian honeycreeper,PA3 3HH,55.850245733053800,-4.495753318367130
Songlark and Booted eagles,PA16 9AN,55.942676650469100,-4.784254178083890
Jay and Chickadee,G82 2SE,55.939450994046400,-4.536689225205110
Parrotbill and Recurvebill,PA8 7BT,55.897417222439700,-4.429613566808820
Armadillo and Black cockatoo,PA9 1DN,55.796892524473300,-4.595969795910140
Stilt and Grosbeak,PA12 4AT,55.797304840164900,-4.631100805560310
Flameback and Solitaire,G78 3EE,55.783597642840500,-4.427178534618870
Parrotlet and Coati,PA4 8AN,55.867930000000000,-4.418580000000000
Petrel and Snipe,PA11 3LU,55.854599936500500,-4.567603798475430
Hawk and River dolphin,PA2 9NS,55.832212223301600,-4.452149725502610
Mouse and Cuscus,PA2 6DP,55.833934000000000,-4.424246000000000
Thrasher and Lemming,PA8 7DH,55.895513058992300,-4.429094601331400
Dorcopsis and Logrunners,PA5 0EX,55.825754252785700,-4.518059000000000
Minke whale and Grackle,G82 1QG,55.940749616515600,-4.559542000000000
Grouse and Stint,PA2 6RD,55.833394772610300,-4.418766725094930
Thicketbird and Grackle,G81 4BT,55.912900605333900,-4.432022586856320
Kākāriki and Warbler,PA13 4EX,55.894772054569600,-4.627460141951270
Masked owl and Diving bird,PA3 2NT,55.855133000000000,-4.431271000000000
Jay and Black jay,PA14 5YH,55.922626808377000,-4.665923521671700
Maya and Scimitar babbler,PA2 8PZ,55.821734827077000,-4.443443683748270
River dolphin and Marmoset,PA6 7FD,55.860550260642400,-4.540763471708220
Wallaby and Civet,PA16 9DN,55.941122804901800,-4.783405873626170
Crow and Treepie,G81 3RF,55.915712214061400,-4.424356762463530
New World blackbird and Marmoset,PA16 9BN,55.942433523547400,-4.777109300842140
Pitohui and Black jay,PA3 3FA,55.851143579500000,-4.492118000000000
New World blackbird and Thicketbird,PA2 8LQ,55.820212790959300,-4.435445678602930
Gull and Mink,PA16 9NR,55.936628334539800,-4.779432075476910
Jerboa and Jay,PA14 5TP,55.923526451593200,-4.677895518298890
Siskin and Linsang,PA5 0LN,55.824461222617200,-4.530377797563130
Ice seal and Black jay,G81 4ET,55.908859491575800,-4.425017014781020
Puffleg and Thicketbird,G78 3LY,55.785929000000000,-4.435666000000000
Black cockatoo and Maya,PA2 6PF,55.834645509252400,-4.418237526358570
Bunting and Zebra,PA7 5QW,55.905018000000000,-4.513928000000000
Black cockatoo and Vole,PA10 2HB,55.833098549376100,-4.539547074682590
Philippine hawk-owl and Snipe,PA13 4JE,55.892155886910300,-4.641758894706330
Greenbul and Logrunners,PA2 8ES,55.821716200981800,-4.430781980650780
Skunk and Goose,PA15 3HP,55.933038833904100,-4.732994340361020
Dorcopsis and Lemming,PA2 0QS,55.833944084068800,-4.464428275960910
Herring gull and Dorcopsis,PA7 5PA,55.916917090650000,-4.535856754786630
Marsh harrier and Asiatic leopard,PA2 6BY,55.838501832922600,-4.429966000000000
Parrotlet and Mouse,PA5 8UY,55.850829841175900,-4.536501000000000
Kākāriki and Vulture,PA5 8JF,55.833800506653300,-4.501359012258760
Stint and Goose,PA8 7JB,55.899748007519000,-4.446252697271340
Grosbeak and Mink,PA7 5NB,55.907533407344600,-4.507039000000000
Chicken and Cuscus,PA3 2DD,55.849986000000000,-4.425182000000000
Civet and Mink,G82 1EB,55.940974402597900,-4.551266354001860
Jay and Minke whale,G78 3QQ,55.787498909388000,-4.417579305830550
Mole and Eagle,G60 5LB,55.920454195650100,-4.447701511061910
Boto and Black jay,PA5 9ES,55.836966040101500,-4.481757251995290
Grosbeak and Piping shrike,G81 4DX,55.907165000000000,-4.420255000000000
Elephant and Thrasher,PA14 5PX,55.932149715238500,-4.689699084992920
Elephant and Kākāriki,PA5 0RL,55.819908595319800,-4.527543683216340
Siskin and Night heron,PA2 8PH,55.823384382018600,-4.438677489849400
Black cockatoo and Flameback,PA5 9EH,55.836643664413400,-4.491032238421310
Masked owl and Grackle,PA5 8QH,55.836486112895700,-4.515107507829380
Dolphin and Old World warbler,PA14 5SL,55.929874262999000,-4.669527605105330
Rat and American sparrow,PA2 6QB,55.825918312474300,-4.421432023230550
Kangaroo and Chipmunk,G81 3QS,55.915826479140900,-4.421291130052680
River dolphin and Tahr,PA10 2PL,55.825003000000000,-4.550739000000000
Treepie and Treepie,PA7 5JF,55.909559100896200,-4.507470000000000
Parrotbill and Recurvebill,G78 3PE,55.786727087882400,-4.417978103865930
Old World warbler and Buzzard,PA2 8LX,55.822391726738100,-4.433889526452090
Prion and Thicketbird,PA2 9HU,55.828551370509200,-4.456789567936630
Mockingbird and Warbler,PA5 9DX,55.833748028157500,-4.493322446178520
Eagle and Mamo,PA5 9EL,55.836143323286500,-4.488221186767410
Black jay and Tree warbler,PA15 2HB,55.936864932148600,-4.725833375437340
Skunk and Boto,PA12 4LG,55.804843000000000,-4.629982000000000
Perching duck and Minke whale,PA5 9HN,55.832786809335800,-4.495512698292300
Black cockatoo and Peafowl,PA15 3LP,55.937374210308100,-4.743372855182460
Magpie and River dolphin,PA8 6BS,55.908377467571000,-4.465117486781950
Puffleg and Minke whale,PA5 9QR,55.828070924280700,-4.497332000000000
Greenbul and Fulmarine petrel,PA2 8DF,55.824997571054600,-4.433014493455870
Perching duck and Scimitar babbler,PA7 5QF,55.917257000000000,-4.474580000000000
Capuchin and New World blackbird,PA11 3ND,55.859986000000000,-4.572849000000000
Maya and Eagle,PA2 8RS,55.825464928919400,-4.440723762074890
Greenbul and Coati,PA5 0NW,55.822461513522300,-4.532770556937170
Fulmarine petrel and Meadowlark,G78 3BE,55.774395999476700,-4.477506119285750
Petrel and Fox,G78 3RA,55.788218000000000,-4.420097000000000
Perching duck and Jerboa,PA13 4PN,55.897452447429500,-4.621050523960280
Masked owl and Greenbul,PA3 1UB,55.850440714510900,-4.459305552658560
Warbler and Parrotbill,PA7 5NP,55.902069715673000,-4.488699012562660
Bunting and Badger,PA2 9NY,55.831349908281800,-4.447160897238150
Solitaire and Ice seal,PA3 2BU,55.851046088953800,-4.425504000000000
Mockingbird and Perching duck,G81 3LJ,55.912774260835600,-4.422477028609260
Meadowlark and Macaw,G81 6LQ,55.929836436742600,-4.416818004892090
Wallaby and Parrotbill,PA5 8HY,55.836386238273300,-4.500614727510440
Ground sloth and Marsh harrier,PA5 9HS,55.831996316226300,-4.491501527244920
Tahr and Pratincole,PA5 0PE,55.822233754598400,-4.538583346561770
New World blackbird and Dorcopsis,PA5 0EB,55.826786291125600,-4.506385510261900
Fulmarine petrel and Goose,PA11 3TQ,55.864492017300000,-4.616767781500000
Warbler and Mole,PA1 2LH,55.842997428526100,-4.432254361816990
Parrotlet and Tahr,PA2 6RA,55.830783865499200,-4.418077603754140
Scimitar babbler and Hawk,PA14 5DZ,55.939494224400000,-4.705183208600000
Masked owl and Ibex,G60 5LU,55.923964035972700,-4.454694024471180
Darwin's finches and Towhee,PA11 3AG,55.855492004488800,-4.574805649935380
Recurvebill and Hawk,PA2 6JJ,55.831073508990800,-4.423908350367340
Tit-tyrant and Tree warbler,PA1 2BA,55.845282000000000,-4.430368000000000
Chickadee and Grosbeak,PA10 2EU,55.834794452452600,-4.538379979110390
Boto and Perching duck,PA5 8EQ,55.834079000000000,-4.515942000000000
Tit-tyrant and Boto,PA11 3HB,55.849195569863600,-4.586164331539590
Mole and Solitaire,G60 5DY,55.917628208270200,-4.449699985794490
Dolphin and Magpie,PA1 2PF,55.846047190256700,-4.437557028859480
Partridge and Old World warbler,PA16 9NS,55.936526514622700,-4.778367840199990
Bronzewing pigeon and Treepie,G60 5AL,55.921795488832700,-4.443976532298720
Philippine hawk-owl and Solitaire,PA7 5GH,55.905043000000000,-4.516761000000000
Argus and Black jay,PA3 9SE,55.845596131491500,-4.417607807904090
Partridge and Solitaire,PA5 0PA,55.823107000000000,-4.535495000000000
Tahr and Vole,G81 4BN,55.912766944816700,-4.431054048423490
Parrotlet and Ground sloth,PA15 3HR,55.933345134344200,-4.733947000000000
Ice seal and Polecat,PA2 0DF,55.825045574182300,-4.468610000000000
Flameback and Myna,G82 1EA,55.940629000000000,-4.550114313994110
Bronzewing pigeon and Perching duck,PA12 4AB,55.796111452529800,-4.627222816637800
Coati and Diving bird,PA9 1BA,55.811802435893800,-4.560058842820810
Gull and Stilt,PA3 4AT,55.853437000000000,-4.421514532613210
Thicketbird and Petrel,PA5 9QQ,55.827011000000000,-4.500236000000000
Jay and Prion,PA14 5LW,55.931904841714600,-4.700638000000000
Kangaroo and New World blackbird,PA7 5DZ,55.905732551263000,-4.496453791644870
Tree warbler and Dorcopsis,G82 1AD,55.937425347345100,-4.547654772677570
Prion and Black jay,PA13 4BP,55.895520203701200,-4.626518953122520
Francolin and Night heron,PA2 8PY,55.820491388320200,-4.442695179715200
Mink and Viscacha,PA15 4HL,55.942396457547400,-4.768377588271160
Stint and Egret,PA14 5SG,55.928563635753200,-4.668620901522600
Myna and Mockingbird,PA13 4PD,55.889584672667700,-4.619080341901480
Perching duck and Badger,PA8 7JG,55.900475035240300,-4.438603559232380
Tahr and Polecat,PA11 3QA,55.861197411189300,-4.577053187286780
Triller and Guillemot,PA8 6AU,55.900736916719900,-4.472327622953920
Siskin and Rabbit,PA2 0DB,55.823628907958200,-4.470098362468180
Warbler and Towhee,PA5 0DJ,55.829375783745400,-4.503693726018810
Vulture and Kangaroo,PA5 8PS,55.827802439432300,-4.530930183710040
Jay and Fish eagle,PA10 2HQ,55.831855106377000,-4.542739838117510
Tree warbler and Moluccan boobook,PA2 9PU,55.833512556798300,-4.442361988611420
Gull and Jay,G81 4DZ,55.906607230325800,-4.418892308163510
Masked owl and Ground sloth,PA5 8QZ,55.833816555074900,-4.518624318189710
Snipe and B,PA15 2WF,55.938198376235000,-4.706133040825900
Macaw and Grackle,PA2 0LY,55.822751378794500,-4.467248687581000
Goose and Night heron,PA1 2PX,55.844841813217600,-4.438967212024040
Ground sloth and Mink,G78 3LP,55.782649342725000,-4.433770420394470
Pratincole and Jay,PA11 3QT,55.865492486183300,-4.619663577326270
Old World vulture and Egret,PA1 2AU,55.844555217776300,-4.429380397101150
Herring gull and Petrel,PA3 2BL,55.851223548529500,-4.424221000000000
Stilt and Prion,PA2 8NZ,55.820048511563200,-4.446435087738530
River dolphin and Wallaby,PA12 4HN,55.810975000000000,-4.588831000000000
Nukupuʻu and Vulture,G60 5NB,55.926820253042200,-4.465136263644490
Fulmarine petrel and Duck,PA12 4BX,55.794586359727800,-4.632544815750230
Quetzal and Gull,PA8 7LD,55.897318000000000,-4.436934000000000
Fox and Eagle,PA5 9BF,55.836996000000000,-4.469317000000000
Black jay and Jerboa,PA15 2BW,55.943600859043400,-4.732569462337420
Cuscus and Guillemot,PA3 2LY,55.856228783200000,-4.431387000000000
B and Boto,PA14 6PQ,55.926803222660900,-4.656924864366480
Myna and Logrunners,PA8 7BZ,55.894791566881900,-4.430585049648480
Flameback and Linsang,PA11 3SA,55.866345185186300,-4.616763876636920
Grackle and Rabbit,PA3 3HR,55.850751000000000,-4.489443000000000
Myna and Recurvebill,PA12 4DX,55.777074869755500,-4.645253000000000
Kestrel and Bunting,PA6 7DF,55.865204127233800,-4.529958821019680
Mouse and Argus,PA2 9QF,55.832974149616700,-4.440507643033870
River dolphin and Wallaby,PA1 2SJ,55.846776782432800,-4.436311000000000
Tit-tyrant and Crow,PA7 5DL,55.908043444067000,-4.495962301793580
Buzzard and Pitohui,PA5 8JL,55.839138672666000,-4.496974005846920
Maya and Capuchin,PA6 7NB,55.855826844038900,-4.526153110734720
Civet and Macaw,PA11 3RN,55.845952000000000,-4.558214000000000
Philippine hawk-owl and Rat,PA10 2NF,55.819365817900000,-4.538432000000000
White ibis and Piping shrike,PA5 9JF,55.831154293882700,-4.488253767079650
Linsang and B,PA9 1AG,55.810090000000000,-4.542996000000000
Skunk and Bunting,PA1 1AD,55.844170000000000,-4.418382000000000
Myna and Asiatic leopard,PA2 0ER,55.827193566870500,-4.469829401215190
Piping shrike and Pitohui,PA2 0DH,55.823961620165300,-4.467535000000000
Logrunners and Kangaroo,PA6 7JN,55.866494061637700,-4.543245672393770
White ibis and Crow,PA2 0AN,55.821909662727200,-4.459915088271350
Francolin and Quetzal,G78 3PZ,55.788275205197500,-4.417866687924180
Black cockatoo and Darwin's finches,PA3 4DW,55.848058057727500,-4.420844108038230
Buzzard and Stint,PA13 4LT,55.888224244119400,-4.634806281223100
Flameback and Parrotlet,PA5 8DE,55.837454094260000,-4.509963110530950
Mink and Kangaroo,PA14 5LH,55.933666275527400,-4.697618393766690
Marmoset and Maya,PA3 2ND,55.855049599215800,-4.429556166007370
B and Badger,PA5 0AF,55.825182422560200,-4.525027733785580
Chickadee and Vole,PA3 3RX,55.852418046710900,-4.492345468894340
Kangaroo and Zebra,PA14 5LA,55.932768043972200,-4.695538387680600
Old World quail and Stint,PA15 3AE,55.931330017465400,-4.732633781005250
White ibis and Parrotbill,PA9 1DF,55.778638761077600,-4.550402986558530
Wallaby and Prion,PA5 9NS,55.828875774058900,-4.492914735847030
Ibex and Chipmunk,PA3 2ST,55.864652509237000,-4.432089855264700
Hawk and Dorcopsis,PA15 2RD,55.935523032738000,-4.713418000000000
Tahr and Tahr,PA3 2LU,55.854678991865700,-4.434662244574770
Linsang and Marmoset,G82 4BS,55.940018000000000,-4.585058000000000
Eagle and Peafowl,G82 2PR,55.942809677531900,-4.543472000000000
Quetzal and Herring gull,PA14 6PN,55.926664793386400,-4.660005230589370
Treepie and Lemming,PA2 6BW,55.838583892351700,-4.426819618524660
Stint and Mink,PA15 4EH,55.943579000000000,-4.764605654523520
Kite and Night heron,PA2 0QQ,55.829703107480000,-4.467497403127080
Tattler and Cuscus,PA14 5NU,55.931925669899200,-4.676057468775770
Perching duck and Nukupuʻu,PA2 8JB,55.821667000000000,-4.426005000000000
Civet and Booted eagles,G82 2TN,55.936262451207000,-4.516432566277090
Solitaire and Argus,PA1 1XY,55.844645937885600,-4.426606455195820
Mole and Minke whale,PA14 5PF,55.931967301502400,-4.679102590026500
Piping shrike and Flameback,G82 2QF,55.940256000000000,-4.539945000000000
Egret and Guillemot,PA11 3HH,55.856691486242700,-4.585751677753090
Boto and Bunting,PA14 5JE,55.935062813409600,-4.689660874775390
Jay and River dolphin,PA2 0PQ,55.831347757679500,-4.467952927800390
Towhee and Linsang,G60 5DF,55.920769000000000,-4.454908000000000
River dolphin and Duck,PA13 4RD,55.899591000000000,-4.626624622565990
Kestrel and Kite,PA3 9SZ,55.845596131491500,-4.417607807904090
Cloud rat and Puffleg,PA3 3TR,55.854563000000000,-4.512393000000000
Hawk and Tree warbler,PA5 8UJ,55.845382437454200,-4.532280806939370
Chicken and Fulmarine petrel,PA1 2HF,55.840212000000000,-4.426298000000000
Puffleg and Rat,PA3 3LN,55.846808033512300,-4.510534311388680
Recurvebill and Marsh harrier,PA2 9EH,55.835207005670600,-4.452961171985290
Ground sloth and Grosbeak,G81 3EZ,55.912397311330400,-4.420165142552020
Gull and Night heron,PA8 6HN,55.902368106398300,-4.469423698166190
Peafowl and Masked owl,PA14 5SE,55.928918492005800,-4.672151617628740
Tattler and Towhee,PA12 4AR,55.792754575495000,-4.634973871320920
Grackle and Macaw,PA11 3RS,55.848982907778200,-4.611538109043210
Bunting and Booted eagles,PA15 2BJ,55.940622259551900,-4.734745923247000
Old World vulture and Minke whale,G60 5DJ,55.921262381808200,-4.449545186857440
Capuchin and Fulmarine petrel,PA3 1RF,55.854180560103200,-4.445288853255920
Tit-tyrant and Coati,PA2 8HY,55.821470536362700,-4.429569261355280
Fox and Argus,PA16 9JZ,55.935223732500000,-4.777090259100000
Zebra and White ibis,PA3 1ET,55.849088519429100,-4.456807630480280
Shearwater and Chipmunk,PA2 8BT,55.824001546174300,-4.428385934908010
Bronzewing pigeon and Meadowlark,PA11 3HD,55.849457208585000,-4.586277000000000
Dorcopsis and Ibex,PA2 6RR,55.834628104159300,-4.422137000000000
Guillemot and Goose,PA1 1BF,55.845936000000000,-4.424771000000000
Fish eagle and Tattler,G78 3ES,55.786139705211700,-4.429075314780680
Pheasant and Francolin,PA2 9JN,55.829623447674500,-4.454413980619530
Piping shrike and Black jay,PA5 0ST,55.817750433763500,-4.534140564772440
Wallaby and Black cockatoo,PA3 2QJ,55.859728356723500,-4.431574274003630
Dorcopsis and River dolphin,PA1 1AU,55.845095974700000,-4.418727603500000
Old World vulture and Diving bird,PA10 2PS,55.837020812619800,-4.567083343199410
Wallaby and Pratincole,PA1 1SX,55.840509434028400,-4.423521412219030
Tattler and Songlark,PA7 5DU,55.904108188792700,-4.497661342056590
Kākāriki and Badger,PA10 2HD,55.832136303999600,-4.546958339882320
Tit-tyrant and Herring gull,PA14 6JQ,55.919826693229100,-4.663650311226730
Mockingbird and Vole,PA2 8HF,55.820926414160200,-4.429359716765880
Triller and Nukupuʻu,PA10 2PP,55.838846000000000,-4.559313000000000
Goose and Greenbul,PA6 7LT,55.863447168877300,-4.520974042862340
Petrel and Zebra,PA5 8HA,55.836336021381200,-4.503965549416240
Tree warbler and American sparrow,G81 1BW,55.904756276876800,-4.420601633884890
Ibex and Black jay,G82 1AW,55.942750000000000,-4.568006000000000
Thicketbird and Kangaroo,PA5 8NF,55.831365044734300,-4.513243693850130
Ice seal and Cuscus,G78 3JH,55.779668449851600,-4.429980230330850
Boto and Wallaby,G82 1HG,55.940481652588000,-4.557381000000000
Mouse and Jackal,PA8 6HB,55.901926976436800,-4.469011690314370
Magpie and Marsh harrier,PA1 2PW,55.844699250175700,-4.439357649994110
Night heron and Guillemot,PA1 2TW,55.839926100191300,-4.466420176040940
Skunk and Buzzard,PA1 2QR,55.841707510333100,-4.446534019725830
Civet and Moluccan boobook,PA3 2PP,55.856044628372800,-4.427413134228320
Darwin's finches and Civet,PA2 0BS,55.823636286919500,-4.470625718203020
Pratincole and Pheasant,PA5 8HS,55.837904955770900,-4.498859477919050
Chipmunk and Francolin,G60 5AQ,55.930681045236400,-4.484561953861910
Meadowlark and Egret,PA7 5AU,55.903491859294800,-4.499685611975390
White ibis and Meadowlark,G78 3NJ,55.784892042516400,-4.426716750713910
Ibex and Jackal,PA10 2JY,55.839465410537800,-4.554577777644860
Towhee and Wallaby,PA3 1EB,55.847940000000000,-4.456648432784680
Buzzard and Old World vulture,PA5 0LY,55.827215621991700,-4.527123599257400
Maya and Cloud rat,PA8 7DB,55.891244328859200,-4.457137063732980
Civet and Mink,PA1 1UU,55.843221181887600,-4.422284501001420
Argus and Logrunners,PA14 5SW,55.930360221408400,-4.670329576513680
Argus and Jay,PA11 3AL,55.854643073386000,-4.576714953012660
Logrunners and Perching duck,PA1 2UD,55.841291043770500,-4.439447596657240
Wader and Tit-tyrant,PA3 3RT,55.853676268558500,-4.494567205133270
Kākāriki and Marmoset,G60 5NX,55.917685183340900,-4.442309332317030
Crow and Mamo,PA2 6HH,55.829616325880900,-4.442133636809280
Towhee and Cuscus,PA2 8DJ,55.824473186677100,-4.431353163564100
Argus and Puffleg,PA2 0BA,55.820392231294600,-4.462980341009920
Partridge and Nukupuʻu,PA2 6FG,55.833765000000000,-4.420978000000000
Recurvebill and Tattler,PA3 1NL,55.847074864965000,-4.454124394647590
White ibis and Mouse,PA15 4UT,55.941427372897200,-4.739367270202270
Guillemot and Triller,PA15 2JT,55.938331573215900,-4.722108938083480
Triller and Night heron,G82 2UE,55.937228988836800,-4.517873095756420
Treepie and Bronzewing pigeon,G60 5DR,55.920506193267200,-4.452314532034190
Grosbeak and Scimitar babbler,PA5 9UL,55.825235176324700,-4.483165401761340
Badger and Thrasher,G81 4NQ,55.917435000000000,-4.433171000000000
Petrel and Booted eagles,PA11 3HS,55.851321707292000,-4.588494637389230
Marsh harrier and Solitaire,PA1 1UD,55.841042000000000,-4.421606000000000
Petrel and Magpie,PA14 5XY,55.924900530013100,-4.678774776911200
Viscacha and Nukupuʻu,PA2 8HJ,55.821084037752900,-4.430934122229440
Chicken and Fox,PA14 5NN,55.932433133749200,-4.675868305124360
Songlark and Ibex,PA3 3JL,55.845938942506500,-4.505236000000000
Towhee and Condor,PA11 3QP,55.859753646198100,-4.576893620931710
Puffleg and Francolin,G82 2PZ,55.941283007369600,-4.540252277239230
Tree warbler and Old World vulture,PA13 4DT,55.892799117450400,-4.629774025509040
Stint and Egret,PA3 1BB,55.842071756766400,-4.457115578668520
Kite and Macaw,PA3 3NB,55.849320556864800,-4.509836000000000
Badger and Marsh harrier,PA3 2LJ,55.853152150125400,-4.430971614482260
Stint and Stilt,G78 3HQ,55.782265863537300,-4.425436978506570
Recurvebill and Pratincole,PA7 5PG,55.912637938563300,-4.507599000000000
Kestrel and Asiatic leopard,PA5 8UP,55.845677395505800,-4.546896000000000
Ground sloth and Greenbul,PA3 3RL,55.852324364443600,-4.496078362982600
Wader and Vulture,PA3 2AG,55.847865138050400,-4.425383000000000
Eagle and Grosbeak,PA13 4RR,55.877478000000000,-4.634206000000000
Darwin's finches and Minke whale,PA9 1DZ,55.797201000000000,-4.568897000000000
Buzzard and Dolphin,PA7 5FL,55.896205000000000,-4.499121000000000
Night heron and Goose,PA12 4BB,55.799290157500800,-4.628633773550090
Macaw and Herring gull,PA1 1AG,55.844072993850600,-4.426671000000000
Kestrel and Snipe,PA7 5BU,55.909973669063100,-4.496070368492040
River dolphin and Zebra,PA3 3EN,55.846328471841600,-4.495677878063720
Asiatic leopard and Crow,PA2 0EP,55.827535317709700,-4.469819134579910
Moluccan boobook and Hawaiian honeycreeper,PA5 9JD,55.830222962488100,-4.485862782375650
Magpie and River dolphin,G82 1DW,55.941792585405500,-4.551828000000000
Perching duck and Argus,PA5 8HX,55.836670978855200,-4.498987920357270
Black jay and Argus,PA4 9LB,55.886593410717200,-4.430648049337560
Hawaiian honeycreeper and Night heron,PA14 6PG,55.927439000000000,-4.656625422214360
Night heron and Meadowlark,PA11 3HP,55.853398212464800,-4.591045605508850
Mockingbird and Prion,PA14 5BY,55.927999000000000,-4.679018000000000
Partridge and Mouse,PA6 7DE,55.865728896878100,-4.529353600846020
Pheasant and Hawaiian honeycreeper,PA3 3FJ,55.840208000000000,-4.476310000000000
Towhee and Quetzal,PA15 3EA,55.931961361880000,-4.730916920674260
Rat and Jay,PA14 6EH,55.921918000000000,-4.650075000000000
Guillemot and Grackle,PA13 4TL,55.911665000000000,-4.704985000000000
Nukupuʻu and Boto,PA1 1EH,55.846413000623600,-4.422514000000000
Marmoset and Quetzal,G81 4HA,55.909016000000000,-4.427571000000000
Lemming and Mamo,PA3 3QP,55.850752522735300,-4.507513352399710
Stilt and Armadillo,PA3 9TN,55.845596131491500,-4.417607807904090
Prion and Linsang,PA6 7NQ,55.857280449791300,-4.526710918399700
Piping shrike and Pitohui,PA1 1HF,55.846985000000000,-4.419196000000000
Guillemot and Peafowl,PA8 7AP,55.901808744561500,-4.447934311484990
Old World quail and Parrotlet,PA5 8LR,55.831623635983200,-4.510705219445200
Towhee and Stilt,PA3 1NU,55.851256461107600,-4.452662499417510
Philippine hawk-owl and Bunting,G60 5JU,55.928234680316000,-4.472142143330530
Argus and Rat,PA15 4HQ,55.942508535840700,-4.764589647036480
Flameback and Parrotbill,G81 3EX,55.912559111509700,-4.418334924374380
Mockingbird and Condor,PA14 5DL,55.927531603957900,-4.684255735424700
Mockingbird and Parrotbill,PA7 5BE,55.910261413746400,-4.505660000000000
American sparrow and Viscacha,PA2 9LX,55.836438717259500,-4.445723834161490
Bunting and Pheasant,PA2 9JL,55.828218946122000,-4.454533065030450
Ground sloth and Viscacha,PA13 4PA,55.888607000000000,-4.595256677907270
Perching duck and Chicken,PA10 2DG,55.830464412311900,-4.536963931423610
Polecat and Chickadee,PA14 6BA,55.923440749948100,-4.650291374209060
Shearwater and Stilt,PA5 9DU,55.833827511549400,-4.495164152512350
Siskin and Guillemot,PA6 7WJ,55.836800866848400,-4.508499506304930
Greenbul and Booted eagles,PA14 6PW,55.926571934005500,-4.656396723460860
Thrasher and Ibex,PA3 1PA,55.848704448430200,-4.444960777398230
Mamo and Stint,PA3 2SG,55.866040000000000,-4.426470000000000
Tattler and Black jay,PA11 3TN,55.868318634600000,-4.616881388200000
Parakeet and Magpie,PA2 8TQ,55.817843883540000,-4.429343138453970
Grosbeak and Viscacha,PA5 9RF,55.828294859314000,-4.500718005158540
Marsh harrier and Viscacha,PA14 5EB,55.934078286557000,-4.686470000000000
Chipmunk and Moluccan boobook,PA5 0DN,55.831047774258000,-4.503242277345960
Tahr and Chickadee,PA6 7NJ,55.857805531106600,-4.526089814705650
Chipmunk and Wallaby,PA2 0NP,55.830777202183300,-4.463237796327800
Ice seal and Polecat,PA2 0JZ,55.827555201524100,-4.462555006352950
Kangaroo and Nukupuʻu,PA14 6BZ,55.928143546038500,-4.662700254330580
Philippine hawk-owl and Masked owl,PA14 5UP,55.925272508519800,-4.672412837650910
Crow and Capuchin,PA8 7AQ,55.891357717012900,-4.449195190955830
Petrel and Viscacha,PA2 0DP,55.824643149782600,-4.466139062531600
Puffleg and Eagle,PA3 3BW,55.840673000000000,-4.480668000000000
Fish eagle and New World blackbird,PA6 7BR,55.860820721734000,-4.549411362794580
Viscacha and Tahr,PA2 6JY,55.828729815148800,-4.426077889833810
Coati and Hawk,PA2 6EH,55.833469000000000,-4.428242000000000
Maya and American sparrow,PA2 0DG,55.824787814397800,-4.468335666325270
Philippine hawk-owl and Mink,PA2 9HL,55.838841715067500,-4.446465752931810
Kangaroo and Hawk,PA2 0DS,55.825596001699700,-4.467476751328750
Polecat and Maya,PA3 2ET,55.851146411351600,-4.429679976874180
Snipe and Partridge,PA2 6PW,55.834595021677100,-4.417148392964980
Mockingbird and Gull,PA16 7JR,55.943743276251200,-4.787566248326720
Mouse and Mouse,PA7 5FH,55.899115579800000,-4.499116734200000
Flameback and Towhee,PA15 4UN,55.942054083920700,-4.739075198215570
Bunting and Badger,PA1 2HJ,55.839261321886300,-4.432564034744740
Mole and Old World vulture,PA6 7AG,55.860412066058700,-4.541361751320430
Hawk and Herring gull,PA13 4JP,55.894529263745500,-4.631250809828420
Petrel and Jerboa,PA6 7BN,55.860437045812300,-4.539717265671460
Boto and Old World quail,PA2 0AR,55.821419490309600,-4.464338000000000
Pheasant and Macaw,PA10 2JU,55.840196743909700,-4.553986825724830
Dolphin and Bronzewing pigeon,PA8 7HL,55.898068584177600,-4.448898394476940
Capuchin and Kite,PA2 9BN,55.832584000000000,-4.459216000000000
Polecat and Black cockatoo,PA12 4AU,55.797223005298400,-4.632403693465050
Fulmarine petrel and Dorcopsis,PA5 8TQ,55.833188985815400,-4.523806066058960
Buzzard and Ibex,PA2 6AQ,55.840066489274700,-4.438652090891940
Polecat and Grackle,PA2 0AS,55.821446937248100,-4.462376469325800
Parakeet and Grackle,PA7 5JN,55.909978667585300,-4.510408433910520
Chipmunk and Fulmarine petrel,PA5 0LX,55.826811162672400,-4.527560426828400
Parrotlet and Francolin,PA9 1AE,55.815632000000000,-4.546175307099560
Meadowlark and Vulture,PA14 5DQ,55.938149000000000,-4.702670000000000
Herring gull and Parrotbill,PA2 9AL,55.835927164665300,-4.462796934692020
Shearwater and Kangaroo,PA5 9NN,55.826805052506800,-4.493085598434950
Chickadee and Skunk,PA13 4AD,55.894246380319300,-4.626400845060450
Herring gull and Grackle,PA2 9AJ,55.836234186309100,-4.461378923960710
Skunk and Boto,G78 3RB,55.778758514464100,-4.437801766183450
Towhee and Thicketbird,PA2 8AS,55.826482928678000,-4.426528742036200
Badger and Quetzal,PA2 8EJ,55.820682170123700,-4.450721562258050
Buzzard and Rat,PA11 3DJ,55.851937443236700,-4.575864705234840
Vole and Capuchin,G60 5EU,55.919454945643500,-4.457706041640240
Booted eagles and Mole,PA2 0RH,55.818666746021300,-4.468347007871150
Cloud rat and Triller,PA16 9LP,55.921714166863400,-4.758337758026420
Siskin and Kite,PA10 2PQ,55.836312906468100,-4.555329262072150
Pitohui and Warbler,PA13 4ET,55.894340895132800,-4.627446979365070
Jackal and Dolphin,PA15 3ED,55.932002444118500,-4.734330395314920
Argus and Grosbeak,PA2 8NS,55.823070146477000,-4.443639192937650
Civet and Stint,PA3 3JP,55.845926722238500,-4.507474052620690
Thrasher and Puffleg,PA10 2AL,55.831006449277700,-4.537701903300860
Vulture and Triller,PA5 8SN,55.837213681875300,-4.515569777856330
Darwin's finches and Tahr,PA14 5RT,55.927766659676500,-4.671383860610700
Ice seal and Chicken,PA2 6NF,55.835412996988000,-4.421255775066740
River dolphin and Logrunners,PA7 5AN,55.902402897738500,-4.496655753118610
Macaw and New World blackbird,PA2 8HA,55.821559322302000,-4.425072594913230
Bronzewing pigeon and Diving bird,PA1 2BZ,55.845329437466900,-4.426426000000000
Dolphin and Skunk,PA15 1WE,55.942620000000000,-4.741934000000000
Fish eagle and Bunting,PA9 1AD,55.805401809726200,-4.522724988765340
Triller and New World blackbird,G81 4NT,55.916370179215500,-4.434736596970060
Argus and Mink,PA2 8BN,55.825100968113500,-4.426873763067580
Philippine hawk-owl and Jay,PA11 3SU,55.859826340312100,-4.559638308284560
Songlark and Bunting,PA2 8HZ,55.820974767190300,-4.428277109887760
Macaw and Dolphin,PA15 4NE,55.941023263613200,-4.771082367000640
Bunting and Tahr,PA11 3EF,55.854056445438800,-4.572218000000000
Capuchin and Piping shrike,PA6 7ET,55.868656240736100,-4.551477000000000
Mockingbird and Triller,PA2 8TG,55.817933956412300,-4.426602984524400
Nukupuʻu and Zebra,PA1 1HJ,55.847599000000000,-4.419521000000000
Recurvebill and Chipmunk,PA6 7HB,55.869826792254800,-4.552015925425610
White ibis and Cloud rat,G81 4QW,55.921500413748900,-4.435448000000000
Gull and Petrel,G78 3LU,55.782929085786500,-4.432352417285220
Asiatic leopard and Mockingbird,PA3 9SH,55.845596131491500,-4.417607807904090
Masked owl and Duck,PA2 6JN,55.831077192100400,-4.429641507721420
Fish eagle and White ibis,G81 6ED,55.925536685828900,-4.427963942179050
Pitohui and Hawaiian honeycreeper,G82 4BH,55.940873591201800,-4.572527598691100
Jackal and Linsang,PA13 4JT,55.894947230454000,-4.644876040659850
Boto and Jay,PA14 6EA,55.920634556032700,-4.648950000000000
Viscacha and Dolphin,G81 4QJ,55.920234386167200,-4.435219055194650
Capuchin and Towhee,PA13 4BU,55.895924655207400,-4.627362130468890
Solitaire and Myna,G81 3EU,55.911852954541600,-4.418594988786480
Cloud rat and Mouse,PA6 7EE,55.862930000000000,-4.509801000000000
Wader and Polecat,PA11 3QQ,55.862349029939300,-4.573565345397430
