name,postcode,lat,lon
Darwin's finches and Pitohui,LS7 1BS,53.806728526900000,-1.541148990400000
Shearwater and Grackle,LS3 1EU,53.803646000000000,-1.563548000000000
Bronzewing pigeon and Parrotlet,LS10 2LT,53.774242551186100,-1.533946000000000
Jackal and Vulture,WF13 2HN,53.700477868581300,-1.632821784881190
Coati and Jackal,LS12 1TG,53.796252041349600,-1.587657103393710
Snipe and Capuchin,LS9 8PN,53.792514421071100,-1.520325168191290
Petrel and River dolphin,LS7 2TB,53.828734683777100,-1.562269896709680
Piping shrike and Old World vulture,LS23 6LT,53.873850506498600,-1.386814648665200
Recurvebill and Puffleg,LS12 2JE,53.808320821552000,-1.611258696298440
Masked owl and Philippine hawk-owl,WF17 5AX,53.710754757048700,-1.633944409413730
Wallaby and Grouse,LS9 7SY,53.801228938464100,-1.526132000533500
Kite and Jay,LS7 1BT,53.808480903917000,-1.532656054741250
Hawk and Mamo,LS16 7QP,53.855962069618800,-1.604538825566730
Tattler and Fulmarine petrel,LS12 3NH,53.800193930770800,-1.597107638976660
Philippine hawk-owl and Hawk,LS27 0AE,53.740597254925500,-1.606182926371380
River dolphin and Grouse,LS2 9NU,53.802155000000000,-1.556488000000000
Wader and Fox,LS15 4HH,53.827255736609900,-1.390184097200960
Thrasher and Kestrel,LS25 1DJ,53.791733898969300,-1.398911467029570
Snipe and Nukupuʻu,LS12 1AH,53.794917000000000,-1.563108000000000
Solitaire and Solitaire,LS27 0PX,53.739238537536100,-1.611228973160050
Ground sloth and Wader,LS26 0WB,53.748255483997900,-1.470803070905920
Prion and Chickadee,LS8 1PZ,53.833120969550400,-1.526775131803400
Zebra and Linsang,WF17 7NS,53.706411754695300,-1.636330153806670
Dorcopsis and Quetzal,LS3 1AH,53.801369079574500,-1.558151672516780
Tahr and Viscacha,LS10 3EB,53.765913144445600,-1.525710323552230
Mamo and Old World warbler,LS11 6QB,53.782031201588900,-1.547276132502580
Wader and Black jay,WF17 5HR,53.712360000000000,-1.629597000000000
Solitaire and Bunting,LS1 2NE,53.799300744060100,-1.550597389760660
Chicken and B,LS9 6BP,53.809464206121600,-1.504429378516870
Elephant and Old World warbler,LS1 6LH,53.798334929365500,-1.542379040955710
Argus and Warbler,LS16 6QJ,53.847903000000000,-1.602320000000000
River dolphin and American sparrow,LS1 3EY,53.803640000000000,-1.549731000000000
Black jay and Kestrel,LS7 1JR,53.809891785503200,-1.541919155391240
Parakeet and Ground sloth,LS11 6TT,53.781365825458300,-1.547101000000000
Grosbeak and Minke whale,WF3 4PH,53.715779940250900,-1.480786857467120
Capuchin and Minke whale,LS27 9JT,53.748007621115500,-1.604718602462800
Vole and Old World quail,WF3 3QW,53.729665537073700,-1.486784910672880
Maya and Parakeet,LS7 2RY,53.826034278295800,-1.556723000000000
Lemming and Buzzard,LS26 8QL,53.769937064675600,-1.420706151309490
Rat and Darwin's finches,LS11 9LH,53.784334000000000,-1.559545000000000
Meadowlark and Shearwater,LS8 1AB,53.843389156871300,-1.516476513768070
Maya and Mole,LS27 7PZ,53.759927000000000,-1.593928000000000
Parakeet and Goose,LS2 7EW,53.794871056925300,-1.539122492575490
Civet and Wallaby,LS10 1AL,53.784239000000000,-1.534382000000000
Petrel and American sparrow,LS13 3NA,53.810861809809200,-1.627439229245850
Vole and Towhee,LS10 4DB,53.744395000000000,-1.541509000000000
Stilt and Mockingbird,LS8 5QF,53.811763747176400,-1.519695000000000
Chickadee and Solitaire,WF13 2HF,53.701087000000000,-1.631923000000000
Skunk and Stint,LS8 2QY,53.825287393753800,-1.494671915783540
Coati and Tree warbler,LS26 0PX,53.757256863514500,-1.494714935710390
Egret and Thicketbird,LS27 0LJ,53.743326893578200,-1.622092863582860
Piping shrike and Zebra,LS27 9DU,53.738510608448100,-1.589677533785490
Boto and Ground sloth,LS7 2NW,53.830804574667000,-1.550822608041480
Old World warbler and Mamo,LS14 2BE,53.825600289872900,-1.453270085366240
Ground sloth and Towhee,LS10 4FE,53.745883808200000,-1.528422725200000
Parrotlet and Gull,LS11 9NW,53.785492453676600,-1.552292970324020
Marmoset and Lemming,LS8 3BE,53.821260672666000,-1.486183353422210
Quetzal and Civet,LS14 6EW,53.814496000000000,-1.468041000000000
Cloud rat and Hawaiian honeycreeper,WF10 5DE,53.723023773734400,-1.356472159076900
Masked owl and Philippine hawk-owl,LS12 4AE,53.784169157352800,-1.589262000000000
Dolphin and Solitaire,LS6 1EL,53.812824153373400,-1.571745383087510
Songlark and Bunting,LS6 4EG,53.824321013641900,-1.571947000000000
Booted eagles and Asiatic leopard,LS1 4SP,53.794241572629300,-1.546280000000000
Grouse and River dolphin,LS12 1TW,53.794547227484500,-1.591135002670040
Grosbeak and Pratincole,WF12 7PR,53.703164007475800,-1.620846866090620
Badger and Viscacha,LS27 8GN,53.743978936017000,-1.588092892751140
Ice seal and Thicketbird,LS26 8FW,53.748661000000000,-1.446884000000000
Asiatic leopard and Towhee,LS11 7DB,53.767895721154000,-1.557653423683170
Goose and Black jay,LS7 4EN,53.816100112568900,-1.527392069853950
Jackal and Chickadee,WF17 6PL,53.715317458817800,-1.621313439878230
Rat and Kite,LS1 5EN,53.795465980288700,-1.544763000000000
Pitohui and White ibis,LS8 2BJ,53.847182888335100,-1.516676016567970
Hawk and B,LS17 9LG,53.896857486312600,-1.527273000000000
Flameback and Duck,LS26 8TY,53.753342363552300,-1.460623531832060
Petrel and Mockingbird,WF3 4BN,53.717906000000000,-1.459181053094330
Thrasher and Tree warbler,LS15 4LW,53.824569225457300,-1.393914663066720
Pheasant and Asiatic leopard,WF3 2DT,53.727293206090700,-1.537739502647420
Pratincole and Ground sloth,WF17 8JQ,53.724831208738600,-1.652418056311170
Cuscus and Kestrel,LS10 3PW,53.755602620002700,-1.527691918836390
Prion and American sparrow,LS7 4AN,53.828819709155700,-1.534693597722630
Coati and Zebra,LS13 2BH,53.808601839195600,-1.623283183339220
Flameback and Badger,LS6 9EJ,53.811152000000000,-1.537961000000000
Fish eagle and Gull,WF3 3TP,53.740879706574300,-1.486072228577230
Viscacha and Rabbit,LS15 0EG,53.798207595058500,-1.478145285243450
Myna and Grosbeak,BD11 1HD,53.752420300000000,-1.657149617000000
Mink and Vole,LS13 2PH,53.819878632601700,-1.628042850041840
Vulture and Thicketbird,LS17 7SJ,53.854945000000000,-1.559883000000000
Crow and New World blackbird,LS13 2AX,53.805531332697400,-1.621503722324360
Civet and Vulture,LS27 8PE,53.748214561517000,-1.583532634874030
Grackle and Cloud rat,LS14 5PT,53.816923669543000,-1.438953577399880
Mink and Duck,WF3 1DS,53.716010593620700,-1.580789000000000
Prion and White ibis,LS27 0BU,53.738821023016400,-1.601772638434700
Partridge and Peafowl,LS14 6RY,53.815803781031500,-1.475527055666960
Hawk and Kite,WF10 2HB,53.752835043562800,-1.385089563751240
Greenbul and Marsh harrier,LS11 8AS,53.771414814563100,-1.573866003160170
Maya and Marsh harrier,LS1 3DA,53.801013063493100,-1.549425183224500
Puffleg and Recurvebill,LS27 0JH,53.740052298686900,-1.612586000000000
River dolphin and Bronzewing pigeon,LS12 5DA,53.785591045324300,-1.611544580559230
Skunk and Macaw,LS17 8NS,53.851178631272100,-1.513483364409130
Elephant and B,LS11 9QA,53.786031315581800,-1.557022647515440
Meadowlark and Boto,LS28 9HB,53.790593610617900,-1.654394817602150
Eagle and Asiatic leopard,LS13 2NJ,53.816140816023200,-1.628425258160150
Thicketbird and Cuscus,LS2 9ND,53.805126768547000,-1.558339955431790
Elephant and Meadowlark,LS16 5TY,53.834713161189200,-1.588084990453680
Condor and Stilt,LS14 5NT,53.820632000000000,-1.439785000000000
Cloud rat and Armadillo,LS11 0BX,53.781180411170400,-1.565116904413040
Night heron and Fox,WF17 7QR,53.709719405166300,-1.654572634847060
Piping shrike and New World blackbird,LS26 9JH,53.739937556735900,-1.392251880184750
Pitohui and Bunting,LS27 9EY,53.740196195590400,-1.596544000000000
Parrotlet and Logrunners,LS1 2BL,53.796303699009200,-1.564125591562130
Egret and Jackal,LS7 4BL,53.812576745008900,-1.529664202701250
Marsh harrier and Treepie,LS9 6BD,53.809543295803500,-1.508361651679150
Magpie and Moluccan boobook,LS26 0TX,53.743407821135400,-1.499399361760340
Nukupuʻu and Capuchin,LS18 4PW,53.830802409710600,-1.647029475036220
Night heron and Duck,LS6 4LQ,53.830323923837900,-1.569272780305890
Civet and Grosbeak,LS7 4NE,53.828633146845000,-1.535257805260200
Nukupuʻu and Duck,LS6 4BW,53.828440640069900,-1.580610807202200
Piping shrike and Philippine hawk-owl,LS13 4ED,53.801394212390700,-1.641127155123600
Capuchin and Siskin,LS13 2AF,53.805822168601600,-1.619678939768680
Ice seal and Grosbeak,LS17 8TU,53.853735000000000,-1.496748341284980
Hawk and Parrotbill,LS1 6DB,53.797350693943500,-1.541190395895360
Night heron and Argus,LS16 9EU,53.885199789434000,-1.604552170346060
Vulture and Jerboa,LS14 5JF,53.816293861290800,-1.444612148059940
Siskin and Petrel,LS10 4QB,53.754271425051500,-1.520654576972530
Marsh harrier and Macaw,LS13 1AQ,53.815919707992700,-1.650571823006300
Kākāriki and Condor,LS27 8AT,53.744202668372800,-1.595732605291410
Piping shrike and Petrel,WF12 7HU,53.711130073832500,-1.596837355746570
Meadowlark and Prion,LS10 2LY,53.773806801684500,-1.535438453079710
Herring gull and Fox,LS13 3JF,53.811474248498700,-1.627981000000000
Crow and Flameback,LS26 8RW,53.755175778718700,-1.454624438572970
Solitaire and Asiatic leopard,LS9 7HR,53.808989726752100,-1.511755000000000
White ibis and Partridge,WF1 2NN,53.707947043645700,-1.507485806564330
Pitohui and Songlark,LS16 7DY,53.857344228539000,-1.620641362269380
Marmoset and Tree warbler,LS11 5PE,53.778809487840400,-1.543850887453690
New World blackbird and Kākāriki,LS4 2JJ,53.809839611150900,-1.584380316563890
Pratincole and Towhee,LS15 9DW,53.795251050135700,-1.444237273688200
Meadowlark and Fish eagle,LS17 6HZ,53.841472210001000,-1.542882000000000
Buzzard and Recurvebill,LS15 0EW,53.796092867851300,-1.481708762916010
Fish eagle and Treepie,WF3 3TG,53.737385505996500,-1.505838130466620
Minke whale and Cuscus,LS16 8BT,53.850022593394900,-1.583724193482380
Grackle and Capuchin,LS14 3EA,53.858255300347100,-1.424748076771740
Old World vulture and Logrunners,LS27 0EW,53.739790031872300,-1.598564533055430
Elephant and Pitohui,LS4 2NJ,53.813182631234500,-1.581643910798890
Fish eagle and Dolphin,LS17 7QQ,53.861667422697300,-1.555160224468940
Kestrel and Mockingbird,LS10 4DY,53.742710000000000,-1.542771000000000
Bronzewing pigeon and Badger,WF17 7PD,53.706666900869900,-1.640463625858830
Jay and Puffleg,LS11 8BB,53.778069000000000,-1.554512000000000
Asiatic leopard and Greenbul,LS14 1NE,53.825537382796200,-1.477486848009520
Crow and Treepie,LS11 5BQ,53.792352753567600,-1.550534997133430
Grosbeak and Vulture,WF1 3DU,53.707990807091000,-1.500683156400890
Booted eagles and Kākāriki,LS12 4AS,53.784447617198700,-1.584145470935850
Bunting and Bronzewing pigeon,LS10 3LR,53.756904696506400,-1.518349543121410
White ibis and Maya,LS26 8LQ,53.754017207521900,-1.445024114459670
Buzzard and Partridge,LS27 7QE,53.761219361021300,-1.593733891505140
Thrasher and Kangaroo,LS13 2RN,53.811520982098000,-1.616984893208000
Parrotbill and Boto,LS25 7NT,53.770727836829200,-1.377606248851670
Chicken and B,LS8 1RT,53.827949658206900,-1.510288457180500
Gull and Darwin's finches,LS17 9JL,53.864230000000000,-1.473021000000000
Lemming and Tit-tyrant,LS13 4QR,53.797923796307700,-1.646834771181480
Jay and Cloud rat,LS12 2DQ,53.797005632163000,-1.584643770914270
Vulture and Chicken,LS17 7EA,53.858560942594100,-1.533604000000000
Elephant and White ibis,LS13 1EE,53.819420175715000,-1.636826505565270
Herring gull and Fish eagle,LS11 8ES,53.761705405288000,-1.568200097568760
Philippine hawk-owl and Minke whale,LS28 9FJ,53.797994000000000,-1.656221000000000
Badger and Rat,WF10 4AF,53.723436658136700,-1.353025627555860
Minke whale and Jay,LS6 2DX,53.817410624829400,-1.562494163386060
Tattler and Recurvebill,LS27 7LH,53.755374646342600,-1.623273957667270
Recurvebill and Scimitar babbler,LS10 2QE,53.780099000000000,-1.528282000000000
Jay and Solitaire,LS1 9TZ,53.796312000000000,-1.564099000000000
Myna and Armadillo,LS25 7JT,53.766595435851100,-1.372843052626440
Zebra and Petrel,LS21 1PS,53.896389079732100,-1.560407028855960
Old World quail and Linsang,LS2 7PX,53.801110538674200,-1.535136000000000
Vole and Herring gull,LS15 9JF,53.791457285489300,-1.434450993502740
Ground sloth and Philippine hawk-owl,LS11 6XD,53.780882000000000,-1.544876000000000
Tattler and Nukupuʻu,LS14 5BY,53.824948749290500,-1.446427092239830
Nukupuʻu and Piping shrike,LS3 1NX,53.804035594701500,-1.564728736177780
Vulture and Songlark,LS7 1AB,53.808597000000000,-1.532015580978030
Peafowl and Eagle,LS18 5BA,53.845720619738800,-1.631476973705730
Tit-tyrant and Perching duck,LS12 6HA,53.774700928940400,-1.621037451637670
Stilt and Kākāriki,LS16 6HU,53.840217341549900,-1.599763216332930
Puffleg and Kākāriki,LS7 2SQ,53.823107122215700,-1.559518186663870
Chicken and Egret,LS12 2NS,53.800880756959900,-1.585015440821670
Mole and Logrunners,LS16 9AU,53.885015160811200,-1.622596999163520
Peafowl and Rabbit,LS14 2FF,53.833270000000000,-1.449782000000000
Kākāriki and Philippine hawk-owl,LS17 8AE,53.850212054073800,-1.525746436022230
Towhee and Puffleg,WF3 1ND,53.723967147919500,-1.586863767489700
Magpie and Old World warbler,LS15 0QT,53.796170000000000,-1.482786000000000
Shearwater and Philippine hawk-owl,LS15 9BL,53.789264362892200,-1.444103863337720
Eagle and Mink,LS17 5BR,53.844369098971400,-1.548868866702540
Old World quail and Parakeet,LS15 8PB,53.800224744621900,-1.441074250222210
Polecat and Parrotbill,LS15 4JN,53.832914675688500,-1.394812278356820
B and Thrasher,LS14 6EP,53.814894618676200,-1.471118669639430
Grouse and Tit-tyrant,LS15 8JG,53.812295671810500,-1.446882304182220
Wader and Peafowl,LS13 1NZ,53.819274967962500,-1.651516063036660
Booted eagles and Piping shrike,LS27 8QT,53.753969902981200,-1.597564972862970
Chicken and Chicken,LS7 4LH,53.825727511214900,-1.532297130047970
Gull and Ground sloth,LS15 7UG,53.799137142327700,-1.479014328595100
Pratincole and Grackle,LS16 8AX,53.887120000000000,-1.559439000000000
Mockingbird and Prion,LS6 3FD,53.822437472600000,-1.598201011000000
Cuscus and Capuchin,WF10 2AU,53.752088611869000,-1.342652217236640
Chickadee and Myna,LS11 9AB,53.791538000000000,-1.553383636600310
Stilt and Mole,WF17 0HB,53.718600409289300,-1.636573619924190
Lemming and Mockingbird,LS14 5QG,53.819475000000000,-1.446256000000000
Mouse and Parrotlet,LS3 1AY,53.802904347985600,-1.560139788382930
Petrel and Meadowlark,LS7 4PD,53.829665663310900,-1.534972902110040
Cuscus and Macaw,WF17 5EU,53.713253978046300,-1.631180335549380
Wader and Asiatic leopard,LS5 3JR,53.817977255655300,-1.601311662732030
Parrotbill and Siskin,WF17 7AX,53.706269774950600,-1.645950885501810
Linsang and Mamo,WF10 2LU,53.728797930877400,-1.355489752130580
Partridge and Jay,LS13 3HW,53.809990830059300,-1.648586143846100
Black cockatoo and Solitaire,LS27 0LB,53.741147421502500,-1.617762000000000
Dorcopsis and Asiatic leopard,WF3 4HA,53.713506048914500,-1.480814843748520
Hawaiian honeycreeper and Grosbeak,LS14 3DR,53.846301000000000,-1.447377000000000
Hawk and Ground sloth,WF6 2HF,53.703894228401100,-1.410130871304150
Philippine hawk-owl and Darwin's finches,LS18 5BQ,53.844194979508900,-1.638147341087430
Grackle and New World blackbird,LS5 3EF,53.817389468115300,-1.600238826132020
Moluccan boobook and Shearwater,LS16 6BE,53.848198894396100,-1.602544743460370
Fish eagle and Night heron,LS1 5BA,53.795164545182700,-1.545373808983730
Lemming and Magpie,WF6 2SH,53.709054665719700,-1.438449773190080
Maya and Jackal,WF3 1JA,53.730131051912800,-1.588910262020770
Chickadee and Night heron,LS27 7QN,53.758295241601100,-1.587588891006670
Zebra and Vole,LS5 3HA,53.818258845502300,-1.599501475288570
Magpie and Songlark,LS7 1DR,53.805314000000000,-1.538690448590670
Moluccan boobook and Tit-tyrant,LS8 1AJ,53.843181044705700,-1.520612843471020
Petrel and Ground sloth,LS7 3NW,53.826399755621800,-1.541131505381620
Chicken and Mouse,WF3 3PS,53.729944213901600,-1.501711586141230
Puffleg and Mamo,WF17 0JD,53.737595975204400,-1.637789460963460
Hawaiian honeycreeper and Black cockatoo,WF10 4SF,53.727721839893500,-1.334666000000000
Linsang and Triller,LS18 5DT,53.838166794927600,-1.624400942452670
Songlark and Pitohui,LS17 6DA,53.848151223409600,-1.548387423964990
Parrotlet and Nukupuʻu,WF10 2HE,53.752897286778900,-1.383208098807820
Triller and Old World vulture,LS17 5LQ,53.845192151400200,-1.562402321628960
Tahr and Snipe,LS8 1JW,53.831525645957000,-1.512191609363890
Civet and Grackle,LS14 3DS,53.872424893136000,-1.448705542375240
Argus and Stint,LS26 8PZ,53.762411296390800,-1.431412939172740
Thrasher and Mockingbird,LS17 6QB,53.842017660372200,-1.533301137983840
Night heron and Siskin,LS13 4SA,53.803178800105100,-1.625108259893440
Chickadee and Bronzewing pigeon,WF3 4AT,53.717655108905000,-1.459685914395050
Wader and Mole,LS10 1JW,53.792414603655800,-1.540471000000000
Chickadee and Zebra,LS26 9BH,53.734779151346900,-1.406895000000000
Thrasher and Parrotbill,LS1 9RR,53.796312000000000,-1.564099000000000
Chickadee and Jackal,LS11 6AL,53.780637563981600,-1.551934874388900
Zebra and Booted eagles,LS13 2AZ,53.819500082900000,-1.633544852000590
American sparrow and Quetzal,LS9 8JU,53.794528819572400,-1.525114474606590
Thrasher and Tattler,LS10 4HQ,53.742930326370900,-1.537158627342600
American sparrow and Wader,LS26 8RH,53.758837206854400,-1.449435120791300
Zebra and Nukupuʻu,WF10 5BB,53.717738194279300,-1.349718739289010
Coati and Triller,LS25 1LH,53.785246053741400,-1.404634987367920
Mole and B,LS11 6JE,53.774859046370700,-1.549750694950170
Myna and Old World vulture,LS11 0BT,53.782402521265000,-1.565043570684740
Vulture and Argus,LS11 5PB,53.778618725709600,-1.543321832313070
Civet and Guillemot,LS17 7NS,53.856925966978600,-1.556289911861170
Polecat and Petrel,LS12 5NX,53.781776855097300,-1.605038914578780
Black jay and Jerboa,LS27 8UP,53.741016257468400,-1.591715086217370
Darwin's finches and Armadillo,LS9 6NF,53.806134626743200,-1.505637860905970
Pratincole and Recurvebill,LS12 4QN,53.791566416555500,-1.613811886767900
Dolphin and Bronzewing pigeon,LS1 8XW,53.796303699009200,-1.564125591562130
Coati and Chickadee,WF17 5DZ,53.713402156656800,-1.632603271892880
Dolphin and Jackal,LS15 8FQ,53.796530000000000,-1.429605000000000
New World blackbird and Ground sloth,LS27 8UF,53.745829000000000,-1.576915000000000
Viscacha and Skunk,LS2 7UP,53.798090000000000,-1.534411000000000
Pitohui and Booted eagles,LS9 8JB,53.795586114592400,-1.522202000000000
Nukupuʻu and Diving bird,WF12 7QH,53.702766510499300,-1.606278456761690
Quetzal and Magpie,LS12 3QB,53.800671123365800,-1.608216918378150
Ground sloth and Fish eagle,LS7 2DH,53.819050673394400,-1.551464684639520
Grouse and Ibex,WF10 2BP,53.743725758351300,-1.365299006264780
Diving bird and Eagle,LS7 1QR,53.810255282563400,-1.526728834403940
Chicken and Thrasher,LS11 0JN,53.769398173654700,-1.583277000000000
River dolphin and Hawk,LS14 3DT,53.871122110200000,-1.450045972900000
Coati and Darwin's finches,WF13 4DD,53.704382013634200,-1.655116201591090
Badger and Greenbul,LS26 8BN,53.762475882978400,-1.396795945735310
Nukupuʻu and Solitaire,LS17 9FB,53.896504191200000,-1.430782098100000
Lemming and Armadillo,LS17 5HR,53.853229737998900,-1.563048223835340
Kite and Night heron,LS9 8JD,53.795725073279900,-1.520804712375660
Partridge and Peafowl,LS6 2DJ,53.819633289557700,-1.573210164544530
Dorcopsis and Fulmarine petrel,LS13 4HB,53.803048011951300,-1.629300127326840
Boto and Jerboa,LS9 0AQ,53.790017188427600,-1.520687580700140
Chickadee and Elephant,LS10 3QS,53.751514419799200,-1.532636100937270
Badger and Recurvebill,LS25 7JX,53.765680221076800,-1.373144923366760
Mink and Kestrel,LS4 2NU,53.810786442401100,-1.580103543560400
Macaw and Old World vulture,WF17 6NS,53.711563000000000,-1.619213151447170
Partridge and Bronzewing pigeon,LS8 3RD,53.815654000000000,-1.512760000000000
Argus and Masked owl,LS15 8SG,53.814981534401600,-1.440726139587430
Grouse and Old World quail,LS11 5ST,53.764903722551600,-1.550676323157610
Mole and Condor,LS88 8AN,53.765303000000000,-1.501460000000000
Kangaroo and Grouse,LS26 9FE,53.739714000000000,-1.412347000000000
Goose and Chipmunk,WF6 1QA,53.703287583892400,-1.405594976951630
Myna and Stilt,LS27 9FA,53.742808570000000,-1.602447765400000
Quetzal and Night heron,LS6 3NR,53.820765419772900,-1.591183782272020
Tree warbler and Ice seal,LS11 9NS,53.785773909117700,-1.560349230386460
American sparrow and Shearwater,LS14 6BB,53.807995721673700,-1.472010300217160
Duck and Kite,LS6 3NW,53.822259444404200,-1.591776875221450
Triller and Marsh harrier,LS12 2DD,53.796311770024900,-1.586730459199670
Rat and Tit-tyrant,LS10 1RG,53.781663628647100,-1.522027165167560
Dolphin and Old World vulture,LS11 6LP,53.773533243400400,-1.550933203115880
Nukupuʻu and Songlark,LS14 2EE,53.836940045033100,-1.460522949109000
Towhee and Treepie,LS9 8AS,53.792618000000000,-1.523527000000000
Black jay and Parakeet,LS25 3BP,53.836726825063300,-1.343728960888310
Dolphin and Wallaby,LS17 8PH,53.850303531628600,-1.510468534186230
Badger and Marsh harrier,LS10 3JJ,53.758649281451800,-1.525337091062470
Viscacha and Siskin,WF10 5XR,53.708637000000000,-1.363634000000000
Parakeet and Rabbit,LS6 1RQ,53.808067000000000,-1.570881244180100
Maya and Magpie,LS27 7BX,53.763111100794700,-1.637115001007900
Vole and Meadowlark,LS12 1HY,53.788879060364400,-1.573431000000000
Mouse and Grackle,WF10 5RX,53.718726395681900,-1.357962163468100
Ground sloth and Thicketbird,LS8 5NH,53.810023000000000,-1.522343000000000
Black cockatoo and Siskin,LS15 7NN,53.808034813125300,-1.460590234206690
Siskin and Viscacha,LS21 1PD,53.897756112104000,-1.601907508140870
Fox and Kestrel,LS25 1AP,53.794789321765600,-1.391672064508850
Quetzal and Cloud rat,LS6 2NY,53.814074231856500,-1.555193000000000
Dolphin and Thicketbird,LS12 1UB,53.796196000000000,-1.589341641256940
Kite and Parakeet,LS8 4JL,53.816965144447800,-1.521139749054220
Cloud rat and Kangaroo,LS6 1RA,53.806643315060400,-1.570228000000000
Magpie and Eagle,LS17 8RU,53.856217686021100,-1.514914845468250
Triller and Prion,WF10 5JG,53.711736239797900,-1.365219822115120
Mink and Ibex,LS1 9UF,53.796312000000000,-1.564099000000000
Ground sloth and Diving bird,LS14 3JS,53.866924560670600,-1.454678123240420
Linsang and Mink,LS8 2AW,53.845657772295600,-1.510720294627560
Masked owl and Bronzewing pigeon,WF10 4EJ,53.720914102873200,-1.355276855715310
Wader and Nukupuʻu,LS25 7BX,53.770822407502300,-1.348034124453950
Badger and Nukupuʻu,LS25 7DB,53.772712176608100,-1.377212757005150
Scimitar babbler and Cuscus,LS18 5RQ,53.845134271280800,-1.639659139312450
Rabbit and Chipmunk,WF10 1QQ,53.723088066562000,-1.378885515786880
Masked owl and Greenbul,LS8 3BN,53.820773968768300,-1.483774063282060
Vole and Goose,LS26 9LG,53.738720639784900,-1.405898862086280
Ibex and White ibis,LS12 2QQ,53.799033766417000,-1.578581196775090
Elephant and Civet,LS16 6SH,53.849796220978900,-1.612774843142400
Warbler and Eagle,LS16 7AJ,53.855613408204500,-1.599373000000000
Black cockatoo and Kestrel,LS11 6BE,53.776565677765300,-1.551856825928170
Chicken and Flameback,LS26 8BJ,53.763219368945800,-1.394509871922780
White ibis and Solitaire,LS12 2AT,53.800511908848300,-1.587524243509890
Kite and Prion,LS1 5HL,53.795769650230400,-1.546141505966820
Parrotbill and Moluccan boobook,LS10 2LJ,53.777113943007500,-1.519347439881440
Tit-tyrant and Kākāriki,LS25 1NS,53.792253095332600,-1.377348494862570
Puffleg and Ground sloth,LS1 6LB,53.798600000000000,-1.543273085523450
Parakeet and Petrel,LS6 4QZ,53.838744084930500,-1.571344351974760
Cloud rat and Eagle,LS12 3NT,53.799763182093100,-1.597309138028940
Fox and Duck,LS6 1JS,53.810424820858300,-1.571876128806780
Recurvebill and Jay,LS11 9BH,53.787317000000000,-1.547098000000000
Ground sloth and Logrunners,LS12 3PN,53.796875000000000,-1.606947000000000
Francolin and Kākāriki,LS16 6HZ,53.842752371328200,-1.599891036513640
Booted eagles and Songlark,LS1 5HA,53.799249946337500,-1.546650515171050
Rabbit and White ibis,LS12 5SR,53.782486199698500,-1.602103233904970
Jay and Wader,LS13 3NW,53.809474428296700,-1.635166021213130
Petrel and Prion,LS14 9JA,53.827180000000000,-1.456779000000000
Tit-tyrant and Siskin,LS13 4QG,53.805818000000000,-1.647330000000000
River dolphin and New World blackbird,LS8 1PL,53.831945171794000,-1.520391614677540
Ground sloth and Magpie,LS25 1AF,53.795312518064200,-1.388506834291820
Parakeet and Dolphin,LS13 2PX,53.811620099309900,-1.622739788615580
Macaw and Petrel,LS4 2BX,53.804453032163600,-1.581001919883410
Flameback and Treepie,LS10 4GA,53.746908000000000,-1.526698000000000
Flameback and Prion,LS15 8RL,53.802612085004100,-1.448087735536440
Pheasant and Jay,LS9 9LR,53.797042543725900,-1.513168540095150
Warbler and Prion,LS8 3HG,53.820065618184800,-1.488370127086850
Darwin's finches and Kestrel,LS7 4PB,53.831007036417700,-1.537860081316040
White ibis and Old World quail,LS17 7HH,53.847980503840500,-1.543921000000000
Civet and Mink,LS12 2BD,53.801837480048900,-1.588786638737430
Old World quail and Bronzewing pigeon,LS10 3DN,53.762880392979800,-1.527033867959090
Kite and Jackal,WF6 2QS,53.712043436894000,-1.422410491525980
Dolphin and Lemming,LS4 2TN,53.815326931793500,-1.590963289229900
Francolin and Scimitar babbler,LS26 9AY,53.739201000000000,-1.383333000000000
Argus and Marsh harrier,LS9 9LY,53.796577326190100,-1.511488785814820
Night heron and River dolphin,WF17 8JR,53.723653178477500,-1.652215592323640
Marmoset and Perching duck,LS11 0AW,53.782522690910700,-1.561020602122250
Parrotbill and Hawaiian honeycreeper,LS18 4SZ,53.833071000000000,-1.641889178500000
Argus and Ice seal,LS6 2TN,53.820014924643600,-1.574375908559000
Triller and Magpie,LS8 3HH,53.821029601757300,-1.491214000000000
Old World warbler and Skunk,LS2 8BB,53.801191283338400,-1.546629587758160
Moluccan boobook and Francolin,WF1 3TN,53.714275850037000,-1.490547978319020
Warbler and Treepie,LS16 7RS,53.857655959728000,-1.611122000000000
Solitaire and Tree warbler,WF3 1BW,53.725027480419200,-1.584185994660650
American sparrow and Meadowlark,LS25 2HS,53.785735018897500,-1.380495668407350
Tit-tyrant and Vole,LS9 9DJ,53.796793063300100,-1.507098822830770
Polecat and Rabbit,LS12 4RA,53.792208588509800,-1.606747387327000
Black cockatoo and Hawk,LS26 9AD,53.738894000000000,-1.393650448997510
Ice seal and Hawk,WF1 2ND,53.706007567715300,-1.505781477440130
Parakeet and Fish eagle,LS12 2RE,53.810660516345800,-1.606605192833640
Tit-tyrant and Shearwater,LS9 7BL,53.806320000000000,-1.513317305274000
Masked owl and Tattler,LS11 5JY,53.773412591578400,-1.542467000000000
Kestrel and Meadowlark,LS17 8WD,53.854848000000000,-1.481624063805980
Perching duck and Rat,LS25 2GY,53.799769870277100,-1.374535000000000
Stint and Eagle,LS13 3EL,53.808920205232400,-1.633211859159740
Armadillo and Wallaby,LS17 8QQ,53.854705011171600,-1.523217668699720
Masked owl and Towhee,WF10 2JD,53.728144189697600,-1.348694459532270
Francolin and Duck,LS11 7HR,53.770986493489700,-1.559790570938370
Dolphin and Capuchin,LS12 4DJ,53.789408705391300,-1.581470506536540
Darwin's finches and Chicken,LS25 1DU,53.792086000000000,-1.388588000000000
Macaw and Puffleg,LS17 6LF,53.836905363563000,-1.538433412779120
Fish eagle and Petrel,LS7 2AF,53.810596000000000,-1.540671000000000
Francolin and Mole,LS28 6PF,53.806920702926900,-1.652969920158240
Chipmunk and Greenbul,LS17 6HW,53.844850274453800,-1.540656306423810
Cuscus and Dorcopsis,LS13 2HN,53.815681977820500,-1.631193578337940
Vole and Quetzal,LS17 7QN,53.861969267227900,-1.551735883968590
Perching duck and New World blackbird,LS15 4JG,53.829427715910600,-1.394892905730460
Scimitar babbler and Stilt,WF10 4LL,53.726437242991800,-1.339566271249460
Parrotlet and Tit-tyrant,WF17 8JB,53.723653870091200,-1.649366432598440
Magpie and Parrotlet,WF10 1QE,53.723540207727900,-1.382894987567070
Night heron and American sparrow,LS26 9JQ,53.741460957793800,-1.394898360226180
Lemming and Rat,WF10 4JW,53.723690665424000,-1.340367000000000
Masked owl and Pratincole,LS12 2SS,53.808543040776500,-1.607733560234970
Recurvebill and Bronzewing pigeon,LS27 1EY,53.743568000000000,-1.599287000000000
Hawk and Condor,LS12 4SW,53.785250893400500,-1.595641922827720
Hawaiian honeycreeper and Thrasher,LS2 8WF,53.805173889802500,-1.540209000000000
White ibis and Capuchin,LS26 0JX,53.757965298264400,-1.473441568075890
Zebra and Zebra,LS8 1NJ,53.828508782641300,-1.517407444929120
Cloud rat and Magpie,WF3 3EG,53.736873098768800,-1.532722649072440
Wallaby and Dolphin,LS17 8JX,53.852679549386100,-1.468924857953010
Jerboa and Perching duck,LS6 4BZ,53.827096453762800,-1.574091482061740
Buzzard and Kite,LS25 7LE,53.762891383728600,-1.381317232491770
Mockingbird and Eagle,LS7 4BR,53.812407636436900,-1.525520004880440
Maya and Minke whale,LS27 7QA,53.760372555762200,-1.593165663015440
Pratincole and Flameback,LS12 2JQ,53.797590471627700,-1.579658380201800
Jackal and Wallaby,WF17 5AL,53.709865399819400,-1.631164500108280
Hawaiian honeycreeper and Capuchin,LS27 7DR,53.756113799559000,-1.632655577822740
Kestrel and New World blackbird,LS16 7PN,53.852608730131100,-1.623861298469090
Pratincole and Hawaiian honeycreeper,WF3 1RF,53.727998023140100,-1.552949098113050
B and Old World warbler,LS12 2BL,53.795676000000000,-1.581939000000000
Guillemot and Francolin,LS7 4QD,53.832716728895100,-1.538373078486920
Chickadee and Perching duck,LS25 7LG,53.763757426182200,-1.376723259477950
Myna and Recurvebill,LS6 4BT,53.827726915935400,-1.577002080475780
Herring gull and Night heron,LS17 6LB,53.841805942366700,-1.538987458519460
Macaw and River dolphin,LS1 9SX,53.800375964368900,-1.549705298989340
Guillemot and Parakeet,WF12 7EL,53.703528129419000,-1.611058077660780
Logrunners and Macaw,LS17 7QL,53.861456123368500,-1.551513292466010
Chickadee and Grosbeak,LS17 7BR,53.859328278881900,-1.561981000000000
Eagle and Marsh harrier,LS15 7DW,53.802414761441300,-1.454072658383650
Wallaby and Lemming,LS14 6SG,53.815896000000000,-1.477910000000000
Civet and Towhee,LS14 6EY,53.816760148780000,-1.466158847100630
River dolphin and Maya,LS26 0HW,53.753516815762100,-1.473588171444840
Boto and Grouse,LS12 1QT,53.793381015603000,-1.581355087074620
American sparrow and Siskin,LS12 1JH,53.790611000000000,-1.575612822842140
Thicketbird and Francolin,LS16 9BJ,53.883439477091200,-1.610456135834210
Kangaroo and Scimitar babbler,LS26 8TA,53.752006487582900,-1.449494068174760
B and Grackle,LS8 4BA,53.826506264712300,-1.506795870865410
Wader and Moluccan boobook,LS9 6QA,53.808047044185700,-1.494362854718590
Viscacha and Viscacha,LS15 7PH,53.812495032701800,-1.455095971542850
Treepie and Solitaire,LS14 2XU,53.827207287158100,-1.456819420058630
Mamo and Scimitar babbler,WF17 8DZ,53.718213338314600,-1.654624321690330
Darwin's finches and Egret,WF3 3LN,53.730216000000000,-1.495524000000000
Rat and Booted eagles,LS16 8GF,53.846448000000000,-1.590042000000000
Rabbit and Parrotlet,LS27 0JX,53.741150429332200,-1.613212643008100
Argus and Coati,LS15 4AB,53.824580389138400,-1.425421947561490
Zebra and Chipmunk,LS1 4AD,53.794653000000000,-1.543133961412650
Macaw and Mamo,LS17 5LW,53.844171629960100,-1.558613303439620
Pratincole and Snipe,WF1 2DY,53.709288825734300,-1.501576796041530
Black jay and Treepie,LS7 1DS,53.805314000000000,-1.538690448590670
Capuchin and Snipe,LS8 5EZ,53.813209786170300,-1.523809957761540
Ground sloth and Condor,LS26 8PS,53.758056427289900,-1.443848488792460
Armadillo and Old World vulture,LS7 4HG,53.821861235874900,-1.527342468651420
Night heron and Grouse,LS26 0SJ,53.743083124573800,-1.499130300051700
Nukupuʻu and White ibis,LS12 2JG,53.798485555113000,-1.583748596253450
New World blackbird and Grouse,LS1 9FW,53.796303699009200,-1.564125591562130
Thrasher and Maya,WF3 4ET,53.724571802216900,-1.479041819266740
Zebra and Wallaby,LS16 8BN,53.846756298110900,-1.585261332069090
Egret and Vulture,LS6 3LU,53.822251866743000,-1.600207765405570
Pratincole and Night heron,LS16 9DL,53.879125844332800,-1.607864655912830
Greenbul and Viscacha,LS11 5JH,53.776411558827200,-1.544347271823220
Flameback and Philippine hawk-owl,LS21 1FY,53.898720000000000,-1.625598000000000
Kestrel and Grackle,LS11 9RF,53.786224280801400,-1.565550463024410
Mockingbird and Triller,WF6 2SD,53.710804603503300,-1.422730464160660
Bronzewing pigeon and Kite,LS11 0JL,53.769398173654700,-1.583277000000000
Black cockatoo and Parrotbill,LS7 1DG,53.804261974857200,-1.536377521305630
Prion and Puffleg,LS17 7LH,53.856595305410300,-1.540071673909660
Shearwater and Marmoset,LS27 7LN,53.765250855284500,-1.589872140271330
Black cockatoo and Cuscus,LS16 7LJ,53.861916403818300,-1.616966034474440
Wallaby and Perching duck,LS15 9BP,53.791002000000000,-1.440681000000000
Rat and Treepie,LS25 1JG,53.791304193599300,-1.386819450513090
Songlark and Treepie,LS1 9NZ,53.796307206700000,-1.564125738300000
Mouse and Asiatic leopard,LS8 2AA,53.844966473964800,-1.519817312447030
Cloud rat and Grackle,LS26 8SW,53.753078099650200,-1.448220000000000
Prion and Egret,LS17 5NX,53.836154570794800,-1.541875897642500
Macaw and Hawk,LS6 1DX,53.813131061540300,-1.574643045226720
Triller and American sparrow,WF10 1JZ,53.725361209788300,-1.359922338625660
Triller and Egret,LS26 8XL,53.764907646864600,-1.414115686541450
Zebra and Fulmarine petrel,LS12 2RH,53.804415034902800,-1.612494353951600
Chipmunk and Tit-tyrant,LS25 7QB,53.766486283765900,-1.365759968081340
Linsang and Vulture,LS11 9RH,53.783271135964700,-1.564154350528920
Ibex and Logrunners,LS9 7NP,53.804181675436200,-1.527192000000000
Rat and Meadowlark,WF10 2HP,53.757939035526200,-1.386592472339580
Grosbeak and Old World vulture,LS9 7TE,53.800957203258400,-1.527881108085000
Masked owl and Minke whale,LS9 0ES,53.799266836584100,-1.484068469732860
Chicken and White ibis,LS12 3AG,53.797761457375000,-1.587490488423510
Mole and New World blackbird,LS17 7EX,53.850150334990300,-1.539914277706590
Puffleg and Warbler,WF10 2LP,53.729836974349600,-1.354822094356060
Wallaby and Eagle,LS13 2LD,53.819847756541800,-1.626782372043980
American sparrow and Pitohui,LS18 5RS,53.846896619497300,-1.652092451366460
Kākāriki and Minke whale,LS25 2AH,53.782433231020100,-1.369541368847090
Siskin and Warbler,WF10 2RT,53.730619885694900,-1.338500329855720
Black jay and Quetzal,LS6 3PG,53.823090657536200,-1.582578264536210
Mouse and Partridge,LS4 2SF,53.815270519138000,-1.590234807499340
Ground sloth and Greenbul,LS14 5EN,53.823902897208100,-1.443782384384570
Coati and Ibex,LS11 5EU,53.778337000000000,-1.539986000000000
Francolin and Booted eagles,LS6 4AL,53.824126785208900,-1.565553658553570
Dorcopsis and Rat,LS15 8LN,53.800373592496100,-1.444093659923400
Quetzal and Tahr,LS10 4GW,53.744727274509600,-1.523219510244170
Asiatic leopard and Asiatic leopard,LS11 9SB,53.786944186750000,-1.563311875614960
Tattler and Parrotbill,WF10 5YD,53.718608000000000,-1.369363000000000
Herring gull and Minke whale,LS17 8NE,53.838808155559400,-1.470300845582960
White ibis and Pitohui,LS8 1JL,53.836877263301300,-1.513117191989360
Kangaroo and Dolphin,LS15 8BD,53.808514584548800,-1.447509114937150
Shearwater and Gull,LS9 6DX,53.806502706549900,-1.510038000000000
Black cockatoo and Kākāriki,WF3 2LE,53.719530865079300,-1.548068444479710
Moluccan boobook and Polecat,LS5 3JN,53.818301720881300,-1.601581991165690
Treepie and Herring gull,LS25 2PG,53.800886060377300,-1.366167367085240
Thicketbird and Dolphin,WF3 1AX,53.725453040719000,-1.579923030902260
Philippine hawk-owl and Shearwater,LS16 7EQ,53.857060793768500,-1.621966606778200
Pratincole and Perching duck,LS9 7TZ,53.802098000000000,-1.525196000000000
Triller and Puffleg,LS13 1EB,53.823037696123600,-1.638268765351920
Recurvebill and Duck,LS2 7HZ,53.797579141588700,-1.539821544018280
Francolin and Vole,LS6 4PA,53.831681000000000,-1.568955000000000
Pitohui and Linsang,LS12 5DB,53.785287572023400,-1.612200005552130
Flameback and Snipe,LS18 4BZ,53.827526737926700,-1.642620768194600
Perching duck and B,LS10 3TE,53.749434247873000,-1.538588461979820
Chicken and Mamo,LS6 4RW,53.840367681344600,-1.565446450707720
Ibex and Jackal,LS11 0DN,53.783596657565600,-1.569675302280940
Linsang and Diving bird,LS5 3RW,53.817401991849800,-1.601301930291570
Skunk and Hawaiian honeycreeper,LS15 0LB,53.796109615087100,-1.469092904452730
Cloud rat and Mamo,LS17 6RH,53.843702259135900,-1.529680377948450
Quetzal and Darwin's finches,LS25 3EG,53.818971730332500,-1.359697214380000
Asiatic leopard and Viscacha,LS17 5HA,53.852006979273100,-1.560476704972010
Towhee and Siskin,LS27 7SY,53.762443000000000,-1.586001000000000
Mockingbird and Francolin,LS12 2RN,53.805915773892600,-1.609640977243760
Booted eagles and Jackal,LS9 6EA,53.806817684967400,-1.507816488965740
Badger and Prion,LS1 4UE,53.797686282694700,-1.556217000000000
Ibex and Marsh harrier,LS10 4NU,53.746985000429700,-1.554036589020670
Masked owl and Cuscus,LS9 0JA,53.798431540383100,-1.488283000000000
Marmoset and Ground sloth,LS28 9NJ,53.800476257964600,-1.656074824502530
Zebra and Nukupuʻu,LS10 1GF,53.782233537600000,-1.524342836600000
Petrel and Grouse,WF10 2GH,53.745504462883800,-1.366212486697800
Grosbeak and American sparrow,LS9 6TW,53.802594084876600,-1.501473625529460
Mink and Tattler,LS16 7BR,53.849174465651000,-1.626460931794980
Cloud rat and Eagle,LS25 7LX,53.768538965654500,-1.371707000000000
Jay and Bunting,LS14 6NN,53.809156822179700,-1.466285778078490
Scimitar babbler and Maya,LS6 3QR,53.826924312655000,-1.591807516779110
Parrotbill and Solitaire,LS17 9PE,53.894967000000000,-1.438868000000000
Egret and Philippine hawk-owl,LS7 2NB,53.831423428845400,-1.545695610386070
Mouse and River dolphin,LS9 8JL,53.794576000000000,-1.523247000000000
Asiatic leopard and Dorcopsis,LS27 0DQ,53.736916329116800,-1.610431000000000
Fulmarine petrel and Rat,WF6 2SR,53.708887318055000,-1.422150700484520
Shearwater and Tree warbler,LS23 6RS,53.882492724355700,-1.348458841235740
Macaw and Partridge,LS7 2NQ,53.830510020763400,-1.548972129049680
Marmoset and Chickadee,LS6 4DL,53.825898667311500,-1.581076746869930
Eagle and Tree warbler,WF1 2PE,53.710959849264100,-1.512313978828910
Siskin and Crow,LS17 6NN,53.836293321094800,-1.531252535621520
Guillemot and Condor,LS14 2FN,53.828263000000000,-1.451610000000000
Quetzal and Petrel,WF13 4PA,53.700753323645900,-1.655994068749030
Viscacha and Old World vulture,LS26 8PW,53.759860874478500,-1.447267849010040
Chickadee and Grackle,LS13 1AN,53.812460169834700,-1.650858755943260
Vole and Thrasher,LS1 6JH,53.797742339197000,-1.544511000000000
Badger and Philippine hawk-owl,WF10 4LD,53.726493475025000,-1.344900411541560
Snipe and Pheasant,LS1 2RU,53.797676303460900,-1.551450000000000
Songlark and Booted eagles,WF17 7RW,53.709697000000000,-1.640621990907290
Wallaby and Snipe,LS17 8UH,53.859811607643900,-1.519069690443060
Duck and Viscacha,LS9 8FS,53.794552935800000,-1.528074616300000
Badger and Linsang,LS8 2JH,53.830656440179400,-1.500881000000000
Vulture and Perching duck,LS13 2AU,53.810514086500000,-1.618604014100000
Chicken and White ibis,LS27 8NL,53.752716447477100,-1.593679396001960
Tattler and River dolphin,WF10 5EQ,53.721292000000000,-1.361782743022110
Fox and Chickadee,LS16 6EH,53.847406346724900,-1.627267048444140
Macaw and Magpie,LS17 6LP,53.835208548761900,-1.531963629995520
Rat and Fulmarine petrel,LS12 2RF,53.804228153787600,-1.613073073103690
Grosbeak and Kite,LS25 1EN,53.789147744168100,-1.388717882680870
Marmoset and Kite,LS15 7RE,53.799852337311700,-1.465872481117900
Philippine hawk-owl and Partridge,LS27 8UX,53.742652184723800,-1.581313308075070
Black cockatoo and Argus,LS11 7JJ,53.773547393834700,-1.562054929275350
Dolphin and Snipe,LS26 0UE,53.747069000000000,-1.485011000000000
Herring gull and Petrel,LS9 6BE,53.809613267274100,-1.507890062869530
Gull and Snipe,WF17 6DE,53.703873202549400,-1.612145552992210
Meadowlark and Parrotlet,LS2 9JZ,53.807346948170100,-1.558377375561990
Rat and Prion,LS14 6WQ,53.804514000000000,-1.473516000000000
Macaw and Kite,LS1 9QN,53.796307206700000,-1.564125738300000
Linsang and Asiatic leopard,LS17 9FA,53.888867403600000,-1.444853107000000
Triller and Civet,LS8 5PN,53.814446235635400,-1.518328311895010
Recurvebill and Macaw,LS11 7AJ,53.765279451089900,-1.562353300207470
Perching duck and Kestrel,WF3 4JW,53.701925227145700,-1.475761768892130
Pitohui and Black cockatoo,LS18 5LY,53.840732419514200,-1.643420250665400
Parrotlet and Hawk,LS14 6HZ,53.817061206407800,-1.457132833089410
Bronzewing pigeon and Old World vulture,LS10 4UG,53.744911239429800,-1.545127658080030
White ibis and Mink,LS1 5PQ,53.798858327052300,-1.547671946167240
Coati and Scimitar babbler,LS1 9ZY,53.800375964368900,-1.549705298989340
Shearwater and Cloud rat,LS13 4RT,53.803975591469200,-1.632814647309960
Ibex and Polecat,LS15 0PH,53.795653277494900,-1.455511548918420
Guillemot and New World blackbird,LS15 8QZ,53.809555191342800,-1.450988256847270
Meadowlark and Darwin's finches,LS16 5HA,53.831585000000000,-1.606409000000000
Minke whale and Grouse,LS9 7JA,53.802590982396900,-1.527361706879930
Cuscus and Petrel,LS10 4FR,53.744055000000000,-1.532461000000000
Mamo and Perching duck,LS14 1DG,53.832666798459000,-1.469724934860110
White ibis and Grouse,LS3 1HH,53.804723332925300,-1.566012286302870
Hawaiian honeycreeper and Wader,LS14 2AB,53.827292900318700,-1.451926302913450
Thicketbird and Hawaiian honeycreeper,LS6 4EJ,53.825445478037100,-1.569839312623130
Chipmunk and Coati,LS8 5AP,53.815101190573700,-1.520280074026430
Pratincole and Tahr,LS12 4SL,53.784805523712400,-1.594174020424250
Grackle and Bronzewing pigeon,LS15 0LS,53.794647243231000,-1.475836441757780
Old World quail and Goose,LS8 2LA,53.827687257635500,-1.490434673581610
Darwin's finches and Herring gull,LS27 0RG,53.739122344675800,-1.603194894274060
Mouse and Tree warbler,LS7 4FB,53.816669000000000,-1.523714000000000
Macaw and Jackal,WF3 4AG,53.716127402210200,-1.465766476800480
Grosbeak and Stilt,LS25 2PF,53.800601832206000,-1.365108841494440
Duck and Vole,LS11 7AX,53.776862000000000,-1.556239000000000
Triller and Meadowlark,LS17 5AU,53.836201997088700,-1.547269867830380
Siskin and Vole,LS26 8DF,53.753361692471200,-1.391421238556020
Greenbul and Linsang,WF3 4BX,53.724798073800100,-1.461094798723060
Dorcopsis and Magpie,LS7 4QL,53.830734305363500,-1.537057812128020
Guillemot and American sparrow,LS9 0NH,53.799746555008100,-1.491168038768190
Bronzewing pigeon and Old World quail,LS11 9UD,53.790026000000000,-1.557831000000000
Hawaiian honeycreeper and Macaw,LS16 5QE,53.827988608253700,-1.587634366438380
Grackle and Pitohui,LS16 8LD,53.850364338060100,-1.578628521332580
Hawaiian honeycreeper and Duck,LS10 1GJ,53.783232251900000,-1.524604726800000
Jackal and Asiatic leopard,WF17 7SL,53.712928000000000,-1.648153000000000
Old World vulture and Mole,LS8 2PA,53.824683090177900,-1.502776307473840
Egret and Skunk,LS16 7PE,53.859000327610000,-1.593867421618290
Mamo and Grackle,LS15 0DX,53.796193524294000,-1.473858780773340
Chicken and Diving bird,LS27 9NL,53.757539664359400,-1.600822000000000
Rabbit and Hawk,LS7 4LL,53.825620429146000,-1.532495816968140
Moluccan boobook and Skunk,LS27 0RJ,53.738525865517600,-1.604928800044330
Goose and Viscacha,LS13 2RF,53.811813238667500,-1.621280115864480
Treepie and Lemming,WF3 3PR,53.732686915843300,-1.501892000000000
Zebra and Jay,LS17 5DR,53.847483077531200,-1.552560000000000
Fox and Zebra,LS18 4HL,53.835335240714800,-1.630078941245110
Recurvebill and Asiatic leopard,WF3 3HT,53.716864769671300,-1.486410321359840
Maya and Ibex,LS11 9RQ,53.785688776533900,-1.564114132359820
Peafowl and Siskin,WF17 0AY,53.721906797107200,-1.630286344887160
Egret and Thicketbird,LS23 6LX,53.881752000000000,-1.379838000000000
Philippine hawk-owl and Solitaire,LS16 6JH,53.838852278401100,-1.599944000000000
Flameback and Thicketbird,LS8 5EH,53.808839307666800,-1.525499534450500
Partridge and Peafowl,LS88 8AH,53.765303000000000,-1.501460000000000
Boto and Parrotlet,LS10 3SP,53.749808976171600,-1.542557469809630
B and Mockingbird,LS4 2LL,53.812403000000000,-1.579404000000000
Old World quail and Treepie,WF10 2SB,53.728785395586400,-1.343242984398160
Hawaiian honeycreeper and Meadowlark,LS14 1BD,53.828656431935600,-1.475472956168530
Petrel and New World blackbird,LS8 4JA,53.818232840695300,-1.516750799523350
Masked owl and Myna,LS13 4NU,53.801203845517500,-1.646777000000000
Triller and Jerboa,WF10 4AA,53.724284540671700,-1.350254315597640
Ground sloth and Tahr,WF17 0PA,53.732937299145100,-1.648925441430380
Mink and Rabbit,LS12 3QD,53.800181167845800,-1.606809493346350
Grackle and Flameback,LS17 7BG,53.856817000000000,-1.560670000000000
Logrunners and Fulmarine petrel,LS17 8LA,53.851735930367200,-1.469468000000000
Snipe and Pheasant,LS5 3HN,53.817204000000000,-1.598206671353530
Moluccan boobook and Puffleg,LS8 1HQ,53.836536460971600,-1.515522092014420
Skunk and Lemming,LS2 8BR,53.802780114024700,-1.541237000000000
Thicketbird and Ice seal,LS25 3EN,53.835756598524200,-1.340537823603130
Stint and Herring gull,LS26 0EN,53.751305901509900,-1.475678256343830
Pheasant and Skunk,LS12 3HU,53.796396901319600,-1.598358000000000
Ice seal and Duck,LS2 8NJ,53.801502347412300,-1.543331481954990
Night heron and Linsang,LS11 5DU,53.779397417872500,-1.542463571274050
Stint and Badger,WF17 6AP,53.705734298819900,-1.629367614617220
Songlark and Shearwater,LS17 5JX,53.848440356557900,-1.558462023701350
Duck and Ibex,LS17 7TA,53.852682189168400,-1.551059781773780
Warbler and Crow,WF17 0LE,53.717593344779300,-1.633612000000000
Capuchin and Lemming,LS5 3PY,53.831970174388600,-1.614656108106990
Crow and Buzzard,LS12 1PL,53.795196429460600,-1.581306658317950
Minke whale and Logrunners,LS12 4TQ,53.782651742080400,-1.592510213577480
Fish eagle and Tree warbler,LS25 2WT,53.786458200172800,-1.406196331282230
Lemming and Gull,LS10 3UU,53.762642661273700,-1.535197555398010
Treepie and Kākāriki,LS25 1PQ,53.794484635482300,-1.384799581672990
Siskin and Darwin's finches,LS16 6QB,53.845432769600000,-1.613119252400000
Buzzard and Black cockatoo,LS2 9AA,53.809067938337600,-1.552254559457300
Stilt and Greenbul,LS8 2AX,53.847641123679900,-1.521124311355610
Duck and Linsang,LS17 7DU,53.860714000000000,-1.528897000000000
Mamo and Kākāriki,WF1 3HD,53.711020319252800,-1.498647422167540
Vole and Thicketbird,LS6 4NY,53.832237000000000,-1.566032000000000
Magpie and Thrasher,LS8 2BT,53.846686307285800,-1.516119349933140
Skunk and Chicken,LS14 6EB,53.811591000000000,-1.463702109864770
Parrotbill and Chicken,LS18 5HB,53.849895000000000,-1.648257000000000
Stilt and Armadillo,LS18 5PQ,53.847982347416800,-1.633357117584810
Treepie and Pheasant,LS6 3ER,53.820053518922500,-1.585403366706980
Boto and Puffleg,LS5 3JT,53.816765618707000,-1.599135986007850
Perching duck and Gull,LS9 8JZ,53.793303552792700,-1.524384475091830
Hawaiian honeycreeper and Tree warbler,WF10 5TE,53.720974490279400,-1.358155251859050
Logrunners and Magpie,LS13 1EX,53.819845828419600,-1.634924106663440
Meadowlark and Petrel,LS26 0QD,53.748389080627000,-1.479718000000000
American sparrow and Parakeet,LS14 6WG,53.803144000000000,-1.470496000000000
Philippine hawk-owl and Wader,LS1 6BT,53.797583850854700,-1.541051216508900
Jackal and Vulture,LS15 0JD,53.792648000000000,-1.466601000000000
Kestrel and Parrotbill,LS18 4LB,53.830878000000000,-1.638855000000000
Fish eagle and Hawaiian honeycreeper,LS17 7SB,53.861595492288300,-1.538481170058160
Skunk and Grosbeak,LS2 9JN,53.806979626421900,-1.558700122023090
Dolphin and Ice seal,LS6 2JZ,53.814770302928600,-1.553317730644860
Meadowlark and Wallaby,LS13 2QG,53.810001998337000,-1.619808181040630
Parrotlet and Chickadee,LS27 8UL,53.744902480812800,-1.577121193973020
Chipmunk and Pratincole,LS14 3DP,53.844204737021600,-1.437540355637550
Rat and Snipe,WF17 0JP,53.733895671039000,-1.644733644289860
Tit-tyrant and Peafowl,LS16 7SN,53.859473497326200,-1.606269000000000
Maya and Armadillo,LS11 5HH,53.779275463015100,-1.543481633258550
Badger and Condor,LS17 7HR,53.854728623306500,-1.540806644733170
Thicketbird and Towhee,LS12 6LP,53.778632007132200,-1.602610089614600
Mouse and American sparrow,LS1 4SW,53.797686282694700,-1.556217000000000
Duck and Armadillo,LS6 4AN,53.824360959047900,-1.565687960390530
Wallaby and Coati,LS13 3EJ,53.812676144903800,-1.629944223524170
Prion and Ibex,LS8 3JA,53.817245689042400,-1.497426673139890
Rat and Solitaire,LS10 4UW,53.759356706457600,-1.520156830944540
Cloud rat and American sparrow,LS11 9PG,53.787415002137000,-1.561789180084110
Buzzard and Marsh harrier,WF2 0RH,53.703684000000000,-1.542800000000000
Badger and Kite,LS27 7ZT,53.743594313751300,-1.599256088679410
Lemming and Perching duck,LS14 2BT,53.829769725333000,-1.455023842765500
Recurvebill and Mole,LS11 6HY,53.774274844969400,-1.550136000000000
Greenbul and Rabbit,LS28 9DT,53.790052165980200,-1.650377000000000
Fulmarine petrel and Thrasher,WF1 2NR,53.709545744001800,-1.507194444270230
Petrel and Pitohui,LS9 9LF,53.797494840961200,-1.518340285575050
Fish eagle and Kite,LS7 3ED,53.816489220751700,-1.534966813877400
Solitaire and Siskin,LS27 9TL,53.756785908213100,-1.606516950493250
Skunk and Recurvebill,WF17 5HP,53.711997929726300,-1.629009584728290
Thrasher and Ibex,LS6 2HT,53.816471753893600,-1.556474065164410
Tahr and Jackal,LS16 5NP,53.831972168224100,-1.582976233066040
Minke whale and Coati,LS6 2AT,53.817430980016900,-1.570620031308320
Diving bird and Jay,LS15 7HY,53.797315628425400,-1.469457223576210
Thrasher and Black cockatoo,LS13 2LZ,53.815065104341700,-1.629346048913140
Triller and Vole,LS13 3PG,53.812239142960700,-1.633987817394150
Marsh harrier and Bunting,LS9 9BS,53.797116714109900,-1.509311547929160
Chipmunk and Moluccan boobook,LS26 8DZ,53.768475650155300,-1.425201811642410
Buzzard and Fox,LS16 9JA,53.890817000000000,-1.626592000000000
Dolphin and Triller,WF12 7NX,53.701162012038500,-1.615942069442600
Kite and Pheasant,LS6 4AG,53.824599291014800,-1.579616123788860
Linsang and Petrel,LS17 7LQ,53.856584686679300,-1.539646102753550
Magpie and Partridge,LS16 7DF,53.856326404880700,-1.614310915948340
Tit-tyrant and Songlark,LS18 4SL,53.828831064255600,-1.634025619488110
Pitohui and Diving bird,LS17 5NT,53.836563588405300,-1.540716549865270
Piping shrike and Black cockatoo,LS5 3HP,53.816732000000000,-1.602371000000000
White ibis and Petrel,LS14 5PG,53.816216994676700,-1.441605824906230
Asiatic leopard and Viscacha,LS12 3UP,53.798637824751300,-1.613139681196000
Grouse and Towhee,WF3 4LQ,53.701925985717900,-1.473883485194760
B and Marsh harrier,LS6 4SL,53.836840591761300,-1.566880972129940
Fox and Old World quail,WF17 8PH,53.716757316783600,-1.642377789585130
Prion and Dolphin,LS16 7SQ,53.859612955876800,-1.613368462786910
Lemming and Rabbit,LS17 7RJ,53.874151513159700,-1.531636000000000
Marmoset and Egret,LS6 4NE,53.836089362464800,-1.570429313068460
Jackal and Tahr,LS7 2PU,53.831136604600900,-1.557944996803230
Old World warbler and Argus,LS26 0WD,53.748614922981000,-1.470783392037100
Logrunners and Parrotbill,WF17 0PY,53.715625054998900,-1.621947071641030
New World blackbird and Piping shrike,LS14 2DY,53.834572909610000,-1.455812450078300
Kite and Darwin's finches,LS25 1NU,53.793524185997800,-1.376342949193430
Dorcopsis and Kestrel,LS26 9FG,53.740608000000000,-1.411379000000000
American sparrow and Crow,LS9 7EB,53.805471000000000,-1.528731000000000
Towhee and Treepie,LS14 2EQ,53.836347000000000,-1.458251000000000
Tahr and Diving bird,LS25 7HL,53.770300707171000,-1.368114855521160
Vulture and Darwin's finches,WF3 3EB,53.737649827163300,-1.531379943181780
Civet and Parrotbill,LS9 6NW,53.801922930653100,-1.489350065187030
Siskin and Pitohui,WF10 9BF,53.716444775486200,-1.390317701984660
Civet and Greenbul,LS14 5HQ,53.816110179154500,-1.445708150359030
Flameback and Jerboa,LS15 9EY,53.793286625915800,-1.447041223566970
Cloud rat and Old World quail,WF6 1QL,53.702543605378300,-1.404196724737260
River dolphin and Wallaby,LS8 3LF,53.816868485754200,-1.491097463274690
Flameback and Parrotlet,LS26 0XX,53.743748741016400,-1.505748353698520
Tattler and Pheasant,LS7 1SA,53.806688430653700,-1.538628526314810
Parakeet and Black jay,LS16 7AA,53.854664069320100,-1.595323201493150
Tattler and Herring gull,LS4 2JL,53.809714309075500,-1.584533416566220
Fox and Shearwater,LS5 3RQ,53.826007688975200,-1.616381909031890
Francolin and Fox,WF1 2LA,53.713112574058000,-1.506834602368800
Argus and Badger,WF10 2EL,53.752326618029000,-1.380607976412000
Darwin's finches and Mink,LS7 2LT,53.834277376635500,-1.549341942847610
Perching duck and Dorcopsis,LS16 0GN,53.845964000000000,-1.606492000000000
B and Linsang,LS12 2RW,53.804910000000000,-1.606765000000000
Kestrel and Maya,WF10 4RH,53.716457273147300,-1.335767697933930
Diving bird and Parakeet,WF10 4DP,53.718410026296400,-1.342707509612990
Wader and Chipmunk,LS10 3JN,53.757685795302500,-1.524892926927180
Masked owl and Mouse,LS14 6PS,53.822944000000000,-1.461870665079370
Jackal and Black cockatoo,LS16 5PD,53.839187147003100,-1.582296722839350
Tree warbler and Thicketbird,LS27 9TF,53.757209727335200,-1.606937672703380
Stint and Fulmarine petrel,LS27 9RX,53.750144046952500,-1.609369267180190
Old World vulture and Linsang,LS6 1NG,53.811781777975000,-1.574337772679090
Philippine hawk-owl and Thrasher,WF17 7NG,53.708348558215200,-1.637767824635390
Piping shrike and Armadillo,WF17 6WJ,53.708121000000000,-1.611625000000000
Chicken and Fish eagle,WF17 6LN,53.708531000000000,-1.618072000000000
Mole and B,LS10 3AW,53.766295000000000,-1.533382000000000
Prion and Dorcopsis,LS10 1NA,53.793550000000000,-1.541243807698340
Towhee and Philippine hawk-owl,LS16 6FR,53.846632000000000,-1.603988000000000
Recurvebill and Pitohui,WF10 5QF,53.716145498780700,-1.392049000000000
Mockingbird and Partridge,LS12 1ST,53.793448548061800,-1.587881925833730
Skunk and Mockingbird,LS13 4LH,53.799773989396600,-1.619915819711060
Ibex and Night heron,WF17 5LD,53.716469402654600,-1.632167637006830
Lemming and Black jay,WF17 7TB,53.715853000000000,-1.640203000000000
Mouse and Hawaiian honeycreeper,WF10 2BW,53.743454323976700,-1.359890119993340
Pratincole and Treepie,WF17 0HN,53.735603055379400,-1.647660176712560
Dolphin and Zebra,WF13 2DF,53.700472359204600,-1.639895366227460
Gull and Chipmunk,LS1 6DQ,53.796174991590800,-1.541643477267180
Chipmunk and Vole,WF6 2LL,53.706672610347900,-1.434588154326180
Marsh harrier and Mole,LS18 4AW,53.839194694116000,-1.637157039895020
Booted eagles and Crow,LS9 0SS,53.786157944828500,-1.497889146057270
Pheasant and Myna,LS18 5LL,53.837613238700000,-1.642079264500000
Lemming and River dolphin,LS15 7UF,53.798864786321200,-1.466127940713040
Crow and Cuscus,LS13 1BB,53.817142001077200,-1.644425393767220
Tit-tyrant and Puffleg,LS27 8NR,53.751028486523400,-1.594211282130720
Chipmunk and Grouse,LS15 9AT,53.796365434335500,-1.444207366372240
Wallaby and Kākāriki,LS23 6JZ,53.896464734068000,-1.350980787889540
Snipe and Diving bird,LS27 9TG,53.756998880946000,-1.608426015612010
Petrel and Recurvebill,LS26 8DE,53.768952000000000,-1.432614000000000
Philippine hawk-owl and Stilt,WF3 1EY,53.716835949205500,-1.573008309783180
Moluccan boobook and Darwin's finches,LS7 1LH,53.809393804176200,-1.545690719963550
Egret and Badger,LS6 3EY,53.819717000000000,-1.586455000000000
Parakeet and Tree warbler,LS25 7LR,53.764211917804400,-1.381176469872990
Chicken and Tit-tyrant,WF10 1JL,53.727767213107300,-1.351308000000000
Ibex and Thicketbird,WF17 0RL,53.733636937366900,-1.642355913251760
Stilt and Parrotbill,LS12 3TA,53.794804498859400,-1.614556379411070
Scimitar babbler and Herring gull,LS9 8HB,53.796323000000000,-1.528631000000000
Ibex and Thicketbird,LS7 2NR,53.830718389420000,-1.551811123337050
Bunting and Parakeet,LS25 1JP,53.790183000000000,-1.381781000000000
Civet and Tree warbler,LS8 4DE,53.823222716629400,-1.514900868770900
Black jay and American sparrow,LS6 2LA,53.814832820837600,-1.553210750264090
Chickadee and Black jay,LS26 9AA,53.736872000000000,-1.393555943298710
Black jay and Pitohui,LS26 0ZL,53.756891664790800,-1.501650000000000
Bunting and Minke whale,LS11 5QD,53.791533596500600,-1.547811423127950
Recurvebill and Night heron,LS9 6NZ,53.805151090508000,-1.489690473063970
Jay and Rabbit,LS12 5TP,53.777686000000000,-1.621068616220700
Magpie and Lemming,LS8 3TD,53.813907000000000,-1.496252000000000
Snipe and Nukupuʻu,LS3 1NU,53.803934305264700,-1.564061686108080
Jackal and Mouse,WF6 2HY,53.710099903852200,-1.431375803204850
Jerboa and Songlark,WF10 5QY,53.710607000000000,-1.370785000000000
Marsh harrier and Chickadee,LS6 1DD,53.815312321190200,-1.573467000000000
Dolphin and Scimitar babbler,WF10 5HU,53.715662624558200,-1.368342735608260
Recurvebill and Wader,LS15 0NU,53.793223726530100,-1.480256000000000
Mockingbird and Ice seal,LS16 6JJ,53.838318863830000,-1.599158252329570
Dorcopsis and Thicketbird,WF1 3DN,53.708078626228400,-1.502348569276260
Solitaire and Peafowl,WF3 2GE,53.730109000000000,-1.531680000000000
Old World warbler and Coati,LS23 6HP,53.892948087091700,-1.347231137256990
Herring gull and White ibis,LS16 7QJ,53.857027607508700,-1.600606347979610
Macaw and Badger,LS2 8TJ,53.796303699009200,-1.564125591562130
Piping shrike and Zebra,LS12 4UQ,53.787520986551800,-1.591840758572080
Jackal and Cuscus,LS25 7PZ,53.770650367110800,-1.359476629090330
Vole and Black jay,LS7 3QF,53.832098081319600,-1.541114843376130
Booted eagles and Egret,WF10 4HH,53.720407000000000,-1.347739544746920
Wader and Night heron,LS9 8TX,53.795482528097800,-1.520837837665280
Polecat and Shearwater,LS6 4SW,53.836807532096500,-1.565194563120810
Ice seal and Parakeet,LS14 5JG,53.817141340456300,-1.447122307643080
Kākāriki and Shearwater,LS13 1FD,53.818367997659400,-1.651796988112220
Tit-tyrant and Pitohui,LS6 4QP,53.826864850136300,-1.567135736174220
Black cockatoo and Fulmarine petrel,LS7 2QA,53.822566524711500,-1.559159274176060
Pitohui and American sparrow,LS7 3PP,53.833824922699200,-1.541415070628650
Pheasant and Old World warbler,LS26 8GG,53.752620000000000,-1.392163000000000
Fulmarine petrel and Parakeet,LS18 4LF,53.829768501264000,-1.637876567283670
Old World quail and Recurvebill,LS16 5DE,53.835851460985500,-1.605883048621910
Grosbeak and Mockingbird,LS14 6LP,53.820351188799000,-1.457211850956640
Fish eagle and White ibis,LS26 8BD,53.762826995820200,-1.388038202397790
Guillemot and Pitohui,LS17 5BP,53.843688000000000,-1.546764000000000
Viscacha and Snipe,LS14 6FQ,53.809735476600000,-1.478564252900000
River dolphin and Wader,LS8 5DD,53.810482056841000,-1.513757051829070
Wader and Kākāriki,LS15 9EU,53.791347413682000,-1.447522103274490
Crow and Gull,WF17 9AD,53.744061493496300,-1.644829915061730
Wallaby and American sparrow,LS15 9HR,53.791492178182400,-1.436135465877680
Meadowlark and Stilt,LS14 2ET,53.836298527500000,-1.455060860100000
Thicketbird and Kite,LS28 9GD,53.795042292422400,-1.651565000000000
Shearwater and B,LS27 8BH,53.744015966948800,-1.596340893296500
Warbler and Mouse,LS17 6PH,53.839892152690000,-1.532184978804480
Viscacha and Civet,LS10 2QJ,53.777741569599700,-1.523467771390580
Moluccan boobook and Zebra,LS27 7GS,53.761321742454200,-1.636872549574290
Old World vulture and Towhee,LS9 8FA,53.795597000000000,-1.527247000000000
Lemming and Kite,LS12 6EH,53.784269000000000,-1.571520000000000
Viscacha and Old World vulture,LS26 9FJ,53.740038000000000,-1.406960000000000
Gull and Moluccan boobook,LS13 4SH,53.801732749363300,-1.616891838904950
New World blackbird and Coati,LS25 1AJ,53.795649395501900,-1.387591064540710
Gull and Partridge,LS16 7HJ,53.860259952388900,-1.624659380017390
Skunk and Skunk,LS17 8XN,53.854239074057900,-1.514603263420600
Elephant and Vole,LS14 5FA,53.819003000000000,-1.443579000000000
Ground sloth and Mole,LS13 2DF,53.808875348739800,-1.621655851278640
Herring gull and Rat,LS15 8RE,53.811528525867600,-1.452071125318410
Rat and Marsh harrier,LS15 0AU,53.790185069702600,-1.485272754601040
Nukupuʻu and Rat,LS25 1DD,53.787826001952400,-1.402898500283150
Civet and Pratincole,LS27 0BA,53.737062497237000,-1.610945842006060
Polecat and Skunk,LS26 8NZ,53.754557991728300,-1.453176470796380
Fish eagle and Songlark,LS17 6HN,53.844522704371100,-1.539611175954110
Piping shrike and Duck,LS1 4DY,53.795134000000000,-1.546664000000000
Greenbul and Mouse,WF6 2PB,53.713108026140300,-1.425108021192400
Boto and Macaw,LS16 8FP,53.845514000000000,-1.590370000000000
Thicketbird and Hawaiian honeycreeper,LS17 7JZ,53.856487698046600,-1.535466316253060
Perching duck and Wader,LS15 8QE,53.797240010259300,-1.429925000000000
Jackal and Ground sloth,LS16 8FW,53.845077332200000,-1.587695000000000
Kākāriki and Diving bird,LS16 7HY,53.858494974355900,-1.626652000000000
Minke whale and Vulture,WF2 0QW,53.712550000000000,-1.529783354514970
Night heron and Tit-tyrant,LS14 6RA,53.823088114995400,-1.466245552296330
Crow and Kite,LS6 2SB,53.821547501037900,-1.560689006758530
Snipe and Condor,LS13 2RW,53.811554264929100,-1.616149317043560
Petrel and Armadillo,LS16 7QX,53.857615897945500,-1.604553649954650
Argus and Diving bird,LS14 1EU,53.824626255798900,-1.464494168817430
Marmoset and Grosbeak,LS26 9LA,53.737730668483700,-1.394860956638690
Grosbeak and Civet,LS6 4EE,53.825102182171800,-1.571863323973000
Parakeet and Fox,LS26 0BR,53.746148909538600,-1.475757000000000
Marsh harrier and Dolphin,LS8 5AW,53.815150797153600,-1.521448994542270
Old World vulture and American sparrow,LS8 4EP,53.816083443425700,-1.518674072852320
Logrunners and Tattler,LS18 4PG,53.835127492950900,-1.629746474045260
Chipmunk and Prion,LS7 1HE,53.805489688411400,-1.542453022898840
B and Hawaiian honeycreeper,LS14 6LS,53.819482541231500,-1.455931942308340
Badger and Capuchin,LS27 8LT,53.752726284782500,-1.599275394669980
Chicken and Mamo,LS6 1BS,53.817219236914400,-1.571730980826960
Bunting and Tit-tyrant,WF3 4EB,53.717341130212200,-1.484313420585130
Quetzal and Pratincole,LS4 2QX,53.809212901839400,-1.587697049233800
Civet and Cloud rat,WF3 1DU,53.716276000000000,-1.579590000000000
Mamo and Flameback,LS14 3AG,53.861635076195400,-1.424808173017970
Kangaroo and Thrasher,LS10 1EL,53.790578709200000,-1.539245592500000
Asiatic leopard and Viscacha,WF10 1DX,53.725476735524700,-1.354646320907880
Polecat and Black jay,LS1 5RN,53.798266113008200,-1.547936409535940
Viscacha and Partridge,LS25 2GD,53.797778890800000,-1.379969000000000
Linsang and Greenbul,LS14 5DJ,53.824691833196800,-1.451155077875330
Zebra and Philippine hawk-owl,LS18 5NR,53.846745403804200,-1.631681000000000
Triller and Black jay,LS15 4FD,53.825761844800000,-1.427456882900000
American sparrow and Old World quail,LS12 2DB,53.796131000000000,-1.586107428351110
Flameback and Grackle,LS7 3HA,53.818345773053100,-1.531635007040990
Eagle and Capuchin,WF3 2AH,53.722295536326800,-1.537673042971710
Marmoset and Songlark,LS10 3JD,53.760110000000000,-1.524001000000000
Treepie and Shearwater,LS7 3RU,53.824299000000000,-1.535007000000000
Grosbeak and Marmoset,LS18 5NJ,53.836231071807200,-1.617656162291920
Black cockatoo and Jerboa,LS26 9DA,53.728294607789600,-1.405954846906340
Buzzard and Ibex,LS12 4HP,53.790755000000000,-1.585990771377700
Cloud rat and Civet,LS12 3QZ,53.797245697906000,-1.602449445101370
Recurvebill and Myna,LS12 2AU,53.800423700446000,-1.588010957390190
Kite and Kākāriki,LS10 4JQ,53.743441440448100,-1.546250366675710
Philippine hawk-owl and Triller,LS12 1YQ,53.794124000000000,-1.572634000000000
Minke whale and Francolin,LS6 1LP,53.810208824793400,-1.574323325748060
Grackle and Dolphin,LS25 7HJ,53.770508323860400,-1.366579352985360
Zebra and Tahr,LS25 7LH,53.763971133553700,-1.381544083200170
Parrotbill and Puffleg,LS12 5LH,53.782962071546500,-1.607410496270640
Rat and Booted eagles,LS14 2AZ,53.828691367907400,-1.453093117879310
Chicken and Old World warbler,LS6 3HE,53.821263639118000,-1.579300113998360
Old World warbler and Polecat,WF3 3FQ,53.721497429952500,-1.492825009571210
Goose and Shearwater,LS16 9ED,53.878201804913700,-1.602914533493950
Parakeet and Bunting,LS13 3RQ,53.807401243543000,-1.627378778329960
Egret and Quetzal,WF3 4QQ,53.716310199819000,-1.482856228051300
Wallaby and Mole,LS16 5AL,53.833260137976700,-1.594101000000000
Magpie and Jackal,WF10 4AN,53.724919785932700,-1.343121328740880
Siskin and Rabbit,LS27 8RF,53.747684000000000,-1.593576000000000
Eagle and Capuchin,LS1 9UJ,53.796312000000000,-1.564099000000000
Old World quail and Puffleg,LS8 5PY,53.813896588840000,-1.517985293659620
Tattler and American sparrow,WF12 7EE,53.701214744300700,-1.612775860333710
River dolphin and Egret,LS14 1BZ,53.828859308339700,-1.470502269148770
White ibis and Maya,LS18 5LF,53.839066030083800,-1.642203463083860
Parrotbill and Mouse,WF2 0LD,53.702674475013000,-1.526194048895480
Grosbeak and Herring gull,LS9 8AT,53.796096039545200,-1.532824035613790
Shearwater and Buzzard,LS7 2RE,53.809582512109300,-1.538611952546700
Flameback and Vulture,LS17 8DA,53.849275666379600,-1.532202020149150
Marmoset and Gull,LS10 3PY,53.755468584895400,-1.530180743072600
Linsang and Bunting,LS27 7HZ,53.756701995749400,-1.633954809180280
Gull and Kite,LS10 2HU,53.774272000000000,-1.529895000000000
Macaw and Kite,LS28 9DD,53.796635951826900,-1.652113519454970
Mamo and Parakeet,LS11 5BP,53.765853000000000,-1.549377000000000
Badger and Marmoset,LS9 7AG,53.809013000000000,-1.514761000000000
Songlark and Siskin,LS17 9BF,53.867405202614800,-1.469529000000000
Chickadee and Badger,LS10 3RQ,53.753407293377300,-1.538666274612070
Night heron and Herring gull,LS17 7US,53.862888593297800,-1.526637133255460
Tahr and Marmoset,LS14 3DX,53.858219235214900,-1.427089000000000
Skunk and Bunting,LS13 3JE,53.810942287908800,-1.648152968714360
Eagle and Logrunners,LS9 6BX,53.812290197120300,-1.505337663467260
Scimitar babbler and Mouse,WF17 5AH,53.710142000000000,-1.630238000000000
Old World warbler and Duck,WF10 2FD,53.728937000000000,-1.342771000000000
Siskin and Asiatic leopard,LS26 8QF,53.768822261235200,-1.426259082889050
Old World vulture and Rabbit,WF6 1QJ,53.701928077440100,-1.403326863941250
Meadowlark and New World blackbird,LS25 2DS,53.812650000000000,-1.388239000000000
Puffleg and Old World vulture,LS8 1HD,53.838343641625100,-1.517902296085280
Fox and Tree warbler,LS16 8FA,53.843865000000000,-1.589049000000000
Eagle and Old World vulture,LS16 7LS,53.862340553868400,-1.620337709908820
Cuscus and Prion,LS1 4BB,53.795013479162200,-1.545830867092330
Argus and Songlark,LS15 0EL,53.794947111943000,-1.480720944330480
Skunk and Magpie,LS6 2EL,53.817173463482300,-1.566491297579210
Civet and Chickadee,LS12 3QL,53.802633569547900,-1.609155201503660
Maya and Crow,LS11 8DL,53.771004372403500,-1.572186046951270
Treepie and Jackal,LS17 8EA,53.854516139767800,-1.527734922772960
Parakeet and Linsang,LS11 8RP,53.783800158905000,-1.551612842266260
Hawk and Chipmunk,LS7 4AG,53.811281000000000,-1.533734000000000
Egret and Pheasant,LS14 3JR,53.871370735877500,-1.446194778811550
Mouse and Meadowlark,LS13 3LG,53.812859911319000,-1.646177767554480
Chickadee and Goose,LS17 8AS,53.854345014925900,-1.500980745506570
Quetzal and Viscacha,LS6 4QG,53.836845466032500,-1.570740695028370
Magpie and Towhee,LS1 9ZW,53.800375964368900,-1.549705298989340
Kangaroo and Snipe,LS7 3BA,53.819641827404700,-1.532091445245900
Black jay and Prion,LS8 2SN,53.827790528650400,-1.497877858173480
Cloud rat and Philippine hawk-owl,WF17 8HJ,53.721044916719000,-1.645493504028070
Grouse and Old World warbler,LS1 2TE,53.798185903534100,-1.552916964068130
Pitohui and Minke whale,LS6 4EX,53.826743887222600,-1.570995826882520
Cuscus and Cloud rat,WF3 2NE,53.724924253294800,-1.541099700466960
Eagle and Kangaroo,LS7 4NL,53.828787388787100,-1.526428928399110
Booted eagles and Jerboa,WF10 4SB,53.712762244301000,-1.335613764200480
Zebra and Civet,LS27 8AQ,53.742862000000000,-1.597777000000000
Petrel and Coati,LS13 2XT,53.813478854211600,-1.625046792302040
Tattler and Logrunners,LS9 8FP,53.794846420100000,-1.527281922000000
Stilt and Viscacha,LS13 4NX,53.803259482932600,-1.642720719020090
Badger and Tit-tyrant,LS14 6ST,53.813567882564600,-1.478076096761530
Thicketbird and Black cockatoo,LS26 8BL,53.761894297606700,-1.393755306174000
Grackle and Dorcopsis,WF3 1EP,53.717871221381600,-1.573467575110820
Recurvebill and Jay,LS26 9HT,53.738705010111800,-1.397363635401490
Maya and Fox,LS11 9QL,53.784662000000000,-1.555914000000000
Triller and Magpie,LS26 0RQ,53.753417402445700,-1.494351511336530
Treepie and Fish eagle,LS11 9YP,53.791449000000000,-1.553932937381980
Chipmunk and Parakeet,LS9 9JU,53.793998750629900,-1.513947613066270
Buzzard and Snipe,LS10 4JU,53.747176653458000,-1.550001045034680
Coati and Jerboa,LS9 6NN,53.803402445306500,-1.490637914135330
Eagle and Boto,LS12 2UE,53.794695615148500,-1.569318879357950
Piping shrike and Boto,WF3 1LL,53.729413000000000,-1.581248000000000
Gull and Myna,LS15 0HF,53.791584925512400,-1.460209189850180
Vole and Stint,LS11 0LW,53.764544000000000,-1.577682000000000
Songlark and Macaw,LS8 4LD,53.815610073721100,-1.521671589941740
Piping shrike and Asiatic leopard,LS2 8HP,53.800212796764700,-1.544575285552320
River dolphin and American sparrow,LS11 6HT,53.774243834070000,-1.548679967337660
Lemming and Mockingbird,LS26 8NF,53.756022764282800,-1.449183740158990
Buzzard and Pratincole,LS13 3LL,53.813004569635800,-1.643427650539320
Old World warbler and Treepie,LS11 6BW,53.776489959100000,-1.547518004000000
Pitohui and Hawk,LS16 9DX,53.878621382147100,-1.613056349808190
Guillemot and Fox,LS15 8DJ,53.807357688980300,-1.451988818559570
Perching duck and Stint,LS17 5EA,53.845310269308500,-1.555409537394860
Black cockatoo and Civet,LS26 8FT,53.752572142400000,-1.389294452100000
Kangaroo and Egret,LS7 4PU,53.831289416640100,-1.534180034803660
Booted eagles and Armadillo,LS26 8HA,53.741074848184300,-1.462918317430620
Black jay and Prion,LS11 6EW,53.775568438177400,-1.551973659513690
Booted eagles and Mole,LS10 2HB,53.771882921428600,-1.521607181195380
Chicken and Chicken,LS11 0LQ,53.769001490709800,-1.580232090083340
Condor and Parakeet,LS5 3EN,53.822418797300900,-1.604474768938630
Rat and Parakeet,WF3 2BQ,53.726694878810400,-1.531789661874810
Kākāriki and Myna,LS25 7PU,53.771374910155700,-1.374137364136860
Tahr and Diving bird,LS1 9QJ,53.796307206700000,-1.564125738300000
Fish eagle and Tree warbler,LS17 7LB,53.855533309003500,-1.535036000023230
Goose and Grackle,LS6 1RT,53.814716000000000,-1.565237573317060
Kangaroo and Polecat,LS25 2AU,53.787088803801200,-1.372917033113070
River dolphin and Parrotbill,LS11 5HQ,53.776905026885300,-1.539410278204770
Kestrel and Mink,WF3 3DY,53.733538571480700,-1.530546000000000
American sparrow and Night heron,LS8 4DB,53.824283928052400,-1.515055722798130
Thrasher and Thrasher,WF3 1HD,53.714999115144500,-1.577163397322840
Wallaby and Rat,LS27 9FF,53.742104000000000,-1.602347061700000
Parrotlet and River dolphin,LS1 9SG,53.800375964368900,-1.549705298989340
Vulture and Mole,WF3 3FP,53.721484000000000,-1.494477000000000
Buzzard and Philippine hawk-owl,LS6 1PN,53.808972377025800,-1.570372331448130
Kestrel and River dolphin,LS13 4RE,53.800206617564500,-1.643748706322830
Parrotbill and Rabbit,WF10 1ES,53.726492948535400,-1.355693000000000
Prion and Ibex,WF17 7ES,53.710481587791500,-1.653945232585020
Crow and Old World quail,WF10 2FL,53.746097000000000,-1.361476000000000
Magpie and Night heron,LS6 2JS,53.814612476813500,-1.554382562411350
Pheasant and Pitohui,LS12 4NX,53.789050379965500,-1.602982239838190
Kangaroo and Grackle,LS17 5JY,53.849032532578100,-1.558182188737160
Parrotbill and Snipe,LS8 1ET,53.840290627754600,-1.514825299017940
Quetzal and Thicketbird,LS13 9AR,53.813478854211600,-1.625046792302040
American sparrow and Mamo,LS25 7EB,53.777106993153600,-1.382352578011290
Booted eagles and Quetzal,LS26 0LG,53.749261088047200,-1.476704554338070
Jay and Flameback,WF1 3HX,53.707131980039000,-1.499496530023110
Vole and Diving bird,LS14 6TA,53.810026168876900,-1.467353000000000
Masked owl and Kite,LS13 2DW,53.811343000000000,-1.626573000000000
Chipmunk and Asiatic leopard,LS28 9NW,53.794088454918900,-1.657007508989250
White ibis and Mink,LS26 1FP,53.786461456500000,-1.406196450600000
Parakeet and Pratincole,LS16 6AJ,53.852831000000000,-1.592513000000000
Songlark and Piping shrike,LS14 6HR,53.814875485446600,-1.454791723954180
Magpie and Mockingbird,LS12 3BH,53.793655815619100,-1.595971010389160
Polecat and Jay,LS4 2SY,53.814121596107700,-1.590686450864540
Buzzard and B,LS27 7DS,53.755140230379100,-1.631723748601420
Quetzal and Shearwater,LS9 9JJ,53.794931658666900,-1.515712990847500
Diving bird and Goose,LS11 8SX,53.779614000000000,-1.559108000000000
Darwin's finches and Cuscus,LS6 4LB,53.832265038552700,-1.569192100191280
Meadowlark and Argus,LS12 6LS,53.777051880082100,-1.587162359827140
Vole and Egret,LS26 8PA,53.754617029779400,-1.452326389283330
Herring gull and Asiatic leopard,LS12 1YJ,53.793242110388900,-1.570032048852750
Elephant and Recurvebill,LS8 2EX,53.844058889139000,-1.502212506969360
Rat and Ibex,WF3 4DW,53.712476720215400,-1.479736627650820
B and Mole,WF10 4AJ,53.722534804342000,-1.354130615684850
Tree warbler and Moluccan boobook,LS8 3HU,53.818793714179400,-1.497924602579330
Kangaroo and Viscacha,LS12 3NN,53.799974832239200,-1.598779824515350
Condor and Pratincole,WF17 7HG,53.712712691820100,-1.651548207599810
Grouse and Francolin,LS18 5LG,53.837869983953200,-1.641985706769330
Viscacha and Mole,LS8 4AE,53.825149555418300,-1.509105753274010
Hawaiian honeycreeper and Chicken,LS13 3JW,53.811939336902200,-1.630011456361150
Old World warbler and Masked owl,WF3 4EJ,53.719143100078600,-1.479078566704480
Elephant and Rabbit,LS26 8SF,53.755619782928000,-1.465402210928120
Grackle and Mole,LS10 4HU,53.742569000000000,-1.548261000000000
Kākāriki and Night heron,WF17 7AE,53.703358007207300,-1.643051785054940
Masked owl and Boto,LS6 3BY,53.814900444593300,-1.582113000000000
Shearwater and Rabbit,LS14 1LW,53.825737554215200,-1.478046462426280
Chipmunk and Capuchin,LS7 3QT,53.829089413549200,-1.544079988607330
Parrotlet and Masked owl,LS12 4SZ,53.786016403802900,-1.593433819556310
Kākāriki and Petrel,LS17 7HU,53.853318403158400,-1.538693800798420
Pitohui and Boto,LS6 3JR,53.821337372942600,-1.582398204919350
Asiatic leopard and Old World vulture,LS26 0PR,53.756686675376100,-1.493781418310080
Stilt and Kākāriki,LS15 9JD,53.791905516822800,-1.434202090154060
Puffleg and American sparrow,LS26 9JJ,53.740800000000000,-1.393775670670430
Grosbeak and Stilt,WF13 2HD,53.700859000000000,-1.630607000000000
Francolin and Francolin,LS28 9AP,53.799142576776200,-1.651546000000000
Condor and White ibis,LS25 4DZ,53.792496000000000,-1.360087091442490
Mink and Francolin,LS15 7DJ,53.800647597688700,-1.454839565228280
Thicketbird and Black jay,LS25 7QL,53.764347000000000,-1.370642150839290
Marsh harrier and Quetzal,LS15 7PN,53.810899125118200,-1.457956562759740
Songlark and Pratincole,LS23 6FT,53.898775000000000,-1.341180000000000
Parrotlet and Mockingbird,LS10 1NN,53.763629000000000,-1.502936000000000
Herring gull and Goose,WF10 5EX,53.712353826219400,-1.380179914433540
Dorcopsis and Goose,LS27 7ZR,53.743594313751300,-1.599256088679410
Tree warbler and Condor,LS8 4DP,53.820669870519600,-1.514839197783420
Elephant and Thrasher,LS6 4JX,53.831083668459900,-1.565603267366910
Linsang and Wader,LS13 4LJ,53.798800471751200,-1.619028868397800
Pratincole and Cloud rat,LS15 8JB,53.810782000000000,-1.445854000000000
Black cockatoo and Gull,LS8 5HZ,53.811613981069100,-1.515839746105680
Cuscus and Towhee,LS6 1SH,53.808171602904400,-1.570137544630640
Myna and Logrunners,WF6 2LS,53.704407905477400,-1.432755258598170
Piping shrike and Pitohui,LS10 1RH,53.779393371900200,-1.522963461825140
Mole and Marmoset,LS27 7SZ,53.762082441265100,-1.585913562350680
Moluccan boobook and Perching duck,LS26 8WD,53.756720281705900,-1.462263822373630
Marmoset and Gull,LS8 1QJ,53.832220771845400,-1.526420609846170
Thicketbird and Wallaby,LS16 8LB,53.851839536230900,-1.578963345467190
Zebra and Maya,LS1 4AU,53.796303699009200,-1.564125591562130
Guillemot and Songlark,LS15 4ED,53.831562343980400,-1.386915599256720
Crow and Argus,LS15 7PD,53.808564446399000,-1.454478745543930
Boto and Parrotbill,LS1 5SP,53.797909748478200,-1.548472000000000
Duck and Cloud rat,LS17 8QL,53.854807311843100,-1.524083048634970
Mouse and Minke whale,LS25 1AE,53.797876527100000,-1.390109370500000
Meadowlark and Flameback,LS8 5EW,53.809439256160800,-1.524930878396740
Greenbul and Capuchin,LS10 4HL,53.741028372663500,-1.538074035985210
Gull and Triller,LS23 6QW,53.880686617431800,-1.348547758663730
Kestrel and Fox,LS1 2JS,53.797552808161600,-1.549462252322430
Black cockatoo and Crow,LS26 8PQ,53.758390610413900,-1.448091033373090
Partridge and Chicken,WF17 5AE,53.711099000000000,-1.631516243198060
Shearwater and Fish eagle,LS7 3HB,53.819470935012500,-1.534371801880210
Magpie and Grosbeak,LS5 3LQ,53.826376289726700,-1.619234666375590
Tit-tyrant and Chicken,LS13 1AZ,53.816081356025100,-1.644525000000000
Mink and Kangaroo,LS15 8SL,53.815418422979400,-1.438047185903120
Cloud rat and Meadowlark,LS12 1HJ,53.791350493533300,-1.579007290024110
Macaw and Greenbul,LS12 6JY,53.779774307825100,-1.603343000000000
Egret and Gull,LS6 4DU,53.825066000000000,-1.576634000000000
Rabbit and Booted eagles,LS13 3BQ,53.806935348785700,-1.624968474743910
Boto and Grosbeak,BD11 1EF,53.755178000000000,-1.657161000000000
American sparrow and Night heron,LS15 8PX,53.796146575340800,-1.435830164354610
Lemming and Thicketbird,LS25 2EP,53.795815427823400,-1.376462000000000
Skunk and Kestrel,LS6 4ED,53.825296115557600,-1.573426000000000
Tattler and Wallaby,LS18 4RL,53.832679874892800,-1.631728125013990
Nukupuʻu and Thicketbird,LS17 6RZ,53.843586605312900,-1.523146350577460
Scimitar babbler and Grosbeak,LS6 2TG,53.813903000000000,-1.544685000000000
Grosbeak and New World blackbird,LS18 5TA,53.843589368297800,-1.631115717449500
Logrunners and Mouse,LS9 7EH,53.799659838502900,-1.529383560885630
Rabbit and Argus,WF17 7TW,53.713715959840700,-1.644267201191780
Old World quail and Maya,LS8 4AF,53.825910901521100,-1.510828000000000
Elephant and Old World vulture,LS1 6LW,53.798920921631100,-1.542843314984670
Mole and Asiatic leopard,LS27 9AH,53.748883609815000,-1.611382000000000
Capuchin and Black cockatoo,WF6 2AY,53.700627890117800,-1.420446158578780
Stilt and Mouse,LS10 1QN,53.793133000000000,-1.540401000000000
Pheasant and New World blackbird,LS2 9AF,53.811383000000000,-1.553339000000000
Mink and Towhee,LS14 5AA,53.823378021674600,-1.454757354621660
Zebra and Marsh harrier,LS25 2HD,53.795404170994200,-1.371457113539970
Ice seal and Old World warbler,LS9 7PA,53.803761467743600,-1.527879991301880
Eagle and Magpie,LS11 0JB,53.768299649064200,-1.580011518952510
Armadillo and Rat,WF3 1WH,53.718359448433300,-1.571750325501830
Jerboa and Marmoset,LS13 4RL,53.802424649410000,-1.633937000000000
Herring gull and Magpie,LS11 9UP,53.789560000000000,-1.560689000000000
Francolin and Egret,LS7 3QH,53.832867004164500,-1.540058020457060
Quetzal and Mole,LS15 8FF,53.807630486600000,-1.438348874800000
Ice seal and Parrotlet,LS11 9RU,53.789177000000000,-1.566643000000000
Shearwater and Marmoset,LS13 4EN,53.806544658956200,-1.641721000000000
Mouse and Buzzard,LS1 2LE,53.798176886245800,-1.550747000000000
Jay and Wallaby,LS15 8UH,53.812674882163800,-1.431857071431000
Marmoset and Guillemot,WF17 7DS,53.708932121407300,-1.646579992522310
Buzzard and Mockingbird,WF17 0EJ,53.734242000000000,-1.649066000000000
Gull and Pitohui,LS16 5PA,53.836072652691300,-1.583543349487680
Bronzewing pigeon and Jerboa,LS10 3EX,53.769889391533700,-1.528881951024640
Dorcopsis and Chicken,LS23 6QY,53.879581000000000,-1.355002232191750
Flameback and Old World vulture,LS28 9GY,53.795927927776800,-1.649720757634270
Marsh harrier and Badger,LS6 2QA,53.812130803794400,-1.551705578690680
Grosbeak and Polecat,LS13 3PZ,53.808579000000000,-1.635857000000000
Marsh harrier and Stilt,LS25 7FU,53.768123000000000,-1.371094000000000
Philippine hawk-owl and Eagle,LS1 3HB,53.802946858889400,-1.547840000000000
Partridge and Kite,LS14 3DH,53.856139945809000,-1.426146000000000
Stint and Dolphin,LS26 0RJ,53.757081000000000,-1.497493000000000
Petrel and Herring gull,LS9 0DS,53.788032000000000,-1.518893000000000
Shearwater and Parrotlet,LS15 4DA,53.821020064111600,-1.421460386339040
Diving bird and Flameback,LS9 8NN,53.792277812961400,-1.521845853611420
B and Greenbul,LS13 4EZ,53.803365206632500,-1.630147625128360
Chickadee and Booted eagles,WF3 4AX,53.718050680946000,-1.453755953860290
Darwin's finches and Parrotbill,LS10 1PW,53.783651000000000,-1.528819000000000
Parrotlet and Marsh harrier,LS8 3DF,53.819455424359700,-1.490716772596140
Peafowl and White ibis,LS27 0LN,53.743565011875500,-1.623500818053640
Jackal and Chipmunk,LS25 2QQ,53.796541370563900,-1.381110000000000
Chipmunk and Badger,LS14 1FP,53.833001000000000,-1.464165000000000
Dorcopsis and Tahr,LS27 7SU,53.761770275576900,-1.586614397592500
Snipe and Fulmarine petrel,LS6 1LJ,53.809616014205700,-1.574435630552500
Chickadee and Bunting,LS15 0QG,53.795356246537800,-1.466978000000000
Kite and Siskin,WF3 4EG,53.718172840577400,-1.477120632570810
Black cockatoo and Partridge,LS2 7QS,53.803250247397300,-1.535265000000000
Minke whale and Greenbul,LS26 9EL,53.739026519696700,-1.415097131666660
Argus and Shearwater,WF12 7JQ,53.719594833850600,-1.596256000000000
Minke whale and Wallaby,WF10 5BU,53.720411210124900,-1.355360314615080
Argus and Ice seal,LS10 4LZ,53.748319320486600,-1.552718362781720
Badger and Prion,LS9 8PL,53.792948616329300,-1.518953000000000
Night heron and Magpie,WF10 5FY,53.721119937277500,-1.371428416993150
River dolphin and Polecat,LS18 4EP,53.831173584742400,-1.641860443509800
Bunting and Dorcopsis,LS10 3EE,53.766659183186500,-1.525717090858670
Stint and Parrotbill,LS13 3PY,53.808360961290200,-1.635509765582270
Parrotbill and Nukupuʻu,LS27 8QN,53.745745450927900,-1.594792859889210
Bronzewing pigeon and Old World vulture,LS27 8YW,53.743943000000000,-1.575618000000000
Nukupuʻu and Bunting,LS15 7JL,53.799264681634700,-1.479407491678800
Condor and Mink,LS23 6HJ,53.893864602110900,-1.343884379187020
Chickadee and Thicketbird,LS12 2NG,53.800097617682700,-1.584553000000000
Songlark and Capuchin,LS3 1ES,53.801001000000000,-1.556232000000000
Old World vulture and Cuscus,LS10 1JF,53.793686141293000,-1.539514984040920
Polecat and Ground sloth,LS10 9EW,53.768925000000000,-1.530808000000000
Mink and Wallaby,LS12 3JP,53.798052928131000,-1.599466000000000
Buzzard and Kangaroo,LS18 5AA,53.842773972617300,-1.634876802543490
Grouse and Masked owl,LS25 2LW,53.793823251291900,-1.369932323961530
Armadillo and Triller,LS7 4JJ,53.823383198667800,-1.526261000000000
Towhee and Condor,LS12 4EZ,53.787880702782900,-1.591897982283330
Ice seal and Mamo,LS14 2DZ,53.835289014350500,-1.455164961304330
Quetzal and Stint,LS27 7GN,53.765145075375900,-1.587855554552790
Night heron and Quetzal,LS27 7EW,53.757275641120000,-1.624243000000000
Boto and Old World warbler,WF10 2HH,53.751470456636600,-1.383653618336680
Rabbit and Night heron,LS11 7BA,53.775562263365300,-1.555145053911210
Magpie and Triller,LS16 5RW,53.829065584885700,-1.589796413602790
Pheasant and Bronzewing pigeon,WF3 4QF,53.716898808841200,-1.481788319493470
Mamo and Polecat,LS26 8HN,53.744678052144800,-1.458565000000000
Fulmarine petrel and Mink,WF17 0JX,53.733774097644800,-1.646174746720160
Booted eagles and Linsang,LS9 9AP,53.796206373742600,-1.499985666184690
Fish eagle and Triller,LS12 4SE,53.785130430588800,-1.589283812374660
Philippine hawk-owl and Mole,LS1 4JY,53.795931295152400,-1.553290095358010
Grackle and Bronzewing pigeon,LS17 8ES,53.855508000000000,-1.492955000000000
Nukupuʻu and Old World warbler,LS16 6BP,53.852478780871900,-1.603036278807630
Greenbul and Scimitar babbler,WF1 3EX,53.711067773079900,-1.497101492945800
Wallaby and Puffleg,LS9 0RX,53.786852000000000,-1.513271000000000
Solitaire and Pitohui,LS7 3ET,53.813848914544700,-1.535527592590890
Moluccan boobook and Armadillo,LS27 0AQ,53.741427118765000,-1.607084862432600
Perching duck and Tree warbler,LS12 4PF,53.785664793165900,-1.601147356435970
Dorcopsis and Darwin's finches,LS14 6BG,53.809862951140900,-1.473535846731200
White ibis and River dolphin,WF12 7SB,53.704137444895800,-1.602266574273430
Ground sloth and Rat,WF3 2HB,53.719665035867300,-1.538459560966290
Kākāriki and Pheasant,LS12 6EJ,53.777563000000000,-1.589726000000000
Myna and Crow,WF10 5US,53.713089000000000,-1.372748000000000
American sparrow and Partridge,LS14 5BW,53.824311788199100,-1.448638253027520
Grouse and B,LS27 9ND,53.750458000000000,-1.606091000000000
Goose and Wallaby,WF17 6EG,53.705455000000000,-1.623129000000000
Jay and Polecat,LS7 4LW,53.827005622958400,-1.530459811737590
Duck and Grosbeak,LS12 2LL,53.798363565899800,-1.584858091895600
Perching duck and Hawk,LS25 7NH,53.766154866938500,-1.377992435927190
Mouse and Egret,LS27 8FE,53.745066760800000,-1.595042177000000
Crow and Chickadee,LS27 7AN,53.760890142898500,-1.636815596290710
Capuchin and Perching duck,LS2 7JD,53.797510000000000,-1.538016000000000
Capuchin and Pitohui,LS27 7GH,53.766122254456300,-1.589742290512140
Ice seal and Boto,LS18 4AS,53.838776853893100,-1.638680311246380
Stilt and Grosbeak,LS12 3TB,53.795124933809000,-1.613581869316520
Macaw and Thicketbird,LS14 5BS,53.823991294082700,-1.451270568878130
Pratincole and Scimitar babbler,LS6 4QS,53.839893693292700,-1.568597147170490
Stint and Jackal,LS17 8LW,53.848805445128600,-1.481194955226110
Coati and Parakeet,LS14 3BU,53.856294000000000,-1.429792000000000
New World blackbird and Mouse,WF17 7SG,53.710704469606800,-1.645913874693270
Egret and Herring gull,LS15 8PY,53.796573189674300,-1.434807281819730
Crow and Black jay,LS7 1AZ,53.805401922267100,-1.533662092314940
Zebra and Fox,LS6 4SN,53.836524561769600,-1.563997020849180
Francolin and Parrotbill,LS6 3AT,53.819775499330600,-1.577841602291660
Old World vulture and Viscacha,LS8 5DZ,53.812745744980200,-1.522387611394840
Booted eagles and Civet,WF6 1QE,53.702941720430600,-1.406417000000000
Piping shrike and Ground sloth,WF17 6NW,53.713115283141300,-1.621287749664630
Mamo and Towhee,LS9 0LF,53.792300508210400,-1.494491431192470
Kākāriki and B,LS16 6BQ,53.853218762909100,-1.601220258852040
Pheasant and Parrotlet,LS18 4SW,53.834709677417000,-1.619721355864110
Chipmunk and Songlark,LS26 8LY,53.754412591760300,-1.445003738833580
Kangaroo and Puffleg,LS6 3PL,53.824040248193800,-1.586867973629360
Thicketbird and Marmoset,WF10 1AL,53.725891452506900,-1.351548132088710
Shearwater and Macaw,LS7 3LJ,53.823004367069200,-1.536991068219270
Black jay and Buzzard,LS25 7NU,53.771351591313600,-1.378294957938680
Mockingbird and Parrotbill,LS11 8JQ,53.771310406593000,-1.574838085540110
Darwin's finches and Parakeet,LS27 0FR,53.737643878000000,-1.617323078800000
Grosbeak and Condor,LS15 7DF,53.800854824196900,-1.456932135232330
Puffleg and Marmoset,LS7 2RX,53.826583575284500,-1.554134069334640
Old World quail and Civet,LS15 9DX,53.794613141810100,-1.446234383990920
Pheasant and Civet,LS17 7TW,53.853052995338200,-1.542147536650640
Jerboa and Rat,LS27 0JL,53.743065436947800,-1.610602354448990
Thicketbird and Ice seal,LS9 7PX,53.799359088584300,-1.526046792287020
Eagle and Peafowl,WF1 2LP,53.713441542249800,-1.503785307680950
Gull and Dorcopsis,LS16 7RF,53.858664168106300,-1.600834035587500
Badger and River dolphin,WF10 1PF,53.726102471003200,-1.360714361605640
Kite and Thicketbird,LS5 3NQ,53.824752000000000,-1.614069000000000
Diving bird and Marsh harrier,LS6 1HN,53.810643039258300,-1.567560946784930
Kākāriki and Greenbul,WF17 7SU,53.712215383109900,-1.644416209634710
Wader and Goose,LS14 6RL,53.818324304052300,-1.464194743786770
Puffleg and Kākāriki,LS10 3EW,53.768976098957300,-1.529772115208500
Coati and Hawaiian honeycreeper,LS14 6LL,53.820936956969500,-1.457553660698220
Boto and Night heron,LS11 7LH,53.766158966097900,-1.559114000000000
Tree warbler and Perching duck,LS4 2SP,53.812405569941800,-1.588258035059640
Snipe and Black jay,LS18 5ER,53.842225398880200,-1.656082590950670
Pheasant and Parrotbill,LS13 4DN,53.805380063509900,-1.636537781502990
Dolphin and Marmoset,LS13 4UW,53.797638286382700,-1.632566331611120
Tit-tyrant and Piping shrike,LS17 5AW,53.838161354750200,-1.547263942806590
Skunk and Warbler,WF17 7DG,53.706837441079400,-1.649490997454780
Dolphin and Warbler,WF12 7PD,53.700875318081600,-1.619049793639620
Marsh harrier and Solitaire,LS15 7NA,53.806593869563500,-1.459955763256210
Mockingbird and Mamo,LS13 4TU,53.802335583854500,-1.631341000000000
Maya and Fulmarine petrel,LS26 8AA,53.756959340300000,-1.449050000000000
Rabbit and Wallaby,LS16 6SJ,53.850027000000000,-1.614384000000000
Flameback and Treepie,LS28 9BD,53.796493621007200,-1.655743032045640
Thicketbird and Siskin,LS11 5RX,53.764635884255100,-1.555988639611990
Jerboa and Towhee,WF3 1TP,53.725058281266700,-1.567484198226760
Partridge and Ground sloth,LS9 9LZ,53.796342844180100,-1.511294151694050
Chicken and Night heron,LS8 2RP,53.821044227426200,-1.498763559867760
Jackal and Hawaiian honeycreeper,LS10 1BY,53.778582380517700,-1.517949751284730
Capuchin and Flameback,LS17 8UQ,53.854017192731900,-1.519774580995860
Buzzard and Magpie,WF17 5JE,53.712001945896600,-1.633236649489130
Pheasant and Warbler,LS1 9FS,53.796303699009200,-1.564125591562130
Stilt and Crow,WF17 7BE,53.704905000000000,-1.649174000000000
B and Vulture,LS12 1QJ,53.793201211799300,-1.589144302564070
Buzzard and Kākāriki,WF10 5XX,53.714939000000000,-1.360569000000000
Wader and Meadowlark,WF10 5BH,53.724038411345000,-1.352940617420440
Mole and Scimitar babbler,LS17 8BY,53.848795599945400,-1.533560197081350
Vulture and Tattler,LS11 5NL,53.779107604200000,-1.540858000000000
Ibex and Pitohui,LS18 5BX,53.837442108533100,-1.622599081686270
Coati and Perching duck,LS17 8HW,53.854242064552000,-1.478862607245700
Cloud rat and Linsang,LS9 0BE,53.788456000000000,-1.518914000000000
Tattler and Capuchin,LS14 5JB,53.817370182082900,-1.444127064861690
Macaw and Meadowlark,LS25 2EQ,53.795043929400900,-1.376487403984470
Prion and Cuscus,WF12 7SU,53.701116560994000,-1.601840000000000
Logrunners and Asiatic leopard,LS25 7BH,53.767264046547000,-1.359892255473180
Night heron and Grackle,LS18 5BS,53.837385169444800,-1.621642237560220
Zebra and Stilt,LS1 9ST,53.800375964368900,-1.549705298989340
Guillemot and Coati,LS17 8AR,53.852610313486000,-1.496668881560670
Moluccan boobook and Wader,LS26 8TL,53.752555942028800,-1.455659286319480
Diving bird and Tree warbler,WF17 0LW,53.718087446396500,-1.627577107523610
Mamo and Goose,WF12 7RB,53.715855000000000,-1.592959000000000
Thrasher and Chickadee,WF2 0SD,53.709168096028500,-1.562768811154530
Triller and Vole,LS17 6BG,53.845665454364400,-1.544659968218020
Badger and Armadillo,LS14 6QX,53.822244300319700,-1.466484132461070
Shearwater and Triller,LS18 4SA,53.828034608818600,-1.644150914233390
Towhee and Scimitar babbler,LS28 9JQ,53.786626187227700,-1.656233552320610
Macaw and River dolphin,LS6 4NX,53.834087697054700,-1.563688026348090
Elephant and Badger,WF3 4NF,53.701237281032900,-1.480844600284250
Macaw and Francolin,LS9 7RA,53.798363000000000,-1.512790768273700
B and Tattler,WF17 5DT,53.713708534140900,-1.632858179938620
Cuscus and Stilt,LS26 8PD,53.758779718460700,-1.450618964053140
Quetzal and River dolphin,WF17 6NY,53.710678000000000,-1.620491000000000
Hawk and Scimitar babbler,LS12 3DF,53.794158974032800,-1.601294535735550
Civet and Nukupuʻu,BD11 1DW,53.753339130000000,-1.654730785000000
Black cockatoo and Quetzal,LS7 3AG,53.812995947686800,-1.538088492164720
Logrunners and Kite,WF17 0NB,53.728366907047200,-1.656708596556840
Kestrel and Condor,WF1 2JP,53.702030224931600,-1.504676850710480
American sparrow and Herring gull,LS25 1JH,53.791711885498500,-1.387451057629510
Rabbit and Asiatic leopard,LS26 8AZ,53.762610347076400,-1.389618955385950
Kangaroo and Herring gull,LS7 3EX,53.817715987211600,-1.531703000000000
Badger and Kangaroo,LS25 2DG,53.798729294509300,-1.388760796135860
Mamo and Diving bird,WF1 2LG,53.714891088641800,-1.506556227114970
Rat and Kangaroo,LS12 6DR,53.775100047257200,-1.589366504444780
Scimitar babbler and Chickadee,LS27 7NG,53.770873000000000,-1.601636000000000
Viscacha and Jay,WF3 3FX,53.733388790782400,-1.501398192758610
Snipe and Hawk,LS6 4LF,53.830540855074600,-1.567113054203500
Elephant and Pratincole,WF10 5JL,53.713073681701100,-1.363502000000000
Polecat and Polecat,LS16 5EY,53.830671385281800,-1.607709306762240
Boto and Buzzard,LS17 5PH,53.838893000000000,-1.543166978962190
Egret and Thicketbird,LS25 2BW,53.784076495585800,-1.376118752432040
Zebra and Pitohui,WF10 5GF,53.718489343758900,-1.373710328124510
Pheasant and Siskin,LS27 7FP,53.748678000000000,-1.632148000000000
Ibex and Fox,LS2 8BL,53.802205053440700,-1.546299000000000
Jackal and Towhee,LS7 4ST,53.823910830240400,-1.527425752548820
Lemming and Herring gull,LS15 0EQ,53.797401000000000,-1.480600000000000
Stilt and New World blackbird,WF10 2JH,53.744040124101000,-1.358501423212950
Chickadee and Darwin's finches,WF17 5PB,53.716348773545100,-1.629198615674350
Boto and Cuscus,LS12 3PB,53.799946473008700,-1.601057484398790
Songlark and River dolphin,LS18 4BY,53.836798380224100,-1.623213000000000
Goose and Nukupuʻu,LS15 7EL,53.801340495305900,-1.457001778854410
Asiatic leopard and Chicken,LS25 3BA,53.831977951034200,-1.343149811536230
Grackle and Elephant,LS16 7TU,53.855201721610900,-1.592186284043430
Duck and Vole,LS27 7RH,53.763022201854300,-1.592624313169820
Polecat and Shearwater,LS10 4FD,53.745112890300000,-1.528946889800000
Night heron and B,LS1 4EA,53.796176949349200,-1.551573000000000
Gull and Crow,LS10 4HF,53.741912789095500,-1.539004368432900
Fish eagle and Old World quail,LS8 2EZ,53.844324044170200,-1.505477085400000
Songlark and Marsh harrier,WF3 3QN,53.729780837383200,-1.488526605302850
Bronzewing pigeon and Asiatic leopard,LS10 3DY,53.766491577725700,-1.524247433545330
Elephant and Diving bird,LS27 7GF,53.766258255593900,-1.587465398711250
Crow and Wallaby,LS11 0DD,53.781561373179500,-1.563595369964150
Francolin and Grouse,LS15 8DX,53.807106273226100,-1.450078750409540
Myna and Lemming,LS27 8HU,53.747339189378700,-1.598310660040080
Pratincole and Chipmunk,WF1 3EH,53.710614368911800,-1.494016199440810
Marsh harrier and Black jay,WF10 1JG,53.726757856501400,-1.352201688112560
Moluccan boobook and Prion,LS15 7HT,53.797018716792200,-1.473468917097360
Moluccan boobook and Stilt,LS4 2RD,53.808847486786500,-1.585984634989230
Flameback and Buzzard,LS26 8TG,53.751651463667000,-1.452440770769660
Petrel and Dolphin,LS8 5LW,53.810549080608500,-1.519238595230980
Night heron and Buzzard,WF1 2PN,53.708050584023500,-1.504257743660960
Grouse and Old World vulture,WF3 4DH,53.711302985267000,-1.478523891744790
Marmoset and Mink,LS10 3PJ,53.757169727502300,-1.526218295097730
Capuchin and Nukupuʻu,LS17 8LB,53.851234615908300,-1.467377412972510
Meadowlark and Rat,LS8 1HE,53.837061110296300,-1.516351823553420
Thicketbird and Philippine hawk-owl,LS8 2PL,53.823963793190700,-1.498394522312600
Parrotbill and Shearwater,WF17 0AB,53.722143000000000,-1.639513000000000
Dolphin and Tree warbler,LS27 7UT,53.758223216002600,-1.598146209190770
Kestrel and Cloud rat,LS2 9BA,53.809364714785000,-1.549897564539610
Cuscus and Kangaroo,WF17 5NW,53.714351000000000,-1.625216000000000
Gull and Jay,LS9 7PD,53.803934158649900,-1.526086330845380
Old World quail and White ibis,LS25 7AN,53.767211691384300,-1.366962715656420
Parakeet and Stilt,LS1 4DW,53.792930461799000,-1.546583000000000
Diving bird and Tahr,WF3 1SB,53.727430322700600,-1.552561047914650
Nukupuʻu and Crow,LS10 4TR,53.739046331294700,-1.536867742883670
Guillemot and Civet,LS15 0LR,53.794111465157000,-1.474583131296430
Argus and Flameback,LS25 1LG,53.790310334113200,-1.391099311618810
Mole and Solitaire,LS10 4DS,53.745701582100000,-1.541692454400000
White ibis and Condor,LS9 6NA,53.808286602121900,-1.506569253380010
Linsang and Herring gull,LS8 2TS,53.822297052848900,-1.493173613738370
Jay and Peafowl,LS98 3HX,53.791061704902700,-1.549000489812820
Night heron and Buzzard,LS17 6SL,53.844319303916800,-1.528883134307240
B and Pheasant,LS26 0QS,53.751312415529900,-1.487582801690990
Triller and Pitohui,WF10 5QJ,53.721273000000000,-1.407266000000000
Ice seal and Egret,LS10 3HJ,53.762538405569000,-1.529206896058210
Jerboa and Macaw,LS11 1BF,53.785422104824400,-1.550305481998300
Condor and Armadillo,LS13 2UD,53.816456250160000,-1.620083956455900
Boto and Mouse,LS10 2AB,53.770649143981900,-1.523259784409680
Triller and Philippine hawk-owl,LS15 7DL,53.800473244978100,-1.454052315720820
New World blackbird and Nukupuʻu,LS4 2LG,53.810394275985000,-1.578482517368260
Towhee and Boto,LS9 9EX,53.799730749939600,-1.504574449859150
White ibis and Kangaroo,LS11 5DR,53.791533596500600,-1.547811423127950
Moluccan boobook and Coati,WF2 0JS,53.701121000000000,-1.524091000000000
Treepie and Tattler,LS9 0JQ,53.798056242186900,-1.486816078486890
Duck and Darwin's finches,LS16 8JL,53.849523176183800,-1.579685801543830
Ground sloth and American sparrow,LS12 2NU,53.800828562064100,-1.585516992280700
Philippine hawk-owl and Peafowl,LS7 3QJ,53.832564966622500,-1.543343323369410
Kangaroo and Moluccan boobook,LS14 1PE,53.831279931101500,-1.473191483131640
Pitohui and Boto,LS26 9EW,53.740147229108500,-1.414520614470360
Cloud rat and Masked owl,LS13 1DU,53.817314261725700,-1.641902587616730
Ground sloth and Cuscus,LS11 8RB,53.775257777531800,-1.567742448286880
Magpie and Badger,LS28 9EF,53.793454492415400,-1.652215726665660
Hawaiian honeycreeper and Hawaiian honeycreeper,LS28 9ND,53.785237084968500,-1.648322370066530
Parrotbill and Buzzard,LS16 9EZ,53.886056352928400,-1.610888236571430
Meadowlark and Triller,WF10 1BN,53.729442418437700,-1.362801062451400
Fulmarine petrel and Perching duck,WF10 1QB,53.724284979338900,-1.379170994849080
Fox and Egret,LS12 1TH,53.793972891522100,-1.591398652209770
Bronzewing pigeon and Capuchin,LS12 5TZ,53.778426252464300,-1.619547132495020
River dolphin and Nukupuʻu,LS7 4HH,53.819807611898700,-1.528519992505880
Meadowlark and Marmoset,WF1 2PW,53.708393000000000,-1.506481000000000
Argus and Badger,LS16 8GJ,53.847046000000000,-1.588896000000000
Tree warbler and Mamo,LS17 9JH,53.862582252922000,-1.476827000000000
B and Magpie,LS25 7HP,53.772456529179100,-1.372998491709130
Puffleg and Boto,LS18 4BG,53.836796671663800,-1.637847000000000
Pitohui and Philippine hawk-owl,LS15 9AP,53.797104029065300,-1.444546783947370
Civet and Civet,LS8 3PR,53.814452699670900,-1.504143000000000
Diving bird and River dolphin,LS26 8RD,53.757497000000000,-1.447086000000000
Dorcopsis and Kestrel,LS17 9AY,53.884016301967100,-1.444141309404260
Ice seal and Polecat,LS7 4RE,53.819035922509000,-1.531141250454230
Greenbul and Zebra,LS17 6NX,53.838370938515200,-1.531609259641070
Petrel and Fulmarine petrel,LS10 4LX,53.747755672296400,-1.548614955456390
Macaw and Kite,LS15 4AW,53.831240258600600,-1.427245294596090
Jay and Black cockatoo,LS16 8ES,53.848285097509600,-1.577767784470720
Francolin and Black jay,LS1 3BG,53.800437563579400,-1.551754317742750
Kākāriki and Kākāriki,LS10 3XG,53.762864252255400,-1.532085412278060
Armadillo and Solitaire,WF12 7HP,53.703926701395600,-1.603768213145790
Thicketbird and Mamo,LS10 4UA,53.745569649900000,-1.530821999700000
Dorcopsis and Diving bird,LS7 1DE,53.804118837084300,-1.539051000000000
Diving bird and Warbler,LS11 6TA,53.780315695513800,-1.547598097026510
Kangaroo and Hawk,LS7 4JH,53.823117751182000,-1.524609142874970
Argus and Songlark,LS16 5PS,53.837852499607300,-1.592217000000000
Cloud rat and Snipe,LS16 9JB,53.888976912239200,-1.624858775481540
Herring gull and Coati,LS7 4LE,53.826384477636100,-1.534826913138320
Marsh harrier and Nukupuʻu,LS6 2NQ,53.814887687148300,-1.551053467738580
Warbler and Stint,LS16 5QX,53.828603000000000,-1.583086000000000
American sparrow and Nukupuʻu,LS5 3SB,53.825586925544400,-1.608546751590390
Elephant and Polecat,LS16 8FB,53.844735000000000,-1.588478000000000
Ibex and Treepie,LS11 8AQ,53.766134559672800,-1.565166110411070
Magpie and Chipmunk,LS7 2PA,53.828206410639600,-1.565298774552270
Scimitar babbler and Argus,LS8 3RG,53.811254481073800,-1.511409359950430
Jackal and Thicketbird,LS14 2LB,53.831468326810600,-1.458967461092830
Parrotbill and Black jay,LS15 4LJ,53.825856923588000,-1.396174901179440
Siskin and Tattler,LS15 8BS,53.812562187480800,-1.450113682331750
Mink and Old World warbler,LS9 8JA,53.795696897509100,-1.520501411185250
Thrasher and Black jay,LS27 7JP,53.752394415251300,-1.630276701551910
Herring gull and Condor,LS16 5DF,53.836108293245900,-1.607460988373540
Chipmunk and Gull,LS10 4AQ,53.752211148517700,-1.522406877767590
Triller and Dorcopsis,LS9 8BX,53.795008828044000,-1.532683000000000
Thrasher and Parrotlet,LS1 2PX,53.798628108897800,-1.553520000000000
Buzzard and Minke whale,LS1 4DL,53.796018000000000,-1.552196000000000
American sparrow and Songlark,LS12 5TR,53.779208261569700,-1.622408158025680
Black jay and Marmoset,LS11 5QZ,53.761876125205500,-1.565695482258350
Philippine hawk-owl and Ibex,LS7 4NY,53.829353081276900,-1.537817502890630
Logrunners and Warbler,LS2 9BF,53.802866935200000,-1.558789015200000
Buzzard and Black jay,LS26 8RE,53.757596987527800,-1.449466500740050
Kangaroo and Diving bird,LS17 6LW,53.835358323780900,-1.533496700592250
Treepie and Badger,LS17 1LS,53.851330000000000,-1.533689000000000
Tit-tyrant and Fish eagle,LS88 8AX,53.765303000000000,-1.501460000000000
Pitohui and B,LS28 9DP,53.790867456633500,-1.652738025886780
Parrotlet and Buzzard,LS10 3AG,53.764682889318400,-1.530563383047620
Maya and Partridge,WF17 8HW,53.720383434304500,-1.646726528659320
Jerboa and Philippine hawk-owl,LS6 3QH,53.826002000000000,-1.587122000000000
Marmoset and Goose,WF17 6PP,53.714521490053800,-1.619729643952580
Civet and Rabbit,LS7 1SR,53.808958448346000,-1.539939973600400
Mamo and Ground sloth,LS17 9EE,53.885684167175300,-1.447025000000000
Thicketbird and Civet,LS17 5PF,53.834085833548800,-1.546213833808370
Towhee and Civet,LS27 7RU,53.763903551786300,-1.584909632831590
Dorcopsis and Fox,WF6 2EW,53.700977613297300,-1.409232518037370
Dorcopsis and River dolphin,LS1 9SH,53.800375964368900,-1.549705298989340
Cuscus and Towhee,LS15 0JJ,53.793348946934100,-1.462736843242380
Old World warbler and Jay,LS9 6NG,53.802131000000000,-1.500021000000000
Elephant and Meadowlark,LS13 2QQ,53.809666755376900,-1.618960790930310
Old World vulture and Macaw,LS2 9BL,53.810751065811100,-1.552662000000000
Buzzard and Elephant,LS13 4RA,53.800326523459600,-1.647831839473810
Francolin and Snipe,LS10 1AP,53.792712184287400,-1.541013287276460
Pratincole and Condor,LS13 1JY,53.820390508803000,-1.654985314582680
Black cockatoo and Kestrel,LS7 4QR,53.832360840734900,-1.532344830631860
Kākāriki and Elephant,LS14 1BB,53.828082822514900,-1.475844746600950
Pratincole and Magpie,LS14 1HU,53.824892450119100,-1.482143526125670
Fish eagle and Kākāriki,LS1 6DP,53.796573279455900,-1.539893000000000
Bunting and Myna,LS11 1GD,53.785425591900000,-1.550305626300000
Lemming and Scimitar babbler,LS27 8HB,53.747903179294700,-1.589677064976530
Parrotlet and Booted eagles,LS10 1NR,53.785597942979600,-1.535126153710420
Perching duck and Lemming,LS14 5EB,53.824091878016800,-1.441896145317310
Stilt and Chicken,WF10 5FA,53.714283446485700,-1.355181392977820
Kākāriki and Cloud rat,LS16 6NY,53.843189592623100,-1.607228000000000
Logrunners and Kangaroo,LS15 8JN,53.812368904348100,-1.443281976980210
Civet and Marsh harrier,WF10 4BJ,53.720543475883500,-1.341658927706230
Scimitar babbler and Tahr,LS11 5XD,53.785422104824400,-1.550305481998300
Solitaire and Kestrel,LS6 2QU,53.818481604826200,-1.568104000000000
Stint and New World blackbird,WF12 7ED,53.701137614594800,-1.613942887089990
Snipe and Kākāriki,LS6 3DJ,53.813632189992100,-1.579118303103980
Kite and Meadowlark,LS16 7SX,53.869069000000000,-1.607609000000000
Rabbit and Wader,LS12 9EQ,53.792770764000000,-1.596328837100000
Wader and Night heron,LS11 7DQ,53.771202582452200,-1.550199450650380
Black jay and Viscacha,LS6 1JN,53.810512800649300,-1.571343707829220
Mole and Siskin,LS14 3BN,53.868011017210500,-1.448535444470890
Piping shrike and Vole,LS8 1RQ,53.838487264318200,-1.524617536595470
Linsang and Solitaire,LS15 8GB,53.798637000000000,-1.428134263884640
Eagle and Logrunners,LS6 1DP,53.817357029677200,-1.572564966537590
Coati and Grackle,LS27 8HS,53.746840383752200,-1.599664961106350
Herring gull and Warbler,LS7 4NZ,53.830747623460700,-1.538182004312920
B and Linsang,WF17 0NG,53.731640129526700,-1.654120258523520
Eagle and Gull,LS9 7JE,53.803214873481900,-1.519246532863750
Zebra and Myna,LS16 7HD,53.859452581569200,-1.625153132137530
Logrunners and Thrasher,LS10 3SJ,53.749803737781100,-1.548289723892070
Booted eagles and Greenbul,WF10 1LW,53.725743344788300,-1.362477905406120
Tahr and Francolin,WF10 2LT,53.729013956574700,-1.355547078360870
Meadowlark and Flameback,LS13 4TD,53.799492775398800,-1.624807099971650
Mockingbird and Shearwater,LS4 2AZ,53.803656590822700,-1.579598000000000
New World blackbird and Chipmunk,LS9 6QE,53.808297416738700,-1.494056129826040
Mouse and Grouse,LS23 6HT,53.893529383480200,-1.350006734772620
New World blackbird and Mouse,LS25 2BF,53.798920000000000,-1.375310000000000
Partridge and Ground sloth,LS17 7ER,53.851091000000000,-1.543659000000000
Kangaroo and Piping shrike,LS13 1DL,53.818663403521800,-1.651384429093330
Minke whale and Jay,LS27 9DA,53.749301816733500,-1.604691298021220
Mole and Jerboa,WF10 4ER,53.721752859408100,-1.350808580971620
Prion and Herring gull,LS2 7EH,53.795224000000000,-1.539589000000000
Chicken and Eagle,WF13 2DH,53.701231567673300,-1.641419000000000
Meadowlark and Bronzewing pigeon,LS15 0EU,53.793645294979700,-1.458679888205010
Rabbit and Goose,LS15 4DT,53.823073083595100,-1.422237244018630
Snipe and Rabbit,LS7 3QA,53.829583098043000,-1.543907504123440
Elephant and Bunting,LS17 9HD,53.896571829975800,-1.451827101860050
Pheasant and Partridge,LS26 8UF,53.767730436303300,-1.415866000000000
Ground sloth and Crow,LS8 1DZ,53.840450000000000,-1.509580000000000
Petrel and Quetzal,LS18 5GT,53.841216853534100,-1.625407096137840
Mamo and Mole,LS18 4RB,53.835200177249900,-1.641856506985400
Kākāriki and Perching duck,LS17 6HS,53.842308000000000,-1.543131000000000
Chickadee and Chickadee,LS26 8XG,53.754148401848200,-1.456230000000000
Badger and Pitohui,LS15 0HL,53.790644574661800,-1.460965043395590
Grackle and Booted eagles,WF3 2JY,53.719618456819100,-1.547461358779920
Dorcopsis and Hawk,LS6 1BB,53.814137464944200,-1.569529781028930
White ibis and Elephant,WF3 4DB,53.719065033166500,-1.457425128303200
Snipe and Duck,WF3 3LP,53.724051862872600,-1.496188903311320
River dolphin and Black jay,LS6 4NB,53.835966803739900,-1.568835024448050
Greenbul and Bunting,WF3 1DW,53.714933745750200,-1.581588430027050
Pheasant and Treepie,LS16 6JR,53.849795531191900,-1.607029013704290
Stilt and B,WF3 3HD,53.718067438422000,-1.496593754597930
Puffleg and Grosbeak,LS12 5SU,53.796475559115800,-1.631498613240720
Capuchin and Solitaire,LS16 9AQ,53.883766426931300,-1.619930761084670
Cuscus and Ground sloth,WF10 5RN,53.720709076639900,-1.360629428477420
Egret and Wallaby,LS15 8EL,53.805787026916600,-1.446603500888130
Rat and American sparrow,LS10 3RA,53.752119231808900,-1.540287909669800
Bronzewing pigeon and Cloud rat,LS14 5NX,53.821668798483000,-1.440758657806940
Wallaby and Puffleg,LS12 4XY,53.792767204294000,-1.596328684391720
Jay and Guillemot,LS14 5NQ,53.820741479815300,-1.444295130123620
Philippine hawk-owl and Perching duck,LS8 3AE,53.817672241747000,-1.500565708798940
Marmoset and Buzzard,LS8 3RR,53.812907892760400,-1.509112041376100
Tree warbler and Polecat,LS14 1FR,53.832705000000000,-1.464183000000000
Songlark and Moluccan boobook,LS5 3EH,53.822213000000000,-1.607103186180250
Cuscus and Gull,LS16 6DA,53.852006501586500,-1.612541636030620
Peafowl and Condor,LS18 5PW,53.847950704118900,-1.634770988559540
Moluccan boobook and Tahr,LS8 5QG,53.811717957796300,-1.519513000000000
Towhee and Old World quail,LS14 3HX,53.866865398641600,-1.459484276472260
Ibex and Fulmarine petrel,LS21 3BR,53.895040688762100,-1.641528018945980
Masked owl and Pitohui,LS13 4TS,53.800091009424100,-1.623541605008230
Armadillo and Magpie,LS13 3HP,53.809692364831400,-1.647950822351950
Gull and Parakeet,LS16 6BW,53.853354898161100,-1.604335358674000
Jackal and New World blackbird,LS18 4NB,53.832452739609600,-1.639813499599280
River dolphin and Dorcopsis,WF3 2WR,53.721464479609900,-1.541273733496500
Buzzard and Tahr,WF10 1LX,53.726101505248400,-1.363912324134710
Herring gull and Elephant,LS25 7DY,53.774442578708100,-1.376382954274200
Diving bird and Civet,LS17 5EG,53.844855646529700,-1.554000856632560
Wallaby and Linsang,LS9 0SF,53.783779666246800,-1.511819490822230
Tattler and Asiatic leopard,WF1 2HP,53.708351385848300,-1.509647488078980
Guillemot and Siskin,LS27 7LW,53.756786357955600,-1.620607106365920
Egret and Quetzal,LS25 1BT,53.789436994413800,-1.397927299293750
Parakeet and Black cockatoo,WF10 5UW,53.714677000000000,-1.379119000000000
Maya and Pitohui,LS7 4BT,53.813581303871200,-1.526843262669770
Night heron and Magpie,LS16 7ER,53.859548307307500,-1.618447246161380
Treepie and Ice seal,LS2 9EQ,53.810550278989600,-1.554486367456870
Parrotlet and Minke whale,LS13 2SH,53.817446128394000,-1.614819646683200
Quetzal and Asiatic leopard,LS12 3TF,53.794225282758600,-1.610538847728380
Warbler and Jerboa,LS26 0FD,53.744903000000000,-1.468556000000000
Asiatic leopard and Pitohui,LS28 9EE,53.793782720826300,-1.650725339921110
Rabbit and Mouse,LS1 3DN,53.801075000000000,-1.549459000000000
Petrel and Songlark,LS8 3AA,53.817309498037800,-1.512903429859380
Magpie and Snipe,LS13 4SP,53.799691317769800,-1.616530870690750
Pratincole and Mamo,LS10 4NX,53.749539046964400,-1.556845307470800
Towhee and Elephant,LS27 7JQ,53.748557863704000,-1.622061119625780
Macaw and Mink,WF17 5HQ,53.713543378997100,-1.628844482595750
Stilt and Partridge,LS14 5PB,53.816905001105300,-1.440730919966110
Parakeet and Chipmunk,LS8 2NQ,53.826365852027200,-1.492516842111120
Cuscus and Perching duck,LS11 6NL,53.782066000000000,-1.546804142103820
Ice seal and Kākāriki,LS17 7RF,53.857406577359700,-1.552590400890760
Stilt and Stint,LS25 2AZ,53.789008198561500,-1.368714247947460
Flameback and Solitaire,LS14 6BY,53.812431026081700,-1.470921860199980
Grouse and Boto,WF2 0SY,53.715294046180200,-1.532219426266670
Gull and Ibex,LS26 9DX,53.728485480236300,-1.424822577405820
Kākāriki and Dorcopsis,LS16 9EH,53.884314232497300,-1.611360797770030
Pitohui and Masked owl,LS10 4QG,53.749382588251500,-1.525350506666670
Stilt and Francolin,LS6 4NP,53.831361358753100,-1.567833910012280
Marsh harrier and Vole,LS1 6LR,53.799055852325000,-1.542872212937050
River dolphin and Cloud rat,LS7 4EG,53.815602359034600,-1.528810178367540
Piping shrike and Warbler,LS6 2BA,53.821862390787000,-1.570833000000000
Greenbul and Peafowl,LS17 8DU,53.853984344338200,-1.529641180349580
Warbler and Chickadee,LS11 7AE,53.768760195460200,-1.562999833422630
Fox and Fox,LS12 1TE,53.795011119958900,-1.590113379092060
Tit-tyrant and Fulmarine petrel,LS6 3AN,53.818928000000000,-1.576939000000000
Petrel and Condor,LS27 8FN,53.749824000000000,-1.578941000000000
Tit-tyrant and Buzzard,LS26 9JF,53.741241238133800,-1.395887017268350
Egret and Civet,BD11 1HL,53.751076160000000,-1.655431749000000
Parrotbill and Buzzard,LS16 7PT,53.853768521588600,-1.623972522986550
Nukupuʻu and Jerboa,LS15 8LS,53.802722409162700,-1.442787175669520
New World blackbird and Shearwater,LS10 2JG,53.773528746682900,-1.537914736666750
Mouse and Condor,LS27 8DP,53.745079841869300,-1.597316286338380
Prion and Mamo,LS1 3ES,53.804004000000000,-1.548573000000000
Chicken and Hawk,LS11 6RD,53.772552161800800,-1.550564349848610
Peafowl and Diving bird,LS10 3SQ,53.749228646982100,-1.550722182520540
Boto and Peafowl,LS8 1NR,53.831123959601600,-1.519565325353180
Eagle and Fox,LS13 2NN,53.816508278584300,-1.628422000000000
Kestrel and Bronzewing pigeon,LS16 8NR,53.848023000000000,-1.582254000000000
Zebra and Marsh harrier,WF6 2HT,53.706708505813200,-1.406682972105590
Petrel and Towhee,LS10 3RX,53.756795295991600,-1.531576483022300
Grouse and Condor,LS16 6EZ,53.838452941639700,-1.596254436936130
Tit-tyrant and Herring gull,LS16 7AY,53.852237608053900,-1.617343178892930
Wader and American sparrow,LS26 0RG,53.753923685464500,-1.484487492418140
Hawaiian honeycreeper and Tahr,LS7 3HR,53.817549988999600,-1.537339749320050
Mouse and Parrotlet,LS11 9TY,53.789738747499700,-1.555769298777100
Piping shrike and Capuchin,LS5 3EX,53.819428513502700,-1.599870070633150
Ground sloth and Ice seal,WF6 1TF,53.701024432975000,-1.398886000000000
Thicketbird and Mink,LS26 9AR,53.738569629659800,-1.383114595319840
Condor and Booted eagles,BD11 1HW,53.750383000000000,-1.654816000000000
Scimitar babbler and Thicketbird,LS4 2LQ,53.810824031049100,-1.578007425876690
Jackal and Mink,WF3 1LQ,53.730102237535000,-1.580589114735620
River dolphin and Thrasher,WF10 5TH,53.713794941921800,-1.379022360755600
Mamo and Eagle,LS9 6LG,53.803392404489700,-1.501084563212890
Kākāriki and Fox,LS15 8BG,53.810735131296800,-1.447616608763880
B and Parakeet,LS18 4DA,53.836891181023500,-1.621373000000000
Macaw and Magpie,LS15 7JG,53.798263498749400,-1.476535292491480
Peafowl and Argus,LS18 4PT,53.829078851053700,-1.644704215616150
Grosbeak and Cloud rat,LS27 8GY,53.740026608267100,-1.586190908187860
Songlark and Kākāriki,WF1 2EG,53.703760847818100,-1.516032870284540
Moluccan boobook and Dolphin,LS12 3ND,53.799954375869900,-1.595363934618040
Marsh harrier and Grouse,LS13 1AA,53.817932000000000,-1.649947000000000
Mouse and Pitohui,BD11 1LX,53.759000480000000,-1.653957000000000
Condor and Thicketbird,LS18 5HS,53.865588750358800,-1.638981703439410
Civet and Pheasant,LS17 8RF,53.857283669665200,-1.518354000000000
Asiatic leopard and Wallaby,LS14 6US,53.808879610900000,-1.478104105700000
Stint and Mole,LS6 2QH,53.811129064475600,-1.548223327758610
Puffleg and Diving bird,WF10 5SD,53.716759590764400,-1.358264853748870
Old World vulture and Mouse,LS14 3HZ,53.868664624260000,-1.461848679192620
Rat and Mouse,LS12 2BN,53.796124175895500,-1.581874310535040
Mamo and Goose,WF10 5EP,53.713380754911400,-1.377149664051390
Elephant and Snipe,LS8 1AH,53.839960550701900,-1.517670973872070
Mamo and Piping shrike,LS10 4SY,53.753005129018800,-1.518804000000000
Ibex and Magpie,LS13 2TY,53.811526567798800,-1.624441545815640
Tree warbler and Macaw,LS12 1UW,53.795316065405000,-1.587301935776150
Guillemot and Parrotlet,LS10 1NY,53.784075332246000,-1.527296513673510
River dolphin and Mouse,WF17 0JY,53.734861407593400,-1.646089827001970
Minke whale and Old World quail,LS21 1RU,53.898832000000000,-1.626064000000000
Polecat and Minke whale,LS14 2AS,53.826674912197400,-1.452405328316720
Treepie and Fox,LS6 2EN,53.818757102420900,-1.566976213781770
Pheasant and Towhee,LS6 2ND,53.815880651872300,-1.549797414463010
Perching duck and Prion,LS14 2HD,53.839410671264100,-1.458287649315870
Peafowl and Buzzard,LS28 9LP,53.786136793935300,-1.654826034789220
Prion and Condor,LS13 4HL,53.800836587991900,-1.635043571114760
Dorcopsis and Bunting,LS12 6HQ,53.781113411827300,-1.571476263208350
Ibex and Siskin,LS11 5RB,53.758142481531000,-1.567190062435160
Jay and Coati,LS88 8BR,53.765303000000000,-1.501460000000000
Wader and Nukupuʻu,LS27 9NY,53.752805513144100,-1.601473651898830
Mink and White ibis,WF10 4PR,53.709356659935500,-1.335788598780780
Fox and Flameback,WF3 3FN,53.722127754869400,-1.495227014042020
Snipe and Fish eagle,LS8 5EJ,53.808912289098600,-1.525772056596210
Badger and White ibis,LS3 1NT,53.802352999419600,-1.561755004958660
Night heron and Flameback,BD11 1ED,53.750627640000000,-1.640574000000000
Grosbeak and Warbler,LS27 9NT,53.751990921121400,-1.605196854399450
Francolin and Herring gull,WF6 1QT,53.703807000000000,-1.399589000000000
Boto and Rat,LS15 7NJ,53.807992348575700,-1.455169521261560
Stilt and Vulture,LS6 4QD,53.840030345645600,-1.559203927296910
Mockingbird and Black jay,WF17 7BD,53.705527327145300,-1.650229007561790
Ground sloth and Jerboa,LS88 8BH,53.765303000000000,-1.501460000000000
Perching duck and Old World quail,LS26 8WP,53.755595000000000,-1.438222259306550
Rat and Jackal,WF17 8LS,53.720270862686100,-1.642105543594100
Shearwater and Coati,LS27 9PQ,53.755074000000000,-1.605075116278910
Warbler and Hawaiian honeycreeper,LS16 7QY,53.857866951321300,-1.604368841927830
Puffleg and Quetzal,LS27 8PD,53.752230079717200,-1.598718994745660
Towhee and Ground sloth,LS25 7LY,53.768251745876700,-1.373319031421810
Grosbeak and Dorcopsis,LS27 7AG,53.759443928025400,-1.637101088285340
Myna and Towhee,LS5 3LA,53.817293113016900,-1.595622327248500
Magpie and Skunk,WF3 1NJ,53.729019740988700,-1.561896085542720
Maya and Black jay,LS12 2BH,53.799980641623400,-1.587240984017940
New World blackbird and Darwin's finches,LS18 5BT,53.837381342001000,-1.623283453100390
Booted eagles and Tree warbler,LS17 6PT,53.839481000000000,-1.527965000000000
Chicken and Moluccan boobook,LS13 4ES,53.805955000000000,-1.624567000000000
Moluccan boobook and Black cockatoo,LS25 1NE,53.789735000000000,-1.403234196534410
Stilt and Coati,LS6 2TP,53.813756207968000,-1.551323741706500
Dorcopsis and Quetzal,LS9 9JT,53.793554710885000,-1.515273433491940
Zebra and Asiatic leopard,LS25 3AZ,53.832487803331300,-1.344342206949010
Cloud rat and Tattler,LS10 1RS,53.777107459237700,-1.498012296215610
Dolphin and Towhee,LS14 5GL,53.817159099200000,-1.448306979500000
Philippine hawk-owl and Tree warbler,LS17 8BU,53.853025768183900,-1.530442418094020
Fish eagle and Solitaire,LS25 7PG,53.773812921037500,-1.372841725884400
Tree warbler and Polecat,LS14 1BN,53.828196709682300,-1.471072757866680
Civet and Mole,LS25 2JE,53.789296674545200,-1.368876886783820
Mamo and Magpie,LS16 5AQ,53.836700371665300,-1.598960955577910
Capuchin and Hawk,LS5 3RU,53.815211355515000,-1.610253315935100
Peafowl and Coati,LS12 6HP,53.777621799600000,-1.597779136200000
River dolphin and Coati,LS11 5RA,53.760165164900400,-1.567290624049850
Civet and Wader,LS18 4DE,53.835877115711900,-1.619406875595480
Jerboa and Songlark,LS25 7DD,53.773903000000000,-1.376209000000000
Logrunners and Recurvebill,LS18 5AY,53.845121750694900,-1.632561352584730
Cuscus and Magpie,LS13 3DH,53.809293119899400,-1.643626169562750
Siskin and Hawaiian honeycreeper,LS3 1AX,53.801836159581800,-1.558070848580450
Ibex and Meadowlark,WF13 4AW,53.705314529219400,-1.651230570848120
Boto and Thrasher,WF17 6HA,53.714455613548900,-1.613184666295580
Linsang and Black cockatoo,LS8 3RA,53.815124708917900,-1.512731303823020
Eagle and Chicken,LS17 5AL,53.836586054119500,-1.549013253735380
Greenbul and River dolphin,LS11 9QB,53.786777743289800,-1.557136212337210
Tahr and Darwin's finches,WF3 1LW,53.728605929112400,-1.581937803640160
Songlark and Old World quail,LS15 7PX,53.810018057251700,-1.455917769409890
Piping shrike and Fulmarine petrel,LS7 1AD,53.806606000000000,-1.533436000000000
Stilt and Rabbit,LS12 2DU,53.795553000000000,-1.565031570993450
Old World quail and Eagle,LS25 7RS,53.762671517620600,-1.377042719664300
Shearwater and Snipe,LS6 2NL,53.814775895874700,-1.552406392253270
Rabbit and Bunting,LS1 4JL,53.795931295152400,-1.553290095358010
White ibis and Capuchin,WF10 5SP,53.717422151272800,-1.357906000000000
White ibis and Flameback,LS16 6AA,53.851632873432500,-1.594653162493620
Tit-tyrant and Pitohui,LS10 4QF,53.748676377970300,-1.524054345303060
Coati and Siskin,LS13 3EN,53.806348000000000,-1.623653000000000
Warbler and Magpie,LS10 3UX,53.765810437723100,-1.533903453296660
Duck and Grouse,LS6 2LZ,53.816184351028900,-1.549292941230800
Polecat and Ibex,WF17 0RD,53.734774714884000,-1.653336592506730
Jackal and Black jay,LS6 4SD,53.838857589831000,-1.562939425654140
Egret and Maya,WF3 4FA,53.727817000000000,-1.474758000000000
Old World quail and Meadowlark,LS16 7DQ,53.856418915231800,-1.615131029044210
Kestrel and Wader,LS10 4DZ,53.743077000000000,-1.542221000000000
Triller and New World blackbird,LS11 5QA,53.791184865627600,-1.550684089715720
Eagle and Skunk,WF2 0SU,53.705915730962100,-1.518552974549820
Booted eagles and Philippine hawk-owl,WF17 6FA,53.706841000000000,-1.624635000000000
Egret and Coati,LS25 2EH,53.793523928325000,-1.374566841962110
Songlark and Ibex,LS15 0BA,53.790506906169800,-1.482659000000000
Jay and Myna,LS12 3RF,53.798022409964100,-1.603580746630860
Pitohui and Songlark,LS17 6SP,53.845247859413300,-1.527307215455320
Hawaiian honeycreeper and Chicken,LS6 4DD,53.827175000000000,-1.580882000000000
Thrasher and Argus,LS7 4QG,53.831706000000000,-1.537153000000000
Kite and Towhee,LS14 2BY,53.832930194392300,-1.456274378054160
Perching duck and Wader,WF1 3EA,53.709060960267000,-1.494746000000000
Myna and Myna,LS9 6AX,53.809412334896300,-1.509304719714300
Thrasher and Polecat,LS27 9BG,53.745320879777500,-1.602211598839960
Argus and Duck,LS11 7PD,53.772570276769700,-1.562763039763690
Towhee and Perching duck,WF6 1RD,53.707233000000000,-1.399949000000000
Logrunners and Fish eagle,LS15 7JA,53.798513850033300,-1.474178941782410
Old World vulture and Pheasant,LS12 6DQ,53.780697000000000,-1.581030000000000
Jackal and Grouse,LS1 4BW,53.794947563680700,-1.552207523373360
Snipe and Capuchin,LS9 7SH,53.801283205899300,-1.528499956180760
Towhee and Moluccan boobook,LS7 2NP,53.831867500970900,-1.551449397436420
Linsang and Solitaire,LS17 6UZ,53.839231925594100,-1.538088708507920
Viscacha and Tattler,LS9 7AF,53.808711000000000,-1.515524000000000
Peafowl and Condor,LS12 3UQ,53.797526043948400,-1.600260627744310
Chicken and Egret,LS27 9HL,53.738208855619000,-1.590802336276580
Cuscus and Thrasher,LS13 2NF,53.815755330029000,-1.628747619673360
Rabbit and Kestrel,LS13 2XL,53.813478854211600,-1.625046792302040
Tit-tyrant and Puffleg,WF3 3SB,53.729293722326600,-1.471541287461110
Recurvebill and Zebra,LS9 6LH,53.804405350970100,-1.500434804776810
Hawk and Kākāriki,WF10 1NG,53.728548119312900,-1.365951923587770
Fish eagle and Wader,LS1 3DW,53.800962987012000,-1.547938000000000
Quetzal and Duck,WF3 1DF,53.718366148130000,-1.581281628606190
Marsh harrier and Jerboa,LS12 5JL,53.784689846733700,-1.613586627795340
Parrotlet and New World blackbird,LS8 2LE,53.829722007861600,-1.489133743528190
Puffleg and White ibis,LS11 8LS,53.757854000000000,-1.574222818193480
Tahr and Kite,LS12 4UP,53.786334000869900,-1.605102387765860
Zebra and Magpie,WF6 2PU,53.708328130174300,-1.427369859338840
Chickadee and Armadillo,LS8 2JR,53.830009588779100,-1.499796105450440
White ibis and Kākāriki,LS12 1YW,53.792080196519800,-1.574143000000000
Fulmarine petrel and Macaw,LS10 2QG,53.777222086248000,-1.521667894461340
Bunting and Capuchin,LS15 4HN,53.829722614827500,-1.394554400292350
Old World warbler and Black jay,LS6 1AA,53.817859000000000,-1.574545907554110
Zebra and Asiatic leopard,LS12 2SR,53.811745051791800,-1.608432654193560
Tattler and Skunk,LS12 2AH,53.797918000000000,-1.567874000000000
Bunting and Buzzard,WF3 3AN,53.742476281872900,-1.504504836846020
Parakeet and Lemming,WF6 2TT,53.701052670192000,-1.406232339371850
Stilt and Diving bird,LS25 7FP,53.773749000000000,-1.364137000000000
Grouse and Puffleg,LS16 6AZ,53.849322505951200,-1.599874026450870
Mouse and Thicketbird,LS15 8AW,53.808308000000000,-1.430003000000000
Hawaiian honeycreeper and Guillemot,LS9 9JQ,53.794863185451900,-1.516563904649100
Flameback and New World blackbird,WF10 4ND,53.716991671939200,-1.347972514329300
Old World vulture and Hawaiian honeycreeper,LS12 5NE,53.793006925090600,-1.625927546947470
Gull and Duck,LS6 4AD,53.824402013639500,-1.577081000000000
Civet and Vulture,LS12 2BY,53.795411742285800,-1.586374958233690
Ground sloth and Wallaby,LS17 6FA,53.847497564600000,-1.534015593800000
Tahr and Argus,LS16 6JG,53.839460210221900,-1.601822011134360
Warbler and Flameback,LS10 2EQ,53.770780279275700,-1.526869262833180
Eagle and Peafowl,LS27 7JN,53.752222000000000,-1.632250000000000
Thrasher and White ibis,WF1 2JJ,53.702780773463500,-1.505773821220950
Ground sloth and Guillemot,LS9 7PS,53.799150000000000,-1.522891000000000
Jackal and Badger,LS26 8FU,53.748440000000000,-1.446041000000000
Pheasant and Polecat,LS6 1ET,53.813338922602700,-1.569583000000000
Thrasher and Mockingbird,LS6 4SY,53.839601035057400,-1.564709732642250
Night heron and Skunk,LS15 0DE,53.795138000000000,-1.485118652080910
Hawk and Cloud rat,LS17 7WR,53.851402706520600,-1.533713642475360
Darwin's finches and Scimitar babbler,LS15 4JE,53.827812661774600,-1.395447919365990
Quetzal and Black jay,LS12 4FA,53.791662000000000,-1.591288000000000
Jerboa and Rat,LS25 7NN,53.764998170663600,-1.376795913004690
Moluccan boobook and Mamo,LS12 4TN,53.784959322824400,-1.605251882049410
Marmoset and Buzzard,WF6 2TY,53.711047836459700,-1.426590561326950
Fox and Treepie,LS11 9QY,53.785316425400100,-1.560596847573020
Myna and Grosbeak,LS23 6JQ,53.890160000000000,-1.351763000000000
Armadillo and Polecat,LS27 7HF,53.759378266864600,-1.627622000000000
Civet and American sparrow,LS9 9ND,53.795705896642500,-1.511589993640860
Maya and Eagle,LS27 8DQ,53.745590822007500,-1.588971755340500
Partridge and Warbler,LS12 4XA,53.788534052165200,-1.604489780368870
American sparrow and Masked owl,LS14 3FA,53.853368000000000,-1.392303000000000
Gull and Chipmunk,LS10 4GR,53.744084000000000,-1.535417000000000
Pratincole and Quetzal,LS12 5HU,53.770356490448000,-1.634488513658600
Flameback and Fulmarine petrel,LS7 3JY,53.820309610421600,-1.535091629206090
Triller and Macaw,LS28 6NG,53.807151262724800,-1.655002830410720
Philippine hawk-owl and Magpie,LS10 3RZ,53.757198084061400,-1.531147321712630
Viscacha and American sparrow,LS13 1FF,53.824720000000000,-1.639094000000000
Francolin and Prion,LS27 0JR,53.744148745441100,-1.614852999167100
Kestrel and B,LS17 7RS,53.855911380414000,-1.561469613794180
Parakeet and Towhee,LS11 0AH,53.782285731216700,-1.562586226741530
Thicketbird and Rat,LS25 1NH,53.788302794986100,-1.378211429454430
Bronzewing pigeon and Maya,LS7 2JB,53.816613532515100,-1.548695981700450
Petrel and Zebra,WF10 4DJ,53.718058971190400,-1.334469596127620
Grackle and Hawaiian honeycreeper,LS12 6DU,53.778671000000000,-1.587222000000000
Parrotbill and Minke whale,LS8 5NG,53.810068580980200,-1.522965000000000
Meadowlark and Petrel,LS11 0DG,53.782648942411100,-1.563599268548930
Crow and Vulture,LS14 6WB,53.804901995558400,-1.471593617040630
White ibis and Francolin,LS17 7SZ,53.853378267724600,-1.554548786599230
Black jay and White ibis,LS17 8EU,53.856008000000000,-1.488008000000000
Buzzard and Duck,LS8 5JQ,53.813921774653800,-1.515311970110580
Vulture and Hawaiian honeycreeper,LS14 6ET,53.817270000000000,-1.469299339223770
Tahr and Hawk,LS27 0JT,53.740575940886000,-1.613445332168230
Old World warbler and Flameback,LS10 1AD,53.783975509451900,-1.533945104687940
Shearwater and Booted eagles,LS10 4RA,53.746558027055400,-1.520105000000000
Dolphin and Old World vulture,LS27 0RL,53.739722320350700,-1.602522167793370
Grouse and Pitohui,LS13 4HN,53.803528659903000,-1.651737648182790
Argus and White ibis,LS12 1XB,53.796082628761200,-1.590679824108520
Viscacha and Wader,LS27 8QX,53.747288225590400,-1.593853045380820
Masked owl and Vulture,WF3 3FE,53.735088325743300,-1.521433804678960
Tattler and Thrasher,LS14 1JX,53.826494161156800,-1.472248806188000
Dolphin and Peafowl,LS14 6UP,53.811774724926600,-1.479100700311080
Mockingbird and Myna,LS12 5JW,53.784403040510600,-1.608292495955350
Treepie and Ibex,LS25 2JS,53.790521331645500,-1.365898536981690
Parakeet and Logrunners,LS26 8LX,53.754352694541200,-1.445656676839070
Skunk and Siskin,LS14 5DR,53.825862170052300,-1.449605390211550
Tattler and Lemming,LS27 9AB,53.748921328012100,-1.612034334523020
Bunting and Masked owl,LS8 3LJ,53.814973783136600,-1.493641628240710
Warbler and Coati,LS10 1BJ,53.781709906212600,-1.533788082655400
Meadowlark and Perching duck,LS1 3JR,53.800437563579400,-1.551754317742750
Lemming and Stilt,LS9 9NR,53.794806391701400,-1.511418268795380
Viscacha and Thicketbird,LS13 4TF,53.800676000000000,-1.623535410835230
Mamo and Chickadee,LS11 9BJ,53.788871524152200,-1.547384675536910
Vole and Goose,LS17 8SJ,53.857891149684300,-1.515336406643770
Meadowlark and Mink,LS16 9HJ,53.884238339507000,-1.624231793555630
Recurvebill and Elephant,LS16 9AF,53.884293178400300,-1.618815428037170
Hawaiian honeycreeper and Pheasant,WF17 5PA,53.717022302920100,-1.629010863804240
Viscacha and Herring gull,WF17 8DY,53.718683847051200,-1.655711506617530
Mink and Armadillo,LS18 5SU,53.853234727664400,-1.643450883718320
Dorcopsis and Lemming,LS12 4LB,53.789005912577200,-1.589762057807040
Petrel and Tree warbler,LS25 2NP,53.794676644481500,-1.366427941534880
Shearwater and Marsh harrier,WF10 2LY,53.731414356661200,-1.352312029062110
Parrotbill and Treepie,LS1 6ND,53.795500742254600,-1.541605281444660
Bunting and Night heron,LS12 2DJ,53.796861000000000,-1.586768938064880
Mockingbird and Cloud rat,LS11 8LX,53.758636000000000,-1.574223000000000
Boto and Cloud rat,LS15 7HZ,53.797570944949300,-1.472323366952800
Rabbit and Moluccan boobook,LS2 9PR,53.806247215157100,-1.562412923334310
Old World warbler and Crow,LS18 5QZ,53.841899386591000,-1.628121406391440
Songlark and Siskin,LS13 1HD,53.814437495859000,-1.644721648833170
Civet and Wallaby,LS11 6LZ,53.775365795453200,-1.553068326385260
Grackle and Nukupuʻu,LS25 3EW,53.826850771138400,-1.342424784259660
Quetzal and Old World vulture,LS6 2HZ,53.817903030248500,-1.554636267968830
Argus and Jay,LS5 3AZ,53.813192060187500,-1.597545012245600
Mole and New World blackbird,LS11 8QX,53.774836559729400,-1.565592129127880
Chipmunk and Bunting,LS14 6UH,53.806588713374700,-1.470904274451610
Jerboa and Mouse,WF17 7DU,53.709754255583300,-1.648012365483700
Diving bird and Solitaire,LS10 2RW,53.772954000000000,-1.533233000000000
Flameback and Night heron,LS18 4AH,53.839860427601500,-1.637364046890660
White ibis and Magpie,LS17 5EE,53.843879886438600,-1.557491680393210
Capuchin and Recurvebill,LS25 1JJ,53.790595358701700,-1.383551039480250
Night heron and Badger,LS8 1EB,53.841194982243400,-1.509556491198090
Grackle and Shearwater,LS13 1ED,53.817131374339200,-1.650257000000000
Maya and Linsang,WF3 2AJ,53.722507623002500,-1.539064952826700
Chicken and Pitohui,LS17 7PT,53.862215224832100,-1.559913630873000
Shearwater and Dorcopsis,LS4 2QJ,53.810643872002300,-1.590872174205930
Piping shrike and Siskin,LS26 0RH,53.755455173196000,-1.498027702910600
Marmoset and Herring gull,WF1 3DW,53.707414224137000,-1.502523047480050
Vulture and Black cockatoo,LS11 7HG,53.768921776508800,-1.558037101273420
Rat and Coati,LS25 7QY,53.761099807931100,-1.384240783245680
Snipe and Pitohui,LS15 7QH,53.800820582087100,-1.459301126164260
Kākāriki and Kite,LS8 3QU,53.815613655421600,-1.511404252213820
Vulture and Lemming,WF6 2SE,53.708127375088600,-1.438128822747980
Viscacha and Wallaby,LS13 3ND,53.810411606821300,-1.630085645340130
Hawaiian honeycreeper and Petrel,LS6 1PQ,53.808600807648000,-1.572031373876450
Jay and Kestrel,LS8 3TJ,53.813982000000000,-1.497013300540160
Chicken and Badger,LS17 9EL,53.895547127864700,-1.451810071961340
Fish eagle and Solitaire,LS1 5EZ,53.797909748478200,-1.548472000000000
Crow and Moluccan boobook,LS8 3RP,53.812544720457000,-1.508220237448130
Triller and Wallaby,LS11 5HZ,53.775596096310400,-1.544993400214290
Nukupuʻu and Fox,LS9 9DL,53.797921436857300,-1.508284970534970
Snipe and Solitaire,LS18 5LS,53.839720141421300,-1.644553419342020
Black jay and Armadillo,LS26 0BW,53.745206431279800,-1.474419817445790
Civet and Mole,LS26 9EN,53.739872978314600,-1.415418927151960
Tahr and Jackal,LS16 6AF,53.852976848151400,-1.596069152606320
Vole and Rat,LS10 4ED,53.743229133611700,-1.540066484258240
Parakeet and Goose,LS12 6AA,53.781045302847200,-1.592739000000000
Ibex and New World blackbird,BD11 1JW,53.751537190000000,-1.653229039000000
Diving bird and Diving bird,LS16 8BH,53.845040009959400,-1.582785662300330
Ibex and Diving bird,LS9 9LH,53.796141126111200,-1.514742644907500
Francolin and Fish eagle,LS1 9QT,53.796296000000000,-1.564095000000000
Gull and Siskin,LS27 7RD,53.762465525577800,-1.590157138032170
Tattler and Zebra,LS27 8NE,53.751513808175400,-1.591552710270810
Meadowlark and Booted eagles,LS8 2NJ,53.825446035714900,-1.491798742136060
American sparrow and Lemming,LS16 6SN,53.849192292143600,-1.615030072840500
Thrasher and Minke whale,LS26 0NJ,53.755537287789200,-1.483497078867520
Moluccan boobook and Solitaire,LS14 6TU,53.814129070604100,-1.478980396137210
Lemming and Crow,LS15 8LP,53.801729447502800,-1.445745902715030
Maya and Pratincole,LS23 6HQ,53.892407199077000,-1.346722000000000
Black cockatoo and Wader,LS6 3QE,53.826548671794100,-1.584488516275650
Moluccan boobook and Wallaby,LS8 1QU,53.835901000000000,-1.522577153303200
Kākāriki and American sparrow,LS10 3PD,53.754396892099500,-1.527356614566900
Maya and Armadillo,WF10 1BX,53.729908000000000,-1.364598000000000
Jackal and Hawk,LS1 2LW,53.798922806701200,-1.550722000000000
Pheasant and Tahr,LS18 5NH,53.846053000000000,-1.631109000000000
Grackle and Stint,LS26 0DR,53.745337561065000,-1.481832879152500
Marsh harrier and Zebra,LS17 5AR,53.838517130448600,-1.546272330024320
Elephant and Badger,LS15 0BR,53.793289564260600,-1.484020344833450
Chicken and Night heron,WF10 4DD,53.719766742806200,-1.337715887034640
Treepie and Jay,LS12 4QQ,53.791976569224200,-1.609603000000000
Boto and B,WF3 3QE,53.735049112025700,-1.503788701095450
Songlark and Civet,WF3 2FJ,53.733354270027200,-1.536202660627280
Egret and Magpie,LS2 9EN,53.805828686202300,-1.548902854113800
Old World warbler and Marsh harrier,LS6 9DT,53.811136000000000,-1.538064703600000
Civet and New World blackbird,LS10 4HN,53.739974816206700,-1.542254859524380
White ibis and Philippine hawk-owl,LS13 4DR,53.804452576434200,-1.638944901392400
Magpie and Peafowl,WF3 1NG,53.729096409078100,-1.575718542245490
Magpie and Grosbeak,LS15 0AX,53.791089559460500,-1.484502713900560
Moluccan boobook and Hawaiian honeycreeper,WF10 5UZ,53.709828000000000,-1.359359000000000
Cuscus and Mole,WF10 5AG,53.720150585030400,-1.353697356546050
Parrotbill and Francolin,WF17 7DD,53.707872573291400,-1.646937301191710
Mole and Capuchin,LS17 8JR,53.853497256452600,-1.475010534636610
Vulture and Maya,LS26 0HJ,53.755821471610100,-1.470117000000000
Armadillo and Peafowl,LS15 4DF,53.824004751977900,-1.410511848228900
Chipmunk and Maya,LS10 3ED,53.767082684178300,-1.525985394625550
Cuscus and Warbler,LS10 2EG,53.770540005778900,-1.525203039982510
Badger and Thrasher,LS14 2BD,53.825588572878400,-1.456627661252670
Eagle and Solitaire,LS15 0BB,53.791344911265600,-1.482464000000000
Guillemot and Lemming,WF10 1YQ,53.716441535353700,-1.390317585227820
Kākāriki and Gull,LS28 9DL,53.791192254540000,-1.656287326397870
Goose and Perching duck,LS8 1BR,53.842675000000000,-1.506393000000000
Mockingbird and River dolphin,LS27 0DS,53.736734437231900,-1.604081479268110
Grosbeak and Kestrel,LS9 9JH,53.793811485393500,-1.514314107312860
Songlark and Wallaby,LS7 3EZ,53.817500050123600,-1.533725322138680
Petrel and Pheasant,WF3 4JA,53.713622276494600,-1.478282000000000
Mink and Armadillo,LS12 5PR,53.781991822404800,-1.602092731631910
Polecat and Jackal,LS14 2BZ,53.831909164161900,-1.455087249827580
Minke whale and Tattler,LS27 8NZ,53.750934086506600,-1.592877678187840
Recurvebill and Vole,WF10 5PW,53.712422913433300,-1.382996000000000
Greenbul and American sparrow,LS13 4AJ,53.803481692248100,-1.618546131976980
Logrunners and Nukupuʻu,WF17 7JS,53.702931131741700,-1.635602758735840
Gull and Perching duck,LS12 3JX,53.797798226308800,-1.598329949965360
Tree warbler and Snipe,LS18 5AX,53.845041930513700,-1.632911625476260
Maya and Mole,WF6 2FA,53.702148219054000,-1.425636185070110
Prion and Buzzard,LS17 8SX,53.856632111237200,-1.508524727311430
Snipe and Snipe,LS8 2HZ,53.826392000000000,-1.504898000000000
Puffleg and Herring gull,LS9 6AT,53.808694000000000,-1.507066000000000
Armadillo and Diving bird,LS7 3EP,53.814900879329500,-1.535622284468170
Masked owl and Tit-tyrant,LS13 3HH,53.810915280094800,-1.648138008180910
Old World warbler and Badger,WF17 5BG,53.712040205989400,-1.636948289428110
Parrotlet and Lemming,LS15 0EZ,53.791205000000000,-1.457480369949610
Mockingbird and Guillemot,LS3 1LR,53.803748000000000,-1.571823000000000
Diving bird and Darwin's finches,LS16 7LL,53.860991014270800,-1.617080913332550
Ground sloth and Parrotbill,LS26 0DQ,53.747501000000000,-1.480881000000000
Grackle and Old World vulture,WF17 8EX,53.716272449160700,-1.648624697872070
Hawk and Myna,LS11 0EW,53.778103685516300,-1.569321744131340
Grosbeak and Tit-tyrant,LS27 8WB,53.744537858767400,-1.585964663013440
Thicketbird and Pheasant,LS18 5AB,53.839185206436700,-1.631093611426940
Guillemot and Eagle,LS7 3DP,53.825638049317800,-1.544087056143090
Pratincole and New World blackbird,LS9 0DB,53.789383000000000,-1.519283000000000
Grosbeak and Civet,LS25 7RB,53.773147542453000,-1.371076389201540
Mouse and Maya,LS10 1DG,53.775286153106700,-1.503117225762050
Polecat and Eagle,LS11 7BY,53.767697554002100,-1.555106780242250
Peafowl and Jerboa,WF3 3SD,53.716822885144900,-1.502048429315060
Hawaiian honeycreeper and Pitohui,LS8 3PX,53.813020220328100,-1.503643273354290
Old World warbler and Ground sloth,LS12 4NQ,53.793144303673800,-1.599620000000000
Chicken and White ibis,LS13 4NY,53.802872059155800,-1.642405153863710
Cloud rat and Kestrel,LS9 9HN,53.794854970968400,-1.518992928229130
Pratincole and Rabbit,LS16 7DH,53.856736063007900,-1.615933887211150
Hawaiian honeycreeper and Diving bird,LS17 7AA,53.851789821577500,-1.533876557539290
Parakeet and Mink,LS11 7EF,53.770261656762900,-1.550952926714860
Chicken and Dolphin,WF17 6HQ,53.717231694775900,-1.610022587138000
Tree warbler and Booted eagles,WF6 2RX,53.703647048441300,-1.412876121638740
American sparrow and Chicken,LS12 3BG,53.793412226428500,-1.595700105485740
Ibex and Rat,LS27 8TF,53.745513635320400,-1.582240147720180
Kākāriki and Thrasher,LS15 7QQ,53.811916311810100,-1.454328935999080
Wallaby and Herring gull,LS16 8DG,53.855749546368400,-1.586799172694800
Myna and Solitaire,LS8 4EE,53.822323460417900,-1.519135000000000
Hawaiian honeycreeper and Bronzewing pigeon,LS18 4QS,53.833873028109700,-1.639877296817630
New World blackbird and Tahr,LS16 7NB,53.866373847418100,-1.619616917635130
Snipe and Masked owl,LS14 1JP,53.823631341638700,-1.473241813897510
Parakeet and Mink,LS16 6EW,53.841010166322500,-1.603038308965470
Kestrel and Marsh harrier,LS8 4HB,53.818989658581100,-1.521693883099370
Crow and Guillemot,LS15 9DD,53.795936692332900,-1.438990681124530
Vole and Moluccan boobook,WF17 7PS,53.708761266853300,-1.640506383184700
Vole and Cuscus,LS2 7HN,53.796984000000000,-1.539111871471110
Perching duck and Goose,WF1 2ES,53.704737145325900,-1.508568682004340
River dolphin and Fulmarine petrel,LS27 7RJ,53.762751280044500,-1.592247704180460
Jay and Black jay,LS15 7QE,53.813349062317600,-1.453156082780820
Recurvebill and Perching duck,LS9 7QP,53.798892631126000,-1.515029725513670
Asiatic leopard and Ground sloth,WF1 2ET,53.702811566405000,-1.516892024988790
Jerboa and Chipmunk,WF17 0JN,53.734418973111600,-1.642379597899110
Mouse and Magpie,LS6 1PG,53.808546339943500,-1.571880071106180
Puffleg and Armadillo,LS12 2LN,53.798115214457200,-1.585817005466670
Lemming and Philippine hawk-owl,LS8 3BF,53.814588346200000,-1.499508996900000
Parrotlet and Pitohui,WF17 0BH,53.719741000000000,-1.632895677500150
Egret and Rabbit,LS10 1HQ,53.793268834094400,-1.535832000000000
Scimitar babbler and Zebra,LS27 0LX,53.745061000000000,-1.624306000000000
Black cockatoo and Pitohui,WF3 1ER,53.721281610160100,-1.569523289007620
Triller and Stilt,WF17 8NG,53.726762059184100,-1.654978696934730
White ibis and Perching duck,LS14 2BU,53.830418066732400,-1.455288917908430
B and Elephant,LS17 7FD,53.857164000000000,-1.562019000000000
Dorcopsis and Goose,LS12 6LJ,53.778375000000000,-1.603417000000000
Lemming and Perching duck,LS1 6EX,53.797288112663000,-1.543453000000000
Kangaroo and Mole,LS17 5BF,53.842226771945800,-1.545639528272470
Fulmarine petrel and Night heron,LS17 8QD,53.852334285769800,-1.523639000000000
Parrotbill and Triller,LS12 3TS,53.793494957188900,-1.609832136382230
Polecat and Francolin,LS12 4HL,53.788900107498000,-1.597898000000000
Tahr and Flameback,LS11 9BT,53.789474303270100,-1.549928236786310
Old World quail and Armadillo,WF6 2LT,53.704563223878500,-1.431389819051510
Rabbit and Elephant,LS5 3NW,53.826063543941600,-1.614178554952980
Marmoset and Mockingbird,LS13 4PD,53.804500518437100,-1.642953123684420
Grosbeak and Ice seal,LS17 8FY,53.854217000000000,-1.481189000000000
Eagle and River dolphin,LS12 2RY,53.806230705333500,-1.612402000000000
Marsh harrier and Tahr,LS1 5HU,53.798468133454300,-1.546689306525610
Siskin and Bronzewing pigeon,WF17 0JL,53.735181268877700,-1.641812241002680
Kangaroo and Tattler,LS27 7PP,53.759360326596600,-1.594176524770760
Hawaiian honeycreeper and Minke whale,LS17 1JX,53.851330000000000,-1.533689000000000
Minke whale and Polecat,LS11 7EE,53.771098877243500,-1.551308130198460
Tattler and Parakeet,LS17 6JT,53.841511674285500,-1.537804000000000
Fulmarine petrel and Stint,LS10 1LR,53.790793000000000,-1.532519000000000
Kākāriki and Chickadee,LS25 3BS,53.835020641199400,-1.340731726655530
Songlark and Kākāriki,LS6 3QD,53.825634540070300,-1.582659336984700
Tree warbler and Jackal,LS13 9DJ,53.813482457100000,-1.625046950400000
Philippine hawk-owl and Meadowlark,LS26 0UZ,53.755639936857600,-1.484375487979850
Siskin and Herring gull,WF3 1PU,53.725961229181400,-1.560731000000000
Guillemot and Marsh harrier,LS12 1XQ,53.791929540148000,-1.572459038752240
Hawk and White ibis,LS12 5QT,53.788534899850300,-1.613020072653470
Marsh harrier and Nukupuʻu,LS26 8BF,53.727375197500000,-1.471898949000000
Ground sloth and Fox,LS16 5PH,53.842449000000000,-1.584331000000000
Mamo and Lemming,LS8 2BU,53.847287389542700,-1.513619659046760
Chipmunk and Asiatic leopard,WF17 0AL,53.724780765628000,-1.635429175382010
Jay and Flameback,LS1 9SD,53.800375964368900,-1.549705298989340
Chicken and Masked owl,WF3 3BH,53.735761975390600,-1.506645457877420
Triller and Puffleg,LS6 2EE,53.816150434081400,-1.564451405088610
Tattler and Buzzard,LS8 4DG,53.825491577031000,-1.515862145773640
Thrasher and Snipe,LS16 6HB,53.840968159853400,-1.595835123149080
Wader and White ibis,WF6 2ST,53.708930341167000,-1.419892771698800
New World blackbird and Condor,WF3 2NF,53.721274000000000,-1.545322000000000
Songlark and Old World warbler,LS11 7LJ,53.764737638746800,-1.561509000000000
Lemming and Myna,LS12 5BE,53.788337122482300,-1.621461078721660
Wallaby and Puffleg,LS27 8TU,53.744968546610700,-1.580577645254280
Parrotlet and Capuchin,LS16 6SZ,53.848872548311900,-1.610640121436720
Parrotbill and Rabbit,WF10 5ED,53.717076559114900,-1.362078563820460
Thicketbird and Kākāriki,LS13 2PD,53.818070661864500,-1.630504298827370
Francolin and Tahr,WF10 5LP,53.722413180260200,-1.365013644505500
Siskin and Pheasant,WF3 3TN,53.739138624151200,-1.493021917298400
Night heron and Triller,WF3 3DB,53.734997172014500,-1.524239118371420
Night heron and Bronzewing pigeon,WF10 2AP,53.746889530478900,-1.356850692172830
Black cockatoo and Hawk,LS9 9LE,53.793927000000000,-1.515967000000000
Guillemot and Macaw,LS16 7RU,53.857295704678200,-1.613876315503430
Eagle and Old World warbler,WF10 5LW,53.722666000000000,-1.365055000000000
Meadowlark and Herring gull,WF17 8BL,53.713276306700200,-1.653740498392770
Fox and Jerboa,LS23 6HX,53.895289000000000,-1.347788000000000
Pratincole and Thicketbird,LS26 8WR,53.757149438476800,-1.440159653596560
Marsh harrier and Bunting,LS88 8BJ,53.765303000000000,-1.501460000000000
Mouse and Piping shrike,LS7 3PW,53.827669073691300,-1.539309716222660
Guillemot and Scimitar babbler,WF10 4PW,53.712630156997900,-1.342630909975610
Old World quail and Guillemot,LS3 1LT,53.800795000000000,-1.565614849715870
Fox and Peafowl,LS14 6FH,53.816377498438900,-1.462989285600690
Duck and Boto,LS4 2LZ,53.812907000000000,-1.579505000000000
Black cockatoo and Argus,LS7 1NB,53.811755645477900,-1.542794872405420
Pitohui and Mink,LS13 1FE,53.826299000000000,-1.638154000000000
Marmoset and Tit-tyrant,WF17 5ED,53.715329000000000,-1.636539489610610
Guillemot and Civet,LS25 1JE,53.793820447754700,-1.381484759339130
Minke whale and Grosbeak,LS6 3DH,53.814060080117900,-1.578111630231520
Chickadee and Jackal,LS1 6BA,53.797994610690600,-1.540348365715720
Mamo and Rabbit,LS14 1HX,53.825645000000000,-1.483350000000000
Wallaby and Old World quail,LS15 0PF,53.796533000000000,-1.460920000000000
Diving bird and Parrotlet,LS15 0PS,53.797472734868000,-1.460346167574850
New World blackbird and Magpie,LS9 0LJ,53.800060455147100,-1.497404331852300
Triller and Hawaiian honeycreeper,WF13 4AZ,53.706825946659000,-1.654823550231330
Treepie and Tahr,LS28 6LB,53.806888987212200,-1.651952000000000
Argus and Fulmarine petrel,LS14 5DH,53.824837785715700,-1.451624113674520
Thrasher and Duck,LS28 9HQ,53.787764157934200,-1.651898478568920
Quetzal and Chicken,LS12 4LH,53.792725971838900,-1.592109042438010
Jackal and Tit-tyrant,WF17 7AF,53.702441103543600,-1.643014095731210
Parakeet and Songlark,LS7 2EQ,53.826041111836100,-1.548473188198560
Kangaroo and Night heron,LS10 4LP,53.741558756303300,-1.554730792531820
Prion and Logrunners,LS11 5PG,53.778873497568000,-1.544138519147570
Herring gull and Grouse,LS15 8FZ,53.808148204800000,-1.437582674400000
Kite and Booted eagles,LS10 4AG,53.752671249234400,-1.520581790848140
Kākāriki and Recurvebill,LS26 9HL,53.738154573555500,-1.405937162510310
Tree warbler and Dolphin,LS3 1BN,53.799856000000000,-1.562514000000000
Mole and Stilt,LS11 0BP,53.780975790860200,-1.563222047773300
Mockingbird and Puffleg,LS26 0RR,53.755845000000000,-1.487986087400000
Jerboa and Dorcopsis,WF10 5JZ,53.722660982757300,-1.360902931474580
Eagle and Booted eagles,WF1 2JZ,53.713069880700800,-1.505198755162680
Moluccan boobook and Armadillo,LS3 1NW,53.801066317980600,-1.561373654471570
Greenbul and Mole,LS15 9ET,53.790331890543400,-1.447550619889590
Stilt and Goose,LS8 4DS,53.820157716354400,-1.517108413565630
Egret and Mamo,LS2 9ET,53.807534852828500,-1.546105626503360
Eagle and Pitohui,LS25 2JF,53.789872109173300,-1.368913790508030
Scimitar babbler and Tit-tyrant,LS27 9JB,53.749523904370700,-1.601913000000000
Siskin and Dolphin,LS26 0SD,53.749755378678100,-1.510758016418700
Tree warbler and Old World quail,LS12 5TN,53.778433000000000,-1.621216000000000
Siskin and Hawaiian honeycreeper,WF17 6JL,53.702789000000000,-1.629984000000000
Black cockatoo and Dolphin,WF6 1PY,53.704102074497100,-1.404901834730430
Lemming and Wader,LS6 2PS,53.813745088053500,-1.553161561247800
Magpie and Lemming,LS23 6LY,53.877707000000000,-1.393877000000000
Solitaire and Crow,LS15 7QX,53.799892300572400,-1.462744344627310
Black cockatoo and Solitaire,LS6 2AY,53.822201910840000,-1.569994000000000
Wader and Treepie,LS2 9HX,53.806722740266900,-1.550032142740990
Prion and Thicketbird,LS7 2WW,53.811136000000000,-1.538064561521580
Stint and Civet,BD11 1HH,53.750946000000000,-1.656931946000000
Booted eagles and Flameback,LS14 6JD,53.822191813976500,-1.460773086009760
Chipmunk and Stint,LS7 2AQ,53.810642279351500,-1.540847000000000
Nukupuʻu and Greenbul,LS15 4HP,53.832273430049200,-1.392420798433610
Elephant and Jackal,LS17 9NS,53.859311018836100,-1.508645393387910
Peafowl and Black jay,LS10 3NS,53.752084920293800,-1.529126570798640
Bunting and Jay,LS26 9BR,53.726850255988000,-1.399291230645570
River dolphin and Minke whale,LS7 3QB,53.830795714972900,-1.539001940086590
Moluccan boobook and Buzzard,LS16 9AE,53.883169263521100,-1.615859163777530
Macaw and Duck,LS4 2TG,53.812985000000000,-1.594418000000000
Mole and Civet,LS27 8UH,53.745286848512600,-1.579073350745170
Condor and Hawaiian honeycreeper,LS11 7ED,53.771379027991700,-1.551714796966290
Tahr and Asiatic leopard,WF3 3SA,53.729441433006500,-1.495396956809620
Siskin and Parakeet,LS9 8RA,53.791735302159900,-1.516554311673210
Tree warbler and Myna,WF17 9QF,53.737908614509600,-1.655433252570790
Grouse and River dolphin,LS6 3AL,53.818057035098600,-1.577342431699970
Prion and Moluccan boobook,LS14 2JE,53.832096798595000,-1.452866445300940
Darwin's finches and Mamo,LS11 8BE,53.778147299162300,-1.556620033700280
Francolin and Warbler,LS5 3ER,53.820363128380800,-1.602534608215770
Dorcopsis and Argus,LS25 2LL,53.794603415773200,-1.371423000000000
Petrel and Triller,LS17 8RE,53.856136491444500,-1.519309444740910
Bunting and Bronzewing pigeon,LS2 7JB,53.798226000000000,-1.539389000000000
Parakeet and Tit-tyrant,LS10 2AL,53.775952000000000,-1.516679000000000
Cuscus and Ice seal,WF10 9AZ,53.716444775486200,-1.390317701984660
Warbler and Old World warbler,LS12 1PT,53.793940318303900,-1.581941558155210
Kestrel and Songlark,LS13 4QA,53.798370299820800,-1.648910956761590
Old World vulture and Towhee,LS14 9GT,53.827180000000000,-1.456779000000000
Recurvebill and Bronzewing pigeon,LS11 9LY,53.785090342570900,-1.560219776967040
Condor and Condor,WF17 8ES,53.717029000000000,-1.645783341981670
Stilt and Vulture,LS18 5ET,53.849747555812800,-1.655823373074830
Treepie and Ice seal,LS2 3AD,53.801189000000000,-1.548059250346340
Grouse and American sparrow,WF6 2QB,53.706932129731100,-1.428162000000000
Stint and Stilt,LS12 4UL,53.784162020349700,-1.600615230756600
Tit-tyrant and Ground sloth,LS17 6LS,53.834701841156700,-1.535722491569380
Mouse and Recurvebill,WF3 3BB,53.739574292544000,-1.509163023877480
Dorcopsis and Nukupuʻu,LS10 3PP,53.755454898145400,-1.528982735229500
Armadillo and Wader,LS6 3EW,53.820203841752800,-1.584687957271520
Puffleg and Minke whale,LS12 5LT,53.781365411800700,-1.600216843754810
Fish eagle and Solitaire,LS25 1JW,53.789318595151400,-1.383463497501900
Songlark and Towhee,LS10 3TF,53.751503458680800,-1.536761146557780
Kangaroo and Tattler,WF3 1UA,53.725978696215600,-1.568490207536900
Fox and Scimitar babbler,LS4 2QS,53.809558653744100,-1.588923730762250
Moluccan boobook and Coati,LS7 9EJ,53.811152000000000,-1.537961000000000
Grouse and Black cockatoo,LS26 8SZ,53.752437684028700,-1.449442936498660
Tahr and Civet,LS10 1RA,53.781366392081200,-1.526401210095450
Dolphin and Asiatic leopard,WF6 2FE,53.707696000000000,-1.406248000000000
Chickadee and Viscacha,WF3 1EX,53.715746754668900,-1.575080042851770
Stint and American sparrow,LS6 3PU,53.822156184979100,-1.580218000000000
Treepie and Moluccan boobook,LS6 1EU,53.812466845504200,-1.569850630939360
Old World quail and New World blackbird,LS26 0PQ,53.754883406254300,-1.486113719744630
Black cockatoo and Badger,LS17 8LZ,53.843837167518000,-1.467533000000000
Warbler and Old World vulture,LS27 8WH,53.748563518065200,-1.593552636570460
New World blackbird and Chicken,WF10 9BT,53.716444775486200,-1.390317701984660
Condor and Macaw,LS17 6QP,53.839246000000000,-1.523368000000000
Old World vulture and Francolin,LS12 1HU,53.791704380430100,-1.575149000000000
Coati and Booted eagles,WF6 2TH,53.707950000000000,-1.421391000000000
Flameback and Diving bird,LS18 4LS,53.830220218080200,-1.632722070049370
Rat and Marmoset,LS13 3QA,53.808353402048000,-1.635980585144410
Armadillo and Mouse,LS27 9QF,53.750764996373400,-1.609606148276280
Argus and Linsang,LS6 2QL,53.811345000000000,-1.550451737596520
Siskin and Moluccan boobook,WF10 5GR,53.717906054353300,-1.372173363635660
Eagle and Scimitar babbler,LS6 1JL,53.810388653424700,-1.571815751569500
Thicketbird and Argus,LS11 5DX,53.759383988339900,-1.560093857434970
B and Argus,WF10 5AU,53.715739566380100,-1.350779919029440
Petrel and Booted eagles,LS12 4TB,53.786968281951200,-1.593181776091290
Partridge and Triller,LS16 6DD,53.851592731911600,-1.615236080154200
Kākāriki and Goose,LS14 5QT,53.822499155300000,-1.442722586100000
Jackal and Chipmunk,LS9 9BN,53.798009776753800,-1.510105772005620
Masked owl and Crow,LS8 5PH,53.814831971452800,-1.518141635201030
Vulture and Logrunners,LS11 6AJ,53.782393875273800,-1.550504780515020
Grosbeak and Boto,LS4 2QD,53.809828472892800,-1.591609045068520
Mockingbird and Night heron,LS17 9DL,53.883402432468200,-1.441624103451470
Marmoset and White ibis,LS6 2RT,53.814030000000000,-1.547372000000000
Pitohui and Chicken,LS11 7ES,53.768821395846600,-1.560071120812250
Rabbit and Eagle,LS27 8GG,53.742719497155900,-1.587771638046060
Elephant and Ground sloth,LS27 8SR,53.747292430647000,-1.576869756549910
Capuchin and Warbler,LS13 1RE,53.822248000000000,-1.656808000000000
