name,postcode,lat,lon
Thrasher and Quetzal,AB42 2WA,57.496944490000000,-1.803697679000000
Boto and Darwin's finches,AB42 3HN,57.559701890000000,-1.839643944000000
Myna and Scimitar babbler,AB42 1UZ,57.509617000000000,-1.780664000000000
Black cockatoo and Greenbul,AB41 9GZ,57.370122220000000,-2.060171911000000
Petrel and Rabbit,AB42 5LD,57.519011980000000,-2.022639197000000
Thrasher and American sparrow,AB51 0PT,57.339102480000000,-2.325338375000000
Philippine hawk-owl and Parrotlet,AB42 0NQ,57.429059000000000,-1.845893000000000
Thicketbird and Francolin,AB42 5ER,57.523900480000000,-1.996445745000000
Crow and Shearwater,AB51 0FN,57.334038270000000,-2.324529505000000
Shearwater and Eagle,AB41 9AD,57.365263600000000,-2.074959469000000
Tattler and Grackle,AB53 8JA,57.508157170000000,-2.348588579000000
Piping shrike and Marmoset,AB41 1AT,57.366518000000000,-2.084027000000000
Gull and Peafowl,AB21 0RS,57.288224810000000,-2.188688973000000
Macaw and Chicken,AB53 6YL,57.519258940000000,-2.241333583000000
Dorcopsis and Lemming,AB42 2BT,57.504191810000000,-1.797017258000000
Asiatic leopard and Fulmarine petrel,AB42 5PP,57.512344280000000,-2.075512229000000
Civet and Towhee,AB53 6SX,57.516631830000000,-2.197279964000000
Boto and Hawaiian honeycreeper,AB41 7JH,57.458164300000000,-2.248163729000000
River dolphin and Gull,AB23 8ZL,57.230863560000000,-2.087886960000000
Triller and Thrasher,AB42 4PA,57.524249000000000,-2.165792790000000
Elephant and Masked owl,AB21 0PP,57.266744870000000,-2.189988265000000
Tattler and Zebra,AB42 4HD,57.547144490000000,-2.025463607000000
Marsh harrier and Old World warbler,AB42 2YY,57.491268060000000,-1.792785059000000
Vole and Black jay,AB51 3UD,57.276706560000000,-2.374142614000000
Pheasant and Kākāriki,AB42 1ZE,57.508123480000000,-1.812733325000000
Ground sloth and Nukupuʻu,AB41 9RY,57.367874050000000,-2.044656730000000
Zebra and Black cockatoo,AB23 8SD,57.248748230000000,-2.088244509000000
Armadillo and Thicketbird,AB23 8XS,57.246741220000000,-2.065156545000000
Minke whale and Chickadee,AB42 4LR,57.544244450000000,-2.050787280000000
Kangaroo and Parakeet,AB42 1PH,57.512181000000000,-1.783336000000000
Fulmarine petrel and Snipe,AB51 5EX,57.287163000000000,-2.416700000000000
Ibex and Pratincole,AB42 0ND,57.418830410000000,-1.848200508000000
Kākāriki and Badger,AB23 8NR,57.217507930000000,-2.099760000000000
Condor and Minke whale,AB42 1TQ,57.506894420000000,-1.780230235000000
Shearwater and Ground sloth,AB53 8JR,57.448330600000000,-2.397921598000000
Solitaire and Kestrel,AB41 8PX,57.392617610000000,-2.136837074000000
Dolphin and Pitohui,AB51 6AN,57.293634000000000,-2.369768000000000
Petrel and Old World warbler,AB42 4XX,57.514533080000000,-1.934836284000000
Old World quail and Badger,AB42 0RP,57.414778870000000,-1.863615393000000
Zebra and Myna,AB42 4QT,57.564287370000000,-2.170175763000000
Black cockatoo and Vole,AB53 8JT,57.449934380000000,-2.390624073000000
Badger and Triller,AB42 5NX,57.519315000000000,-2.100802000000000
Bronzewing pigeon and Tahr,AB53 5YU,57.543131940000000,-2.273365008000000
Chickadee and Fox,AB53 8PZ,57.429734710000000,-2.395621308000000
Guillemot and Cuscus,AB51 0PU,57.338576710000000,-2.323705722000000
Recurvebill and Tit-tyrant,AB42 2TR,57.492527190000000,-1.793745494000000
Tree warbler and Myna,AB42 3BA,57.469384960000000,-1.781188699000000
Logrunners and Black cockatoo,AB53 6TF,57.511395200000000,-2.191043000000000
Herring gull and Linsang,AB53 8QH,57.421781580000000,-2.376221513000000
Grackle and Grosbeak,AB42 0HH,57.414533800000000,-1.845804504000000
Egret and Kangaroo,AB41 8SU,57.353204210000000,-1.932279429000000
Badger and Solitaire,AB42 0PX,57.464546710000000,-1.836876313000000
Stilt and New World blackbird,AB42 1PU,57.505118960000000,-1.782009800000000
Elephant and Philippine hawk-owl,AB21 0RE,57.268099080000000,-2.202878252000000
Flameback and Hawaiian honeycreeper,AB41 8QD,57.418285780000000,-2.123581090000000
Parrotlet and Fulmarine petrel,AB53 8ET,57.503091620000000,-2.382464833000000
Songlark and Minke whale,AB41 8SN,57.375628440000000,-1.922560251000000
Pratincole and Parrotlet,AB21 0DB,57.236008000000000,-2.228102000000000
Jerboa and Capuchin,AB51 3JF,57.273187250000000,-2.370442091000000
Condor and Meadowlark,AB42 4JR,57.526503130000000,-2.023896205000000
Polecat and Logrunners,AB53 8ED,57.512320740000000,-2.407014053000000
Jay and Night heron,AB51 0XG,57.237671650000000,-2.350652693000000
Pheasant and Duck,AB53 6UZ,57.533572380000000,-2.234280311000000
Siskin and Herring gull,AB42 3LL,57.488976100000000,-1.856483815000000
Partridge and Maya,AB51 0YZ,57.235164000000000,-2.401950000000000
Snipe and Songlark,AB51 4FB,57.291322890000000,-2.402827567000000
Hawaiian honeycreeper and Bronzewing pigeon,AB23 8UL,57.262010000000000,-2.095670000000000
Argus and Petrel,AB42 1HJ,57.511636640000000,-1.790483269000000
Civet and Hawaiian honeycreeper,AB41 9TF,57.366662840000000,-2.062310829000000
Zebra and Kangaroo,AB23 8AB,57.249528360000000,-2.060272722000000
Buzzard and Kestrel,AB21 7AQ,57.215782410000000,-2.144724135000000
Hawk and Parrotlet,AB42 3NB,57.471890720000000,-1.780973670000000
Pratincole and Mole,AB42 1SD,57.505787250000000,-1.789415332000000
Perching duck and Chickadee,AB42 5TH,57.507076730000000,-2.046296202000000
Coati and Jackal,AB53 5UX,57.557888000000000,-2.312949000000000
Rat and Siskin,AB51 5RZ,57.237341312907800,-2.434278000000000
Dorcopsis and Macaw,AB42 3DU,57.524829520000000,-1.852369439000000
Jerboa and Moluccan boobook,AB41 6DS,57.317488630000000,-2.008683771000000
Dolphin and Dolphin,AB51 4JP,57.284964000000000,-2.396919000000000
Treepie and Tree warbler,AB42 0ST,57.400358330000000,-1.909928356000000
Condor and Linsang,AB42 4YG,57.475625000000000,-1.926351000000000
Thicketbird and Dorcopsis,AB42 1WZ,57.510587790000000,-1.814840384000000
Bunting and Moluccan boobook,AB21 0UA,57.263783990000000,-2.187685168000000
Parrotbill and Rabbit,AB51 3WQ,57.276386990000000,-2.381834476000000
Viscacha and Scimitar babbler,AB51 0EB,57.340510360000000,-2.395175925000000
Booted eagles and Triller,AB42 1DQ,57.504488000000000,-1.770733000000000
Eagle and Piping shrike,AB41 7GF,57.339465780000000,-2.186593009000000
Partridge and Parakeet,AB51 0UD,57.234363890000000,-2.338296630000000
Diving bird and Guillemot,AB42 3PT,57.498918918725600,-1.818954035104830
Marmoset and Kestrel,AB42 1TW,57.507181170000000,-1.795882539000000
Ice seal and Chicken,AB23 8XG,57.253653610000000,-2.055705083000000
Thicketbird and Rat,AB42 2AS,57.506811730000000,-1.800791033000000
Warbler and Kestrel,AB51 0SX,57.228237220000000,-2.348260900000000
Flameback and Elephant,AB41 8DS,57.390761500000000,-2.105455106000000
Darwin's finches and Pheasant,AB23 8SR,57.245333400000000,-2.060182996000000
Grosbeak and Herring gull,AB53 8PY,57.418309490000000,-2.346585079000000
Kite and Rabbit,AB42 5SH,57.497354260000000,-2.197976682000000
Civet and Black cockatoo,AB42 1UT,57.508598810000000,-1.778918231000000
Black cockatoo and Maya,AB21 0AR,57.260754571900000,-2.158941823400000
Guillemot and B,AB21 0QA,57.249391360000000,-2.211575087000000
Grouse and Songlark,AB42 1EH,57.504088870000000,-1.778511596000000
Scimitar babbler and Mink,AB42 4QN,57.534151230000000,-2.156323568000000
Fish eagle and Warbler,AB41 8RP,57.365177420000000,-1.985072433000000
Vulture and Zebra,AB51 0TL,57.240102930000000,-2.348538522000000
Treepie and Marsh harrier,AB41 7DZ,57.424357260000000,-2.236994982000000
Grosbeak and Peafowl,AB51 3WS,57.282962320000000,-2.372912317000000
Treepie and Tattler,AB51 0SP,57.232403100000000,-2.352275674000000
Piping shrike and Mouse,AB42 2XJ,57.502122050000000,-1.800282582000000
Peafowl and Tattler,AB53 8RN,57.452636000000000,-2.338611000000000
Fox and Ground sloth,AB42 3GF,57.505276664369400,-1.824463000000000
Lemming and Capuchin,AB23 8AL,57.257528982932400,-2.053672396630420
Jay and Philippine hawk-owl,AB53 5YF,57.552987000000000,-2.272470000000000
Viscacha and Asiatic leopard,AB41 9WQ,57.357423530000000,-2.086095898000000
Rabbit and Parakeet,AB51 6BN,57.299240000000000,-2.373763000000000
Towhee and Buzzard,AB42 0SP,57.416499460000000,-1.877143369000000
Vole and Badger,AB42 3NF,57.470824000000000,-1.777279000000000
Civet and Chickadee,AB42 3BX,57.548426090000000,-1.877251975000000
Philippine hawk-owl and Bunting,AB42 0WA,57.419173400000000,-1.849580928000000
Warbler and Viscacha,AB41 9AG,57.366019450000000,-2.072733326000000
White ibis and Vulture,AB41 8DG,57.400333000000000,-2.119643000000000
Elephant and B,AB42 1NP,57.514354860000000,-1.788397899000000
Old World warbler and Puffleg,AB41 7DB,57.475894000000000,-2.225237187000000
Parrotbill and Hawk,AB41 7GN,57.338765580000000,-2.180127282000000
Kite and Thicketbird,AB42 4HH,57.552069000000000,-1.990378000000000
Meadowlark and Pitohui,AB42 1JN,57.504629000000000,-1.774053000000000
Ice seal and Chipmunk,AB41 8UD,57.486102290000000,-2.094805604000000
Nukupuʻu and Bronzewing pigeon,AB53 6TB,57.513288940000000,-2.192871000000000
Triller and Prion,AB41 9FQ,57.359739520000000,-2.088328646000000
Meadowlark and Mole,AB51 0FT,57.234485650000000,-2.352809073000000
Vulture and Mamo,AB41 6TB,57.334320090000000,-2.208542266000000
Scimitar babbler and Argus,AB42 5BL,57.460283030000000,-1.970817155000000
Hawaiian honeycreeper and Ice seal,AB41 9GT,57.369233380000000,-2.059222768000000
Dolphin and Polecat,AB51 0DJ,57.336222200000000,-2.313469114000000
Pitohui and Treepie,AB41 6AN,57.317030000000000,-2.015690000000000
Herring gull and Old World vulture,AB51 0PL,57.342616640538900,-2.318857033442620
Francolin and River dolphin,AB51 3YQ,57.277996330000000,-2.384322313000000
Viscacha and Elephant,AB51 5SQ,57.282498851564000,-2.399148608507620
Macaw and Jackal,AB51 0XQ,57.226207000000000,-2.357831000000000
Elephant and Piping shrike,AB51 5QR,57.286636000000000,-2.404883000000000
Jerboa and Vulture,AB42 0PJ,57.425430210000000,-1.854018000000000
Armadillo and Towhee,AB23 8ZB,57.230997810000000,-2.100492305000000
Jerboa and Coati,AB42 2AG,57.505336810000000,-1.794073843000000
Stint and Flameback,AB42 1ZH,57.511595970000000,-1.810228642000000
Recurvebill and Grouse,AB41 9QW,57.360263250000000,-2.069713326000000
Philippine hawk-owl and Mamo,AB21 0HE,57.211967710000000,-2.241855500000000
Partridge and Marsh harrier,AB42 3FU,57.498997000000000,-1.810398000000000
Philippine hawk-owl and Nukupuʻu,AB41 6DN,57.319087760000000,-2.005180852000000
Chickadee and Fox,AB23 8ZW,57.246923410000000,-2.060086173000000
Viscacha and Old World quail,AB41 6AZ,57.303232910000000,-2.048245676000000
Nukupuʻu and Ground sloth,AB21 7PR,57.256957000000000,-2.181219894000000
Gull and Jackal,AB51 0FP,57.335289960000000,-2.312680462000000
Grosbeak and Magpie,AB41 9AW,57.370189500000000,-2.083814813000000
Puffleg and Skunk,AB51 4TJ,57.290066400000000,-2.391100974000000
Coati and Asiatic leopard,AB51 0EP,57.336944990000000,-2.322478717000000
Old World warbler and Booted eagles,AB42 5DJ,57.500480000000000,-2.028868000000000
Rat and Rat,AB51 3PW,57.284060310000000,-2.381200704000000
River dolphin and Songlark,AB51 5SZ,57.282419849910500,-2.398567207514440
Dolphin and Francolin,AB51 3YU,57.283307030000000,-2.383730784000000
New World blackbird and Bronzewing pigeon,AB42 5EL,57.523280730000000,-2.000303000000000
Bronzewing pigeon and Prion,AB42 5BH,57.474486680000000,-1.983244567000000
Maya and Grosbeak,AB51 4GP,57.291153730000000,-2.396703661000000
Black cockatoo and Towhee,AB41 8TJ,57.454795290000000,-2.144902137000000
Tree warbler and Armadillo,AB41 6AT,57.286935940000000,-2.053582444000000
Jackal and Asiatic leopard,AB51 0FQ,57.333909340000000,-2.325757519000000
Petrel and Jackal,AB53 8PT,57.404836000000000,-2.296964000000000
Scimitar babbler and Parakeet,AB41 9WG,57.359926380000000,-2.077408576000000
Ibex and Shearwater,AB42 1ZU,57.508054080000000,-1.796879019000000
Grackle and Armadillo,AB41 8UY,57.443594550000000,-2.071005200000000
Marsh harrier and Mockingbird,AB41 6RB,57.296481480000000,-2.122209176000000
Linsang and Rabbit,AB42 1BP,57.502950250000000,-1.770058000000000
Dorcopsis and Capuchin,AB51 3TQ,57.280104020000000,-2.370461849000000
Boto and Armadillo,AB41 8ND,57.341404000000000,-2.077469000000000
Siskin and Old World vulture,AB41 6QS,57.309771000000000,-2.097072000000000
Thicketbird and Armadillo,AB53 6XG,57.488091320000000,-2.258558389000000
Stint and Vole,AB41 8YG,57.436434000000000,-2.137351000000000
Pitohui and Mouse,AB41 8UN,57.483591900000000,-2.074435334000000
Flameback and Darwin's finches,AB42 0NA,57.416648420000000,-1.848858772000000
Viscacha and Cloud rat,AB41 7GQ,57.339628530000000,-2.179699583000000
Boto and Pheasant,AB42 1JR,57.506709480000000,-1.777210724000000
Kangaroo and Jerboa,AB53 6SY,57.514578050000000,-2.195215737000000
Asiatic leopard and Magpie,AB41 7TL,57.417116130000000,-2.183941759000000
Old World warbler and Wader,AB41 7LA,57.370767000000000,-2.226906000000000
Vulture and Gull,AB41 8YH,57.437842320000000,-2.131092878000000
Booted eagles and Chicken,AB21 0HS,57.225998720000000,-2.189828167000000
Tattler and Linsang,AB42 1PE,57.514045900000000,-1.786279819000000
Rat and Duck,AB42 5HR,57.502243140000000,-2.048943190000000
Myna and Kangaroo,AB41 8JY,57.396527000000000,-1.952083000000000
Booted eagles and New World blackbird,AB42 4UT,57.542764180000000,-1.905151534000000
New World blackbird and Argus,AB41 7PL,57.358515160000000,-2.169702943000000
Thrasher and Badger,AB51 4ZF,57.296055340000000,-2.397669069000000
Mamo and Ground sloth,AB23 8UA,57.229279540000000,-2.092106745000000
Jay and Coati,AB42 1ET,57.512611820000000,-1.799140420000000
Wallaby and Masked owl,AB42 2YF,57.499795730000000,-1.800378696000000
Asiatic leopard and Peafowl,AB41 8XY,57.450802000000000,-2.114976214000000
Pheasant and Parrotbill,AB41 6QT,57.304652280000000,-2.095183448000000
Gull and Viscacha,AB51 5SX,57.283261898087600,-2.399306159015840
Partridge and Argus,AB41 7QG,57.370403960000000,-2.228716000000000
Snipe and Nukupuʻu,AB51 3QZ,57.283590250000000,-2.378542000000000
Dorcopsis and Masked owl,AB42 3FS,57.511308000000000,-1.822281000000000
Viscacha and Grouse,AB41 9DQ,57.362943970000000,-2.078379094000000
Diving bird and Moluccan boobook,AB41 9RD,57.366937280000000,-2.051355445000000
White ibis and Logrunners,AB21 0QX,57.317019000000000,-2.224250000000000
Duck and Asiatic leopard,AB53 5YX,57.544549000000000,-2.282280000000000
Cloud rat and Goose,AB51 0EZ,57.332452000000000,-2.326576122000000
Snipe and Lemming,AB53 8QA,57.420823000000000,-2.369202000000000
New World blackbird and Night heron,AB42 1AJ,57.508777000000000,-1.778049000000000
Chickadee and Francolin,AB42 2DP,57.498913000000000,-1.810978000000000
Boto and Ibex,AB41 9GD,57.372384900000000,-2.091485081000000
Parakeet and Guillemot,AB21 7AT,57.222580650000000,-2.153809121000000
Chickadee and Goose,AB42 1QX,57.510591890000000,-1.794261253000000
Stilt and Hawaiian honeycreeper,AB42 3LU,57.493308000000000,-1.885077000000000
Scimitar babbler and Armadillo,AB53 8EJ,57.500856940000000,-2.421303060000000
Scimitar babbler and Stilt,AB42 4NG,57.520946410000000,-2.133378156000000
Ground sloth and Perching duck,AB42 1GA,57.515634000000000,-1.813512836000000
Kangaroo and Greenbul,AB41 8EE,57.413136590000000,-2.067250651000000
Mole and Grackle,AB42 1GX,57.507711650000000,-1.807661988000000
Crow and Condor,AB42 5AJ,57.459742450000000,-2.035052427000000
Rat and Pheasant,AB21 7EY,57.213773000000000,-2.189798000000000
Maya and Mockingbird,AB42 2AL,57.506534620000000,-1.796002963000000
Pitohui and Mamo,AB23 8YB,57.268001000000000,-2.051565000000000
Vulture and Asiatic leopard,AB51 4FR,57.293758880000000,-2.388037450000000
Puffleg and Dolphin,AB42 4EN,57.547612000000000,-2.022640337000000
Peafowl and Eagle,AB41 9GY,57.364416970000000,-2.078631602000000
Civet and Puffleg,AB42 1RZ,57.511556900000000,-1.802317446000000
Old World vulture and Meadowlark,AB21 7NX,57.234409000000000,-2.187884000000000
Badger and Ice seal,AB41 7BT,57.445927120000000,-2.225938000000000
Triller and Tit-tyrant,AB53 8PR,57.417082940000000,-2.306935099000000
Wader and Grackle,AB42 2YZ,57.501293060000000,-1.804358496000000
Black jay and Petrel,AB51 4SW,57.289367540000000,-2.393399583000000
Linsang and Philippine hawk-owl,AB42 2GH,57.503080540000000,-1.810222715000000
Argus and Badger,AB51 0GP,57.331592580000000,-2.318428994000000
Ice seal and Booted eagles,AB42 2UR,57.502636110000000,-1.813378794000000
Bronzewing pigeon and Pratincole,AB42 4US,57.538280040000000,-1.899651000000000
Marsh harrier and Tahr,AB42 4AD,57.548477960617000,-2.017729189096010
Mamo and Masked owl,AB53 8RH,57.440737960000000,-2.378248631000000
Mockingbird and Grackle,AB21 0LZ,57.269551620000000,-2.193186306000000
White ibis and Hawk,AB42 5RS,57.498624350000000,-2.149847901000000
Wader and Coati,AB51 5QQ,57.285927970000000,-2.401640568000000
Warbler and American sparrow,AB41 6DY,57.317812030000000,-2.008368397000000
Badger and Ibex,AB41 7LT,57.371900000000000,-2.175335000000000
Stilt and Buzzard,AB21 0RR,57.292385110000000,-2.210511352000000
Condor and Parrotlet,AB21 0UG,57.243947180000000,-2.184154000000000
Darwin's finches and Goose,AB21 0FL,57.269759597500000,-2.194298600100000
Scimitar babbler and Jay,AB42 4UP,57.542592270000000,-1.930994409000000
Egret and Condor,AB42 4XF,57.514142000000000,-1.943483362000000
Tahr and Ice seal,AB41 6DF,57.307610000000000,-2.048754000000000
Skunk and Flameback,AB42 3FF,57.556338630000000,-1.836650686000000
Old World warbler and Parakeet,AB42 4LS,57.549189140000000,-2.038547318000000
Zebra and Songlark,AB43 6RN,57.565919500000000,-2.014645174000000
Partridge and Rat,AB42 2AF,57.504005000000000,-1.801494000000000
Jackal and Grouse,AB42 3PE,57.464532500000000,-1.790685813000000
Recurvebill and Coati,AB42 0NU,57.447347550000000,-1.819059000000000
New World blackbird and Old World vulture,AB42 0QL,57.427479530000000,-1.913692002000000
Mink and Badger,AB41 8LJ,57.357065070000000,-2.021125524000000
Rat and Armadillo,AB51 4LH,57.292422740000000,-2.404399195000000
Parrotbill and Elephant,AB42 1LQ,57.513469420000000,-1.801839752000000
Maya and River dolphin,AB42 5WD,57.521995740000000,-2.010970952000000
Polecat and Elephant,AB42 3JU,57.500779900000000,-1.835029722000000
Maya and Puffleg,AB42 5FJ,57.520154760000000,-1.995394322000000
Jay and Grouse,AB42 1QU,57.510078700000000,-1.793529775000000
Cloud rat and Chipmunk,AB51 0GA,57.333316190000000,-2.318859164000000
Armadillo and Coati,AB42 3NH,57.471932000000000,-1.779073000000000
Chicken and Moluccan boobook,AB21 0RW,57.279940760000000,-2.232648593000000
Mole and Old World vulture,AB42 5PE,57.511699000000000,-2.086911000000000
Rat and Grackle,AB42 4NX,57.548383000000000,-1.889081000000000
Scimitar babbler and Mink,AB41 7DR,57.431486630000000,-2.185113121000000
Fox and Old World warbler,AB42 0NH,57.421067190000000,-1.848291165000000
Songlark and Fox,AB42 1QW,57.509964380000000,-1.812390109000000
Perching duck and Treepie,AB23 8ZA,57.232219280000000,-2.100744100000000
Vulture and Tahr,AB51 5UA,57.265882871629400,-2.368959741511510
Vulture and Eagle,AB42 4PL,57.534546220000000,-2.093011024000000
Tattler and Shearwater,AB51 0BF,57.333820710000000,-2.321803527000000
Darwin's finches and Lemming,AB41 9QG,57.359132740000000,-2.082376710000000
Capuchin and Prion,AB42 5GQ,57.524474020000000,-2.018418387000000
Kākāriki and Masked owl,AB51 3UL,57.276150000000000,-2.379792000000000
Parrotbill and Wader,AB51 4FG,57.290664340000000,-2.403699675000000
Hawaiian honeycreeper and Tit-tyrant,AB23 8SS,57.252806190000000,-2.061654000000000
Jerboa and Linsang,AB53 8NU,57.487757000000000,-2.303409854000000
Ice seal and Grackle,AB21 0LW,57.238763090000000,-2.276971536000000
Polecat and Egret,AB42 2AE,57.502701290000000,-1.808906433000000
Marmoset and Eagle,AB51 0LP,57.298020000000000,-2.274314024000000
Diving bird and Perching duck,AB42 5GE,57.523621980000000,-2.004309673000000
Darwin's finches and Dolphin,AB42 0NB,57.414237000000000,-1.845839000000000
Old World vulture and Bunting,AB41 9RX,57.360829100000000,-2.084441676000000
Chicken and Tattler,AB42 0LL,57.425792740000000,-1.916593344000000
Partridge and Capuchin,AB42 4GA,57.517658403892700,-1.947250902615060
Vole and Badger,AB51 0AA,57.335236150000000,-2.319789402000000
Booted eagles and Goose,AB41 7TY,57.426593150000000,-2.149819406000000
Coati and White ibis,AB23 8YS,57.258424790000000,-2.085333743000000
Bunting and Tit-tyrant,AB53 6XQ,57.494887980000000,-2.246678034000000
Kite and Fox,AB42 4UJ,57.541401840000000,-1.962500995000000
Linsang and Armadillo,AB51 4QN,57.289948490000000,-2.397188396000000
American sparrow and Fox,AB51 5PH,57.236567000000000,-2.423485000000000
Vulture and Ibex,AB23 8ZR,57.248101220000000,-2.057867526000000
Fox and Rat,AB42 1TY,57.509049030000000,-1.784540000000000
Marmoset and Stilt,AB53 6US,57.561947830000000,-2.197642251000000
Pheasant and Greenbul,AB42 5DW,57.489979910000000,-2.054081075000000
Flameback and Songlark,AB42 3DY,57.520425000000000,-1.874758000000000
Stint and Towhee,AB23 8SJ,57.246511280000000,-2.057948000000000
Piping shrike and Moluccan boobook,AB51 0HG,57.301204920000000,-2.348436206000000
Pheasant and Macaw,AB42 5HN,57.503331000000000,-2.046775000000000
Civet and Jackal,AB42 5EA,57.481732000000000,-2.032505000000000
Grouse and Armadillo,AB51 5SL,57.287960634166500,-2.410256383231760
Peafowl and Hawk,AB42 4HA,57.550210100000000,-2.002224458000000
Black cockatoo and Meadowlark,AB42 1LN,57.506262060000000,-1.778181370000000
Kangaroo and Parrotlet,AB42 0QU,57.419874960000000,-1.955681834000000
Ground sloth and Herring gull,AB51 0YX,57.236629400000000,-2.373256000000000
Black cockatoo and New World blackbird,AB41 7PH,57.346458240000000,-2.171242349000000
Myna and Armadillo,AB53 8ND,57.479955000000000,-2.298241000000000
Marmoset and Petrel,AB53 8EU,57.500806460000000,-2.371645127000000
Puffleg and Pitohui,AB21 0PH,57.264079000000000,-2.188631653000000
Coati and Elephant,AB51 0LX,57.277822190000000,-2.328545450000000
Gull and Solitaire,AB42 4UD,57.536102000000000,-1.939624612000000
Grouse and Dorcopsis,AB41 6EA,57.334314000000000,-2.208513000000000
Maya and Duck,AB42 2XS,57.501845140000000,-1.795628619000000
Hawaiian honeycreeper and Hawk,AB41 8JN,57.364288920000000,-1.995795113000000
Parrotlet and Chicken,AB42 3LZ,57.473260350000000,-1.783449802000000
Chipmunk and Partridge,AB23 8ZT,57.247247650000000,-2.058280458000000
Boto and Meadowlark,AB42 4HY,57.563278560000000,-1.983973298000000
Elephant and Guillemot,AB42 2UF,57.499378890000000,-1.803784741000000
Quetzal and Night heron,AB42 5PB,57.538182440000000,-2.106466108000000
Mockingbird and Goose,AB51 3UF,57.271616020000000,-2.370177573000000
Egret and Black cockatoo,AB42 5FD,57.521304400000000,-2.006579921000000
Jay and Thicketbird,AB53 6XH,57.482535510000000,-2.260787238000000
Fox and Songlark,AB42 1HP,57.512832990000000,-1.791494590000000
Kestrel and Parrotbill,AB41 8JX,57.396280050000000,-1.963463571000000
Old World quail and Chipmunk,AB21 0SL,57.262915270000000,-2.185923464000000
Vulture and Bronzewing pigeon,AB41 9QR,57.366003120000000,-2.051005000000000
Maya and Armadillo,AB23 8WA,57.249745220000000,-2.057555242000000
Siskin and Stilt,AB51 0DY,57.338004140000000,-2.373903000000000
Towhee and Piping shrike,AB51 3QU,57.282442000000000,-2.390224000000000
Grackle and Warbler,AB51 3WA,57.283342340000000,-2.389768971000000
Masked owl and New World blackbird,AB51 8TJ,57.399550000000000,-2.279066000000000
Greenbul and Polecat,AB41 7LX,57.386496750000000,-2.182207972000000
Old World warbler and Mouse,AB23 8NS,57.212187780000000,-2.100258943000000
Quetzal and Tree warbler,AB42 0PL,57.427380380000000,-1.862586134000000
Elephant and Old World warbler,AB51 4TY,57.290286260000000,-2.389726292000000
Ice seal and Francolin,AB42 4SB,57.518150570000000,-1.949119659000000
Vole and Booted eagles,AB23 8AD,57.251765060000000,-2.060326108000000
River dolphin and Maya,AB42 0RT,57.431133390000000,-1.898811350000000
Goose and Mockingbird,AB41 6HA,57.303701494980600,-2.051698593244830
Tree warbler and Herring gull,AB51 3SX,57.283342340000000,-2.389768971000000
Cuscus and Ibex,AB42 4LH,57.545084500000000,-2.076683000000000
Magpie and Badger,AB42 5BN,57.446262120000000,-1.974960132000000
Wader and Wader,AB41 6PL,57.310310610000000,-2.165264240000000
Nukupuʻu and Towhee,AB42 4UQ,57.532568000000000,-1.917436000000000
Mouse and White ibis,AB42 3GS,57.503737716083300,-1.821883835918510
Shearwater and Condor,AB41 9EZ,57.366061270000000,-2.061761194000000
Tit-tyrant and Puffleg,AB53 6YP,57.520839000000000,-2.276387000000000
Kite and Bronzewing pigeon,AB51 0QA,57.232367900000000,-2.348796794000000
Ice seal and Gull,AB42 0QF,57.416423760000000,-1.864608134000000
Philippine hawk-owl and Mole,AB51 6AD,57.290930490000000,-2.366688456000000
Vole and Thrasher,AB51 4GR,57.292037970000000,-2.398305950000000
New World blackbird and Piping shrike,AB42 1EZ,57.509797260000000,-1.814794312000000
Herring gull and Prion,AB53 6YD,57.504604000000000,-2.265567000000000
Partridge and Tahr,AB21 0WG,57.265638920000000,-2.184677176000000
Minke whale and B,AB51 0AZ,57.335946030000000,-2.319695909000000
Treepie and Pheasant,AB23 8YR,57.257184000000000,-2.071986986000000
Philippine hawk-owl and Stilt,AB42 4HP,57.559587710000000,-2.003812797000000
New World blackbird and Parrotlet,AB42 3DD,57.557708820000000,-1.840454855000000
Pratincole and White ibis,AB42 4HL,57.548590990000000,-2.023827281000000
Masked owl and American sparrow,AB51 5QW,57.284145970000000,-2.402699353000000
Perching duck and Logrunners,AB53 8QN,57.424999740000000,-2.390208439000000
Old World quail and Black cockatoo,AB42 5SE,57.508624000000000,-2.162423000000000
Old World quail and Fulmarine petrel,AB53 8LP,57.436660240000000,-2.372076859000000
Polecat and Meadowlark,AB42 1QB,57.505795540000000,-1.783574000000000
Stilt and Recurvebill,AB51 3NF,57.281754440000000,-2.391991383000000
Prion and Magpie,AB51 0SR,57.229284050000000,-2.352974697000000
Moluccan boobook and Zebra,AB53 8RP,57.453570690000000,-2.348301970000000
Tattler and Rat,AB42 0NX,57.453385020000000,-1.826144197000000
Goose and New World blackbird,AB51 0XS,57.228157980000000,-2.387431000000000
New World blackbird and Pratincole,AB21 0DA,57.221758000000000,-2.209136000000000
Egret and New World blackbird,AB51 6AJ,57.295108000000000,-2.369418000000000
Grackle and Petrel,AB42 5LX,57.503771880000000,-2.044322914000000
B and Jay,AB51 5PS,57.251894390000000,-2.409142367000000
Booted eagles and Bunting,AB41 8TF,57.467636160000000,-2.114062286000000
Pheasant and Mamo,AB42 4JQ,57.534315000000000,-2.034039000000000
Mouse and Pheasant,AB51 0UT,57.236090780000000,-2.347374144000000
Magpie and Thicketbird,AB42 5EE,57.525095000000000,-2.006730902000000
Peafowl and Herring gull,AB42 1NW,57.514019990000000,-1.786897569000000
Mockingbird and Ibex,AB41 9BB,57.365104950000000,-2.084318534000000
Peafowl and Flameback,AB41 8LH,57.359682400000000,-2.039926000000000
Elephant and Fish eagle,AB23 8WS,57.249512420000000,-2.087136000000000
Songlark and Logrunners,AB42 1DD,57.503338710000000,-1.775896279000000
Argus and Ground sloth,AB53 5TP,57.549234800000000,-2.331738378000000
Cloud rat and Fulmarine petrel,AB51 4ST,57.288382050000000,-2.380880442000000
Francolin and Gull,AB42 1EA,57.504490620000000,-1.782263854000000
Grackle and Kite,AB51 0BQ,57.342256280000000,-2.236498582000000
Tree warbler and Booted eagles,AB42 1JJ,57.506357960000000,-1.776528641000000
Ground sloth and Coati,AB41 6SX,57.331414360000000,-2.241079358000000
Thicketbird and Mouse,AB42 1QD,57.506798850000000,-1.782099927000000
Ground sloth and Moluccan boobook,AB42 4EY,57.542997000000000,-2.003143000000000
Buzzard and Ice seal,AB42 0QE,57.408664920000000,-1.875438578000000
Jay and Partridge,AB42 1QY,57.509521050000000,-1.793082296000000
Mamo and Boto,AB42 1QQ,57.508944670000000,-1.786776912000000
