name,postcode,lat,lon
Goose and Mole,S21 1DR,53.318008618796000,-1.323864525095920
Mink and Cuscus,S81 7RP,53.329342000000000,-1.131745000000000
Grouse and Magpie,S42 5UF,53.180709769223400,-1.393778159925120
Armadillo and Shearwater,S44 6BU,53.233400694862100,-1.319969276198280
Chipmunk and Myna,S41 8WX,53.251154956584300,-1.458894050881950
Parrotbill and Philippine hawk-owl,S11 8NX,53.371400776516000,-1.488017987817540
Scimitar babbler and Greenbul,S40 2EX,53.216743105914900,-1.427609080336960
Parrotlet and Fish eagle,S40 3NB,53.223754070158000,-1.476419231667110
Rabbit and Ibex,S11 8XZ,53.367130865352000,-1.496409885546870
Vulture and Guillemot,S8 7LF,53.322433236602400,-1.484205000000000
Kākāriki and B,S40 1UH,53.237153000000000,-1.428401000000000
Masked owl and Grosbeak,NG20 0JH,53.206049482540200,-1.163479288773570
Piping shrike and Black cockatoo,S10 3FG,53.373725155493600,-1.521824134102680
Parrotbill and Perching duck,S26 3SA,53.370190232857400,-1.314667361965190
Solitaire and Parrotlet,S20 1AD,53.351941151765600,-1.344765877675250
Gull and Marsh harrier,S43 4HF,53.287843991505500,-1.291684248844530
Elephant and Gull,S8 8HG,53.329061994219900,-1.473134424958920
Lemming and Darwin's finches,S1 4QL,53.377660395091700,-1.470265252703920
Grosbeak and Ice seal,S41 0AG,53.222531697784100,-1.410936619434690
Duck and Thicketbird,S20 4SL,53.320291856235400,-1.343193934292690
Eagle and Viscacha,S20 8LJ,53.329263078416700,-1.351479698500670
Meadowlark and Towhee,S18 9BS,53.300026088342000,-1.452695028454180
Recurvebill and Snipe,S13 9AX,53.372036484804400,-1.386391804842450
Petrel and Civet,S42 5SE,53.187428683348000,-1.363527921530450
Marsh harrier and Warbler,S44 5LP,53.187259119621200,-1.284497583665620
Hawaiian honeycreeper and Rat,S43 3JT,53.263961000000000,-1.345077000000000
Old World vulture and Linsang,NG19 7SJ,53.170244147306600,-1.241128326785520
Puffleg and Coati,S43 3EY,53.252936560879800,-1.364489947945470
Old World vulture and Parakeet,S2 2JN,53.361773603673900,-1.439898343447970
Shearwater and Darwin's finches,S18 1PA,53.308669721383300,-1.480033851190070
Myna and Solitaire,S45 0AG,53.169019000000000,-1.482022000000000
Herring gull and Chicken,NG20 0SR,53.213755097226200,-1.162475667095140
Jay and Darwin's finches,S42 5AY,53.200408297919500,-1.399817724688370
Masked owl and Mockingbird,S80 3PF,53.305142350263400,-1.145381958481380
Boto and Recurvebill,S80 3FU,53.297606000000000,-1.156935000000000
Prion and Warbler,S8 8QQ,53.340974307691500,-1.475676109169750
Ice seal and Diving bird,S12 3XR,53.329904360332000,-1.396636130674020
Pitohui and Linsang,S18 9DS,53.300045000000000,-1.452694000000000
Guillemot and Black cockatoo,S42 6PT,53.203851300255500,-1.427271766554410
Boto and American sparrow,S42 5AD,53.199252000000000,-1.400343000000000
Old World vulture and Argus,S26 2AA,53.364871437156300,-1.301152623665250
Viscacha and Gull,S80 1QG,53.309773962195800,-1.123392069777060
B and Jay,S13 9DF,53.375468811533300,-1.388071000000000
Puffleg and Mouse,S26 6LJ,53.342041136514900,-1.255280191755260
Solitaire and New World blackbird,S80 1BN,53.294808927885000,-1.126068926403530
B and Hawaiian honeycreeper,S11 9FH,53.358491180092200,-1.504640376067900
Elephant and Cloud rat,S2 1GP,53.363763538989800,-1.433004830281820
Vulture and Ground sloth,S8 9FE,53.354980941305300,-1.478223670416980
Puffleg and Flameback,S44 5AG,53.234572941186600,-1.388717989904890
Nukupuʻu and Siskin,S42 5XD,53.173118000000000,-1.387362000000000
Pheasant and Chicken,S25 2LQ,53.365189716577700,-1.213580119400100
New World blackbird and Marsh harrier,S40 4UE,53.246199187206000,-1.472294040766460
Snipe and Mouse,S9 4EJ,53.377180543469100,-1.411902272658470
Stilt and Marsh harrier,S2 3EG,53.361595140059400,-1.465686022868200
Darwin's finches and Ibex,S12 3GB,53.341024000000000,-1.412715000000000
B and Wallaby,S3 7SD,53.378510172191200,-1.479544711013130
Perching duck and Philippine hawk-owl,S20 3FF,53.332853000000000,-1.340388000000000
Masked owl and Perching duck,S40 4JZ,53.247399816895200,-1.451508157962270
Mockingbird and Bunting,S43 4EE,53.271087410773100,-1.260382072223820
B and Black cockatoo,S13 8FL,53.366116143893300,-1.402992672696400
Scimitar babbler and Duck,S40 2RX,53.226886281222400,-1.430245048221390
Pheasant and Peafowl,S3 7RZ,53.379877131701000,-1.481438000000000
Philippine hawk-owl and Cloud rat,NG20 9BA,53.211310285466700,-1.218091903129150
New World blackbird and Night heron,S1 2JH,53.378900034142700,-1.470084518794010
Stint and Booted eagles,S43 3QL,53.262020649692800,-1.365479707831200
Grosbeak and Quetzal,S41 0PY,53.222377710632100,-1.416180917773650
Thrasher and Hawk,S13 9XA,53.363458568023600,-1.355183410158300
Fish eagle and Triller,S2 3GZ,53.366377913804000,-1.461854160958670
Ibex and Parrotbill,NG20 8LE,53.208717756358500,-1.218902712194840
Masked owl and Coati,S44 5TY,53.239950672616200,-1.385674604124700
Chickadee and Minke whale,NG20 8LZ,53.202978262047900,-1.222227000000000
Wader and Mockingbird,S40 3HR,53.221559643497300,-1.448258599780420
Chicken and Kestrel,S13 7TZ,53.362325363421400,-1.365133194108660
Elephant and Chickadee,S44 6JQ,53.224144480975600,-1.306141000000000
Guillemot and River dolphin,S7 2QQ,53.341725751569600,-1.502131097963550
Logrunners and Scimitar babbler,S43 1JS,53.258926701168300,-1.401667490806220
Warbler and American sparrow,S20 9EU,53.332424482700000,-1.338938404400000
Minke whale and Recurvebill,S18 7AB,53.261076000000000,-1.525520607400000
Logrunners and Diving bird,S8 0UP,53.353860245110500,-1.485103172501380
Magpie and Warbler,S12 2NP,53.350541622789800,-1.425593822334730
Piping shrike and Chickadee,S13 8BN,53.373103627100000,-1.399393067400000
Zebra and Old World vulture,S1 2HJ,53.379188856803800,-1.470351521823150
Recurvebill and Booted eagles,S20 3FJ,53.333883820262000,-1.340086999825600
Badger and Logrunners,S43 1HY,53.263229483228900,-1.388684390109450
Mouse and Grouse,S80 1RY,53.307095527935800,-1.128339390117890
Tahr and Cuscus,S42 7LZ,53.221084956761500,-1.464410111542550
Mole and Scimitar babbler,S80 3GA,53.301983000000000,-1.133325850374740
Dolphin and Perching duck,S12 4WL,53.345147585953800,-1.396285859051470
Cuscus and Argus,S13 7SB,53.360155016151400,-1.357441000000000
Shearwater and Wallaby,S80 1SY,53.307393320891100,-1.127267780854460
Darwin's finches and Cuscus,S10 3DE,53.375032591949400,-1.505170059093910
Fish eagle and Booted eagles,S7 2ET,53.354730939852700,-1.501769301661340
Egret and Songlark,S40 4DD,53.239152718975500,-1.462416648673440
Prion and Treepie,S13 7TE,53.362639317040100,-1.359959289600360
Shearwater and River dolphin,S41 9AD,53.259125501061000,-1.427523347201480
American sparrow and Skunk,S81 7QY,53.333368329507100,-1.131768440281420
Petrel and Treepie,S81 8LU,53.321155807504300,-1.169759000000000
Fox and Rabbit,S43 4TP,53.289040158943400,-1.299405028859740
Capuchin and Badger,S2 1FF,53.371791000000000,-1.417928000000000
Kākāriki and Cuscus,NG19 7QW,53.173002154680000,-1.249382820896870
Hawaiian honeycreeper and Dorcopsis,S3 7UD,53.374376000000000,-1.481532119809680
New World blackbird and Flameback,S12 4FQ,53.348147154638200,-1.378247454254760
Greenbul and Old World vulture,S44 6SL,53.233214999198600,-1.300301452167080
Diving bird and Parakeet,S41 9HF,53.267918525229200,-1.433568315692150
Chipmunk and Hawaiian honeycreeper,S44 9AS,53.229056115615200,-1.293193760749990
Buzzard and Partridge,S10 3DZ,53.369144875733700,-1.520567872758430
Duck and Dorcopsis,S26 6SP,53.343507820002100,-1.258408892424450
Kite and Chipmunk,S10 2BU,53.375505177776600,-1.487217226542970
Marsh harrier and River dolphin,S43 2LS,53.264019480057900,-1.383245936245020
Old World vulture and Jackal,S13 9QZ,53.368593568857500,-1.369097859418890
White ibis and Puffleg,S7 1SE,53.360263547940900,-1.492178369605360
Minke whale and Bronzewing pigeon,NG20 0FP,53.206167186233100,-1.157218595049480
Shearwater and American sparrow,NG20 8RU,53.193132340923200,-1.210968680029990
Meadowlark and Tree warbler,S12 3LR,53.341099099116500,-1.434101394295420
Buzzard and Stint,S12 2NQ,53.346928156104500,-1.425597306241840
Kākāriki and Fulmarine petrel,S43 1QN,53.244807417026100,-1.391464419795610
Cloud rat and Ice seal,S40 3PS,53.232748885052900,-1.477762731656640
Tree warbler and Mouse,NG19 8GA,53.195712278700000,-1.182526083800000
Fox and Gull,S41 8AY,53.250948146609000,-1.441331162286370
Solitaire and Piping shrike,S43 1DG,53.257319891052800,-1.389683000164250
Perching duck and Hawaiian honeycreeper,S40 9NX,53.235358000000000,-1.434581000000000
Guillemot and Armadillo,S81 9JS,53.365318048375000,-1.123575126614290
Greenbul and Buzzard,S44 6HN,53.224593107801900,-1.283411334505180
American sparrow and Mole,S43 4RH,53.280323080042300,-1.272731058485770
Hawaiian honeycreeper and Civet,NG20 8EE,53.199047920519900,-1.224781917782820
Night heron and Duck,S41 7UZ,53.243673372900000,-1.419352983900000
Old World quail and Asiatic leopard,S44 6XD,53.239685659749900,-1.267141644496350
Mamo and Partridge,S2 3QY,53.369633981847400,-1.454403726895710
Bunting and Logrunners,S80 4AL,53.260455265800000,-1.211094866200000
Francolin and Argus,S43 2DQ,53.278468086645200,-1.406973721155290
Lemming and Macaw,S20 2QB,53.338139401069700,-1.335921347152260
Jackal and Parakeet,NG19 8TH,53.183672847837500,-1.253775668509050
Maya and Kite,S26 4TF,53.366495354321200,-1.324044155073680
Goose and Eagle,S42 6TP,53.204272622909900,-1.440276252460440
Vulture and Logrunners,S13 7JT,53.356083329358100,-1.371205692221510
Grouse and Capuchin,S20 7LA,53.338989000000000,-1.356303000000000
Cloud rat and Tahr,S8 7LN,53.321151514241800,-1.481263337807370
Kite and Fox,S26 3RX,53.370272938004000,-1.321279052275610
Nukupuʻu and Diving bird,S40 4QH,53.244264822233000,-1.461843116391540
Petrel and Masked owl,S81 7EF,53.322437439263400,-1.129257919317800
Tattler and Zebra,S7 1GH,53.361546664163200,-1.481193863913950
Ibex and Jackal,S21 1EU,53.316394420566500,-1.316639883765280
Buzzard and Peafowl,S10 5NW,53.377836211825700,-1.531714320243050
Meadowlark and Coati,S1 2NS,53.377478593810000,-1.467952000000000
Dolphin and Goose,S10 5RP,53.375425226643000,-1.528914879553010
Armadillo and Gull,S18 2GF,53.305408285576700,-1.474220852415120
Siskin and Old World vulture,S1 4HJ,53.379939000000000,-1.473018000000000
Macaw and Kangaroo,S2 4LN,53.372621000000000,-1.476971000000000
Grackle and Perching duck,S10 3AR,53.372455822666700,-1.505891297281590
Asiatic leopard and Shearwater,S44 5RQ,53.192724086504900,-1.345428800994460
Mockingbird and Kākāriki,S8 8BG,53.336110893378700,-1.438026884490570
Macaw and Logrunners,S40 2TN,53.222146705520300,-1.427866576758130
Mole and Chickadee,NG20 0TF,53.215174605885300,-1.155874000000000
Crow and Snipe,S20 6SZ,53.341449816949000,-1.376392316182800
Ground sloth and Hawaiian honeycreeper,S10 5DR,53.379116076529600,-1.516788006280790
Magpie and Booted eagles,S40 1LU,53.236102703369400,-1.434602486460700
Elephant and Myna,S13 9BQ,53.371352231859200,-1.386176185670030
Jay and Warbler,S21 1JS,53.324733466608100,-1.324073543698520
Grosbeak and Warbler,S20 1ER,53.341040652708300,-1.338775013646920
Linsang and Prion,S43 3YF,53.274606000000000,-1.348723000000000
Skunk and Marmoset,S42 6FS,53.181703000000000,-1.415729000000000
Quetzal and Duck,S40 2RT,53.225767806843000,-1.433210719765960
Wallaby and Nukupuʻu,S42 5UL,53.185534462686600,-1.364230000000000
Stilt and Lemming,S41 7SB,53.237027748157300,-1.425031291076400
Linsang and Rabbit,NG19 8JW,53.167868477399600,-1.184939855428250
Darwin's finches and Mink,S41 7JL,53.253138000000000,-1.419707285800000
Boto and Jackal,S21 5RL,53.305726000000000,-1.396782000000000
Warbler and Marmoset,S13 7BB,53.355969979630300,-1.392722440268300
Peafowl and Goose,S20 6SB,53.339773621294100,-1.384226538269100
Chipmunk and Fish eagle,S45 9HA,53.167080000000000,-1.393043000000000
Petrel and Mouse,S44 5QG,53.188939000000000,-1.276705045600000
Grackle and Condor,S80 4QX,53.286570026797600,-1.211813948907800
Wader and Polecat,S44 6HJ,53.224610534843600,-1.286316884755170
New World blackbird and Linsang,S20 5FB,53.326045000000000,-1.362729000000000
Fulmarine petrel and Nukupuʻu,S41 7AQ,53.248077301739900,-1.444455785208010
Lemming and Diving bird,S26 3XY,53.374206875485500,-1.316000789771930
Wallaby and Polecat,S8 0ZW,53.364436158283900,-1.473915572735790
Triller and Duck,S25 5AG,53.349087624900300,-1.224106533677580
Viscacha and Songlark,S41 8XH,53.253745304364100,-1.465216544425630
Duck and Old World warbler,S42 5DU,53.202750510762800,-1.374574103415350
Linsang and Puffleg,S21 1FD,53.316219896210300,-1.314421103003850
Pitohui and Hawk,NG20 8BD,53.200550588431600,-1.219500261854780
Mouse and Kite,S45 9RA,53.170189190524400,-1.427630133611550
Bronzewing pigeon and Francolin,S17 4JG,53.318775546767900,-1.521447478487790
Hawk and Greenbul,S2 4AU,53.373710100526400,-1.469429000000000
Jerboa and Maya,S17 3NT,53.323315498806100,-1.526110771196100
Towhee and Parakeet,S21 1FF,53.327115985329500,-1.311573939859770
Parrotbill and Philippine hawk-owl,S11 9SB,53.351940036507500,-1.522698802061730
Elephant and Puffleg,NG20 8EU,53.198737000000000,-1.225252000000000
Mole and Mouse,S25 2QX,53.378704835765300,-1.210234493553340
Partridge and Macaw,S21 1HZ,53.318171681329700,-1.327269506297840
Crow and Vulture,S13 8FA,53.366347558533800,-1.407948721784960
Boto and Towhee,S17 4DJ,53.318839692508100,-1.528532119019110
White ibis and Shearwater,S43 3XB,53.266805041904800,-1.355843222976180
Tree warbler and Diving bird,S43 3AG,53.273129623250700,-1.327496728858750
Fulmarine petrel and Rat,S40 1SF,53.236191000000000,-1.424623000000000
Warbler and Badger,S11 7QA,53.354461885796000,-1.528484879973510
Capuchin and Grosbeak,S41 9QW,53.272173000000000,-1.426389000000000
Bunting and Mole,S12 2BP,53.356763049420000,-1.412904448552070
Petrel and Logrunners,S26 2BP,53.361069848157400,-1.310546169915430
Nukupuʻu and Partridge,S40 3PZ,53.233369000000000,-1.467266281313880
Argus and Maya,NG20 9DR,53.224026757227200,-1.210805529125400
Guillemot and Mink,S11 9PL,53.355415096960800,-1.512760000000000
Thrasher and Guillemot,S18 9AD,53.300026088342000,-1.452695028454180
Chicken and Darwin's finches,S80 3JJ,53.321970856552700,-1.214900143353120
Shearwater and Elephant,S14 1BR,53.338633544765000,-1.443099979242640
Parrotbill and Rat,S11 8QD,53.368465675666200,-1.495342135569790
Grosbeak and Guillemot,S13 9DD,53.372737765807100,-1.381196243675450
Viscacha and Badger,S40 2TD,53.218562978895200,-1.432227493630970
Warbler and Cloud rat,S40 3EX,53.222605645812000,-1.452873280762180
Kite and Rat,S80 4JD,53.262836625830300,-1.216746000000000
Booted eagles and Polecat,S41 0DZ,53.233793383624400,-1.414287816977510
Maya and Skunk,S13 7DA,53.356349499971900,-1.375679118215730
Old World vulture and Solitaire,S40 2RH,53.227857048791600,-1.447428712786050
Zebra and Scimitar babbler,S8 0HP,53.343806035120200,-1.488168190765470
Masked owl and Skunk,S8 7ED,53.330059329304900,-1.493813249027690
Partridge and American sparrow,S41 7DD,53.247197453618600,-1.438922237413770
B and Skunk,S43 3AN,53.275400913922200,-1.326981213160210
Jay and Ground sloth,S11 8AL,53.367710985298400,-1.478684387533230
Black jay and Kestrel,S41 8BN,53.260154089744000,-1.457191499572020
Peafowl and Boto,S1 4GP,53.377528612026400,-1.477076390348610
Jay and Peafowl,S13 9BB,53.373241409463700,-1.381249069302450
Fulmarine petrel and Marmoset,S41 9EW,53.275157806696900,-1.439965975544940
Asiatic leopard and Parrotbill,S2 5EH,53.379089052508400,-1.440573222497170
Black cockatoo and Hawaiian honeycreeper,NG20 9RS,53.209959701610700,-1.213654375084810
Kestrel and Piping shrike,S8 0RT,53.354140147635700,-1.481238689834530
Maya and New World blackbird,S18 8PL,53.301654991425300,-1.487546668288300
Partridge and Guillemot,S20 5PP,53.330124076327900,-1.376422289052590
B and River dolphin,S43 4SB,53.274696261871300,-1.249552604670730
Snipe and Cuscus,S42 7JR,53.241227100103000,-1.520993876280200
Towhee and Thicketbird,S42 7AE,53.258162479385600,-1.476164233758480
Peafowl and Bunting,S45 9RH,53.168257152933400,-1.418471117323940
Meadowlark and Condor,S80 1HB,53.300748000000000,-1.124299908730160
Dorcopsis and Logrunners,NG19 7QE,53.173371469340200,-1.250932294342640
Egret and Thicketbird,S41 8UB,53.261389362828000,-1.436682789551130
Macaw and Maya,S2 3AT,53.357654613988400,-1.462910581832590
Wader and Masked owl,S11 8JE,53.372323861478200,-1.485286462968470
Diving bird and Peafowl,S17 4HR,53.319066602041400,-1.524551590777820
Kestrel and Viscacha,S43 1AQ,53.254915470584600,-1.404826172987880
Mouse and Condor,S44 6NA,53.222416964961700,-1.277321726031200
Asiatic leopard and Siskin,S44 5EN,53.247040061988500,-1.339714952318070
Thicketbird and Vole,S13 9XQ,53.368762473790400,-1.358620142630980
Kestrel and Mole,S2 1PN,53.370865126684600,-1.427454793220160
Scimitar babbler and Goose,S2 3PF,53.362948999063400,-1.460920596815350
Scimitar babbler and Ibex,S40 2JJ,53.215334163316200,-1.435639587233950
Parrotlet and Marsh harrier,S25 2NQ,53.375277524744000,-1.209846936203370
Duck and Petrel,S10 5DE,53.377371824783000,-1.510058401670100
Mamo and Asiatic leopard,S80 3QZ,53.303273337886500,-1.145479290788500
Mamo and Jerboa,S81 9HL,53.358308960492000,-1.128797543488880
American sparrow and Flameback,S8 7TE,53.329316720646300,-1.479978155638140
Parakeet and Tattler,NG21 9GY,53.167962000000000,-1.123216000000000
Treepie and Black jay,S43 4TJ,53.301612073631700,-1.282168127948650
Mamo and Boto,S43 2AQ,53.273823502060200,-1.405703361105100
Solitaire and Magpie,S26 2AW,53.364656544963000,-1.305919894683010
Argus and Gull,NG20 0EF,53.195672505891800,-1.162977728043640
Logrunners and Badger,S20 1AS,53.350378944418200,-1.346742757014390
Jay and Night heron,S44 5BQ,53.235788126932600,-1.389045280517380
Argus and Old World warbler,S2 2NB,53.366348306749500,-1.439778260902810
Flameback and Prion,S41 7AB,53.246425371814800,-1.442963580158500
Stint and Kestrel,NG19 9DT,53.168265958735800,-1.178679449784360
Mink and Siskin,S40 3DY,53.225771195915100,-1.461086286587240
Fish eagle and Goose,S13 8QA,53.361992280307500,-1.390923821518810
Egret and Songlark,S26 3XE,53.370435928903800,-1.319908765180110
Moluccan boobook and Dolphin,S41 8NN,53.262599358950800,-1.434043347406600
Herring gull and Crow,S2 1UN,53.376739589099000,-1.434125307561020
Nukupuʻu and B,S26 2BN,53.358699124888100,-1.312507686506080
Songlark and Viscacha,S2 2AA,53.358678526029700,-1.448924098152580
Parakeet and Buzzard,NG20 9RE,53.218875226989600,-1.223001307692570
Mink and Dorcopsis,S11 8BR,53.371348000000000,-1.483945000000000
Marmoset and Warbler,S43 1LH,53.258652129943700,-1.404279642483650
Tree warbler and Maya,S18 7WD,53.289398573151400,-1.532381360046040
Grouse and Treepie,S40 4EB,53.241761387442700,-1.443233895273460
Chicken and Rat,S43 1AZ,53.255556752110200,-1.409059238403820
Treepie and Thicketbird,S8 7RT,53.330056527272700,-1.478542708286400
Puffleg and Mouse,S45 8AL,53.173412110914100,-1.363032141459120
Wallaby and Argus,NG19 8HB,53.171057265965300,-1.195171923403140
Bunting and Bunting,S8 8LY,53.341377000000000,-1.468867000000000
Herring gull and Kākāriki,S12 4XL,53.346974787188300,-1.405738510423570
Francolin and Dolphin,S42 6EG,53.188691710470100,-1.411654701318140
Solitaire and Goose,S17 4QR,53.319458675636600,-1.499522937694150
Siskin and Civet,S42 7PD,53.243916383201000,-1.478510977060480
Old World warbler and Shearwater,S26 7ZA,53.323561000000000,-1.261983000000000
White ibis and Guillemot,S18 1RD,53.295625472139000,-1.475586202995290
Civet and Parakeet,S41 9PT,53.270761285216300,-1.420935320125270
Kestrel and Macaw,S18 8PS,53.298711502799500,-1.490643000000000
Argus and Perching duck,S26 5LX,53.342496354860600,-1.297763427845020
Maya and Wallaby,S81 8RS,53.344875955709800,-1.168636165955390
Partridge and Stint,S41 0TR,53.225814854613900,-1.416868155959840
Vulture and Greenbul,S11 8NT,53.369893328430200,-1.490741330522970
Fox and Boto,S42 6GB,53.206810000000000,-1.417799000000000
Thrasher and Greenbul,S14 1TG,53.344967606875900,-1.438616454855750
Egret and Tree warbler,S40 2AR,53.234258886350700,-1.443930469115970
B and Elephant,S43 3RH,53.258458460430300,-1.366686661579660
Booted eagles and Francolin,S80 3NJ,53.272918000000000,-1.158051000000000
Armadillo and Meadowlark,S42 6AB,53.178862000000000,-1.438303000000000
Dorcopsis and Scimitar babbler,S40 2PH,53.233152000000000,-1.447346000000000
Grackle and Nukupuʻu,S81 9NJ,53.355718453328400,-1.128564889538720
Buzzard and Viscacha,S44 5BE,53.235197354372800,-1.389533117811090
Linsang and Wallaby,S18 1NQ,53.301678989512400,-1.474461706567720
Quetzal and Cloud rat,S8 8JQ,53.336043092044900,-1.462341012562500
Flameback and Dorcopsis,S10 5GH,53.379251173874900,-1.514636816771730
Ground sloth and Triller,NG20 8RP,53.198274994453300,-1.213823257352190
Old World vulture and Tattler,S41 8AQ,53.253566002699000,-1.453304000000000
Quetzal and Tattler,S43 4PB,53.277645249408000,-1.262623453252570
Rabbit and Elephant,S40 4HZ,53.247128125251700,-1.454988449501560
Chipmunk and Booted eagles,S10 5DN,53.376407247975800,-1.511708000000000
Marsh harrier and Diving bird,S10 2GW,53.379877131701000,-1.481572000000000
Diving bird and Grouse,S43 1LJ,53.258674711161900,-1.407472000000000
Pitohui and Capuchin,S43 1HW,53.259464418759900,-1.392455735455280
Polecat and Elephant,S20 6RS,53.341816768359800,-1.386495103181810
Towhee and Buzzard,S12 2AE,53.359526251143900,-1.422619000000000
Partridge and Cuscus,S13 8RJ,53.361966885962200,-1.392997854144650
Perching duck and Greenbul,S81 7NR,53.327662180185300,-1.134496835921670
Lemming and Argus,S11 8TN,53.361453374582400,-1.508001992953920
Cloud rat and Magpie,S42 6DA,53.181804756632900,-1.400556178328850
Hawaiian honeycreeper and Masked owl,S41 7AU,53.249333609100200,-1.442071563198660
B and Rabbit,S3 7XB,53.377004809650600,-1.482704706863290
Ground sloth and Dolphin,S80 4UX,53.283433283895800,-1.187752922975890
Kestrel and Philippine hawk-owl,S17 4FN,53.310768312462700,-1.533243624418720
Vulture and Marmoset,S12 2FW,53.356152671491200,-1.420440124753790
Night heron and Songlark,S8 8LS,53.340805000000000,-1.467597000000000
Chickadee and Elephant,S43 4DF,53.270347813483600,-1.264338403280700
Perching duck and Night heron,S26 5RS,53.344071809773200,-1.280058546502620
Argus and Dolphin,S8 9SD,53.357642037332400,-1.464112741782470
Logrunners and Elephant,S26 2FT,53.361922896987800,-1.307286647787620
Maya and Chicken,S7 1GX,53.358589660681800,-1.483333307779140
Rat and Skunk,S43 4XA,53.282501000000000,-1.289343000000000
Parakeet and Badger,S8 0RX,53.346704853091500,-1.478805348083050
Myna and Partridge,S12 3AW,53.342043302280400,-1.397441136603090
Marmoset and Boto,S2 4TE,53.367430827337400,-1.474239382117380
Jerboa and Stilt,NG19 8RR,53.183173284728900,-1.205689486140680
Buzzard and Gull,S41 8DW,53.259288000000000,-1.431103000000000
Tree warbler and Pheasant,S8 8DG,53.321616310110300,-1.462387167156110
Recurvebill and New World blackbird,S21 1BD,53.313253854051000,-1.319181608777270
Siskin and Rat,S13 9QX,53.365955203947100,-1.369918278651670
Tattler and Partridge,S11 8AY,53.368038908764700,-1.483820191234110
Greenbul and Ice seal,S8 0YF,53.361953916838900,-1.477702764827300
Badger and Chicken,S20 6PD,53.338670684420100,-1.375862000000000
Mouse and Fish eagle,S11 9HY,53.353315690698200,-1.513879691887050
Old World warbler and Stilt,S40 3NR,53.231533000000000,-1.468789000000000
Darwin's finches and Old World quail,S41 8JB,53.260723535250700,-1.440364342036680
Myna and Egret,S21 4EB,53.305973299666000,-1.361542017594560
Eagle and Mink,S2 2QY,53.375550391799400,-1.456778260215460
Parrotbill and Jackal,S11 7AY,53.365714270041900,-1.512446254666720
Tree warbler and Logrunners,NG20 8TP,53.206211740258500,-1.209650523648210
Fulmarine petrel and Songlark,S42 6PZ,53.201263256443100,-1.434971045303300
Zebra and Partridge,S2 4TH,53.366975454323500,-1.472892438701620
Scimitar babbler and Bronzewing pigeon,S40 2NU,53.229393422358200,-1.437656895511050
Tahr and Badger,S44 5AL,53.236578091457200,-1.387086292534130
Capuchin and Bunting,S11 9AG,53.344301806015000,-1.525502733341190
White ibis and Nukupuʻu,S2 3AP,53.357843233631700,-1.458896510773430
Recurvebill and Night heron,S12 4RW,53.350886344529600,-1.397061108505600
Cloud rat and Prion,S7 1DJ,53.363828525669200,-1.478836945308490
Asiatic leopard and Marmoset,S18 1RA,53.300099000000000,-1.474796000000000
Chipmunk and Chickadee,S20 7JD,53.341759171309700,-1.353558000000000
Polecat and B,S11 9HT,53.353580027758700,-1.510376195848410
Zebra and Viscacha,S7 1PB,53.360896533204300,-1.490953729887080
Jerboa and Bunting,S20 8EQ,53.332963091368100,-1.354171609534720
Night heron and Hawk,NG20 8XH,53.205298106207400,-1.182148951162060
Old World warbler and Darwin's finches,S43 2AX,53.275833808971600,-1.405060639100570
Chicken and Macaw,S12 4RJ,53.350166108428400,-1.398814000000000
Ground sloth and Kestrel,NG20 9QN,53.221725078861200,-1.133083777007420
Snipe and Night heron,S7 1PG,53.361118199641300,-1.492348528633210
Linsang and Pratincole,NG19 8QJ,53.174948835934900,-1.189757914844170
Parrotlet and Flameback,S25 2SA,53.365052209268200,-1.205031802773550
Songlark and Magpie,S80 3EP,53.301028265810400,-1.147566000000000
Towhee and Tree warbler,S12 4QH,53.346508462182700,-1.395215161725330
Night heron and Chicken,S42 5SP,53.186423088494100,-1.357047914052030
Boto and Vulture,S18 8YB,53.305325782303100,-1.498922787559740
Solitaire and Rat,NG20 8FS,53.194196000000000,-1.229090000000000
Wallaby and Fulmarine petrel,S1 2NB,53.378366660394700,-1.469399650511620
Skunk and Black jay,NG20 8DT,53.200262881775000,-1.229161220507110
Mink and Quetzal,S43 1EQ,53.258459230598200,-1.391000924700760
White ibis and Rat,S12 4WU,53.349045000000000,-1.407948000000000
Songlark and Bunting,S41 0TX,53.226542876261200,-1.415015837413070
Black cockatoo and Logrunners,NG19 9SS,53.168240779794800,-1.172442014122220
Bronzewing pigeon and Puffleg,S80 4BX,53.260327000000000,-1.216494000000000
Macaw and Flameback,S43 2BY,53.271075533797200,-1.400838187419800
Dolphin and Boto,S44 5SJ,53.198477778804100,-1.324608559629500
Bronzewing pigeon and Treepie,S11 9EH,53.360062000000000,-1.493037000000000
Lemming and Partridge,S43 4UG,53.268053285916700,-1.262503555707890
Snipe and Pheasant,S43 2JP,53.264654003345700,-1.377344769417950
Logrunners and Parrotlet,S41 0ND,53.215873949164200,-1.402521881343870
Fish eagle and Parakeet,S12 4ES,53.348742993176800,-1.383947132129180
White ibis and Elephant,S20 5BJ,53.323180000000000,-1.375277000000000
Fish eagle and Prion,S80 3YY,53.305295000000000,-1.122883000000000
Crow and Goose,S13 8WY,53.364385958927200,-1.355469963411740
Night heron and Philippine hawk-owl,S41 0AD,53.222644593196600,-1.413780847186850
Eagle and Marsh harrier,S43 2NW,53.277129734746000,-1.373744270972710
Old World vulture and Black jay,S44 6LB,53.223606821834800,-1.286827846756240
Dolphin and Wader,S21 5SB,53.304903513641900,-1.396058067045160
Linsang and Old World warbler,S12 3AU,53.341466264788200,-1.398876109261740
Perching duck and Thicketbird,S26 5QJ,53.341337371576700,-1.291955000000000
Mockingbird and Snipe,S40 2HG,53.218953023100700,-1.436760207046410
Armadillo and Scimitar babbler,S12 3GH,53.342958322723200,-1.420679050098490
Logrunners and Fulmarine petrel,S43 2DL,53.272076467159100,-1.401468985688460
Shearwater and Solitaire,S80 4TH,53.284207740732100,-1.199932823719490
Fish eagle and Petrel,S18 8PZ,53.298116926499200,-1.490635000000000
Black cockatoo and Crow,S7 2DN,53.353756551387100,-1.492375863282310
Scimitar babbler and Pratincole,S11 8QH,53.368091211237100,-1.498202007435470
Kite and Grosbeak,S17 3LT,53.321066339169700,-1.523358430244140
Masked owl and Pheasant,S25 4DF,53.351696000000000,-1.213182000000000
Warbler and Chipmunk,S26 2EB,53.363055428478300,-1.297696000000000
Piping shrike and Ice seal,S18 7SD,53.291866150885700,-1.502410640568370
Badger and Condor,S7 1RW,53.357096815159500,-1.489436404406110
Meadowlark and Ice seal,S42 7AT,53.255147263107100,-1.493993076486140
Zebra and Duck,S25 5HT,53.349154480738300,-1.227381000000000
Black jay and Quetzal,S11 9LF,53.347390242259200,-1.515629456684760
Condor and Jerboa,S18 8RP,53.298099543710300,-1.496966767436180
Egret and Grouse,S40 2LX,53.226641000000000,-1.437074917884950
Chipmunk and Petrel,NG19 7PP,53.172210213159700,-1.250668266644530
Thicketbird and Logrunners,NG19 9QY,53.175730637050100,-1.177400000000000
Tahr and Elephant,S42 5NT,53.185955246002700,-1.368742590100880
Eagle and Black cockatoo,S8 0ZS,53.363508251130600,-1.473446130235530
Boto and Mole,S25 3AB,53.377749289600000,-1.228606766700000
Hawaiian honeycreeper and Hawk,S40 3QG,53.236609561733200,-1.468591364413080
Siskin and Myna,NG20 0EN,53.183890000000000,-1.160558000000000
Francolin and Lemming,S80 4BN,53.258474192034800,-1.221969264769890
Solitaire and Greenbul,S44 6QZ,53.249825850440900,-1.300165460980320
Meadowlark and Condor,S42 5AQ,53.197443642616400,-1.399349000000000
Old World vulture and Guillemot,S20 1BY,53.346394031259600,-1.338061330410570
American sparrow and Jerboa,S41 0JP,53.219001862839200,-1.400681193191640
Stilt and Grackle,S10 3HR,53.368696124663400,-1.520738225986290
Peafowl and Skunk,S81 8QE,53.349663367323600,-1.169399333459580
Scimitar babbler and Wallaby,S40 2WJ,53.232977000000000,-1.452066000000000
Greenbul and Goose,S25 4DD,53.359704613116000,-1.227054180994270
Parakeet and Triller,S43 4QP,53.279351295076300,-1.271097802160700
Grouse and River dolphin,S41 7AE,53.246292924675400,-1.443474823520170
Macaw and Marsh harrier,S20 3GU,53.327390000000000,-1.347274000000000
Masked owl and Siskin,S40 3LB,53.229527817477500,-1.468933670962350
Bronzewing pigeon and Songlark,S42 7HY,53.219206399213000,-1.462441655269380
White ibis and Goose,S18 8ZS,53.304314835125600,-1.493667414015370
Philippine hawk-owl and Ice seal,S1 2QQ,53.377570488256500,-1.465757000000000
Bunting and Black jay,S20 5BY,53.322139489398200,-1.360655295651180
Parrotlet and Black jay,S8 7PE,53.324291871313300,-1.484092809525540
Darwin's finches and Peafowl,NG19 8HN,53.168612216265200,-1.200513193991660
Francolin and Boto,S43 3TB,53.258525927310900,-1.370942920890180
Scimitar babbler and Bronzewing pigeon,S40 3JB,53.223702057999000,-1.445040739429980
Marmoset and Diving bird,NG20 8ST,53.203255000000000,-1.204134000000000
B and Tattler,S18 3DF,53.311237463567500,-1.461106688265070
Grackle and Black jay,S13 8RH,53.360052087280800,-1.389433857009970
American sparrow and Duck,NG19 9ET,53.171961062503500,-1.177456963488860
Viscacha and Tahr,S43 1JB,53.261236862365700,-1.392775426466490
Wallaby and Zebra,S41 7DS,53.250566267312500,-1.430770000000000
Condor and Chickadee,S41 8PL,53.252943752878900,-1.443268647173320
Prion and Kestrel,S40 2PR,53.229248089590100,-1.443081578025480
American sparrow and Buzzard,S18 8NZ,53.300809506811700,-1.487421739062360
Night heron and Goose,S81 9PR,53.377866082697900,-1.125963296051650
Mouse and Thrasher,S12 4BA,53.348078730364000,-1.368634542403140
Pheasant and Peafowl,NG19 8TZ,53.183679568108500,-1.251979832750830
Flameback and Flameback,S40 4TS,53.240348908850000,-1.436975000000000
Civet and Prion,S42 5AH,53.196362400687700,-1.399649682191530
Ground sloth and Macaw,S41 0NP,53.217692000000000,-1.404608000000000
Maya and Lemming,S43 4HQ,53.287606471766900,-1.291043150739310
Chicken and Mink,S41 0XZ,53.216977096011100,-1.416538857506910
Logrunners and Darwin's finches,S21 1JY,53.324244000000000,-1.307444552830940
Greenbul and Tattler,S41 0ER,53.224634601778900,-1.410832883049070
Grouse and Mink,S26 5PE,53.341815537725900,-1.296633119993300
Recurvebill and Pratincole,S2 4NG,53.365563904469400,-1.472819685571660
Zebra and Darwin's finches,S21 1AD,53.328328501807600,-1.311404279443990
Darwin's finches and Civet,S40 3HU,53.223925922045800,-1.446790295178620
Tahr and Masked owl,S8 8DJ,53.323204931650900,-1.464033000000000
Lemming and Wallaby,S80 2AT,53.304054229584800,-1.123870000000000
Black cockatoo and Viscacha,S12 4NG,53.342798000000000,-1.376162000000000
New World blackbird and Kangaroo,S42 7JU,53.243965568621300,-1.475378479565540
Perching duck and Tit-tyrant,NG19 8RA,53.175923365303600,-1.186343254702040
Linsang and Maya,S44 6GQ,53.260766016775100,-1.288113926252880
Kite and Flameback,S25 2SJ,53.363198304916300,-1.203353198669020
Parrotlet and Petrel,S12 2AT,53.354682596983600,-1.410050000000000
Tahr and Wader,S41 7EB,53.249601967022200,-1.428504689047690
Ice seal and Ground sloth,S11 8HH,53.372510694746000,-1.482759131149160
Siskin and Peafowl,NG20 8FF,53.198380032535200,-1.231305683532000
Warbler and Darwin's finches,S42 5JR,53.181219671024000,-1.393292146311460
Ice seal and Kākāriki,S18 1PZ,53.301661453479000,-1.476607687990860
Minke whale and New World blackbird,S21 3UT,53.296442613986900,-1.331541805403870
Logrunners and Cloud rat,S12 2NS,53.348027328219300,-1.429878735886080
Ground sloth and Solitaire,S43 3FA,53.274306355000900,-1.328947864712760
Hawk and Thicketbird,S40 1PQ,53.235225717458100,-1.427887052858160
Moluccan boobook and Wader,S41 0QJ,53.219822157500000,-1.398692975500000
Pitohui and Francolin,S13 8EE,53.365534000000000,-1.412333000000000
Kestrel and Prion,S8 0PH,53.350460000000000,-1.484198000000000
Chicken and Kākāriki,S7 1GD,53.360354987519400,-1.480006253390150
Viscacha and Booted eagles,S42 7BH,53.230148761354300,-1.496025423193170
Boto and Black cockatoo,S17 4GE,53.312277051679700,-1.530600593586580
Ground sloth and Chicken,S40 9PW,53.235358000000000,-1.434581000000000
Rabbit and Parrotbill,S42 6XP,53.189912296491500,-1.405831052164890
Kākāriki and Linsang,S43 2DU,53.275303696289000,-1.406912526259030
Wader and Logrunners,S10 5SN,53.379221156066700,-1.527324655789720
Kestrel and Fish eagle,S11 9FQ,53.354995858040400,-1.502787850392290
Old World vulture and Hawaiian honeycreeper,S40 1PN,53.235334152662900,-1.428005465259490
Chicken and Lemming,S20 4HG,53.323315976441800,-1.352125320488850
Night heron and Fish eagle,S13 8FN,53.364794078604300,-1.404649152686480
Parrotbill and Duck,S41 8JH,53.261989400142600,-1.445804726777960
Stint and White ibis,S1 4JQ,53.378753705422300,-1.479737164943040
New World blackbird and Macaw,S2 3DJ,53.361568000000000,-1.469428000000000
Black cockatoo and Tree warbler,S11 8FQ,53.369486859706100,-1.483998076126770
Lemming and Fox,S18 4DD,53.288065682420500,-1.438027205201000
Stint and New World blackbird,S14 1TE,53.343555824720000,-1.436592257440380
Ibex and Chickadee,S12 4FH,53.349681206676700,-1.381004000000000
Philippine hawk-owl and Dolphin,S40 4XW,53.246192156458100,-1.478872957333300
Dolphin and Buzzard,S20 6SW,53.339391129891000,-1.386755181771610
Dorcopsis and Hawk,S44 5JD,53.224010193346500,-1.339694642844520
Tree warbler and Argus,S40 1LY,53.236614065990400,-1.436288788365640
Old World vulture and Recurvebill,S41 0RN,53.228610167174500,-1.418821000000000
Minke whale and Hawaiian honeycreeper,S10 5DU,53.376094000000000,-1.507424930698150
Prion and Wader,S43 1EF,53.258557816181700,-1.389185694960140
Tree warbler and Old World warbler,S25 5DR,53.346154365781700,-1.224865000000000
Old World warbler and Scimitar babbler,S41 8SN,53.257665146357100,-1.436087129782790
Recurvebill and Solitaire,S26 4UF,53.361080532048000,-1.326594138480250
Jay and Booted eagles,S80 4GZ,53.246481000000000,-1.267027893048720
Booted eagles and Vole,S7 1NN,53.363969000000000,-1.484095000000000
Night heron and Ground sloth,S80 3HA,53.313820000000000,-1.146939152026350
Scimitar babbler and Mamo,S20 3GH,53.331398000000000,-1.337362000000000
Grosbeak and Boto,S2 3LE,53.359573847012100,-1.454021295182330
Francolin and Myna,S26 3XN,53.370962851091800,-1.322470475506110
Moluccan boobook and Rat,S18 1WA,53.294888106138400,-1.467403598690050
Booted eagles and Grosbeak,NG19 8JJ,53.168237951690800,-1.182449658851150
Parrotbill and B,S10 2EE,53.374712787976600,-1.484806745735900
Tattler and Night heron,S41 9DW,53.268967166920200,-1.432924717186080
Logrunners and Macaw,S18 1UN,53.291299752613000,-1.466998155326230
Recurvebill and Diving bird,S9 4BE,53.378327171998000,-1.400266478448170
Stint and Dolphin,S43 3DZ,53.248319963072000,-1.368755000000000
Pitohui and Diving bird,S26 5RT,53.341819751486800,-1.279255368039090
Linsang and Warbler,S26 2GQ,53.356500535884700,-1.305376251490970
Marmoset and New World blackbird,S26 7YN,53.316800964784000,-1.259712366239920
Goose and Marmoset,S21 4EG,53.310246188408200,-1.355444894373550
Rat and Viscacha,S10 3HU,53.372379561146800,-1.524755049017510
Pitohui and Darwin's finches,S18 2FZ,53.301472324677000,-1.466376388256760
Guillemot and Snipe,NG20 8FR,53.195414405501900,-1.210792075451470
Chickadee and Greenbul,NG19 9DX,53.167494612702100,-1.180234926334970
Armadillo and Stint,S10 2TE,53.379567878544300,-1.491241000000000
River dolphin and Booted eagles,S40 4DU,53.239953270341000,-1.441024764559790
Eagle and Armadillo,S41 0BL,53.234280630620700,-1.401981083816170
Perching duck and Gull,S42 6FE,53.193959000000000,-1.428092000000000
Grosbeak and Myna,S43 4TT,53.283852672663700,-1.293160160107940
Old World quail and Myna,S26 6SJ,53.341011000000000,-1.259987148526320
Parrotlet and Jerboa,S2 3DS,53.361766448800000,-1.467051462100000
Solitaire and Hawk,S41 0UA,53.217155924212900,-1.418183772208430
Black jay and Black cockatoo,S40 1RZ,53.236289000000000,-1.457145759051340
Diving bird and Mockingbird,S20 7NG,53.340843715344300,-1.357026396882090
Old World warbler and Myna,S21 1EL,53.324304449479700,-1.315042239941600
Eagle and Night heron,S10 5WX,53.379221501914800,-1.516185510140950
Fish eagle and Songlark,S8 7HA,53.321349899238800,-1.491859586498960
Condor and Perching duck,NG19 7QQ,53.168026225184000,-1.242917633259140
Thrasher and Jerboa,S11 9FE,53.356881645834400,-1.502345221403820
Scimitar babbler and Quetzal,S43 2BQ,53.274059145773400,-1.402491005475590
Nukupuʻu and Magpie,S11 9JS,53.351048834141700,-1.511397000000000
Diving bird and Meadowlark,S41 0HT,53.224434489106700,-1.410356319714220
Snipe and Warbler,S13 9WX,53.364813408559100,-1.354727161099700
Hawk and Meadowlark,NG20 9AJ,53.213310040204100,-1.218729365056940
Tree warbler and Argus,S21 1GB,53.315208083779400,-1.324569216668920
Night heron and Pratincole,S25 2SZ,53.363622704800000,-1.200670000000000
Vole and Lemming,S43 3SD,53.257692125892500,-1.369651015649870
Kestrel and Siskin,S11 9FP,53.356348145363800,-1.505912249159590
Pitohui and Greenbul,S8 8BU,53.320699621125300,-1.460432104533210
Night heron and Egret,S12 2AB,53.359996638282400,-1.427224770088280
Ibex and Solitaire,NG20 8EH,53.203436899128000,-1.239090095303470
Polecat and Magpie,S2 4EH,53.369801054862500,-1.467522175446510
Booted eagles and Dolphin,S41 0BH,53.224855988529100,-1.408343407702880
Dorcopsis and Black cockatoo,S81 9HT,53.360620716456800,-1.126556553349350
Partridge and Night heron,S11 7EZ,53.366776536477000,-1.526245049592320
Wader and Argus,S2 5HF,53.375560153310100,-1.449097122798300
Partridge and Mole,S2 1UZ,53.377387593490000,-1.432403074099570
Darwin's finches and Masked owl,S11 9NB,53.344375503941400,-1.519208401378100
Nukupuʻu and Fox,S43 4BW,53.270036488962200,-1.256051000000000
Grosbeak and Partridge,S21 5RT,53.308522228006500,-1.420679865816030
Capuchin and Piping shrike,S12 2NE,53.347392267340900,-1.428655445918220
Parakeet and Jay,NG20 8QB,53.209180450383500,-1.224883000000000
Francolin and Civet,S42 6AH,53.175209280071100,-1.445636509959580
Eagle and Towhee,S8 0RE,53.347488114403500,-1.481154166621750
Lemming and Towhee,S8 0RH,53.348293914478500,-1.484569340941910
Chicken and Wallaby,S40 2JF,53.217946672793500,-1.429285344540490
Stint and Shearwater,S41 8LG,53.258560078100000,-1.427006400800000
Boto and B,S7 1BG,53.366226000000000,-1.477906000000000
Prion and Mink,S11 7BH,53.366013580768900,-1.513104068594790
Old World quail and Jerboa,S8 8JR,53.330280668408500,-1.462203217850740
Night heron and Siskin,S42 5DS,53.203417007849700,-1.373112208176570
Jerboa and Viscacha,S10 5RU,53.377891711886500,-1.525279969718710
Vulture and Flameback,S80 3JB,53.313797000000000,-1.153897405988430
Thicketbird and Masked owl,NG20 9BS,53.234391105536200,-1.205386250161530
Zebra and Prion,S8 2LD,53.350856000000000,-1.484508000000000
Argus and Cloud rat,S42 5JN,53.179839315145400,-1.395840340202960
Thicketbird and Prion,NG19 8HH,53.170608345783300,-1.197917970700060
Tree warbler and Recurvebill,S26 4XB,53.361970000000000,-1.337625000000000
Maya and Parrotlet,S81 8TB,53.326447498977800,-1.141638000000000
Capuchin and Grouse,S2 4BS,53.373292216200000,-1.465539890200000
Vulture and Old World quail,S21 1AJ,53.323713692223200,-1.317048455306130
Guillemot and Mink,S14 1RH,53.348628000000000,-1.435068000000000
Kangaroo and Old World warbler,S13 9DE,53.375251034949700,-1.389231627173990
Tit-tyrant and Grackle,S44 6TT,53.226637607510100,-1.296154527899940
Stint and Asiatic leopard,S12 3AP,53.343467747262300,-1.398277208677350
Polecat and Condor,S42 5QU,53.188967795785600,-1.362218058253430
Shearwater and Old World quail,S11 7EH,53.367733583328900,-1.527316492268740
Siskin and Piping shrike,S20 5PG,53.323390847894400,-1.362693388525980
Eagle and Black cockatoo,S9 4GE,53.378759296384300,-1.416736026414230
Marsh harrier and Egret,S41 0RU,53.228768523423700,-1.417951537575460
Philippine hawk-owl and Parrotbill,S81 8UY,53.321959540148800,-1.137719845350090
Towhee and Pratincole,S21 4HF,53.308931479834800,-1.375290243830900
Tree warbler and Logrunners,S43 2PR,53.274564992925100,-1.381804569295920
Grouse and Thicketbird,S81 9JP,53.364077000000000,-1.123300000000000
Vulture and Coati,S10 3FD,53.370276166151700,-1.518015203509630
Partridge and Badger,S40 4RQ,53.247649162003000,-1.466851111980670
Civet and Nukupuʻu,S43 2QD,53.279811629350200,-1.402410811319810
Bunting and Thicketbird,S18 8QZ,53.304908699079300,-1.491499000000000
Myna and Crow,S21 4AS,53.306895273249300,-1.370967845657010
Buzzard and Eagle,S43 4EB,53.271980419770500,-1.256542903491510
Peafowl and Myna,S81 9PJ,53.376792305771600,-1.126631655150420
Polecat and Fox,S26 2GW,53.354614000000000,-1.305402546377360
Kite and Condor,S2 4EA,53.373239583399700,-1.466592512592290
Fish eagle and American sparrow,S80 1LJ,53.301430419429500,-1.125603659853380
Marmoset and Guillemot,S44 5JX,53.238820000000000,-1.330706977185380
Pratincole and Night heron,S42 6SE,53.205535420980300,-1.445050775865100
Grouse and Puffleg,S26 1JJ,53.350355393881800,-1.255210455036620
Vulture and Greenbul,S8 7TT,53.332131494755400,-1.480274293822970
Pratincole and Buzzard,S2 2FF,53.359903442538300,-1.430291291484040
Grackle and Ground sloth,NG20 0SQ,53.214798000000000,-1.151941000000000
Songlark and Shearwater,S26 2AF,53.356293343500000,-1.303216219900000
Myna and Triller,S42 6GS,53.198298000000000,-1.417989000000000
Coati and Flameback,S21 4JS,53.309517154324600,-1.368723118363450
Hawk and Maya,S80 1HZ,53.302171995559500,-1.124988281110090
Black jay and Zebra,S44 5HG,53.245994245825100,-1.340542000000000
Piping shrike and Magpie,S44 6TW,53.224048000000000,-1.292857000000000
Linsang and Logrunners,S10 2LB,53.376769811711200,-1.492884040241290
Linsang and Ice seal,S17 3RS,53.321086278785500,-1.521601787685260
New World blackbird and Gull,S40 2QE,53.231759061640900,-1.437985454650010
Francolin and Philippine hawk-owl,S40 2ST,53.223221078544000,-1.434502477386710
Eagle and Mole,S8 9SU,53.358519694745900,-1.467407309856100
Mouse and Vulture,S2 5HN,53.375364423056100,-1.449535554243450
Jerboa and River dolphin,S42 6JJ,53.179890716820700,-1.424388779945460
Fulmarine petrel and Macaw,S12 3JA,53.337555765324900,-1.420617069920710
Rat and Tit-tyrant,S80 4GL,53.284841424900000,-1.205531022500000
Shearwater and Cuscus,S7 2QX,53.337543092558400,-1.510124269746370
Condor and Viscacha,S80 3DX,53.302009749382200,-1.147275190712280
Peafowl and Cloud rat,NG19 8RS,53.179635730285300,-1.217186520300440
Vole and Meadowlark,S11 7PR,53.357050904271600,-1.519531603616670
White ibis and Warbler,NG19 8UE,53.178014790824500,-1.188533092460070
Buzzard and Fish eagle,S17 4QW,53.319733856663600,-1.500840747833340
Thicketbird and Greenbul,S21 2EH,53.326863914356900,-1.305302005063650
Nukupuʻu and Marsh harrier,S12 4HY,53.346569840379400,-1.380884080708170
Rabbit and Puffleg,S2 1BG,53.363191000000000,-1.422072000000000
Parrotbill and Magpie,S11 9FN,53.356698394080900,-1.503669525537920
Tattler and Thicketbird,S17 4LX,53.321471893868300,-1.516327000000000
Grosbeak and Gull,S80 4SE,53.285218100875600,-1.200468950431730
Solitaire and Ice seal,S17 4NH,53.321754901910100,-1.517991343330990
Cuscus and Skunk,S43 3BY,53.266176775356500,-1.328805000000000
B and Logrunners,S43 3RE,53.258656560020400,-1.361691938042340
Tahr and Stint,S80 4DL,53.261891000000000,-1.223376000000000
Fish eagle and Rabbit,S81 7BN,53.322808035262300,-1.133243858640720
Scimitar babbler and Grackle,S2 2ND,53.370793000000000,-1.444256026083460
Thrasher and Shearwater,S10 5GL,53.379157011041200,-1.513585607541280
Stilt and Vulture,S18 4AP,53.293362606514200,-1.450139728508160
Viscacha and Scimitar babbler,S10 3EA,53.372326689038700,-1.505096192295120
Stilt and Tahr,NG19 8QH,53.174628455166400,-1.188911158631840
Kite and Stilt,S2 5HR,53.375812935926600,-1.451288450785690
Jay and Grouse,S26 2EA,53.363814340094900,-1.303303795194400
Elephant and Tit-tyrant,NG20 8AE,53.201951000000000,-1.210862387854510
Minke whale and Old World quail,S25 3PL,53.379382848718600,-1.230424000000000
Chipmunk and Thicketbird,S20 4TS,53.320994814157900,-1.353406478451140
Elephant and Rat,S26 4NH,53.359849851728500,-1.325140993946260
Petrel and Thicketbird,S20 7NH,53.341052547323700,-1.355746618508980
Jackal and Zebra,S13 9BL,53.374571000000000,-1.391406000000000
Buzzard and Marmoset,S41 0EU,53.224091857210100,-1.411963699416010
Chickadee and Skunk,S43 4UB,53.268609197707900,-1.259375249354790
Egret and Jackal,S80 3AD,53.302158181480100,-1.139154079897240
Lemming and Warbler,S80 3JS,53.326544875404300,-1.221557627531930
Grackle and Eagle,S11 8FA,53.370770655135300,-1.479699000000000
Jay and Chickadee,S12 9BS,53.360466101900000,-1.425084946900000
Vole and Kite,S40 2QZ,53.233563000000000,-1.450756000000000
Chickadee and Pratincole,S25 4GT,53.359271058459000,-1.226731456149410
Chicken and Stint,S80 1DG,53.303082021108000,-1.124309000000000
Piping shrike and Marsh harrier,S42 6TS,53.207528540068900,-1.440683019937640
Kangaroo and Parakeet,S3 7XL,53.376612123162300,-1.481281452647590
Mouse and White ibis,S7 2LH,53.343619651971700,-1.501478205770730
Kite and Vulture,S20 5DR,53.327250909331500,-1.360053409184750
Rat and Eagle,NG19 7RJ,53.167291810643900,-1.232100500056530
Asiatic leopard and Stint,S25 4AS,53.361624730343200,-1.216861440646930
Bronzewing pigeon and Gull,S18 8RL,53.298483880236100,-1.500728315312400
White ibis and Peafowl,S18 8UD,53.299662809472700,-1.494652697465160
Condor and Duck,S25 4FN,53.359081792535400,-1.214263517018310
Eagle and Cuscus,S41 8QH,53.253030553940100,-1.448408526918510
Rabbit and Pheasant,S40 1HA,53.235300000000000,-1.443409582179150
Zebra and Dorcopsis,S11 8BE,53.368231317786900,-1.482585510250910
Shearwater and Pratincole,S42 7NQ,53.221343000000000,-1.467628356859100
Jackal and Grouse,S42 6DT,53.190401186213500,-1.416016000000000
Chickadee and Shearwater,S25 2SF,53.370503029722300,-1.202871272770810
Pheasant and Chipmunk,S25 2AQ,53.372785760700000,-1.207758841000000
Argus and American sparrow,S81 8UJ,53.324888000000000,-1.143546000000000
Meadowlark and Hawaiian honeycreeper,S11 9QB,53.339977000000000,-1.531738000000000
Viscacha and Polecat,S8 9QD,53.355761846204000,-1.465773970496790
Goose and Asiatic leopard,S41 7PP,53.244169926194800,-1.439291495395920
Treepie and Grouse,S8 7BD,53.334594448202900,-1.501358137107390
Mink and Snipe,S44 6RD,53.252375374443000,-1.301128081821900
Maya and Ibex,S8 0GS,53.340360000000000,-1.481015000000000
Crow and New World blackbird,S18 3AZ,53.311154647459100,-1.448875639024820
Recurvebill and Macaw,S41 0FA,53.219943000000000,-1.408650000000000
Kangaroo and Cuscus,S25 2QB,53.367448249128000,-1.207136315739660
Black cockatoo and Cuscus,S2 4UH,53.367852782579700,-1.472085098394780
Pheasant and American sparrow,S20 5BE,53.324392522574100,-1.368503674222020
Elephant and Black cockatoo,S41 0QR,53.222377351183200,-1.419790541569560
Condor and Dolphin,S7 1DH,53.363840135344600,-1.479437891448780
Pratincole and Parrotbill,S20 6TB,53.340553450091300,-1.378598173796930
Ice seal and Grackle,S44 6LZ,53.222389000000000,-1.280018000000000
Booted eagles and Ice seal,S40 9PU,53.235358000000000,-1.434581000000000
Chicken and Skunk,S18 1RL,53.298124913170200,-1.477761207762280
Mouse and Stilt,S41 7LT,53.243542238632800,-1.426382583090140
Badger and Grackle,S41 9BT,53.257917361581100,-1.421183677514220
Bunting and Marsh harrier,S41 7DL,53.251135820002300,-1.431586713198850
Triller and Old World quail,S42 6ER,53.183500537517400,-1.414389329510320
Boto and Mole,S1 4GX,53.379086000000000,-1.477235311308520
Eagle and Nukupuʻu,S42 6TY,53.203985993981800,-1.444337191538970
Hawk and Pheasant,S40 2QB,53.231194092030500,-1.440180036882030
Darwin's finches and Boto,S7 1GQ,53.359738891299100,-1.484762000000000
Shearwater and Parrotlet,S40 4EN,53.244409534975100,-1.450212680808450
Black jay and Macaw,S80 4SP,53.287050039091300,-1.205579924272000
Maya and Goose,S11 8FX,53.367764000000000,-1.486589000000000
Argus and New World blackbird,S40 3DE,53.227948184116500,-1.455516519443680
Minke whale and Vole,S44 6QQ,53.250137555520900,-1.302738219763590
Civet and Pheasant,S42 6PE,53.206119390552000,-1.425998864711770
Nukupuʻu and Buzzard,NG19 7PQ,53.175743897751600,-1.252252485954320
Tit-tyrant and White ibis,S2 4FP,53.372425000000000,-1.473275000000000
Hawk and Partridge,S40 4RP,53.249087425363000,-1.451007002840570
Warbler and Kite,S21 4DJ,53.308122000000000,-1.361317848356460
Moluccan boobook and Capuchin,S8 7GP,53.321156608452800,-1.495029452344110
Chicken and Vulture,S2 2BL,53.358172223177700,-1.450237820728890
Thicketbird and Kangaroo,S10 3GH,53.368316787246400,-1.529323890955040
Boto and Fish eagle,S44 5UE,53.233400812105200,-1.391536227695400
Chicken and Pitohui,S21 1FT,53.316098851633100,-1.321553051080050
Perching duck and Kestrel,S41 9JW,53.269806483329500,-1.426106233855730
Guillemot and Lemming,S26 6NH,53.342172148457000,-1.262052000000000
Old World vulture and Ibex,S26 2FF,53.361506540340800,-1.303702061753560
Parrotlet and Fish eagle,S42 5SG,53.187596442522000,-1.361415000000000
River dolphin and Parakeet,S45 0DT,53.169811000000000,-1.492680043009140
Ice seal and Kangaroo,S3 7TW,53.373841071562800,-1.480698844862310
B and Stint,S2 2JL,53.361919628322300,-1.436545509519030
Crow and Fox,S21 3US,53.292729784998500,-1.310926508784430
Towhee and Greenbul,S42 7JL,53.243341119697600,-1.476465028918640
Armadillo and Vole,S9 4GT,53.377030859158400,-1.416203452695370
Songlark and Crow,S2 3RR,53.366275869509800,-1.457181718264170
Piping shrike and Dolphin,S25 5AE,53.344699000000000,-1.228783000000000
Rabbit and Hawk,NG20 9JD,53.235757000000000,-1.194424000000000
Diving bird and Myna,S12 4NA,53.343384158856900,-1.366480891843160
Goose and Tattler,S11 8FN,53.370586286329100,-1.480497937465300
Dorcopsis and Hawaiian honeycreeper,S10 9GB,53.379224989300000,-1.516185648300000
Gull and Perching duck,S44 6BB,53.234363000915100,-1.309107107673680
Philippine hawk-owl and Chicken,S17 4DP,53.316503384976000,-1.526456376842690
Buzzard and Hawaiian honeycreeper,S1 3QG,53.375476793467700,-1.470412585532140
Elephant and Ice seal,S42 6UE,53.203745000000000,-1.419682000000000
Wader and Meadowlark,S13 7QL,53.358708964440000,-1.364585902317590
Badger and Maya,S3 7SR,53.378920000000000,-1.480562000000000
Badger and Fish eagle,NG20 0HQ,53.196966847539900,-1.146486563215880
Greenbul and Linsang,S41 9FA,53.277227441600000,-1.439714152300000
Vulture and Mouse,S13 8HX,53.372391853078800,-1.399718546621580
Ibex and New World blackbird,S41 9SB,53.257133956146000,-1.471230169058310
Pitohui and Pheasant,S41 7GY,53.246854396300000,-1.428436546300000
Zebra and Parrotbill,S12 4QA,53.347554495461300,-1.392331252457090
Gull and Argus,S43 3QY,53.261014438490600,-1.362211519882270
Marsh harrier and Maya,NG20 8EJ,53.196730561109700,-1.243250415412670
Towhee and Meadowlark,S25 5ET,53.347789543407800,-1.218031257147270
Booted eagles and Macaw,S40 3NH,53.221017793349700,-1.457506475248120
Bunting and Triller,S11 9NU,53.353365000000000,-1.517019000000000
Chicken and Hawaiian honeycreeper,S11 9HJ,53.350926288291200,-1.507687492238780
Jerboa and River dolphin,S80 3HJ,53.315187426410800,-1.154953000000000
Thicketbird and Fulmarine petrel,S81 7SB,53.330317847139900,-1.140013930902600
Guillemot and Shearwater,S44 5LE,53.187137261296500,-1.288166158512730
Ibex and Vole,S41 7FB,53.248525000000000,-1.447551000000000
Warbler and New World blackbird,S9 4BQ,53.379387030837200,-1.405498013738140
Old World vulture and Lemming,S43 1QW,53.245454420678700,-1.391425273229700
Kākāriki and Philippine hawk-owl,S17 4RJ,53.322890000000000,-1.498597000000000
Philippine hawk-owl and Jay,S81 7HZ,53.313929757061700,-1.127464715034280
Rabbit and Buzzard,S18 2HL,53.308246610688400,-1.473901000000000
Myna and Ibex,S1 4PL,53.374332000000000,-1.475477000000000
Grackle and Tree warbler,S12 4EP,53.347591178086600,-1.381965863536220
Diving bird and Shearwater,S8 0JN,53.343397474857800,-1.483051260695890
Chicken and Coati,S26 5LY,53.339730553849500,-1.276858000000000
Mole and Tit-tyrant,NG19 9HW,53.174039660139400,-1.176459712430290
Lemming and Skunk,S25 2AH,53.372364340200000,-1.206564224000000
Fish eagle and Tit-tyrant,S20 7NQ,53.341103753522000,-1.361933794624300
Condor and Dolphin,S40 3SJ,53.234364326566100,-1.461023371991370
Zebra and Skunk,S2 3GR,53.364004485757300,-1.463762460750730
Thicketbird and Kākāriki,S2 2ED,53.359054000000000,-1.440490000000000
Myna and Shearwater,S13 7EP,53.357462110900200,-1.378742994975460
Solitaire and Tahr,S25 5HX,53.350037758084500,-1.226462850311530
Tattler and Condor,S25 4BH,53.355274013261200,-1.217533727602490
Pratincole and Marsh harrier,NG19 8RT,53.185310000000000,-1.215976000000000
Stint and Marmoset,S80 1HH,53.298977531473000,-1.122413000000000
Dorcopsis and Snipe,S18 8QQ,53.299481834724500,-1.498631046421360
Black jay and Asiatic leopard,NG19 8BJ,53.167110480820000,-1.189785849827610
Recurvebill and Chicken,S44 6AJ,53.263971026967600,-1.284432578744480
Jay and Wallaby,S13 8JB,53.371119150707800,-1.395107248695850
Old World quail and Nukupuʻu,S43 2AE,53.271377506718000,-1.403697974943770
Bunting and Hawaiian honeycreeper,S43 4UX,53.284998289520500,-1.286286412622140
Civet and Boto,S8 8PY,53.342872330587300,-1.469885224932200
Philippine hawk-owl and Night heron,S2 2NU,53.367590315652000,-1.445893618572170
Vole and Maya,S43 1GR,53.260051254058300,-1.410886160308250
Piping shrike and Egret,S26 2AN,53.366943936580300,-1.306649180651030
Piping shrike and Hawk,NG20 9QR,53.218855294676700,-1.134010356148890
Perching duck and Francolin,S18 8UB,53.303306608671100,-1.504018412929050
River dolphin and Civet,S8 8PL,53.343671583599800,-1.465684706263580
Triller and Kite,S12 3XB,53.333896860664700,-1.388095361522410
Mole and Perching duck,NG19 8TW,53.183731820389200,-1.256019296585400
Logrunners and Marmoset,S41 0LA,53.212878267806100,-1.405648261817840
Tree warbler and Thrasher,S40 3HE,53.223943000000000,-1.460001000000000
Civet and Dorcopsis,S18 3AF,53.312409782869400,-1.457970030453370
Black cockatoo and Petrel,S14 1QY,53.349886344259500,-1.439017557879720
Grouse and Darwin's finches,S40 4DN,53.237502727178500,-1.465299049217420
Booted eagles and Zebra,S2 1RP,53.375866260357300,-1.426290455650910
New World blackbird and Kite,S45 9RE,53.172375180981200,-1.427975061720690
Jerboa and Parakeet,S20 1FE,53.344865643282300,-1.339632118237560
Songlark and Thicketbird,S18 8YE,53.306564213343300,-1.494181071092690
Condor and Vole,S17 3PU,53.327849512333900,-1.520279970453390
Greenbul and Fox,S13 9AG,53.372200123045900,-1.386884000000000
Petrel and Grosbeak,S11 7PS,53.356744092549100,-1.519054000000000
Moluccan boobook and Herring gull,S17 3LP,53.321644648959400,-1.524117618888170
Parrotlet and Vole,S21 4EA,53.306006119905300,-1.360956256439220
Cuscus and Black cockatoo,S8 7NP,53.323260706964200,-1.482603947880170
Rat and Kangaroo,S8 0ZF,53.362595345745800,-1.476507000000000
Meadowlark and Mink,S10 2DJ,53.373022875303500,-1.486886295237810
River dolphin and Parakeet,S10 3DR,53.369499393797800,-1.519316474350710
Old World quail and Guillemot,S43 4PS,53.280196077106500,-1.263749407435690
Armadillo and Stilt,S40 4QX,53.242852821448300,-1.457710034650440
B and Jerboa,S42 6UZ,53.198873366867800,-1.433325878860810
Egret and Perching duck,S25 4JT,53.353452765166300,-1.209874903384960
Siskin and Tree warbler,S44 6SA,53.237090292789700,-1.300478007317650
Black cockatoo and Marmoset,NG19 9EQ,53.170648301391700,-1.177407262374550
Recurvebill and Towhee,S80 9SX,53.301863288459500,-1.123343957526250
Siskin and Perching duck,S21 4EP,53.313675514624500,-1.354627763199520
Cuscus and Rabbit,S42 5GA,53.175084330123000,-1.392346346844690
Argus and Grosbeak,S25 3SE,53.370908000000000,-1.234411000000000
Eagle and Solitaire,S2 3WN,53.362584185835900,-1.449910578067420
Tahr and Tattler,S44 6RZ,53.235892233523800,-1.300048057211490
B and Thicketbird,S42 5TZ,53.191084648910200,-1.364731015823490
Lemming and Darwin's finches,S8 0RU,53.353009909860300,-1.481778224259230
Chipmunk and Mink,S21 1JR,53.315770251937700,-1.319096549709230
Mockingbird and Petrel,S2 3RU,53.368477637900400,-1.457078599416380
Herring gull and Parrotbill,S8 7RF,53.326048704777400,-1.480873665470890
Meadowlark and Towhee,S26 7WY,53.319532644117900,-1.259560027552700
Crow and Grouse,S13 7TX,53.362939223256500,-1.360570902768100
Jackal and Chickadee,S43 1NJ,53.254274368308500,-1.391779799816280
Elephant and Scimitar babbler,S11 9EG,53.360884971017100,-1.496708880694430
Warbler and Tit-tyrant,S8 7SN,53.326350000000000,-1.481738656568440
Meadowlark and Old World vulture,S25 4GG,53.359408305405600,-1.213340935231440
Vole and Wader,S7 1NT,53.364638913489800,-1.491675548340640
Gull and Marmoset,S1 2BX,53.376967000000000,-1.465734000000000
Vole and Chickadee,S42 5TR,53.190521658682800,-1.360309216844640
Ibex and Armadillo,S43 4EH,53.286684329617000,-1.279658209518720
Egret and Tree warbler,S42 5BN,53.200171803121900,-1.393937838301200
Marmoset and Warbler,S41 7NB,53.242919838668900,-1.424068251946440
Old World warbler and Coati,S42 7EL,53.217717628853900,-1.491918085440600
Stint and Hawk,S10 3DF,53.372519130616000,-1.503816393158960
Masked owl and Coati,NG20 8XT,53.205635962698300,-1.201486390481950
Skunk and Guillemot,S42 6WB,53.203535190376900,-1.421377366798660
Eagle and Nukupuʻu,S8 7HN,53.320354161274500,-1.486031777325580
Triller and Mole,S45 9QU,53.171475253865300,-1.425892634623950
Kangaroo and Mink,S3 7UB,53.374303000000000,-1.481355000000000
Linsang and Night heron,S43 4GF,53.277675000000000,-1.252199000000000
Herring gull and Mockingbird,S80 4RQ,53.284473002062700,-1.212782498740260
Triller and Black jay,S44 6QS,53.250713890289600,-1.301379963135290
Thrasher and Rabbit,S11 9HP,53.355113389244800,-1.509472210303940
New World blackbird and Eagle,S8 0EP,53.336540877457800,-1.498226807421490
Tit-tyrant and Prion,S11 8ZF,53.367450264734400,-1.497548283272480
Mole and Herring gull,S8 8RT,53.348141263700000,-1.469459549900000
Myna and Chickadee,S18 2GU,53.306207372342600,-1.469949065658780
Greenbul and Cuscus,S2 3SQ,53.365263725337700,-1.454023729873520
Mink and Badger,S2 2GT,53.361165640112200,-1.446382637831250
Songlark and Piping shrike,S18 1SS,53.297787851142800,-1.466587335166840
Civet and New World blackbird,S8 8SL,53.345537000000000,-1.470558000000000
Bunting and Piping shrike,S12 2GZ,53.355653804147800,-1.406714623118340
Zebra and Parrotbill,S21 4JB,53.309264056487900,-1.351692643853470
Siskin and Kite,S26 4NU,53.358565481046800,-1.323733858817900
Black cockatoo and Parrotbill,S2 1HB,53.363451905704900,-1.429853276407820
Minke whale and Shearwater,S40 4UT,53.246926796827300,-1.474218313654720
Treepie and Viscacha,S25 2QP,53.365308049511500,-1.215170902352240
Scimitar babbler and Siskin,S8 0NR,53.347703150931600,-1.485147280257120
Tahr and Boto,S12 2GB,53.358803795437200,-1.424040334375990
Tattler and Stint,S2 3QU,53.366807198500000,-1.458632879400000
Herring gull and Black jay,S43 4NU,53.279288753924000,-1.246562630834100
Macaw and Badger,S26 5PJ,53.341623095338900,-1.276465047556610
Pheasant and Snipe,S8 0JA,53.345406939378000,-1.486286460764170
Pitohui and Old World vulture,S10 2DS,53.373142000000000,-1.489275000000000
Marsh harrier and Old World quail,S42 5SJ,53.186840614904000,-1.359466055447660
Black cockatoo and Grackle,NG19 9EG,53.172217617776800,-1.165229395412050
Partridge and Myna,S26 5RN,53.344290689393100,-1.314181356447310
Quetzal and Puffleg,S80 9EQ,53.305295000000000,-1.122883000000000
Myna and Linsang,NG19 8RW,53.179948795453400,-1.212856496560250
Maya and Vole,S20 4RY,53.324357852033500,-1.355292388401580
Tree warbler and Hawk,S17 3LD,53.327278000000000,-1.523139000000000
Pratincole and Partridge,S13 9ZD,53.366114922247900,-1.337966203997940
Dorcopsis and White ibis,S11 7EW,53.367825975678800,-1.523423071582970
Bronzewing pigeon and Wader,S41 9QZ,53.276383000000000,-1.432692000000000
Fox and Cuscus,NG20 8HX,53.213010737644500,-1.223826164536150
Chicken and Tit-tyrant,S42 6FJ,53.197784000000000,-1.410331000000000
Argus and Stint,S80 4HX,53.270022421609500,-1.222944255037220
Rabbit and Black cockatoo,NG19 8HZ,53.170166504332400,-1.203072336169290
Condor and Jackal,S18 9DU,53.300045000000000,-1.452694000000000
Stilt and Skunk,S43 3SG,53.253148591096900,-1.370572120635160
Siskin and Kangaroo,S25 4DX,53.353092441175800,-1.220698584779510
Asiatic leopard and Parrotbill,S40 4QY,53.242472514143900,-1.457100468853600
New World blackbird and Duck,S21 1JX,53.322529779379800,-1.323823111801980
Moluccan boobook and Elephant,S21 1HL,53.318657034096600,-1.324079452238610
Cloud rat and Mole,S80 3HY,53.312242383994000,-1.154035681722440
Grackle and Tahr,S40 4JU,53.247989532801300,-1.450736304014720
Philippine hawk-owl and New World blackbird,S20 1GB,53.344546684620400,-1.342100409187950
Marmoset and Mouse,NG19 7PX,53.171104611549000,-1.252108717765840
Grosbeak and Wallaby,S40 4XA,53.246949729147700,-1.473303873781190
Grackle and Zebra,S41 7TW,53.236958611041300,-1.423743700036750
Moluccan boobook and Bunting,S44 6TR,53.223623911482200,-1.291201201458230
Jerboa and Mouse,S41 0UG,53.252326043788300,-1.415608590002370
Songlark and Vulture,S40 3LZ,53.224430807309500,-1.472921026637510
Siskin and Mouse,S43 1DB,53.258117987278000,-1.396372251980290
Ground sloth and Songlark,S26 5PZ,53.343921204598300,-1.278934556194800
Ground sloth and Condor,S18 8QP,53.299213317955200,-1.498904270225640
Ground sloth and Francolin,S8 9FJ,53.355868579503300,-1.475658688395340
Chickadee and Warbler,S40 2JY,53.222729139395700,-1.436920377371490
Polecat and Grosbeak,S13 8TS,53.370836576981700,-1.389039243146020
Thicketbird and Macaw,S44 6RS,53.234665359555800,-1.297775807632770
Magpie and Bunting,S42 5BB,53.201633011076900,-1.402046190908720
Mink and Recurvebill,S14 1FD,53.344157000000000,-1.443764000000000
Grouse and Egret,S2 3EL,53.361184005246200,-1.464203562782470
Fish eagle and Booted eagles,S81 8UT,53.322734751890800,-1.140511662881640
Zebra and Old World vulture,S81 9SG,53.379258931992400,-1.125904716934820
Jackal and Rabbit,S44 5NA,53.190656000000000,-1.300845000000000
Solitaire and Logrunners,S20 8GF,53.328293563052300,-1.345128120490750
Masked owl and Philippine hawk-owl,S81 7LD,53.323992837042600,-1.126839114790730
Coati and Prion,NG19 8HS,53.171473272400800,-1.199547460286410
Herring gull and Snipe,S81 7HX,53.313994521554400,-1.126487744594370
Goose and Tit-tyrant,NG19 9DN,53.169771198794000,-1.176661094128740
Armadillo and Mole,S41 0FD,53.236429884792500,-1.418521879146060
Vole and Grackle,S10 2FQ,53.376746914438300,-1.485428574119630
Quetzal and Thicketbird,S43 4DJ,53.271382237834400,-1.265910113498870
Civet and Lemming,S11 9RG,53.350663034535100,-1.522547810886570
Ibex and American sparrow,NG19 8QE,53.174373400459300,-1.189738830913430
Thicketbird and Siskin,S26 2ES,53.358302000000000,-1.307330000000000
Petrel and Badger,S80 4AA,53.263099000000000,-1.210147000000000
Vulture and Buzzard,S41 8TS,53.259496855646000,-1.437562110401730
Francolin and Maya,S26 2FZ,53.362080308288400,-1.288200161502930
Egret and Linsang,NG20 8DX,53.201087096698700,-1.225957739234690
Quetzal and Puffleg,S40 4DX,53.241128428621600,-1.440514981534150
Marsh harrier and Hawaiian honeycreeper,S12 2DE,53.357310925478700,-1.409170735737090
Ground sloth and Wallaby,S40 1UR,53.236689382074000,-1.427567892915570
Kestrel and Rabbit,S43 2AN,53.275380280401300,-1.404242142457370
Condor and Crow,S80 4HT,53.253920376852000,-1.204799678808140
Buzzard and Moluccan boobook,S18 1YB,53.295482353195100,-1.459624552315060
Civet and Mamo,S40 3QS,53.237319580039900,-1.468567592261050
Bunting and Fulmarine petrel,S20 4HU,53.320599214789200,-1.350079770648070
Pitohui and Perching duck,NG20 9QW,53.221280646268500,-1.132538579528760
Mink and Logrunners,NG19 9HG,53.169950205425700,-1.171361960233200
Francolin and Songlark,S43 4LB,53.273897177356100,-1.267051711631130
Capuchin and Badger,S42 6NE,53.201911049645000,-1.421968111585390
Old World warbler and Vole,S81 7DE,53.316822553207600,-1.130933316129070
Gull and Moluccan boobook,S26 3YL,53.370011000000000,-1.319209000000000
Rabbit and Stilt,S7 1DP,53.364309553457900,-1.479898020824960
Philippine hawk-owl and Viscacha,S18 3DB,53.310977957358000,-1.463361249909240
Goose and Maya,S18 7XB,53.300026088342000,-1.452695028454180
Meadowlark and Scimitar babbler,S11 7LW,53.360202936570900,-1.522817000000000
Tree warbler and Cuscus,S21 5RH,53.305931000000000,-1.394663000000000
Francolin and Marmoset,S21 4FN,53.299105350506800,-1.369911912276250
Viscacha and Vulture,S18 8ZN,53.304789816799800,-1.493331656255110
Mouse and Nukupuʻu,S80 3AA,53.300733204869800,-1.142243816763130
Rat and Francolin,S80 1BL,53.294031666613200,-1.124269423287270
Ibex and Triller,S11 7JB,53.362444801781100,-1.513039543784230
Siskin and Gull,S8 9DP,53.352774113422000,-1.475125760196560
Parrotlet and Crow,S12 2AF,53.360462758458000,-1.425084824382840
Egret and Grosbeak,S11 9ST,53.348010898766300,-1.526948711146960
Darwin's finches and Grackle,S26 1HJ,53.355109681254100,-1.257967196360980
Vole and Buzzard,S44 6HY,53.222218227696900,-1.287614770636940
Black jay and New World blackbird,S26 2DB,53.365193015199300,-1.308526017346460
Petrel and Lemming,S7 2EL,53.354667615396200,-1.496918000000000
Thicketbird and Grouse,S18 8NL,53.302426062370400,-1.485001492336220
Magpie and Zebra,S21 1AF,53.317077280060600,-1.318160091162090
Lemming and Peafowl,S7 1HD,53.360351358430800,-1.483312009689410
River dolphin and Polecat,S45 9HX,53.171193081993900,-1.396081425847570
Chickadee and Grackle,NG20 0FE,53.207590000000000,-1.156143000000000
Kākāriki and White ibis,S11 8XA,53.366367935829600,-1.500957354644730
Triller and Flameback,S18 8ZU,53.301431751147000,-1.500618925541050
Chickadee and Crow,S40 9TQ,53.237881924845900,-1.432586303080850
Parrotbill and Philippine hawk-owl,S41 9PX,53.266669442919700,-1.418696627835050
Petrel and Pitohui,S12 9EN,53.360482000000000,-1.425084000000000
Ibex and Puffleg,S20 5BL,53.323509064234200,-1.368021280225220
Grackle and Moluccan boobook,S2 3RE,53.367545000000000,-1.455422000000000
Civet and Chickadee,S81 7ES,53.321219698172300,-1.131144255715330
B and Pratincole,S21 2DF,53.326650198144200,-1.299494955628140
Grouse and Marmoset,S2 1NU,53.369375109562900,-1.427895580148650
Warbler and Old World quail,S20 5EX,53.326108698434900,-1.368373246186100
Greenbul and Hawk,S26 5PD,53.344083297289200,-1.281965944713610
Recurvebill and Nukupuʻu,S80 4JP,53.265234197027200,-1.223390863396750
Skunk and Tahr,S80 4PP,53.280012760936500,-1.209804845032070
Nukupuʻu and White ibis,S21 4HL,53.313008700533100,-1.344431401663980
Siskin and Linsang,S40 2NJ,53.232430477529600,-1.439309989520990
Francolin and Pheasant,S25 2XT,53.367501922076900,-1.220751330473400
Fox and Francolin,S80 3BF,53.293620272937300,-1.128238589451880
Black jay and Lemming,S43 3PE,53.266551000000000,-1.346911000000000
Booted eagles and Quetzal,S41 0UP,53.255459000000000,-1.414530000000000
Macaw and Macaw,S12 4BW,53.346319716046400,-1.364079078267500
Ibex and Fulmarine petrel,S1 4HL,53.377960046453000,-1.477071107864340
Parakeet and Myna,S49 1YY,53.235338620948900,-1.434597567513740
Ibex and Parrotlet,S2 3GP,53.362551697795600,-1.464517002560890
Diving bird and Mockingbird,S13 7PY,53.358177407542800,-1.362670568929690
Parrotlet and Thrasher,S25 4NZ,53.364413000000000,-1.235054000000000
Booted eagles and Boto,S18 2HD,53.308075541634100,-1.469610779392160
Fulmarine petrel and Kite,S41 9EU,53.264049588530200,-1.427142779708710
Pitohui and Ibex,S40 2PD,53.228913909657700,-1.442741373729590
Night heron and Cloud rat,S42 5LF,53.187032419869600,-1.387403576989760
Black cockatoo and B,S43 4PA,53.269105000000000,-1.256533000000000
Hawaiian honeycreeper and Condor,S25 5JE,53.348034246697800,-1.229398322443570
Old World warbler and Parakeet,S41 9DP,53.268962522342200,-1.433839408745540
Nukupuʻu and Peafowl,S25 4DG,53.353346558751200,-1.218320202786490
Macaw and Old World vulture,S44 6TA,53.213523745258600,-1.265057309724090
Moluccan boobook and Gull,S21 4FJ,53.301157740628000,-1.370466920362700
Zebra and Tahr,S43 3JE,53.246095902182800,-1.370782000000000
Crow and Partridge,S18 1SD,53.299728975827200,-1.468498765052840
Marmoset and Moluccan boobook,S41 8HJ,53.258002276989700,-1.454460553617940
Herring gull and Eagle,S41 7UE,53.239665395147800,-1.418418113125830
Cloud rat and Tahr,S44 6SP,53.224218422407000,-1.288390423911790
Buzzard and Meadowlark,S2 4SE,53.369517529679800,-1.472500373768640
Marmoset and Grosbeak,S10 5SB,53.377756006193600,-1.527325838353290
Hawk and Boto,S10 2DN,53.374547967978400,-1.486191581838480
Pitohui and Mockingbird,S18 1PY,53.302357000000000,-1.475043689188330
Skunk and Warbler,S41 0EF,53.233999342890500,-1.410479647040920
Civet and Elephant,S40 3BA,53.231036717203400,-1.460645684324590
Flameback and Parakeet,S2 4NA,53.366906138088900,-1.475523242115150
Hawk and Siskin,S44 6JW,53.222670595851900,-1.306404498698530
Civet and Wader,S40 4PT,53.247671433810400,-1.465801782454910
Black jay and Vole,NG19 8NZ,53.173256690079800,-1.197404811233930
Old World warbler and Triller,S9 4HB,53.379602574005600,-1.421940885168790
Pheasant and Tree warbler,NG19 8TY,53.183567000000000,-1.252608422161980
Pratincole and Jerboa,S8 0LA,53.345566000000000,-1.495958000000000
Wader and Mink,S11 8QB,53.368642327024700,-1.494603634187190
Argus and Ibex,S12 2QQ,53.349582390941000,-1.431765818980480
Jackal and Duck,S8 9NG,53.348843990728600,-1.466551425307870
Civet and Grosbeak,S11 7LN,53.360550374933200,-1.520243563034330
Moluccan boobook and Wallaby,NG19 8RP,53.180201547586000,-1.213016465477570
Old World vulture and Tit-tyrant,S42 7LB,53.219313993124800,-1.450548908075760
Chickadee and Dorcopsis,S1 2HQ,53.378306000000000,-1.471700000000000
Black jay and Kite,S12 2QU,53.350679923040700,-1.435747241165480
Grackle and Grosbeak,S42 7JA,53.244998511444400,-1.475201011861510
Nukupuʻu and Grouse,S43 1JP,53.259953920532100,-1.402162848279440
Guillemot and Recurvebill,S20 2UA,53.343168474163200,-1.331862931908110
Old World quail and B,S80 4NG,53.279313258447800,-1.203293718134760
Black jay and Magpie,S12 4XY,53.346166536908000,-1.400492382696000
Zebra and Eagle,S12 2GE,53.353810000000000,-1.417152000000000
Marmoset and Rabbit,S1 4FT,53.379876729529300,-1.473454789221230
Siskin and Lemming,S26 2FG,53.360895009076100,-1.303651921963030
Polecat and Black cockatoo,S1 4JA,53.376006782186500,-1.474404387927970
Grosbeak and Elephant,S11 8DL,53.371252000000000,-1.484472000000000
Argus and River dolphin,S41 7AL,53.249736111993100,-1.445498399653730
Darwin's finches and Petrel,S8 7DS,53.329063920214500,-1.492248454709290
Magpie and Black jay,S25 2AU,53.374412000000000,-1.209112000000000
Mink and Stilt,S11 9JG,53.353055438113500,-1.511779378469580
Perching duck and Ice seal,NG20 9AR,53.214679969906000,-1.220651219916840
Tit-tyrant and Tahr,NG20 0DL,53.200394000000000,-1.161928000000000
Parrotbill and Masked owl,S42 5PT,53.185607067908400,-1.381198489364450
Grackle and Perching duck,S41 9DH,53.268468867963200,-1.430217435900310
Linsang and Nukupuʻu,S17 3NG,53.329839494207900,-1.521143556469490
Duck and American sparrow,S13 8RB,53.363082557116200,-1.393207409784580
Piping shrike and Piping shrike,S40 1HZ,53.237112162245400,-1.458426816412370
Coati and River dolphin,S10 2AE,53.373206749700000,-1.499750353700000
Parrotlet and Jackal,S20 4HP,53.321176732377700,-1.348839990864020
Fish eagle and River dolphin,S11 9BA,53.361674283268100,-1.498442649557260
Jay and Tit-tyrant,S8 7DR,53.328783046394600,-1.491726267723620
Peafowl and Nukupuʻu,S81 8PA,53.324675614604500,-1.163277000000000
Macaw and Vole,NG19 8QZ,53.176202095169000,-1.186352944137270
Polecat and Kestrel,S40 3QF,53.236936652985800,-1.467358732538820
Jackal and Linsang,S11 8DS,53.368151000000000,-1.480422000000000
Eagle and Grosbeak,S11 8GT,53.363468915571300,-1.508354000000000
Cuscus and Crow,S43 1AN,53.256223332046600,-1.402124905608360
Logrunners and Dorcopsis,S44 6DZ,53.229378750563000,-1.278028460998440
Marsh harrier and Magpie,S43 3RD,53.258256418976500,-1.362507366337210
Rat and Viscacha,S42 6HF,53.179092460412700,-1.430369531681390
Badger and Hawk,S8 9EH,53.352881000000000,-1.478820000000000
Tree warbler and Mockingbird,S21 1BU,53.315753879428100,-1.309790000000000
Herring gull and Armadillo,S81 9DN,53.355569000000000,-1.122675923816260
Parakeet and B,S41 9HU,53.264260006435600,-1.422312448960420
Petrel and Goose,S8 2JZ,53.350822020800000,-1.484509000000000
Capuchin and Capuchin,S21 1JT,53.322288377904500,-1.311471459617510
Mole and Bronzewing pigeon,S80 1LZ,53.303359608316600,-1.130200000000000
Nukupuʻu and Marmoset,S81 8RR,53.344753996712600,-1.169194305658290
Francolin and Chickadee,S10 5RD,53.375658131996700,-1.524177444419680
Magpie and Tree warbler,S12 3AA,53.343489000000000,-1.402285531449490
Hawaiian honeycreeper and Fox,NG20 8FG,53.198999146328600,-1.231129944334310
Asiatic leopard and Hawk,S11 8BG,53.368665160911900,-1.483136324943960
Petrel and Cloud rat,S10 2NE,53.374064848941200,-1.495155740703090
Petrel and Ice seal,S18 7TP,53.275165028429900,-1.493891796815780
Thrasher and River dolphin,S14 1LQ,53.354968128845200,-1.449347538843760
Maya and Triller,S40 4NJ,53.243317323437000,-1.455096783415980
Wallaby and Pheasant,S44 5TA,53.233537169135000,-1.383084678110880
Night heron and Guillemot,S41 7RW,53.233723165853200,-1.423862037104790
Tree warbler and Mouse,S20 4TU,53.322678616625200,-1.355602932891570
Perching duck and Chicken,S81 7BD,53.318121544544700,-1.132798376459320
Hawk and Skunk,S18 2ET,53.304686076614000,-1.461429240065800
Pratincole and Solitaire,S80 4FL,53.271036094331400,-1.221246457475220
Condor and Black cockatoo,S41 0NB,53.217016295125400,-1.404467824415510
Booted eagles and B,S2 2GD,53.359448000000000,-1.444106000000000
Polecat and Shearwater,S80 4RD,53.282966528692700,-1.207905491980980
Polecat and Parakeet,S44 5EB,53.245033371130200,-1.339326232113520
Prion and Meadowlark,S42 5JD,53.179500802777800,-1.398224171443390
Thrasher and Argus,S8 7JD,53.320069100717400,-1.492940631008320
Myna and Stilt,S26 2FH,53.360365858729700,-1.303855884792750
Siskin and Parrotlet,S40 3JQ,53.221024275576500,-1.451066208805960
Badger and Dolphin,S10 5RA,53.377439240618800,-1.522263576564150
Badger and Perching duck,S41 0PT,53.221003696754100,-1.414612011622760
Stint and Macaw,S18 1SU,53.295677420916100,-1.473095025579840
Francolin and Crow,S41 8HG,53.258137361244200,-1.458461201342960
Fulmarine petrel and Prion,S40 4LN,53.245132433493100,-1.460888144835190
Vulture and Skunk,S40 9SW,53.236730202287000,-1.432346821201320
Asiatic leopard and Tahr,S8 9EQ,53.348990557359300,-1.477335375103860
Hawaiian honeycreeper and Towhee,S43 3PY,53.268255312086300,-1.339958039860240
Vole and Songlark,S44 5AB,53.234021581976100,-1.388126570394970
Parrotlet and Crow,NG20 0RH,53.213530900475600,-1.144629000000000
Argus and Warbler,S17 3PR,53.323137376001900,-1.531081999273780
Guillemot and Logrunners,S2 1LB,53.364682930251600,-1.427883271495820
Skunk and Old World quail,S12 3HL,53.337891334229500,-1.419381038769260
Parrotlet and Skunk,S12 3LN,53.340787712739400,-1.430996556797660
Booted eagles and Fish eagle,S43 9SR,53.271203998600000,-1.268582401800000
Stint and Armadillo,S42 5SF,53.190124460390800,-1.351679468076620
Ice seal and Bunting,NG20 0LB,53.200222791256500,-1.150523734710940
Mink and Hawk,S44 5PN,53.190642015053600,-1.304751115889690
Myna and Recurvebill,S26 5PB,53.347806740481300,-1.282308991156320
Zebra and Kākāriki,S45 9TG,53.171471721100000,-1.406145727300000
Stilt and Siskin,S26 3UF,53.369873129374800,-1.315799658150660
Macaw and Marmoset,S42 7NN,53.223302695315500,-1.465850296670510
Thrasher and Goose,S10 3AG,53.372217474978200,-1.508809000000000
Kestrel and Mink,S43 4FS,53.272884506802200,-1.258821528090790
Tahr and B,S9 4AE,53.378636671675100,-1.397466094071740
Booted eagles and Viscacha,S7 2QJ,53.335545400215600,-1.511784025214190
Macaw and Triller,S2 3QD,53.359333707009000,-1.450658622684590
Nukupuʻu and White ibis,S7 2EQ,53.353967004403600,-1.499644839350910
Prion and Stint,S20 1EY,53.341647514146500,-1.342865951992930
Tit-tyrant and Diving bird,S43 1DP,53.261271963463400,-1.389087074904070
Parrotbill and Duck,S81 9DP,53.355415008422100,-1.125175528887570
Marsh harrier and B,S40 4LH,53.248505804702000,-1.467454925687010
Gull and Mamo,S40 2SN,53.228062899413300,-1.430049680836130
Hawk and Marsh harrier,S8 8LA,53.339755274867300,-1.456542000000000
Masked owl and Linsang,S80 4LP,53.259980807256900,-1.227907000000000
Solitaire and Bronzewing pigeon,S21 4GD,53.306709788915200,-1.358079375500480
Armadillo and Tit-tyrant,S8 0XA,53.357506385005700,-1.482264605631930
Gull and Viscacha,S7 2BZ,53.353229051132400,-1.493043159178890
Siskin and Darwin's finches,S26 4SH,53.362750822711400,-1.337552495755070
Mamo and Magpie,S41 0BU,53.229424410489100,-1.399756759272980
Booted eagles and Egret,S44 5JE,53.236693790288200,-1.344608657840930
Diving bird and Chicken,S41 7NX,53.240270458894800,-1.430172286580730
Civet and Stilt,S2 4BX,53.375478917310000,-1.463048000000000
Thicketbird and Capuchin,S10 3AQ,53.374327799633700,-1.512889000000000
Petrel and Buzzard,S10 3ET,53.372732888392800,-1.512065547254370
Egret and Flameback,S25 2QE,53.369357000000000,-1.203374000000000
Eagle and Marmoset,S8 0LB,53.347057298646400,-1.489512000000000
Bunting and Zebra,S18 8RB,53.300243025468800,-1.500092610980260
Jerboa and Moluccan boobook,S80 1BE,53.297912000000000,-1.128586000000000
Wader and B,S20 4AH,53.318806000000000,-1.343893000000000
Prion and Zebra,NG19 9ES,53.171739048994600,-1.176548633148050
Towhee and Pheasant,S20 5DW,53.327298150914000,-1.358806503980280
Parakeet and Ibex,S13 7RR,53.360828725735800,-1.362600972747930
B and Mouse,S43 3EG,53.250118959716800,-1.368803092814360
Goose and Macaw,NG20 0LT,53.204218803742700,-1.152465903549780
Piping shrike and Hawaiian honeycreeper,S25 4AP,53.363965707904400,-1.216082182759400
Chicken and Black jay,S40 1HP,53.238688444641700,-1.453222694358630
Crow and Cuscus,S2 4ER,53.367665664607700,-1.462378968547420
B and Grosbeak,S11 8QL,53.368045196287800,-1.497947060645950
Myna and Myna,NG20 8RS,53.198291087591500,-1.212176323030390
Mouse and Prion,S42 7DT,53.225918145108800,-1.486233961347100
Vole and Wallaby,S9 4GW,53.379595435366300,-1.420467769198970
Jerboa and Thicketbird,S8 8SH,53.342179701039700,-1.469773654335870
Viscacha and Kite,S12 3HJ,53.340321837339000,-1.421961340419610
Maya and Kestrel,S41 9QB,53.275418000000000,-1.461197000000000
Marmoset and Warbler,S41 7TQ,53.235338620948900,-1.434597567513740
Jay and Boto,S40 4XH,53.246305455114400,-1.476009258578120
Masked owl and Cuscus,S10 9HE,53.379222000000000,-1.516125000000000
Zebra and Black cockatoo,NG20 9LE,53.241818291029000,-1.123597145704050
Coati and Elephant,S40 2DT,53.231751237468300,-1.451753025856680
Asiatic leopard and Towhee,S10 5SG,53.379489770074700,-1.522541293051380
Armadillo and Diving bird,S11 9BE,53.364167253362600,-1.501328683823170
Kestrel and Linsang,S13 8PU,53.365996615974800,-1.395315029213390
Pratincole and Diving bird,S1 4DB,53.379693668877700,-1.474749865192380
Partridge and Marmoset,S8 9BH,53.349415247212500,-1.471711909109770
Mamo and Chipmunk,S43 2JU,53.264982372114300,-1.381717836352450
Skunk and Duck,S41 0FR,53.238028699027200,-1.416432548498520
Guillemot and White ibis,S13 8AD,53.362307075116200,-1.417997463602970
White ibis and Quetzal,S18 8AB,53.310256000000000,-1.512793000000000
Piping shrike and Vole,S41 0LF,53.220671623078100,-1.402035786845100
Fox and Booted eagles,S13 7LN,53.360895574747900,-1.368415131854270
Towhee and Chipmunk,S43 3AY,53.276619471551500,-1.323107926459200
Partridge and Shearwater,S8 0XJ,53.362389552984500,-1.474556863132080
Triller and Songlark,S41 0HL,53.227502423324900,-1.409085877138080
Tattler and Old World quail,S43 4WL,53.283660058964500,-1.286473694216760
Snipe and Scimitar babbler,S81 7RN,53.330082896603400,-1.132390710777240
Vulture and Marsh harrier,S40 4AT,53.240329464898700,-1.444586038461250
Mockingbird and Pitohui,S44 5PX,53.190419805630000,-1.285417818155380
Buzzard and Perching duck,S40 4PP,53.241769936572100,-1.464736420819390
Puffleg and Scimitar babbler,S20 5DA,53.321952724521000,-1.359351993065230
Goose and Zebra,S10 2DY,53.375828515719400,-1.491362012855840
American sparrow and Rabbit,S7 2BW,53.353842676133700,-1.493606781270140
Rabbit and Dolphin,S81 7RW,53.331318518909800,-1.126794680779390
Piping shrike and Kangaroo,S26 5QS,53.343128452017200,-1.278647524345490
Pratincole and Crow,S41 9AJ,53.262076000000000,-1.429538000000000
Rabbit and Stilt,S18 1UU,53.295150460422400,-1.471826245563780
Badger and Philippine hawk-owl,S21 2EA,53.326762169987600,-1.306354658129390
Rat and Vole,S11 9LA,53.348301053859800,-1.511938820724200
Civet and Treepie,S7 1SH,53.357446000000000,-1.490963398091940
Badger and Kestrel,S81 7PN,53.326267916416200,-1.123279329564500
Grackle and Jay,NG20 0JQ,53.197871940561700,-1.149866638046560
Cloud rat and Puffleg,S40 1TW,53.235817353431700,-1.429422350701200
Hawk and Linsang,S2 4EE,53.371327509632900,-1.467157462367450
Myna and Puffleg,S13 7ET,53.357650768778400,-1.376997341792930
Old World vulture and Thrasher,NG20 0QX,53.209132412536500,-1.141932582796730
Mink and Stilt,S41 0TT,53.226483140802300,-1.417503182715780
Pratincole and Fish eagle,S43 4GG,53.275485000000000,-1.261385000000000
Old World vulture and Masked owl,S43 3SA,53.259818571859800,-1.370609155215350
Chickadee and Civet,S13 8RA,53.362698024198400,-1.391830399820460
Magpie and Cuscus,S40 3JX,53.230755914569000,-1.466162058778900
Goose and Kangaroo,NG20 9ET,53.229787000000000,-1.200974506242740
River dolphin and New World blackbird,S2 1JP,53.366233425905800,-1.428809277894930
Wallaby and Minke whale,S10 2FF,53.378527554997100,-1.485632605507020
Booted eagles and Tahr,S18 7WN,53.282536079088100,-1.522287167855620
Quetzal and Thrasher,S81 7DY,53.325933944925400,-1.130462957621660
Puffleg and Rabbit,S44 5UN,53.233200347532000,-1.373651185852130
Nukupuʻu and Warbler,S43 3GB,53.245251495913500,-1.376502409403440
Philippine hawk-owl and Vulture,S43 3ND,53.257671203591100,-1.358978413850450
Masked owl and Civet,S17 4LZ,53.320755790486100,-1.515435538423000
Argus and Piping shrike,NG19 8RX,53.177751000000000,-1.191828000000000
Capuchin and Guillemot,S12 3JG,53.336438137774900,-1.421848635318090
Coati and Treepie,S43 1DX,53.259008000000000,-1.387305000000000
Kestrel and Mockingbird,S42 5LL,53.178304977283800,-1.391088904810870
Triller and Fox,S43 3DG,53.253968796677200,-1.365898586922660
Piping shrike and Old World quail,S11 9HD,53.352415000000000,-1.504335000000000
Night heron and Black cockatoo,NG19 7RD,53.169615000000000,-1.240975000000000
Bronzewing pigeon and Goose,S43 4QF,53.276597204554600,-1.270529774435950
Wallaby and River dolphin,S17 4PY,53.321295310127800,-1.508765000000000
Badger and Condor,S42 7EA,53.224087392776900,-1.491123782251520
Pheasant and Pratincole,NG20 8XB,53.203181000000000,-1.189226000000000
Kite and Grouse,S44 5UA,53.239001573140300,-1.384654326715340
Ice seal and Chicken,S25 4FL,53.361513662344200,-1.219117466202400
Polecat and Peafowl,S13 8DY,53.366084346130500,-1.412896592204470
Elephant and Triller,S10 2QN,53.373988096948700,-1.500297000000000
Night heron and Linsang,S10 5FR,53.379551000000000,-1.517339000000000
Old World warbler and Diving bird,S41 7HS,53.245935423871900,-1.436256265200080
Fulmarine petrel and Thrasher,NG19 9HE,53.170220106739900,-1.172688177406720
Dolphin and Towhee,NG20 8AQ,53.203180277155200,-1.213404154871950
Fulmarine petrel and New World blackbird,S18 1NL,53.291163472698100,-1.458208000000000
Bronzewing pigeon and Piping shrike,S40 4JP,53.246788469376200,-1.451485999667510
Booted eagles and Vulture,S13 8AR,53.362401794265500,-1.415306388349570
Booted eagles and Buzzard,S7 2EJ,53.354601329261300,-1.498720954674030
Scimitar babbler and Badger,S45 0DU,53.169966025348600,-1.493514228532170
White ibis and Tree warbler,S18 9DQ,53.300027000000000,-1.452695000000000
Vole and Black jay,S40 1DF,53.237006535950500,-1.443295567219970
Grosbeak and Towhee,S2 4FS,53.370224000000000,-1.465307000000000
Coati and Grosbeak,S8 9EB,53.353203018008600,-1.480709218251810
Parrotlet and Thrasher,S42 5RS,53.190165398023600,-1.354253087971490
Mink and Fox,S42 6UT,53.197411686850400,-1.432177567945540
Tahr and Crow,S26 5NY,53.342224755734000,-1.277851703750850
Cloud rat and Zebra,S25 5HP,53.342963212507000,-1.223646918763690
Ice seal and Warbler,S10 5RE,53.375579630919100,-1.524779570726410
Booted eagles and Black cockatoo,S43 4RZ,53.276059225767600,-1.249018856744530
Treepie and Songlark,S42 7LH,53.208604557295600,-1.479808013602980
Ibex and Ground sloth,S41 8LF,53.255295304900000,-1.428503958300000
Argus and Kite,S44 6SF,53.235422539809900,-1.301194372708930
Booted eagles and Cloud rat,S8 0NH,53.348993118515600,-1.484125274497240
Scimitar babbler and Darwin's finches,S25 4FU,53.354250217747300,-1.225950910302260
Grosbeak and Myna,S40 9PH,53.235358000000000,-1.434581000000000
Badger and Macaw,NG20 9NP,53.242378000000000,-1.175523000000000
Pitohui and Songlark,S2 2BQ,53.356898237177800,-1.448811829887540
Grackle and Night heron,S12 2UB,53.353129312623300,-1.427241677599420
Hawaiian honeycreeper and Chipmunk,S21 4GW,53.310261982497700,-1.366791052901500
Maya and Black jay,S44 6FT,53.226143000000000,-1.273423000000000
Goose and Cuscus,S40 3SH,53.233658908956600,-1.462065956539120
Grouse and New World blackbird,S43 4EG,53.290268447701200,-1.292769275993370
Badger and Grackle,S2 2BR,53.356620365442800,-1.448980684792350
Boto and B,S17 4HB,53.315514169017600,-1.530895323200560
Snipe and Kākāriki,S44 6AA,53.260683901129600,-1.286406296914350
Tahr and Maya,S21 1GT,53.317876147825500,-1.322695747150620
Greenbul and Peafowl,S13 8EN,53.367573637594300,-1.406864702820150
Kestrel and Kangaroo,NG20 0SL,53.213450255821500,-1.149887805627160
White ibis and Meadowlark,S8 7HH,53.320672755955300,-1.486958696500280
Black cockatoo and Thicketbird,S40 4RY,53.248393984163200,-1.464563876196670
Thicketbird and Black jay,S26 1JB,53.352017115191600,-1.260800182495280
Minke whale and Myna,S18 1UF,53.294062993520300,-1.465808567879170
Minke whale and Macaw,S43 3HU,53.247560834708100,-1.372917052996550
Cloud rat and Rat,S45 9DP,53.171343015524500,-1.415332715807430
Nukupuʻu and Jay,NG20 0SD,53.213125208199900,-1.148577000000000
Towhee and Viscacha,NG20 0DZ,53.205127611131600,-1.161491002708580
Recurvebill and Viscacha,S81 7NQ,53.328526900728700,-1.133503358323140
Herring gull and Shearwater,S80 1SH,53.308197536113100,-1.124159743245710
Buzzard and Perching duck,S8 2LH,53.350856000000000,-1.484508000000000
Ground sloth and Fulmarine petrel,S44 5LY,53.190064396436900,-1.298220093622960
Rat and Egret,S43 2BA,53.275207246584400,-1.405594200197260
Rabbit and Thicketbird,S18 4DG,53.284714984512500,-1.442315990654500
Ibex and Tahr,S40 2NW,53.217377522146200,-1.440060589146470
Chickadee and Siskin,S13 8HG,53.374989399651000,-1.397893329056280
Parrotlet and Kangaroo,S42 6LS,53.182780000000000,-1.420952000000000
Meadowlark and Vulture,S14 1LU,53.352656772345600,-1.449076847971560
Rat and Pheasant,S8 8PX,53.347267121044000,-1.469725587714420
Recurvebill and Quetzal,S21 1HE,53.322362036973400,-1.322774870812500
Puffleg and Philippine hawk-owl,S40 3BJ,53.231405919637300,-1.460790854511500
Coati and Jackal,S81 9HE,53.362337232672800,-1.126506432960330
Wallaby and Petrel,S42 6NY,53.202930932626100,-1.420966316819110
Dorcopsis and Ibex,S3 7QW,53.378867844728700,-1.483253375249510
Polecat and Dorcopsis,S12 3DE,53.346602089401000,-1.413990319384350
Macaw and Armadillo,S42 5WA,53.184748100900000,-1.384683000000000
Night heron and New World blackbird,S80 1UX,53.299321726165700,-1.125903000000000
Booted eagles and Boto,S41 8DD,53.261494000282100,-1.449469008703830
Pheasant and Hawk,NG20 9PN,53.224161449174900,-1.126968269889780
Stilt and Mouse,S2 4RB,53.371896000000000,-1.473552000000000
Chipmunk and Solitaire,S2 1BL,53.363599000000000,-1.424606000000000
Zebra and Parrotlet,S8 0JR,53.349802762720200,-1.488456935674170
Fish eagle and Minke whale,S21 3WL,53.291773277142300,-1.326018921341430
Polecat and Parrotbill,S20 7NL,53.340853674782100,-1.355539345878340
Chipmunk and Old World warbler,S18 2FX,53.305726713447700,-1.458985051032800
Civet and Boto,S13 8TP,53.368976920700400,-1.392762990435050
Perching duck and Jerboa,NG20 8QQ,53.207261757598200,-1.228601461134760
Coati and Marsh harrier,S44 5AZ,53.238458417673000,-1.389157106185470
Egret and Thrasher,S21 1DJ,53.322767370864700,-1.316613173017830
Rabbit and Grosbeak,S25 4FA,53.361854842070000,-1.217683692303020
Stilt and Black jay,S43 3UR,53.266973615884000,-1.353771614716160
Badger and Shearwater,S12 4LE,53.343643308628800,-1.376435426374770
Solitaire and Fish eagle,NG20 0SW,53.213920014000300,-1.156542368181730
Wallaby and Petrel,S41 0UQ,53.255991000000000,-1.414883000000000
Wader and Macaw,S26 6RJ,53.342369121163000,-1.266148831322200
Kangaroo and Francolin,NG20 0HS,53.195590000000000,-1.148624000000000
New World blackbird and Kestrel,S43 2PY,53.274723318731500,-1.377678387713510
Guillemot and Chicken,S21 4GU,53.310358796396700,-1.371502286158730
Treepie and Marmoset,S21 1GR,53.318431652605100,-1.323962921068570
Asiatic leopard and Partridge,S12 2UE,53.352124365204800,-1.427962000000000
Capuchin and Tattler,S20 1BJ,53.348930321493200,-1.344842071369520
Tattler and Pratincole,S13 7QH,53.359070565232300,-1.364971191270880
Condor and Night heron,S20 4TH,53.325135110766900,-1.354409882930240
Guillemot and Grouse,S43 3SW,53.254532384109900,-1.370476871880690
Siskin and Rabbit,S11 8RW,53.370111524015800,-1.504144943824850
Chipmunk and Kangaroo,S25 4EN,53.353764971461200,-1.213595053336540
Scimitar babbler and Boto,S41 7EF,53.248458773465700,-1.430048565683910
Skunk and Myna,S40 1JP,53.236960666574700,-1.429781722958880
Prion and Hawk,S21 1EA,53.326832520094600,-1.313860677491220
Meadowlark and Quetzal,S81 7PA,53.321855372409200,-1.124645835274210
Nukupuʻu and Petrel,S2 2EZ,53.360021888754900,-1.432513543299460
Condor and Shearwater,S26 4SY,53.359509010179600,-1.330059809632700
Badger and Coati,S21 1BY,53.320446091325000,-1.319382440901070
Herring gull and Philippine hawk-owl,S42 6DP,53.191177195819700,-1.416230467065900
Pratincole and River dolphin,S43 3PU,53.267093895005500,-1.341250354123850
Solitaire and Diving bird,S8 7FS,53.323543177595300,-1.491863569812280
Gull and Solitaire,S44 5GA,53.192006739030300,-1.304474604970360
Jerboa and Dorcopsis,S41 8WY,53.250674489817700,-1.458000858746340
Quetzal and Condor,S40 2FR,53.228829209428800,-1.424901398192600
Rabbit and Egret,S8 0BH,53.335716000000000,-1.490067000000000
Black cockatoo and Argus,S8 9NF,53.350697992279600,-1.463058074843220
Jay and Triller,S80 1UJ,53.311691000000000,-1.129777000000000
Chickadee and Scimitar babbler,S17 3QH,53.321076493056100,-1.528177212675660
Old World vulture and Old World warbler,S2 1BX,53.363759000000000,-1.422275000000000
Vole and White ibis,S40 3BX,53.225899716280900,-1.451812751408360
Nukupuʻu and Parrotbill,S12 4AS,53.349135166560400,-1.362760318046920
Rat and Badger,S26 3RJ,53.373856745127200,-1.320801237129580
Night heron and Jay,S20 4HL,53.322467426555500,-1.351462594368250
Marsh harrier and Cloud rat,S40 2BH,53.233309287685300,-1.448497134160690
Fish eagle and Flameback,S2 3AG,53.359878190551000,-1.467675870343040
Diving bird and Jerboa,S80 4RR,53.283040251538200,-1.205474280733280
Pheasant and Meadowlark,S42 6YA,53.186791091717400,-1.410857613650280
Fox and Kite,S40 9NQ,53.235341996600000,-1.434597691600000
Grackle and Chipmunk,S21 1SX,53.322945185121200,-1.324161844980190
Macaw and Songlark,S43 3HQ,53.249695852726700,-1.373800070823960
Kākāriki and Myna,S8 7TG,53.331157052040100,-1.483574570662710
Old World quail and Kangaroo,S42 6RY,53.206367267927900,-1.448034447745900
Elephant and Bronzewing pigeon,S40 2EQ,53.225809623682800,-1.425046688507820
Pratincole and Francolin,S10 3GN,53.371536580714800,-1.522706000000000
Diving bird and Crow,S18 4AE,53.297887000000000,-1.448611000000000
Ground sloth and Moluccan boobook,S41 7PQ,53.240482884452100,-1.429480203176680
Booted eagles and Peafowl,S12 4HW,53.345182129712300,-1.381955624665350
Night heron and Goose,S2 2TP,53.373390000000000,-1.461989813043780
Diving bird and Viscacha,S10 3BU,53.375206269198000,-1.514774000000000
Cuscus and Fish eagle,S41 8BQ,53.263595000000000,-1.450611000000000
Black jay and Chickadee,S13 8NJ,53.371517417602400,-1.392110647030810
Philippine hawk-owl and Stint,S41 9RB,53.265639489925300,-1.438246179309180
New World blackbird and Goose,S2 3BD,53.358000284603900,-1.461824427046770
Thicketbird and Logrunners,S21 3UA,53.293327740702800,-1.314862564401370
Macaw and Tattler,NG20 8NY,53.203300817536700,-1.227714408332690
Myna and Dorcopsis,S21 4AP,53.301707777898500,-1.372499576036550
Minke whale and Wader,S7 2ER,53.354065179727600,-1.501626823965830
Chicken and Songlark,S11 7AT,53.365775350386600,-1.509800655556330
Lemming and Macaw,S9 4GD,53.378064000000000,-1.415919000000000
Civet and Black cockatoo,S10 5BQ,53.377887000000000,-1.503755517765370
Greenbul and Towhee,S45 9NJ,53.170022897489200,-1.408304756808990
Mink and Armadillo,S17 9DL,53.326133361700000,-1.517356660300000
Masked owl and Boto,S12 4LX,53.346301696521400,-1.374278678965060
Triller and Petrel,S18 4AQ,53.292090451268200,-1.447170653885510
Meadowlark and Boto,S40 9LG,53.235358000000000,-1.434581000000000
Mamo and Siskin,S3 7RX,53.379881092514200,-1.480610368126240
Old World vulture and Viscacha,S1 4AN,53.378236697600000,-1.473790859800000
American sparrow and Jay,S11 8TY,53.365059407758200,-1.506202244083860
Herring gull and Maya,S8 0UU,53.354782275967400,-1.484220673792490
Thrasher and Badger,S12 2TQ,53.355801000828500,-1.431427732460090
Grouse and B,S11 9HE,53.352778487621300,-1.505638018666420
Mamo and Treepie,S43 3TE,53.258034419082200,-1.371489775280990
Wader and Eagle,NG19 8HE,53.170267929813400,-1.196757459179810
Kestrel and Songlark,S80 2AR,53.304103252465200,-1.122352680066800
Fish eagle and Black cockatoo,S18 2AA,53.300026088342000,-1.452695028454180
Siskin and Moluccan boobook,S41 0QZ,53.222511000000000,-1.419397381028640
Egret and Myna,S81 7AY,53.318190000000000,-1.139582000000000
Black jay and Jay,S18 1QB,53.301569721409700,-1.473038000000000
Old World warbler and New World blackbird,S11 8AS,53.367359695859300,-1.484730102795850
Piping shrike and Snipe,S8 8BS,53.327015000000000,-1.467333000000000
Kestrel and Badger,S18 8PT,53.299022988556600,-1.492154507828500
Tit-tyrant and Prion,S7 1RE,53.356727760012500,-1.485128728004640
Herring gull and Recurvebill,S2 1RX,53.376373000000000,-1.422992000000000
Old World vulture and Marsh harrier,S40 3HX,53.224811740870800,-1.445910131731000
Coati and B,NG20 8DS,53.199859874752300,-1.230785206828570
Mouse and Booted eagles,S80 4RF,53.285770215389200,-1.209128659951590
Chipmunk and Dolphin,S41 7PH,53.240996248231700,-1.431571162071290
Kangaroo and River dolphin,S11 9QY,53.346111000000000,-1.528006000000000
Kangaroo and Hawk,NG20 8AF,53.204032941139400,-1.211846487137480
Vole and Lemming,S12 2EF,53.354881569483700,-1.412329328992790
Darwin's finches and Francolin,S2 1UX,53.377085208801000,-1.433204000000000
Badger and Buzzard,S42 6SJ,53.206386806208200,-1.446432184875450
Solitaire and Rabbit,S20 1AN,53.350919621949500,-1.342077440817140
Old World vulture and Marsh harrier,S25 4JF,53.358430776128400,-1.227452861004890
Stilt and Coati,S11 9HH,53.354304587144800,-1.507333085252100
Hawk and Tit-tyrant,S43 1RE,53.262248000000000,-1.393313000000000
Songlark and Francolin,S20 1BG,53.350936386387300,-1.345126802945360
Partridge and Scimitar babbler,S40 2QU,53.233490333810500,-1.452674654457820
Goose and Ground sloth,S2 5GD,53.375701012781300,-1.442646838834680
Kestrel and Tit-tyrant,S41 7QA,53.241411140483700,-1.431865353431810
Fox and Guillemot,S41 9FG,53.266912493288400,-1.447135470810560
Tahr and Parrotbill,S7 1NJ,53.363644517714100,-1.486157398117910
Philippine hawk-owl and Eagle,S26 4RZ,53.361711320496100,-1.317372910923740
Mole and Snipe,S41 0AQ,53.221990250280200,-1.410509696778850
Nukupuʻu and Coati,S45 9NH,53.169938062862900,-1.407513074478660
B and Kākāriki,S12 2FS,53.358080826237200,-1.423238716513400
Meadowlark and Diving bird,S11 8FR,53.370443075298000,-1.482709017773980
Nukupuʻu and Bunting,S26 6RD,53.340896392434300,-1.270785031935070
Recurvebill and Dorcopsis,S20 5FN,53.328985000000000,-1.359607000000000
Diving bird and Argus,S13 7LY,53.357653000000000,-1.372039000000000
Hawaiian honeycreeper and Diving bird,S10 5RZ,53.379083385968200,-1.524319674762410
Bronzewing pigeon and Old World quail,S40 2BX,53.235075921156800,-1.443725119207790
Parrotbill and Linsang,S13 7LF,53.359930738450200,-1.369541308936510
Stilt and Dolphin,S10 9HD,53.379222000000000,-1.516125000000000
Rabbit and Siskin,NG19 7SQ,53.172366000000000,-1.245235000000000
Shearwater and Logrunners,S42 6LJ,53.194989547127500,-1.435098404181820
Masked owl and Tattler,S26 4SN,53.367696790825500,-1.325092180150380
Dorcopsis and Francolin,S2 2GL,53.360933220392500,-1.440871034989630
Vulture and Fish eagle,S80 1EL,53.305289752190300,-1.126020066380390
Marsh harrier and Rat,S11 8BL,53.369078034505900,-1.482996068649500
Mockingbird and Quetzal,S20 5EL,53.328554431609700,-1.363442288156150
Bronzewing pigeon and Gull,S41 8HX,53.259487573497600,-1.445177465401890
New World blackbird and Lemming,S43 2JN,53.262069838874200,-1.376512778361070
Polecat and American sparrow,NG20 9RT,53.209062082020500,-1.212487920338980
Vole and Pratincole,S20 5DP,53.323604230492400,-1.360573357357200
Masked owl and Dolphin,S81 8DL,53.344022060719900,-1.134332000000000
Tit-tyrant and Songlark,S26 2FX,53.360344421839800,-1.306350567034560
Dolphin and Pheasant,S44 6TQ,53.213317280928200,-1.256526000000000
Hawk and Argus,NG20 9AF,53.213702023098800,-1.216820433648190
Marsh harrier and Petrel,S11 8YU,53.365156486796100,-1.497154481995220
Ice seal and Greenbul,S43 3AB,53.275487951074100,-1.321716142459740
Night heron and Kangaroo,S10 2FL,53.377497207330000,-1.486006000000000
Jay and Mockingbird,S18 7SJ,53.271984171876000,-1.496298547587820
Condor and Mole,S25 2AB,53.372983618933100,-1.210716000000000
Diving bird and Shearwater,NG19 9QX,53.175229064730600,-1.178172471092900
Macaw and Quetzal,S8 8TD,53.346527000000000,-1.476870000000000
B and Tree warbler,S18 8YW,53.300709747064200,-1.506404271155520
Goose and Booted eagles,S10 2SG,53.377452000000000,-1.494469000000000
Civet and Asiatic leopard,S11 0GP,53.363523000000000,-1.508338000000000
Tree warbler and Thrasher,S11 7AD,53.368391783891400,-1.516413000000000
Mouse and Bronzewing pigeon,S17 4DY,53.318579800101700,-1.528730127989440
Solitaire and Snipe,S12 4QQ,53.345612538001600,-1.395798626882950
Booted eagles and Chickadee,S17 4PQ,53.319641701048000,-1.508963122650730
Civet and Pratincole,NG20 8AH,53.204467000000000,-1.213381000000000
Boto and Old World warbler,NG19 8QP,53.176343806468400,-1.190000951969010
Buzzard and Petrel,S40 1EA,53.234212349554800,-1.449399422135650
Jerboa and Old World quail,S43 2PE,53.270425000000000,-1.377231000000000
Zebra and Treepie,S26 7YA,53.317985010973200,-1.262213775774920
Eagle and Chipmunk,S13 9XR,53.368446439213000,-1.358354367273430
Myna and Solitaire,S25 4GW,53.350999599503700,-1.209995367943290
Perching duck and Goose,S7 2DS,53.355301847608300,-1.498577521975640
Partridge and Peafowl,S40 3EE,53.226162335683100,-1.450522000000000
Nukupuʻu and Black cockatoo,S41 9AS,53.275129372638500,-1.459131340973340
Old World vulture and Fish eagle,S1 2LR,53.377834000000000,-1.470623000000000
Peafowl and Ground sloth,S80 3FF,53.310613000000000,-1.163418000000000
Greenbul and Scimitar babbler,S2 1RJ,53.374915249219500,-1.426663977151770
Tattler and River dolphin,S20 8NA,53.333013022586800,-1.346827809159290
B and Mockingbird,S20 7HA,53.334858803378900,-1.352340933173440
Capuchin and Diving bird,S44 6JP,53.223700919979100,-1.304275927837530
American sparrow and Old World quail,S42 6UY,53.198303892507800,-1.432659768775660
Triller and Night heron,S17 9DN,53.326133361700000,-1.517356660300000
Grouse and Meadowlark,S17 4LW,53.320393898233000,-1.517075932915650
Black cockatoo and Booted eagles,S25 3QH,53.377096000000000,-1.232076000000000
Mockingbird and Fox,S2 1HL,53.365938230026300,-1.430992279576530
Parakeet and Grouse,NG19 8PA,53.174222301503600,-1.199301815266100
Puffleg and Cuscus,S26 4NE,53.361050471025000,-1.316557019827390
Logrunners and Magpie,S40 2PQ,53.230542155610200,-1.441087367147960
White ibis and Triller,S80 4TU,53.281588158690900,-1.202051537106400
Parrotlet and Thicketbird,S25 3RX,53.376507719284600,-1.234491474730140
Guillemot and Stint,S40 2RY,53.224861697528000,-1.431694868521290
Armadillo and Tit-tyrant,NG19 8EU,53.169215120993400,-1.196597601704910
Perching duck and Buzzard,S41 9RT,53.271690000000000,-1.449848000000000
Jerboa and Moluccan boobook,S7 1NX,53.363299980276200,-1.487559051963070
Vole and Songlark,S13 7SE,53.356870746676700,-1.367122379474570
Bunting and Kestrel,S7 2GF,53.349621136621400,-1.500762275939280
Mouse and Dorcopsis,S11 8BS,53.371366000000000,-1.483885000000000
Kite and Kākāriki,S12 4EH,53.346759758868600,-1.381106649379340
Vulture and Parakeet,S2 4AW,53.373664000000000,-1.466813000000000
Thrasher and Rabbit,S12 3AB,53.343086000000000,-1.402625745844430
Coati and Night heron,S42 5NZ,53.181027722554100,-1.389150024331300
Argus and Old World vulture,S25 2PG,53.366445624861300,-1.199670807450370
Argus and Lemming,S18 8NR,53.304354000000000,-1.487739000000000
Cuscus and Gull,S81 8BQ,53.339296825337800,-1.165200198595370
Badger and Dolphin,S12 3DG,53.348432137837700,-1.415076849611230
Towhee and New World blackbird,S18 2FG,53.308951185197900,-1.464407191906460
Diving bird and Vole,NG20 8PP,53.204781333764100,-1.223151374299310
Ibex and Coati,S11 7AX,53.367046887723600,-1.510807992056020
Siskin and Boto,S42 5HU,53.174540000000000,-1.392848000000000
Solitaire and Tit-tyrant,S25 2SL,53.366790544337700,-1.205555505826700
Chickadee and Pheasant,S13 7PW,53.356967208256800,-1.359924041454430
Masked owl and Crow,S12 4SJ,53.352044607108500,-1.402167649138450
Macaw and Scimitar babbler,S42 6TZ,53.198458215033300,-1.438675398467420
Civet and Piping shrike,S43 2BJ,53.272942873750600,-1.402161670873650
Old World vulture and Lemming,S43 4JF,53.286303116695000,-1.291049717387500
Jackal and Chicken,S21 2JH,53.331234337865300,-1.304270000000000
Jay and Masked owl,S8 8RG,53.342467058167400,-1.471737669952930
Minke whale and Booted eagles,S2 1JD,53.364465630896200,-1.429434008441860
Lemming and Cuscus,S10 3HJ,53.372405355290600,-1.526514000000000
Tattler and Coati,S8 9DL,53.352666886546300,-1.477426000000000
Bunting and Thrasher,S45 0LX,53.197450763800000,-1.509012819500000
Maya and Petrel,S40 2SF,53.223146642360800,-1.428317572257000
Greenbul and Piping shrike,S41 0LZ,53.216198430023800,-1.404494138006400
Siskin and Meadowlark,S26 6PB,53.334539000000000,-1.241400000000000
Tit-tyrant and Jerboa,S12 4SN,53.352696488050100,-1.403105001701320
Petrel and Vulture,S40 9JR,53.235341996600000,-1.434597691600000
Darwin's finches and Civet,S40 4EQ,53.243863493207400,-1.446818046645590
Ice seal and Magpie,S13 8HZ,53.370178215140700,-1.395676663761880
River dolphin and Coati,S18 7WL,53.282776515460700,-1.526229148749110
Cuscus and Grouse,S43 3XL,53.262966245132800,-1.360758262035460
Eagle and Francolin,S44 5HS,53.242580000000000,-1.329519000000000
Pheasant and Coati,S41 7HZ,53.250228348844700,-1.427911837707270
Recurvebill and Mouse,S18 8NJ,53.302191035309000,-1.482618437946870
Polecat and Dolphin,S13 9BP,53.372054725534800,-1.388195161161730
Siskin and Kite,S12 4JZ,53.343987145163800,-1.378727000000000
Capuchin and Old World warbler,S43 1DQ,53.258485968282500,-1.382216224585450
Piping shrike and Kestrel,S42 5SZ,53.181297417367200,-1.355029659985430
Goose and Kite,S21 4HX,53.304827176019100,-1.367441675819890
Philippine hawk-owl and Vole,S18 8WS,53.302739255220000,-1.508106538181700
Puffleg and Black jay,S11 9DJ,53.362910866723700,-1.495392711259180
Francolin and Wallaby,S41 9NU,53.268040481598800,-1.419157000000000
Armadillo and Greenbul,S21 1JF,53.322267378541800,-1.314068997207270
Minke whale and Elephant,S14 1BF,53.342956696700000,-1.438447765500000
Moluccan boobook and Petrel,S40 3SR,53.230023469935600,-1.473271828497030
Viscacha and Lemming,S11 8RU,53.370571000000000,-1.501945000000000
Capuchin and Pratincole,S13 7PX,53.357564775373900,-1.362409253949850
Prion and Cloud rat,S11 0FU,53.363472392800000,-1.508354000000000
Shearwater and Kite,S10 5TL,53.378387618150400,-1.532504985383330
Lemming and Shearwater,S2 3BR,53.366677000000000,-1.452307000000000
Triller and Vulture,NG19 7PD,53.174467927466500,-1.250898241431980
Bunting and Egret,S40 4QL,53.243981580182300,-1.460827675628160
Grosbeak and Solitaire,S8 9QQ,53.357847382794100,-1.474133000000000
Treepie and Kākāriki,S40 4EX,53.246573246188000,-1.449645460845750
Thrasher and Mamo,S8 8FR,53.324738932825800,-1.465170467105330
Grosbeak and Thicketbird,NG19 8TL,53.183539309283200,-1.256860626334610
Black jay and Polecat,S20 1EB,53.347653973529500,-1.335354000000000
Prion and Scimitar babbler,S26 5QF,53.341648063303300,-1.286587802005070
Ice seal and Dolphin,S40 2FP,53.229038685509400,-1.425467832280250
Rat and Linsang,S40 1GA,53.233987000000000,-1.448892000000000
Linsang and Thicketbird,S13 7TS,53.363251810044500,-1.361873580390420
Marsh harrier and Hawaiian honeycreeper,S40 4ET,53.245264186359700,-1.448418440718810
Marmoset and Pratincole,NG20 9EP,53.229803624546500,-1.201605000000000
Ice seal and Boto,S80 3EZ,53.311326045069000,-1.140275492162210
Night heron and Thrasher,S7 2GQ,53.349274439454500,-1.503845845587020
Rat and B,S12 2AZ,53.359145221346800,-1.418582000000000
Logrunners and Booted eagles,S8 0DY,53.336750327111600,-1.492652000000000
Parrotbill and Old World vulture,S21 5SA,53.304808007161200,-1.394948931604970
Solitaire and Capuchin,S81 8RY,53.345162725103500,-1.168510421912150
Old World vulture and Piping shrike,S2 3AF,53.359957744739600,-1.467374362700050
Hawaiian honeycreeper and Greenbul,S8 9NQ,53.348399433251700,-1.463627726449910
Grackle and Masked owl,S11 7AN,53.364884153204800,-1.509480273450130
Stilt and Thrasher,S42 6YG,53.185754347276300,-1.412069009013590
Mouse and Darwin's finches,S40 4JE,53.246449541864400,-1.454022974513520
Jerboa and Black jay,S43 3PW,53.267957033653300,-1.344550690766940
Wader and Jackal,S26 3XW,53.375507076547800,-1.317017134083850
Recurvebill and Vulture,S2 3EY,53.359973559157400,-1.464879875814420
Moluccan boobook and Macaw,S18 7WX,53.296844093710000,-1.515060908352740
Buzzard and Rat,S13 7RX,53.355810771643700,-1.358829550987470
Pitohui and Recurvebill,S10 2DG,53.374231000000000,-1.485489000000000
Marmoset and Pheasant,S10 5TJ,53.378300733032300,-1.533272581087240
Viscacha and Snipe,S40 9UB,53.237881924845900,-1.432586303080850
Vole and Bronzewing pigeon,S8 0PW,53.345393000000000,-1.480849000000000
Dolphin and Fulmarine petrel,S1 4PD,53.374662184396900,-1.475247638857050
Bronzewing pigeon and Partridge,S2 3QG,53.371102274372500,-1.459044201172070
Black jay and Parakeet,S40 3AY,53.230937782508300,-1.462624369946120
Cuscus and Treepie,NG19 9HX,53.171154884395200,-1.180479345181640
Thicketbird and American sparrow,NG20 8NG,53.203702944251900,-1.224578174209790
Guillemot and Prion,S81 9LE,53.362113678471000,-1.124211886470390
Moluccan boobook and Kite,S2 3HG,53.360665330049100,-1.458815699947170
Shearwater and Prion,S7 2BS,53.355135092024100,-1.486830614602510
Prion and Jerboa,NG19 9SE,53.167606683594600,-1.173037603482340
Greenbul and Dorcopsis,S41 7TZ,53.237182523379900,-1.423575882992170
Piping shrike and Mockingbird,S44 5UP,53.214319526280300,-1.342853561855490
Civet and Booted eagles,S44 5LX,53.189632786500500,-1.298197205524410
Thicketbird and Jackal,NG20 9BY,53.237860341530300,-1.206655531356110
Rat and Skunk,S13 9AP,53.374177226475700,-1.390178898531690
Scimitar babbler and Marsh harrier,S43 4TG,53.294384276638200,-1.265621000000000
Tattler and Old World warbler,S20 8JH,53.328316526309900,-1.347680286536650
Kangaroo and Vole,S44 6PD,53.229056115615200,-1.293193760749990
Old World vulture and Scimitar babbler,S2 3AR,53.357324253943500,-1.455462375402020
Snipe and Marmoset,S18 8PU,53.298349117031200,-1.492222514189960
Kangaroo and Bunting,S17 9DY,53.326149000000000,-1.517355000000000
Hawk and Magpie,S42 6QW,53.204349349413200,-1.447087224976280
Grosbeak and Gull,S41 8EA,53.255447244844600,-1.448122637310490
Nukupuʻu and Songlark,S2 2EN,53.360204917275700,-1.435095575641090
Meadowlark and Argus,S2 1QN,53.370198434583700,-1.421542117411830
Perching duck and Minke whale,S18 1QE,53.302667176945900,-1.474329534440310
Black cockatoo and Dolphin,S25 4EQ,53.355922335369700,-1.213600427435010
Egret and Polecat,S40 2NL,53.226166803597800,-1.437744085004620
Lemming and Lemming,S2 3UP,53.365019961218800,-1.448271000000000
Grosbeak and Mockingbird,S8 8AL,53.324187411816600,-1.460463193778320
Siskin and Pheasant,S44 5TJ,53.235404789640800,-1.384421223155130
Duck and Coati,S43 1RB,53.247603767224000,-1.391619587103260
Zebra and Fulmarine petrel,S18 2EQ,53.305754039849100,-1.453147057972760
B and Logrunners,S12 4WW,53.345915000000000,-1.409283000000000
Greenbul and Tattler,S2 3AB,53.361685395435200,-1.471830709342390
Warbler and Warbler,S2 2EG,53.359066000000000,-1.439258000000000
Skunk and Old World quail,S18 2XA,53.301784000000000,-1.469400275306190
Gull and Parrotbill,S25 4JR,53.358780083285900,-1.210768090406880
Old World vulture and Stint,S26 2GH,53.355806361959700,-1.308121994146630
Grackle and New World blackbird,S18 8YU,53.301033018257800,-1.506325520035840
Tattler and Gull,S2 3LF,53.359451444365000,-1.454774142277520
Skunk and Civet,S43 3DX,53.249275983256300,-1.365788099164120
Partridge and Logrunners,S43 1FB,53.257023815343100,-1.402218676817870
Macaw and Flameback,S40 3PG,53.230145383659400,-1.478513452527880
Grosbeak and Herring gull,S17 4DT,53.315342816654200,-1.533043648028860
Vulture and Jackal,S18 1QN,53.298542384806800,-1.484883141751490
Polecat and Philippine hawk-owl,NG20 9LX,53.235297676387200,-1.156766575934380
Greenbul and Linsang,S14 1LX,53.353972988007500,-1.446025087362560
Jackal and Minke whale,S81 8AQ,53.323284969716800,-1.153351941965750
Night heron and Jay,S81 8AR,53.340729000000000,-1.161673000000000
Grouse and Coati,S11 9NF,53.339631841591600,-1.519802399201920
Diving bird and Nukupuʻu,S13 9UW,53.361717262723600,-1.350671672088430
Rabbit and Flameback,NG20 9PS,53.224577000000000,-1.129521000000000
Gull and Pitohui,S8 8JH,53.333462760440800,-1.460421000000000
Cloud rat and Linsang,S7 2AW,53.336966967932500,-1.512415000000000
Herring gull and Pratincole,S43 1DS,53.260362306441600,-1.388740249133750
Boto and Recurvebill,S2 2SX,53.377113000000000,-1.458216000000000
Kangaroo and Mockingbird,S14 1FL,53.343516000000000,-1.445229000000000
Hawk and Kākāriki,S26 4UY,53.361206839114700,-1.331475722805370
Tit-tyrant and Triller,S21 4LF,53.308955361253500,-1.351127014124760
Mole and Lemming,S41 9NS,53.267652789372900,-1.421277170187830
Treepie and Goose,S2 2JT,53.363230489773500,-1.438136113942010
Stint and Kestrel,S25 4DL,53.352061847582900,-1.219800956569650
Tree warbler and Francolin,S8 7FU,53.322476939798100,-1.494788683553070
Guillemot and Marsh harrier,S2 1FB,53.366952785487800,-1.419542210232600
Black jay and Bronzewing pigeon,NG20 8FT,53.194184000000000,-1.227173000000000
Snipe and Boto,S80 4SA,53.284758102717100,-1.202922480829970
Scimitar babbler and Moluccan boobook,S2 1EA,53.363970447274100,-1.421791736444640
Badger and Treepie,S21 4AN,53.305107640006300,-1.357683208706700
Boto and Tree warbler,S2 3BG,53.362828110435900,-1.462019081916630
Ground sloth and Eagle,S42 5EE,53.200777901853500,-1.394692770295930
Goose and Rabbit,NG20 9FA,53.226959000000000,-1.202527000000000
Mole and Fish eagle,S8 9FX,53.355805359368800,-1.471512737595210
Linsang and Tahr,S7 2WZ,53.350818580751800,-1.484509000000000
Maya and Thrasher,S25 2PU,53.366704142834100,-1.208788226426510
Snipe and Old World warbler,S81 8LZ,53.320148758607600,-1.167540406533970
Booted eagles and American sparrow,S81 7QD,53.329137832382700,-1.123610905389680
Linsang and Kākāriki,S80 1ZS,53.305295000000000,-1.122883000000000
Ice seal and Diving bird,S42 6RP,53.203999899234600,-1.424530046205160
Hawk and Moluccan boobook,S25 2EZ,53.369651743157800,-1.207320855449270
Warbler and Polecat,S21 2FA,53.325458199662200,-1.307802113904870
Piping shrike and Chickadee,S44 6EY,53.228542168531300,-1.280903696925220
Badger and Polecat,S43 3UE,53.269884265098000,-1.338688431800850
Pheasant and Chicken,S42 5DH,53.212339000000000,-1.375617000000000
Mink and Gull,S13 8JF,53.372315323634800,-1.393467043417430
