name,postcode,lat,lon
River dolphin and Vulture,GU28 0FG,50.940039579486300,-0.659513320406249
Kestrel and Night heron,PO18 0HE,50.911833889412100,-0.754376384299330
Kestrel and Songlark,PO19 7AL,50.835850314625700,-0.765957476189668
Black cockatoo and Rat,PO19 6DP,50.849139621000000,-0.778320865500000
Meadowlark and Quetzal,BN18 0LX,50.859828050000000,-0.622313703000000
Fox and Tree warbler,RH14 9EP,51.020082784528900,-0.453561409873624
Tree warbler and Myna,RH14 0QG,51.068744381068400,-0.570219628535246
Siskin and Treepie,GU27 9GD,51.085907000000000,-0.730989000000000
Towhee and Night heron,GU28 9DQ,51.000625712718400,-0.680883000000000
Black cockatoo and Mamo,GU27 1YT,51.085914313395900,-0.730974466179250
Chipmunk and Tahr,GU28 9ET,51.035491847052000,-0.664705437842167
Grackle and Chicken,GU26 6TX,51.109431792964100,-0.747001308652007
Ice seal and Diving bird,GU6 8AF,51.140341754742100,-0.487814587711429
Grosbeak and Zebra,PO19 1BF,50.840493000000000,-0.778902000000000
Flameback and Eagle,GU30 7PZ,51.086630008717900,-0.806628623396004
Pitohui and Moluccan boobook,GU27 1BL,51.091681948528700,-0.712367292125641
Chipmunk and Old World quail,PO20 2JE,50.854303030136200,-0.712606317192213
Greenbul and Marsh harrier,GU27 3PR,51.077567000000000,-0.745649000000000
Asiatic leopard and Stilt,GU29 9ND,50.985760000000000,-0.739662000000000
Songlark and Vulture,PO19 5NZ,50.858192798957100,-0.779178278568221
Minke whale and Fox,BN18 9BZ,50.855525580000000,-0.556517362000000
Meadowlark and Eagle,PO19 6DU,50.848985000000000,-0.778296000000000
Quetzal and Pheasant,GU10 2PE,51.134061697889200,-0.771532925872483
Greenbul and Philippine hawk-owl,GU29 0JS,50.980542724123200,-0.809107764957987
Tit-tyrant and Booted eagles,PO19 7TF,50.834851431737700,-0.764194479054956
Meadowlark and Grackle,RH14 9JF,51.000108097930600,-0.473280281468757
Mink and Polecat,GU6 8SY,51.143216818278600,-0.501587639352951
Jackal and Fox,GU27 1PB,51.086383000000000,-0.741727000000000
Herring gull and Masked owl,PO20 3AU,50.844822000000000,-0.665788000000000
Parrotbill and Minke whale,GU6 8FY,51.132558000000000,-0.481399000000000
Kite and Towhee,PO20 2DE,50.837647000000000,-0.722225000000000
Chicken and Fish eagle,GU28 9LJ,51.045556534204000,-0.632762000000000
Warbler and Hawk,GU27 3TB,51.053192441256900,-0.724563808092627
Meadowlark and Myna,GU8 5TE,51.133702442586800,-0.643794729101722
Gull and American sparrow,GU29 9RE,50.982835539140200,-0.750525804744111
Tahr and Tit-tyrant,GU28 9AL,50.988750767566200,-0.634629770746515
Treepie and Tattler,GU26 6PB,51.122702025505200,-0.756859150434028
Bunting and Peafowl,GU27 3BW,51.050617000000000,-0.680392000000000
Viscacha and Dolphin,PO18 0EY,50.910455686504200,-0.753317910953770
River dolphin and Puffleg,GU8 4XX,51.114813854225800,-0.596943683755433
Grackle and Skunk,PO22 0DN,50.831266000000000,-0.632910000000000
Ice seal and Black cockatoo,GU27 3QB,51.085919368665800,-0.753176424139660
Jerboa and Quetzal,PO20 3AH,50.833597000000000,-0.672796000000000
Mink and Thicketbird,RH20 2RY,50.974052000000000,-0.492979000000000
Dolphin and Kestrel,GU27 3DR,51.074978000000000,-0.725401000000000
Kākāriki and Macaw,PO19 6AR,50.841298476321000,-0.775201994311473
Capuchin and Jackal,GU26 6QP,51.123954716347400,-0.755425149993165
Kākāriki and Pratincole,GU6 8EZ,51.085708000000000,-0.541269000000000
Thicketbird and Dorcopsis,GU28 9AS,50.996066478188400,-0.659880541629409
Tit-tyrant and Logrunners,GU30 7AQ,51.076077327714500,-0.802674725942154
Masked owl and Mamo,GU6 8BN,51.138147922961800,-0.482983308246273
Dorcopsis and Diving bird,GU6 7NB,51.136274123991900,-0.479957266696662
Grosbeak and Prion,PO19 6PW,50.853130060110700,-0.776625384136467
Coati and Fish eagle,GU6 8SB,51.143404524961400,-0.497993286904689
Hawaiian honeycreeper and Lemming,PO19 9UF,50.830761000000000,-0.781323000000000
Vole and Macaw,GU26 6HA,51.106747478625400,-0.747416704858497
Triller and Prion,RH20 2YE,50.957396874245100,-0.502858829703819
Macaw and Chickadee,PO22 0EY,50.835824012886800,-0.644436417700888
Chicken and Scimitar babbler,PO18 0FW,50.855849000000000,-0.714802000000000
Solitaire and Dolphin,PO20 2HL,50.850175489474100,-0.718345420401512
Armadillo and Mockingbird,BN16 4LE,50.832528060000000,-0.485385648000000
Puffleg and Treepie,RH20 4PP,50.919161603584600,-0.451360559976282
Magpie and Kite,GU6 7HJ,51.141561383952700,-0.478539930690898
Quetzal and Flameback,GU27 1HP,51.087804000000000,-0.728453000000000
Goose and Mamo,RH20 1FH,50.965525266284900,-0.500660762459123
Bunting and Diving bird,RH20 2PQ,50.945200172827800,-0.461171868200639
Treepie and Dorcopsis,PO19 3BL,50.841411291619900,-0.780823452775295
Dorcopsis and Cloud rat,BN16 4BP,50.830519110000000,-0.479586020000000
Chipmunk and Solitaire,GU28 0NU,50.946829000000000,-0.701796000000000
Cloud rat and Darwin's finches,GU6 8RJ,51.141477241732600,-0.492294000000000
Egret and Petrel,GU28 0RD,50.987875748416700,-0.636707137023449
Grouse and Maya,PO19 8FZ,50.831103000000000,-0.766759000000000
Viscacha and Duck,GU29 9FU,50.986110216343700,-0.742032149050979
Peafowl and Kite,PO19 1JD,50.836096144243900,-0.775636385039519
Partridge and Badger,RH20 2GL,50.955582763500000,-0.495185875700000
Vole and Meadowlark,BN18 9PW,50.842583920000000,-0.516308339000000
Badger and Kākāriki,BN18 9EB,50.849804500000000,-0.565146426000000
Treepie and Old World warbler,PO19 6DQ,50.849495966700000,-0.777999037200000
Marmoset and Dorcopsis,BN18 9QG,50.849663240000000,-0.515032538000000
Chipmunk and Wallaby,BN18 9RA,50.867066980000000,-0.518032482000000
Pheasant and Goose,PO19 8FY,50.834015000000000,-0.795965000000000
Moluccan boobook and Jerboa,PO19 3RJ,50.835887858410800,-0.788423074756797
Capuchin and White ibis,BN18 0NN,50.884586110000000,-0.603429355000000
Vole and American sparrow,PO20 2WD,50.852346204329600,-0.712619000000000
Triller and Coati,GU29 9JU,50.984412117721800,-0.743246164080145
Crow and Lemming,GU6 8SS,51.141941445957300,-0.490521349653486
Marsh harrier and Tattler,PO19 8HS,50.829370329590800,-0.766327109523305
Pheasant and Puffleg,PO19 9QL,50.830780590200000,-0.781327675400000
Buzzard and Chipmunk,PO19 8EZ,50.831685085255200,-0.783803235057026
Chickadee and River dolphin,PO19 1BS,50.838126000000000,-0.780377993404736
Civet and Magpie,GU27 1PL,51.087993551057500,-0.747837615588177
River dolphin and Maya,BN18 9LL,50.878881300000000,-0.574147086000000
Recurvebill and Minke whale,GU6 7LW,51.136361000000000,-0.471378000000000
Gull and Parrotlet,GU27 2LT,51.088468402537600,-0.708001564808590
Old World quail and Egret,PO18 0FF,50.890676000000000,-0.784211000000000
Old World warbler and Gull,GU6 8GA,51.120234000000000,-0.536101000000000
Chicken and Fish eagle,PO18 8BN,50.843538283994000,-0.816220422248133
Old World warbler and Boto,GU28 9EZ,51.032370000000000,-0.681171404676843
Kangaroo and Greenbul,GU29 9AL,50.987218000000000,-0.731459000000000
Kākāriki and Masked owl,GU6 8UG,51.141791484187400,-0.509682100662238
Duck and Jay,GU35 8JJ,51.119083204845900,-0.796905675599581
Mink and Coati,GU29 0PU,51.004850000000000,-0.780265000000000
Booted eagles and Towhee,PO22 0FG,50.830524000000000,-0.634046000000000
Black jay and Wader,RH20 4JJ,50.918303000000000,-0.469315000000000
American sparrow and Towhee,PO18 8YL,50.830777954920800,-0.781327635810723
Ice seal and Piping shrike,GU26 6RQ,51.124871132399200,-0.746926629465183
Stilt and Moluccan boobook,GU26 6EP,51.115481242353600,-0.736736813997237
Lemming and Petrel,PO19 1DP,50.833237000000000,-0.779815000000000
White ibis and Ibex,PO19 6BY,50.849387889081900,-0.780814438092057
Dorcopsis and Kite,GU6 7LR,51.133222426992300,-0.472811011668043
Crow and Parrotbill,GU31 5ET,50.995616111942700,-0.803991015432910
Jackal and Scimitar babbler,GU8 5UN,51.137576329085400,-0.671840243555329
Mole and Civet,GU26 6ES,51.106367258434100,-0.758140103954869
Thrasher and Black cockatoo,BN18 0UU,50.855909380000000,-0.642461914000000
Ground sloth and River dolphin,GU26 6DD,51.097092120110600,-0.756931869958952
Pratincole and Goose,PO19 7JN,50.838804768491300,-0.755540000000000
Cuscus and Maya,GU29 9EZ,50.989718108116300,-0.746622227473240
Minke whale and Darwin's finches,GU29 9HS,50.980623325865900,-0.747166248054596
Asiatic leopard and Armadillo,GU26 6UG,51.120396000000000,-0.737903000000000
Kite and Kestrel,PO20 3AF,50.850452000000000,-0.683274737800000
Viscacha and Parakeet,GU10 2QH,51.142238129012100,-0.815345123503683
Mouse and Triller,GU6 7HN,51.139769907815200,-0.474939342998739
Wader and Coati,RH14 9XR,51.009320000000000,-0.451941000000000
Viscacha and Treepie,GU6 8NW,51.142595392850100,-0.509613000000000
Thicketbird and Eagle,BN16 4JU,50.829685700000000,-0.488118804000000
Prion and Towhee,GU26 6BH,51.108606057821200,-0.746309391395375
Bunting and Crow,RH20 2AA,50.957132238658400,-0.496958291169570
Moluccan boobook and Prion,GU26 6RN,51.133031205613200,-0.752337013038230
Night heron and Argus,RH14 9PB,51.024417119789100,-0.451506447727213
Meadowlark and American sparrow,PO20 3TE,50.833749000000000,-0.674194926251021
Goose and Black cockatoo,PO19 8TX,50.832266000000000,-0.791939000000000
Gull and Magpie,RH20 1PF,50.908983314912900,-0.564267000000000
White ibis and Stint,PO19 7LR,50.839263992263100,-0.767316097698481
Peafowl and Quetzal,PO22 0EZ,50.833667877858500,-0.641530891974330
Condor and Vole,GU26 6YE,51.085914313395900,-0.730974466179250
Parrotbill and Solitaire,GU6 8AS,51.141089864424400,-0.487947393233445
Jerboa and Jay,GU27 3SJ,51.082719317313400,-0.732389628679438
Polecat and Jerboa,RH14 9EX,51.014232000000000,-0.456465000000000
Bronzewing pigeon and Philippine hawk-owl,BN18 9EX,50.848506750000000,-0.567118180000000
Pheasant and Mamo,BN18 0PY,50.846908430000000,-0.624881805000000
Piping shrike and Booted eagles,PO18 8BX,50.842882175153100,-0.815370611169625
Wader and Flameback,BN18 9JY,50.850357210000000,-0.560370450000000
Gull and Hawk,BN16 4LX,50.835006040000000,-0.480917190000000
Chicken and Kestrel,PO19 9SH,50.834921316042700,-0.776803207931428
Ice seal and Partridge,GU28 9BY,50.998627252287400,-0.684218984297840
Booted eagles and Cloud rat,GU29 9FJ,50.976683701936700,-0.749608322388866
Prion and Vole,PO19 3RN,50.835066571121900,-0.802077407033089
Egret and Fox,RH20 2DU,50.957960000000000,-0.487107000000000
Coati and Mamo,RH20 2JH,50.961312203642300,-0.497521183199216
Elephant and Mole,RH14 9HL,51.023252000000000,-0.459174000000000
Nukupuʻu and Goose,GU27 9GF,51.085907000000000,-0.730989000000000
Lemming and Mamo,GU27 1AN,51.108298919875900,-0.696020931501289
Dolphin and Kangaroo,GU6 8UT,51.141757000000000,-0.503670000000000
Triller and Gull,RH14 0SX,51.063858748410200,-0.521576465948128
Cloud rat and Elephant,PO19 6YE,50.847304997134800,-0.766592845466649
New World blackbird and Flameback,GU27 3BE,51.084567000000000,-0.682604000000000
Stilt and Prion,RH14 0PA,51.075279143301400,-0.548092122619224
Bunting and Booted eagles,PO19 6PD,50.842277882795500,-0.774267342954133
Tattler and Guillemot,PO18 0NP,50.868321235195100,-0.694271000000000
Pheasant and Ibex,RH14 9LF,51.022143574463900,-0.454348366151883
Kangaroo and Magpie,RH20 1BE,50.966768937578600,-0.502970590322305
Wallaby and Francolin,GU29 0HF,50.952013000000000,-0.750905483058576
Ice seal and Logrunners,RH14 0UL,51.077126909146200,-0.542652464177967
Rabbit and Parakeet,PO19 7QT,50.835543914478200,-0.768450781388877
Nukupuʻu and Thrasher,RH14 0JN,51.042138021305100,-0.573420942059347
Boto and Fox,PO18 0LN,50.867191144592300,-0.672574318076543
Black cockatoo and Wader,GU8 5SP,51.143080107227600,-0.644434885010739
Night heron and Mink,GU6 8DP,51.140686000000000,-0.484458000000000
Darwin's finches and Moluccan boobook,PO19 1XR,50.836489008318300,-0.785695014165473
Civet and Rat,GU27 2QL,51.085555310361500,-0.727728955423856
Recurvebill and Meadowlark,PO18 0FT,50.850795000000000,-0.742118000000000
Argus and Polecat,BN18 9RB,50.867701350000000,-0.520541990000000
Ground sloth and Night heron,BN18 0ND,50.863064630000000,-0.622999865000000
Macaw and Parakeet,PO19 6XE,50.840945469475700,-0.765595853700127
Masked owl and Kangaroo,GU27 1AR,51.100869072005800,-0.710411000000000
Darwin's finches and Civet,PO19 6EJ,50.851886000000000,-0.767632000000000
Snipe and Rabbit,RH20 1JH,50.966250843611300,-0.562672957330264
Dorcopsis and Masked owl,GU8 4TB,51.088751000000000,-0.609455000000000
Piping shrike and Thicketbird,BN18 9JW,50.853912820000000,-0.554095106000000
Tree warbler and Crow,PO19 1PP,50.836595830451400,-0.776120367718103
Mole and Herring gull,GU30 7ZA,51.072692000000000,-0.800017000000000
Bronzewing pigeon and Piping shrike,GU29 0DS,50.952788653068000,-0.717959952096856
Chicken and Argus,RH20 4RH,50.918918000000000,-0.451901847755250
Tahr and Quetzal,GU29 9PR,50.982628184534100,-0.744604970748394
Capuchin and White ibis,GU35 8AU,51.123136656091500,-0.802830474409844
Mole and Boto,RH14 0PR,51.032836000000000,-0.551067002500377
Rabbit and Mouse,GU27 1LX,51.088709151997500,-0.753372718416570
White ibis and Macaw,RH20 2SB,50.948148228300100,-0.463779361713519
Chicken and Tattler,PO19 9SG,50.834921316042700,-0.776803207931428
Puffleg and Herring gull,PO19 1TA,50.835218976187600,-0.777746907110309
New World blackbird and Siskin,PO19 5YB,50.855448368809400,-0.784194070796188
Thicketbird and Towhee,GU27 3TG,51.051890645836400,-0.725584015756353
Maya and Greenbul,GU27 3QU,51.084727810786500,-0.753593947086008
Songlark and Civet,PO19 6ER,50.847632000000000,-0.770173000000000
Recurvebill and Grosbeak,PO19 6XJ,50.854272098493800,-0.770628582347130
Maya and Linsang,RH20 9AW,50.918269000000000,-0.454462138300000
Puffleg and Kestrel,PO19 1DW,50.833227000000000,-0.779796000000000
Prion and Parrotbill,PO19 1SN,50.840493000000000,-0.778902000000000
Tree warbler and Bronzewing pigeon,GU29 0EJ,50.976899216842700,-0.729574897749485
Tattler and Dorcopsis,GU28 9LG,51.034854000000000,-0.626601000000000
Tit-tyrant and Lemming,GU30 7BU,51.078283865726600,-0.790769147541666
Skunk and River dolphin,PO19 3DZ,50.840632849227800,-0.784650091266212
Tattler and Logrunners,BN18 9HU,50.852495500000000,-0.572650226000000
Petrel and Parakeet,GU28 9BN,51.001136185301300,-0.680228751835349
Jerboa and Mink,PO19 7UH,50.844331305616400,-0.758390334413348
Peafowl and Old World quail,GU8 5AW,51.144928621468700,-0.634816582887560
Booted eagles and Rabbit,BN18 0DH,50.828000770000000,-0.608582923000000
Fox and Guillemot,GU27 3PP,51.081627737500800,-0.744568808681430
Vulture and Dolphin,BN18 0RS,50.866149160000000,-0.630639651000000
Cuscus and Crow,GU27 9AN,51.085914313395900,-0.730974466179250
Fish eagle and Black cockatoo,RH20 1ER,50.950293996028900,-0.566781218620325
Logrunners and Meadowlark,RH20 9BE,50.918269000000000,-0.454462138300000
Shearwater and Night heron,RH14 9GZ,50.995158796130800,-0.474411715804116
Dolphin and Myna,PO19 8NY,50.829647145962000,-0.756820344451477
Dolphin and Songlark,BN18 0PT,50.845462850000000,-0.624313507000000
Stilt and Skunk,GU28 0LJ,50.967817014805800,-0.624790092454171
Wallaby and Eagle,GU8 4PJ,51.087007773382000,-0.578266519447732
Puffleg and Mink,PO22 0DY,50.831328765050300,-0.642223592498254
Polecat and Petrel,RH20 2WF,50.957396874245100,-0.502858829703819
Civet and Ground sloth,GU6 7BW,51.146055405974100,-0.480436618052104
Grackle and Greenbul,BN18 9PB,50.866841620000000,-0.545154365000000
Night heron and Badger,GU26 6RU,51.126192311214100,-0.754436153309975
Egret and Duck,GU30 7GN,51.082791098252900,-0.795692000000000
Tattler and Bunting,GU29 0DW,50.952282530465300,-0.719369091986768
Mink and Petrel,RH20 4LW,50.917060352505500,-0.461801407778282
Vole and Asiatic leopard,RH20 1JS,50.967931803035300,-0.574356381833767
Crow and Snipe,GU27 2AG,51.088634945394400,-0.709239176343863
Wallaby and Quetzal,PO20 3AN,50.834221000000000,-0.673020000000000
Rat and Wallaby,GU26 6SB,51.127167197822700,-0.752252056505474
Elephant and Mink,GU6 8TF,51.139008937427100,-0.515746808832867
Dorcopsis and Old World warbler,RH20 1BB,50.965333812712000,-0.502561000078699
Bronzewing pigeon and Mamo,GU6 8LD,51.126767214864200,-0.530345000000000
Diving bird and Fish eagle,PO19 3AJ,50.841548615885000,-0.788830419618920
B and Grouse,GU8 6QR,51.139256000000000,-0.731543000000000
Duck and Kite,GU27 2AA,51.085914313395900,-0.730974466179250
Old World quail and Mamo,PO19 1JL,50.835970373046200,-0.773935506216265
B and Badger,GU29 9QN,50.983142410147600,-0.741414175127362
Jerboa and Petrel,PO19 7EZ,50.835906268521500,-0.758514464487221
Grosbeak and Fulmarine petrel,PO18 9NB,50.930627871391200,-0.805942891191420
Gull and Chickadee,PO19 3DP,50.836987791877400,-0.788692833379352
Vole and Linsang,BN18 0NF,50.868408080000000,-0.620852850000000
Parrotlet and Civet,PO19 1ET,50.832849205206000,-0.780037000000000
Civet and Vole,PO19 7TT,50.832470000000000,-0.758265000000000
Hawaiian honeycreeper and Tahr,RH20 2HA,50.952202982729800,-0.473298506350037
Ground sloth and Pheasant,PO19 3ND,50.839754350476300,-0.794458461953741
Cloud rat and Zebra,GU8 6QQ,51.145997661157400,-0.713258488006773
Cuscus and Snipe,GU31 5JU,50.993606886633600,-0.815085976228251
Diving bird and Logrunners,GU6 7AZ,51.146475779126400,-0.483725395865914
Skunk and Marsh harrier,PO22 0FF,50.835471000000000,-0.646428000000000
Hawk and Parakeet,PO19 5QA,50.859591213192400,-0.777891412612085
Capuchin and Herring gull,GU27 1DN,51.089084867410800,-0.720721153535631
Old World vulture and Puffleg,PO19 7HS,50.837836772399000,-0.762468210228872
Wallaby and Tahr,GU30 7HJ,51.070763000000000,-0.792921000000000
Hawk and Perching duck,RH20 2QB,50.947378887531200,-0.455903891092102
Rat and Herring gull,GU6 8JJ,51.141663972076200,-0.533745278745611
Old World quail and Crow,PO19 1QF,50.836724981383600,-0.779866222136521
Petrel and Treepie,PO19 8PD,50.831327855626500,-0.781212000000000
Magpie and Condor,GU10 2HS,51.142938749777700,-0.788923594842126
Tree warbler and Triller,PO20 3SQ,50.831199186710500,-0.666864520332592
Jay and Goose,GU27 2JR,51.085842587819800,-0.708003323047452
Recurvebill and Songlark,RH14 0SH,51.076361310839300,-0.517523618527469
Herring gull and Nukupuʻu,PO19 3FG,50.839578000000000,-0.792924000000000
Asiatic leopard and Mink,PO19 8JA,50.828476826427000,-0.766024077168159
Grouse and Marsh harrier,GU6 8BD,51.141965877309400,-0.491020894814911
Grosbeak and Flameback,BN18 9ER,50.848930630000000,-0.570883880000000
Recurvebill and Parrotbill,RH12 3JQ,51.080380639978200,-0.452265792788266
Scimitar babbler and Scimitar babbler,GU6 7ER,51.143596022683100,-0.473884023676019
Shearwater and Kākāriki,RH20 4WP,50.918269000000000,-0.454462122332353
Stint and Jay,GU6 8EX,51.103334000000000,-0.529102000000000
Prion and Pheasant,PO20 2DW,50.836106446955100,-0.717370000000000
Viscacha and Fulmarine petrel,BN18 0SL,50.857976230000000,-0.652418717000000
Guillemot and Myna,GU27 3QP,51.082036926966900,-0.751710347501998
Parrotbill and Capuchin,PO20 2AL,50.851984000000000,-0.710980000000000
Greenbul and Duck,GU27 2DY,51.101813968118700,-0.685462678806214
Jerboa and Masked owl,BN18 0LZ,50.859471970000000,-0.624910182000000
Songlark and Linsang,RH14 9JZ,51.023208289938900,-0.453257796688163
Night heron and Eagle,RH20 2DN,50.957050442677800,-0.493958000000000
Asiatic leopard and Tattler,GU26 6QB,51.123729069448700,-0.750286985945505
Mockingbird and American sparrow,GU27 2EA,51.100508623726400,-0.689341670708417
Kangaroo and Duck,GU30 7BQ,51.079922092462900,-0.796151315602337
Tit-tyrant and Ibex,RH14 0PX,51.069061847819100,-0.566770078621436
Chicken and Viscacha,BN18 9JZ,50.848834340000000,-0.561582180000000
Elephant and Pratincole,GU26 6JQ,51.118470495440200,-0.785477016148752
Crow and Condor,PO19 6EH,50.851837000000000,-0.768926000000000
Tit-tyrant and Asiatic leopard,BN18 9BN,50.855089490000000,-0.559798542000000
Ground sloth and Wallaby,RH20 4LL,50.916035879460300,-0.457766500615931
Black cockatoo and Francolin,PO19 6QJ,50.856429274173900,-0.773086623891644
Myna and Duck,RH20 2HJ,50.969606247752300,-0.464524348656998
Siskin and Badger,RH20 2GG,50.955461865700000,-0.495574210500000
Triller and Mockingbird,PO20 2BD,50.839370402400000,-0.708728153400000
Mamo and Guillemot,PO19 7DN,50.833725150600500,-0.774221536522757
Argus and Jay,PO20 3XS,50.839442196591400,-0.657923488946347
Hawk and Vulture,RH20 4BW,50.917373000000000,-0.451344061325430
Thicketbird and Kestrel,BN18 0UY,50.866560780000000,-0.624346387000000
Partridge and Quetzal,GU26 6NP,51.123174578163300,-0.749730372369066
Prion and Puffleg,PO19 7UU,50.833582351968800,-0.769198232466385
Dorcopsis and Viscacha,GU27 3JF,51.034718000000000,-0.715102000000000
Dorcopsis and Recurvebill,GU30 7LU,51.038926454279200,-0.800251000000000
Flameback and Rabbit,GU27 3SP,51.077393000000000,-0.732032363741172
Snipe and Meadowlark,BN18 9QX,50.852442000000000,-0.530593549000000
Warbler and Ibex,PO18 0JN,50.853762900523600,-0.693939119824751
Flameback and Prion,GU8 5UH,51.132760000000000,-0.672036000000000
Condor and Cloud rat,GU27 1LS,51.090213166584700,-0.742665732032412
Pheasant and Snipe,RH20 2BQ,50.956674577750200,-0.500532684933682
Jackal and Chicken,GU26 6QH,51.123979892193500,-0.751880653578952
Egret and Egret,RH14 0PU,51.070513850054800,-0.567110612105101
Dolphin and Kestrel,GU6 8SA,51.141938126152600,-0.490264139343499
Tattler and Vulture,PO19 3QN,50.837451541955500,-0.813704458817357
Wallaby and Egret,RH14 0QD,51.068996252375300,-0.568756034783540
Armadillo and Skunk,PO18 0DL,50.877050370592700,-0.786034268338789
Stint and Mole,PO22 0LH,50.832308637947200,-0.640647316423824
Marsh harrier and Polecat,RH14 9NJ,51.025202071961600,-0.454417767219463
Recurvebill and Gull,RH20 2AX,50.957288911850700,-0.501452667574793
Kangaroo and Tattler,GU26 6LL,51.110677592790900,-0.759968000000000
Dolphin and Macaw,GU27 2QD,51.087409446240000,-0.722109534203458
Masked owl and Chickadee,GU27 3PH,51.049145332197300,-0.722877368442744
Stint and Marmoset,PO19 1LB,50.837364424238500,-0.779096852799127
Argus and Petrel,GU8 5ST,51.138872308392800,-0.645272824259354
Parrotlet and Old World quail,GU6 8UH,51.141378117650100,-0.508294473555525
Minke whale and Prion,GU8 4AL,51.120741000000000,-0.561762000000000
Mole and American sparrow,PO20 3AB,50.839350474611900,-0.665609706677234
Black jay and Ice seal,GU8 4XS,51.112421000000000,-0.614902000000000
Vulture and Grackle,GU26 6NH,51.111425150238000,-0.756833130553233
Siskin and Asiatic leopard,GU26 6HW,51.109412647192300,-0.756158578404140
Fox and Thicketbird,PO19 8HX,50.828644020205300,-0.764826937180670
Triller and Old World quail,GU8 4HP,51.138100000000000,-0.630558000000000
Guillemot and Ice seal,BN16 4HG,50.831793050000000,-0.487653113000000
Dorcopsis and Mole,GU29 9EB,50.988304579166200,-0.739778559667975
Stint and Guillemot,RH14 0UD,51.071249000000000,-0.539897000000000
Coati and Chipmunk,RH20 2AW,50.957903845133300,-0.496819486846832
Towhee and Linsang,RH14 0EQ,51.076263000000000,-0.520000000000000
Scimitar babbler and Capuchin,GU27 1DE,51.089582501004500,-0.730074464971871
Chickadee and Capuchin,PO22 0JF,50.831044011545600,-0.635543620874340
Old World warbler and Bunting,PO19 6XL,50.854468822838600,-0.771376383863293
Mamo and Peafowl,RH12 3HT,51.086692684804700,-0.452197921803027
Old World warbler and Ice seal,PO19 9WE,50.830761000000000,-0.781323000000000
Boto and Goose,BN18 9DG,50.854090460000000,-0.555368259000000
Chickadee and Marsh harrier,BN18 0QP,50.852957450000000,-0.635330587000000
Macaw and Songlark,PO20 2FD,50.851499285833000,-0.715240607945962
Boto and Thicketbird,PO19 6GW,50.843276900152900,-0.763261759479497
Buzzard and Condor,BN18 9PQ,50.844682060000000,-0.535034147000000
Myna and Gull,GU30 7GB,51.082550000000000,-0.794338618087558
Mink and Puffleg,RH14 9QS,51.021626548536400,-0.452410000000000
Rat and Capuchin,GU30 7SH,51.088153050310500,-0.796423144509340
Darwin's finches and Jerboa,GU29 0ET,50.983802264407400,-0.736170000000000
Jerboa and Flameback,GU28 0NX,50.950066137790300,-0.692468000000000
Flameback and Kestrel,GU29 9JX,50.984838941416800,-0.743633551874810
B and Masked owl,BN18 0PJ,50.843925880000000,-0.619813424000000
Tattler and Fish eagle,RH14 0LP,51.026528999979800,-0.552410541299918
Warbler and Dolphin,PO19 7TN,50.836445796147200,-0.769776000000000
Chipmunk and Ibex,RH20 4QG,50.918873940399600,-0.468414084741344
Maya and Old World vulture,GU27 2AX,51.091155705808100,-0.710311373756565
Booted eagles and Songlark,GU31 5DB,51.008065000000000,-0.815630000000000
White ibis and Meadowlark,PO18 0RW,50.905845243380700,-0.785157603562483
Songlark and Rabbit,GU35 8JL,51.119505320386200,-0.795980270532461
Scimitar babbler and Philippine hawk-owl,PO18 0RU,50.932370897556400,-0.797900595787378
Polecat and Masked owl,GU28 0DP,50.988991942438500,-0.610087211031419
Mole and Herring gull,PO19 8PQ,50.831386367798400,-0.763930968115725
Parrotbill and Coati,PO22 0AJ,50.833673004264000,-0.625838778692045
Wader and Parrotbill,GU30 7LD,51.075469561520300,-0.797779949281061
Lemming and Old World warbler,GU30 7HW,51.069134490317800,-0.799985051275335
Boto and Prion,GU8 4NU,51.098452000000000,-0.553708000000000
Argus and Tit-tyrant,GU29 9QH,50.969528668046800,-0.744872641773765
Stilt and Grouse,GU27 3PN,51.094080000000000,-0.737548000000000
Francolin and Dolphin,PO22 0JB,50.831805307317100,-0.636046837798352
Lemming and Bunting,GU6 7JW,51.138427000000000,-0.472539000000000
Songlark and Polecat,RH20 2GF,50.947661779358400,-0.471254958039735
Piping shrike and Civet,PO19 1NA,50.837234173951200,-0.777822089828395
Treepie and Mouse,GU27 1EA,51.097363098128400,-0.709724540746764
Chicken and Night heron,RH14 0UT,51.073008107731200,-0.514775923968716
Quetzal and Old World vulture,BN18 9PZ,50.840309370000000,-0.505089053000000
Goose and Old World quail,BN18 0SP,50.860077840000000,-0.656080870000000
Bronzewing pigeon and Hawk,PO19 3EN,50.838572455490000,-0.790611715093808
Elephant and Vole,GU29 0EE,50.971291000458500,-0.741506600551537
Meadowlark and Tit-tyrant,PO19 6FS,50.842868393410500,-0.767150117664850
Marsh harrier and Kite,RH20 1FS,50.967898488200000,-0.501823498500000
Songlark and B,RH20 1BY,50.985437000000000,-0.516133000000000
Night heron and Lemming,BN16 4ES,50.839687450000000,-0.490877000000000
Rat and Logrunners,GU27 3BP,51.043212000000000,-0.685638000000000
Bunting and Tahr,PO18 8BS,50.844928795589600,-0.815886952626203
Thrasher and Masked owl,PO19 7PU,50.836389508946200,-0.763515000000000
Hawaiian honeycreeper and Scimitar babbler,PO20 3RH,50.840403157683800,-0.668803737988688
Prion and Marmoset,GU27 1PJ,51.087311995969300,-0.748013078043757
Diving bird and Prion,BN18 8BP,50.854159090000000,-0.552922502000000
Wader and Hawaiian honeycreeper,GU29 9EH,50.979930605247700,-0.746301678601008
Tattler and Old World vulture,GU28 9AE,50.990353852243000,-0.630222650449958
Macaw and Flameback,PO19 6YN,50.848059589511900,-0.766516128647808
Shearwater and Stilt,RH20 2QA,50.952528437013200,-0.454964441840209
Parakeet and Maya,GU26 6BL,51.101489000000000,-0.743274000000000
Solitaire and Tit-tyrant,GU27 3RQ,51.082569105538200,-0.739289452544283
Dorcopsis and Ground sloth,RH20 1DL,50.990247452721100,-0.480528741576410
Minke whale and Black jay,RH20 2AS,50.960905492140600,-0.497207000000000
Petrel and Magpie,PO19 6UJ,50.844918296644700,-0.764553557883549
Fulmarine petrel and Mamo,GU6 8FG,51.132732000000000,-0.480879000000000
Greenbul and Black jay,GU27 3EA,51.050409741118500,-0.721729772602983
Vulture and Bronzewing pigeon,GU6 7JD,51.140964551186400,-0.467952511509991
Wader and Marsh harrier,GU28 0QN,50.964568945014200,-0.661812247212525
Thicketbird and Hawk,GU29 0HB,50.958988505110500,-0.749841204839548
Maya and Civet,PO19 7EL,50.837367568857600,-0.764866528865489
Songlark and Lemming,GU30 7GF,51.081909389931500,-0.794400830049595
Zebra and Pitohui,PO19 6SL,50.841065062923900,-0.766700530027889
Minke whale and Cuscus,PO19 3AW,50.844316203987600,-0.787750294070185
Old World warbler and Wader,GU30 7UZ,51.082371000000000,-0.792400000000000
Philippine hawk-owl and Puffleg,PO18 0BH,50.869593266839100,-0.784110419649069
Diving bird and Jackal,GU28 9BJ,50.989599000000000,-0.664007000000000
Egret and Francolin,GU27 2FE,51.084714000000000,-0.717981304083017
Towhee and Chickadee,PO19 3BS,50.841882451543900,-0.782884842727532
Chickadee and Crow,PO19 7AJ,50.837470392429200,-0.770345738328955
Vulture and Mouse,GU35 8DS,51.120228125965200,-0.808606704267930
Stilt and Guillemot,PO19 7QH,50.834292567703700,-0.754765625711283
Black cockatoo and Mink,GU29 9UA,50.988939955312200,-0.739490641890470
Magpie and Black jay,PO20 2JF,50.854416880079000,-0.714776866528478
Warbler and Solitaire,PO19 5DR,50.850234173577500,-0.783491469405568
Stint and Maya,BN18 9EF,50.851026480000000,-0.564327594000000
Chicken and Meadowlark,RH20 2NQ,50.945204837233500,-0.465627287950082
Tree warbler and Kākāriki,PO18 0QX,50.905378301172200,-0.781770573975369
Night heron and Snipe,GU28 0QX,50.982794206511400,-0.607679435990916
Parakeet and Mink,PO19 8AQ,50.831732168618000,-0.777979963262293
Parrotlet and Scimitar babbler,GU29 9AA,50.997019000000000,-0.732218000000000
Kākāriki and Hawaiian honeycreeper,PO19 7SB,50.837124204526000,-0.772485099782180
Mouse and Skunk,PO19 8RR,50.830039402678400,-0.758031000000000
Goose and Badger,GU8 4RS,51.114559759639800,-0.633197135499206
Greenbul and American sparrow,PO20 3TL,50.833104481972500,-0.684987081343282
Pitohui and Dorcopsis,GU28 9HJ,51.052411000000000,-0.644601000000000
Puffleg and Booted eagles,RH20 2AH,50.957926000000000,-0.501247000000000
Herring gull and Parrotbill,PO19 7UA,50.832383400485000,-0.763819435244339
Chickadee and Duck,GU27 1SA,51.086161621677200,-0.743046850149253
Bunting and Treepie,GU10 2PP,51.134839630059900,-0.775399961462693
White ibis and Dorcopsis,RH20 2JJ,50.958054846760400,-0.493881392247616
Vole and Philippine hawk-owl,GU29 9JP,50.986541184440500,-0.742205612338177
Pratincole and Kite,GU8 5UF,51.135101846837300,-0.653616013765651
Scimitar babbler and Grosbeak,RH14 0QQ,51.034219000000000,-0.554534355015604
Fulmarine petrel and Black cockatoo,PO18 0LF,50.862642973780500,-0.717009002350962
Lemming and Piping shrike,PO20 2HD,50.848535713877400,-0.716430020345125
Black jay and Snipe,GU30 7GR,51.081624467360100,-0.801533000000000
Meadowlark and Marmoset,GU29 9QS,50.982465096332800,-0.747843234339948
Triller and Puffleg,GU35 8BN,51.124145007319200,-0.807348501854226
Condor and Zebra,PO20 2XZ,50.830777954920800,-0.781327635810723
Songlark and Francolin,BN16 4DU,50.830678590000000,-0.480092045000000
Thicketbird and Mole,GU26 6LQ,51.110874404122600,-0.750719403411987
Viscacha and Grouse,RH20 2AD,50.958162732560900,-0.500869241131663
Lemming and Gull,PO20 2HQ,50.848629015651600,-0.718373588676772
Herring gull and Marmoset,PO19 6DZ,50.850122000000000,-0.769327794800000
Civet and B,GU28 0BW,50.984439891743400,-0.603911776247308
Magpie and Goose,GU8 4EE,51.131000242073900,-0.596167428750808
New World blackbird and Gull,PO18 0HL,50.933142274967500,-0.756482759939367
Piping shrike and Mole,GU30 7HP,51.068996504808500,-0.800559523178633
Mockingbird and Grouse,PO19 1HZ,50.836990858314600,-0.782074757344871
Jerboa and Badger,PO20 3QY,50.838797096250200,-0.668338144283716
Coati and Partridge,GU26 6RT,51.125535753547300,-0.753582115638374
Old World vulture and Argus,PO20 2EX,50.847380905249800,-0.716092379618878
Siskin and Mamo,RH14 0UE,51.070425382641600,-0.538894953324817
Wader and Kite,GU27 1FB,51.092624905551000,-0.713069385880148
Vole and Old World quail,RH14 0QH,51.033910482355600,-0.553007783444897
Diving bird and Recurvebill,GU27 3HT,51.051430000000000,-0.717867303174705
Snipe and Minke whale,PO18 0GY,50.848096000000000,-0.752063000000000
Herring gull and Mouse,GU29 9FL,50.985150358812400,-0.740818501272031
Ibex and Mole,RH14 0HZ,50.995855000000000,-0.534298000000000
Kākāriki and Chipmunk,RH14 9EZ,51.011852000000000,-0.453257926986114
Kangaroo and Pratincole,GU6 7DY,51.145830154652800,-0.478328103719295
Mamo and Marmoset,GU6 8FL,51.131424000000000,-0.481279000000000
Pitohui and Shearwater,GU8 5UW,51.137140557461000,-0.673853871443943
Civet and Kestrel,RH20 4GJ,50.915005000000000,-0.456520000000000
Pitohui and Piping shrike,PO19 6AF,50.842903792848700,-0.779932350795601
Marmoset and Elephant,GU8 5UY,51.135752453377300,-0.648994000000000
Black jay and Duck,RH14 0TL,51.070040000000000,-0.536766000000000
American sparrow and Wallaby,BN18 9JE,50.850611240000000,-0.575208004000000
Ground sloth and Vulture,BN18 9NS,50.911219310000000,-0.521310725000000
Songlark and Black cockatoo,GU29 9AZ,50.992981759060200,-0.731558278474628
Lemming and Cuscus,GU27 9GE,51.085907000000000,-0.730989000000000
Kite and Parakeet,GU26 6NX,51.124899090217800,-0.756285746153003
Grosbeak and B,GU6 8GB,51.141375000000000,-0.485870000000000
Black jay and Ground sloth,PO19 8DP,50.831058782338400,-0.782385317562417
Asiatic leopard and Scimitar babbler,RH14 0QW,51.086104094116000,-0.515929000000000
Flameback and Thicketbird,RH14 0UB,51.068542660053900,-0.542236970870641
Lemming and Skunk,PO19 7LD,50.837280529186600,-0.771103423447973
Kākāriki and Vole,GU28 0NR,50.948157600169200,-0.680035405815852
Masked owl and B,GU29 0AA,50.999619964679800,-0.731705083847618
Wallaby and Bronzewing pigeon,PO19 7DW,50.833055831652700,-0.773855651888325
Cloud rat and Myna,GU27 1NT,51.087534019343200,-0.736884232505994
Meadowlark and Thicketbird,GU29 0HE,50.953594704669500,-0.750854381634414
Guillemot and Parrotbill,RH14 9HA,51.012653195317800,-0.455490697796439
Mockingbird and Shearwater,PO22 0ER,50.831610000000000,-0.641505000000000
Hawaiian honeycreeper and Bunting,PO19 1RQ,50.837897754592100,-0.782803859349421
Armadillo and Hawaiian honeycreeper,PO19 6GP,50.842976605777200,-0.762928812175545
Bunting and Skunk,PO19 3LW,50.840546980543500,-0.794580068255438
Goose and Old World vulture,PO19 1TD,50.835307471060100,-0.778468857425608
Tit-tyrant and Capuchin,PO19 1AA,50.830777954920800,-0.781327635810723
Jerboa and Jay,RH14 0EG,51.030137116238200,-0.493514328102151
Grosbeak and White ibis,RH20 4LR,50.917831537394100,-0.460950833506368
Jay and Francolin,GU27 1AG,51.096262319157000,-0.724964536794176
Pheasant and Piping shrike,PO22 0DW,50.831007000000000,-0.633031000000000
Flameback and Puffleg,RH14 9RE,51.018351676583500,-0.451865327865302
River dolphin and Scimitar babbler,GU29 9TF,50.977419209349200,-0.748591451812008
Old World vulture and Macaw,GU30 7HY,51.074621510755900,-0.792277753318189
Meadowlark and Vole,GU27 1JE,51.090632608140900,-0.731672000000000
Solitaire and Booted eagles,GU27 3QZ,51.079766667245400,-0.755540291792930
Logrunners and Thicketbird,PO18 0RN,50.849220391015900,-0.745489855438868
Egret and Zebra,GU30 7FZ,51.083646101521700,-0.794512740404999
White ibis and Kite,GU8 4UA,51.108325050773900,-0.629881227366704
Solitaire and Meadowlark,GU27 1PR,51.087634805526300,-0.743735122334992
Capuchin and Tattler,PO19 9JQ,50.830777954920800,-0.781327635810723
Shearwater and Songlark,PO18 0BU,50.873171830327300,-0.786646672784274
Shearwater and Black cockatoo,BN18 9DQ,50.853759230000000,-0.555918000000000
Ice seal and Marmoset,GU27 1AS,51.101186087726300,-0.709603951417691
Shearwater and Black jay,PO18 0AF,50.870644587420600,-0.784893151653504
Capuchin and Herring gull,BN18 9PX,50.845156060000000,-0.495246682000000
Jerboa and Goose,PO19 8AA,50.830319563116200,-0.774481118916439
Mouse and Linsang,PO19 7QU,50.833292457834200,-0.760500882873647
Flameback and Hawaiian honeycreeper,PO19 5PH,50.857985281862900,-0.774821810717542
Zebra and Vulture,GU6 8HR,51.101307342775700,-0.520125000000000
Cuscus and Solitaire,PO19 7JX,50.836045426975400,-0.769105051200057
New World blackbird and Rabbit,BN18 0QQ,50.847106870000000,-0.628753925000000
Quetzal and Chickadee,PO20 3QZ,50.838111340491600,-0.668925747340807
Warbler and Pheasant,RH12 3DW,51.084525308081300,-0.465834174328620
Darwin's finches and Marsh harrier,PO20 2HG,50.848331836984100,-0.715881610893023
Badger and Armadillo,PO19 1EH,50.836109473977400,-0.779484629326628
Wallaby and Tattler,GU28 0NT,50.951433163406300,-0.681024621518701
Logrunners and Recurvebill,GU28 0LF,50.941224000000000,-0.629204000000000
Nukupuʻu and Quetzal,GU6 7HH,51.140563322138400,-0.481317391582161
Recurvebill and Badger,RH14 0PH,51.072169897364600,-0.576794238435746
Vulture and Boto,PO20 2HW,50.851112780744400,-0.716075177106255
Mockingbird and Francolin,PO19 7BS,50.832632000000000,-0.763424000000000
Kestrel and Booted eagles,PO22 0AX,50.829570000000000,-0.635459000000000
Dorcopsis and Towhee,BN18 9BA,50.856181150000000,-0.561540895000000
Towhee and Coati,PO19 6TA,50.841878987211700,-0.766281385794558
Booted eagles and Linsang,PO20 3QS,50.834338589699500,-0.669302875979862
Puffleg and Thrasher,PO19 1HE,50.836573489348700,-0.778279593915052
Vole and Marsh harrier,PO19 5QB,50.856245059393400,-0.776955915885959
Chipmunk and Logrunners,GU26 6FS,51.110999000000000,-0.747582000000000
Black cockatoo and Armadillo,RH20 2QQ,50.946733629863000,-0.457434235532423
Mink and Bronzewing pigeon,GU35 8DP,51.122074371144100,-0.807003000000000
Crow and Asiatic leopard,RH14 4DB,51.023015000000000,-0.451870000000000
Siskin and Chickadee,GU8 4QY,51.115232137532200,-0.640735142054630
Chicken and Hawk,GU27 1QD,51.095281395540900,-0.754938270056938
Solitaire and Herring gull,PO19 8SG,50.831425303090300,-0.785627587841962
Argus and Vole,PO18 9HR,50.898779759214900,-0.815190239283450
Snipe and Towhee,PO19 6DY,50.848752027800000,-0.772236917500000
Eagle and Bronzewing pigeon,GU29 1BY,50.984869000000000,-0.739296000000000
Ibex and Tree warbler,GU6 8LG,51.135848277962900,-0.532514425359733
Parrotbill and Myna,RH14 9LL,51.020305076539900,-0.458815241524161
Zebra and Logrunners,RH14 0NF,51.033045903368600,-0.552009000000000
Philippine hawk-owl and Flameback,RH14 0HR,51.002470000000000,-0.537596000000000
Marmoset and Chickadee,RH20 4JQ,50.917498689885000,-0.465939000000000
Ground sloth and Goose,BN17 7QB,50.828935350000000,-0.545111757000000
Thicketbird and Wallaby,GU8 4ER,51.135379235337000,-0.632568284943725
Petrel and Piping shrike,PO20 3SH,50.850196757484600,-0.651591635010330
Badger and Kangaroo,GU27 1HG,51.107020071898300,-0.720269001587835
Cloud rat and Logrunners,GU27 3TL,51.052761547286500,-0.724632714165887
Perching duck and Dolphin,PO19 9TA,50.834921316042700,-0.776803207931428
Black jay and Diving bird,PO18 0GT,50.848953000000000,-0.754839000000000
Prion and Goose,GU28 0BX,50.983874839929700,-0.602532546498874
Mole and Parrotlet,RH12 3BN,51.083087134921500,-0.483114500036593
Tit-tyrant and Masked owl,GU28 9DE,50.996504252173500,-0.675400972296602
Viscacha and Chipmunk,RH20 2RU,50.948406759543800,-0.467714221491532
Eagle and Flameback,GU28 9HL,51.054227603476600,-0.643962894851729
Cuscus and Warbler,GU27 2NW,51.082446764256700,-0.705056941384241
Thicketbird and Magpie,GU27 2EP,51.088601000000000,-0.710083000000000
Wader and Recurvebill,PO19 7ET,50.837316909126100,-0.755863902392385
Chipmunk and Fulmarine petrel,PO19 6SW,50.840290387999700,-0.766578921453056
Grouse and Fox,GU6 8TL,51.137241258783000,-0.516761184643747
Piping shrike and Bronzewing pigeon,GU29 0ER,50.971765732105400,-0.738830361465575
Kangaroo and Triller,BN18 9RG,50.866433120000000,-0.520525288000000
Grouse and Parakeet,GU28 8AZ,50.986695147295700,-0.608830872774749
Moluccan boobook and Piping shrike,GU8 4LD,51.114527223175200,-0.566635583402399
Zebra and Civet,PO19 7HB,50.840620071140800,-0.762891696933469
Treepie and Meadowlark,GU6 8DZ,51.133627082378300,-0.478329027095260
Badger and Ice seal,GU8 5UU,51.133878877980300,-0.659097122754533
Bronzewing pigeon and American sparrow,GU26 6JA,51.123468524750900,-0.773242839311626
Herring gull and Marsh harrier,RH14 9NT,51.023649810776200,-0.452644221454146
Peafowl and Solitaire,PO19 3HR,50.835636306069700,-0.796268699803325
Old World quail and Greenbul,BN18 0PD,50.845141260000000,-0.620686646000000
Ibex and Snipe,RH20 4BP,50.933547818293200,-0.452519437904084
Civet and Chickadee,GU6 7YH,51.141185479099200,-0.488387422273764
Hawaiian honeycreeper and Songlark,PO19 5EF,50.847967216720900,-0.787740911963800
Treepie and Mockingbird,GU29 9HP,50.980784483437500,-0.745423949358466
Jackal and Pratincole,RH20 9BA,50.918269000000000,-0.454462138300000
Magpie and Gull,GU28 0LQ,50.945808000000000,-0.611432000000000
Treepie and Thicketbird,GU29 9LB,50.985559723219000,-0.744597144178607
Rat and Parrotbill,RH20 4LT,50.916555682223700,-0.456269781431907
Moluccan boobook and River dolphin,GU26 6FJ,51.114451000000000,-0.734465000000000
Warbler and Rabbit,PO19 1SW,50.833742460818200,-0.779416000000000
Lemming and Mink,GU8 5SB,51.138655401635800,-0.645179112285841
Mole and Hawaiian honeycreeper,GU29 9LT,50.984930532885700,-0.740069000000000
Ice seal and Badger,PO19 7JE,50.839376780816300,-0.757727000000000
Viscacha and Crow,GU27 1EJ,51.096363030576500,-0.707924387935144
Philippine hawk-owl and Recurvebill,PO19 7NU,50.837261207550900,-0.765863463081562
Buzzard and Prion,PO18 0DG,50.877594248622200,-0.790781845158730
Buzzard and Scimitar babbler,PO19 1NQ,50.839666796366700,-0.778255641148207
Songlark and Mamo,GU27 1BX,51.088320488335400,-0.723884000000000
Rabbit and Philippine hawk-owl,RH20 1NA,50.936381695265100,-0.555808882273696
Petrel and Lemming,GU28 0NN,50.934005000000000,-0.673836025750708
Treepie and Viscacha,GU30 7GD,51.081762172390400,-0.802827809870648
Ibex and Pratincole,RH20 1HJ,50.962792163520600,-0.556400021495770
American sparrow and Mole,RH12 3BF,51.096684221481600,-0.472772000000000
Tattler and Condor,PO19 1TU,50.834610934448100,-0.775504828476504
Masked owl and Kākāriki,PO20 3WW,50.839356412485600,-0.666916172870456
Meadowlark and Dorcopsis,RH20 2PR,50.948762000000000,-0.476173000000000
Snipe and Guillemot,RH20 3WN,50.918269000000000,-0.454462122332353
Greenbul and Stint,RH20 3WF,50.918269000000000,-0.454462122332353
Booted eagles and Cloud rat,PO19 7XB,50.840422910853800,-0.773179715311570
Viscacha and Recurvebill,RH20 4JL,50.917957454033400,-0.467789741358227
Mockingbird and Viscacha,PO18 0AE,50.870693827643800,-0.785304018172893
Old World vulture and Crow,GU29 9PL,50.982035335647700,-0.740489624732594
Peafowl and Zebra,PO19 7JD,50.838633753569700,-0.757916619830983
Kite and B,GU28 9ED,51.055380404310200,-0.641788936698910
Minke whale and Diving bird,BN16 4ET,50.837658290000000,-0.486398374000000
Myna and Greenbul,GU27 3QX,51.083915364967400,-0.753301679239800
Bunting and Boto,PO20 2WA,50.851147203159600,-0.709411576602382
Solitaire and Masked owl,RH20 1HR,50.964781502927900,-0.553646833047818
Jay and Old World warbler,PO20 3UR,50.841548713745400,-0.661243433989132
Wallaby and Capuchin,RH20 2AP,50.959851008291500,-0.497299000000000
Old World vulture and Old World vulture,RH20 2JL,50.961664430446700,-0.497637982951264
Logrunners and Parrotbill,RH14 0HX,50.999130000000000,-0.535164000000000
Magpie and Ground sloth,GU28 9NN,50.995177466714900,-0.609959446962274
Maya and Jay,RH12 3BS,51.078357973265800,-0.472833477816573
Lemming and Mamo,PO20 3UA,50.843921000000000,-0.681516000000000
Mockingbird and Jay,RH14 0LA,51.054294717034200,-0.546294266080186
Shearwater and Warbler,PO19 7UD,50.835772472474000,-0.773074408477239
Moluccan boobook and Myna,PO18 0HT,50.911806409200700,-0.745927758172947
Crow and Francolin,GU30 7PA,51.080249088618500,-0.815843790073850
Songlark and Coati,BN17 7PZ,50.829408910000000,-0.547752378000000
Tahr and Stilt,PO19 8PA,50.831696332789100,-0.760231000000000
Treepie and Old World vulture,RH14 0SQ,51.075890000000000,-0.515026000000000
Argus and Scimitar babbler,GU6 7ED,51.145003117407900,-0.476968543156336
Capuchin and Darwin's finches,GU29 0QH,51.017523000000000,-0.773560000000000
Parakeet and Recurvebill,GU8 5TJ,51.129051951324200,-0.645231440555595
Wader and Dorcopsis,GU30 7GY,51.077817000000000,-0.801217000000000
Perching duck and Cloud rat,GU28 0JU,50.959469434219300,-0.625364011979803
Scimitar babbler and Treepie,PO19 7TH,50.834020972198000,-0.763051939591589
Guillemot and Dorcopsis,BN18 0NU,50.883674390000000,-0.593405817000000
Snipe and Fox,PO19 8DX,50.828691474479600,-0.782177111144398
Cloud rat and Philippine hawk-owl,PO20 3XE,50.840572103700000,-0.659780168700000
Wader and Zebra,PO19 6BX,50.850693875303700,-0.781007691155590
Coati and Thicketbird,PO18 0PU,50.872152089152400,-0.739630037812678
Cuscus and Hawk,PO19 6YF,50.847791528628900,-0.766538000000000
Ice seal and Macaw,PO22 0DL,50.831307000000000,-0.634059000000000
Vole and Fulmarine petrel,BN18 0SW,50.854591190000000,-0.648211480000000
Fish eagle and Crow,PO19 1EB,50.835942448096100,-0.778822000000000
Prion and Gull,PO18 0NW,50.861641000000000,-0.732163000000000
Old World warbler and Pitohui,PO19 7XD,50.833728557621800,-0.757535577774364
Kite and Old World vulture,RH20 2BS,50.956957544657100,-0.502133000000000
Duck and Polecat,GU28 0LZ,50.900043033929700,-0.664757548629527
Civet and Triller,GU28 0HN,50.975844891243100,-0.594340969482471
Flameback and Peafowl,GU28 0HJ,50.980837868518900,-0.594503619560020
Old World warbler and American sparrow,RH14 0BY,51.023058812769400,-0.509571078984130
Guillemot and River dolphin,BN16 4BJ,50.829948240000000,-0.482018554000000
River dolphin and White ibis,PO18 0NA,50.890748000000000,-0.668862000000000
Jay and Thicketbird,GU31 5ES,50.994748904211600,-0.802730822232478
Warbler and Solitaire,GU6 8HE,51.121304328570500,-0.514601000000000
Snipe and Ibex,GU27 3DJ,51.076557257624900,-0.715713476229103
Duck and Chicken,GU26 6SS,51.113880521643800,-0.740066351217439
Tit-tyrant and Quetzal,RH14 0QJ,51.025951618075100,-0.482099599991924
Stilt and Marsh harrier,GU6 8RP,51.142575311532100,-0.495387000000000
Lemming and Fox,PO22 0DD,50.836782000000000,-0.644735000000000
Grouse and Rat,GU26 6JF,51.117333599234000,-0.781649191829532
Fish eagle and Mouse,RH20 2BA,50.957191836773500,-0.504403194715008
Guillemot and White ibis,PO22 0ED,50.837020646914700,-0.650693182625833
Duck and Bunting,RH20 1FF,50.960516894792600,-0.509849922998289
New World blackbird and Asiatic leopard,GU27 1JR,51.094399037218900,-0.733069979558528
Egret and Old World vulture,GU6 7HU,51.142350163284300,-0.476269588041707
Mamo and Grackle,PO19 6AW,50.850935220455600,-0.780006984807681
Towhee and Masked owl,PO19 8PE,50.830277763224400,-0.762000685741232
Kangaroo and Mamo,GU27 3LG,51.069012271897800,-0.725556353671981
Fish eagle and Wallaby,BN16 4EH,50.829692770000000,-0.483120228000000
Zebra and Shearwater,GU28 9JN,51.014791196428200,-0.607733705779707
Shearwater and Snipe,GU29 0ED,50.961659968890200,-0.727413116504408
Petrel and Jerboa,PO19 1UZ,50.832926560639400,-0.777820974070612
Goose and Scimitar babbler,GU29 9TD,50.974022923918600,-0.743839926228391
Gull and Asiatic leopard,BN18 9PD,50.869583940000000,-0.542226624000000
Kākāriki and Parrotlet,GU27 3NP,51.052037343482800,-0.730405000000000
Bunting and Linsang,RH14 9NL,51.024922907993600,-0.455068727744975
Cuscus and Macaw,BN18 0RJ,50.872860400000000,-0.635460125000000
Eagle and Kangaroo,PO19 7NS,50.837645408943900,-0.766478215405225
Philippine hawk-owl and Viscacha,PO19 7TJ,50.833335360558200,-0.764546924567175
Ibex and Bronzewing pigeon,GU27 3SB,51.084096320424300,-0.732494770454865
Scimitar babbler and White ibis,GU28 9JD,51.058092892981200,-0.638413342623835
Argus and Stint,GU35 8HP,51.115016041309400,-0.801911651537347
Puffleg and Black jay,PO22 0AY,50.828726000000000,-0.634887000000000
Snipe and Hawk,PO20 2HF,50.849248751771400,-0.716666152816137
Solitaire and Asiatic leopard,GU10 2NQ,51.140063817316100,-0.766799396143672
River dolphin and Black jay,RH20 4PQ,50.919367048936700,-0.456688933966168
Old World vulture and Wader,GU26 6DA,51.102354000000000,-0.757733000000000
Kite and Jay,GU27 1BE,51.094490258869300,-0.711789484703450
Magpie and Argus,GU28 0PB,50.946260576981100,-0.680872057386206
Grouse and Hawk,GU27 1BF,51.095047649294800,-0.710959996971193
Philippine hawk-owl and Elephant,PO19 6TU,50.842128634765400,-0.769484746172780
Wader and Tree warbler,RH14 9JR,51.003289056983600,-0.465536356953168
Jackal and Solitaire,GU6 8FE,51.142966398939200,-0.489644555640951
Bronzewing pigeon and Fulmarine petrel,PO20 3YL,50.840174759679300,-0.669278928717911
