name,postcode,lat,lon
Stint and Goose,BN10 8XH,50.787417850000000,0.027038274000000
Siskin and Stilt,BN25 2JA,50.786798270000000,0.104164180000000
Black cockatoo and Duck,BN2 1DN,50.818160360000000,-0.121366710000000
New World blackbird and Night heron,BN2 1JZ,50.819678000000000,-0.127311000000000
Stint and Nukupuʻu,BN25 3NL,50.776443820000000,0.114252766000000
Wallaby and Piping shrike,BN25 3LL,50.780558280000000,0.128354725000000
Marsh harrier and Jerboa,BN1 1UX,50.825154680122600,-0.139061976873212
Siskin and B,BN7 2BF,50.876750000000000,0.020002760000000
Perching duck and Partridge,BN25 9DE,50.771520000000000,0.100642000000000
Puffleg and Magpie,BN25 9ER,50.771514000000000,0.100670000000000
Egret and Ground sloth,BN1 1HP,50.820283770000000,-0.139383330000000
Ice seal and Kestrel,BN25 3JD,50.784963200000000,0.108664259000000
River dolphin and Thicketbird,BN25 1RL,50.774691980000000,0.104698776000000
Recurvebill and Armadillo,BN25 3EZ,50.777963820000000,0.111271522000000
Triller and Vulture,BN1 9PG,50.863036140000000,-0.078736642000000
Viscacha and Mink,BN1 7HZ,50.849155630000000,-0.132808020000000
Zebra and Eagle,BN25 2BH,50.775171350000000,0.097060807000000
Francolin and Skunk,BN9 9PD,50.794137880000000,0.048557051000000
Chicken and Macaw,BN2 0HQ,50.826728800000000,-0.122897116000000
Ice seal and Fox,BN25 4DW,50.769325910000000,0.130766455000000
Siskin and Thicketbird,BN2 6SR,50.835996140000000,-0.066965736000000
Kite and Old World warbler,BN2 9YE,50.826744420000000,-0.119957194000000
Pitohui and Magpie,BN1 9QZ,50.865958000000000,-0.090114000000000
Rat and Grackle,BN10 7PN,50.793258570000000,-0.007104536000000
Wallaby and Pheasant,BN9 0HT,50.810233530000000,0.053335051000000
Ibex and Darwin's finches,BN1 9EP,50.865899290000000,-0.113664341000000
Ice seal and Parakeet,BN1 8RG,50.867413010000000,-0.137919711000000
Francolin and Magpie,BN8 6LR,50.828143190000000,0.081569896000000
Mole and Argus,BN2 6PA,50.829246000000000,-0.070349721000000
Mockingbird and Magpie,BN7 9SA,50.873469000000000,0.012015106000000
Fox and Hawk,BN2 3EE,50.832051900000000,-0.116136871000000
Warbler and Jerboa,BN25 4EB,50.770239490000000,0.130481765000000
Jay and American sparrow,BN10 7BN,50.795453790000000,-0.016646295000000
Tattler and Triller,BN7 2RT,50.882140890000000,0.020058000000000
Meadowlark and Polecat,BN1 9SN,50.867405000000000,-0.089486000000000
Solitaire and Triller,BN25 2UJ,50.782111190000000,0.093243069000000
Chickadee and Ground sloth,BN1 9PT,50.862730770000000,-0.077669197000000
Hawk and Bronzewing pigeon,BN25 4QS,50.774892360000000,0.118466422000000
Francolin and Pratincole,BN25 1JP,50.769814140000000,0.099388266000000
Tit-tyrant and Francolin,BN9 0AP,50.792792000000000,0.055612603000000
Pheasant and Old World warbler,BN7 1SZ,50.873890990000000,-0.000554127000000
Jackal and Macaw,BN10 7BH,50.806645000000000,-0.000915907065108
Moluccan boobook and Grouse,BN2 3FX,50.832114250000000,-0.133445524000000
Minke whale and Black cockatoo,BN1 7BP,50.844609170000000,-0.125219446000000
Grackle and Parakeet,BN10 8EN,50.790907790000000,0.004347000000000
Ibex and Kangaroo,BN2 9ND,50.828689930000000,-0.133582109000000
Maya and Pheasant,BN7 3NF,50.856961900000000,-0.008780579000000
Thrasher and Parakeet,BN2 5SN,50.811816160000000,-0.100584290000000
Rabbit and Mouse,BN2 4TS,50.846899040000000,-0.111064087000000
Tattler and Mamo,BN1 7BW,50.842806920000000,-0.127237683000000
Fulmarine petrel and Tit-tyrant,BN2 0EL,50.825065780000000,-0.120152415000000
Scimitar babbler and Warbler,BN9 9PJ,50.794675910000000,0.050694895000000
Gull and Scimitar babbler,BN10 8TH,50.790184240000000,0.019992673000000
Old World warbler and Polecat,BN2 1NE,50.816542950000000,-0.113651983000000
Kite and Parrotlet,BN2 0BJ,50.822823780000000,-0.124459355000000
Mink and Dorcopsis,BN1 7FF,50.846800070000000,-0.120529011000000
Crow and Greenbul,BN9 0QY,50.804096290000000,0.061184323000000
Gull and Mink,BN2 7LG,50.803688620000000,-0.056519545000000
Badger and White ibis,BN2 9AB,50.826458908870700,-0.133613000000000
Ibex and Marmoset,BN1 4EB,50.828453650000000,-0.139058528000000
Tattler and Perching duck,BN2 9UN,50.829938710000000,-0.127326706000000
Eagle and Grouse,BN2 6SW,50.837385000000000,-0.066112991000000
Kestrel and Kestrel,BN2 9SQ,50.830099940000000,-0.128967512000000
Mamo and Linsang,BN25 2UH,50.791857410000000,0.086385170000000
Mamo and Lemming,BN2 1NB,50.817225280000000,-0.114135569000000
Puffleg and Masked owl,BN7 2HE,50.880337170000000,0.017861434000000
Pitohui and B,BN2 9XB,50.830149830000000,-0.123114903000000
Logrunners and Francolin,BN2 4LT,50.842279000000000,-0.095100000000000
Ibex and Darwin's finches,BN7 2ED,50.882826510000000,0.008585911000000
Peafowl and Chickadee,BN25 3HU,50.780750500000000,0.122249298000000
Nukupuʻu and Badger,BN2 9ZE,50.827645250000000,-0.121724376000000
Philippine hawk-owl and Fox,BN2 1PS,50.819267190000000,-0.132466000000000
Nukupuʻu and Parakeet,BN10 7US,50.806628020000000,0.000490164000000
Flameback and Rabbit,BN2 1JG,50.819957340000000,-0.123495198000000
Duck and Vulture,BN51 9DJ,50.804821680000000,-0.058672435000000
Skunk and Herring gull,BN7 1NB,50.877004640000000,-0.007499917000000
Solitaire and Parrotbill,BN1 7GH,50.845506660000000,-0.128464867000000
Wallaby and Condor,BN2 4TF,50.845694930000000,-0.111126925000000
Warbler and B,BN9 0QJ,50.803767000000000,0.059055000000000
Grackle and Perching duck,BN25 2UU,50.783143040000000,0.092877740000000
Vulture and Myna,BN2 8QS,50.806162650000000,-0.036162936000000
Grouse and Shearwater,BN1 8HN,50.860248080000000,-0.138659850000000
Polecat and Night heron,BN25 3SN,50.776864610000000,0.126229520000000
Mamo and Recurvebill,BN25 4DZ,50.768563400000000,0.128689556000000
Puffleg and Puffleg,BN51 9EZ,50.804823133198700,-0.058672438961446
Chickadee and Parakeet,BN1 8EF,50.854817920000000,-0.137085833000000
Pitohui and Mamo,BN25 2RL,50.781329420000000,0.085675345000000
Parrotlet and Tit-tyrant,BN2 4HZ,50.840240260000000,-0.103080688000000
Kestrel and Jackal,BN2 6LF,50.827059460000000,-0.068558000000000
Stint and Chickadee,BN10 8PU,50.786057310000000,0.015246450000000
Petrel and Goose,BN7 3HA,50.835745890000000,0.013239000000000
American sparrow and Boto,BN2 6WJ,50.825255990000000,-0.064683132000000
Piping shrike and Jay,BN25 1EX,50.770741650000000,0.100323316000000
Tattler and Night heron,BN2 5PB,50.824133110000000,-0.101433368000000
Mockingbird and Rabbit,BN25 1TT,50.776297200000000,0.109479000000000
Booted eagles and Capuchin,BN7 2UP,50.870619720000000,0.011344335000000
Hawk and Dorcopsis,BN25 3JA,50.782855310000000,0.119762642000000
Marmoset and Diving bird,BN10 8RN,50.790517670000000,0.010585726000000
Ice seal and Herring gull,BN10 7PD,50.792480150000000,-0.005761283000000
Old World vulture and Logrunners,BN2 3LL,50.835140500000000,-0.121395086000000
Peafowl and Ground sloth,BN1 7BE,50.839719940000000,-0.127659542000000
Duck and Argus,BN2 9AQ,50.823827000000000,-0.134018000000000
Towhee and Hawk,BN2 4AH,50.839180070000000,-0.121488527000000
Minke whale and Hawaiian honeycreeper,BN25 2EP,50.779396600000000,0.099661365000000
Old World vulture and Black jay,BN25 1LW,50.773378170000000,0.101746323000000
Tahr and Masked owl,BN2 9NA,50.828046000000000,-0.134293734000000
Recurvebill and Grackle,BN2 6ST,50.828972840000000,-0.063208795000000
Civet and Shearwater,BN10 7LP,50.796874160000000,-0.009746287000000
Grosbeak and Bronzewing pigeon,BN7 1YE,50.872793160000000,0.008907860000000
Hawaiian honeycreeper and Kangaroo,BN25 1JJ,50.768298780000000,0.102128491000000
B and Bronzewing pigeon,BN25 2QB,50.775719990000000,0.089042798000000
Piping shrike and Parakeet,BN9 9LY,50.792991670000000,0.045711595000000
Polecat and Mamo,BN10 7DG,50.801185450000000,-0.010996492000000
Wallaby and Condor,BN9 0PP,50.802438970000000,0.056229193000000
Moluccan boobook and Eagle,BN7 2XA,50.869300000000000,0.010790000000000
Masked owl and Dorcopsis,BN2 5XJ,50.811816750000000,-0.095104995000000
White ibis and Kākāriki,BN9 0HH,50.805156500000000,0.054105973000000
Nukupuʻu and Capuchin,BN2 8HF,50.810658870000000,-0.034526509000000
American sparrow and Snipe,BN8 6RS,50.861391770000000,0.069493642000000
Armadillo and Partridge,BN1 4DW,50.829259670000000,-0.139409881000000
Stilt and Boto,BN25 1PU,50.770242880000000,0.104727000000000
B and Mouse,BN25 1PQ,50.770735000000000,0.102270848000000
Pheasant and Polecat,BN7 1HQ,50.869757600000000,0.008137772000000
Chicken and Chicken,BN10 8DY,50.797470180000000,0.001149194000000
Petrel and Black jay,BN2 6TE,50.828418960000000,-0.062890916000000
Marmoset and Mockingbird,BN2 4DL,50.840556890000000,-0.113734834000000
Boto and Petrel,BN1 9PB,50.862829030000000,-0.077082524000000
Warbler and Polecat,BN10 8PH,50.787785420000000,0.009844000000000
Skunk and Cuscus,BN8 6JX,50.843286000000000,0.052371000000000
Maya and Hawaiian honeycreeper,BN9 0FA,50.795478000000000,0.059088000000000
Booted eagles and Meadowlark,BN2 4FH,50.842369140000000,-0.102369364000000
Mockingbird and Hawk,BN7 3LB,50.857960570000000,-0.020432178000000
Warbler and Songlark,BN2 5RY,50.817671320000000,-0.105031675000000
Recurvebill and Cuscus,BN7 2PD,50.875908830000000,0.011813700000000
Civet and Vole,BN25 2NL,50.777097260000000,0.090480098000000
Treepie and Chicken,BN1 9AB,50.858672150000000,-0.105558340000000
Viscacha and Parrotbill,BN2 9ZP,50.830011770000000,-0.117894661000000
Rat and Puffleg,BN2 4BP,50.840171000000000,-0.117684786000000
Kestrel and Magpie,BN10 7LU,50.794359880000000,-0.013670165000000
Old World vulture and Bunting,BN9 9SN,50.795573260000000,0.044149863000000
Logrunners and Dorcopsis,BN1 6JU,50.848314000000000,-0.135730188000000
Linsang and Black cockatoo,BN2 9XJ,50.829477970000000,-0.122162028000000
Lemming and Lemming,BN25 4QR,50.774857000000000,0.118011000000000
Cloud rat and Tahr,BN2 9ZA,50.828356090000000,-0.123982043000000
Gull and Jackal,BN2 6PF,50.837761370000000,-0.068015000000000
Parrotbill and Magpie,BN9 0NS,50.801067490000000,0.068686345000000
Maya and Kākāriki,BN2 9NP,50.827963570000000,-0.131466901000000
Macaw and Old World warbler,BN2 3RT,50.834307710000000,-0.133386423000000
Black cockatoo and Francolin,BN10 8HN,50.792207090000000,0.002825762000000
Viscacha and Triller,BN1 7ER,50.844800820000000,-0.127072615000000
Fox and Polecat,BN9 9AN,50.809386320000000,0.034447594000000
Nukupuʻu and Lemming,BN10 8RU,50.791145080000000,0.014358523000000
Snipe and Philippine hawk-owl,BN1 8SE,50.869524670000000,-0.129933430000000
Kite and Kangaroo,BN25 1BX,50.769185900000000,0.105798963000000
Pheasant and New World blackbird,BN10 7PH,50.794238450000000,-0.006026999000000
Parrotlet and Jackal,BN2 8LQ,50.804074750000000,-0.035956000000000
Maya and Prion,BN2 0JT,50.822791330000000,-0.130281951000000
Lemming and Grouse,BN2 5QL,50.831031260000000,-0.105868172000000
Treepie and Logrunners,BN1 4GY,50.832792310000000,-0.139297816000000
Coati and Petrel,BN2 1DH,50.817964150000000,-0.120352412000000
Black cockatoo and Thrasher,BN1 9GW,50.862926020000000,-0.106664874000000
Magpie and Dolphin,BN1 9JU,50.856690630000000,-0.100949792000000
Thicketbird and Gull,BN1 8TE,50.864813430000000,-0.135421000000000
Wader and Magpie,BN2 6BD,50.838146640000000,-0.076279288000000
Moluccan boobook and Thrasher,BN2 6QJ,50.835734570000000,-0.059335696000000
Grouse and Grouse,BN25 2XF,50.784850610000000,0.099451714000000
Vole and Egret,BN9 9XE,50.793840080000000,0.039377423000000
Old World vulture and Ibex,BN1 8LS,50.860657210000000,-0.138373573000000
Diving bird and Towhee,BN2 4TA,50.844688010000000,-0.112815367000000
Rabbit and Hawk,BN10 8ET,50.791224040000000,0.007693114000000
Wader and Fox,BN10 7AL,50.797533710000000,-0.018374662000000
Puffleg and Petrel,BN1 9BA,50.859162870000000,-0.111975295000000
Fulmarine petrel and Parakeet,BN25 4NQ,50.773009020000000,0.119161423000000
American sparrow and Ibex,BN9 9AW,50.809025440000000,0.035315000000000
American sparrow and Old World quail,BN7 1PA,50.873223100000000,-0.003567614000000
Black cockatoo and American sparrow,BN2 6QB,50.837473960000000,-0.062260342000000
Nukupuʻu and Black cockatoo,BN9 0QR,50.804282950000000,0.057743642000000
Badger and Partridge,BN2 9SS,50.830586640000000,-0.130155107000000
Songlark and Darwin's finches,BN2 8LW,50.800937950000000,-0.039404843000000
Pratincole and Peafowl,BN2 4FD,50.840990610000000,-0.108305682000000
Mole and Grackle,BN2 4DQ,50.840178680000000,-0.114261414000000
Partridge and Kākāriki,BN1 8GQ,50.863411830000000,-0.125616407000000
Rabbit and Treepie,BN2 3RE,50.835782860000000,-0.132276605000000
Stint and Tattler,BN25 1BQ,50.765894730000000,0.111238668000000
Chickadee and Parrotbill,BN2 5HB,50.827861000000000,-0.105520292000000
Mole and Grackle,BN10 8DS,50.798368780000000,0.003812933000000
Parrotbill and Mockingbird,BN9 0HL,50.807499280000000,0.055386834000000
Scimitar babbler and Eagle,BN9 9SA,50.794717350000000,0.045261913000000
Duck and Kestrel,BN10 8HL,50.793688690000000,0.004010079000000
Minke whale and Civet,BN25 1QU,50.773049380000000,0.103022291000000
Mockingbird and Meadowlark,BN1 7HS,50.853959500000000,-0.127842379000000
Hawaiian honeycreeper and Fox,BN10 8HX,50.792655560000000,-0.000248349000000
River dolphin and Greenbul,BN9 9DA,50.786936810000000,0.051973621000000
Viscacha and American sparrow,BN7 2BX,50.872902460000000,0.021847081000000
Hawk and Partridge,BN10 7NP,50.791991980000000,-0.003358000000000
Vulture and Egret,BN2 6DS,50.835071690000000,-0.087270322000000
Thrasher and Skunk,BN10 7RD,50.797573440000000,-0.004352443000000
Tattler and Jerboa,BN1 8JE,50.859019780000000,-0.137770946000000
Nukupuʻu and Peafowl,BN25 3RP,50.774797170000000,0.126660569000000
Hawk and Towhee,BN1 7AZ,50.842661450000000,-0.124899794000000
Ibex and Capuchin,BN7 2DH,50.874830250000000,0.009166029000000
Parrotlet and Parrotlet,BN10 7HE,50.793360210000000,-0.015174068000000
Tree warbler and Lemming,BN25 2LS,50.781354080000000,0.095337172000000
Grackle and Ibex,BN25 1ND,50.772343530000000,0.102633000000000
Old World warbler and Thrasher,BN2 6LN,50.835291740000000,-0.071681558000000
Towhee and Scimitar babbler,BN2 0FY,50.827702080000000,-0.125257841000000
Piping shrike and Linsang,BN2 5RP,50.814751230000000,-0.091961881000000
Old World vulture and Chicken,BN25 9AQ,50.771520000000000,0.100642000000000
Fish eagle and Petrel,BN10 7PX,50.795185000000000,-0.008725000000000
Herring gull and Tree warbler,BN2 4PX,50.851637150000000,-0.109863983000000
Tahr and Maya,BN2 0JH,50.822850470000000,-0.131727815000000
Recurvebill and Mouse,BN25 3BB,50.784039190000000,0.111516821000000
Asiatic leopard and Ice seal,BN1 9PN,50.880862930000000,-0.086093000000000
Logrunners and Tattler,BN9 0RR,50.804616930000000,0.067338655000000
Thicketbird and Tattler,BN25 2EY,50.779606560000000,0.101486524000000
B and Armadillo,BN2 5NJ,50.823203290000000,-0.103984210000000
Rabbit and Zebra,BN7 1EG,50.870776270000000,-0.010906617000000
Lemming and Nukupuʻu,BN2 1RQ,50.821275120000000,-0.131634515000000
Argus and Viscacha,BN2 8FT,50.810660900000000,-0.036783390000000
Cuscus and Diving bird,BN2 1EH,50.817072290000000,-0.116356396000000
Logrunners and Masked owl,BN7 2JA,50.880537160000000,0.007307527000000
Kestrel and Darwin's finches,BN2 6LQ,50.836603900000000,-0.071627474000000
Black cockatoo and Kestrel,BN2 9WH,50.829320270000000,-0.131384329000000
Treepie and Old World warbler,BN2 1TW,50.819104210000000,-0.136477206000000
Thrasher and Mink,BN7 3LD,50.858349330000000,-0.024266426000000
Night heron and Shearwater,BN2 8SH,50.802796480000000,-0.044038913000000
Pitohui and Wallaby,BN25 2EE,50.776328910000000,0.094204748000000
Greenbul and Lemming,BN2 1FY,50.815178570000000,-0.111591750000000
Philippine hawk-owl and Shearwater,BN9 9AF,50.807224930000000,0.035645334000000
Polecat and Boto,BN2 8DF,50.801573260000000,-0.026946056000000
Macaw and Recurvebill,BN1 7HL,50.846745130000000,-0.132067000000000
Chipmunk and Chickadee,BN8 6EP,50.832488000000000,0.033151000000000
Masked owl and Vole,BN2 1AP,50.819075000000000,-0.125508911000000
New World blackbird and Mink,BN2 8QA,50.808164630000000,-0.034347316000000
Tahr and Thicketbird,BN25 2PA,50.779593880000000,0.088676387000000
Herring gull and Wader,BN2 1WB,50.822303680000000,-0.135213982000000
Kangaroo and Coati,BN2 4FZ,50.846477390000000,-0.113908013000000
Siskin and Dorcopsis,BN10 8JD,50.805108530000000,0.010403039000000
Treepie and Hawk,BN2 5ZG,50.820928000000000,-0.103679000000000
Argus and Flameback,BN2 1QJ,50.820649050000000,-0.131290365000000
Fox and Kestrel,BN10 8AH,50.806312920000000,0.011490867000000
Linsang and Marmoset,BN10 8EH,50.804760540000000,0.009721028000000
Civet and Snipe,BN2 5JY,50.818089290000000,-0.109174446000000
Ice seal and Tit-tyrant,BN2 0BS,50.822513500000000,-0.127538599000000
Linsang and Snipe,BN2 9NB,50.828581490000000,-0.134111835000000
Boto and Ice seal,BN2 5HX,50.829273840000000,-0.105641101000000
Coati and Black cockatoo,BN2 4AJ,50.838965590000000,-0.121014231000000
Maya and Darwin's finches,BN25 4BY,50.773942840000000,0.131089750000000
Puffleg and American sparrow,BN2 0LA,50.823684440000000,-0.133824309000000
Thrasher and Towhee,BN2 5PJ,50.829062470000000,-0.102042800000000
Meadowlark and Egret,BN2 5PP,50.826436520000000,-0.103711232000000
Old World quail and White ibis,BN1 4JW,50.832300770000000,-0.134986010000000
Ice seal and Old World vulture,BN25 1AD,50.771400870000000,0.104664507000000
Piping shrike and Perching duck,BN25 1QB,50.770469460000000,0.106438102000000
American sparrow and Magpie,BN10 8JL,50.791134290000000,0.001191000000000
Wallaby and Greenbul,BN25 3LH,50.780492830000000,0.129968946000000
Thrasher and Bronzewing pigeon,BN2 4LH,50.844294300000000,-0.092475695000000
Marmoset and Rabbit,BN2 0JN,50.822564030000000,-0.129566922000000
Cloud rat and Diving bird,BN2 5BF,50.818801700000000,-0.117635534000000
Logrunners and Eagle,BN1 7JF,50.844646630000000,-0.133726691000000
Magpie and Vole,BN7 3NS,50.857617050000000,-0.011864457000000
Songlark and Zebra,BN25 2UL,50.782494000000000,0.094040000000000
Thicketbird and Macaw,BN2 5PX,50.827535060000000,-0.102686936000000
Chicken and Snipe,BN9 0JZ,50.805448700000000,0.058447757000000
Diving bird and Cloud rat,BN2 8EF,50.800276500000000,-0.033770078000000
Kākāriki and Argus,BN10 8AN,50.801964800000000,0.007557393000000
Vole and Pitohui,BN10 8DW,50.805049180000000,0.006014814000000
Myna and Tree warbler,BN2 9SH,50.831335000000000,-0.128591508000000
Rabbit and Polecat,BN25 3QA,50.778868330000000,0.115950881000000
Night heron and Ibex,BN2 5EB,50.820822900000000,-0.109149214000000
Old World warbler and Fulmarine petrel,BN2 4JN,50.842139070000000,-0.096526566000000
Night heron and Fish eagle,BN2 5TS,50.821292000000000,-0.097005000000000
Chipmunk and Recurvebill,BN9 9EA,50.790819330000000,0.050597051000000
Elephant and Songlark,BN7 2TS,50.880782850000000,-0.004396010000000
Solitaire and Old World vulture,BN9 0BT,50.791774160000000,0.056640864000000
Condor and Grosbeak,BN8 6RR,50.861631890000000,0.069646379000000
Cloud rat and Guillemot,BN2 9QG,50.824934420000000,-0.133817067000000
Grosbeak and Eagle,BN7 1NN,50.868540900000000,0.003054289000000
Grackle and Macaw,BN10 8HF,50.793401000000000,0.006230833000000
Parrotlet and Kestrel,BN25 1AH,50.770288990000000,0.106968940000000
Old World warbler and Cuscus,BN25 4JS,50.765811550000000,0.112355256000000
Flameback and Mink,BN7 1XL,50.872347740000000,0.002904793000000
Scimitar babbler and Ground sloth,BN25 9EE,50.771519564000000,0.100641766300000
Thicketbird and Black cockatoo,BN7 1UP,50.871765280000000,0.010626126000000
Buzzard and Tree warbler,BN1 7JL,50.844755290000000,-0.133210977000000
Elephant and New World blackbird,BN10 8AY,50.801639630000000,0.002931026000000
Badger and Darwin's finches,BN2 4EB,50.840139150000000,-0.120171692000000
Dolphin and Partridge,BN2 8DY,50.798560140000000,-0.031188384000000
Fox and Condor,BN25 1HR,50.770861690000000,0.101647705000000
Asiatic leopard and Mole,BN9 9HH,50.791698000000000,0.041611000000000
Puffleg and Shearwater,BN25 3RZ,50.777085930000000,0.123955795000000
Flameback and Gull,BN2 6SJ,50.835226150000000,-0.062836317000000
Booted eagles and Mouse,BN2 1SR,50.821469280000000,-0.133089146000000
Solitaire and Shearwater,BN7 9NG,50.879363000000000,0.016227000000000
Argus and Masked owl,BN25 3EX,50.776778310000000,0.108196780000000
Eagle and Perching duck,BN9 0DU,50.799939810000000,0.058716559000000
Wallaby and Solitaire,BN2 3RH,50.837023290000000,-0.131673183000000
Moluccan boobook and Snipe,BN2 6DP,50.835930020000000,-0.089706438000000
Guillemot and Thicketbird,BN9 9LF,50.791639000000000,0.047454557000000
River dolphin and Capuchin,BN2 7FB,50.811568800000000,-0.063659056000000
Crow and Towhee,BN9 9NF,50.792528060000000,0.039831134000000
Solitaire and Rat,BN1 8EJ,50.856420750000000,-0.137775015000000
Chipmunk and Ground sloth,BN10 8EY,50.792248360000000,0.007226191000000
Pheasant and Cloud rat,BN1 9GL,50.862118170000000,-0.111756452000000
Solitaire and Tattler,BN25 2DH,50.774046440000000,0.098454000000000
Recurvebill and Zebra,BN10 7AH,50.796092000000000,-0.018677000000000
Kestrel and Bronzewing pigeon,BN2 7HX,50.803708450000000,-0.058250221000000
Egret and Elephant,BN25 2SD,50.788378390000000,0.076724169000000
Night heron and Chicken,BN25 1AF,50.770906130000000,0.105369000000000
Linsang and Mockingbird,BN25 3QY,50.785031040000000,0.111873628000000
Kestrel and American sparrow,BN1 4ZL,50.831705974669800,-0.134626000000000
Old World quail and Peafowl,BN10 8BW,50.802819450000000,0.008587496000000
Magpie and Jay,BN25 3HG,50.780518750000000,0.116195615000000
Duck and Tree warbler,BN25 3UG,50.778543670000000,0.130816609000000
Greenbul and Thrasher,BN2 3HR,50.834487860000000,-0.128351789000000
Tattler and Chickadee,BN10 8ES,50.790342330000000,0.007712091000000
Magpie and Prion,BN2 0GH,50.826840670000000,-0.126499307000000
Songlark and Macaw,BN1 4GH,50.832220190000000,-0.138951337000000
American sparrow and American sparrow,BN25 4ND,50.772072000000000,0.122793000000000
Tree warbler and Crow,BN2 3RG,50.836249870000000,-0.133053000000000
Grosbeak and Mouse,BN10 7AU,50.797523450000000,-0.020418571000000
Ice seal and Hawk,BN2 3FD,50.834275690000000,-0.130263313000000
Stilt and Rabbit,BN2 8EH,50.800973770000000,-0.029256193000000
Chickadee and Argus,BN1 9GG,50.861698420000000,-0.113606516000000
Goose and Rat,BN10 9DR,50.794466000000000,0.004114000000000
Francolin and Pheasant,BN2 5ZD,50.818721000000000,-0.110895000000000
Warbler and Quetzal,BN25 2SQ,50.789963000000000,0.075702000000000
Minke whale and Marmoset,BN2 1LQ,50.820940960000000,-0.125940369000000
Tree warbler and American sparrow,BN1 4HF,50.830903080000000,-0.135879560000000
Nukupuʻu and Polecat,BN2 3RY,50.835711740000000,-0.132890139000000
Lemming and Parakeet,BN2 7LA,50.820348660000000,-0.045988941000000
Warbler and Boto,BN2 8FD,50.808465560000000,-0.043688585000000
American sparrow and Guillemot,BN10 7PF,50.793756820000000,-0.005210306000000
Myna and Duck,BN2 9SP,50.830424750000000,-0.129593552000000
Partridge and Condor,BN2 8QT,50.811815020000000,-0.033754028000000
Wader and Rat,BN2 8LN,50.803334770000000,-0.036466010000000
Philippine hawk-owl and Black cockatoo,BN7 3NX,50.856581380000000,-0.022366133000000
Solitaire and Scimitar babbler,BN1 8GA,50.857515680000000,-0.130882747000000
Badger and Prion,BN7 2FE,50.877952800000000,0.021042167000000
Pratincole and Masked owl,BN1 4ZJ,50.831327000000000,-0.135302808730280
Viscacha and Solitaire,BN25 2SH,50.785827550000000,0.079562116000000
Condor and Badger,BN2 1PF,50.819836070000000,-0.131067266000000
Jackal and Parakeet,BN9 0AY,50.792774710000000,0.056003687000000
Zebra and Kākāriki,BN2 8HG,50.812465730000000,-0.035543702000000
Stilt and Ibex,BN2 8AP,50.808853350000000,-0.045361494000000
Diving bird and Night heron,BN1 9JE,50.855363110000000,-0.104484729000000
White ibis and Gull,BN1 6FE,50.842123390000000,-0.135659701000000
Petrel and Mink,BN2 8SE,50.805987340000000,-0.040712155000000
Fish eagle and White ibis,BN2 5LE,50.826049590000000,-0.104252284000000
Wallaby and Stint,BN2 3RB,50.834992950000000,-0.132933026000000
Fulmarine petrel and Scimitar babbler,BN2 6TN,50.831150960000000,-0.061144711000000
Pitohui and Minke whale,BN25 3BE,50.781369440000000,0.111935622000000
River dolphin and Mole,BN25 2NE,50.778998620000000,0.092142000000000
Hawk and Kangaroo,BN2 4NP,50.852972670000000,-0.106258124000000
Grackle and Skunk,BN10 8AS,50.806659640000000,0.008070903000000
Tattler and Egret,BN25 1EA,50.771134990000000,0.097958188000000
Elephant and Wader,BN2 7HB,50.806050630000000,-0.056861522000000
River dolphin and Songlark,BN2 8BQ,50.802732000000000,-0.036378000000000
Minke whale and Buzzard,BN2 7DP,50.809458260000000,-0.053568978000000
Ground sloth and Kestrel,BN9 0PH,50.803562350000000,0.054234755000000
Fox and Herring gull,BN25 3SP,50.776999870000000,0.126703755000000
Meadowlark and Dorcopsis,BN10 7SR,50.804051000000000,-0.001266000000000
Wader and Goose,BN8 6SA,50.854664770000000,0.069480006000000
Eagle and Mole,BN25 2LL,50.779534930000000,0.096972305000000
Badger and Dolphin,BN7 3ES,50.845931900000000,0.001957900000000
Old World warbler and Scimitar babbler,BN25 3PX,50.777552960000000,0.116075913000000
Stint and River dolphin,BN2 8AL,50.807851880000000,-0.047319469000000
Solitaire and Mamo,BN2 3LF,50.834484760000000,-0.126477271000000
Philippine hawk-owl and Siskin,BN25 4BE,50.773590000000000,0.129797000000000
Duck and Perching duck,BN7 2AW,50.874555580000000,0.018308199000000
Grouse and Buzzard,BN1 9RW,50.869435360000000,-0.088891333000000
Ibex and Dorcopsis,BN9 9PQ,50.793537460000000,0.047409812000000
Lemming and Pratincole,BN25 2XE,50.784622970000000,0.098107929000000
Quetzal and Nukupuʻu,BN7 2RF,50.873077560000000,0.015884854000000
Tattler and American sparrow,BN25 2JL,50.777607810000000,0.102602645000000
Masked owl and Skunk,BN2 5NE,50.819539120000000,-0.104302990000000
Wader and Darwin's finches,BN25 1SU,50.774681650000000,0.108754966000000
Parakeet and Mockingbird,BN2 4PW,50.850942620000000,-0.104195103000000
Diving bird and Guillemot,BN7 1EX,50.870819690000000,-0.005546437000000
Vulture and Vulture,BN1 6JA,50.837968210000000,-0.133396604000000
Argus and Black cockatoo,BN10 8BJ,50.794646820000000,-0.001511404000000
Crow and Bronzewing pigeon,BN7 3EH,50.847738400000000,-0.005849133000000
Moluccan boobook and Triller,BN25 3QB,50.779410880000000,0.114797972000000
Kite and Mouse,BN10 7RE,50.797880430000000,-0.005474640000000
Mockingbird and Myna,BN2 7FE,50.813479180000000,-0.065510649000000
Macaw and Tahr,BN2 3PZ,50.831592280000000,-0.121097313000000
Warbler and Greenbul,BN2 4NB,50.839051860000000,-0.104662830000000
Mole and Logrunners,BN25 3SS,50.778878650000000,0.125767644000000
Pitohui and Old World warbler,BN25 4PZ,50.772418870000000,0.116000209000000
Old World warbler and Stilt,BN2 4PU,50.854229520000000,-0.103905541000000
White ibis and Fulmarine petrel,BN1 4AQ,50.826908880000000,-0.139190951000000
Flameback and Mole,BN2 7HY,50.803208040000000,-0.055205394000000
Tattler and Tit-tyrant,BN25 3TH,50.776164200000000,0.128141042000000
Nukupuʻu and Quetzal,BN25 4HA,50.769505760000000,0.111982732000000
Rabbit and Chickadee,BN10 8LJ,50.790777760000000,-0.001931821000000
Wallaby and Capuchin,BN25 4JT,50.766505300000000,0.112287234000000
Grackle and Zebra,BN2 8EG,50.800176960000000,-0.032667313000000
Recurvebill and Badger,BN7 1JX,50.875735320000000,0.013939000000000
Asiatic leopard and Booted eagles,BN10 7SQ,50.804099040000000,-0.002030638000000
Parrotlet and Rat,BN9 0AG,50.796396780000000,0.058688571000000
Parakeet and Goose,BN25 3JF,50.782691680000000,0.115896501000000
Boto and Mockingbird,BN7 1JU,50.869109000000000,0.000421000000000
Philippine hawk-owl and Quetzal,BN2 3QE,50.836928810000000,-0.122984980000000
Triller and Tahr,BN25 3RU,50.778679660000000,0.123361296000000
Parrotbill and Egret,BN2 5SF,50.811298990000000,-0.095892580000000
Chipmunk and Moluccan boobook,BN9 0NB,50.802307140000000,0.061659090000000
Pratincole and Ibex,BN10 7NY,50.794343920000000,-0.003780513000000
Fox and Kite,BN2 4HN,50.850962120000000,-0.110942578000000
Maya and Recurvebill,BN25 3NY,50.775478940000000,0.111751000000000
Snipe and Gull,BN9 9TR,50.788272090000000,0.036340044000000
Ice seal and Shearwater,BN1 9PW,50.858017000000000,-0.091234000000000
Grackle and Condor,BN2 5GY,50.823341000000000,-0.107452551000000
Condor and Pheasant,BN25 3JH,50.781350120000000,0.120928764000000
Chicken and Thicketbird,BN2 5WB,50.813298020000000,-0.102667689000000
Darwin's finches and Cuscus,BN9 9DQ,50.789365990000000,0.051923920000000
Peafowl and Black jay,BN7 2NT,50.874073030000000,0.010313234000000
Linsang and Kākāriki,BN25 1ED,50.771290080000000,0.100333699000000
Linsang and Night heron,BN1 7FH,50.843751040000000,-0.123307805000000
Towhee and B,BN1 7BF,50.842025550000000,-0.126743414000000
Crow and Scimitar babbler,BN2 0LS,50.821177230000000,-0.119385723000000
Mink and Thrasher,BN2 0HG,50.823472470000000,-0.129573215000000
Thicketbird and Kestrel,BN2 9AE,50.830295069864400,-0.116406473435382
Dolphin and Mamo,BN9 0NG,50.800698000000000,0.066675334000000
Capuchin and Grackle,BN2 5GB,50.822232630000000,-0.104023528000000
Siskin and Nukupuʻu,BN25 3QP,50.778397200000000,0.115149426000000
Mamo and Civet,BN25 4JF,50.768556450000000,0.130547121000000
Bronzewing pigeon and Tit-tyrant,BN26 6UN,50.833021940000000,0.140483011000000
White ibis and Francolin,BN9 0QL,50.804749190000000,0.059353758000000
Darwin's finches and Mamo,BN7 2UF,50.872485090000000,0.014779055000000
Stilt and Fox,BN1 9AQ,50.858318590000000,-0.109821192000000
Kangaroo and Thicketbird,BN2 1EE,50.818574860000000,-0.121974745000000
Lemming and New World blackbird,BN9 9SP,50.795102290000000,0.042284591000000
Treepie and Quetzal,BN7 2NN,50.874163110000000,0.013840000000000
Fish eagle and Vole,BN9 9EZ,50.787984760000000,0.045563955000000
Coati and Eagle,BN2 6DD,50.834744100000000,-0.086488404000000
Pheasant and Eagle,BN1 4FN,50.828854630000000,-0.138261576000000
Mole and Warbler,BN2 7AZ,50.802230564037800,-0.056367224292039
Tattler and Bunting,BN2 7DJ,50.809824070000000,-0.050700684000000
Parrotbill and Thicketbird,BN9 9DP,50.788260830000000,0.050329023000000
Coati and Wader,BN7 1BJ,50.875874550000000,0.002302623000000
Mouse and Scimitar babbler,BN10 7SL,50.803582380000000,0.000303305000000
Tattler and River dolphin,BN1 9HW,50.855776950000000,-0.102279865000000
Wader and Minke whale,BN7 2DS,50.875552750000000,0.007946221000000
Cloud rat and Ice seal,BN7 2FR,50.873451000000000,0.013300000000000
Coati and Marmoset,BN9 0SB,50.804776510000000,0.064421911000000
Zebra and Chickadee,BN25 2FA,50.792043207905300,0.098869000000000
Cloud rat and Badger,BN8 6LD,50.855913300000000,0.075645015000000
Cloud rat and Songlark,BN1 8AE,50.857109700000000,-0.133612841000000
Boto and Jay,BN7 2LF,50.872084770000000,0.013482576000000
Triller and Zebra,BN25 2NB,50.777298000000000,0.093830250000000
Asiatic leopard and Old World quail,BN10 7NH,50.792080140000000,-0.003933715000000
New World blackbird and Rat,BN10 7HY,50.791921000000000,-0.007675025000000
Siskin and Marmoset,BN2 3AZ,50.832494070000000,-0.127962901000000
Crow and Vole,BN2 8LG,50.801021630000000,-0.037428677000000
Marmoset and Old World vulture,BN10 8PY,50.787349390000000,0.017501118000000
Old World vulture and Tattler,BN25 4WE,50.771520000000000,0.100642000000000
Wallaby and Vulture,BN1 7JA,50.841476400000000,-0.132319153000000
Coati and New World blackbird,BN7 2QX,50.880353320000000,0.015886103000000
Minke whale and Tahr,BN7 2RB,50.877617960000000,0.021681579000000
Ground sloth and Marsh harrier,BN7 9TR,50.873320000000000,0.012043000000000
Logrunners and Linsang,BN2 6RD,50.830957380000000,-0.066279245000000
Tit-tyrant and Hawaiian honeycreeper,BN2 8DR,50.801081820000000,-0.026072669000000
Civet and Egret,BN9 9SE,50.793932890000000,0.043837066000000
Marmoset and Dorcopsis,BN2 0EE,50.822936690000000,-0.119740983000000
Vole and Solitaire,BN9 9LQ,50.792861620000000,0.046103000000000
Stint and Piping shrike,BN2 0AQ,50.821613440000000,-0.125814060000000
Treepie and Francolin,BN2 6PG,50.838172150000000,-0.068026269000000
Vulture and Perching duck,BN1 1EG,50.821361490000000,-0.138162073000000
Grosbeak and Capuchin,BN2 1QA,50.821324730000000,-0.131362776000000
Triller and Old World warbler,BN9 0TP,50.811172150000000,0.053149091000000
Tree warbler and Petrel,BN25 4HN,50.768557550000000,0.120619572000000
Triller and Mole,BN1 7FD,50.845509740000000,-0.122498566000000
Siskin and B,BN2 8FN,50.810388030000000,-0.038739500000000
Logrunners and White ibis,BN1 4QQ,50.836395040000000,-0.135689148000000
Solitaire and Viscacha,BN2 4JL,50.840215430000000,-0.098792202000000
Pratincole and Herring gull,BN7 2HY,50.883166700000000,0.018580793000000
Darwin's finches and Grosbeak,BN9 9EW,50.787065840000000,0.050262552000000
Mink and Kestrel,BN1 4JX,50.832156000000000,-0.137671542000000
Argus and Jackal,BN2 7FS,50.816515670000000,-0.063142137000000
Thicketbird and Snipe,BN2 9NZ,50.826158090000000,-0.128798520000000
Recurvebill and Kite,BN2 4RR,50.850887520000000,-0.103018168000000
Flameback and Cuscus,BN1 1NN,50.820220560000000,-0.138688000000000
Fulmarine petrel and Thicketbird,BN1 4LS,50.832003420000000,-0.139456996000000
Jerboa and Minke whale,BN2 5QU,50.830753330000000,-0.104814367000000
Viscacha and Philippine hawk-owl,BN1 8LR,50.861203410000000,-0.136532947000000
Perching duck and Eagle,BN2 5RQ,50.812562470000000,-0.085719994000000
Asiatic leopard and Kite,BN25 3RA,50.774598670000000,0.121758047000000
Asiatic leopard and Flameback,BN25 4DR,50.771901340000000,0.129606996000000
River dolphin and Logrunners,BN2 8DG,50.801403330000000,-0.026470687000000
Scimitar babbler and Marsh harrier,BN25 3EQ,50.785617000000000,0.118388408000000
Magpie and Linsang,BN1 4GZ,50.829762460000000,-0.138793474000000
Prion and Ground sloth,BN2 9NW,50.826891890000000,-0.129692149000000
Philippine hawk-owl and Prion,BN10 7EU,50.794184360000000,-0.016785000000000
Moluccan boobook and Jackal,BN25 3AG,50.780617010000000,0.106794794000000
Fulmarine petrel and Diving bird,BN1 9PX,50.864247670000000,-0.085692841000000
Kangaroo and Grosbeak,BN2 7BQ,50.817212800000000,-0.077181000000000
Guillemot and New World blackbird,BN25 1AS,50.769898570000000,0.110156678000000
Myna and Perching duck,BN25 1EY,50.772676910000000,0.098736356000000
Skunk and Jerboa,BN25 3RJ,50.775355060000000,0.124671700000000
Prion and Jay,BN9 9JS,50.790515950000000,0.048412889000000
Maya and Grosbeak,BN10 7BD,50.796597660000000,-0.025225703000000
Kestrel and Jerboa,BN2 7BB,50.818731000000000,-0.075161000000000
Magpie and Condor,BN25 3NJ,50.776129820000000,0.113217317000000
Old World quail and Hawaiian honeycreeper,BN7 2SS,50.880553260000000,-0.000965533000000
Crow and Badger,BN10 8SA,50.789577100000000,0.015057296000000
Cuscus and Mouse,BN2 4JB,50.841679670000000,-0.103661497000000
Zebra and Boto,BN7 1XY,50.871967780000000,0.004082435000000
Hawk and Skunk,BN2 9DG,50.829431130000000,-0.114240132000000
Jackal and Recurvebill,BN7 1YS,50.873042710000000,0.007994694000000
Philippine hawk-owl and Stint,BN9 9NG,50.793593130000000,0.043722917000000
Jackal and Tahr,BN2 0BL,50.823913520000000,-0.123435983000000
Diving bird and Vole,BN25 4NG,50.771683540000000,0.126264043000000
Scimitar babbler and Old World vulture,BN9 1BR,50.793825000000000,0.047238000000000
Peafowl and Piping shrike,BN25 2RW,50.780877780000000,0.086623000000000
Elephant and Logrunners,BN2 4AW,50.837660750000000,-0.129361076000000
Ice seal and Wallaby,BN7 1WA,50.879395070000000,0.016171709000000
Pheasant and Songlark,BN9 0LT,50.799627050000000,0.067246145000000
Tree warbler and Civet,BN25 2JY,50.780896230000000,0.096792045000000
Elephant and Dolphin,BN2 1JF,50.820072490000000,-0.127863400000000
Petrel and Vulture,BN2 5TA,50.816370390000000,-0.107994588000000
Duck and Moluccan boobook,BN7 9TS,50.873320000000000,0.012043000000000
Perching duck and Diving bird,BN7 1LD,50.869373240000000,-0.007214206000000
Coati and Minke whale,BN2 1SA,50.821331700000000,-0.134045888000000
Shearwater and Skunk,BN8 6SD,50.863252230000000,0.068041245000000
White ibis and Linsang,BN25 2RD,50.781761700000000,0.084134097000000
Moluccan boobook and Boto,BN25 3DH,50.778339360000000,0.107415872000000
Meadowlark and Recurvebill,BN8 6NU,50.846836800000000,0.084831124000000
Armadillo and Marsh harrier,BN2 1HJ,50.819496860000000,-0.120589014000000
Kākāriki and Parakeet,BN2 0GU,50.823603190000000,-0.129312418000000
Goose and Black cockatoo,BN1 6LT,50.847025490000000,-0.136828029000000
Tahr and American sparrow,BN8 6LA,50.848719000000000,0.068683076000000
Macaw and Prion,BN1 8DJ,50.861758190000000,-0.128912000000000
Triller and Greenbul,BN2 3HQ,50.833736000000000,-0.127956000000000
Kestrel and Kestrel,BN25 3DR,50.779094030000000,0.109449948000000
Warbler and Pratincole,BN25 1HH,50.771896000000000,0.100737592000000
Shearwater and Chicken,BN1 4HY,50.830489040000000,-0.136421476000000
Triller and Stilt,BN9 0RT,50.806095640000000,0.066112318000000
Minke whale and Egret,BN2 5JH,50.817239890000000,-0.112814694000000
Stilt and Greenbul,BN2 8PG,50.804340730000000,-0.030519615000000
Marsh harrier and Quetzal,BN10 7UH,50.806410180000000,-0.002542362000000
Petrel and Mamo,BN9 9LJ,50.792252670000000,0.048871926000000
Petrel and Jerboa,BN9 9TS,50.788138350000000,0.036788250000000
River dolphin and Dorcopsis,BN9 0NL,50.801654410000000,0.063986263000000
Mole and Wallaby,BN2 7FJ,50.813118000000000,-0.062616000000000
Skunk and Asiatic leopard,BN25 2TU,50.780680630000000,0.092271285000000
Snipe and Boto,BN2 9YF,50.828319280000000,-0.116116733000000
Mole and Parakeet,BN25 4QH,50.775242470000000,0.112553210000000
Mouse and Ground sloth,BN10 7HB,50.793535850000000,-0.014925405000000
Chipmunk and Condor,BN10 7EH,50.794158060000000,-0.013437495000000
Francolin and Pheasant,BN1 4JA,50.830174470000000,-0.136434004000000
Tahr and Egret,BN7 1HN,50.869099290000000,-0.004340738000000
Perching duck and Hawk,BN2 5JP,50.819152360000000,-0.109287677000000
Asiatic leopard and Old World quail,BN9 0BP,50.791186540000000,0.056302913000000
Dorcopsis and Badger,BN2 6DF,50.836164200000000,-0.084243150000000
Jerboa and Masked owl,BN2 3FQ,50.835487100000000,-0.129533199000000
Siskin and Diving bird,BN25 1DZ,50.771240840000000,0.096572986000000
Minke whale and Condor,BN1 7BH,50.841934450000000,-0.124431794000000
Duck and Nukupuʻu,BN2 8AW,50.805019010000000,-0.044641554000000
Shearwater and Chicken,BN7 2TD,50.882362350000000,-0.002622529000000
Tahr and Darwin's finches,BN26 6UR,50.829193560000000,0.135905658000000
Moluccan boobook and Dorcopsis,BN2 8RQ,50.801560290000000,-0.035234733000000
Flameback and Old World quail,BN2 5UZ,50.813689970000000,-0.100777992000000
Crow and Ice seal,BN9 0EP,50.799195000000000,0.063793000000000
Old World quail and Pheasant,BN1 7HP,50.844889000000000,-0.132012421000000
Lemming and Viscacha,BN7 2PT,50.876268630000000,0.011289034000000
Magpie and Parrotlet,BN9 9JF,50.789160520000000,0.037996124000000
Jerboa and Old World vulture,BN2 5EY,50.819753590000000,-0.109760302000000
Chipmunk and Old World warbler,BN1 4BL,50.833718340000000,-0.134773289000000
Masked owl and Old World vulture,BN2 4QA,50.852051050000000,-0.102672612000000
Guillemot and Guillemot,BN8 5UN,50.883080510000000,0.079325964000000
Dolphin and Gull,BN25 1PH,50.771077710000000,0.102636015000000
Flameback and Greenbul,BN1 9RX,50.866292530000000,-0.083704729000000
Crow and Darwin's finches,BN2 3QH,50.837358620000000,-0.121192395000000
Stint and Hawaiian honeycreeper,BN10 7DZ,50.803263920000000,-0.005784715000000
Thrasher and Hawk,BN2 6WL,50.826737640000000,-0.062378326000000
Egret and Black cockatoo,BN2 5QF,50.833350280000000,-0.104680777000000
Booted eagles and Chickadee,BN10 7NS,50.793933680000000,-0.002932417000000
Guillemot and Mole,BN2 4PA,50.849465350000000,-0.110704709000000
Skunk and Triller,BN2 6LB,50.827551530000000,-0.067527567000000
Jerboa and Triller,BN9 9RJ,50.791900490000000,0.050488286000000
Black cockatoo and White ibis,BN25 3RD,50.775475220000000,0.122024668000000
Guillemot and Parrotbill,BN2 6BA,50.835936280000000,-0.079679326000000
Viscacha and Hawk,BN1 9EZ,50.863610440000000,-0.113758000000000
B and Chickadee,BN2 3AJ,50.834609320000000,-0.125833199000000
Pitohui and Myna,BN25 2PS,50.776012860000000,0.091381000000000
Polecat and Rabbit,BN7 1EZ,50.872282970000000,-0.010131797000000
Magpie and Skunk,BN1 8DQ,50.860315040000000,-0.135531056000000
Rabbit and Masked owl,BN2 5ND,50.819354070000000,-0.103983946000000
Tattler and Mink,BN25 3TT,50.776709310000000,0.129811220000000
Boto and Cloud rat,BN8 6NY,50.846224460000000,0.087389275000000
Viscacha and Treepie,BN7 1SH,50.873833710000000,-0.001935338000000
Petrel and Old World warbler,BN1 7EE,50.840658990000000,-0.127891826000000
Viscacha and Kākāriki,BN7 2DE,50.873289450000000,0.010379014000000
Wader and Meadowlark,BN1 8LH,50.862092510000000,-0.133641248000000
Tahr and Prion,BN2 5FB,50.818787160000000,-0.106179064000000
Night heron and Black cockatoo,BN9 9RN,50.799724590000000,0.036653378000000
Lemming and Solitaire,BN1 8RE,50.867129330000000,-0.138741084000000
