name,postcode,lat,lon
Stilt and Petrel,RH10 6LD,51.111722001864600,-0.169733837076597
Rabbit and Badger,RH10 7GX,51.111306806426400,-0.146234610518205
Warbler and Cloud rat,RH19 2PJ,51.142633482336200,-0.055656623878929
Grouse and Guillemot,RH10 3GG,51.136889000000000,-0.143939000000000
Peafowl and Prion,RH10 3BB,51.126689462486000,-0.155051054822614
Lemming and Duck,RH13 5NG,51.062560622399900,-0.310947702605089
Snipe and Elephant,RH15 9DL,50.955293418900000,-0.153517587300000
Tree warbler and Dolphin,TN22 9EU,50.967907423168400,0.086473190623301
Rat and Marsh harrier,BN6 9UT,50.935785760000000,-0.177005560000000
Old World vulture and Old World quail,RH10 1JW,51.114883056251800,-0.176352690660111
Recurvebill and Tattler,RH10 1YA,51.117517412738500,-0.186722372988158
Booted eagles and Shearwater,RH17 5BF,51.007619073391700,-0.132310699572631
Skunk and Civet,RH10 7JQ,51.106063120869600,-0.154715376889196
Kākāriki and Tree warbler,RH10 9BD,51.128763000000000,-0.178480000000000
Minke whale and Nukupuʻu,TN22 1DF,50.975231762035700,0.095747488764585
Peafowl and Buzzard,RH18 5AY,51.090914315671600,0.034154100694101
Parakeet and Meadowlark,RH13 8AF,50.991340025852200,-0.274305703295203
Thicketbird and Pheasant,RH19 3NN,51.135161083225600,0.008667532519366
Scimitar babbler and Puffleg,RH16 4QF,50.990560679921300,-0.102843664923079
Fulmarine petrel and Pratincole,RH16 3BW,51.003132201822100,-0.104440362763976
Pratincole and Petrel,RH19 3TA,51.114275461504300,0.018263159852434
Fish eagle and Partridge,BN5 0EJ,50.916221990917900,-0.264594958904916
Masked owl and Myna,RH10 7BY,51.114228017969200,-0.151818400084355
Condor and Scimitar babbler,RH10 8AL,51.128250835917000,-0.165121693522346
Magpie and Capuchin,BN5 9AA,50.944241290000000,-0.274797493000000
Quetzal and Rat,BN44 3SN,50.894888500000000,-0.324315415000000
Old World warbler and B,RH11 0DB,51.117751000000000,-0.210027479182235
Kākāriki and Eagle,TN22 5UB,50.925146700530600,0.064452681724746
Jerboa and Vole,RH16 1EN,51.002913366347900,-0.118160923877456
Mockingbird and Hawaiian honeycreeper,TN22 2HD,51.001206229731100,0.081595738709557
Old World quail and Partridge,BN5 9JT,50.938337340000000,-0.269635830000000
Jay and Diving bird,RH17 7SR,50.989384739961200,-0.078767796682356
Minke whale and Darwin's finches,TN22 1TX,50.975229176625500,0.105889927335445
Diving bird and Stilt,RH16 1XX,51.025537519189300,-0.091376824165110
Maya and Kestrel,RH10 9BE,51.126881439500000,-0.178667032600000
Ice seal and Cuscus,RH12 4QE,51.107262261454300,-0.323918073265951
Towhee and Chicken,TN22 1DY,50.972158226560200,0.099127440429432
Petrel and Treepie,RH16 4DS,50.993083455009800,-0.094290377299405
Prion and Recurvebill,RH12 0AD,51.098002987300000,-0.240343000000000
Bunting and Warbler,TN22 1QT,50.971046552255800,0.099931947890871
Condor and Recurvebill,RH10 8JE,51.120846083985100,-0.187963831190827
Dolphin and Snipe,TN22 2EA,50.989179258272500,0.097330417437292
Crow and Tahr,RH11 8BU,51.112785275697400,-0.220553281064496
Old World quail and Kangaroo,RH16 3LB,50.995659373019400,-0.098388915916848
Nukupuʻu and Parrotlet,RH12 4TW,51.093264123126700,-0.309815036957131
Civet and White ibis,TN22 3TX,51.025440735234600,0.107337741194336
Dolphin and Recurvebill,RH13 6BL,51.064946409598900,-0.302440387242270
Tattler and Triller,BN7 2RT,50.882140890000000,0.020058000000000
Linsang and Macaw,RH77 1AW,51.138773697146600,-0.169779259843569
Grackle and Booted eagles,BN8 4SU,50.914976910000000,-0.002862491000000
Peafowl and Kākāriki,RH10 7RZ,51.091054000000000,-0.137634000000000
Eagle and Rat,RH10 3NF,51.130265561015500,-0.145189714747732
Philippine hawk-owl and Black jay,RH19 1FG,51.132027843236100,-0.021183991017313
Asiatic leopard and Prion,BN5 9LB,50.934869720000000,-0.271102355000000
Dolphin and Goose,TN22 5PR,50.965483557550500,0.133449332669955
Mink and Puffleg,BN6 8QJ,50.922976940000000,-0.133596376000000
Old World vulture and Chickadee,RH19 4AR,51.114526878794900,-0.008987030705771
Peafowl and Solitaire,RH19 9PS,51.125869000000000,-0.009715000000000
Vole and Tree warbler,RH13 5SP,51.065034167797400,-0.315967059588456
Bronzewing pigeon and Tattler,RH10 5BD,51.101833540106300,-0.183822348534257
Rat and Ibex,RH11 9EP,51.101546188190600,-0.208915357882420
Thicketbird and Tit-tyrant,RH12 1LA,51.057753326749300,-0.345170276813841
Buzzard and Asiatic leopard,RH12 1SD,51.059139884518900,-0.338556000000000
Minke whale and Jerboa,RH11 7JA,51.115576646567800,-0.204315173061441
Diving bird and Mole,RH12 9SY,51.064173000000000,-0.325049000000000
Egret and Peafowl,RH13 8DJ,51.002538600726900,-0.283610693327356
River dolphin and Pitohui,RH12 1EB,51.063117239070400,-0.327139781810863
Francolin and American sparrow,BN8 5AE,50.916520000000000,0.089381000000000
Flameback and Partridge,RH16 1NE,51.006649833006800,-0.120661032954686
Maya and Badger,RH10 4AE,51.119288779700000,-0.079599618400000
Egret and Parrotbill,TN22 3AT,50.993240739602100,0.101532221997905
Greenbul and Polecat,BN5 9AZ,50.977062070000000,-0.238367563000000
Francolin and Mouse,TN6 1SN,51.064289093008800,0.149978263660025
Maya and Armadillo,BN6 8BU,50.925959430000000,-0.134515781000000
Siskin and Kite,RH12 9UR,51.067515000000000,-0.321674000000000
Polecat and Stilt,RH11 7JZ,51.115758580415100,-0.203279396515303
Ibex and Magpie,RH15 0LP,50.959682000000000,-0.117473000000000
Old World warbler and Crow,RH16 1LY,51.006635541488400,-0.111966427346856
Fox and Pratincole,RH12 1TF,51.067525094830000,-0.321700000000000
Moluccan boobook and Capuchin,RH11 9TB,51.091575815791400,-0.200903720176005
Old World vulture and Parrotbill,RH10 7NN,51.107767000000000,-0.143505000000000
Kangaroo and Thicketbird,RH12 4QG,51.094362700462000,-0.262675928763598
Old World warbler and Thicketbird,RH10 8EE,51.124202178911700,-0.177657690526052
Stint and Parakeet,RH16 2EG,51.008191136632000,-0.082139013293719
Tahr and Dorcopsis,RH12 4HT,51.074912276765200,-0.303289000000000
Flameback and Magpie,RH19 3EA,51.135469823086100,0.001676733471486
Flameback and Warbler,RH11 8PF,51.108183102293800,-0.204816014094089
Wader and Wader,BN5 9SS,50.917746110000000,-0.239171477000000
Polecat and Piping shrike,TN22 3NL,51.031786621308000,0.055539049209937
Parrotbill and Egret,RH17 5QQ,51.005524250861200,-0.211661134747829
Kākāriki and Magpie,RH19 2SH,51.135345797445300,-0.018497772703350
Linsang and Mockingbird,RH17 7BL,51.036088814305100,-0.022292871319613
Minke whale and Jackal,RH12 9ST,51.064173000000000,-0.325049000000000
Stilt and Marsh harrier,RH19 3TE,51.110383125522000,0.023365316796097
Dorcopsis and Puffleg,TN22 2DB,50.974200203534000,0.085045915303548
Meadowlark and Solitaire,BN6 8PY,50.929527370000000,-0.145088805000000
Civet and Viscacha,RH16 1QY,51.010285658937500,-0.096379457726893
Herring gull and Grosbeak,RH16 2DE,51.014861344568000,-0.092955757952556
Songlark and Coati,RH16 2YR,51.006413695197800,-0.103821949549961
Thrasher and Tit-tyrant,RH16 3SJ,50.993182000000000,-0.081561000000000
Diving bird and Condor,RH17 7BA,51.047468000000000,-0.036232000000000
Pitohui and Kākāriki,RH19 2PU,51.136376223339700,-0.068798790546993
Gull and Stint,RH12 2EG,51.072639260804200,-0.322642634119418
Grosbeak and Black jay,RH12 2JX,51.066993445800700,-0.335977512496561
Vulture and Guillemot,RH16 2BB,51.008532067886400,-0.089223957123490
Perching duck and Solitaire,RH16 9NT,51.006411000000000,-0.103795000000000
Mole and Skunk,RH11 8DQ,51.111942819835500,-0.220742793137044
Bronzewing pigeon and Lemming,RH10 1QN,51.119721000000000,-0.173919000000000
Boto and Night heron,BN8 5EL,50.899452340000000,0.077111288000000
Philippine hawk-owl and Mole,RH12 1XQ,51.063074547867500,-0.326670364474530
Rat and Snipe,RH19 2PB,51.141958795414900,-0.056559000000000
Jerboa and Chipmunk,BN5 9LW,50.902245040000000,-0.242970536000000
New World blackbird and Puffleg,TN22 3XR,50.985684569683200,0.058702423854050
Puffleg and Masked owl,BN7 2HE,50.880337170000000,0.017861434000000
Tree warbler and Bunting,RH19 3UH,51.126695473324300,0.002026224274701
Parrotlet and Dorcopsis,RH13 6EH,51.057123229756900,-0.311588000000000
Marsh harrier and Boto,RH19 4RY,51.118046820747400,-0.004977712731298
Egret and Kākāriki,TN22 5BB,50.967693374031800,0.099353425757081
Kangaroo and Maya,RH16 2EN,51.006375891579400,-0.086062564073736
Fox and Tattler,BN5 9SZ,50.932354290000000,-0.234023100000000
Egret and Asiatic leopard,RH16 3TE,50.996033235830900,-0.099257205609818
Ibex and Darwin's finches,BN7 2ED,50.882826510000000,0.008585911000000
Francolin and Petrel,RH19 4YZ,51.123635000000000,-0.010930614123207
Perching duck and Prion,TN22 4AL,51.012180803905200,0.132568000000000
New World blackbird and Black cockatoo,RH15 8TD,50.966606001965800,-0.140521717878676
Meadowlark and Solitaire,BN7 3AR,50.903635260000000,-0.074534136000000
Parrotlet and Zebra,BN6 9SD,50.942170000000000,-0.177514521000000
Parrotbill and Pratincole,RH17 6TS,51.047295409194100,-0.077314200589409
Linsang and River dolphin,BN6 8RX,50.922142510000000,-0.079376266000000
Fish eagle and Siskin,RH17 7EJ,51.034682000000000,-0.031605945759447
Partridge and Triller,BN6 9PJ,50.910102280000000,-0.147952153000000
Magpie and Gull,RH10 5NJ,51.104737301154100,-0.182022975089360
Chickadee and Ground sloth,RH15 0AE,50.952056703098200,-0.114833953430417
Maya and Tit-tyrant,RH10 5LN,51.099460479753900,-0.176959599040355
Magpie and Bunting,RH11 7TG,51.126884408859700,-0.195201870793891
Parrotbill and Black jay,RH10 1WS,51.116858000000000,-0.188177000000000
Petrel and Wader,RH16 4PA,50.993652855110500,-0.100537250374337
Gull and Vole,BN8 5BE,50.922892170000000,0.021637269000000
Mockingbird and Rabbit,BN8 4HB,50.971228030000000,-0.017471726000000
Vulture and Asiatic leopard,RH10 4EY,51.117144000000000,-0.082075000000000
Fox and Bunting,TN22 1QJ,50.969734723872300,0.095357596812305
Warbler and Perching duck,RH16 1QQ,51.006222351318200,-0.102561119895912
Kangaroo and Warbler,RH16 4ZJ,50.986092000000000,-0.104737000000000
Dorcopsis and Argus,TN22 3SJ,50.989936688515200,0.039838897833107
Partridge and Grackle,RH19 1AN,51.124907000000000,-0.010299000000000
Marsh harrier and Solitaire,RH12 4QY,51.117927045752400,-0.284796514524347
Buzzard and Lemming,RH17 6LU,51.057259945925700,-0.128844163678452
Tahr and Mamo,RH16 2QJ,51.007230326112900,-0.061512000000000
Jay and Cloud rat,RH5 5BU,51.142292000000000,-0.258132000000000
Rat and Fulmarine petrel,BN44 3WX,50.880489880000000,-0.321150134000000
Treepie and Parrotlet,RH11 7EG,51.119478450295900,-0.191403833249216
B and Kangaroo,RH16 4LA,50.996685826443200,-0.101781535729003
Pratincole and Stint,RH12 4SY,51.081149161571900,-0.245624416817034
Scimitar babbler and Peafowl,RH18 5NF,51.092280341510400,0.056820907957384
Darwin's finches and New World blackbird,RH19 2GW,51.145619804300000,-0.017257000000000
Mink and Logrunners,RH11 8GL,51.098549759339100,-0.228869537027951
Jackal and Pitohui,RH12 1SY,51.061727992360200,-0.342759000000000
Guillemot and Kākāriki,BN8 4PR,50.915978010000000,-0.010928936000000
Jerboa and Mamo,BN7 2HZ,50.884222000000000,0.020560000000000
Quetzal and Cuscus,RH13 6RH,51.072792542378500,-0.289163575106050
Rabbit and Stint,RH12 5PL,51.084456452857800,-0.308322756559424
Magpie and Perching duck,RH13 5TS,51.059400723500000,-0.318069478400000
Partridge and Vulture,RH10 4SW,51.115738811667300,-0.139341916694178
Grouse and Pheasant,RH16 2SL,51.002777433451500,-0.078870225633815
Thicketbird and Ice seal,BN6 9TU,50.933379210000000,-0.181853104000000
Kākāriki and Wader,RH16 3NQ,50.996008964368900,-0.092802415250791
Tattler and Peafowl,BN8 6PL,50.927534060000000,0.132765504000000
Stint and Herring gull,RH16 3EG,51.002514096242400,-0.100161102255810
Solitaire and Philippine hawk-owl,TN22 3BH,51.031894965002500,0.092497964309966
Bunting and Thrasher,RH11 8UR,51.100433085489300,-0.217285413466881
Hawaiian honeycreeper and Cuscus,RH12 1QU,51.062845722383100,-0.328904941578206
Recurvebill and Goose,RH10 7DQ,51.115143453823300,-0.152839166189931
Meadowlark and Grosbeak,RH16 1RZ,51.013975655177800,-0.099863813648319
Hawk and Jerboa,BN8 4DY,50.970901340000000,-0.038067641000000
Songlark and Chickadee,RH10 6TF,51.107236595578300,-0.166425420345531
Asiatic leopard and Chickadee,RH10 9SR,51.136538452221800,-0.186777790193105
Capuchin and Wader,RH12 3QF,51.084904000000000,-0.346415000000000
Bronzewing pigeon and Pitohui,RH10 3XN,51.141346000000000,-0.113709000000000
Thrasher and Towhee,RH15 9AE,50.955242332224600,-0.129498999858427
Parrotbill and Dorcopsis,RH19 3NA,51.124076601133100,-0.001660000000000
Treepie and Moluccan boobook,BN8 4NG,50.972620870000000,0.014651226000000
Magpie and Jackal,RH11 9NH,51.097783008834300,-0.201034137224631
Pheasant and Coati,RH17 5BU,51.014071273261500,-0.143285725742421
Thicketbird and Asiatic leopard,RH19 2AP,51.137648768363900,-0.022258797378730
Moluccan boobook and White ibis,RH12 1BB,51.060630352700000,-0.324789211000000
Cloud rat and Warbler,BN8 5NR,50.898004710000000,0.072538649000000
Linsang and Badger,RH11 0LL,51.121252064398000,-0.232702701692159
White ibis and Kākāriki,RH10 9UY,51.135227824492600,-0.186929188556322
Dorcopsis and Argus,RH13 9UJ,51.030113665471300,-0.348679066244435
Pitohui and Old World quail,RH12 4HP,51.082682813667400,-0.294566858613363
Skunk and Polecat,RH17 6BB,51.030713983222900,-0.194119716173347
Ice seal and Siskin,TN22 2HJ,50.996976229710600,0.085297162847040
Boto and Boto,RH12 1EA,51.067525094830000,-0.321700000000000
Guillemot and Crow,RH19 4EN,51.123792343549600,-0.013361721278500
Scimitar babbler and Solitaire,RH12 2HW,51.075549728274100,-0.335627789739936
Skunk and Black cockatoo,RH11 7NX,51.131321675751000,-0.195443375818641
Pheasant and Kestrel,RH10 4PX,51.104133542630000,-0.083413147499217
Tree warbler and Marsh harrier,RH10 7NA,51.098990000000000,-0.157197000000000
Peafowl and Thrasher,RH16 3BL,51.002572154756100,-0.103180404114114
Old World warbler and Gull,RH16 1HY,51.002950688941000,-0.113783660035475
Rat and Zebra,RH10 5NS,51.106109150103600,-0.180026406920092
Stint and Puffleg,RH19 1HQ,51.129981552626300,-0.017712619136735
Wallaby and Triller,BN6 9XA,50.934770590000000,-0.177073720000000
Parrotbill and Philippine hawk-owl,TN7 4EX,51.080545000000000,0.105315000000000
Meadowlark and Duck,BN6 8RH,50.910093480000000,-0.098734503000000
Diving bird and Triller,RH13 5NP,51.060736579056500,-0.309187431819398
Scimitar babbler and Wallaby,BN8 5SR,50.897339270000000,0.053708557000000
Logrunners and Black cockatoo,RH12 4DP,51.071587020298700,-0.307664390378544
Diving bird and Lemming,RH19 3JQ,51.134511309795900,-0.005911936636741
Moluccan boobook and Scimitar babbler,BN44 3HE,50.885933030000000,-0.325063251000000
Treepie and Wader,RH16 1BF,51.000797000000000,-0.107876559378441
Crow and Quetzal,BN5 9TX,50.931143570000000,-0.280035296000000
Old World quail and Darwin's finches,RH10 6NW,51.106333184259900,-0.169032466519157
Night heron and Fish eagle,BN6 8TS,50.921018160000000,-0.115676000000000
Treepie and Quetzal,RH16 4AN,50.996540072951200,-0.116110055528490
Petrel and Grosbeak,RH12 5JR,51.084917088184500,-0.301638054121759
Peafowl and Parrotbill,RH15 8TJ,50.966299644486300,-0.143311140414399
Tree warbler and Cloud rat,RH15 8HJ,50.960419338424400,-0.137180182222641
Minke whale and Songlark,RH17 6JS,51.049599882054100,-0.159557033788587
Diving bird and Parakeet,RH13 8JE,50.962410728137300,-0.302021875404676
Boto and Cloud rat,RH15 9HE,50.947162924756200,-0.132656321504515
New World blackbird and Night heron,RH10 6BB,51.110885213339400,-0.188182021174653
Armadillo and Towhee,RH16 4QB,50.991897460224900,-0.108745611930089
Armadillo and Fish eagle,RH15 9UF,50.949968383455900,-0.151279786530453
Prion and Meadowlark,RH17 6TY,51.046545803139200,-0.079856183032452
Black jay and Myna,TN22 3EJ,51.016113000000000,0.071827000000000
Fulmarine petrel and Maya,RH10 3HH,51.129778870874900,-0.151369173547216
Perching duck and Ibex,RH16 1AA,51.006413695197800,-0.103821949549961
Zebra and Tit-tyrant,RH13 9HU,51.018053854560600,-0.346755010973469
Marsh harrier and Solitaire,RH16 2BA,51.004022000000000,-0.075371000000000
Badger and Jerboa,RH10 4QN,51.111211000000000,-0.067996907304680
Parakeet and Stint,RH13 8DH,51.004404000000000,-0.283171000000000
Flameback and Old World quail,TN22 1QQ,50.967759000000000,0.085726000000000
Moluccan boobook and Logrunners,RH11 7JP,51.120179550929800,-0.200707305581969
Gull and Black cockatoo,TN22 2BP,50.970039043535800,0.082366932316328
B and Vulture,TN7 4AE,51.100063563915400,0.108087005437562
Perching duck and Bunting,RH12 1UB,51.070627717988600,-0.346195609828839
Francolin and Grouse,RH15 9BL,50.955913021803200,-0.131508224092359
Minke whale and Ground sloth,BN8 5TR,50.912037620000000,0.020043055000000
Jackal and Condor,RH10 3LY,51.136126002772700,-0.116309217324556
Chicken and Parrotbill,BN45 7AT,50.893327490000000,-0.208311746000000
Flameback and Crow,BN6 9GJ,50.967253000000000,-0.179790000000000
Meadowlark and Zebra,RH19 9LZ,51.125869000000000,-0.009715000000000
Prion and Grosbeak,RH17 5HF,51.013732802770200,-0.136712724201892
Maya and Goose,RH15 0NR,50.964552284583200,-0.112847059598309
Solitaire and Kite,RH16 3NB,50.997356658754100,-0.082286481859236
American sparrow and Old World vulture,RH17 5RU,50.996927890900400,-0.209383649681771
Old World vulture and Stilt,RH15 9SA,50.952760901973500,-0.147995000000000
Booted eagles and Scimitar babbler,RH10 8LP,51.123022424039900,-0.189707804715800
Diving bird and White ibis,RH16 3AE,51.001626566302800,-0.101993221658055
Philippine hawk-owl and Eagle,RH12 1TX,51.062911413263100,-0.339192210166824
Kite and Vulture,RH12 3SA,51.108391666326500,-0.331834163808408
B and Gull,RH12 1BW,51.062206000000000,-0.339077000000000
Parrotlet and Guillemot,RH15 8XA,50.964492057677400,-0.155801734513434
Darwin's finches and Flameback,TN8 7AY,51.137452875294300,0.089390615164877
Guillemot and Black cockatoo,RH12 0AF,51.099758000000000,-0.242684946500000
Magpie and American sparrow,RH12 2DF,51.066464000000000,-0.323459456006523
Kangaroo and Hawaiian honeycreeper,RH19 3PD,51.109832000000000,0.017355000000000
Warbler and Cloud rat,BN8 5QJ,50.892543430000000,0.061489122000000
Old World vulture and Grouse,TN22 9FQ,50.967863000000000,0.086443000000000
Wader and New World blackbird,RH19 4EP,51.122978095253500,-0.016783477113803
Dorcopsis and Marsh harrier,RH10 9RG,51.126965000000000,-0.170789000000000
Mockingbird and Booted eagles,RH10 7YL,51.122859008762100,-0.143157103908909
Snipe and Tattler,RH11 0EN,51.117426508416800,-0.215888448246711
Hawaiian honeycreeper and White ibis,BN6 8QL,50.922219840000000,-0.131649000000000
Nukupuʻu and Vole,RH15 0YY,50.954047000000000,-0.154038000000000
Elephant and Grosbeak,TN7 4JG,51.106010000000000,0.113057000000000
Ground sloth and Skunk,RH11 6AQ,51.103163951871400,-0.228921736914476
Kākāriki and Viscacha,RH16 1PP,51.009553663662900,-0.111676869826440
Skunk and Francolin,TN22 1DD,50.976447312579200,0.094163983873996
Viscacha and Fox,TN22 5AL,50.967388656661100,0.091776785777875
Elephant and Perching duck,BN6 8DZ,50.927664180000000,-0.140466958000000
Night heron and Partridge,RH16 4XF,50.984873000000000,-0.111425000000000
Night heron and Egret,RH10 7DD,51.114847785486300,-0.150064867915877
Rat and Argus,BN8 4QG,50.938435250000000,-0.028460323000000
Chicken and Petrel,RH10 6BG,51.110069251373700,-0.187756776064711
Myna and Ground sloth,RH17 5AH,50.985859955226400,-0.147275400783946
Perching duck and Greenbul,RH19 4DS,51.120896191199600,-0.008055865187892
Kākāriki and Diving bird,BN5 9EZ,50.937950020000000,-0.276282840000000
Black jay and Greenbul,RH15 0PG,50.959918436832600,-0.117719800419487
Old World vulture and Piping shrike,RH10 8ND,51.123168000000000,-0.190302000000000
Logrunners and Chicken,RH10 7WY,51.110405936703800,-0.152385180413021
Zebra and Wallaby,BN8 6AJ,50.885188000000000,0.139859129000000
Grouse and Bronzewing pigeon,RH16 4BN,51.000201000000000,-0.116085355942198
Parakeet and Marsh harrier,RH10 6NJ,51.102924088765400,-0.173009540428521
Songlark and Mockingbird,RH10 9TF,51.133033000000000,-0.178153000000000
Ground sloth and Philippine hawk-owl,TN22 3BU,51.021767718886400,0.097046972215128
Snipe and Wallaby,BN8 5QN,50.892350000000000,0.060812000000000
Grackle and Night heron,RH16 2BL,51.014084326012700,-0.087783927847242
Tahr and Moluccan boobook,BN5 9TB,50.931113000000000,-0.237991583000000
Stilt and Capuchin,RH18 5BT,51.090865642483600,0.037621000000000
Chipmunk and Snipe,RH16 4DL,50.993325752009000,-0.097016519655791
Dorcopsis and Kite,RH16 2QF,50.999565913157100,-0.065192394731661
Mamo and Cuscus,RH19 3UA,51.122236774205000,0.006634949797250
Piping shrike and Vulture,TN22 1UD,50.975523000000000,0.106601000000000
Maya and Puffleg,RH11 8RL,51.114357494034200,-0.213963557297910
Mouse and Duck,RH13 8BG,50.973858546616100,-0.248402706212394
Wader and Chicken,BN6 9LR,50.945195130000000,-0.170260020000000
Gull and Myna,RH15 8SA,50.965904647891600,-0.133200910404420
River dolphin and Masked owl,BN6 9DB,50.937799870000000,-0.201920305000000
Old World warbler and Buzzard,RH19 3TH,51.111948804639600,0.022276454450947
Thrasher and Duck,RH10 4SB,51.092687000000000,-0.118198381656677
Diving bird and Lemming,RH17 7HZ,51.031950271195200,0.004714993234656
Crow and Logrunners,RH11 0RH,51.111828502656200,-0.225647481746781
Philippine hawk-owl and Condor,RH19 3UU,51.128993732443000,0.008028324358680
Snipe and Cloud rat,BN5 9DY,50.928032640000000,-0.277033647000000
Badger and Prion,RH10 7GQ,51.114843003033400,-0.140692364704429
Mouse and Tit-tyrant,RH12 9RF,51.067515000000000,-0.321674000000000
Scimitar babbler and American sparrow,RH13 5PD,51.069151730791600,-0.305926231123978
Piping shrike and Asiatic leopard,RH12 4YS,51.072515587918200,-0.308444156150578
Piping shrike and Kite,RH11 8NW,51.103449262512700,-0.214569696010748
Dolphin and Gull,RH15 0GR,50.958472530400000,-0.098215000000000
Grouse and Civet,RH12 1YX,51.063531000000000,-0.328952000000000
Cloud rat and Mink,RH11 9TE,51.091142700018800,-0.203148244959273
Chickadee and River dolphin,RH12 9SE,51.064173000000000,-0.325049000000000
Viscacha and Skunk,RH19 4AU,51.113844632616600,-0.009587859718647
Badger and Zebra,RH16 9TD,51.001790457077800,-0.109326792604890
Old World warbler and Flameback,RH11 0SW,51.110495259259900,-0.235598852062502
Cloud rat and Peafowl,RH10 8BJ,51.119609668092200,-0.184782882208448
Parakeet and Rabbit,RH13 9BJ,51.035863653576900,-0.348289268461723
Argus and Tit-tyrant,BN5 9BP,50.964208380000000,-0.247768784000000
White ibis and Philippine hawk-owl,BN5 9ES,50.927214080000000,-0.277021200000000
Black cockatoo and Songlark,RH12 5ZJ,51.086657432594900,-0.321051000000000
Stilt and Thrasher,RH18 5AP,51.092185078325600,0.033481534681318
American sparrow and Pratincole,RH10 8BP,51.119437141492600,-0.182360514632080
Thrasher and Civet,RH10 3HA,51.141540583981000,-0.083150908736344
Rat and Egret,RH11 8BZ,51.111030551755500,-0.221663582132954
Night heron and Coati,BN6 8NL,50.929718520000000,-0.134507704000000
Flameback and Chickadee,RH5 5LD,51.156513000000000,-0.319880483010948
Eagle and Eagle,BN6 9EE,50.922753600000000,-0.189082844000000
Treepie and Philippine hawk-owl,RH19 4NY,51.076268746209700,-0.041936940930263
White ibis and Viscacha,RH5 5NP,51.132826781492500,-0.342059407676983
Coati and Bronzewing pigeon,RH10 7SX,51.118301197893700,-0.147797917170964
Chipmunk and Grouse,RH10 3ED,51.139802392087900,-0.087940406562894
Duck and Cloud rat,RH19 3GN,51.135614360900000,0.010102283500000
Marsh harrier and Tahr,BN8 5DJ,50.925516670000000,0.021210313000000
Recurvebill and Argus,BN8 4AZ,50.940479390000000,-0.024359785000000
Polecat and Towhee,RH10 4UJ,51.122899630009900,-0.072862003665844
Linsang and Stint,RH16 4QJ,50.989753869249200,-0.102449085053797
Moluccan boobook and Jackal,RH12 4WB,51.086856378156600,-0.277450171307523
Rat and Prion,TN22 4AX,50.991244568145600,0.117444891395292
Siskin and Goose,RH5 4RU,51.133500000000000,-0.299942000000000
Fish eagle and Eagle,RH11 9AJ,51.085379376916800,-0.201472544258828
Linsang and Fox,RH10 3LJ,51.139394789391300,-0.111001280826857
Tahr and Vole,RH13 9GN,51.023103000000000,-0.341905024128710
Puffleg and Lemming,RH13 8EY,50.959344000000000,-0.300691571267197
Fish eagle and Buzzard,RH13 6PB,51.042894202861800,-0.233774614763019
Wader and Black cockatoo,RH15 0EQ,50.953220849803800,-0.125137898271271
Gull and River dolphin,RH15 9PX,50.957816070269900,-0.149359300140497
Siskin and Parrotlet,RH18 5PA,51.098274936351300,0.031990000000000
Wader and Mockingbird,RH12 4UH,51.073787672887700,-0.308726092592515
Siskin and Elephant,RH19 4QF,51.077926032293500,-0.055015566788721
Crow and Armadillo,RH15 5BF,50.954052012200000,-0.154065127500000
Grosbeak and Siskin,BN8 5NU,50.901479950000000,0.075366814000000
Elephant and Peafowl,BN7 3SL,50.926132000000000,-0.038786000000000
Dolphin and Jay,RH13 5TU,51.067788000000000,-0.316609000000000
Polecat and Herring gull,RH15 0BA,50.943347398672500,-0.124652545925337
Warbler and Siskin,BN6 8DB,50.925881840000000,-0.139798086000000
Magpie and Marmoset,RH13 9ZL,51.067525094830000,-0.321700000000000
Parrotbill and Parakeet,RH19 4QT,51.078765606123200,-0.069856641631240
Herring gull and Darwin's finches,RH11 9HW,51.095841166978000,-0.209864171232503
Puffleg and Minke whale,RH13 6HX,51.073337978792900,-0.276096453687553
Fulmarine petrel and Eagle,TN22 2HG,51.001413671331700,0.085595907246577
Parrotbill and Towhee,BN44 3BF,50.891607540000000,-0.331329320000000
Perching duck and Badger,RH16 4TF,50.992878891857100,-0.117726082600125
Thicketbird and Lemming,RH18 5FW,51.093964902000000,0.057752494700000
Wallaby and Siskin,RH19 2ND,51.149284653495800,-0.008935616380893
Argus and Black jay,BN44 3AT,50.942181130000000,-0.325405764000000
Songlark and Lemming,RH12 9TA,51.064173000000000,-0.325049000000000
Vole and Petrel,RH12 5XW,51.077506000000000,-0.318869000000000
Marmoset and Pratincole,RH19 2AE,51.136182392691200,-0.023293481305569
Buzzard and Dolphin,BN5 9PG,50.931421000000000,-0.274973000000000
Moluccan boobook and Diving bird,RH17 7JP,51.033097537411200,0.010697803514487
Thrasher and Armadillo,RH15 9HU,50.952630000000000,-0.136724000000000
Coati and Masked owl,RH10 4PG,51.124731498146300,-0.069970469299075
Jerboa and Meadowlark,RH16 2NX,51.017313187602000,-0.087251882302353
Bunting and Towhee,TN22 4BQ,51.012690000000000,0.147252541976220
Mink and Piping shrike,RH16 2RT,51.007899500473300,-0.078074155679463
Siskin and Myna,RH18 5HJ,51.094277776105900,0.030017220234816
Cloud rat and Treepie,RH11 7GJ,51.128625521007100,-0.209597305670018
Elephant and Darwin's finches,RH13 6EX,51.055541648907400,-0.313129423287809
Ibex and Parrotbill,RH10 1SB,51.121061363185600,-0.168878915675141
Civet and Eagle,BN6 8AT,50.923994890000000,-0.143857487000000
Vole and White ibis,TN22 3TL,51.001239000000000,0.037969000000000
Meadowlark and Parrotlet,RH19 2RB,51.147829000000000,-0.047303000000000
Perching duck and Dorcopsis,RH11 8HX,51.109430617816100,-0.212282043632112
Parrotbill and Partridge,RH15 8HP,50.966704297073300,-0.121376357251112
Prion and Booted eagles,RH12 1AQ,51.063384830370900,-0.328243312847678
Meadowlark and Buzzard,TN22 5WN,50.961331884293300,0.107511505767370
Meadowlark and Pheasant,TN22 5UG,50.928039950958200,0.074243405090080
Buzzard and Rat,RH16 3HA,50.994406514840700,-0.094905960449952
Songlark and Magpie,RH19 2NY,51.139296708833000,-0.052394523752258
Philippine hawk-owl and Kite,RH16 9SZ,51.001790457077800,-0.109326792604890
River dolphin and Guillemot,TN7 4BN,51.096275863490600,0.140335779934965
Booted eagles and Zebra,RH11 8RD,51.107450176020900,-0.221586722602480
Darwin's finches and Old World quail,RH19 4ZE,51.125871172263200,-0.009742576310082
Black jay and Stilt,TN22 3XG,50.971149365514900,0.050111549317276
Peafowl and Nukupuʻu,TN22 5AT,50.966933813563200,0.102580739110719
Parrotlet and Myna,RH13 6AG,51.072070446522800,-0.296370135064486
Mink and Old World vulture,BN6 8LZ,50.930354460000000,-0.129287936000000
Eagle and Kite,RH16 4BT,51.000015000000000,-0.125434000000000
Prion and Night heron,RH13 9FZ,51.014090000000000,-0.347112000000000
Piping shrike and Guillemot,BN8 4HL,50.939480870000000,-0.024345173000000
Hawaiian honeycreeper and Boto,RH16 9SU,51.001790457077800,-0.109326792604890
Bronzewing pigeon and Pratincole,RH15 8HU,50.967550720188700,-0.121441906442629
Ground sloth and Parakeet,RH17 6PZ,51.072217737561900,-0.130667588083637
Buzzard and Ibex,RH13 5UE,51.071116182210100,-0.316160258359146
Marsh harrier and Parrotlet,BN6 8YA,50.929604000000000,-0.139066000000000
Philippine hawk-owl and Coati,TN7 4HS,51.090961000000000,0.064902000000000
Perching duck and Jerboa,BN5 9DE,50.929074740000000,-0.272697562000000
Songlark and Chicken,BN44 3AW,50.938171020000000,-0.346287432000000
Stint and Old World quail,RH10 6LQ,51.111759338860000,-0.169246615830159
Kākāriki and River dolphin,RH6 9SZ,51.156403000000000,-0.143627000000000
Siskin and Tattler,TN22 1RT,50.979044385792100,0.102287273512885
Armadillo and Piping shrike,RH11 8JY,51.106779887683400,-0.219498264545777
Treepie and Parrotbill,RH16 3TB,50.996264222097800,-0.100188349523732
Zebra and Perching duck,RH13 5QT,51.065067887400000,-0.318806045700000
Marmoset and Viscacha,BN8 5FH,50.926191173250400,0.009827021199067
Songlark and Perching duck,BN44 3JQ,50.883964900000000,-0.296572684000000
Guillemot and Recurvebill,RH11 7DZ,51.116722044238300,-0.192854549683839
Grouse and Kākāriki,RH13 5LX,51.062429427296200,-0.310581425374568
Piping shrike and Condor,RH17 7SA,50.992473043722100,-0.089954851566944
Ground sloth and Kangaroo,RH19 4RH,51.112154000000000,-0.037177000000000
Kestrel and Minke whale,RH19 2LD,51.155645719551100,-0.025550652868546
Vulture and Stilt,BN6 9SL,50.950681900000000,-0.198077517000000
Pratincole and Chipmunk,RH10 6DJ,51.104369745650500,-0.189051008238019
Badger and Old World warbler,TN3 9UP,51.145847849363400,0.145216281869537
Vole and Mamo,RH11 8UQ,51.104507850959900,-0.216757266227358
Marmoset and Meadowlark,BN8 4BY,50.939047090000000,-0.024221221000000
Condor and Masked owl,RH18 5LU,51.094191244771100,0.048893709834143
Partridge and Cloud rat,RH11 0DZ,51.115777000000000,-0.224711000000000
Cloud rat and Tahr,RH17 6DZ,51.043292000000000,-0.081747000000000
Mouse and Night heron,TN22 5FQ,50.955361000000000,0.096859000000000
Marmoset and Rabbit,RH10 9RB,51.136386220799000,-0.165485329222868
Diving bird and Elephant,RH15 9BG,50.955386158127200,-0.130618080602107
Stilt and Mockingbird,RH15 0SX,50.975216786945600,-0.103867902135366
B and Scimitar babbler,RH10 7XJ,51.118609053395600,-0.142827389781246
Guillemot and B,RH16 4SS,50.988471801977600,-0.098269459144531
Logrunners and Mamo,BN5 9QR,50.938239580000000,-0.282506275000000
Tree warbler and Kite,RH11 8DP,51.111941655191400,-0.197184165653364
Greenbul and Boto,RH16 2NH,51.011423238575800,-0.079068964654214
Jackal and Grackle,RH10 7LP,51.096501703892500,-0.157452573607626
Kākāriki and Macaw,RH19 3XR,51.126946155163700,0.009954638340537
Cloud rat and Chicken,RH10 1UR,51.116918879102600,-0.188747000000000
Grouse and Grouse,RH13 8JX,50.971018000000000,-0.302600806229748
Jackal and Polecat,RH15 0FD,50.963191000000000,-0.110056000000000
Asiatic leopard and Ice seal,BN1 9PN,50.880862930000000,-0.086093000000000
Fulmarine petrel and Solitaire,RH10 5LH,51.099535765600900,-0.178327792919389
Petrel and Duck,RH10 4PY,51.104794000000000,-0.080205058035093
Stint and Lemming,RH17 7GL,50.988729000000000,-0.082787000000000
Nukupuʻu and Peafowl,BN5 9JZ,50.933646890000000,-0.271119236000000
Thrasher and Armadillo,RH12 1HL,51.061671754889600,-0.327306049592006
Peafowl and Chicken,RH17 7NP,51.005147266384100,-0.027343704646728
Tattler and Tattler,RH15 9TZ,50.953694000000000,-0.154165000000000
Old World quail and Civet,RH17 6SW,51.040414917805100,-0.070181339560107
Triller and Boto,RH19 4SJ,51.075075938346700,-0.049125072698887
Night heron and Kestrel,BN6 9XS,50.932732620000000,-0.171546119000000
Capuchin and Petrel,RH13 5SD,51.063749464365300,-0.316056492342587
Old World quail and Recurvebill,TN22 5BQ,50.965993321307700,0.094861654673913
Jerboa and Meadowlark,RH17 7QS,50.959909000000000,-0.070215000000000
Old World vulture and Fulmarine petrel,BN6 8JQ,50.924499230000000,-0.148433451000000
White ibis and Civet,RH12 1UP,51.062784000000000,-0.328879000000000
Pheasant and Jackal,RH19 1JD,51.128047560097100,-0.027256691643927
Jay and Goose,RH12 4ZQ,51.073731549127200,-0.304231605247841
Herring gull and Mamo,RH19 3PH,51.127311000000000,0.035210000000000
Magpie and Grackle,BN44 3PJ,50.883708040000000,-0.331085531000000
Songlark and Vole,RH13 8HX,50.959460799665600,-0.306200000000000
Quetzal and Quetzal,RH16 4GA,50.991045270763900,-0.117230280361064
Towhee and Mole,RH13 0AJ,51.053409894423900,-0.342642638282231
Argus and Diving bird,RH16 3JL,50.998825137756000,-0.099954000000000
Greenbul and Scimitar babbler,RH16 4AS,50.998747000000000,-0.110934000000000
Logrunners and Masked owl,BN7 2JA,50.880537160000000,0.007307527000000
Tattler and Booted eagles,RH17 6EF,51.040825007485700,-0.185010828690566
Partridge and Recurvebill,RH15 9HF,50.946569040034100,-0.134886695627284
Bronzewing pigeon and Chicken,BN8 5HZ,50.891079400000000,0.057998000000000
Fish eagle and Fulmarine petrel,RH16 1JE,51.003104000000000,-0.110385000000000
Hawaiian honeycreeper and Chipmunk,RH13 5ND,51.062077086605700,-0.306741048669074
Stint and Macaw,TN2 9HD,50.967863000000000,0.086443000000000
Maya and Masked owl,RH17 5PE,50.990643641253100,-0.204239251402298
Pitohui and Partridge,BN8 6BX,50.909500230000000,0.123974967000000
Jackal and Philippine hawk-owl,TN8 5PE,51.157635574309200,0.112254943800198
River dolphin and Asiatic leopard,RH19 3JR,51.127823744737400,-0.004527846557617
Duck and Kestrel,RH16 3NZ,50.999867000000000,-0.103761000000000
Bunting and Badger,RH13 6LA,51.056939377878200,-0.302833102447180
Magpie and Condor,RH10 7QA,51.113471213676500,-0.141518936186643
Night heron and Cuscus,RH10 8DF,51.121074261762600,-0.179495517831180
Moluccan boobook and Guillemot,RH10 3LB,51.138332000000000,-0.101910000000000
Mole and Linsang,RH12 4LN,51.081290729143300,-0.297159363108556
Macaw and Hawaiian honeycreeper,RH15 8EG,50.957869648165600,-0.129578613915229
Prion and Warbler,BN8 4QF,50.925566140000000,-0.014162816000000
Hawk and Puffleg,RH15 0TF,50.950128760700000,-0.127383711400000
Viscacha and Recurvebill,BN5 9QE,50.934314680000000,-0.277968533000000
Coati and Ground sloth,BN6 8FH,50.923599000000000,-0.140658000000000
Civet and Tree warbler,RH15 9UJ,50.957620332156000,-0.156885439273135
Argus and Myna,RH17 5AX,51.009352000000000,-0.142790000000000
Eagle and Triller,BN7 3BH,50.931160660000000,-0.061827537000000
Cuscus and Marmoset,RH10 4SU,51.119736000000000,-0.137295000000000
Darwin's finches and Treepie,TN22 5EW,50.970436279162000,0.122309725497789
Egret and Puffleg,RH19 3DX,51.127067887463800,0.003385746471776
Tahr and Ibex,RH19 4FZ,51.125871172263200,-0.009742576310082
Diving bird and Black cockatoo,RH10 6TW,51.110586528253400,-0.183422090627866
Siskin and Ibex,TN22 1EW,50.974602963032300,0.098710620715707
Capuchin and Badger,RH19 4NZ,51.075474264469600,-0.042827020628757
Maya and Mole,RH12 2EN,51.068671057847500,-0.320602296075672
Armadillo and Diving bird,BN6 8XN,50.941965000000000,-0.096951000000000
Tree warbler and Kestrel,BN8 4QS,50.980789210000000,0.009818999000000
Booted eagles and Dorcopsis,RH11 7DU,51.118213411493400,-0.191596118057858
Eagle and Gull,RH19 1SE,51.126073928981900,-0.027012085165169
Partridge and Moluccan boobook,TN22 1QR,50.971001000000000,0.096554000000000
Mink and Prion,RH11 7DE,51.113832618908600,-0.195124000000000
Diving bird and Old World vulture,RH12 1XN,51.067525094830000,-0.321700000000000
Vole and Skunk,RH19 1JT,51.127456524728500,-0.031140646474304
Greenbul and Marsh harrier,TN22 3BN,51.020580066605500,0.092059745611271
Towhee and Chicken,BN44 3ST,50.890497620000000,-0.322908937000000
Greenbul and Shearwater,RH11 9RW,51.098861187278300,-0.218588459454389
Grackle and Stint,RH16 9LR,51.006411000000000,-0.103795000000000
Greenbul and Asiatic leopard,RH10 8XH,51.126454579202300,-0.167565215354745
Pitohui and Mouse,BN6 9YU,50.939257000000000,-0.174309000000000
Crow and Black cockatoo,RH15 9JH,50.946142377441400,-0.136327356161680
Booted eagles and Crow,RH11 9SD,51.095193308086600,-0.214544949902777
Duck and Pratincole,RH13 9DG,51.037654060560800,-0.340095381788411
Hawaiian honeycreeper and Ibex,RH15 9RE,50.949185607949700,-0.141060379260960
Eagle and Kākāriki,BN6 9AG,50.929905000000000,-0.164940000000000
Snipe and Perching duck,RH17 7NF,50.991129260286100,-0.049455304181255
Mole and Ice seal,RH15 8QH,50.960142059396500,-0.140096255848099
Goose and Chickadee,RH10 4PD,51.105145591593400,-0.101898597331673
Zebra and Vole,RH11 7UG,51.130498704338700,-0.187586049658991
Parrotbill and Black cockatoo,RH6 0NN,51.156253000000000,-0.163196000000000
Buzzard and Tattler,BN6 8DQ,50.928275850000000,-0.133711595000000
Crow and Black cockatoo,RH13 6HH,51.073745141989600,-0.293425141438115
Tattler and Egret,RH17 7DX,51.033431415816400,-0.028952626554084
Black cockatoo and Logrunners,RH16 4SN,50.990116169971200,-0.095423622349427
Tit-tyrant and Grackle,BN7 3QG,50.905032940000000,-0.014097943000000
Bronzewing pigeon and Fish eagle,RH11 9AR,51.086804630312900,-0.212897493212839
Armadillo and Treepie,BN6 9ZB,50.937371000000000,-0.174496000000000
Dorcopsis and Crow,RH10 7DA,51.115638767876300,-0.151176307915005
Lemming and Maya,BN6 8JN,50.925898760000000,-0.151622243000000
Old World warbler and Myna,RH19 9PW,51.125869000000000,-0.009715000000000
Grackle and Pheasant,RH13 8ED,50.973470000000000,-0.315421000000000
Grosbeak and Hawaiian honeycreeper,RH19 1HZ,51.128469959070600,-0.025109175372843
Armadillo and Civet,BN6 9RP,50.934344050000000,-0.179709117000000
Crow and Thicketbird,RH19 3QE,51.133998532833600,0.054357485001976
Tit-tyrant and Wallaby,RH12 4LG,51.079829501127900,-0.298712053106428
Dorcopsis and Partridge,RH11 0DA,51.120856635247300,-0.214370241044005
Argus and Chipmunk,TN22 1SA,50.977552434963700,0.102732735970040
Tit-tyrant and Petrel,RH12 4AX,51.075061614583400,-0.309136452006767
Kangaroo and Vole,BN7 2ET,50.884312580000000,0.007938964000000
Jay and Ibex,BN6 9BJ,50.931192450000000,-0.199172339000000
Flameback and Parakeet,RH10 7UY,51.109856000000000,-0.159029858480175
Old World warbler and Cuscus,RH16 1QU,51.010853898485000,-0.098138157207069
Armadillo and Vulture,RH16 3DN,51.003820695782000,-0.103086718627715
Vulture and Logrunners,RH10 4JE,51.123174318724400,-0.078623867787229
Recurvebill and Hawk,RH13 6LZ,51.044783327220500,-0.275359151977640
Fish eagle and Mouse,RH13 5SW,51.064428857700000,-0.318144147700000
Philippine hawk-owl and Logrunners,RH19 3JP,51.133297924757000,-0.007007642583373
Petrel and New World blackbird,RH10 7RJ,51.119379257008500,-0.146025828919365
Dorcopsis and Chicken,BN44 3PB,50.884114820000000,-0.326834445000000
Crow and Logrunners,RH17 5GP,51.011085428700000,-0.140354311300000
Polecat and Perching duck,RH11 8GE,51.098093077905100,-0.230186680301468
Vulture and Philippine hawk-owl,BN6 8TG,50.925503960000000,-0.113445797000000
Elephant and Tree warbler,RH10 3EG,51.140465000000000,-0.077806000000000
Kangaroo and Treepie,BN6 9ZG,50.943367000000000,-0.174318000000000
Rat and Magpie,TN22 5AN,50.967153483521500,0.091851676596032
Myna and Jay,RH19 2BD,51.137437187855800,-0.033174793911978
Greenbul and Greenbul,RH11 9DE,51.101670990361100,-0.203568513856435
Flameback and Kite,RH15 0HD,50.951628601060100,-0.120076456070538
Piping shrike and Egret,RH15 5DQ,50.954052000000000,-0.154065000000000
Skunk and Darwin's finches,RH13 5ES,51.064812359142800,-0.319300472177643
Herring gull and Zebra,TN2 9UR,50.967859000000000,0.086469000000000
Kākāriki and Chicken,BN8 6BW,50.898264240000000,0.133504147000000
Linsang and Parakeet,TN2 9QZ,50.967907423168400,0.086473190623301
Cuscus and Crow,RH10 8BZ,51.118605141940400,-0.179749748740401
Recurvebill and Philippine hawk-owl,TN22 3HE,51.042151919601700,0.039863443067199
Warbler and Peafowl,RH12 2AZ,51.070875282630600,-0.337023021368003
Cuscus and Darwin's finches,RH10 9SY,51.127926655713500,-0.168535952936944
Snipe and Thrasher,RH12 9ZZ,51.067526000000000,-0.321586000000000
Duck and Puffleg,BN6 9NA,50.935034000000000,-0.147987000000000
Viscacha and Crow,RH15 8DS,50.956115224103400,-0.128410272210152
Rabbit and Snipe,RH15 9PG,50.955624441464900,-0.143864785104499
Wallaby and Magpie,RH17 6ER,51.035537514574600,-0.174648419546831
Puffleg and Zebra,RH16 4AR,50.979672000000000,-0.097107000000000
Tahr and Darwin's finches,TN22 5DE,50.966196358942200,0.097078359250566
Condor and Myna,RH15 8DL,50.966692017133100,-0.125649497135191
Rabbit and Dorcopsis,RH10 6PD,51.103163804802700,-0.171086034285941
Puffleg and Zebra,RH10 8DN,51.123128036004600,-0.187817379186263
Petrel and Myna,RH16 1PF,51.014758250108500,-0.109298413932669
Herring gull and Thicketbird,RH10 7HN,51.100210390440600,-0.158819141305841
Linsang and Asiatic leopard,RH13 6HS,51.079139000000000,-0.238077000000000
Tit-tyrant and Civet,BN6 8RN,50.905399870000000,-0.084488897000000
Old World vulture and Mockingbird,BN8 5NB,50.895853610000000,0.065019860000000
Tit-tyrant and Mamo,RH12 4TE,51.080764407850000,-0.268068063349685
Flameback and Thrasher,BN6 9NR,50.927901810000000,-0.164577742000000
Tree warbler and Vole,RH10 9DE,51.130600582228000,-0.169302013594680
Guillemot and Fox,RH16 2TD,50.995393308648800,-0.073916569335258
Grackle and Kākāriki,RH10 7WU,51.109116099097100,-0.150436597053571
Bunting and Perching duck,RH17 7NW,50.992618000000000,-0.019182000000000
Mamo and Marsh harrier,RH10 8GA,51.124623773640100,-0.186844245709316
Night heron and Kākāriki,RH10 6QX,51.106503291394000,-0.164968795072203
Argus and Night heron,RH10 5DA,51.103376508616300,-0.177219784121680
Quetzal and Philippine hawk-owl,RH10 4NS,51.105506762416200,-0.085441937467676
Snipe and Duck,RH15 9TL,50.952895941778900,-0.148173667014584
Zebra and Fox,RH13 9XY,51.026113474979900,-0.346254408837624
Tahr and Lemming,RH16 4RL,50.987398209260300,-0.106363753165085
Guillemot and Condor,BN6 9LE,50.964937500000000,-0.165240484000000
Mamo and Peafowl,BN8 5DS,50.926525510000000,0.019560656000000
Piping shrike and Dolphin,RH12 4SE,51.094989000000000,-0.246729000000000
Buzzard and Boto,RH16 4TZ,50.994774783013600,-0.099294374430694
Argus and Coati,RH13 6PU,51.014555168735100,-0.260627444583138
Kangaroo and Jerboa,RH12 5HB,51.087330190033200,-0.323025120361460
Black cockatoo and Chipmunk,RH19 9JP,51.125869000000000,-0.009715000000000
Minke whale and Parrotlet,RH15 8PJ,50.964243000000000,-0.142268000000000
Pitohui and Dolphin,RH10 8AP,51.129132724129900,-0.165158202622371
Pratincole and Songlark,RH10 8AX,51.127612804389300,-0.168019580508683
Recurvebill and Herring gull,RH13 9GL,51.033753539042700,-0.346610017620547
Ice seal and Capuchin,TN22 1NS,50.980337168304200,0.108400533380878
Rabbit and Hawaiian honeycreeper,RH10 4DN,51.124803446714400,-0.068881365595552
Cloud rat and American sparrow,RH10 0JH,51.116858000000000,-0.188177000000000
Peafowl and Boto,RH11 9JR,51.094138363494100,-0.209073059548683
Civet and Argus,RH12 1EL,51.062188147907700,-0.328828720170573
Booted eagles and Quetzal,RH16 1JW,51.002009450171000,-0.116202082109455
Elephant and Songlark,BN7 2TS,50.880782850000000,-0.004396010000000
Piping shrike and Ground sloth,RH10 3XZ,51.140075071751900,-0.112474540011513
Dorcopsis and Vole,TN22 5AD,50.968307832835600,0.096689197563938
Marsh harrier and Diving bird,RH10 4AT,51.114181000000000,-0.158435000000000
Grackle and Tit-tyrant,RH19 1ES,51.127657000000000,-0.013124000000000
Mockingbird and Triller,RH12 4DE,51.078927089668400,-0.302684000000000
Old World quail and Logrunners,RH19 3BL,51.126329438745500,-0.007607744838572
Booted eagles and Mamo,BN5 9QH,50.933007980000000,-0.274131565000000
Rat and Pratincole,RH12 3SN,51.095018157897400,-0.348224724468993
Parakeet and Condor,BN8 5EA,50.929975280000000,0.039434508000000
Jay and Quetzal,RH13 6PA,51.040702000000000,-0.230834000000000
Dorcopsis and Crow,TN7 4EH,51.078467163692000,0.071555794738710
Cloud rat and Goose,RH17 5AT,51.008499635702700,-0.142980785544423
Coati and Parakeet,RH12 4JE,51.075996294003200,-0.305990345085312
Tahr and Kangaroo,RH11 8SY,51.106034150502200,-0.197242600287844
Moluccan boobook and Lemming,RH18 5JS,51.079828413364700,0.025187169445766
Jackal and Night heron,TN22 2AQ,50.985927000000000,0.078590000000000
Grackle and Cloud rat,RH12 4GS,51.079701588449200,-0.292406503446956
Mole and Petrel,RH11 9ND,51.099934113089700,-0.200565003021513
Condor and Mole,RH16 1NG,51.008429354112400,-0.117239196726662
Chicken and Mole,TN22 4LJ,50.989176875438100,0.136658835001880
Jackal and Jerboa,RH10 6BQ,51.108710885344000,-0.188309906935018
Old World warbler and Wallaby,RH19 3NF,51.136256085000000,0.009915736500000
Rat and Marsh harrier,BN44 3NA,50.888288280000000,-0.328760741000000
Maya and Viscacha,BN44 3PY,50.880420970000000,-0.325744216000000
Lemming and Marmoset,TN8 7EH,51.136805418200200,0.078570000000000
Goose and Grouse,RH10 6DP,51.104440511484600,-0.187234128709852
Macaw and Kākāriki,TN8 7EE,51.130855000000000,0.074557000000000
Fulmarine petrel and Capuchin,RH10 7TJ,51.122421140378700,-0.149004973954446
Hawk and Stilt,RH13 9UR,51.015863926469700,-0.348971418716182
Guillemot and Armadillo,BN6 9JY,50.946781350000000,-0.160745043000000
Thrasher and Old World vulture,RH12 1DE,51.062038220770900,-0.324124000000000
Mink and Diving bird,RH12 2AX,51.070724995057100,-0.338470055216055
Jerboa and Treepie,RH16 2LH,51.008333462326900,-0.076573699396373
Siskin and Rabbit,RH19 4HH,51.121529000000000,-0.016131000000000
Mole and Cloud rat,BN45 7EE,50.901805000000000,-0.174867126000000
Old World warbler and Macaw,BN8 4JD,50.978900360000000,-0.014352714000000
Pratincole and Old World warbler,RH16 4QY,50.982668268258300,-0.098093450814849
Boto and Old World quail,RH15 0JP,50.958495000000000,-0.123046000000000
Scimitar babbler and Pheasant,RH15 0GP,50.958138000000000,-0.097130000000000
Argus and White ibis,BN44 3JN,50.883306670000000,-0.296454525000000
Prion and Asiatic leopard,RH12 2RL,51.072434417394000,-0.327691000000000
Linsang and Greenbul,RH10 9SP,51.132676000000000,-0.174837000000000
Grosbeak and Herring gull,RH10 9PF,51.138377508278000,-0.167450567931103
Linsang and Dorcopsis,RH19 2QW,51.138282796400000,-0.035672000000000
Snipe and Coati,RH17 7JL,51.038317640922400,0.016729378292254
Wallaby and River dolphin,TN22 3RT,51.015348532546800,0.003143473398934
Egret and Marsh harrier,RH16 1JS,51.004712032593200,-0.110918471389160
American sparrow and White ibis,TN7 4EN,51.078089202975600,0.092268710323539
Hawk and Guillemot,RH19 4BA,51.113041142441400,-0.007822182433008
Magpie and Snipe,RH13 8QY,50.960328000000000,-0.310236878312671
Chicken and Buzzard,RH11 8SL,51.105860703592100,-0.200577702579513
Ibex and Jackal,RH10 8JG,51.122514839151100,-0.188870250778383
Quetzal and Parrotlet,RH18 5JX,51.100042969788100,0.051623455510153
Meadowlark and Perching duck,RH15 0SR,50.964038399652800,-0.105547824130336
Chickadee and Old World vulture,RH15 9DE,50.954315803880700,-0.128923951231413
Stilt and Fish eagle,TN22 5BL,50.967142738247600,0.100966507249519
Bunting and Zebra,RH16 4NR,50.988860883439800,-0.108384575410016
Wallaby and Flameback,RH19 4AG,51.116460937519800,-0.008489526864530
Francolin and Shearwater,BN8 4EG,50.975300460000000,-0.025991000000000
Rat and Night heron,RH12 4RB,51.121518464706400,-0.277675952496509
Linsang and Recurvebill,RH10 7UQ,51.109564016341300,-0.156590267800194
Badger and Polecat,BN8 5AL,50.906406720000000,0.098600521000000
Masked owl and Ground sloth,RH11 0AU,51.125258519762300,-0.206426331343504
Greenbul and Philippine hawk-owl,RH11 7TE,51.126311185288600,-0.193023384312528
Black jay and Macaw,RH11 0RL,51.113074228772900,-0.225956942636937
Grackle and Bunting,RH11 9EQ,51.100512460263800,-0.211883345878844
Vole and Pitohui,TN8 7HR,51.146090325417800,0.092125563587063
Minke whale and Cuscus,RH16 4SG,50.989165000000000,-0.097101000000000
Pratincole and Flameback,RH12 4DS,51.073218925926600,-0.304849874003876
Dorcopsis and Peafowl,RH10 4AJ,51.120423000000000,-0.072616157400000
Mouse and White ibis,BN8 4NB,50.970642000000000,0.015292000000000
Herring gull and Meadowlark,RH10 6DR,51.104146932102000,-0.186859937952755
Ibex and Myna,TN22 5NY,50.964808303577700,0.133489604390043
White ibis and Ice seal,BN8 5JE,50.891356900000000,0.061962852000000
Jerboa and Puffleg,TN2 9ND,50.967863000000000,0.086443000000000
Argus and Grouse,RH16 1SE,51.015061159851900,-0.094729688447324
Chicken and Perching duck,TN22 4PL,50.986053337085100,0.149552825843254
Zebra and Viscacha,RH13 9XW,51.027273000000000,-0.346113000000000
Grosbeak and Piping shrike,RH19 2AW,51.137986966844100,-0.020986383772663
Chipmunk and Chipmunk,RH11 8DE,51.112555431302300,-0.217861901776592
Old World quail and Myna,RH10 7NJ,51.112305216779600,-0.158195610990630
Recurvebill and Old World quail,RH13 6AN,51.072071197521000,-0.294571556391634
Mamo and Petrel,TN22 4PN,50.986719312020400,0.141205318721145
White ibis and Prion,RH16 3SQ,50.995757444125600,-0.078005818136995
Perching duck and Grackle,BN5 9AD,50.949581870000000,-0.279582612000000
Civet and Civet,RH10 6JP,51.108405967855700,-0.171036254585997
Flameback and Grackle,RH13 6AJ,51.073639464478600,-0.295427486784169
Pitohui and Diving bird,RH16 2PN,51.017577821953800,-0.081452321092975
Nukupuʻu and Chickadee,RH16 2QN,51.014086575505500,-0.054152131872718
Goose and Kangaroo,RH17 6TU,51.046720707388000,-0.079007210607697
Jay and Nukupuʻu,RH10 3SG,51.119598252807800,-0.157202000000000
Rabbit and White ibis,RH16 3SG,50.996091439151300,-0.079174870181357
Mouse and Ibex,RH19 3PB,51.111714068138400,0.018165845446939
Pitohui and Ibex,RH12 4US,51.078967922480000,-0.292048051980000
Eagle and Dorcopsis,RH12 4SQ,51.093377497981400,-0.262341548374083
Old World vulture and Francolin,RH10 4XE,51.125010912514600,-0.077104276403799
Maya and Diving bird,RH12 1AX,51.064922000000000,-0.328745000000000
Dorcopsis and Moluccan boobook,RH17 6RS,51.046240768854900,-0.080995860233286
Asiatic leopard and Dolphin,RH10 4NH,51.123276000000000,-0.105789325868910
Bronzewing pigeon and Tahr,RH19 3NE,51.134634000000000,0.011704000000000
Booted eagles and Perching duck,BN8 6PP,50.936550360000000,0.128566412000000
Chipmunk and Pheasant,BN8 5HW,50.890269250000000,0.054791036000000
Macaw and Chickadee,RH10 3EA,51.117177000000000,-0.188479000000000
Grouse and Tahr,RH10 6RY,51.110303900390500,-0.168189806297448
Linsang and Diving bird,RH13 5PA,51.067804121230400,-0.306018249281720
Old World quail and Ground sloth,RH10 5EH,51.102251396617600,-0.180620708323711
Lemming and Partridge,RH19 3LA,51.130018870987800,-0.012494236676887
Jackal and Chicken,RH19 3RU,51.111261906119100,0.027146853889149
American sparrow and Cuscus,RH10 7JG,51.101262916437500,-0.154278043994768
Eagle and Meadowlark,RH13 6BE,51.059697926675700,-0.302675157998253
Diving bird and Asiatic leopard,RH11 9HP,51.096875432843300,-0.209281511990221
Maya and Cuscus,RH10 9TA,51.131047423453600,-0.186435454175062
Peafowl and Bunting,RH10 0FD,51.116858000000000,-0.188177000000000
Buzzard and Kite,BN6 8ND,50.930362180000000,-0.122485191000000
Pheasant and Moluccan boobook,RH16 3UA,50.999016308138900,-0.080393783027231
B and Diving bird,RH11 8TP,51.107629289897000,-0.200380450909435
Marsh harrier and Jackal,BN5 9PQ,50.910121430000000,-0.290098917000000
Parrotbill and Cloud rat,RH10 7XS,51.120138956677100,-0.144595067359473
Badger and Dorcopsis,RH16 9SP,51.001790457077800,-0.109326792604890
Shearwater and Thicketbird,RH11 7JE,51.118483378490500,-0.206202894091975
Nukupuʻu and Rabbit,RH13 5EB,51.062211298268000,-0.319779986182831
Pitohui and Macaw,RH16 1HQ,51.002826525121200,-0.108329705217451
Shearwater and Thicketbird,TN22 1ES,50.976440248466400,0.098453000000000
Chicken and Jay,RH13 5HL,51.066642063049200,-0.306503118757175
Boto and Night heron,BN6 9AE,50.933993740000000,-0.163654786000000
Quetzal and Tahr,BN6 8BH,50.924892990000000,-0.129692000000000
Greenbul and Maya,BN8 5AG,50.906454000000000,0.093545247000000
Bronzewing pigeon and Philippine hawk-owl,BN45 7FE,50.897812330000000,-0.163570985000000
Jerboa and Minke whale,RH11 7TU,51.128315875237100,-0.191230139478717
Guillemot and Ibex,RH19 9EQ,51.125872500100000,-0.009742580200000
Stilt and Pheasant,RH15 0SF,50.954222667526000,-0.099212256580313
Viscacha and Lemming,RH10 1PN,51.118329781136400,-0.177660137132971
Macaw and Rat,RH19 3FJ,51.136955530289800,0.008388044849486
Grackle and Zebra,RH18 5AZ,51.090560703740200,0.035352424579635
Cuscus and Eagle,RH15 0FY,50.946539514355700,-0.121264047573030
Scimitar babbler and Bunting,RH19 3HW,51.129211577986000,-0.004696702814054
Civet and American sparrow,RH19 3HJ,51.132253552965400,-0.007467113450275
Bronzewing pigeon and Moluccan boobook,RH10 4AA,51.124302548192700,-0.079420202333440
Parakeet and Greenbul,RH10 7DS,51.118007221347700,-0.155939892218726
Badger and Guillemot,RH10 4RJ,51.108973660122900,-0.069312693032542
Marmoset and Ground sloth,RH11 9BD,51.095038934406300,-0.193957064733086
B and Badger,BN6 9DJ,50.934871570000000,-0.202147103000000
Mamo and Grackle,TN22 1HH,50.967906234011300,0.086473194986691
Kākāriki and Magpie,RH11 8FD,51.104950690779800,-0.224582396314721
Parakeet and Asiatic leopard,RH17 6BN,51.053604524491000,-0.200149734213004
Logrunners and Gull,RH12 5FS,51.081255989036300,-0.310880864396632
Myna and Stilt,RH10 7RY,51.112220000000000,-0.146478808210348
Jerboa and Egret,RH19 1SL,51.122686000000000,-0.019640000000000
Guillemot and Linsang,TN22 4LW,50.992775110220600,0.140543514936162
Peafowl and Skunk,RH10 3EF,51.140144877888400,-0.082493942042691
Fox and Tattler,RH18 5DP,51.098937808121400,0.040349000000000
Towhee and Ground sloth,RH15 8EW,50.959934117072800,-0.125964174987936
Night heron and Parrotlet,RH16 3TZ,50.997850313758100,-0.080584420996844
Zebra and Jackal,RH10 5PQ,51.095104719047300,-0.179644453271901
Greenbul and Grackle,BN8 5RN,50.894504990000000,0.034784509000000
Jerboa and Snipe,RH12 3UX,51.084881984000000,-0.348642970700000
Ground sloth and Triller,BN44 3DA,50.904799780000000,-0.346446028000000
Greenbul and Stint,BN8 4QL,50.946519560000000,-0.042311724000000
Parrotbill and Bronzewing pigeon,BN6 8LU,50.920795590000000,-0.132161255000000
Herring gull and Mockingbird,TN22 3SL,50.991905128605800,0.038357690485001
Puffleg and White ibis,RH19 1SH,51.122638700754300,-0.021699576792886
Thrasher and Linsang,RH13 5JB,51.064569274218800,-0.312415960214036
Tattler and Jackal,TN22 5GH,50.959050453802000,0.111594000000000
Polecat and Mink,RH16 3EJ,51.000623842711800,-0.105041435485407
Eagle and Dolphin,RH13 6NU,51.033823780073800,-0.258579718511383
Egret and Tahr,RH12 1QN,51.064522361588100,-0.334669000000000
Petrel and B,RH13 6HY,51.045029645780000,-0.290286419149912
Solitaire and Cuscus,RH15 8UA,50.964819088982500,-0.133928020949162
Triller and Eagle,RH15 9AB,50.957241240888300,-0.138090432994452
Cloud rat and Vulture,RH10 1AJ,51.113791000000000,-0.174267000000000
Moluccan boobook and Macaw,RH12 4PT,51.119715345789000,-0.282258306169877
Badger and Parrotlet,RH15 0EA,50.950213983104400,-0.116004767906983
Fulmarine petrel and Grackle,TN22 5AW,50.965768497219300,0.105362330430678
Thrasher and Grosbeak,RH12 2PP,51.065884567100700,-0.333890709475952
Crow and Rabbit,RH12 2HP,51.076049989628700,-0.332868968180694
Dolphin and Viscacha,RH10 3JL,51.139360842092600,-0.127342150212685
Moluccan boobook and Triller,RH15 8GG,50.954596655976600,-0.127930219069339
Warbler and Solitaire,TN6 1XT,51.047356825864000,0.145441724994615
Logrunners and Civet,RH19 2DB,51.136322328754500,-0.015096755914330
Mink and Pratincole,RH11 9EX,51.097402885252300,-0.208489898112476
Kangaroo and Tit-tyrant,RH12 2BH,51.066471053850100,-0.329616466770369
Wader and Snipe,RH11 7AD,51.117908797864400,-0.190507796000652
Chipmunk and Grosbeak,BN6 9TT,50.934111680000000,-0.180742000000000
Skunk and Capuchin,RH12 4GN,51.081347121785500,-0.294858684293339
Maya and Wader,RH13 8NG,50.971338108313800,-0.341890812379385
Bronzewing pigeon and Greenbul,RH16 3JD,51.004197238561900,-0.083729102066145
River dolphin and Moluccan boobook,RH11 0AY,51.125121735610400,-0.204545255013995
Flameback and Polecat,RH15 8DZ,50.956985506574800,-0.127720304868438
Peafowl and Grouse,RH12 4EG,51.076184533695800,-0.302370000000000
Cuscus and Mink,RH19 4RX,51.117973679864500,-0.004380731355554
Eagle and Vulture,RH11 7RQ,51.124677082996200,-0.196688382690713
Recurvebill and Logrunners,TN22 5FT,50.957293000000000,0.094924000000000
Capuchin and Coati,RH19 9HH,51.125872000000000,-0.009743000000000
Rabbit and Dorcopsis,TN7 4DY,51.088111886645200,0.083481965882878
Warbler and Old World vulture,RH10 6PA,51.103812036769400,-0.168260747294765
Booted eagles and Dorcopsis,RH10 5BX,51.103017233804800,-0.181290554178442
Jerboa and Fox,RH19 1QE,51.135362438797500,-0.028849000000000
Jerboa and Booted eagles,TN8 7DU,51.149895000000000,0.107712000000000
Condor and Masked owl,RH16 1DW,51.005755046735700,-0.103136099754130
Thrasher and Piping shrike,BN8 5AX,50.923970320000000,0.019620752000000
Francolin and Capuchin,RH10 3UX,51.127549194677000,-0.144026587320148
Kākāriki and Minke whale,RH11 8QH,51.103817292392100,-0.194614853415296
Asiatic leopard and Duck,RH13 5LR,51.064329475032900,-0.312624485542964
Songlark and Tattler,RH12 5JB,51.082629221144400,-0.303863456080354
Ibex and Myna,RH10 4BB,51.122128378652100,-0.069721715687688
Duck and Mouse,RH19 2QU,51.141760971510100,-0.041096937762139
Hawk and Chipmunk,BN8 4SB,50.959703000000000,0.024787000000000
Ground sloth and Pitohui,RH6 0DJ,51.147446008965600,-0.227784836578940
River dolphin and Towhee,RH17 5JL,51.025651105996500,-0.139115431013633
Capuchin and Bronzewing pigeon,RH10 1JX,51.118009063536300,-0.168070834024136
Chipmunk and Eagle,RH12 1TE,51.059187397773900,-0.334701918111166
Grosbeak and Parakeet,RH17 5SE,50.995174855038900,-0.219426631214001
Grackle and Thrasher,RH16 4ES,50.988785859355900,-0.100436713305704
Coati and Chipmunk,TN22 1AP,50.971438840174000,0.096118008142431
White ibis and Mamo,RH13 5QW,51.059780363216200,-0.319582577674861
Wallaby and Magpie,BN6 0EY,50.924180000000000,-0.142129000000000
Gull and Diving bird,RH16 4GW,50.987841560907500,-0.113755007289608
Guillemot and Polecat,RH13 6RG,51.015010881837400,-0.303237925238359
Greenbul and Asiatic leopard,RH16 2BX,51.000406287000000,-0.077329190500000
Hawk and Quetzal,TN22 1TG,50.976120534766800,0.102340403836738
Gull and Mockingbird,RH19 4TP,51.120880389913300,-0.002912233012785
Kangaroo and Greenbul,RH13 6EG,51.066416000000000,-0.287279381628685
Cuscus and Grouse,RH10 1EU,51.119126218000000,-0.170970233100000
Bunting and Crow,RH10 8DS,51.120825545210900,-0.182005945207603
Pratincole and Towhee,RH12 5AQ,51.076169433868800,-0.323614199327912
Armadillo and Vulture,RH11 8JB,51.109509226943300,-0.209778980084600
Rat and Thrasher,BN6 9QT,50.931652210000000,-0.168599903000000
Darwin's finches and Pheasant,BN6 9RQ,50.932886590000000,-0.176791589000000
Capuchin and Badger,RH16 4RF,50.986407967273100,-0.101317436179842
Tahr and Ibex,RH19 1HD,51.129922837927100,-0.016486000000000
Duck and Vole,BN6 8HW,50.924368010000000,-0.145265555000000
Myna and Skunk,RH19 4HY,51.058068000000000,-0.037543353256600
Rabbit and Chicken,BN6 8QY,50.923525160000000,-0.134698523000000
Badger and Parrotlet,BN8 4NF,50.972917960000000,0.013267000000000
Old World warbler and Wader,BN6 8SU,50.922340640000000,-0.112478149000000
Snipe and Grouse,RH5 5HE,51.142402160386800,-0.318614293147425
Grackle and Night heron,RH10 4JS,51.121990415938700,-0.071170754570943
Jackal and Scimitar babbler,RH11 8UZ,51.101982635423800,-0.215697466626940
Tattler and Macaw,TN22 4BJ,51.008114526381200,0.128434159867313
Snipe and White ibis,RH19 1HR,51.127681840828300,-0.019454647940738
Polecat and Cloud rat,RH15 9NN,50.955942378798300,-0.132218988878558
Mole and Argus,RH10 4AH,51.123660463900000,-0.087892568100000
Vulture and Stint,RH12 5RU,51.081429291977400,-0.308561666760983
Bunting and Magpie,RH11 9HB,51.100871922291100,-0.201314169391206
Nukupuʻu and Tit-tyrant,RH11 6EA,51.101238970818000,-0.227109904115878
Lemming and Myna,RH6 9TH,51.155374000000000,-0.132099000000000
Mockingbird and Rabbit,RH17 5BJ,51.008870780475700,-0.138047972598982
Guillemot and Goose,RH18 5BX,51.092824892077200,0.043720646399014
Solitaire and Old World warbler,RH17 6LR,51.054681088247000,-0.130103916212799
Shearwater and Diving bird,RH17 6QW,51.086522917357700,-0.132175650925297
Parrotlet and Masked owl,RH15 8BN,50.962216709981400,-0.124177678277893
Bunting and Tree warbler,TN22 3EN,51.016079081826000,0.085255851332139
Guillemot and Asiatic leopard,RH19 2BQ,51.138400929575300,-0.033262492247276
Recurvebill and Chipmunk,TN22 2AA,50.980462000000000,0.099545000000000
Shearwater and Bunting,RH13 6TT,51.068186665295100,-0.304491345379037
Warbler and Bunting,BN8 5LU,50.892961000000000,0.062375000000000
Vole and Guillemot,RH10 6EL,51.107174365587000,-0.183755863435514
Duck and Fulmarine petrel,RH17 7LF,51.049378573668500,0.022503163691781
Scimitar babbler and Jay,RH10 9TP,51.139147000000000,-0.161974000000000
Eagle and Francolin,BN45 7BJ,50.896890000000000,-0.162954000000000
Buzzard and Diving bird,RH10 5LB,51.100939998782500,-0.177258482917511
River dolphin and Nukupuʻu,RH15 9TW,50.952909000000000,-0.156317000000000
Rabbit and Chipmunk,RH12 4FA,51.122400000000000,-0.279674000000000
Stilt and Puffleg,RH11 7QL,51.115171000000000,-0.193344000000000
Hawk and Marsh harrier,RH15 0SU,50.971614000000000,-0.109541000000000
Ground sloth and Ibex,BN6 9HR,50.955047520000000,-0.195603000000000
Songlark and Recurvebill,RH13 6AP,51.057179119420500,-0.308203982883748
Eagle and Flameback,RH17 6SD,51.044099113356900,-0.080371066963985
Jerboa and Dolphin,RH19 3QP,51.112621159136100,0.027437000000000
Cloud rat and Kestrel,BN6 9HN,50.956483460000000,-0.188256097000000
Marmoset and Logrunners,RH18 5BG,51.088624312846600,0.034482017270440
Kite and Linsang,TN6 1UD,51.046348833330700,0.144011239552253
Elephant and Cloud rat,RH13 9JL,51.021381524771200,-0.342330568179535
American sparrow and Rat,RH10 9UH,51.135433036824700,-0.183347666715604
Flameback and Logrunners,RH17 7SP,50.992445693230200,-0.083343928764939
Booted eagles and Mockingbird,BN7 2EA,50.884387000000000,-0.005735000000000
Macaw and Towhee,RH13 6LD,51.074392803378700,-0.290974577317660
Bronzewing pigeon and Greenbul,RH17 7ST,50.993385176240200,-0.080312640030112
Duck and Fox,RH10 4NB,51.112932858499700,-0.116866744369570
Meadowlark and Tahr,RH19 3RH,51.113015923739700,0.025051932753765
New World blackbird and Stint,BN45 7BA,50.910454980000000,-0.209176242000000
Bronzewing pigeon and Hawk,RH10 9TT,51.130499951682000,-0.173793817105961
Scimitar babbler and Masked owl,TN22 1XJ,50.972763879139300,0.107243000000000
Petrel and Skunk,RH10 1NT,51.115731414951000,-0.178276727840949
Badger and Kite,BN8 5TS,50.911444500000000,0.016375644000000
Badger and Goose,RH10 5PH,51.095762406011100,-0.192472145637480
Civet and Viscacha,RH17 7JZ,51.049535000000000,0.015604000000000
Zebra and Parakeet,RH15 8PW,50.962592645666400,-0.144897251611420
Grouse and Diving bird,RH10 5JD,51.098642295802200,-0.181590774686412
American sparrow and Jay,RH15 9XN,50.962135867108200,-0.151822191052791
Chipmunk and Treepie,RH17 6JA,51.055458097561200,-0.134267810617400
Ground sloth and Triller,RH12 5JW,51.086156265423900,-0.302749231679421
Parakeet and American sparrow,RH17 5TQ,51.024765977034400,-0.230328349149358
Skunk and Darwin's finches,RH15 8HH,50.960446434051600,-0.136623730182678
Buzzard and Pheasant,RH12 1QL,51.064784000000000,-0.334829000000000
Jerboa and Wader,RH11 0JH,51.114909637696300,-0.220685989207006
Tree warbler and Grouse,RH13 5PL,51.069019000000000,-0.315323481768271
Magpie and Mamo,RH10 6TL,51.110192369351300,-0.185837617556744
Philippine hawk-owl and White ibis,RH10 3HX,51.151906790110000,-0.097508000000000
Egret and Flameback,TN22 2BL,50.972101867679400,0.092244953372263
Parrotbill and Vole,RH19 2QJ,51.137951774440700,-0.055338700736643
Kite and Wallaby,RH15 0LT,50.959063628614600,-0.115461731569118
Herring gull and Snipe,RH5 5EU,51.150073126987100,-0.327400615290403
Petrel and Cloud rat,RH17 7EA,51.027222000000000,-0.033951000000000
Cloud rat and Herring gull,RH10 3SB,51.131586086564700,-0.143964795340130
Quetzal and Tree warbler,BN5 9YF,50.904804740000000,-0.271661584000000
Booted eagles and Bronzewing pigeon,BN6 9XU,50.940118070000000,-0.175697415000000
Ibex and Songlark,RH10 3BQ,51.124586529072300,-0.159136221129438
Viscacha and Fulmarine petrel,RH16 3HE,51.002793642419200,-0.092481431547579
Kākāriki and Prion,RH10 6GF,51.110485510500000,-0.190271000000000
Mouse and Masked owl,BN6 8DF,50.928195730000000,-0.139961929000000
Mockingbird and Tattler,RH19 2PR,51.138679418223200,-0.052048827332603
Fish eagle and Stilt,BN8 5UA,50.888733750000000,0.077515996000000
Thicketbird and Triller,RH12 5YJ,51.079351190010800,-0.311621223906317
Meadowlark and Bunting,RH19 1TL,51.124270637563300,-0.024073574050530
Greenbul and Parakeet,RH10 8EA,51.122666162232100,-0.179504387060331
Grouse and Fish eagle,RH10 3AZ,51.120385523245900,-0.156202427359836
Linsang and Kākāriki,BN6 9SH,50.938934370000000,-0.177067463000000
Piping shrike and Gull,RH19 1NZ,51.134255465850600,-0.028478678627392
Viscacha and Diving bird,RH16 3LH,50.999010000000000,-0.092541936848691
Old World quail and Pheasant,BN44 3AU,50.937215410000000,-0.321157000000000
Black cockatoo and Pratincole,RH6 9SW,51.148559940773200,-0.144785224528054
Skunk and Perching duck,BN8 5ED,50.942286150000000,0.034350384000000
Kangaroo and Partridge,RH13 8LR,50.976480289491300,-0.330397297501232
Old World warbler and Greenbul,RH12 5YG,51.079564884031600,-0.310228624916319
Pheasant and Egret,BN8 5AF,50.924316250000000,0.110889683000000
Macaw and Black cockatoo,BN6 8AR,50.924034540000000,-0.140697054000000
Greenbul and Pheasant,BN6 8PG,50.928481370000000,-0.147362000000000
Nukupuʻu and Stint,RH10 9NN,51.135719026495000,-0.179762935005458
Chickadee and Prion,RH12 9RZ,51.067515000000000,-0.321674000000000
Snipe and Thicketbird,RH11 9AY,51.098936553487900,-0.204702850461670
Jay and Jackal,TN7 4DD,51.116507170020500,0.142999580977263
B and Bunting,BN8 4SP,50.902094180000000,-0.010525113000000
Civet and Tahr,RH11 8GB,51.098161560184700,-0.231740842153196
Black cockatoo and Parrotbill,RH15 8SZ,50.956115633322200,-0.127313860069672
Linsang and Chickadee,RH12 4UF,51.077366449082300,-0.286468056631321
Grackle and Puffleg,RH17 5BN,51.009180482455000,-0.139988524907730
Magpie and Warbler,RH10 3GQ,51.137900000000000,-0.144170000000000
Partridge and Myna,RH10 7YH,51.123881687049000,-0.144130716304739
Treepie and Capuchin,RH13 9AL,51.040569000000000,-0.347095000000000
Treepie and Elephant,BN7 3AQ,50.912061210000000,-0.061980909000000
Cloud rat and Night heron,BN45 7AU,50.893728760000000,-0.206917034000000
Rabbit and Minke whale,RH6 0BZ,51.155427871633500,-0.221015415045071
Guillemot and Capuchin,RH10 1RU,51.122444530676100,-0.164751586732969
Ibex and Bronzewing pigeon,RH10 7HH,51.097325000000000,-0.159991000000000
Partridge and Skunk,BN44 3JA,50.882451420000000,-0.306280643000000
Myna and Flameback,RH19 1RP,51.130668356188000,-0.032819223454579
Scimitar babbler and Duck,RH10 3JT,51.133744632764900,-0.121451741701782
Songlark and Guillemot,RH5 5EP,51.150775291893900,-0.322427965923332
Triller and Nukupuʻu,RH11 7HQ,51.120689934836600,-0.197643843333186
Shearwater and Grosbeak,RH19 3RS,51.132956769161000,-0.011796353360309
Hawaiian honeycreeper and Parrotlet,RH11 0TJ,51.113013046886000,-0.227259397454964
Duck and Thrasher,RH10 3GH,51.137908000000000,-0.142940000000000
Partridge and Buzzard,RH10 4JU,51.119316621906100,-0.078098040065852
Magpie and Quetzal,TN22 5PH,50.962815078365400,0.130350619932727
Tit-tyrant and Wallaby,RH10 6DF,51.105279615853200,-0.192058072700967
Jerboa and Egret,BN8 5SP,50.895449190000000,0.029108960000000
Bronzewing pigeon and Black jay,RH12 1LX,51.065913176564600,-0.340326469705812
Parakeet and Mouse,RH10 7JH,51.101666644940700,-0.153647771314987
Thicketbird and Kangaroo,RH19 3PT,51.144464000000000,0.034549000000000
Parrotlet and Lemming,RH13 5EU,51.066906037101800,-0.316684121748417
Prion and Greenbul,BN6 8PT,50.928467960000000,-0.145202099000000
Asiatic leopard and Petrel,RH10 1XX,51.116363368403100,-0.188853605236631
Dolphin and Tahr,RH16 1XP,51.021835162491300,-0.113145653704219
Booted eagles and River dolphin,RH7 6RJ,51.158439048893200,0.007933676488538
Chipmunk and Magpie,RH12 4HN,51.072121350147200,-0.306060462329460
Thrasher and Jay,RH10 6TR,51.103513975585500,-0.193026854860538
Capuchin and Grackle,BN44 3LY,50.891349000000000,-0.332746222000000
Zebra and Chipmunk,BN6 9LP,50.944504020000000,-0.173219622000000
Logrunners and Greenbul,RH11 7JU,51.120458220994800,-0.202454060759301
Rabbit and Old World warbler,RH5 5JP,51.124511717331000,-0.325880377333462
Stilt and Kangaroo,RH17 6ND,51.055791660563100,-0.126449001188470
Warbler and Macaw,TN22 3SX,50.995847467102500,0.035594665425870
Partridge and Booted eagles,RH11 8PJ,51.107630672670500,-0.202808902243720
Duck and Bunting,RH16 2LG,51.010370803433300,-0.079055425424655
Kite and Argus,RH18 5EF,51.102882490272400,0.032193986657353
Hawaiian honeycreeper and Goose,RH13 6JR,51.046722964714600,-0.283222000000000
Argus and Towhee,RH11 8AE,51.112890413394100,-0.194561304478258
Piping shrike and Francolin,RH10 3EZ,51.142621617802400,-0.081248000000000
Peafowl and Thrasher,TN22 1DG,50.975453562181200,0.095415589772100
Parakeet and Fox,RH10 5DD,51.103433502369100,-0.179145891481169
Hawk and Myna,RH10 8BH,51.117662712519300,-0.183916149093869
Magpie and Recurvebill,RH10 8DE,51.120526468421100,-0.179545630034856
River dolphin and Badger,BN5 9TP,50.901822360000000,-0.274929319000000
B and Quetzal,RH13 8AE,50.988745627088900,-0.268063000000000
Hawaiian honeycreeper and Grosbeak,RH19 1TD,51.125777839073900,-0.020136327379028
Francolin and Ground sloth,RH11 8SQ,51.106137406746800,-0.202781110928472
Grosbeak and Black jay,RH10 1RP,51.123342649660000,-0.168117067853257
Parakeet and Polecat,RH11 8LP,51.109924274440200,-0.221063175413537
Petrel and Stilt,RH10 3XA,51.127414917336700,-0.144632214077922
Boto and Lemming,RH19 4AZ,51.112763773487300,-0.007905547693480
Dolphin and Egret,RH15 9TY,50.952609159787200,-0.147102992839351
Rat and Triller,RH13 5PF,51.069814057201600,-0.305088459269572
Chicken and Lemming,TN8 7HZ,51.145438220185600,0.092382025478087
Dolphin and Booted eagles,RH15 8ED,50.958795134571800,-0.126721985920863
White ibis and Pitohui,RH19 3PN,51.131369764429900,0.035488282615498
Dolphin and Meadowlark,RH16 4QX,50.994272960391600,-0.119408251551147
Kestrel and Masked owl,RH11 9TR,51.088763372883200,-0.202812070206237
Egret and Kestrel,RH10 1HT,51.113287710142400,-0.189431043899017
Hawk and Quetzal,RH17 7PZ,50.966637019664100,-0.090060558290536
Ice seal and Marsh harrier,RH19 1JR,51.128035282406000,-0.031330412440715
Rabbit and Guillemot,RH16 3PT,50.999436992530900,-0.089297000000000
Tit-tyrant and Argus,RH16 1BP,51.003497535892000,-0.106449462274541
Bronzewing pigeon and Chickadee,BN8 4HR,50.962079870000000,-0.005215232000000
Grouse and Fox,RH10 3HT,51.145540548285500,-0.098154000000000
Francolin and Elephant,RH11 7BP,51.116026172619200,-0.200797207787004
Condor and Prion,RH16 3AQ,50.999724476810100,-0.106702839349265
Ground sloth and Macaw,RH19 4PE,51.077831712904500,-0.044615000000000
Crow and Badger,RH19 4AF,51.116729563291500,-0.008420822259077
Coati and New World blackbird,BN7 2QX,50.880353320000000,0.015886103000000
Grackle and Marmoset,RH12 2PU,51.066877982091600,-0.338607802577403
Lemming and Puffleg,RH19 2NR,51.139543260546700,-0.041848404424193
Old World quail and Parrotlet,RH10 0GZ,51.116853000000000,-0.188150000000000
Mouse and Fish eagle,RH15 8PZ,50.962898310510200,-0.136981344662949
Jerboa and Snipe,RH16 4EU,50.990194000000000,-0.094881000000000
Warbler and Mole,RH13 6EN,51.055773804278900,-0.310523997503763
Chicken and Booted eagles,RH11 7QF,51.124929134214500,-0.199622444560328
Buzzard and Marmoset,RH13 5PQ,51.070200135733900,-0.305045808775736
Solitaire and River dolphin,RH10 9BJ,51.136108000000000,-0.185637000000000
Macaw and Wader,RH10 9DF,51.135030147360700,-0.181877000000000
Eagle and Hawk,RH16 3BD,51.002997000000000,-0.096621000000000
Tattler and Magpie,RH13 6QG,51.034921010021500,-0.309414027845278
Parrotbill and Herring gull,RH12 3RR,51.078664131982300,-0.344695623352820
Puffleg and Jerboa,TN22 5TE,50.955787160315600,0.099785036366689
Cuscus and Nukupuʻu,TN22 3XT,50.989560595464600,0.065841927689607
Flameback and Tree warbler,RH12 4UG,51.074041086494000,-0.309459143750659
Maya and Greenbul,RH10 7DU,51.116423045807100,-0.153002458792685
Myna and Diving bird,TN22 2DA,50.972777084765700,0.082646095794752
Snipe and Fox,RH10 5AA,51.102221126645300,-0.189677751381807
Maya and Tahr,RH17 7TE,50.997258795129300,-0.065986691278490
Puffleg and Fulmarine petrel,RH16 4EH,50.990650000000000,-0.099406000000000
B and Black cockatoo,RH11 0LT,51.116171314506000,-0.221451936314221
Chipmunk and Vulture,RH12 5PP,51.085026113789700,-0.316012192378279
Meadowlark and Mamo,BN44 3RA,50.889194300000000,-0.328600354000000
Pratincole and Herring gull,BN7 2HY,50.883166700000000,0.018580793000000
Tree warbler and Siskin,TN22 1AU,50.972223796836700,0.096979517458983
Quetzal and Lemming,RH19 2HH,51.133520924734300,-0.015073000000000
Puffleg and Chipmunk,TN22 1LS,50.978087033820800,0.107999432909168
Parakeet and Tree warbler,RH13 6EZ,51.056726313442200,-0.313585805904164
Marsh harrier and Fox,RH15 0PQ,50.959996877415500,-0.116449260689594
Duck and Rabbit,TN3 9TT,51.135658936887700,0.143714749070674
Piping shrike and Vulture,BN6 9BS,50.904996380000000,-0.185320080000000
Capuchin and Jackal,RH12 1JJ,51.060592117241400,-0.328529420352603
Thicketbird and Pratincole,RH19 3HN,51.128475165685600,-0.004757026213551
Recurvebill and Parakeet,RH13 6AU,51.059891395335800,-0.301754774007213
Condor and Pitohui,BN8 5SG,50.907699820000000,0.065942362000000
Perching duck and Tit-tyrant,RH11 0AT,51.124947218747300,-0.207824583131822
Towhee and Cuscus,BN44 3JB,50.885064000000000,-0.300329000000000
Solitaire and Tit-tyrant,RH19 2PW,51.138309386189100,-0.048733653722559
Mole and Eagle,RH12 5GL,51.083218243208900,-0.318490755374193
Fulmarine petrel and Magpie,TN3 9UN,51.142183716595400,0.142973383660843
Petrel and Old World quail,RH16 3RF,50.997915050253700,-0.087821653520854
Dorcopsis and Thicketbird,BN6 8JH,50.924686320000000,-0.147188077000000
Myna and Armadillo,RH19 2WD,51.125871172263200,-0.009742576310082
Songlark and Coati,RH11 0QE,51.108641622753700,-0.231955189439111
Badger and Old World vulture,RH12 2DR,51.069888000000000,-0.323906386241150
Mouse and White ibis,RH10 7QW,51.104734798835500,-0.148625933347123
Piping shrike and Rabbit,BN6 9YJ,50.939619000000000,-0.173867000000000
Chickadee and Mamo,BN8 5QR,50.893456770000000,0.059168916000000
Kestrel and Darwin's finches,RH19 2JE,51.136854769736800,-0.012558058119389
Zebra and Rat,BN6 9FH,50.934407182470200,-0.183079748905069
Lemming and Mole,RH19 4DE,51.116662548121000,-0.012938852076740
Wallaby and New World blackbird,RH16 1JL,51.003700069565500,-0.114522954847808
Rat and Grackle,TN22 5YB,50.962877542781100,0.099592039055443
Fulmarine petrel and Argus,TN22 5XS,50.944412000000000,0.060907000000000
Tree warbler and Tree warbler,RH11 9LW,51.094331797292700,-0.204681253744217
Asiatic leopard and Old World vulture,RH10 0EZ,51.116858000000000,-0.188177000000000
Francolin and Songlark,RH17 7LH,51.043918000000000,0.034528949230263
Songlark and Vole,RH10 7ZJ,51.106985621663900,-0.142550491678364
Moluccan boobook and Grouse,RH10 3PJ,51.136927000000000,-0.125290905833120
Grosbeak and Partridge,RH10 0FY,51.116853000000000,-0.188150000000000
Argus and Coati,RH13 6BB,51.057434500740400,-0.304727139657002
Elephant and Triller,RH15 0WP,50.954052012200000,-0.154065127500000
Moluccan boobook and Prion,RH12 1PF,51.062559485649900,-0.330271015208837
Diving bird and Petrel,RH10 6EW,51.106696799069200,-0.184274560384138
Pheasant and Tattler,TN22 5BS,50.968197540421800,0.102822966570297
Mole and Night heron,RH11 9HN,51.096170019771300,-0.209023128117551
Herring gull and Cuscus,RH10 7UG,51.109147910270000,-0.157006828226004
Chickadee and Old World warbler,RH12 4JF,51.074582942453600,-0.304029184081967
Bunting and Dolphin,RH16 2EL,51.006161716709300,-0.085615241681065
Grosbeak and Prion,RH10 7RW,51.115854478788800,-0.143223596179409
Francolin and Viscacha,RH10 6RU,51.109264261749900,-0.168416628090597
Old World quail and Night heron,BN44 3FL,50.889892870000000,-0.314015724000000
Siskin and Bronzewing pigeon,TN22 1UT,50.973937988886200,0.107170523016600
River dolphin and Badger,BN44 3TW,50.886611930000000,-0.328507944000000
Bunting and New World blackbird,RH10 0LU,51.116853000000000,-0.188150000000000
Shearwater and Petrel,BN44 3EZ,50.887013470000000,-0.325778031000000
Kite and Myna,RH16 4DB,50.995703000000000,-0.107572949834950
Old World warbler and Kestrel,RH15 0EE,50.952044990635300,-0.122480059209563
Siskin and Fish eagle,TN22 4LG,50.988984386359600,0.135381794319957
Peafowl and Shearwater,RH11 8LW,51.110320900491800,-0.220533645763890
Marmoset and Cuscus,BN8 4BU,50.945887400000000,-0.020286806000000
Thrasher and Buzzard,RH10 1SQ,51.123148198558500,-0.169482326101816
Booted eagles and Dolphin,RH16 4SR,50.988846661635000,-0.097541689262335
Coati and Nukupuʻu,BN5 9UG,50.930673310000000,-0.282913050000000
Scimitar babbler and Mole,RH12 1LJ,51.058430197263300,-0.340265825188059
Moluccan boobook and Jackal,BN45 7FA,50.899365830000000,-0.163993402000000
Songlark and Kite,RH12 1SU,51.062121445798100,-0.337393779071313
Jackal and Guillemot,RH11 0GF,51.117124000000000,-0.225131000000000
Peafowl and Kangaroo,RH15 8TL,50.966286255287100,-0.144166193668374
Partridge and Tit-tyrant,BN6 9XL,50.949113980000000,-0.195547078000000
Rabbit and Coati,RH11 9LT,51.095072074279700,-0.204866804789424
Hawk and Scimitar babbler,BN1 9QD,50.887078470000000,-0.108643145000000
Linsang and Towhee,TN22 5SB,50.970766017111000,0.121147000000000
Kestrel and Petrel,RH19 2QZ,51.144546000000000,-0.040836000000000
Old World quail and Hawaiian honeycreeper,BN7 2SS,50.880553260000000,-0.000965533000000
Macaw and Cuscus,BN5 9BA,50.936547000000000,-0.250161000000000
Argus and Marmoset,RH10 7DB,51.114946288454900,-0.151175371953274
Badger and Asiatic leopard,RH15 8DF,50.965768479693200,-0.128065059808009
Scimitar babbler and Ground sloth,RH12 0AZ,51.098387000000000,-0.236746000000000
Rabbit and Black jay,RH19 4NP,51.120284576280200,0.002477823295383
Moluccan boobook and Dorcopsis,RH16 2QX,51.033619603798300,-0.063874248085781
Minke whale and Petrel,BN8 4DD,50.963091000000000,-0.021250000000000
Lemming and Buzzard,RH17 6UQ,51.050950010054700,-0.083540679406369
Peafowl and Nukupuʻu,RH13 6RY,51.073207014583900,-0.290447276842097
Boto and Bronzewing pigeon,RH15 0TQ,50.948337000000000,-0.116908000000000
Fulmarine petrel and Songlark,RH19 1AQ,51.124105398423800,-0.008503728286418
Dorcopsis and Meadowlark,BN6 9PH,50.912302000000000,-0.147609000000000
Warbler and Argus,RH11 7AH,51.113537287151300,-0.192192999060500
Badger and Crow,BN5 9FB,50.937778212364700,-0.277926069399513
Perching duck and Cloud rat,RH12 4AE,51.097313129400000,-0.265636059100000
Triller and New World blackbird,RH16 4ED,50.992968616519000,-0.099938176819026
Zebra and Chickadee,RH16 3XE,51.003447000000000,-0.104058000000000
New World blackbird and Dolphin,RH10 6AA,51.111930000000000,-0.190502388624742
Boto and Asiatic leopard,RH12 2QJ,51.072111774842300,-0.331026373651808
Partridge and Grackle,RH10 1ZD,51.117009949074700,-0.184156067089025
Marmoset and Magpie,RH13 6SA,51.073283301147800,-0.299994165493597
Grouse and Songlark,TN22 1AS,50.972626347509000,0.096598808655166
Kākāriki and Zebra,RH12 4EQ,51.074017132755600,-0.298511244327752
Minke whale and Mockingbird,RH16 1BX,51.006573615955200,-0.100380116955693
Gull and Chicken,RH11 7GN,51.128321422451500,-0.210881026071671
Mink and Ibex,RH12 5GZ,51.076169756617100,-0.321130261907053
Egret and Moluccan boobook,RH10 3LA,51.136843649432500,-0.106731286337218
Kestrel and Meadowlark,RH13 5TX,51.071204000000000,-0.313459000000000
Tree warbler and Rat,RH10 3HB,51.142074000000000,-0.086017000000000
Viscacha and Viscacha,BN7 3DX,50.931225280000000,-0.059220503000000
Macaw and Triller,RH15 9RJ,50.955181775965300,-0.136962463243110
Kite and Elephant,RH11 8DT,51.113376932597700,-0.211001076257516
Hawk and Eagle,RH10 1ZH,51.116858000000000,-0.188177000000000
Skunk and Tit-tyrant,RH16 4AT,50.998749738025100,-0.110932601952144
Dolphin and Partridge,TN22 3DQ,50.996903515770500,0.089868723775539
Mole and Bunting,RH13 5DR,51.062077174877700,-0.321711440305619
Ground sloth and White ibis,RH15 8UY,50.962518142279400,-0.154954243071023
Night heron and Coati,RH19 4JZ,51.109070524566100,-0.042150934749786
Moluccan boobook and Ground sloth,RH10 7BH,51.114831920127400,-0.154751843593019
Treepie and Fulmarine petrel,RH11 8BB,51.106043065903800,-0.215998229643343
New World blackbird and Logrunners,RH12 4PE,51.081141221644500,-0.289997792839880
Gull and Mink,RH12 2HN,51.074225089537500,-0.336703099742229
Skunk and Crow,RH19 1LU,51.131307873724000,-0.026474570836393
Tree warbler and Condor,BN44 3FJ,50.887897000000000,-0.315272737000000
Parakeet and Old World warbler,RH11 8QS,51.104168562086300,-0.199314974988268
Duck and Gull,BN8 5NL,50.899259000000000,0.086518000000000
Prion and Myna,TN22 1NQ,50.979414924178600,0.108672175261476
Myna and Thicketbird,BN6 9TS,50.933350840000000,-0.180032532000000
Tree warbler and Prion,RH12 5HW,51.080659225123400,-0.321895754446391
Hawk and Wallaby,RH15 8JL,50.959888570948600,-0.130978508003522
Herring gull and Jay,BN5 9PX,50.933560350000000,-0.279620000000000
Civet and Marmoset,RH19 2LU,51.147879317905400,-0.003519928268085
Condor and Armadillo,RH17 7TA,50.995511438818300,-0.072899852783109
Macaw and Fish eagle,RH13 8BN,50.991437985009500,-0.269984475802928
Wallaby and Skunk,RH15 9JD,50.948639465277500,-0.138391449726618
Pitohui and Kākāriki,RH10 4TB,51.124789323197900,-0.120443169208817
Marsh harrier and Jerboa,RH10 1RD,51.119805679497500,-0.174844263194332
Stilt and B,RH10 8DP,51.121416058552500,-0.184126205220918
Fulmarine petrel and Eagle,TN22 1LA,50.978790773590500,0.104384263892403
Pitohui and Hawaiian honeycreeper,RH77 1AS,51.138773697146600,-0.169779259843569
Goose and Lemming,RH13 5QH,51.070805253230000,-0.307707179145538
Petrel and Diving bird,BN8 5EY,50.889106800000000,0.049294094000000
Logrunners and Stilt,RH13 8EJ,50.978980000000000,-0.304680000000000
Bronzewing pigeon and Bronzewing pigeon,RH15 0BE,50.964894016863800,-0.113402876145766
Warbler and Mink,BN7 3AH,50.912561680000000,-0.061248835000000
Lemming and Viscacha,RH12 4TP,51.078700869079900,-0.288545924417036
Masked owl and Thicketbird,BN5 9UB,50.931012000000000,-0.278879271000000
Warbler and Crow,RH17 7DJ,51.061039162254700,-0.008171544456449
Chicken and Wallaby,RH12 4NH,51.076941008956900,-0.291808617625141
Buzzard and River dolphin,RH19 2EP,51.134014377781800,-0.017411267687477
Jay and Gull,RH10 6GH,51.106063092800000,-0.175915000000000
Triller and Viscacha,RH13 8JG,50.961007845534400,-0.303881510626916
Marmoset and Triller,RH11 7XH,51.118262450074200,-0.195352109920497
Grackle and Masked owl,BN6 8EF,50.931985280000000,-0.145261421000000
Piping shrike and Bronzewing pigeon,RH11 7RR,51.115228000000000,-0.191756000000000
Minke whale and Argus,RH12 5QT,51.085953348753700,-0.307982580373778
Hawaiian honeycreeper and Recurvebill,RH11 8FL,51.110484000000000,-0.201399000000000
Solitaire and Parrotlet,RH5 5JY,51.152686783995000,-0.320270990038950
Mink and Darwin's finches,BN44 3PG,50.885591910000000,-0.328871441000000
Kite and Piping shrike,RH11 9DX,51.101986864305100,-0.206570104321404
Marsh harrier and Eagle,BN6 8PX,50.928315570000000,-0.144667406000000
Lemming and Petrel,RH10 7EQ,51.116097150400100,-0.148886215974009
Siskin and Partridge,RH17 6HS,51.059617668164600,-0.135128091308433
Dorcopsis and Pratincole,BN5 9RE,50.931971050000000,-0.299830000000000
White ibis and Black jay,RH16 3UG,50.998481382698400,-0.080130820477375
Coati and Night heron,RH10 6GA,51.109548549383400,-0.186961000000000
Partridge and Quetzal,TN3 9UA,51.133116164162400,0.117824000000000
Stilt and Rat,RH10 7AX,51.116030943156800,-0.157790283871520
Maya and Argus,RH13 6SL,51.071230180838700,-0.298570629800208
Badger and Jackal,RH10 8JX,51.125563741839300,-0.177889923019427
Jackal and Tahr,RH13 5SU,51.069965558797800,-0.311206276813660
Tahr and Marmoset,RH15 9BF,50.955740337900000,-0.153912796900000
Parrotlet and Prion,RH12 2RE,51.069666419768700,-0.328559390733958
Stilt and Pitohui,RH10 3AN,51.124663347263700,-0.157732683187258
Mockingbird and Vulture,RH19 4RU,51.117428178176100,-0.004561412338359
Chickadee and Stint,RH15 0SZ,50.958899577524200,-0.095221000000000
Fish eagle and Capuchin,TN22 3RD,51.010449657985600,0.008235541808241
Grouse and Philippine hawk-owl,RH17 7AD,51.037052896321200,-0.027187130030010
Parrotbill and Skunk,TN22 5RQ,50.951596385016000,0.143819271588632
Bronzewing pigeon and Diving bird,RH16 3QH,50.997741774499100,-0.102565042157004
Goose and Black cockatoo,RH12 4UZ,51.111217000000000,-0.292861000000000
Bunting and Towhee,RH11 8JR,51.105335965703000,-0.217396773625460
Marmoset and Herring gull,RH12 2AR,51.069141617593300,-0.340325182794399
Mouse and Thrasher,RH12 5JQ,51.084094507290300,-0.298255758403284
Scimitar babbler and Dorcopsis,RH13 6HZ,51.043630466532700,-0.287972000000000
Shearwater and Chicken,BN7 2TD,50.882362350000000,-0.002622529000000
Bronzewing pigeon and Hawk,RH11 7SD,51.131090075112600,-0.192093647504990
Magpie and Black cockatoo,RH16 1RN,51.009162897240700,-0.094258634336070
Mole and Ibex,RH10 4EX,51.122444430121400,-0.067622183114588
Fulmarine petrel and Mouse,RH11 7DW,51.116500558793100,-0.194234846091184
Wader and Eagle,RH16 1UR,51.013012388931700,-0.107718000000000
Mockingbird and Hawk,BN7 3EF,50.930209140000000,-0.063560591000000
Stint and Jackal,RH15 5BH,50.954052012200000,-0.154065127500000
Peafowl and Jackal,RH19 1DZ,51.130648090602800,-0.016183338264064
Grouse and Warbler,RH17 6TD,51.049774525962900,-0.078224543408323
Polecat and Hawaiian honeycreeper,RH16 1NW,51.007926267214400,-0.108920509324020
Petrel and Old World warbler,RH19 4PT,51.066972000000000,-0.063610000000000
Siskin and Shearwater,RH19 1LF,51.131200144996400,-0.020633363549516
Bunting and Shearwater,BN8 5NP,50.899315000000000,0.079352000000000
Philippine hawk-owl and Argus,RH13 6NQ,51.026536000000000,-0.266710000000000
Pheasant and Chickadee,RH19 2RY,51.137761927568900,-0.013019425016549
Chickadee and Rabbit,RH19 3LZ,51.124117226966500,-0.002343904165717
Guillemot and Guillemot,BN8 5UN,50.883080510000000,0.079325964000000
Greenbul and Grosbeak,RH12 4AZ,51.078595533583000,-0.308493689182327
Towhee and Zebra,RH15 9TG,50.959653933505600,-0.151835231756233
Mamo and Thrasher,TN22 4LL,50.990945143366000,0.134388792044520
Meadowlark and Songlark,RH12 2LE,51.074766273565700,-0.326105929218472
Linsang and Stint,RH18 5LR,51.087790021596600,0.043127420308248
Triller and Cuscus,RH17 6ES,51.034180909499500,-0.174159739617322
Lemming and Towhee,RH10 4HN,51.124624000000000,-0.080850000000000
Eagle and Fish eagle,TN22 3DY,51.020495966193700,0.068500084734559
Nukupuʻu and Tattler,RH11 8NU,51.102312886765700,-0.214356370817263
Old World quail and Crow,RH19 4SG,51.119094216186300,-0.002589162424263
Mink and Tahr,RH16 4UE,50.986844968500000,-0.098236273300000
Masked owl and Darwin's finches,TN22 3TQ,51.000744605022100,0.042094460259817
Goose and Magpie,BN6 8PB,50.925803500000000,-0.147314448000000
Gull and Jackal,BN44 3QE,50.885118360000000,-0.329087420000000
Mockingbird and Moluccan boobook,RH10 8HN,51.124778488036100,-0.185223345048940
Siskin and Marmoset,BN5 9YA,50.902730420000000,-0.270657492000000
Ground sloth and Nukupuʻu,RH12 4NU,51.076388423038600,-0.287232237997996
Chipmunk and Pitohui,RH10 7PB,51.120022000000000,-0.149044000000000
Maya and Pitohui,RH11 8XX,51.110211296764500,-0.198694398260326
Marsh harrier and Shearwater,RH16 4EN,50.990277000000000,-0.100142093345847
Vole and Elephant,RH16 3RN,50.994667676870700,-0.080644487587737
Mouse and Hawaiian honeycreeper,RH19 3ES,51.137143747343200,0.003707518002701
Goose and Mockingbird,TN22 3SS,50.993126906751900,0.034307073851233
Bunting and Elephant,RH11 6AW,51.107727117700000,-0.226090324600000
Treepie and Siskin,RH15 5BW,50.954052012200000,-0.154065127500000
Myna and Buzzard,RH17 5BY,51.014141516461500,-0.142612857407561
Grackle and Mamo,BN44 3WY,50.881822880000000,-0.304940000000000
Cuscus and Minke whale,RH10 4XZ,51.124021390903700,-0.067813604489245
Pitohui and Jackal,RH16 3RB,50.996016458286800,-0.080631589239504
Ibex and Myna,RH10 7AQ,51.117657163368000,-0.155982406582898
Grosbeak and Macaw,RH15 0BY,50.948373193449500,-0.127924002247795
Masked owl and Boto,RH10 5AW,51.101883341871400,-0.188191171335807
Shearwater and Stint,RH10 7LB,51.098416937178500,-0.158004868371691
Mockingbird and Old World quail,RH12 2EJ,51.071001000000000,-0.324387472132800
Jay and Snipe,RH10 8HR,51.124883134653500,-0.182118166517248
Cloud rat and Shearwater,RH12 0BY,51.100692000000000,-0.232759000000000
Masked owl and Diving bird,RH16 2BP,51.014480966805400,-0.090590468861272
Zebra and Shearwater,RH19 9JE,51.125869000000000,-0.009715000000000
Guillemot and Badger,RH12 5YP,51.078546784713200,-0.311964580106850
Mockingbird and Civet,RH19 1SZ,51.125884629107500,-0.021132149960526
Kangaroo and Pitohui,RH19 2GU,51.133646000000000,-0.020515000000000
Pitohui and Parrotbill,TN22 5HQ,50.967668545355600,0.094224884267169
Rat and Piping shrike,RH15 5AU,50.954051799999990,-0.154065100000025
Mole and Greenbul,BN8 4LW,50.972735470000000,0.018430910000000
Booted eagles and Solitaire,RH15 9BT,50.956333934458200,-0.135335861299726
Armadillo and Linsang,RH10 1TN,51.114496000000000,-0.165881000000000
Treepie and Ground sloth,BN44 3WW,50.882795800000000,-0.311428652000000
Pitohui and Rabbit,BN44 3NH,50.887187280000000,-0.330378287000000
Zebra and Black cockatoo,RH15 0QT,50.947736442248300,-0.110168372729793
Argus and Duck,TN7 4AG,51.101782546424400,0.111007740492342
Myna and Quetzal,BN43 5FB,50.881983630000000,-0.263096000000000
Recurvebill and Chicken,RH10 1QY,51.121884056438200,-0.172604596559540
Marsh harrier and American sparrow,RH12 4SG,51.093821804679200,-0.260168468050746
Ibex and Pitohui,RH17 6DT,51.048325726542300,-0.220713435454046
Parrotbill and Piping shrike,RH10 7QS,51.103562765054800,-0.147872846251586
Polecat and Warbler,RH11 8QN,51.103137147754500,-0.195412684117782
Ice seal and Maya,BN8 6BE,50.899378490000000,0.136015494000000
Prion and Tattler,RH15 9QB,50.957505499690500,-0.145655181855008
Partridge and Buzzard,RH17 7FZ,50.990373000000000,-0.082705000000000
Myna and Flameback,RH16 3JR,50.999961000000000,-0.096303000000000
Tattler and Linsang,RH15 8RF,50.973979501153200,-0.144984836832867
Vole and Asiatic leopard,RH12 4QA,51.117882555683700,-0.310774350609281
Kangaroo and Kite,RH13 8JR,50.958971045473500,-0.312271535393644
