name,postcode,lat,lon
Francolin and Viscacha,CB24 5UB,52.315718134971000,0.012425624429965
Crow and Kite,CB23 1HW,52.165620100402000,-0.011462276150319
Cloud rat and Badger,CB24 8XQ,52.293968700218800,0.125252524906288
Siskin and Grouse,CB1 0JY,52.192267000000000,0.137208000000000
Towhee and Dolphin,CB3 9BL,52.202072912051800,0.101605629470237
Logrunners and Maya,CB4 2EG,52.224826409758800,0.126473307244946
Minke whale and Siskin,CB5 8RU,52.210646289412600,0.164541289938285
Parrotbill and Herring gull,CB5 8LW,52.213491942162000,0.147581996064315
Jay and Linsang,CB3 9EF,52.201975409255000,0.108581680654178
Moluccan boobook and Minke whale,CB4 2JA,52.222447026889400,0.132887000000000
Francolin and Lemming,CB5 8HW,52.213569268317300,0.148273731318115
Piping shrike and Ibex,CB1 1EX,52.206289295372100,0.129232350401332
Kākāriki and Flameback,CB1 8AZ,52.186474744318700,0.153301881880016
Treepie and Marsh harrier,CB1 0GS,52.192267000000000,0.137208000000000
Lemming and Thicketbird,CB25 9HX,52.262850000000000,0.196437000000000
Coati and Petrel,CB22 5AW,52.152471727575300,0.140199676021938
Booted eagles and Perching duck,CB24 8QA,52.291276592551800,0.092558000000000
Elephant and Tree warbler,CB24 6DA,52.247123335270000,0.163738253560938
Grouse and Quetzal,CB5 8TF,52.215946375381300,0.188513000000000
Fulmarine petrel and Gull,CB1 2PD,52.202438367108200,0.142278021739885
Solitaire and Moluccan boobook,CB24 9AH,52.246049898582600,0.105763589977053
Mink and Solitaire,CB3 0HU,52.220921497824700,0.101635000000000
Kākāriki and Hawk,CB24 9HS,52.254929330038400,0.114565098366485
Parakeet and Rabbit,CB3 9NU,52.181833760326000,0.090382428880375
Gull and Perching duck,CB3 9DR,52.205061000000000,0.107564705432456
Scimitar babbler and Gull,CB1 7EF,52.193711533561100,0.139954000000000
Diving bird and Jay,CB1 0NP,52.192267000000000,0.137208000000000
Mamo and Thicketbird,CB24 5PN,52.311152263938500,0.017059702808426
Scimitar babbler and Asiatic leopard,CB3 0GX,52.222900418886600,0.095971060858670
Greenbul and Pratincole,CB22 6AE,52.114372000000000,0.066892000000000
Magpie and Greenbul,CB1 9GH,52.190325515663000,0.186421940760850
Partridge and Elephant,CB23 7ER,52.205978000000000,0.003553000000000
Philippine hawk-owl and Ice seal,CB3 0UD,52.216392000000000,0.094111000000000
Petrel and Rabbit,CB22 5DR,52.143884000000000,0.146204000000000
Tree warbler and Masked owl,CB24 9YY,52.246291000000000,0.106427770992171
Badger and Eagle,CB5 8UU,52.207350195696400,0.167264432919153
Skunk and American sparrow,CB1 3TY,52.193398890045800,0.157221321892695
Black cockatoo and Gull,CB24 1AD,52.288413000000000,0.049279000000000
Lemming and New World blackbird,CB22 5LU,52.149190718764400,0.138653669947801
Mink and Mamo,CB22 5LN,52.148394000000000,0.135561000000000
Crow and Cuscus,CB4 3XW,52.231225425705500,0.116147483910594
Thicketbird and Peafowl,CB22 5HJ,52.143991583220400,0.115823565404329
Marsh harrier and Pitohui,CB4 1GX,52.217740403981400,0.139427659666922
Chickadee and Puffleg,CB1 9GP,52.193110324365700,0.182198342662275
Shearwater and Dorcopsis,CB5 8PH,52.213573320725800,0.163307589584641
Nukupuʻu and B,CB1 3UE,52.189902033569100,0.164528280303405
Maya and Maya,CB3 0NR,52.227990373159500,0.091320092515425
Puffleg and Tattler,CB4 0GH,52.233195176665800,0.149880000000000
Perching duck and Argus,CB24 3BF,52.286032473566000,0.040506612521825
Duck and Tit-tyrant,CB25 9LS,52.274042656460200,0.195524096299866
Jackal and Black cockatoo,CB24 5JS,52.310350000000000,0.056324000000000
Macaw and Nukupuʻu,CB24 5JU,52.308840000000000,0.055800000000000
Dolphin and Fox,CB22 5DS,52.145564000000000,0.147293000000000
Jackal and Treepie,CB22 5BA,52.152476000000000,0.142977000000000
Mink and Scimitar babbler,CB4 2SQ,52.229953945261700,0.125854381331817
Jay and Recurvebill,CB1 3HA,52.207355974427400,0.143817234716635
Scimitar babbler and Tree warbler,CB22 5AY,52.151521431117600,0.141528186322426
Kite and Old World warbler,CB1 9HZ,52.185736086401400,0.172986473071407
Scimitar babbler and Pitohui,CB24 9YW,52.254047955585300,0.113570815721871
Grosbeak and Nukupuʻu,CB2 9HD,52.178142644002900,0.116347167369409
Vole and Mouse,CB23 8DS,52.261128000000000,0.029926000000000
River dolphin and Bunting,CB1 2PS,52.205993146487100,0.142610024290718
Greenbul and Night heron,CB5 8RT,52.210841718404500,0.172498984466848
Booted eagles and Hawk,CB23 1JB,52.152733343374800,0.059869986856583
Maya and Mamo,CB24 6ZE,52.244498482205200,0.153546000000000
Condor and Ibex,CB21 5EE,52.185832927971100,0.200890000000000
Wallaby and Magpie,CB4 3RF,52.225074111287300,0.117699865263463
Boto and Gull,CB5 8HP,52.210237928799000,0.142082422766822
B and Tahr,CB3 9LS,52.199543221032900,0.099247317802792
Moluccan boobook and Diving bird,CB22 3LA,52.124780780108700,0.172400779480091
Treepie and Fulmarine petrel,CB4 2RD,52.226165065743500,0.135498493955125
Snipe and Quetzal,CB23 7PN,52.209436447497300,0.059842837021311
Jerboa and Petrel,CB4 3AT,52.214152848489000,0.123649000000000
Tree warbler and Recurvebill,CB4 2XD,52.235740346910600,0.129089323791883
Ground sloth and Minke whale,CB21 5HN,52.181181000000000,0.216355000000000
Petrel and Pratincole,CB4 3PY,52.218376812213800,0.107060086078317
Thicketbird and Prion,SG8 6PP,52.110479916214600,0.032437127328872
Old World vulture and Moluccan boobook,CB1 3QA,52.196322189687300,0.149783121857334
Pheasant and Snipe,CB1 8SN,52.178866757794300,0.153343892462050
Linsang and Condor,CB22 3HP,52.120398264914900,0.170142529593697
Kite and Mouse,CB5 8SS,52.218996480268800,0.172062501130027
Thrasher and Maya,CB2 1QW,52.201287179024300,0.122890701609010
Eagle and Darwin's finches,CB23 7RY,52.210024999727800,-0.024526523159913
Cloud rat and Grosbeak,CB22 7TN,52.143108000000000,0.087267000000000
Armadillo and Argus,CB22 4LU,52.110262706820500,0.147144660129234
Shearwater and American sparrow,CB4 1EN,52.214245723910000,0.126319193788533
Armadillo and Gull,CB22 3JL,52.124469433514600,0.180011653273936
Magpie and Stilt,CB2 8BG,52.192311005897100,0.129998129105519
Fish eagle and Songlark,CB22 5JR,52.164278083368800,0.120295163076794
Argus and Crow,CB3 0FZ,52.209965046960300,0.089609771972719
Masked owl and Quetzal,CB3 9ED,52.195904311885400,0.100100110671332
Piping shrike and Duck,CB22 7QX,52.128044207506500,0.035384064793104
Nukupuʻu and Mouse,CB24 8SJ,52.294377540352600,0.128513065836564
Bunting and Crow,CB23 7XD,52.216755705263600,0.010847420963427
Pheasant and Elephant,CB4 3PX,52.217578778766800,0.106934472620286
Quetzal and Armadillo,CB1 9JB,52.185314180274500,0.169528045046362
Elephant and Nukupuʻu,CB5 8WL,52.212779246428800,0.163459299888032
Chipmunk and Crow,CB1 0AN,52.192254000000000,0.137179000000000
Kite and Grackle,CB22 3JD,52.123133112367400,0.166652432528564
Shearwater and Macaw,CB23 7ZS,52.206647275114100,-0.028172000000000
River dolphin and Towhee,CB4 0GN,52.233104000000000,0.146702989910236
Vole and Guillemot,CB2 3BZ,52.204695614495700,0.122862915735670
Booted eagles and Darwin's finches,CB1 2EW,52.200732088878000,0.133225212397692
Fox and Gull,CB23 1YU,52.158725967505600,0.002733479483261
Towhee and Hawk,CB22 5BS,52.142588577863000,0.150830000000000
Treepie and Black jay,CB4 2AX,52.222063529103300,0.132139141015053
Siskin and Darwin's finches,CB24 9HA,52.255867773544600,0.107342222762165
Petrel and Armadillo,CB23 8TJ,52.250263182793000,0.023745667874320
Jay and Darwin's finches,CB1 0XR,52.192267000000000,0.137208000000000
Thrasher and Francolin,CB1 2EZ,52.198105542960600,0.130787365350972
Scimitar babbler and Parakeet,CB24 9YJ,52.246612000000000,0.111635000000000
Black jay and Bronzewing pigeon,CB2 1PA,52.195475830488300,0.131510261174036
Scimitar babbler and Meadowlark,CB1 9YN,52.185197435108100,0.184136878511414
Jackal and Snipe,CB22 3JB,52.121842077821800,0.164486205133396
Eagle and Meadowlark,CB1 0SH,52.204823965955800,0.119224803438048
Solitaire and Boto,CB4 3EZ,52.218503317995100,0.116069639396738
Mouse and Bunting,CB1 3TE,52.189791497597300,0.160748210181045
Skunk and Nukupuʻu,CB5 8ST,52.220748576577500,0.170669284713030
Zebra and Perching duck,CB22 3BU,52.124390079854800,0.165778422744023
Goose and Grosbeak,CB23 8AJ,52.221216314332900,0.049480640175689
Marsh harrier and Kestrel,CB22 6AB,52.111686000000000,0.067076000000000
Crow and Booted eagles,CB5 8SG,52.208295239237300,0.167705622391238
Hawk and Greenbul,CB2 9DB,52.179854000000000,0.121020000000000
Parrotlet and Pitohui,CB24 8AS,52.291868000000000,0.087155000000000
Old World warbler and Coati,CB24 4RB,52.289116000000000,-0.014851000000000
Partridge and Elephant,CB23 8HF,52.257664458073500,0.001735000000000
Booted eagles and Argus,CB5 8NE,52.208601898844300,0.159319023852688
Ice seal and Thicketbird,CB22 3FA,52.121632858457000,0.168580942810127
Condor and Old World warbler,CB2 9PF,52.165147519998200,0.111987044622073
Parrotbill and Shearwater,CB21 5DS,52.182753055385700,0.213961412095551
Condor and Flameback,CB1 2LT,52.204864122361500,0.137930877733271
Buzzard and Chicken,CB4 2GW,52.233480000000000,0.116826000000000
Booted eagles and Marmoset,CB21 5RJ,52.182612000000000,0.223448000000000
Treepie and Wallaby,CB1 1JG,52.203245800897000,0.130462526065618
Kite and Songlark,CB2 3LP,52.205941424679800,0.119087716298517
Coati and Cloud rat,CB4 2TH,52.232175750345000,0.128303662577466
Jackal and Egret,CB1 2BP,52.192821000000000,0.134178000000000
Parrotlet and Greenbul,CB1 3NA,52.196825673654200,0.144846868002131
Wallaby and Herring gull,CB22 7RN,52.128038058674200,0.042672000000000
Francolin and Eagle,CB23 7ZF,52.205898812345000,-0.025660864549427
Hawaiian honeycreeper and Philippine hawk-owl,CB24 4AA,52.293945005334700,-0.001686000000000
Kite and Boto,CB25 9JH,52.242048000000000,0.184511000000000
Eagle and Shearwater,CB23 7DR,52.184587000000000,0.018070000000000
River dolphin and Eagle,CB4 3PJ,52.220380827887400,0.107125674807310
Mole and Marmoset,CB22 5BN,52.144442892129500,0.151507199518119
Darwin's finches and Piping shrike,CB3 9NE,52.179158132114900,0.096239380635918
Guillemot and Linsang,CB4 2YE,52.234078000000000,0.123027642214141
Gull and Kākāriki,CB1 1BT,52.206898818816800,0.136799125448086
Partridge and Mink,CB4 1HN,52.214808407269600,0.131513554741741
Magpie and Philippine hawk-owl,SG8 5QZ,52.139308687052400,-0.012444534171345
Fox and Linsang,CB2 1UJ,52.209617319240600,0.117184197991939
Cloud rat and Polecat,CB23 6EQ,52.219650448652400,-0.058298414693733
Black jay and White ibis,CB1 0ZA,52.209359000000000,0.148259000000000
Kestrel and B,PE28 9FJ,52.294751000000000,-0.059757000000000
Rabbit and Kestrel,CB23 7XJ,52.215699458927500,0.004753893588252
Booted eagles and Dolphin,CB5 8BL,52.209396000000000,0.125575000000000
Grackle and Polecat,CB23 8BN,52.224416000000000,0.005147000000000
Diving bird and Nukupuʻu,CB24 5NU,52.317708517374400,0.021187359479645
Moluccan boobook and Songlark,CB23 4NL,52.236482062490600,-0.032944000000000
Tit-tyrant and Parakeet,CB3 9DW,52.203842764519500,0.109753090550740
Flameback and Songlark,CB24 3YX,52.252103471943800,0.052559737553211
Black cockatoo and Skunk,CB3 0BP,52.212332988732700,0.112160789765971
Buzzard and Towhee,CB23 1HR,52.161444842193900,-0.009148237172744
Songlark and Condor,CB22 5FF,52.146341160088800,0.133196724711808
Fish eagle and Old World warbler,CB2 8PF,52.186982351357900,0.133431000000000
B and Capuchin,CB1 9YA,52.189553801475200,0.180019764051016
Parrotbill and Minke whale,CB21 5AF,52.179865424122900,0.223150268979087
Pheasant and Peafowl,CB1 7EB,52.191995382722500,0.138000980167036
Skunk and Minke whale,CB24 5HJ,52.296720000000000,0.058318000000000
Badger and Piping shrike,CB22 5FY,52.147166736551900,0.134230166187119
Shearwater and Old World warbler,CB1 9GJ,52.190363528557000,0.185341122097656
Macaw and Crow,CB24 1BA,52.288376000000000,0.054043000000000
Macaw and Cloud rat,CB1 2BL,52.196444165002900,0.137131668921218
Warbler and Parrotbill,CB24 9ZT,52.241781685481000,0.110131544310946
Crow and Jay,CB22 5WG,52.150997329592700,0.136269796694015
Bronzewing pigeon and Rabbit,CB22 3DR,52.128643212766700,0.173114657432255
B and Cuscus,CB23 1LZ,52.151334303558100,0.057598119764777
Nukupuʻu and Prion,CB5 8HE,52.208452000000000,0.138981000000000
Black jay and Hawk,CB1 1EJ,52.205537528286100,0.129035412684031
Puffleg and Magpie,CB2 3QZ,52.203488258539900,0.120351000000000
Greenbul and Snipe,CB24 9JY,52.252318437961000,0.097108695416229
Shearwater and Hawk,CB2 3EL,52.202963542123400,0.122952000000000
Marmoset and Kangaroo,CB24 5HX,52.314829036619400,0.062914153543775
Kākāriki and Eagle,CB3 9DY,52.196026000000000,0.104387218831410
White ibis and Francolin,CB2 9DT,52.169310000000000,0.124788000000000
Parrotlet and Mockingbird,CB1 3BN,52.198272471551800,0.146379870202818
Chickadee and River dolphin,CB25 9NG,52.268258531478100,0.195164975455371
Buzzard and Scimitar babbler,CB2 9FN,52.173760000000000,0.122324000000000
Mouse and Cloud rat,CB1 2FT,52.192120115261400,0.135139174960512
Wallaby and River dolphin,CB22 3DA,52.130697452419800,0.175333265463104
Hawaiian honeycreeper and Bronzewing pigeon,CB5 8RD,52.205166000000000,0.163865000000000
Crow and Parakeet,CB22 3AQ,52.133046925763200,0.210487499738936
Fulmarine petrel and B,CB2 1PZ,52.198359728850300,0.120673246272328
Stint and Mink,CB22 5HL,52.142882503209500,0.115493302240340
Pheasant and Grosbeak,CB2 9LT,52.169485072370500,0.111739196088548
Cuscus and Night heron,CB4 2QT,52.235278000000000,0.134340000000000
Asiatic leopard and Towhee,CB4 3DQ,52.213689411126600,0.116250693302044
Meadowlark and Thicketbird,CB22 3LD,52.125593796135900,0.174149649126049
Myna and Snipe,CB1 3UR,52.203843128875300,0.146619073172094
B and Night heron,CB1 9LF,52.189719764931200,0.170532606409733
Condor and Asiatic leopard,CB2 9LU,52.170474830143900,0.112707392937316
Pratincole and Marsh harrier,CB1 9XJ,52.194252541523600,0.186556141982865
American sparrow and Moluccan boobook,CB4 0XB,52.229528717947000,0.150629000000000
Thrasher and Vulture,CB2 9LN,52.173019391583400,0.110707344229710
Parrotlet and Parakeet,CB4 1EP,52.214516343954200,0.127268994200455
Bronzewing pigeon and Peafowl,CB24 6AT,52.238006579493600,0.158077000000000
Ice seal and Magpie,CB1 3QY,52.191394912314800,0.143341778106362
Wallaby and Marmoset,CB1 7UA,52.187041566006700,0.139943114771793
Rat and Herring gull,CB24 9AN,52.268319646594300,0.106994694166020
Stint and Jerboa,CB1 3RJ,52.192752005971700,0.151776316681092
Francolin and Crow,CB23 6LE,52.212874000000000,-0.051674000000000
Chicken and Shearwater,CB23 4LY,52.259370820056000,-0.027726481083376
Dolphin and Wallaby,CB4 1PN,52.220907229435000,0.135861121657581
B and Scimitar babbler,CB2 8DZ,52.188801856998400,0.128630703628783
Towhee and Badger,CB4 1LJ,52.223849464781600,0.141214798263238
Hawk and Ice seal,SG8 0BU,52.156539522402500,-0.046015000000000
Greenbul and Tattler,CB22 5EU,52.135395000000000,0.128889000000000
Thrasher and Quetzal,CB1 1LQ,52.207975673989700,0.123473019265837
Pitohui and Crow,CB22 6AD,52.114372000000000,0.066892000000000
Old World quail and Rat,CB21 5EF,52.185212506365700,0.188175269095824
Black cockatoo and Lemming,CB24 5JA,52.313054011830000,0.063638514948169
Cuscus and Tit-tyrant,CB4 2TS,52.233038478317000,0.127832368533400
Ibex and Dorcopsis,CB4 3BJ,52.215381050581800,0.109714267221298
Argus and Old World vulture,CB2 8RG,52.188061918738000,0.137724466299053
Viscacha and Piping shrike,CB4 1AP,52.216803938984900,0.130555069156027
Piping shrike and Pratincole,CB24 9JJ,52.253418960629200,0.097922483520888
Fish eagle and Linsang,CB24 6DY,52.247238323837200,0.158440720604627
New World blackbird and New World blackbird,CB2 3HW,52.206697827732200,0.120528774916078
Francolin and Pratincole,CB4 3AD,52.212233304552800,0.117220769499151
Thrasher and Kangaroo,CB1 3NR,52.195350272409300,0.153277265130344
Logrunners and Dorcopsis,CB24 3EH,52.281446219642200,0.060146335541888
Snipe and Cuscus,CB22 5SY,52.148276375642700,0.146314000000000
Marsh harrier and Siskin,CB3 0PZ,52.236844955612300,0.078730782864673
Parrotlet and Armadillo,CB1 3SF,52.190964087844500,0.155142880818966
Hawk and Pratincole,CB5 8FR,52.214577946865600,0.147692941420386
Goose and Partridge,CB22 7PG,52.124315579352300,0.099814824664305
Peafowl and Magpie,CB4 1XY,52.223886072534000,0.132738972025467
Partridge and Songlark,CB1 8NN,52.180741714351600,0.164685000000000
Old World quail and Herring gull,CB23 7ED,52.180125000000000,0.022915000000000
Scimitar babbler and Myna,CB25 9ER,52.240374640672700,0.246284734977902
Tahr and Polecat,CB21 5HW,52.181947399363400,0.214725939515968
Bunting and Fox,CB2 1JP,52.197720000000000,0.128272207644032
Goose and Kākāriki,CB4 1EU,52.213835656901200,0.127119360740584
Siskin and Meadowlark,CB24 4SH,52.295490601150700,-0.036727000000000
Kestrel and Gull,CB1 8PT,52.180439673693500,0.160265568516227
Songlark and Recurvebill,CB1 2RU,52.205998420250000,0.139346472792461
Bunting and Dorcopsis,CB1 3RD,52.194373143566100,0.140266004552897
Coati and Elephant,CB24 1BF,52.286850000000000,0.048181000000000
Old World quail and Piping shrike,CB25 9JE,52.242939502568500,0.187777362736722
Logrunners and Piping shrike,CB4 3LG,52.215451390501400,0.112762551877573
Chicken and Linsang,CB2 9JQ,52.174497616270100,0.120035261680308
Armadillo and Lemming,CB4 1JY,52.215296321780300,0.125900929620700
Duck and Tattler,CB25 9EX,52.240723000000000,0.246909667019366
Skunk and Hawk,CB23 6AX,52.218998000000000,-0.054696000000000
Tree warbler and Recurvebill,CB4 2LQ,52.228334008530100,0.129921015469258
Cloud rat and Moluccan boobook,CB22 6SB,52.117530176121800,0.055222882205906
Kite and Crow,CB24 4RR,52.295850133722400,-0.005266892364459
River dolphin and Black cockatoo,CB24 3BJ,52.277562937763100,0.048194816862274
Lemming and Prion,CB3 9NH,52.180855500604800,0.091799301592395
Pheasant and Civet,CB1 3JS,52.192777063038900,0.176387888459385
Shearwater and Triller,CB24 8XP,52.285546497890700,0.129072076845103
Grosbeak and Guillemot,CB23 1JX,52.148359603894600,0.061393000000000
Asiatic leopard and Buzzard,CB1 0HN,52.192267000000000,0.137208000000000
Stint and Dolphin,CB4 3QG,52.217009052691300,0.108122579942272
Condor and Goose,CB22 5JX,52.155869989814300,0.137760441350742
Night heron and Treepie,CB2 9NR,52.166376476796100,0.110085841472150
Buzzard and Boto,CB2 1UW,52.209491739954700,0.116474000000000
Mamo and Mamo,CB4 3DL,52.214673978313700,0.118403000000000
Petrel and Gull,CB1 3AW,52.198567467612200,0.145486810197647
Triller and Skunk,CB5 8UG,52.215028000000000,0.171825000000000
Stint and Pheasant,CB1 7BN,52.189420000000000,0.138267193274007
Ground sloth and Marsh harrier,CB23 1NA,52.152833193972000,0.055693777912444
Asiatic leopard and Nukupuʻu,CB1 7ST,52.180465409505800,0.146048851563925
River dolphin and Hawaiian honeycreeper,CB2 9NS,52.165768305316200,0.110963615322219
Badger and Jay,CB1 3SN,52.188682212228300,0.148127043879822
Old World warbler and Thrasher,CB1 9NB,52.191015862082200,0.175833662617468
Goose and Black jay,CB4 3DN,52.213795000000000,0.119447000000000
Goose and Armadillo,CB2 7TY,52.191041518770700,0.120105446097721
Vulture and Flameback,CB24 8TH,52.284323950644100,0.116551035919154
Kākāriki and Chickadee,CB4 3PS,52.219599297763100,0.107586446451890
Shearwater and Armadillo,CB2 8DS,52.189266888744600,0.132310460967595
Warbler and Macaw,CB22 5LY,52.145943000000000,0.137904232555075
Chicken and Quetzal,CB4 3QE,52.217471007554500,0.108437249699344
Maya and Goose,SG8 0BS,52.144310000000000,-0.045296000000000
Mockingbird and Kestrel,CB3 9LF,52.197238154003100,0.102957882088604
Stint and Diving bird,CB23 7DS,52.186424929583600,0.015681339937016
Bronzewing pigeon and Songlark,CB3 9EP,52.201795000000000,0.116739000000000
Ice seal and Tit-tyrant,CB4 3NJ,52.229610668385400,0.110916135221857
Civet and Ice seal,CB1 1JH,52.203506226440500,0.126494250922124
Stint and Elephant,CB23 1WX,52.153785645757300,0.049597816138724
Macaw and Linsang,CB1 7SP,52.184559793672100,0.151804981863783
Piping shrike and Recurvebill,CB24 5PA,52.314284303929600,0.013725009892018
Marsh harrier and Old World quail,CB4 2LN,52.229312755798100,0.130992916169001
Puffleg and Mamo,CB23 2RX,52.188664000000000,-0.014984000000000
Condor and Marsh harrier,CB2 9BA,52.168440732702100,0.121385068903582
Duck and Magpie,CB25 9QJ,52.272971815464700,0.188303363286175
Mockingbird and Cloud rat,CB4 3FA,52.214157000000000,0.124103000000000
Scimitar babbler and Petrel,CB5 8AF,52.209383904001600,0.118666068867703
River dolphin and Mole,CB25 9LG,52.275244296329400,0.194733277397578
Goose and Mamo,CB2 9LL,52.174684438784700,0.109616130874888
Grackle and Tree warbler,CB23 7PS,52.208733343034700,0.057365998721473
Duck and Parrotbill,CB23 4LZ,52.262709413509000,-0.026274103627798
Songlark and Night heron,CB2 1RZ,52.201632817261000,0.117668056131403
Mockingbird and Herring gull,CB2 9EG,52.169463000000000,0.122266000000000
Nukupuʻu and Linsang,CB1 0FY,52.192254000000000,0.137179000000000
Linsang and Chicken,CB2 8BY,52.187864071263000,0.128776094619914
Stilt and Cuscus,CB4 2LA,52.233487451739700,0.129362269484368
Tree warbler and Treepie,CB1 9TS,52.192254000000000,0.137179000000000
Kite and Nukupuʻu,CB3 0HX,52.222024152607700,0.104729132824761
Jackal and Solitaire,CB22 3BW,52.125489240258100,0.160762217593161
Black cockatoo and Prion,CB23 7XT,52.211793792685000,0.009174207091481
Moluccan boobook and Chipmunk,CB24 5PP,52.307029648977700,0.019424683970096
Grouse and Ground sloth,CB1 9XP,52.191296392844500,0.182065603563980
Old World quail and Stint,CB2 9DJ,52.179222792736300,0.123492000000000
Snipe and Thrasher,CB2 0AX,52.173220000000000,0.136338000000000
Cloud rat and Pitohui,CB23 4NB,52.259406303343500,-0.026083758811913
Asiatic leopard and Songlark,CB4 2JF,52.224296000000000,0.130504000000000
Grosbeak and American sparrow,CB2 1HE,52.197856000000000,0.127746000000000
Shearwater and Kangaroo,CB24 9YB,52.256987827857700,0.107058313558666
Condor and Guillemot,CB2 7TT,52.190769287191100,0.122243226655662
Stilt and Fox,CB2 9HX,52.175575016209800,0.114616431247669
Fox and Grosbeak,CB2 1YG,52.191807000000000,0.137070000000000
Cuscus and Jerboa,CB4 2YF,52.233020000000000,0.114900000000000
Grackle and Booted eagles,CB3 0PP,52.237546217774100,0.086379550420279
Zebra and Quetzal,CB24 3EW,52.280336311595600,0.060886502482477
Macaw and Elephant,CB1 9YH,52.183580283471800,0.183574878027087
Hawk and Flameback,CB24 9LD,52.249197760440800,0.122789542008455
Songlark and Mole,CB1 0NX,52.192267000000000,0.137208000000000
Grackle and Hawaiian honeycreeper,CB1 1JF,52.202971000000000,0.130815000000000
Ground sloth and Goose,CB3 9BH,52.200617577313500,0.102034517351868
Myna and Greenbul,CB24 4ST,52.294984721946900,-0.053626455898535
Stint and Crow,CB1 1QE,52.206104263840000,0.136482916311282
Dolphin and Black cockatoo,CB1 3DF,52.197121883745700,0.150802126619824
Treepie and Chickadee,CB1 9HX,52.186724588943100,0.173020046377714
Kākāriki and Siskin,CB4 3PW,52.218596553885600,0.105328332715048
Kite and Goose,CB2 9AZ,52.167637827339800,0.120030780612870
Siskin and Songlark,CB3 0PB,52.234072993733000,0.080402590681050
Lemming and Pheasant,CB2 1HF,52.196884032459900,0.125226976489768
Puffleg and B,CB23 7XF,52.217150101956800,0.006166033339030
Boto and Stilt,CB24 9NA,52.245422638142500,0.111681300495861
Eagle and Marmoset,CB1 3BY,52.198979753303100,0.149018734087279
Coati and Logrunners,CB2 9BN,52.168403877483600,0.123052000000000
Elephant and Ice seal,CB4 1PR,52.217679461571000,0.137828999361802
Shearwater and Stilt,CB4 2UX,52.232966749354400,0.124826766055464
Bunting and Tit-tyrant,CB4 3SD,52.223141142208200,0.115177398737536
Stilt and Thrasher,CB3 9JT,52.196384496874600,0.109473012503035
Triller and Mink,CB4 3FE,52.224127030774900,0.117918297809371
Pitohui and Tit-tyrant,CB2 8AN,52.190086439437200,0.125402000000000
Kite and Fox,CB25 9FQ,52.262661822931500,0.153386544054011
Argus and Nukupuʻu,CB5 8UT,52.212996411202600,0.172194258733506
Triller and Quetzal,CB25 9JU,52.269497124057900,0.190448008753031
Jackal and Chicken,CB3 0JR,52.238131472376100,0.082262086843643
Pratincole and Cuscus,CB1 2EH,52.199621749142300,0.130479419045227
Fish eagle and New World blackbird,CB24 3GP,52.284325000000000,0.037335000000000
Meadowlark and Eagle,CB2 1HP,52.197206085539100,0.124320464295937
Grosbeak and Booted eagles,CB2 9DL,52.178978000000000,0.124437252124106
Jackal and Vulture,CB23 8SL,52.255595825400700,0.016869000000000
Marmoset and Stint,CB23 1JH,52.149892581978800,0.047957327649970
Fish eagle and Old World quail,CB4 1SU,52.226357055269500,0.144249337020526
Civet and Parrotbill,CB22 7NY,52.135459949893100,0.081371744406379
Recurvebill and Towhee,CB22 5LT,52.147452506688800,0.139086000000000
Francolin and Grackle,SG8 6QL,52.111449460084800,0.036176199469678
Macaw and Guillemot,CB2 3QY,52.202199990714200,0.118631637970653
Ice seal and Eagle,CB22 3JQ,52.118598690561200,0.167761759936383
Prion and Tahr,CB5 8QD,52.215205737316200,0.155551000000000
Mouse and Booted eagles,CB24 8AJ,52.292141000000000,0.125957000000000
Chicken and White ibis,CB24 1AZ,52.288212000000000,0.053639000000000
Solitaire and Moluccan boobook,CB24 9HY,52.253201285432400,0.094483797969561
Kestrel and Cloud rat,CB2 9DF,52.177850000000000,0.122431000000000
Magpie and Lemming,CB4 1XW,52.221918232238400,0.135148301883967
Old World warbler and Prion,CB1 0WP,52.192267000000000,0.137208000000000
Ibex and Ibex,CB2 9DU,52.169617000000000,0.124686000000000
Towhee and Cloud rat,CB4 1UF,52.222921248640300,0.154171775174001
Old World vulture and Bronzewing pigeon,CB1 2QZ,52.208682000000000,0.142681000000000
Fish eagle and Prion,CB24 8SL,52.296177000000000,0.133093811467703
Grosbeak and Bunting,CB1 3DL,52.198344000000000,0.153142000000000
Minke whale and Piping shrike,CB4 0QA,52.236689403706300,0.138462000000000
Kākāriki and Tit-tyrant,CB4 2UT,52.233575800542100,0.124460442685498
Solitaire and Nukupuʻu,CB4 1RJ,52.219888246660000,0.146426562648064
Peafowl and Masked owl,CB1 8DW,52.186316880709500,0.165363568158872
Partridge and Minke whale,CB22 7SF,52.131683931821800,0.019917000000000
Ibex and Prion,CB2 0SB,52.175853684898100,0.139055000845673
Treepie and Night heron,CB1 3BB,52.201606032972900,0.147008820945029
River dolphin and Shearwater,CB1 2PP,52.203208428744000,0.141466234622454
Francolin and Old World quail,CB4 2QW,52.230637121600900,0.142273650038457
Duck and Mink,SG8 0BN,52.141297689141600,-0.028621682441652
Triller and Chipmunk,CB1 2AN,52.201623068652200,0.135170364549987
Petrel and Ibex,CB24 6ZL,52.241791000000000,0.157942000000000
Wader and Bunting,CB2 9JN,52.171260552807800,0.117029578829292
Grouse and Pheasant,CB25 9FE,52.266202171084200,0.159918719782135
Tattler and Maya,CB24 3EZ,52.286293147173800,0.037908731936913
Dolphin and Goose,CB23 1EX,52.167563000000000,0.032888000000000
Mockingbird and Coati,CB24 5LH,52.316202966653900,0.059926261290153
Perching duck and Buzzard,CB22 3HX,52.114070843400800,0.168024058140339
Elephant and Towhee,PE28 9JN,52.300557289092900,-0.060598068248389
Old World warbler and Minke whale,CB2 3EQ,52.202867225345800,0.121531803107596
Greenbul and Wader,CB5 8UB,52.214808196963300,0.172443692496881
Scimitar babbler and Tattler,CB24 8AF,52.282874000000000,0.123270000000000
Moluccan boobook and Black jay,CB24 8BN,52.285568132501400,0.132357425720921
Kākāriki and Kestrel,CB22 5AB,52.153773240130400,0.145276341068352
Petrel and Asiatic leopard,CB1 7BY,52.188650000000000,0.144029000000000
Myna and Coati,CB1 9YZ,52.187350095651700,0.184504000000000
Jerboa and Petrel,CB4 3PZ,52.217938513597300,0.107434611732477
Marmoset and Grouse,SG8 5QA,52.131620287456900,-0.013488097094156
Perching duck and Armadillo,CB4 2UR,52.233228549879600,0.123770198252634
Shearwater and Petrel,CB3 0EX,52.213614055521100,0.086125000000000
Towhee and Guillemot,CB4 2ED,52.218269027455700,0.126101464585192
Dorcopsis and Fish eagle,CB3 0PJ,52.238524000000000,0.083915530805401
Skunk and B,CB2 9NZ,52.165047000000000,0.110571726259531
Minke whale and Night heron,CB5 8UZ,52.206954141717900,0.165327804807878
Prion and B,CB1 9JA,52.185616139865000,0.169732926167327
Marsh harrier and Night heron,CB23 6HY,52.212661324654000,-0.057301000000000
Rat and Fish eagle,CB1 1JN,52.204944486791500,0.126519021987962
Thicketbird and Rabbit,CB21 6GP,52.118625000000000,0.223841000000000
Minke whale and Treepie,CB22 5AD,52.154127475744600,0.148538765144729
Thrasher and Kestrel,CB1 9HD,52.184527043564800,0.174185606538987
Duck and Goose,CB1 2EU,52.198780358891200,0.128273417679076
River dolphin and Peafowl,CB4 1AT,52.216745281390800,0.131811250949667
White ibis and Parakeet,PE28 9FE,52.295439076846400,-0.061569595035338
Wallaby and Crow,CB1 8RD,52.183111373002700,0.156767220815554
Flameback and Towhee,CB23 8AY,52.218413673074600,-0.011110369715022
Boto and Maya,CB22 5AX,52.150301174134100,0.141381915157813
Philippine hawk-owl and Moluccan boobook,CB23 1NB,52.150943429082700,0.056293744567021
Old World vulture and Tree warbler,CB3 9AY,52.199468353093700,0.102509000000000
Thicketbird and Eagle,CB2 9DN,52.178059000000000,0.124066000000000
Tahr and Grosbeak,CB24 6UB,52.245093025235100,0.169074126901524
Fish eagle and Towhee,CB4 3JR,52.218387243829200,0.115522444418760
Pitohui and Darwin's finches,CB25 9PS,52.270529786246900,0.186644060134475
Buzzard and Prion,CB25 9WJ,52.241328000000000,0.244443000000000
Viscacha and Pheasant,CB24 5PW,52.308873860576400,0.017792285129058
Prion and River dolphin,CB24 5TY,52.313050926529400,0.021708691559721
Pheasant and Cloud rat,CB23 7BB,52.183896169084200,0.053337469816181
Booted eagles and Pheasant,CB5 8DL,52.209210227740800,0.132299412299938
Macaw and Armadillo,CB2 8BT,52.188642000000000,0.127519764276576
American sparrow and Jerboa,CB2 9AG,52.170735930734900,0.110233590967154
Pheasant and Stilt,CB2 1RT,52.200231936919700,0.116562441296492
Guillemot and Peafowl,CB1 3LS,52.196335321704700,0.144120887220067
River dolphin and Mole,CB23 7GT,52.208359332076700,-0.021175522026097
Grouse and Treepie,CB2 9AT,52.169029285425800,0.119553000000000
Lemming and Booted eagles,CB23 8AL,52.226188006270900,0.042566000000000
Crow and Egret,CB4 2LE,52.226970802659500,0.130221832885552
Macaw and Ice seal,CB4 1RS,52.223595523084300,0.148259878258040
Dorcopsis and Magpie,CB4 0DP,52.232282672745300,0.151168914882112
Black jay and Mockingbird,CB1 3BS,52.201503401048200,0.149681975471119
Coati and Dorcopsis,CB2 9FH,52.173758000000000,0.120481000000000
Condor and Fulmarine petrel,CB23 2TR,52.189914000000000,-0.062102000293479
Thicketbird and Piping shrike,CB24 3DT,52.274028814267700,0.053909769292721
Rabbit and Shearwater,CB4 2TR,52.232873847589200,0.127487665960552
Duck and Hawaiian honeycreeper,CB4 2QR,52.229469200765500,0.144692189407778
Pheasant and Perching duck,CB4 2HB,52.225843498595100,0.119420352820262
Thicketbird and Pitohui,CB1 0AH,52.192254000000000,0.137179000000000
Macaw and Coati,CB22 3NP,52.123177090034500,0.167955000000000
Viscacha and Treepie,CB23 2TT,52.184829835028800,-0.055895269921125
Stint and Scimitar babbler,CB4 2SL,52.230762275978100,0.126405544562893
Vole and Prion,CB3 9DH,52.206486000000000,0.106293000000000
Condor and Treepie,CB1 9BD,52.201190823551900,0.192077346356491
Polecat and Tahr,CB2 9NB,52.168234748609400,0.117280758095396
Ibex and Badger,CB22 5FT,52.151487000000000,0.093637000000000
Magpie and Bunting,CB4 3RR,52.223253717695900,0.113411126147058
Viscacha and Moluccan boobook,CB22 3HY,52.122506079831800,0.163583435022225
Old World vulture and Parrotbill,CB1 2SN,52.201786663908400,0.140300000000000
Hawk and Parakeet,CB1 0YY,52.192254000000000,0.137179000000000
Myna and Towhee,CB23 7AQ,52.178765882030200,0.060838698141251
Rabbit and Tahr,CB22 5EJ,52.148618480682300,0.132516319766901
Towhee and Tahr,CB4 3SF,52.224962183648200,0.116420677746115
Marmoset and Maya,CB5 8JB,52.213501663864700,0.143586188039519
Francolin and Greenbul,CB22 3HG,52.113504982510400,0.180177701541910
Kangaroo and Masked owl,CB1 3UD,52.190155329126700,0.163955355567518
Moluccan boobook and Masked owl,CB22 6RX,52.112603000000000,0.066578000000000
Warbler and Fox,CB4 2EX,52.234163000000000,0.121384000000000
Diving bird and Dorcopsis,CB2 9JZ,52.172569829730100,0.113216159970240
White ibis and Moluccan boobook,CB24 1AG,52.288536000000000,0.047906000000000
Myna and Recurvebill,CB1 3TG,52.187874391590500,0.159865227306466
Night heron and Linsang,CB1 0SB,52.204823965955800,0.119224803438048
Armadillo and Old World quail,CB1 1BN,52.205271435104600,0.134803767881679
Goose and Old World warbler,CB1 3TW,52.187311400810200,0.161637404590958
Armadillo and Buzzard,CB24 9AB,52.251215371782900,0.125596265279890
Pratincole and Armadillo,CB2 9DS,52.168489655600000,0.125160268100000
Fox and Goose,CB24 1DE,52.289480000000000,0.055663000000000
Meadowlark and American sparrow,CB1 2FJ,52.192973609587600,0.135180078040543
Crow and Asiatic leopard,CB24 5QE,52.305241165347000,0.019900687940218
Grouse and Quetzal,CB3 1AE,52.217056000000000,0.086076000000000
Skunk and Coati,CB2 9FT,52.169772000000000,0.107819000000000
Argus and Scimitar babbler,CB24 9PW,52.245013576900300,0.106048000000000
Viscacha and Maya,CB22 5BL,52.147264202965700,0.153104883612333
Grouse and Cloud rat,CB4 3ER,52.219892118464300,0.117848593836986
Masked owl and Piping shrike,CB1 3DJ,52.198668040186500,0.154769299335443
Rat and Minke whale,CB22 3HJ,52.119809105645200,0.168930683900214
Grackle and Duck,CB3 1BG,52.220224000000000,0.086957000000000
Stint and Marsh harrier,CB4 1SL,52.226049561511900,0.145830553033172
Bronzewing pigeon and Capuchin,CB3 0QN,52.238968471394000,0.077116370777005
Rat and Francolin,CB24 5LA,52.309108612283500,0.059406153368852
Jay and Pheasant,PE27 4TQ,52.319233511341200,-0.037244067746631
Peafowl and Mamo,CB22 5EF,52.154250000000000,0.135446000000000
Crow and Warbler,CB1 3SX,52.188986868897200,0.156071371133341
Maya and Kestrel,CB3 9AF,52.205436303965000,0.102086335788193
Goose and Shearwater,CB2 1NZ,52.196254019298100,0.132235231875571
Treepie and Polecat,CB23 2RU,52.188606851649700,-0.014357476844491
Elephant and Parakeet,CB24 4SP,52.297820283973400,-0.040772251882899
Mole and Rat,CB4 1PE,52.220977938610900,0.150285734365479
Black jay and Stilt,CB3 0AH,52.212429539602300,0.112794801981290
Pitohui and Flameback,CB4 1TL,52.222453902924200,0.150708438890044
Parrotbill and Skunk,CB23 7DJ,52.191877894052400,0.028042469270834
Moluccan boobook and Warbler,CB22 7SB,52.124862923124400,0.023785614734502
Meadowlark and Puffleg,CB4 1BS,52.219665137098100,0.152257328703594
Puffleg and Mink,CB4 3RN,52.224402987178700,0.114007454757711
Mouse and Rabbit,CB4 1EL,52.225649000000000,0.137275000000000
Linsang and Thicketbird,CB21 6GS,52.116581464032300,0.220101896271780
Kestrel and Grosbeak,CB3 9AP,52.200475099010700,0.103974114282549
Parrotbill and Fox,SG8 6QH,52.112440000000000,0.035111000000000
Parrotbill and Ice seal,CB1 7AX,52.179688750747200,0.147766679112977
Ibex and Thrasher,CB23 7AW,52.177816000000000,0.062349291405111
Vole and Night heron,CB1 1QH,52.205392620355000,0.137546450849909
Egret and Chickadee,CB3 9HX,52.195894651216900,0.111220349793645
Hawk and Warbler,CB2 3NB,52.205275118953400,0.120300000000000
Triller and Myna,CB23 7PB,52.215452236273600,-0.020011225783169
Parrotlet and Egret,CB23 1ES,52.152073189696200,0.028966362574963
Gull and Capuchin,CB25 9NF,52.267552357838700,0.195423212025520
Grouse and Philippine hawk-owl,CB1 0NA,52.192267000000000,0.137208000000000
Egret and Meadowlark,CB23 8SJ,52.250686000000000,0.020164059314393
Snipe and Grosbeak,CB2 7EG,52.190310480505500,0.118753899470335
Warbler and Pratincole,CB22 6SQ,52.112988994159200,0.062959230336415
Elephant and River dolphin,CB22 3JX,52.125039960688800,0.176387146791960
Macaw and Black jay,CB4 1JS,52.212279874477900,0.134100515210905
Flameback and Philippine hawk-owl,CB3 0BT,52.213240577326200,0.111691510789666
Armadillo and Puffleg,CB21 5GT,52.189899000000000,0.229430000000000
Tit-tyrant and Chicken,CB23 4NN,52.252685659480200,-0.031659000000000
Greenbul and Perching duck,CB4 1JE,52.213375167614200,0.132703827004299
Flameback and Mamo,CB21 6AW,52.119435018787100,0.217073851708040
Mamo and Badger,CB2 9AB,52.169188000000000,0.109327000000000
Vole and Bunting,CB3 9JJ,52.194335000000000,0.112060059870894
White ibis and Parrotbill,CB4 1EA,52.192254000000000,0.137179000000000
Ibex and Petrel,CB4 1JW,52.211431901232900,0.135245520226764
Perching duck and Parrotbill,CB25 9BU,52.245376000000000,0.230935000000000
Minke whale and Pheasant,CB23 7PZ,52.196534000000000,0.070133000000000
Goose and Logrunners,CB1 9JN,52.183135434729500,0.174556570778784
Prion and Chipmunk,CB23 6JG,52.213479222991000,-0.059211627221888
Mamo and Black cockatoo,CB1 1HZ,52.207809710377500,0.135159641217119
Treepie and Quetzal,CB22 4PG,52.116652000000000,0.137456591568800
Logrunners and Tahr,CB21 5DB,52.177003505175600,0.225143059558022
Egret and Triller,CB3 9DQ,52.200977260734600,0.105563690588597
Civet and Shearwater,CB4 0WX,52.229349095455300,0.156708800949668
Chicken and Solitaire,CB4 3LH,52.216990152782900,0.111693708471865
Coati and Fox,CB3 0LU,52.225896585201900,0.089215692901649
Booted eagles and Booted eagles,CB24 9JG,52.254469636104900,0.104565363803903
Philippine hawk-owl and Maya,CB4 2QL,52.237834000000000,0.132705000000000
Grouse and Herring gull,CB22 7SH,52.124174093224900,0.023579098396509
Black jay and Siskin,CB4 1SB,52.222143801036600,0.144031695296543
Nukupuʻu and Cloud rat,CB24 5NG,52.316906242543100,0.016044872926024
Stint and Wallaby,CB1 2AL,52.201944933650100,0.134278452865565
Dorcopsis and Peafowl,CB24 9WZ,52.251936504244800,0.106437975593036
Thicketbird and Egret,SG8 6PX,52.108096768851300,0.018323963719030
Old World warbler and Recurvebill,CB23 1HA,52.154092100735200,0.012422231036176
Chickadee and Boto,CB23 8SF,52.251678893197200,0.027179762985805
Bronzewing pigeon and Viscacha,CB23 7QN,52.215526883783700,0.003267611719064
Ground sloth and Black cockatoo,CB4 3RS,52.222469741427200,0.117517373221978
Macaw and Rabbit,CB25 9JJ,52.239804484229800,0.184693718839989
Logrunners and Diving bird,CB24 5NE,52.317582683765700,0.021709833095189
Philippine hawk-owl and Piping shrike,CB3 0RZ,52.224464000000000,0.098313000000000
Partridge and Macaw,CB22 3UN,52.116928188056900,0.172048116874305
Bronzewing pigeon and Booted eagles,CB21 5DN,52.185082316592100,0.217295556077048
Night heron and Towhee,CB4 1BL,52.212856172628600,0.140012674475590
Capuchin and Jackal,SG8 5RA,52.140520780525100,-0.009672352034662
Bunting and Stint,CB23 7BL,52.181038000000000,0.059496000000000
Macaw and Guillemot,CB3 0JG,52.228412463101200,0.083725493209008
Ground sloth and Thicketbird,CB22 3EQ,52.108456220920700,0.171930000000000
Black jay and Peafowl,CB5 8EL,52.215140000000000,0.157836000000000
Old World warbler and Zebra,CB4 2GN,52.233519662348500,0.122583212635001
Cloud rat and Dorcopsis,CB4 2EF,52.234413000000000,0.119477000000000
Herring gull and Greenbul,CB25 9GJ,52.270797000000000,0.200697000000000
Eagle and Thicketbird,CB2 3NR,52.205663646571900,0.118532975795208
Towhee and Old World vulture,CB5 8JD,52.213191472665900,0.143337040130847
Bronzewing pigeon and Logrunners,CB4 1FZ,52.224346351371200,0.134137371076860
Fox and Dorcopsis,CB3 0PY,52.238495000000000,0.079650181251909
Marsh harrier and Ibex,CB1 7XD,52.183976671122100,0.149363000000000
Vole and Jay,CB3 9LP,52.201774114034300,0.096162164260661
Duck and Wallaby,PE28 9LW,52.299983000000000,-0.061708000000000
Francolin and Kangaroo,CB1 3LW,52.194721000000000,0.148892033510269
Capuchin and Partridge,CB4 1YF,52.225260000000000,0.136392000000000
Boto and Rabbit,CB24 9EH,52.253986612528600,0.103414322050688
Viscacha and Nukupuʻu,CB3 9BB,52.198657692775500,0.101005491323521
Petrel and Flameback,CB2 3NZ,52.205808078566700,0.119711000000000
River dolphin and Egret,CB24 5TX,52.317964982993600,0.019335631227304
Logrunners and Kite,CB24 5PJ,52.311450169232500,0.012246688103565
Chickadee and Zebra,CB23 7PL,52.210092310917000,0.062961597526990
Triller and Ground sloth,CB3 1AG,52.219281000000000,0.086371000000000
Parrotlet and Argus,CB22 3SN,52.125538391198800,0.177638641334160
Recurvebill and Mink,CB4 1LQ,52.222074348073100,0.136458856186503
Nukupuʻu and Coati,CB25 9AE,52.218530805086300,0.217878090715659
Towhee and Moluccan boobook,CB1 2NN,52.203170224263000,0.133649329082939
Black jay and White ibis,CB5 8QF,52.215611621860500,0.158063369626629
Kākāriki and Civet,CB1 3SE,52.191284671586400,0.151866392407228
Old World vulture and Rat,CB25 9LH,52.269263040281800,0.197237256578287
Partridge and Pratincole,CB1 3RQ,52.195353208283300,0.140269193138336
Siskin and Ibex,SG8 5QE,52.131245000000000,-0.031798000000000
Asiatic leopard and Black jay,CB24 6BS,52.241888248171500,0.164687000000000
Piping shrike and Magpie,CB22 3SP,52.121346089589700,0.175798128310446
Egret and Ice seal,CB24 5AF,52.317809404646800,0.066339383227798
Fox and Macaw,CB4 2JN,52.227491321777800,0.122793496994648
Philippine hawk-owl and Chicken,CB1 7SX,52.180880805682300,0.145951831017270
