name,postcode,lat,lon
Partridge and Badger,WS10 8AT,52.569055833191500,-2.030762813452710
Siskin and Jackal,WS1 3DB,52.579360654913600,-1.980447469922000
Chicken and Macaw,WV10 9YB,52.602212353108100,-2.114769828499580
Parrotlet and Vole,WS1 2QJ,52.587657000000000,-1.968636000000000
Kangaroo and Elephant,WS1 1SZ,52.587756423503100,-1.976517574657730
Tahr and Kangaroo,WS11 5BX,52.697413266123000,-2.021072829214400
Thrasher and Armadillo,WV13 1AU,52.593311694670200,-2.052347303851850
Old World quail and Old World quail,WS5 3ER,52.573577631650300,-1.943959841113700
Songlark and Egret,WS14 0EU,52.646699000000000,-1.889166299830210
Ice seal and Bronzewing pigeon,WV10 9BH,52.610755682194900,-2.111587575057660
Lemming and Old World vulture,WS11 9RB,52.672888326941800,-1.972597789917630
Vulture and Ice seal,B74 3QA,52.579570600000000,-1.888405229000000
Quetzal and Armadillo,WV12 4QQ,52.601980499776400,-2.045979223265380
Fox and Maya,WS10 8PF,52.575409000000000,-2.043029875775680
Parakeet and Egret,WS6 6AE,52.650443474476100,-2.012846345958280
Wader and Tree warbler,WV14 6RE,52.571633000000000,-2.078895000000000
Ground sloth and Songlark,WV3 9DZ,52.586156564550200,-2.161028839837010
Crow and Pheasant,WV13 3PB,52.582272152084000,-2.083666055149140
Duck and Mamo,WS12 1JB,52.705754940304400,-1.974841800616340
Snipe and Chipmunk,WV12 4ER,52.594413446618900,-2.039534839477620
Thicketbird and Capuchin,WS9 8XE,52.621980515647600,-1.916555922768170
Quetzal and Hawaiian honeycreeper,WS5 3DE,52.578934745331000,-1.942255961691400
New World blackbird and Armadillo,WS3 2LR,52.618664014734300,-2.018685999468990
Tahr and Tahr,WS11 6XJ,52.696173229688500,-2.017876131702220
Gull and Meadowlark,WS8 7EJ,52.640575900725400,-1.938968377352520
Stint and Argus,WS2 9JT,52.584961978577900,-1.985182729484370
Perching duck and Thrasher,WS10 7TD,52.564317490894300,-2.033341125488740
Egret and Cloud rat,WS12 0PD,52.719289144589600,-1.959718652208650
Guillemot and Triller,WV13 3AS,52.585936904282500,-2.074876346790460
Francolin and Viscacha,WS2 9DT,52.567756357726000,-2.001668052028950
Tahr and Kangaroo,WV2 4PN,52.569158619718700,-2.138304397846720
Tit-tyrant and Eagle,WS3 1RD,52.604135262902800,-1.973895387242440
Flameback and Boto,WS9 8XB,52.619774012555600,-1.911020996367220
Towhee and Polecat,WS2 7AQ,52.599417827452300,-1.987584488555900
Parakeet and Boto,ST19 5AX,52.730144623796000,-2.114617567754700
Nukupuʻu and Moluccan boobook,WS12 2UZ,52.699941186900000,-2.004189543328210
Triller and Elephant,WV10 6BB,52.620888538336300,-2.127950499088780
Gull and Rabbit,ST19 9DB,52.675336654724400,-2.166163736588380
Puffleg and Prion,WV9 5RJ,52.626734001156300,-2.149152503828610
Kite and White ibis,WS11 1BX,52.689599112954000,-2.030848187340390
Puffleg and Jay,WS12 4SZ,52.720715176239500,-2.015709972597520
Egret and Lemming,WS3 1HG,52.609981328728000,-1.994876787473960
Minke whale and Mockingbird,WS1 1DD,52.585599729639100,-1.981404096117940
Tit-tyrant and Chipmunk,WV6 0BS,52.591831994724500,-2.152074643483090
Armadillo and Viscacha,WV14 6ES,52.575245900201300,-2.090720756711170
New World blackbird and Partridge,WV10 6PT,52.632879695514600,-2.120494432493940
Thrasher and Siskin,WV10 8LP,52.620009598081200,-2.097150000000000
Triller and Jay,WV1 4TA,52.588631587450500,-2.144948988246340
Tree warbler and Flameback,WV10 7FG,52.635035000000000,-2.129952000000000
Minke whale and Songlark,WV2 3LS,52.577373751073600,-2.123485047889680
Night heron and Grackle,WV13 1AJ,52.591348607393000,-2.059341853779030
Nukupuʻu and Viscacha,WS7 1YX,52.688661272269800,-1.938161936636950
Minke whale and Logrunners,WS11 0BS,52.674236953446800,-2.026089903426710
Argus and Marsh harrier,B74 3QW,52.578163100000000,-1.892629288000000
Logrunners and Peafowl,WS10 8HP,52.573853947270700,-2.039014534533270
Mouse and Mockingbird,WV10 7RA,52.678378380834800,-2.099158529059370
Logrunners and Booted eagles,WS1 1RP,52.582228000000000,-1.982905000000000
Vulture and Greenbul,WS1 2DF,52.580336831331700,-1.964361154880320
Parrotbill and Thrasher,WS2 9TH,52.577573143792400,-2.004841188161930
Perching duck and Buzzard,WV10 8EX,52.625797833940900,-2.118465812987170
Goose and Warbler,WS8 7DY,52.640512583874100,-1.938214790181940
Wallaby and Cloud rat,WV6 9JP,52.608598338355200,-2.158615620144780
Prion and Prion,WV12 4JB,52.599805525585500,-2.044544802033550
Mole and Maya,WV11 2ES,52.614054531775700,-2.063640933128590
Old World vulture and Fish eagle,WV10 8LX,52.616431732513200,-2.097452538897990
Tahr and Pheasant,WV1 1QB,52.596774000000000,-2.124529000000000
Myna and Hawaiian honeycreeper,WV10 9EX,52.618258921906000,-2.123836630773310
Linsang and Mouse,WV4 4LU,52.568136715276600,-2.164119997501880
Wallaby and Siskin,WS8 6BF,52.644541586282200,-1.941401465147940
Masked owl and Jackal,WS9 0LU,52.616058419970900,-1.886599409880780
Partridge and Towhee,WS3 1RY,52.611084384909600,-1.974053745083080
Moluccan boobook and Songlark,WS4 2HF,52.594764966159600,-1.962769943991950
Goose and Civet,WV12 4SJ,52.602323000000000,-2.047840000000000
Kangaroo and Coati,WV11 3DS,52.595575000000000,-2.084246000000000
Stint and Pitohui,WV3 0HN,52.575192236494700,-2.144609464947830
Wader and Peafowl,WS1 3EF,52.577238684380700,-1.978264416449590
Lemming and Greenbul,WV10 8QW,52.623572000000000,-2.095459000000000
Snipe and Wallaby,WS1 3AD,52.579431471105800,-1.974397000000000
Gull and Parrotbill,WS10 8AL,52.575177522732300,-2.032168950854020
Parrotlet and Crow,WS3 1DD,52.611708000000000,-1.984730930846900
Duck and Lemming,WV2 4EA,52.576631255451300,-2.128618000000000
Scimitar babbler and Towhee,WV3 0QQ,52.574286510206500,-2.142762020466420
Mockingbird and Armadillo,WS4 2AL,52.590515000000000,-1.978311000000000
Bronzewing pigeon and Rabbit,WS11 9RN,52.680194504644200,-1.963555761365850
Ibex and White ibis,WS8 6AS,52.645980502327700,-1.925703000000000
Grouse and Shearwater,WS4 2AA,52.589671272268000,-1.976634649282090
Skunk and Triller,WS10 7NT,52.563912092718700,-2.036232243237790
Tit-tyrant and Stilt,WS7 0HY,52.675863424267500,-1.882954564330670
Towhee and Darwin's finches,WS15 4LW,52.717638197737100,-1.902858031864850
Kākāriki and Chipmunk,WS11 6TL,52.705379736229700,-2.007490461255000
Solitaire and Gull,WS7 4RJ,52.678273029742400,-1.928858416487360
Pratincole and New World blackbird,WV6 0BA,52.591098222269100,-2.149415060914880
Grosbeak and Grouse,WV11 1EU,52.614386188203400,-2.092323091666450
Marmoset and Wallaby,WS9 8EQ,52.607362707919800,-1.929740821625630
Warbler and Buzzard,ST19 5SW,52.716269811443200,-2.109207431991600
Marmoset and Jay,WV3 9BJ,52.576805038902800,-2.155903519591870
Wader and Meadowlark,WV2 4QD,52.567978573886500,-2.140321915899410
Mockingbird and Old World warbler,WS6 7NF,52.650342680345500,-2.024715660602490
Quetzal and Tit-tyrant,WS12 1DB,52.705721574878600,-1.997544951683570
Quetzal and Grosbeak,WV13 1JL,52.587942266686200,-2.034894258959250
Peafowl and B,WS3 5AZ,52.635059580406500,-1.972473000000000
Wallaby and Mouse,WV1 2HT,52.583220019684600,-2.101570128717170
Capuchin and Mamo,WV1 3ET,52.584266000000000,-2.127578000000000
Coati and Stilt,WS9 0QW,52.573650000000000,-1.912413000000000
Jerboa and Tahr,WS8 7NH,52.660522828810400,-1.956726696548720
Night heron and Magpie,WS3 2NR,52.618359032159700,-2.013900233405960
Pratincole and Flameback,WV3 7BJ,52.573353000000000,-2.150078000000000
Zebra and Kite,WV11 3SE,52.598092361931600,-2.072859756654580
Black cockatoo and Pheasant,WV13 3TD,52.582561000000000,-2.069292378992940
Cloud rat and Thicketbird,WV10 7EY,52.639730995256000,-2.127976028598400
Towhee and Wader,WS12 2DN,52.700464000000000,-1.997071638360930
Mole and Grackle,WS1 3LB,52.569147223461000,-1.975052010026950
Condor and Petrel,WV10 8TS,52.630064380895800,-2.112936950928390
Duck and Tree warbler,WV1 2RH,52.586264062858600,-2.105562300364980
Pitohui and Mink,WV11 2EH,52.612822696303900,-2.064082198192030
Jerboa and Pratincole,WS5 3DQ,52.577901075014700,-1.942581964887280
Jerboa and Philippine hawk-owl,WS1 9QB,52.586012000000000,-1.981280000000000
River dolphin and Siskin,WS2 7BT,52.599476441436300,-1.991142862806690
Meadowlark and Egret,WV1 9RL,52.588468000000000,-2.114955000000000
Cloud rat and Fish eagle,WS8 6LA,52.652253000000000,-1.920652000000000
Thicketbird and White ibis,WS8 7RJ,52.640776193061800,-1.944096075549320
Recurvebill and Snipe,WS2 8TH,52.592504900758200,-2.009566693378390
Ice seal and Macaw,WS3 2SN,52.620974006603800,-2.020887929154250
Mouse and Old World vulture,WV1 3JS,52.584946932122600,-2.119831322330790
Magpie and Quetzal,WS11 1HH,52.690591450100100,-2.047433908511100
Songlark and Armadillo,WS10 9RN,52.568581212153100,-2.022692178452710
Buzzard and Parrotbill,WV13 1EP,52.591821093961700,-2.048359899270630
Jay and B,WS4 2BX,52.589904660465100,-1.974922261238300
Stilt and Duck,WS1 4AX,52.572798423806800,-1.982604603281990
Marmoset and Polecat,WS10 8DF,52.580194940986600,-2.027848663174440
Crow and Duck,WS3 3TH,52.625946567849100,-2.012174238247600
Chipmunk and Linsang,WV10 0SW,52.604921705213900,-2.101177475267620
American sparrow and Tit-tyrant,WV10 9JE,52.613531470384300,-2.113736132917070
Philippine hawk-owl and Old World vulture,WS11 9WS,52.671343579204000,-1.980066857377110
Viscacha and Chicken,WS5 3EX,52.574044518659200,-1.942734535304680
Wallaby and Moluccan boobook,WS2 7HB,52.600892708294800,-2.003677495283540
Kangaroo and Petrel,WS1 3RB,52.578219101726900,-1.981761000000000
Chickadee and Diving bird,WS12 1DT,52.706721000000000,-2.001985000000000
Eagle and Ice seal,WV10 7AD,52.644840000000000,-2.086269000000000
White ibis and Cuscus,WS1 2BZ,52.579771089359500,-1.966486690899550
Maya and Asiatic leopard,WV9 5LR,52.623937284550500,-2.142598821395350
Treepie and Chickadee,WS5 4NE,52.563950120775700,-1.970717782509640
Fulmarine petrel and Warbler,WS6 6PG,52.667649518128600,-2.014655519610580
Dolphin and Linsang,WV2 3PA,52.572926715044700,-2.120654282436010
Myna and Black jay,WV3 7JH,52.575140062308600,-2.163924848319720
Warbler and Kākāriki,WS3 1HL,52.613837713712700,-1.991021663355340
Polecat and Asiatic leopard,WS11 5RS,52.711400386864600,-2.024765319408470
Macaw and Black jay,B74 3NF,52.578380000000000,-1.883007000000000
Philippine hawk-owl and Thrasher,WS7 0AZ,52.677132000000000,-1.915120000000000
Vole and Bronzewing pigeon,WS1 1TR,52.586149000000000,-1.978983000000000
Philippine hawk-owl and Crow,WS4 2HZ,52.595055309715500,-1.972645905160440
Capuchin and Magpie,WS11 0AS,52.681759249799000,-2.034082032623340
Bronzewing pigeon and Duck,WS7 4UD,52.671952598906900,-1.927700349491170
Chipmunk and Warbler,WS12 1TH,52.711519540352300,-1.990587760022620
Bronzewing pigeon and Fox,WS3 2JH,52.616905000000000,-2.005215000000000
B and Rabbit,WV4 5AT,52.565580886751400,-2.138116089544190
Snipe and Shearwater,WS3 1DR,52.609379000000000,-1.979799000000000
Puffleg and Bronzewing pigeon,WS1 4JJ,52.575730022492900,-1.991029220604600
Warbler and Capuchin,WS11 5ST,52.707796997333100,-2.016697000000000
Stilt and Linsang,WS3 2AJ,52.605989919614800,-1.996161898622810
Marsh harrier and Snipe,WV4 4AG,52.566709273976100,-2.149081217469430
Shearwater and Magpie,WS3 1JX,52.614969392914200,-1.981849681215340
Stint and Petrel,WS4 1JP,52.606045593124700,-1.958123818014480
Partridge and Fulmarine petrel,WS7 0JZ,52.661919756540400,-1.891714977694690
Pitohui and Masked owl,WV1 2RL,52.587585679147800,-2.105432642512430
Ice seal and Vulture,WS11 0GB,52.673077541045900,-2.025069000000000
Buzzard and Mole,WV13 1EB,52.590750002817000,-2.051443803076790
Polecat and Rabbit,WS9 9PB,52.634902000000000,-1.919073000000000
Petrel and Mamo,WV2 2ET,52.568895780236600,-2.105520488642190
Booted eagles and Old World warbler,WV6 0QQ,52.596646984930200,-2.140398900469370
Kite and Ground sloth,WV1 9NG,52.588468000000000,-2.114955000000000
Ibex and Thicketbird,WV10 9JN,52.611490000000000,-2.115400000000000
Rabbit and Armadillo,WS10 8PH,52.574805157661800,-2.043870055038470
Crow and Skunk,ST19 5EF,52.724887105457200,-2.103350848898280
Zebra and Elephant,WS7 2EA,52.683788000000000,-1.919648000000000
Tit-tyrant and Kākāriki,WS11 1LQ,52.684961000000000,-2.033729000000000
Stint and Fox,WS12 1AT,52.706773339918000,-2.002813809868420
Skunk and Chicken,WV10 7PE,52.660423346884900,-2.121294773068450
Fish eagle and Night heron,WS4 1PN,52.614253000000000,-1.955295000000000
Treepie and Grackle,WV1 2DP,52.579916237988300,-2.096234994510210
Parrotlet and Dolphin,WS2 9XQ,52.582544542849600,-2.003911984295720
Fox and Kangaroo,WS2 0EQ,52.589948867356800,-2.027869665474900
Tattler and Kestrel,WV13 3PZ,52.583118730560500,-2.081011000000000
Rabbit and Hawk,WS3 1ND,52.616201719981500,-1.987624151406860
Bunting and Siskin,B74 3LY,52.588253530000000,-1.887113836000000
Egret and Viscacha,WS7 3RG,52.672634000000000,-1.940973000000000
Kākāriki and Siskin,WV12 5UL,52.609541199674100,-2.045189741568350
Warbler and Ice seal,ST19 5DS,52.723292726706400,-2.106974518055370
Marsh harrier and Maya,WS9 0RP,52.598308842663400,-1.914268093699160
River dolphin and Parakeet,B74 2DF,52.565953560000000,-1.881741906000000
Pratincole and Petrel,WV8 1YR,52.615553892748400,-2.160486991016020
Pratincole and Jerboa,WS10 8BW,52.573202382437500,-2.020348000000000
Puffleg and Goose,WS10 9TT,52.565002978626000,-2.024106554811950
Jackal and Kestrel,WS3 1TB,52.600542000000000,-1.982047000000000
Bunting and Old World quail,WV11 2PL,52.610513005205900,-2.062823546313970
Parrotbill and Tahr,WS12 1QJ,52.713398565818000,-1.993681100636800
Songlark and Old World quail,WV10 0LY,52.596946681458900,-2.102443459818470
Puffleg and Dorcopsis,WV12 5PG,52.603667000000000,-2.034877000000000
Kite and Black jay,WV3 0SQ,52.583413794284600,-2.132800061454920
Minke whale and Asiatic leopard,WS9 0JS,52.598921127303500,-1.929429470007590
Stint and Wallaby,WS2 7DJ,52.604245394478200,-2.011296911953030
Triller and Flameback,WS1 3EY,52.569899738970300,-1.964635129100320
Minke whale and Marmoset,WS4 1NZ,52.616686262954900,-1.949827807886230
Cloud rat and Herring gull,WS7 4RR,52.678344035286800,-1.927349649745810
Kangaroo and Booted eagles,WV3 0HJ,52.575553319840300,-2.143385898806430
Chipmunk and Minke whale,WS10 8NN,52.572727479670600,-2.046553404545800
Boto and Civet,WS8 6LH,52.651324576332200,-1.918880084524630
Dorcopsis and Gull,WS1 3QU,52.580773078546600,-1.988357052397610
Pheasant and Hawk,WS3 4DQ,52.617636501990700,-1.968200898505560
Fish eagle and Nukupuʻu,WS9 0PN,52.590521000000000,-1.888053012335290
Viscacha and Triller,WV9 5QU,52.622595618321700,-2.151590549458470
Shearwater and Treepie,WV11 1XG,52.599393091012300,-2.089943986753990
Parrotlet and Scimitar babbler,WS1 1EP,52.584583710832900,-1.980224000000000
Hawaiian honeycreeper and Jerboa,WS11 6UZ,52.695202765612200,-2.014916449790540
Petrel and Masked owl,WS1 3TE,52.571770530945100,-1.967850185755910
Ground sloth and Vole,WV3 7EW,52.572562056898500,-2.155740894588430
Old World vulture and White ibis,WS14 0BE,52.657318071429400,-1.883314445999360
Pheasant and Pheasant,WV11 3QW,52.597597263526800,-2.073921904043680
Badger and Night heron,WS2 7PL,52.586085180937100,-1.981286000000000
Kestrel and Grosbeak,WS1 2NJ,52.576571391850600,-1.968982948130640
Dolphin and Perching duck,WS3 3PU,52.628940542211400,-1.991890331839030
Partridge and Black jay,WS2 8HR,52.591515775218600,-1.987055000000000
Old World vulture and Bunting,WS3 1SA,52.608685000000000,-1.972017000000000
Masked owl and Lemming,WV10 8BX,52.615739802909100,-2.107494327093870
Magpie and Armadillo,WV14 0AJ,52.566970000000000,-2.074682000000000
Piping shrike and Meadowlark,WV10 9RH,52.601670890401300,-2.107415504955260
Wader and Elephant,WS7 1LR,52.687988000000000,-1.937734000000000
Goose and Civet,WV6 0TW,52.597995791378400,-2.147504530833360
Egret and Nukupuʻu,WV10 0HR,52.591908126925700,-2.107406000000000
Armadillo and Parrotbill,WS3 3HU,52.617622689363600,-1.997061935265530
Old World quail and Egret,WV12 4JL,52.596599394273600,-2.047701091013310
Jay and Recurvebill,WV4 5BA,52.565897993392600,-2.135992675977250
Eagle and Cuscus,WS11 0JJ,52.675028549041000,-2.023709257113950
Myna and Elephant,WV1 4LF,52.584547349335500,-2.131933000000000
Darwin's finches and Quetzal,WV2 2JH,52.577707599913700,-2.103490498915780
Parrotbill and B,WV2 4DT,52.581425000000000,-2.127053877918030
Magpie and Vulture,WS11 5SP,52.708787000000000,-2.015247000000000
Dolphin and Parrotlet,WV11 2JB,52.614241494091700,-2.066934713112870
Crow and Ibex,WS11 0BP,52.675315287234400,-2.027939262130860
Minke whale and Masked owl,WV1 2NL,52.583933742734800,-2.097380253051010
Asiatic leopard and Masked owl,WV11 1RD,52.599629000000000,-2.099777000000000
Maya and Parrotlet,WS7 9NA,52.681743325641200,-1.915437000000000
Stint and Partridge,WS1 4BW,52.575666063324300,-1.981850923212780
Jerboa and Kestrel,WS4 2EX,52.589623018836200,-1.963453268242320
Shearwater and Argus,WV6 6BE,52.600556657861300,-2.133398286400520
Bunting and Rat,WS7 2AZ,52.684339973962400,-1.927088260158680
Black cockatoo and Tattler,WV11 2AJ,52.630257415142600,-2.057060340207160
Grouse and Jackal,WV3 7JA,52.576280079593500,-2.158572553006230
Parrotlet and Jay,WS2 8PX,52.588019338283200,-1.995809114160740
Kestrel and Tree warbler,WS12 4NH,52.707918541896400,-2.035878652408150
Ice seal and Skunk,WV3 0HX,52.577907997281300,-2.143924842921660
Jerboa and Egret,WV10 6UT,52.618599324135800,-2.140971451747210
Philippine hawk-owl and Grackle,WS1 2AJ,52.588331144941200,-1.973520913939570
Siskin and Fox,WV1 4JA,52.585132000000000,-2.132790000000000
Fish eagle and Capuchin,WS11 1AN,52.688268446097500,-2.031601738371560
Kestrel and Cloud rat,WS10 8NJ,52.572197973786200,-2.044236311509370
Maya and Siskin,WV10 8HQ,52.622441443635200,-2.121632680654410
Black cockatoo and Thicketbird,WV1 1XP,52.588468000000000,-2.114955000000000
Grackle and Viscacha,WS11 7WB,52.692641633690900,-1.996006871222060
Kite and Pitohui,WV3 7AH,52.573383018847300,-2.146447923544800
Ground sloth and Macaw,WV8 1UW,52.617787000000000,-2.158797004717600
Solitaire and Black cockatoo,WV1 4AP,52.591044021872100,-2.134668335229120
Ground sloth and Crow,WV3 7NS,52.571524611119300,-2.165032705619910
Goose and Tree warbler,WS2 8LN,52.585267780875700,-1.986009000000000
Bronzewing pigeon and Peafowl,WV14 0DF,52.566489708440200,-2.078310074481370
Minke whale and Magpie,WS4 1AS,52.619656000000000,-1.954019000000000
Quetzal and Grackle,WS9 8HA,52.616666693441000,-1.915310551780030
Dorcopsis and Kestrel,WV13 3AG,52.592487000000000,-2.068481000000000
Shearwater and Chicken,WS9 9LH,52.623877877978200,-1.930955000000000
Old World warbler and Mouse,WS5 3QN,52.577607518001300,-1.949429492041730
Puffleg and Elephant,WS7 9DH,52.681631000000000,-1.908263000000000
Bronzewing pigeon and Wallaby,WS1 2NA,52.580359000000000,-1.975311000000000
Triller and B,WS6 7NG,52.653255765530500,-2.022618243584020
Thrasher and Peafowl,WV3 9NX,52.586926692957700,-2.149622247897990
Minke whale and Bunting,WV14 0AU,52.565735000000000,-2.076179000000000
Jay and Hawaiian honeycreeper,WS5 3LT,52.568461414258000,-1.941856551574540
Pitohui and Chickadee,WS11 1ED,52.687151309397500,-2.039604304615780
Francolin and Black jay,WV11 3LF,52.603651316988500,-2.074818311777800
Stilt and Partridge,WV14 6QU,52.572718089170200,-2.080637763886940
Stint and New World blackbird,WV14 6AJ,52.568548786001800,-2.077694097304660
Cuscus and Parrotbill,WS11 4RB,52.711355318785000,-2.025327764383250
Cloud rat and Solitaire,WV10 7BX,52.674509000000000,-2.123360000000000
Vulture and Warbler,WS5 3DB,52.578835029020400,-1.940573772294270
Vulture and Ice seal,WS6 7LQ,52.656001913712800,-2.040196854973180
Polecat and Thrasher,WV13 3HU,52.575443737002500,-2.063024052334090
Parakeet and Peafowl,WS3 2SA,52.620345478258800,-2.016131317471010
Dorcopsis and Fish eagle,WV1 4SR,52.589873000000000,-2.145661072178360
Fish eagle and Argus,WV2 2JZ,52.572656616543900,-2.102003064657330
Perching duck and Chicken,WS1 3QP,52.579199908321100,-1.989509000000000
Francolin and Stilt,WV10 9EG,52.615257338860100,-2.122882899399430
Kite and Shearwater,WV10 7DN,52.679404942941500,-2.097060528610160
Songlark and Mouse,WV1 1JY,52.591003000000000,-2.123715000000000
Vole and Guillemot,WS2 7ER,52.602259138762700,-2.004105804678100
Condor and Vole,WS11 7FX,52.696228513653400,-1.996598435362930
Philippine hawk-owl and Parakeet,WV10 9NS,52.604189552392300,-2.115336105669450
Thicketbird and Thrasher,WS5 3EE,52.572391059673300,-1.944138407005480
Dolphin and Vole,WV1 2DN,52.581749369991000,-2.097198301201680
Kangaroo and Hawaiian honeycreeper,WV12 4TW,52.596033861451900,-2.032140060749220
Scimitar babbler and Herring gull,WV11 2AB,52.628207992425500,-2.056570127026450
Ground sloth and Thicketbird,WV3 7JX,52.576653291857800,-2.161790812615220
White ibis and Jerboa,WS3 2AA,52.604677396880500,-1.995645199896190
Grouse and Grosbeak,WV3 0AS,52.576045179521700,-2.145497652208020
Pheasant and Argus,WS12 4FU,52.709928000000000,-2.002514000000000
Warbler and Cuscus,WV2 2AF,52.578981674582200,-2.115845321410820
Ibex and Pratincole,WS2 9DN,52.569086857628900,-1.998215693905480
Eagle and Ground sloth,WV11 2TF,52.629158387478900,-2.061594557142470
Towhee and Badger,WV12 4DT,52.597169762338800,-2.036422512804010
Tahr and Asiatic leopard,WV11 1RA,52.598520349911000,-2.101915642902060
Thicketbird and Tattler,WV1 2LL,52.585227501622400,-2.098312966671570
Perching duck and Wallaby,WS8 6DF,52.642918000000000,-1.928693567239690
Old World vulture and Wader,B74 3NS,52.583350110000000,-1.892513334000000
Mockingbird and Wallaby,WV3 0AW,52.578582140932500,-2.144000840232950
Old World vulture and Pratincole,WS2 0DQ,52.581436908086400,-2.021296877508380
Buzzard and Vulture,WV8 1YJ,52.613395644055500,-2.154261413276750
Jerboa and Petrel,WS8 7SB,52.643138186060000,-1.939393412190750
Booted eagles and Linsang,WS1 9TA,52.586462666643900,-1.980872385023240
Wader and Duck,WS2 8QY,52.589116143031000,-1.998259000000000
Goose and Mole,WS9 9JZ,52.629391412456700,-1.921476452355750
Boto and Parrotbill,WV8 1TD,52.621364903641300,-2.157790321344960
Gull and Jay,WS6 6GD,52.652033730727800,-2.019587000000000
Polecat and Parrotlet,WS9 0GG,52.591914664443000,-1.939537608813540
Buzzard and Hawaiian honeycreeper,WS3 2TU,52.624434878449900,-2.021864583979160
Asiatic leopard and Vulture,WV9 5NX,52.620663400510600,-2.143932347714360
Thrasher and Peafowl,WS2 9BN,52.575001888645700,-2.007865849518460
Philippine hawk-owl and Kākāriki,WS3 2PR,52.627356994618600,-2.019295467845630
Perching duck and Maya,WS1 3PJ,52.578417316584100,-1.984506072491020
Minke whale and Pitohui,WS10 8AP,52.571483103766200,-2.029422000000000
River dolphin and Puffleg,WV12 5HU,52.611353439967800,-2.028326000000000
Hawk and Bronzewing pigeon,WS15 4AW,52.738374669271000,-1.889689499172230
Petrel and Solitaire,WV10 9AH,52.596996487171700,-2.116601579094060
Marsh harrier and Civet,WV9 5DB,52.656071061070100,-2.130921342370450
Shearwater and Pratincole,ST19 5DB,52.728937543115400,-2.117146532974090
Solitaire and Kākāriki,WS1 3JZ,52.568769074392700,-1.972426044013860
Dolphin and Macaw,WS2 7PH,52.609018849610000,-2.012376184317650
Fox and Badger,WV1 9ZG,52.588468000000000,-2.114955000000000
Francolin and American sparrow,WS9 8QD,52.606303854876100,-1.918682458337930
Moluccan boobook and Greenbul,WS6 7LJ,52.658087616431200,-2.039917887224360
River dolphin and Perching duck,WS4 2EL,52.591215453363800,-1.967762266819110
Bunting and Macaw,ST19 5RD,52.733511000000000,-2.110820000000000
Black jay and Rabbit,WS3 2NX,52.619241000000000,-2.014801000000000
Meadowlark and Chickadee,WV12 4DL,52.593091622260300,-2.040493170504450
Old World warbler and Mamo,WS3 4DN,52.617384840021600,-1.968526000000000
Songlark and Tree warbler,WS10 9QJ,52.563962517780700,-2.005665730899200
Tree warbler and Philippine hawk-owl,WV10 9DZ,52.612011599017700,-2.123302075633530
Meadowlark and Kite,WS11 5HX,52.709172237808600,-2.017748311941100
Kestrel and Elephant,WV11 2BR,52.628927807885300,-2.055226622263490
Jackal and Puffleg,WV10 0DX,52.589824973980000,-2.114205997494750
Kākāriki and Linsang,WS1 4BJ,52.571756337962800,-1.988787276075800
Diving bird and Buzzard,WS1 2EB,52.584241000000000,-1.968520000000000
Wader and Guillemot,WS3 3JL,52.613127843463700,-1.999912571280720
Duck and Fish eagle,WV2 4PF,52.572974903935200,-2.133890000000000
Rabbit and Scimitar babbler,WS12 3XQ,52.692075125480900,-1.992515219072680
Bunting and Egret,WV10 8NJ,52.619677026748200,-2.097459765084170
Polecat and Ground sloth,WV13 1NX,52.587200000000000,-2.050937511696330
Moluccan boobook and Lemming,WV2 3AU,52.571764748824300,-2.127202483514780
Piping shrike and White ibis,WV12 5EU,52.614660225880700,-2.033527000000000
Fish eagle and Myna,WV3 0BF,52.584547989490100,-2.135548948406730
Grosbeak and Gull,WS5 3DT,52.577290366963900,-1.943837076222790
New World blackbird and Civet,WS8 7TE,52.649060000000000,-1.950323000000000
Bunting and Old World vulture,WV12 4EL,52.598755735868500,-2.038859635831430
Petrel and Badger,WV12 5DZ,52.618881402808500,-2.045583452018630
Moluccan boobook and Elephant,WV1 1RG,52.587139083658300,-2.129637946122910
Tree warbler and Elephant,WV6 0PG,52.600453736254500,-2.136926680022940
Dorcopsis and Francolin,WS11 5RP,52.709773077471000,-2.025652467826610
Jackal and Herring gull,WS7 1ZY,52.689240186244700,-1.945484342626420
Vole and Capuchin,WS2 8AZ,52.595030259313800,-1.983024049719910
Mockingbird and Grosbeak,WS1 1PN,52.582489581028500,-1.983619156142170
Kestrel and Vulture,WS9 9RE,52.631799473112400,-1.919699155499980
Dorcopsis and River dolphin,WS12 1BN,52.703806578866300,-1.992380089180660
Skunk and Mink,WS11 1TH,52.690941776084500,-2.048100063426210
American sparrow and Badger,WS11 6EB,52.699275331499200,-2.012683398544740
Parrotbill and Grosbeak,WV1 2QT,52.588468000000000,-2.114955000000000
Siskin and Peafowl,WS3 1HT,52.614423000000000,-1.990401210488850
Badger and Hawk,WV11 3JP,52.601844560641800,-2.067019094978850
Mole and Grackle,WV13 2RL,52.586467843758700,-2.035217793690010
Night heron and Fish eagle,WS2 9UW,52.579218092177700,-2.008117503845450
Eagle and Prion,WS1 2DH,52.583923713315500,-1.964195919410210
Minke whale and Prion,WS8 6AJ,52.649107878138800,-1.924589576813560
Tahr and Parrotbill,WV10 8TN,52.632888412806500,-2.111614455223460
Mouse and Dolphin,WS12 4TL,52.716899000000000,-2.038714000000000
Darwin's finches and Mink,WS12 0JU,52.710059649035000,-1.969214809626560
Cloud rat and Dolphin,WV10 7DS,52.676407983962600,-2.089999013191360
Parrotlet and Peafowl,WS11 6BP,52.691767514205200,-2.022490419653520
Magpie and Siskin,WS11 5HG,52.703814512964200,-2.017065000000000
Pitohui and Ibex,WS3 2UR,52.619580925967500,-2.018952271387090
Elephant and Wader,WS7 9LN,52.685934884374200,-1.918978902108980
Argus and Jay,WS6 7AB,52.660679115022600,-2.031818226963870
Grackle and Magpie,WS6 7HB,52.669759518609300,-2.028586348244060
B and Pitohui,WV98 1SR,52.600416380703300,-2.134313511427980
Grackle and Masked owl,WV14 6HP,52.577951578118200,-2.078537160942960
Boto and Fox,B74 3JA,52.579007790000000,-1.882754626000000
New World blackbird and Snipe,WV1 1AD,52.591492698712900,-2.127288987746040
Hawk and Logrunners,WS7 2DJ,52.681999255293700,-1.921722670071360
Darwin's finches and New World blackbird,WV1 4XF,52.588635234690700,-2.134247643204780
Old World quail and Black cockatoo,B74 3LD,52.591741110000000,-1.886632526000000
Diving bird and Jay,WS3 3LU,52.622872692335800,-1.996574000000000
Mink and Francolin,WV13 2JF,52.580124360705600,-2.050752449342830
Peafowl and Stint,WS3 4ES,52.635191693375100,-1.962159610410160
Bunting and Myna,WV10 6EQ,52.614063000000000,-2.128973000000000
Snipe and Scimitar babbler,WV10 7EZ,52.639109984943900,-2.128639198899150
Cloud rat and Peafowl,WS8 6AP,52.647282735378100,-1.924223199793470
Tree warbler and Black cockatoo,WV10 9NY,52.605116700595100,-2.114098200264990
Greenbul and Moluccan boobook,WS13 8DS,52.701130883704500,-1.889812791931810
Boto and Warbler,WS2 0AP,52.583630161795700,-2.022434000000000
Guillemot and Mockingbird,WV14 6BQ,52.569999000000000,-2.088010000000000
Parrotbill and Songlark,WS1 1JY,52.584628650135400,-1.980268047843690
Boto and Partridge,WS2 9EU,52.581152000000000,-1.997521633538790
Dolphin and Chickadee,WV2 4AU,52.582043729967900,-2.127262000000000
Pratincole and Jackal,WV10 0AU,52.596039316972600,-2.111697723920420
Egret and Tree warbler,WV14 7BQ,52.572300210218100,-2.057324097403720
Petrel and Greenbul,WS12 1JA,52.707156629973600,-1.971644000000000
Asiatic leopard and Recurvebill,WV11 3LP,52.601524516643000,-2.060374437586840
Rat and Hawaiian honeycreeper,WS12 0SX,52.712891063522100,-1.968028643151760
American sparrow and Treepie,WV12 4EJ,52.594377844691800,-2.038457151167800
Pratincole and Tit-tyrant,WV13 1DX,52.589795181139600,-2.055634767017110
Guillemot and Egret,WS7 4SS,52.669646867704100,-1.920827829387100
Bronzewing pigeon and Dorcopsis,WV11 3PP,52.599391937543800,-2.078989021871300
Tit-tyrant and Tahr,WS1 9SJ,52.586462666643900,-1.980872385023240
River dolphin and Perching duck,WV10 0NP,52.604149779262400,-2.099772950198690
Moluccan boobook and Black cockatoo,WS2 0DX,52.585535856759100,-2.023394729344880
Parrotbill and Warbler,WS7 9QL,52.682289380463700,-1.890658871230770
Ibex and Old World vulture,WS7 2EZ,52.686754343706300,-1.921063280437430
Armadillo and Black cockatoo,WS4 2BA,52.591775273162500,-1.978729680996150
Old World vulture and Kestrel,WS1 1LA,52.586013811857300,-1.985403775098010
Tattler and Mouse,WV1 2BA,52.588036033993600,-2.093743579773110
Black jay and Siskin,WS3 3RZ,52.627142855331300,-1.999780000000000
Ground sloth and Thrasher,WV2 3AF,52.575124000000000,-2.126400079376150
Black cockatoo and Tattler,WS8 6JQ,52.651885814203100,-1.924776977470800
Snipe and Bunting,WS6 6DQ,52.662642498412000,-2.012702141799370
Wader and Solitaire,WV1 1LG,52.586966417574400,-2.122965947339060
Vole and Nukupuʻu,WS2 7HF,52.598559774411900,-2.002835986362020
Masked owl and Partridge,WV3 9QS,52.585053007733500,-2.145468495590430
Nukupuʻu and Jackal,WV13 1DA,52.588024151062600,-2.055854000000000
Night heron and Marsh harrier,WS6 6AR,52.644429286227200,-2.013524393377710
Parakeet and Kestrel,WS2 8BL,52.595030872753000,-1.988161444848700
Kite and Fox,WV2 2BG,52.570208139034000,-2.115305747730230
Philippine hawk-owl and New World blackbird,B74 3SJ,52.579589890000000,-1.899960263000000
Egret and Ground sloth,WS8 7EQ,52.640488440396000,-1.927308710378550
Logrunners and Duck,WS7 4XY,52.672286830061100,-1.930406124295640
Badger and Badger,WS12 4GL,52.716802000000000,-2.027666000000000
Myna and Piping shrike,WV1 4JX,52.585704619879200,-2.134194392691190
Ground sloth and Meadowlark,WS9 8ST,52.616045000000000,-1.925562000000000
Peafowl and Mamo,WV3 0HU,52.577369363394300,-2.143303294042410
Skunk and Warbler,WV3 9LS,52.580422236798900,-2.160166601650560
Civet and Mole,WV10 0LL,52.590081151639400,-2.118797328199460
Wallaby and Dolphin,WV10 9NG,52.604547867218200,-2.116636442760100
New World blackbird and Asiatic leopard,WV11 3RE,52.599277670621300,-2.075002519112070
Magpie and Masked owl,WS8 7EP,52.643903501073600,-1.952339065923660
Crow and Flameback,WV11 3UD,52.600155000000000,-2.067562619585030
Jackal and Mamo,WS11 1UZ,52.684409865411700,-2.038403595279520
White ibis and Shearwater,WS2 8EL,52.589205097127200,-1.984664700380570
Grosbeak and Peafowl,WV13 3TS,52.582449691070700,-2.073556885516770
Gull and Mouse,WS3 3JY,52.617761933936100,-1.998642583671410
Philippine hawk-owl and Grosbeak,WV10 6AE,52.617646000000000,-2.126700000000000
Parrotlet and Black cockatoo,WS3 2TL,52.625378654832600,-2.022633247638690
Old World warbler and White ibis,WS9 8SH,52.619181503486000,-1.912115230231520
Mole and Old World warbler,WS8 7QH,52.657821912411600,-1.929512416538380
Pratincole and Snipe,WS11 4AD,52.699881473414400,-2.037204000000000
Marmoset and Stilt,WS7 2ES,52.686640525459100,-1.925797407350430
Francolin and Cloud rat,WV3 7AS,52.576106945268500,-2.153525276932040
Siskin and Mockingbird,WS9 8RA,52.612881408763000,-1.914476020151630
Mole and Warbler,WS11 1HU,52.694619511530300,-2.045647958003620
Ibex and Masked owl,WV2 3HP,52.566836360951600,-2.124738913825710
Warbler and Philippine hawk-owl,WV4 4DP,52.564173100309000,-2.156832303912530
Elephant and Thicketbird,WV10 9TW,52.607524000000000,-2.126066000000000
Tattler and Cloud rat,WS3 4EL,52.633268374871200,-1.963712685342860
Hawaiian honeycreeper and Dolphin,WS5 3DD,52.578629027482700,-1.942123547434140
Thicketbird and Moluccan boobook,WS10 8EP,52.572164519984700,-2.036976841766900
Marmoset and Tahr,WV12 5HH,52.609132254220700,-2.031042175204260
Mamo and Duck,WS9 8AH,52.606143416023500,-1.920720513607730
Tit-tyrant and Mockingbird,WV10 7NS,52.655503594447800,-2.105005044884590
American sparrow and Stint,WS15 4RU,52.700597000000000,-1.933921000000000
Nukupuʻu and Kite,WS2 7QZ,52.605739000000000,-2.007104000000000
Marsh harrier and Boto,ST19 5DE,52.725078798652200,-2.109955000000000
Hawaiian honeycreeper and Boto,B74 2DW,52.571697040000000,-1.890033443000000
Masked owl and Tree warbler,WS11 0HE,52.687541050841200,-2.028731000000000
Solitaire and Mockingbird,WS15 4LH,52.728144706342700,-1.889878138848280
Old World quail and Goose,WV1 9SE,52.587139083658300,-2.129637946122910
Elephant and Jackal,WS9 9HT,52.634725944214900,-1.891767188993930
Coati and Fish eagle,WV14 6LT,52.574645257414100,-2.075580076164350
Ibex and Night heron,WV11 3TP,52.612223548068500,-2.074035231283290
Skunk and Treepie,WS3 2LA,52.622359355201100,-2.014817377687990
Duck and Guillemot,WV1 2BN,52.588416913847700,-2.089478635505720
Old World quail and Dorcopsis,WV1 2QD,52.581494620868800,-2.089671111507570
Kestrel and Civet,WS6 6NB,52.664466961718900,-2.016399000000000
Dorcopsis and Dolphin,WV1 2LQ,52.584596491371600,-2.099669000000000
Goose and Thicketbird,WV6 7WX,52.600556657861300,-2.133398286400520
Pratincole and Myna,WS11 9TP,52.672089113951400,-1.976694724290120
Perching duck and Chicken,WV1 3HG,52.583421000000000,-2.127487000000000
Armadillo and Armadillo,WS10 8HN,52.573152873265000,-2.038615515455070
Kite and Darwin's finches,WV14 6LA,52.576230649481000,-2.070432856831200
Marmoset and Jackal,WS11 5HH,52.703221256374300,-2.016783919683290
Dolphin and Old World warbler,WS2 9PD,52.581611000000000,-1.993316000000000
Greenbul and Old World quail,WS12 4UJ,52.713589741667500,-2.039746822512200
Masked owl and Tree warbler,WV3 0TY,52.585778643180200,-2.140127951273930
Recurvebill and Towhee,WV13 2QF,52.582940831882100,-2.044143880017120
Elephant and Diving bird,WV11 3RU,52.602909136660800,-2.059992452365180
Kestrel and Rat,WV13 1EU,52.590263993359500,-2.052712679598190
Shearwater and Peafowl,WS10 8UH,52.566868000000000,-2.036466000000000
Parrotbill and Parakeet,WS7 4TW,52.673793569181500,-1.924621174774830
White ibis and Songlark,WV10 6BH,52.621610813838500,-2.125057379747940
Songlark and Hawk,WS12 3HR,52.688119708546400,-1.993048000000000
River dolphin and Vulture,WV12 5LX,52.607459073009700,-2.034909886200000
Stilt and Bronzewing pigeon,B74 2EB,52.571115010000000,-1.892557933000000
Night heron and Guillemot,WV10 9DS,52.598728000000000,-2.111689445887080
Puffleg and Cuscus,WS4 1QJ,52.617171300909500,-1.948867201239970
Bunting and Diving bird,WS6 7DS,52.661336000000000,-2.033119495970730
Hawk and Warbler,WS10 9LH,52.567816163666100,-2.026999798374510
White ibis and Greenbul,WS9 9LS,52.625145208102400,-1.931056777522260
Jerboa and Petrel,WS12 1BG,52.705478471922200,-1.989952628820780
Bronzewing pigeon and Boto,WS8 7JW,52.650257534523000,-1.938422832677580
Pitohui and Badger,WV1 4DW,52.586021143640800,-2.132527525019020
Fish eagle and Rat,WV13 1AQ,52.590515000000000,-2.056285000000000
Darwin's finches and Shearwater,WS7 9AD,52.680555740144300,-1.914225975758950
Linsang and Booted eagles,WS4 1BS,52.618773605192900,-1.954094142457340
Tit-tyrant and Kangaroo,WS1 3DF,52.580942476709000,-1.978085000000000
Mouse and Dolphin,WS1 4JD,52.574822000000000,-1.984005536212060
Ice seal and Prion,WV6 9PR,52.604575668981000,-2.161746190726630
Mamo and Philippine hawk-owl,WS2 8TW,52.591920549758300,-2.010009000000000
White ibis and Puffleg,WV1 1JP,52.588428752278700,-2.125818810248700
Stilt and Egret,WS2 7RF,52.597961629903100,-2.010365149998680
Hawk and Diving bird,WV2 1DB,52.579624139933100,-2.119905000000000
Duck and Petrel,ST19 5DN,52.723951557896200,-2.113831374010830
Kangaroo and Tattler,WV10 6XB,52.614694549737500,-2.143646890963260
Towhee and Coati,WS7 1NE,52.683935015364400,-1.942754287316320
Boto and Grosbeak,WV9 5RB,52.623471663506900,-2.155404811817080
Cloud rat and Rabbit,WS12 3YY,52.692147259859800,-1.998951191004900
Philippine hawk-owl and Darwin's finches,WV11 1XU,52.599265000000000,-2.081794000000000
Stint and Marmoset,WS11 7XA,52.696902513030100,-2.008392000000000
Chipmunk and Duck,WS1 1LW,52.584107434558000,-1.981478513509830
Fulmarine petrel and Logrunners,WV14 7HG,52.567095000000000,-2.060106000000000
Mockingbird and Flameback,WS9 0PP,52.588075240600800,-1.888708405747800
Mockingbird and Moluccan boobook,WS6 6PT,52.668600905629700,-2.023868400903090
Snipe and Wader,WV3 9LP,52.581969494275200,-2.159419579242670
Triller and Booted eagles,WS12 1LU,52.699167778823600,-2.009279886776390
Rat and Kite,WS7 4UX,52.674510183312700,-1.920685962725440
Solitaire and Diving bird,WV12 4AH,52.600986657474900,-2.034166470044360
Vole and Capuchin,WV1 3HH,52.583239721632500,-2.127353000000000
Tattler and Kite,WS3 3QY,52.626765059081100,-1.992142000000000
Darwin's finches and Flameback,WV3 0BB,52.580848000000000,-2.144450626772120
Recurvebill and B,WS4 1LA,52.604363152839500,-1.954433970298260
Francolin and Tit-tyrant,WV9 5LA,52.627237183136300,-2.142048174755880
Chickadee and Fox,WV2 2JG,52.576575000000000,-2.111479000000000
Kite and Jackal,WS11 1BF,52.690785000000000,-2.032323000000000
Thicketbird and Towhee,WV2 2RE,52.568140000000000,-2.097434000000000
Mockingbird and Partridge,ST19 5HW,52.719180948259200,-2.110813608148290
Grosbeak and Zebra,WV1 2EZ,52.582580878799800,-2.091636208805920
Fox and Shearwater,WV3 7DJ,52.570832008791200,-2.144742640708290
Grackle and Cuscus,B74 3RQ,52.578806000000000,-1.896937000000000
Mink and Pheasant,WV12 4BX,52.595081770470000,-2.028965389042520
Capuchin and Night heron,WS3 2NT,52.617514030823800,-2.013604556847730
Zebra and Capuchin,WS2 9UB,52.586562810841200,-2.007366155854740
Minke whale and Crow,WV2 2BJ,52.571865986170200,-2.111429578648250
Ground sloth and Cuscus,WS10 8DN,52.573105943915300,-2.029747800293560
Zebra and Kangaroo,WV10 7BJ,52.642080088881800,-2.096667314172690
Parrotlet and Ibex,WS5 3EA,52.572383372602900,-1.946824000000000
Myna and Ibex,WS12 3HT,52.689449859029600,-1.988713477624490
Tattler and Grosbeak,WS2 9AD,52.572017546894900,-2.000532000000000
Quetzal and Black cockatoo,WS12 4AU,52.713362525499700,-2.007225430812710
Mole and Kite,WS11 9SN,52.669190854932400,-1.962574080479140
Partridge and American sparrow,ST19 5EQ,52.726244310172700,-2.103605783274790
Greenbul and Towhee,WV2 3LY,52.575412939556500,-2.124468182647110
Chickadee and Chicken,WV3 0TE,52.582037000000000,-2.135320000000000
Solitaire and Grackle,WS12 1NN,52.703851070376000,-1.986993128172470
Dolphin and Polecat,WS3 3DA,52.621577594309800,-1.987681753858000
Wallaby and Thrasher,WS4 1XB,52.613055541327600,-1.952608450433140
Jackal and Marsh harrier,WV10 8TJ,52.631972005189100,-2.111035890230000
Ibex and Grackle,WS11 0XL,52.675179867147400,-2.030261147289610
Grouse and Greenbul,WS10 7TG,52.565918000000000,-2.035260000000000
Treepie and Grackle,WS3 2JE,52.616905000000000,-2.005141000000000
Dolphin and Thicketbird,WV10 6SB,52.624138583887600,-2.139644990103080
Greenbul and Fish eagle,WV2 4JH,52.577656000000000,-2.129949000000000
Guillemot and Night heron,WS15 1QF,52.728937813787300,-1.902492409568890
Chicken and Piping shrike,WV10 9AA,52.595148694349900,-2.121453583729200
Chicken and Vulture,WS7 0JS,52.664181735479300,-1.898008205343730
Mamo and Elephant,ST19 5HQ,52.722120080373100,-2.111309657138140
Zebra and Kākāriki,WV13 1PL,52.583494647259600,-2.052778311737620
Grosbeak and Rat,WV10 6AX,52.630644754968200,-2.121537532232560
Quetzal and Goose,WV1 3PQ,52.585241803739700,-2.129618000000000
Siskin and Buzzard,WV6 6GH,52.600558000000000,-2.133398000000000
Gull and B,WS8 6EN,52.645742000000000,-1.931690000000000
Meadowlark and Polecat,WV10 9AT,52.597741686607600,-2.117563192745970
Partridge and Hawk,WV8 1UQ,52.619176125041200,-2.160958152880990
Jerboa and Piping shrike,WS2 9PU,52.585304484968400,-1.999882940742000
Ground sloth and Peafowl,WS6 6YJ,52.651008665696300,-2.020872856374310
Treepie and Grackle,WV13 2QB,52.581411767372800,-2.046223220699670
Maya and Linsang,WV1 2LN,52.585722454098400,-2.097694177777880
Vulture and Pratincole,WS12 0FP,52.704523690893300,-1.976455652265100
Puffleg and Pheasant,WS3 3DB,52.622521495945000,-1.987474688270430
Pitohui and Diving bird,WS11 1BE,52.690398549937900,-2.033201124736950
Grouse and Mockingbird,WV14 6EE,52.575986972787100,-2.085483826357530
Badger and Francolin,WV3 7HG,52.571871012035900,-2.161566614367590
Thrasher and Snipe,WS6 7HR,52.659624242721600,-2.041678637792670
Grosbeak and Tree warbler,WV11 3RD,52.599817243984600,-2.074708159032980
Parrotbill and Zebra,WV1 4RS,52.594703190741500,-2.134266000000000
Chicken and Badger,ST19 5AA,52.725703176216600,-2.115227778017210
Pitohui and Snipe,WS2 7YX,52.586085180937100,-1.981286000000000
Kākāriki and Siskin,WS7 1ZX,52.687576790167800,-1.944805888301070
Duck and Hawaiian honeycreeper,WS3 3NU,52.625156022447400,-2.004639904273860
Cuscus and Meadowlark,WS11 1UY,52.684724449770200,-2.038566594556660
Marmoset and Moluccan boobook,WS4 1SB,52.602875022954600,-1.967118870967760
Parakeet and Stilt,WS11 1HZ,52.694216284330700,-2.042140867416210
Polecat and Dolphin,WV10 9AS,52.597753347440900,-2.114846730219240
Marsh harrier and Partridge,WS12 2SH,52.693799596631100,-1.979316970507180
Marmoset and Snipe,WS10 8JH,52.576053323215300,-2.034457059052330
Parrotlet and Siskin,WV10 9NZ,52.605637347911200,-2.114882165201580
Parakeet and Kestrel,WS6 7JQ,52.661036000000000,-2.043912000000000
Puffleg and Snipe,WS10 8DZ,52.570285000000000,-2.035863000000000
Eagle and Cuscus,WV10 7NZ,52.654576000000000,-2.117258000000000
Argus and Mink,WV12 4EZ,52.597320000000000,-2.033411000000000
Magpie and Masked owl,WS2 0NX,52.591505000000000,-2.020603000000000
Coati and Francolin,WS7 9BH,52.681224478739700,-1.906932372160270
Egret and Ibex,WV2 2LA,52.569573444000700,-2.101612286250370
Chicken and Triller,WS9 8LD,52.614363123290500,-1.912287309848980
Black cockatoo and Grosbeak,B74 3ND,52.582165880000000,-1.885491266000000
Petrel and Grouse,WV11 1LY,52.608458015922000,-2.085591535761690
Duck and Old World vulture,WV14 4BW,52.565251000000000,-2.073596000000000
Kestrel and Fox,WS2 0EN,52.592546669664800,-2.028889893157380
Old World quail and Nukupuʻu,WV9 5BW,52.656324000000000,-2.153067000000000
Buzzard and Parakeet,WS12 9HQ,52.691883000000000,-2.028447000000000
Elephant and Stilt,WV2 2NG,52.569789000000000,-2.102734394889110
Vole and Chicken,WV1 9GN,52.588483000000000,-2.114949000000000
Magpie and Old World warbler,WV10 9LB,52.608836640688300,-2.124799401729570
Elephant and Polecat,WV4 4AP,52.567107478267200,-2.154024914279970
American sparrow and White ibis,WS12 4FQ,52.714595000000000,-2.012140000000000
Rat and Scimitar babbler,WV13 1HN,52.587850252435300,-2.041418201767790
Viscacha and Linsang,WS6 7LH,52.657054828366900,-2.036768051412150
Bronzewing pigeon and Stint,WS3 2AU,52.605387580670700,-1.995423642044290
Parrotlet and Francolin,WV11 9BD,52.608534000000000,-2.062563000000000
Rat and Buzzard,WV6 0HJ,52.597740226512400,-2.150559726644220
Tree warbler and White ibis,WS3 4LW,52.627319111683600,-1.970779300365340
Kite and Gull,WS10 9RW,52.569777124565500,-2.021276404609380
Warbler and Tahr,WS8 7BE,52.640442134881500,-1.925121655182730
Dorcopsis and Meadowlark,WV1 9ZL,52.588468000000000,-2.114955000000000
Songlark and Puffleg,WV9 5DY,52.662535168353600,-2.138362953432380
Black jay and Goose,WS11 7WS,52.694511532794600,-2.000593522848660
Buzzard and Chipmunk,WV12 4DD,52.594549221025900,-2.036671043471980
Old World vulture and Recurvebill,WS7 0LD,52.670621702942300,-1.902000824593810
Badger and Buzzard,WV11 1PF,52.600042555194200,-2.087007221252040
Mole and Francolin,WV1 3BA,52.583493381475700,-2.125789889736850
Diving bird and Peafowl,WS11 6XA,52.694411559151500,-2.015818739325420
Triller and Grosbeak,WV11 2EE,52.618837672357500,-2.042319095214660
Puffleg and Perching duck,ST19 5LB,52.721064774813300,-2.114993448071770
Fox and Kestrel,WS6 6BD,52.650792883856900,-2.021035347759230
Badger and Pheasant,WV3 0RE,52.580020308740700,-2.136597246590900
Kestrel and Diving bird,WV14 7AX,52.570753000000000,-2.060863000000000
Parrotbill and Mouse,WV13 1SA,52.590041309297800,-2.047885578781310
Armadillo and Warbler,WV14 6JU,52.573911638967700,-2.069824149923330
Boto and Linsang,WV1 1TQ,52.585712000000000,-2.128335000000000
Puffleg and Civet,WS2 7RJ,52.597224531971400,-2.009626803228020
Night heron and Black cockatoo,WV9 5QQ,52.624441533033000,-2.149218559573960
Buzzard and Parrotlet,WS5 3EP,52.574565251884900,-1.941346818790750
Recurvebill and Mouse,WS2 9SH,52.575693726950600,-2.012071000000000
Marmoset and Parrotbill,WV10 0HZ,52.592663695607600,-2.107039000000000
Condor and Mamo,WS12 1NY,52.704803815504300,-1.985631283298460
Buzzard and Moluccan boobook,WV10 8SH,52.616076460684100,-2.102960851256560
Grosbeak and Stilt,WV13 2PY,52.579732000000000,-2.044598000000000
Jerboa and Viscacha,WS1 2EW,52.582056812972300,-1.976122112931710
Mink and Black cockatoo,WS12 3HE,52.688756998760800,-1.983077054534480
Marmoset and Kite,WS3 4DT,52.627929163733600,-1.966051314101270
Eagle and Zebra,WV6 0UP,52.601520512892800,-2.139499092020300
Tit-tyrant and Hawk,WS7 2EG,52.684245553452200,-1.920047092531140
Vole and Mink,WV11 2AN,52.630752000000000,-2.058952000000000
Peafowl and Old World quail,WV10 8EU,52.623991329126600,-2.118032525526790
Warbler and Wallaby,WV1 2RY,52.590889462881500,-2.100229872010550
Siskin and Shearwater,WV2 2EU,52.569506823148400,-2.105817040207210
Warbler and Tattler,WV3 0UX,52.582955886013500,-2.147483466735510
Logrunners and Bunting,WV11 2AS,52.647549038193400,-2.047106238303970
Tattler and Stilt,WV11 3PU,52.593007869214700,-2.080940842943750
Argus and Night heron,WS8 7LL,52.659560765730300,-1.956269325613010
Viscacha and Kangaroo,WS7 1PZ,52.691367457617100,-1.938749933854610
Parrotlet and Nukupuʻu,WS11 9QE,52.672714263067500,-1.960885167798970
Capuchin and Cuscus,WV1 9FY,52.588483000000000,-2.114949000000000
Fox and Cloud rat,WS3 4LJ,52.617852721868300,-1.970002720523860
Kākāriki and Polecat,WS9 0RD,52.576325607339400,-1.922574000000000
Duck and Grackle,WS9 8LJ,52.614728646433700,-1.908239804553390
Egret and Kangaroo,WV14 6JE,52.575316798348700,-2.065015930987380
Crow and Greenbul,WS5 3JY,52.566710466515900,-1.946255286728160
Rat and Cloud rat,WV11 2TG,52.630606017266200,-2.061049938238850
Nukupuʻu and Shearwater,WS7 3FR,52.677302060312200,-1.945765359685600
Duck and Coati,WS12 3HZ,52.686994335611800,-1.978713606322520
Badger and Macaw,WS2 7EE,52.600578112966800,-2.001846669669010
Minke whale and Duck,WV14 6BJ,52.570038000000000,-2.083362000000000
Duck and Jay,WS12 4RY,52.716660000000000,-2.017837000000000
Piping shrike and Logrunners,WS2 0DS,52.587143651829000,-2.029639000000000
Chickadee and Crow,WS1 2JN,52.582936678074300,-1.970985658724320
Nukupuʻu and Bronzewing pigeon,WS1 1LF,52.585098000000000,-1.983043000000000
Maya and New World blackbird,WV14 6NG,52.568228000000000,-2.075156102157440
Elephant and Fish eagle,WV10 8PJ,52.610549880779000,-2.100496391371480
Zebra and Dorcopsis,WS8 7LN,52.656825175147100,-1.949382956481370
Minke whale and Vole,WS5 4LU,52.564911915803000,-1.970245067254030
Buzzard and Dolphin,WS4 1QG,52.618231395101500,-1.947270765511790
Goose and Vulture,WV10 9RT,52.599891000000000,-2.124413000000000
Polecat and Nukupuʻu,WS11 8JW,52.670907107725900,-2.021577742523310
Parrotbill and Civet,ST19 5TA,52.716462096502300,-2.105344174456770
Magpie and Fulmarine petrel,WV11 1RL,52.604603990284900,-2.094015301884930
Chicken and Herring gull,WS1 4JS,52.575550005415100,-1.988417428955180
Bunting and Masked owl,WS11 6XE,52.695094556721100,-2.017328219208020
Kākāriki and Philippine hawk-owl,WS3 2EA,52.610538728383300,-2.003663593461480
Gull and Greenbul,ST19 9HZ,52.680621863927500,-2.166671943374540
Black cockatoo and Wallaby,WS11 9AA,52.665527000000000,-1.985534000000000
Rat and Mole,WV6 0PL,52.595217789183500,-2.140246696357420
Quetzal and Triller,WS9 8AR,52.608351000000000,-1.926446000000000
Capuchin and Wader,WV12 4JU,52.600948431586800,-2.041238693217380
Old World vulture and Solitaire,WS3 3RA,52.626171856365200,-1.994682944081580
Jay and Tahr,WS2 8TL,52.592227000000000,-2.008341000000000
Bronzewing pigeon and Magpie,WS12 4WJ,52.713829000000000,-2.010508000000000
Towhee and Coati,WV6 0NJ,52.595406657254200,-2.132378745476340
Boto and Marsh harrier,WS9 1EB,52.606460448144800,-1.917988371590100
Fish eagle and Partridge,WS2 8AH,52.594051000000000,-1.981061000000000
Jerboa and Prion,WS3 1QA,52.599407813617400,-1.979980978964120
Bronzewing pigeon and Piping shrike,WV9 5JF,52.657428263012200,-2.139012062582070
Kākāriki and Night heron,WS12 0FE,52.710220832823900,-1.966861262067430
Linsang and Songlark,WS3 4JH,52.624713000000000,-1.971372000000000
Cuscus and River dolphin,WS12 4NR,52.708951773184800,-2.037714836247440
Siskin and Towhee,WS3 2PJ,52.614385839073300,-2.011122000000000
Civet and Herring gull,WS12 1LG,52.704858513402500,-2.004056846904120
Asiatic leopard and Fulmarine petrel,WV10 9JS,52.611119777975800,-2.116240437904890
Coati and Rabbit,WS2 8EQ,52.588775000000000,-1.983410140147760
Tattler and Logrunners,WV13 1HE,52.587633653733100,-2.043750099284820
Wader and Kite,WV98 1DG,52.600416380703300,-2.134313511427980
Jerboa and White ibis,WS3 4LY,52.631921184883100,-1.968161079775740
Civet and Kite,WV3 7HH,52.570340865742400,-2.162933136511930
Mink and Fulmarine petrel,WV2 3JA,52.567842516489500,-2.133210000000000
Maya and B,WS8 7ET,52.632266074200000,-1.925785000000000
Cuscus and Parrotlet,WV4 4AY,52.564557011491500,-2.151980132249290
White ibis and Mockingbird,WV2 3DH,52.572795597707800,-2.125700190159040
Francolin and Towhee,WV10 0JG,52.593109810021400,-2.119691256779590
Kestrel and Coati,WS6 6NR,52.665070040572700,-2.009228098658070
Grackle and Cloud rat,WV10 7BN,52.669428225451700,-2.132277446041670
Ibex and Recurvebill,WV6 0JX,52.596884513467200,-2.158720874928210
Kestrel and Minke whale,ST19 5TT,52.724426570419700,-2.105689151784950
Herring gull and Vole,WV10 8AZ,52.627476000000000,-2.113226000000000
Ice seal and Maya,WS1 3EQ,52.575009135563700,-1.977852340236860
Crow and Flameback,WS3 4AP,52.635229512379600,-1.968572430511740
Duck and Bronzewing pigeon,WS7 9HL,52.691317452626500,-1.893373465923370
Old World quail and River dolphin,WV11 1PU,52.603475325628900,-2.088785900651260
Mockingbird and White ibis,WV11 3BU,52.605131174852200,-2.073152033279830
Mole and Gull,ST19 5HP,52.719689789747300,-2.104863415368340
B and Pitohui,WV11 3TX,52.610925580355900,-2.079334738660050
Egret and Mole,WS5 3EY,52.571933570961400,-1.946293197242830
Mockingbird and Towhee,WV10 0HJ,52.590658722541100,-2.107063764622300
Stint and Old World vulture,WS3 2UB,52.624884983696600,-2.018260278685810
Duck and Fish eagle,WS7 2EU,52.687071657406600,-1.925042000000000
Kite and Buzzard,WS11 0AY,52.681706896206700,-2.028091297340220
Fulmarine petrel and Tree warbler,B74 2EA,52.571428740000000,-1.891553848000000
American sparrow and Petrel,WV13 1DF,52.588762758178600,-2.052578024583260
Cuscus and B,B74 2JB,52.573842860000000,-1.887106495000000
Logrunners and Tree warbler,WV10 6BD,52.620402901429100,-2.128126334254030
Pitohui and Meadowlark,WV11 1YG,52.612072798448500,-2.084343294668170
Lemming and Tree warbler,WV10 0HQ,52.590647623712300,-2.109366479109300
River dolphin and Lemming,WS7 4SL,52.667794967818500,-1.920786803763900
Capuchin and Greenbul,WS12 4ER,52.718810342027900,-2.004990901672800
Night heron and Dolphin,WV3 9JN,52.586148977315400,-2.159995635716680
Myna and Booted eagles,WS2 8SE,52.589484605384200,-2.005373959834600
Old World warbler and Fish eagle,WV13 2AL,52.582640203165600,-2.053692305423840
Dorcopsis and Viscacha,WV6 9LU,52.607888189394600,-2.151731643308270
Parrotbill and Grouse,WV1 2RW,52.588044289494800,-2.105286142942800
Grosbeak and Mockingbird,WS6 7DF,52.663189070484600,-2.024116774987350
Quetzal and Old World vulture,WS6 6LZ,52.664754631361000,-2.016251433995670
Shearwater and Hawaiian honeycreeper,WS12 4DH,52.712382892063000,-2.000608675356530
Chicken and Parrotbill,WS1 2DA,52.580103570193100,-1.965984680407610
Herring gull and Solitaire,WS8 7PU,52.656500033229300,-1.928849284806100
Warbler and Elephant,WS8 7DA,52.636065003724300,-1.926503311251560
Nukupuʻu and Maya,WS3 2DD,52.611257973925000,-1.999986404195150
Diving bird and Kangaroo,WS7 9QP,52.682529662562600,-1.888040066998020
Boto and Petrel,WS11 5SD,52.695972976860700,-2.030024105622280
Wader and Tree warbler,WV9 5AQ,52.662610980501500,-2.134992121953320
Dorcopsis and Towhee,WS3 4LX,52.629592869171500,-1.968251401215980
Skunk and Elephant,WS6 6NY,52.667883000000000,-2.006901000000000
B and Capuchin,WS11 8LB,52.669818964896100,-2.023632707574580
Egret and Francolin,WS8 7NB,52.665135070784200,-1.958230365594630
Guillemot and Towhee,WS9 0RX,52.595918734926700,-1.915911430283220
Lemming and Flameback,WS3 3RQ,52.625084204558600,-1.999144436890180
Black cockatoo and Goose,WV3 9PZ,52.586111791474100,-2.147095568432390
Nukupuʻu and Macaw,WS1 1QA,52.583659000000000,-1.979442000000000
Quetzal and Herring gull,WS10 7UG,52.565260000000000,-2.033337000000000
Pitohui and Vole,WS9 8SJ,52.619091079650700,-1.911406415866660
Black jay and Jerboa,WV12 5TT,52.609181637651700,-2.045115532335970
Linsang and Black jay,WV12 4DG,52.593092737263200,-2.037112678173640
Wallaby and Grouse,WV3 7EB,52.571730352836600,-2.152403354114550
White ibis and Fox,WV1 9JT,52.588468000000000,-2.114955000000000
Dorcopsis and Lemming,WS11 0BL,52.673957502235900,-2.029358152912790
Francolin and Chipmunk,B74 3TD,52.575980860000000,-1.895187435000000
Peafowl and Recurvebill,WV1 1TL,52.585962278800800,-2.128852208419120
Civet and Masked owl,WV14 6YX,52.565207211879800,-2.073572192088670
Logrunners and Magpie,WS2 9UH,52.583524247519400,-2.007542733386380
Flameback and Masked owl,WV3 0DX,52.575012229830000,-2.137098000000000
Pheasant and Herring gull,WV3 0NR,52.581600000000000,-2.131850000000000
Wader and Grackle,WV8 1XA,52.616515631915200,-2.160608672522770
Logrunners and Jerboa,WS1 3EN,52.574226586091600,-1.975609872178140
Snipe and Herring gull,WS2 0JH,52.590652052332900,-2.017684916087970
Solitaire and Hawaiian honeycreeper,WV14 6PZ,52.572946391235500,-2.075252530213570
Nukupuʻu and Old World warbler,WV3 9HY,52.581760379816100,-2.154415794230050
Eagle and Mouse,WS8 7ND,52.660800929825400,-1.955159236918760
Marmoset and Viscacha,WS2 8SD,52.590662373332800,-2.002348072742110
Mamo and Night heron,WV14 6HB,52.578126191659000,-2.086078000000000
Grosbeak and Fish eagle,WS5 4NW,52.566704000000000,-1.979715314197400
Scimitar babbler and Pitohui,WV6 9EP,52.613386628031500,-2.161025500040500
Fulmarine petrel and Chickadee,WV11 2PB,52.618500632313500,-2.053219415862520
Zebra and Thrasher,WS4 1PJ,52.613164484825700,-1.955370085876240
Elephant and Tattler,WV11 1EG,52.612647174776100,-2.085688340594300
Darwin's finches and Tree warbler,WS9 0LX,52.605133555371900,-1.893715000000000
Gull and Chickadee,WV12 5UN,52.610020000000000,-2.042606000000000
Civet and Booted eagles,WV14 7AF,52.569636569889100,-2.062543560918270
Linsang and Songlark,WS11 4QB,52.700790996175300,-2.031625655796600
Bronzewing pigeon and Crow,WS9 9EU,52.626339698508600,-1.915365804960560
Moluccan boobook and American sparrow,B74 3QB,52.578923790000000,-1.888893856000000
Egret and Cloud rat,WV13 3UH,52.582880896623300,-2.074044642110070
Coati and Meadowlark,WS3 2RJ,52.622258865981100,-2.024374690782210
Prion and Siskin,WS3 2QT,52.619634317927100,-2.022068955886430
Badger and Old World quail,WS6 7DQ,52.664312385528600,-2.025965645582210
Grouse and Pratincole,WS11 4QX,52.709107493250000,-2.027220990245790
Partridge and Treepie,WS6 6NX,52.667182611649900,-2.009258130251540
Tree warbler and Prion,WS7 2BB,52.684458292378300,-1.929499285267780
Chicken and Fox,WV13 1DZ,52.590555000000000,-2.048152000000000
Jerboa and Pheasant,WS3 4HL,52.636235279504700,-1.964700273730040
Francolin and Rabbit,WS3 3XZ,52.632778516768900,-2.014333373900540
Pitohui and Macaw,WV10 9EW,52.617314938658000,-2.123893041989320
Jay and Logrunners,WS3 3UH,52.626944145574500,-2.014626899922460
Boto and Fulmarine petrel,WV10 6SD,52.623484259825000,-2.138003188066190
Vulture and Tree warbler,WS10 9SS,52.569039097182000,-2.025584182210210
Vulture and Duck,WV12 5QA,52.605588326434000,-2.037743494159810
Greenbul and Marmoset,WS12 4DJ,52.710773738656000,-2.001763173129050
American sparrow and Stint,WS1 9TX,52.586012000000000,-1.981280000000000
Francolin and Scimitar babbler,WS15 4PL,52.728334461445200,-1.881540972651330
Fish eagle and Darwin's finches,WV1 3QQ,52.582422586318900,-2.118053414938120
Maya and Stilt,WS2 9UE,52.585313435468000,-2.002790535700460
Guillemot and Marsh harrier,WV14 7HB,52.568772779759600,-2.063973446874030
Dolphin and Grouse,WS10 9TG,52.569039524108000,-2.023342000000000
Night heron and Grackle,B74 2JD,52.575009750000000,-1.885244260000000
Fox and Gull,WS1 3QR,52.578381795695400,-1.988416699682350
White ibis and Hawaiian honeycreeper,WS4 1HY,52.610420468440500,-1.949982609842310
Badger and Badger,WS12 4PJ,52.720170357744200,-2.039057016207210
Towhee and Goose,WS11 8SZ,52.668979648481300,-2.017155066741290
Herring gull and Polecat,WV2 3AQ,52.574259925847500,-2.126648748834170
Armadillo and Jay,WV10 9PP,52.605029213869500,-2.111572986524860
Hawaiian honeycreeper and Masked owl,WV12 4NW,52.599829289436400,-2.052340347443240
Mouse and Kestrel,WV14 6LL,52.573299360217900,-2.071579000000000
Hawk and Darwin's finches,WS2 0BG,52.587199162341400,-2.022406705077540
Myna and Armadillo,B74 3PT,52.577392520000000,-1.885725025000000
Chickadee and B,WS7 4XA,52.667164925066700,-1.934288405830830
Jerboa and Masked owl,WS2 8BJ,52.595491000000000,-1.988870000000000
Tit-tyrant and Kākāriki,WV11 2RQ,52.635713520836700,-2.035952107804680
B and Polecat,WS11 9PX,52.667396039529200,-1.974405207026210
Dorcopsis and Flameback,WV13 2LN,52.579702772867800,-2.048538337607600
Mamo and Ibex,WV11 2NY,52.617404076130300,-2.052789744992770
Parakeet and Flameback,WV3 0PA,52.581407000000000,-2.135465524575720
Fish eagle and Francolin,WS6 9BH,52.650981000000000,-2.020866000000000
Jerboa and Linsang,WV10 8JS,52.619350217213600,-2.111240208998320
Grackle and Quetzal,WS9 8BF,52.612623000000000,-1.918842000000000
Marmoset and Siskin,WV9 5DQ,52.657111453437500,-2.133082854189360
Parrotbill and Siskin,WS9 8AP,52.607880533107900,-1.923921816248700
Old World vulture and Marmoset,WS3 1ED,52.613571437624800,-1.982515085094810
Moluccan boobook and Songlark,WV12 4RH,52.602410158691300,-2.050497800122880
Petrel and Crow,WV10 9ET,52.617051113978000,-2.118161518260750
Parakeet and Diving bird,WS6 7NA,52.651034674132400,-2.025706414429080
River dolphin and Civet,WV10 8PP,52.621678991005100,-2.089576189623780
Capuchin and Zebra,WV8 1TQ,52.620465715849900,-2.157949565858380
Tahr and Parrotbill,WV10 9QG,52.602383000000000,-2.116173000000000
Parakeet and Peafowl,WS9 9DD,52.632017000000000,-1.907583000000000
Parakeet and Grouse,WV13 1JH,52.589397958131200,-2.037035730943040
Pratincole and Booted eagles,WV2 2RD,52.568232397265200,-2.098201339810530
Solitaire and Philippine hawk-owl,WS2 9TW,52.580216246561900,-2.001329173741130
Old World warbler and Parakeet,WS1 1LY,52.584431359743400,-1.983249000000000
Perching duck and Night heron,WS9 8JR,52.617462039158600,-1.921497726490570
Dolphin and Pitohui,WV12 5EF,52.615019000000000,-2.039051000000000
Grackle and Crow,WS12 1RB,52.716391742887100,-1.988691884255310
Jackal and Tattler,WV10 8JH,52.616749182431300,-2.114379598264310
Kangaroo and Masked owl,WS2 0EB,52.586057013892600,-2.024620058034370
Old World warbler and Booted eagles,WV13 2BS,52.583708472352000,-2.056925800465020
Wallaby and Warbler,ST19 9LH,52.695957000000000,-2.155145000000000
Dolphin and Logrunners,WS2 9HA,52.578348000000000,-1.999366000000000
Hawaiian honeycreeper and Meadowlark,WV13 2BL,52.583322384482400,-2.055936465191100
Pratincole and Quetzal,WV1 9DR,52.588315000000000,-2.114778000000000
Petrel and Argus,WV12 4AW,52.603073038873000,-2.031466049758270
Badger and Egret,WS4 1NH,52.611584300264600,-1.961116511843070
Civet and Francolin,WS3 4EX,52.636162231210900,-1.961065319926980
Diving bird and Shearwater,WV9 5DF,52.656824960496700,-2.132032357669420
Myna and White ibis,WV2 4PW,52.569339121951200,-2.137700052235700
Capuchin and Thicketbird,WV11 2BA,52.631280444653100,-2.060386000000000
Minke whale and Chicken,WS11 4QA,52.699676645330900,-2.030248637888130
Tree warbler and Quetzal,WV2 4QT,52.571814952143500,-2.134240000000000
Marmoset and Pitohui,WS9 9BG,52.628289453412900,-1.944067592251820
Chickadee and Viscacha,WS7 2AR,52.685008652390200,-1.932945160901220
Recurvebill and Parrotlet,WS3 2DQ,52.613183000000000,-2.005111000000000
Wallaby and Diving bird,B74 3JQ,52.584807330000000,-1.883890404000000
Zebra and B,WS9 8EX,52.605280458383700,-1.935709637000560
Siskin and Dorcopsis,WS2 9SE,52.575352115625100,-2.012189428174920
Chipmunk and Mink,WS8 7BS,52.633134846987100,-1.927306078105420
Marmoset and Argus,WS6 6HN,52.654164909482600,-2.015316143315490
Civet and Mink,WV11 3QQ,52.597325000000000,-2.079014606541730
Pratincole and Ground sloth,WS2 8XD,52.596642000000000,-2.000695000000000
Marsh harrier and Fish eagle,ST19 5SF,52.724210010394700,-2.106591806389460
Jay and Thicketbird,WS7 0JH,52.670414733334000,-1.901749889900300
Badger and Hawk,WS5 3JP,52.565506955363200,-1.948808970678930
Old World vulture and Pitohui,WS12 2ED,52.697531000000000,-1.991074000000000
Pheasant and Herring gull,WS2 9SB,52.575172783038800,-2.006464064943390
Bunting and Goose,WV6 9AN,52.600507924739900,-2.164905548137860
Myna and Crow,WV10 6DP,52.611130696244900,-2.131554937944130
Mamo and Songlark,WV12 5PJ,52.604888952194600,-2.031541191754370
Tahr and Chipmunk,WV1 2JD,52.583102137586000,-2.091829161117200
Mamo and Partridge,WV14 7AN,52.571578580540700,-2.062147957090900
Minke whale and Linsang,WS1 3DP,52.579503859154400,-1.976890870243880
Perching duck and White ibis,WS3 3ED,52.615519085816500,-1.996973446310470
Black cockatoo and Civet,WV12 5XH,52.616645811851300,-2.037487211005310
Grouse and Logrunners,WS3 3TX,52.627916000000000,-2.011968000000000
Recurvebill and Dolphin,B74 2JA,52.573535470000000,-1.885292366000000
Quetzal and Pratincole,WS1 3HR,52.571988678475600,-1.978517813990750
Viscacha and Jay,WV10 8EF,52.623708792176900,-2.112772830315220
Solitaire and Nukupuʻu,WS11 1SY,52.674328254365100,-2.049664175417100
Rat and Mole,WS1 2LT,52.579826981637700,-1.974381923399170
Mouse and Mamo,ST19 5FG,52.722486000000000,-2.114997000000000
Myna and Mink,ST19 5NW,52.719047574270900,-2.118570813499200
Booted eagles and Vole,WS11 9TE,52.668267168133300,-1.971211000000000
Grackle and Logrunners,WS9 0EQ,52.601004000000000,-1.937975129883900
B and Mole,WS7 9AL,52.681781000000000,-1.916368000000000
Kestrel and Jackal,WS2 9QB,52.586212447934100,-2.000989918811710
Black cockatoo and Rat,WV12 4TF,52.595637885372000,-2.033660340607530
Petrel and Masked owl,WS11 8LD,52.672955000000000,-2.003018000000000
Crow and Shearwater,WV10 0BS,52.595854903155500,-2.106973121260440
Night heron and Elephant,ST19 5RX,52.722403000000000,-2.097660000000000
Civet and Tit-tyrant,WS1 2AA,52.585095400461000,-1.976297591454450
Crow and Armadillo,WV12 5YX,52.614851889533400,-2.050733727616960
Fox and Old World quail,WV4 5TZ,52.566101834645800,-2.145981039310500
Ice seal and Stint,WS4 1NR,52.612841741250200,-1.957807234509750
Thicketbird and Minke whale,WS12 2HA,52.699572008157800,-1.986610000000000
Mink and Peafowl,WS3 1YU,52.586085180937100,-1.981286000000000
Solitaire and White ibis,WV10 8BT,52.613231827251500,-2.107310944895850
Wallaby and Elephant,WS4 1AY,52.622009573109300,-1.953219245958770
Wallaby and Vulture,WS3 2DU,52.611473673598900,-2.003338777606110
Darwin's finches and Herring gull,WV6 8NU,52.597401777344600,-2.161778779946940
Lemming and Shearwater,WV13 3DW,52.583982819419800,-2.065294465393630
Mockingbird and Black jay,WS9 8LA,52.613957363395800,-1.910648759300440
White ibis and Parakeet,WS12 4EX,52.723475606926200,-2.010055102470450
Buzzard and Vole,WS8 6DH,52.641521638044100,-1.926302080735100
Marmoset and Grouse,WS11 1PB,52.682636077252600,-2.046271453591920
American sparrow and Treepie,WS1 4HX,52.574695542448200,-1.984566385264040
Fox and Armadillo,WV13 2HJ,52.584666224387600,-2.045842925906200
Peafowl and Zebra,WV2 3NR,52.570898000000000,-2.118642000000000
Ground sloth and Meadowlark,WS1 1JQ,52.584763069038100,-1.977817964325340
Coati and Francolin,WS12 1LE,52.707195756871800,-2.005389118645230
Chickadee and Cuscus,WV1 2DA,52.582797765772900,-2.101259221114930
Cuscus and Parakeet,WV11 2BB,52.620014000000000,-2.081803000000000
Lemming and Parrotbill,WV3 0NZ,52.581658077365900,-2.134994000000000
Chipmunk and Tattler,WS12 4FA,52.709910721090500,-2.002518003157330
Solitaire and Tit-tyrant,WV6 0EU,52.598132856136100,-2.142279000000000
Stint and Partridge,WV11 2ED,52.619134302018400,-2.042408007475920
Shearwater and Warbler,WS2 7DQ,52.607517387213100,-2.014015000000000
Duck and Guillemot,WS2 8HX,52.591093508851900,-1.990067000000000
Old World warbler and Warbler,WS2 0JP,52.592835346983800,-2.024476278806430
Civet and Snipe,WS3 3HP,52.616552891537500,-2.003102876639150
Magpie and Treepie,WV13 2DL,52.581019837509600,-2.058324304328730
Grouse and Condor,WV12 5SA,52.608850528344600,-2.040980352217830
Cloud rat and Jerboa,WV10 7BT,52.678741768895500,-2.123741734890770
Fulmarine petrel and Greenbul,WV11 2HT,52.620203738812900,-2.063236296811040
Mole and Greenbul,WS11 9UD,52.676925177671200,-1.974666000000000
Fox and Pitohui,B74 2JP,52.572167860000000,-1.884100775000000
Egret and Songlark,WV1 2NP,52.584119471389700,-2.089897868366420
Night heron and Jerboa,WS2 0JQ,52.591146447885200,-2.017965583266120
Triller and Night heron,WS11 7WF,52.693459721001100,-1.997160874601430
Dolphin and Towhee,WS12 2FY,52.701306571426900,-1.983427439844490
Snipe and Shearwater,WS10 8JE,52.577442345223000,-2.034325103589900
Parrotlet and New World blackbird,WS9 8ZB,52.602629742170100,-1.922734902064150
Capuchin and Chickadee,WS7 4TT,52.672893235007500,-1.922804000000000
Grackle and Meadowlark,ST19 5SS,52.715418430761800,-2.106318668156980
Armadillo and Old World warbler,WS3 2DZ,52.610260031949100,-2.004062297806720
Snipe and Ground sloth,WS11 5SS,52.707851176070200,-2.014802433388420
Prion and Logrunners,WV13 1LX,52.590358000000000,-2.045362000000000
Snipe and Tahr,WV2 4PX,52.569255457440500,-2.139854000000000
Siskin and Mink,WS9 0SA,52.593518000000000,-1.913200000000000
River dolphin and Lemming,WV98 1DP,52.600416380703300,-2.134313511427980
Pheasant and Chickadee,WS7 1AG,52.683896000000000,-1.934070799863870
Hawaiian honeycreeper and Lemming,WV3 0TZ,52.585071000000000,-2.139078000000000
Thrasher and Black jay,WS3 4PD,52.630690396292800,-1.971338510865630
Shearwater and Fulmarine petrel,WV1 2DJ,52.581477821410400,-2.099426169412720
Booted eagles and Condor,WS10 8UR,52.571679457662900,-2.035885000000000
Francolin and Triller,WV11 2BH,52.631890984528500,-2.061953000000000
Magpie and Grosbeak,WV10 9SH,52.608689457430400,-2.119143000000000
Fulmarine petrel and Snipe,WS3 2SG,52.621145191292200,-2.018642756690870
Dolphin and Booted eagles,WS12 0RU,52.701646871799100,-1.975746851282990
Dolphin and Lemming,WS2 9SU,52.579802689809000,-2.002672092551090
Grosbeak and Partridge,WV11 3PA,52.604718000000000,-2.058976000000000
Herring gull and Songlark,WV6 9HG,52.612276183070200,-2.157846204239540
Kangaroo and Fox,WV2 4JW,52.579355000000000,-2.130102000000000
Wallaby and Philippine hawk-owl,WV10 0EU,52.587798776115500,-2.108370436324430
Boto and Minke whale,WS1 3EP,52.574910511103100,-1.979327976539140
Tahr and Grackle,WS12 4RU,52.717868000000000,-1.995797000000000
Tree warbler and Puffleg,WS7 3QY,52.666524946896200,-1.939982475944690
Bunting and Solitaire,WV2 2DX,52.570588848149400,-2.112046019806130
Thrasher and Towhee,WV3 7LY,52.568863217890000,-2.151921274403550
Vole and Polecat,WV6 0TJ,52.600629233691000,-2.147956327835590
Songlark and Viscacha,WS12 1AR,52.707582444706100,-1.999957353854740
River dolphin and Night heron,WV13 2AR,52.580545261849200,-2.054383348226400
Marsh harrier and B,WV10 6TH,52.613103526357900,-2.135902865677850
Buzzard and Piping shrike,WV8 1YE,52.615166773126700,-2.154149493445310
Philippine hawk-owl and Dorcopsis,WV6 9NU,52.600122243086500,-2.157669562567960
Wallaby and Wader,WV14 0BQ,52.565305039277100,-2.075254158615830
Civet and Francolin,WS12 4JP,52.708723481433500,-2.012094156078520
Old World warbler and Recurvebill,WV10 7LA,52.656167690518400,-2.083940550151250
B and Ground sloth,WV1 9EF,52.588315000000000,-2.114778000000000
Peafowl and Kestrel,WS2 0JF,52.589734765062900,-2.019736299559490
Magpie and Solitaire,WS2 8TZ,52.594725204282300,-2.011471556361270
Bunting and Wader,WV1 2SA,52.588819246879900,-2.103206767342590
Prion and Masked owl,WV2 3DU,52.572133608162600,-2.122599754020690
Wader and Magpie,WV10 7JT,52.655061124306000,-2.085106269001470
Fish eagle and Quetzal,WS2 9LR,52.581528440975400,-1.990924765144730
Chipmunk and Towhee,WS10 8EZ,52.569224826186600,-2.037048121403010
Guillemot and Chipmunk,WS2 8JZ,52.592199150815100,-1.988796943182110
B and Marmoset,WS11 6UW,52.691021162287600,-2.023570065544970
Crow and Warbler,WS11 9ND,52.661013208989000,-1.973551000000000
Pratincole and Coati,WS11 0DB,52.675880801209700,-2.031252557113060
Treepie and Vole,WV10 0SA,52.604030278947500,-2.102843935603780
Wader and Mink,WV3 7AF,52.576508161743400,-2.149099754307770
Parrotbill and Grouse,WV13 3HT,52.575856831617100,-2.063836237691220
Vulture and White ibis,WV10 8PW,52.611792000000000,-2.099776000000000
Flameback and Perching duck,WS11 0FE,52.675729000000000,-2.025936000000000
Rabbit and Pitohui,WS9 9DS,52.625074000000000,-1.904245502135200
Puffleg and Myna,WS6 6LX,52.662263765929400,-2.020819144319360
Duck and Vulture,WV14 6LX,52.575301683046700,-2.075315600716260
Grouse and Grackle,WV12 5AJ,52.611762144494400,-2.043936739375490
Macaw and Towhee,WV10 6LY,52.630736834517100,-2.123694632969130
Macaw and Mockingbird,WS8 6GE,52.646656177368600,-1.936979657683490
Pratincole and Pheasant,WS7 3RN,52.673110000000000,-1.941194000000000
Kestrel and Peafowl,WS15 1EP,52.741870004199800,-1.921675054460980
Pratincole and Stilt,WS11 0AJ,52.682516108119800,-2.027485344854160
Badger and Recurvebill,WV10 6UU,52.617755343587500,-2.140082518561150
Tit-tyrant and Puffleg,WS7 0EG,52.673221901621500,-1.916518000000000
Wader and Fulmarine petrel,WV98 1AF,52.600416380703300,-2.134313511427980
Ice seal and Old World quail,WV1 1SE,52.587231944823500,-2.127218000000000
Tahr and Eagle,WV12 4BH,52.600833908294800,-2.033900587811520
Black cockatoo and Jackal,WS12 3XJ,52.691445917952600,-1.993713728250900
Mole and Old World warbler,WS9 8JW,52.615922805812300,-1.918546538349960
Perching duck and Partridge,WS8 7JN,52.650887672871700,-1.940107035088100
Boto and White ibis,WS5 3DP,52.576057950298700,-1.942141673834400
American sparrow and Wallaby,WV10 8JL,52.617404528696000,-2.115311830429570
Jay and Macaw,WS12 4JJ,52.710152395715800,-2.015484000000000
Chicken and Tahr,WV13 2JR,52.574908242092100,-2.055261692076010
Parrotbill and Ibex,WS7 3AB,52.673955000000000,-1.940039000000000
Night heron and Macaw,WS7 4YD,52.669577597212600,-1.924909371602620
Maya and Thicketbird,WS15 4RS,52.703707512122800,-1.933700979569210
Thrasher and Black jay,WS2 9RF,52.575972960618700,-2.004767221156490
Recurvebill and White ibis,WS1 1EW,52.584395015645300,-1.980888031744480
Ground sloth and Petrel,WS1 4JY,52.574552250619700,-1.989686680511440
Wader and Diving bird,WV12 5DY,52.618702536822700,-2.043116576110790
Thicketbird and Francolin,WS4 1DF,52.618443421900000,-1.960933230011190
Viscacha and Gull,WV10 6XJ,52.617167992760000,-2.142606325212570
Mockingbird and Meadowlark,WV12 4QA,52.598500914025700,-2.047348592535100
Mamo and Jerboa,WS2 9EP,52.580056000000000,-1.997005000000000
Booted eagles and Buzzard,WS6 7HA,52.665794850865100,-2.029485711670530
Chickadee and Petrel,WV9 5LS,52.623938000000000,-2.143116000000000
Piping shrike and Piping shrike,WS3 3EH,52.616328094112500,-1.994831775432610
Recurvebill and Diving bird,WV10 8PN,52.611718497299500,-2.100558146799730
River dolphin and Parrotlet,WV10 6LT,52.629729196534200,-2.124445275617790
Nukupuʻu and Vulture,WS5 3JX,52.566053376000700,-1.944441479157590
Dolphin and American sparrow,WV13 2NR,52.584552519431700,-2.058948897307520
Marsh harrier and Elephant,WV10 9JD,52.615104000000000,-2.115394000000000
Duck and Capuchin,WS2 9SR,52.581043312842200,-1.998495680987640
Fish eagle and Maya,WV3 9RX,52.584841346155300,-2.142295000000000
Prion and Coati,WV14 0BY,52.566508000000000,-2.079962000000000
Solitaire and Recurvebill,WS12 0RZ,52.710625801383300,-1.968474333787070
Magpie and Herring gull,WV9 5QE,52.623729961878800,-2.149984000000000
Tattler and Dolphin,WS1 4DP,52.570533796043400,-1.989613827103980
Rat and Zebra,WS12 4NS,52.709616653071600,-2.038795906569150
Macaw and Tit-tyrant,WS6 7HG,52.660848949708300,-2.035086000000000
Kangaroo and Logrunners,WV2 3AH,52.573235342166400,-2.126409705578280
Treepie and Solitaire,WS2 0DN,52.584735058240200,-2.026700352513840
Cuscus and Vulture,WS8 6LP,52.653559000000000,-1.912076000000000
Diving bird and Civet,WV8 1UA,52.621044775103200,-2.161851302027800
Francolin and White ibis,WV12 5DS,52.614587000000000,-2.040779000000000
Chickadee and Linsang,WV6 9NQ,52.606650223921100,-2.156615085828120
Black cockatoo and Mockingbird,WS11 1XA,52.691937033697600,-2.028408625565380
Parrotbill and Kestrel,WS10 9JR,52.567248360775900,-2.033033000000000
Wader and Grosbeak,WS11 0BG,52.675250901887900,-2.033514921339300
Parakeet and Recurvebill,WS11 1NU,52.684767572560200,-2.043626000000000
Badger and Linsang,WS4 1JQ,52.608842000000000,-1.957043000000000
Argus and Kite,WS8 7LH,52.658615097627100,-1.951731562588900
Solitaire and Myna,WV10 9UW,52.617645611414300,-2.116981502909770
Puffleg and Philippine hawk-owl,WS9 8EU,52.601403878313200,-1.950495000000000
Polecat and Capuchin,WS3 1NL,52.617073617132300,-1.986604777767610
Wallaby and Masked owl,ST19 5QS,52.688055000000000,-2.148001000000000
Siskin and Parrotbill,WV11 3RF,52.600434324021400,-2.079625774435900
Chipmunk and Cloud rat,WS2 7LW,52.603921219568300,-2.015933231029420
Chicken and Dorcopsis,WS2 9HF,52.574840343619900,-2.001063373615300
Perching duck and Mink,WS4 2DS,52.594828851090700,-1.965973366411090
Tree warbler and Fox,WV2 3HS,52.566823211610000,-2.128618959335960
Goose and Warbler,WS15 4NQ,52.695669623647200,-1.917466486841900
Kite and Old World quail,WS3 3HL,52.615977568438000,-2.002260961039820
Puffleg and Old World vulture,WV10 0EQ,52.590885909671000,-2.114061149571120
Myna and Marsh harrier,WV10 6GB,52.612619000000000,-2.128296000000000
Zebra and Pheasant,WS1 2QF,52.586657621409600,-1.967736064152220
Chipmunk and Jay,WS12 1TB,52.713955941564900,-1.994095500244400
Grosbeak and Black cockatoo,WS9 9AF,52.631292889785900,-1.937238037115580
Songlark and Warbler,WV12 4JS,52.600769059179500,-2.040013065199730
Stilt and Hawk,WV11 2NG,52.618777696501700,-2.056690848989030
Pheasant and Warbler,WS15 4LN,52.721545133754900,-1.910193000000000
Argus and Diving bird,WV1 2JQ,52.582990854662900,-2.096108919053480
Siskin and Eagle,WV1 4RA,52.596049000000000,-2.129988464791020
Asiatic leopard and Macaw,WS11 8JN,52.670295872100000,-2.021237314075630
Warbler and Masked owl,WS6 6EU,52.653400858100400,-2.014754144984330
Kestrel and Old World vulture,WV10 0SG,52.609407830594800,-2.100907259265280
Jerboa and Skunk,WS8 7JQ,52.647507982962900,-1.940983669687870
Goose and Wader,WV2 2QJ,52.579294209752400,-2.108600287781530
Thrasher and Cloud rat,WV6 8QA,52.598881563024700,-2.164338401633140
Badger and Pheasant,WS6 7AY,52.656102497677400,-2.034874997821270
Chicken and Capuchin,WV98 1SQ,52.600416380703300,-2.134313511427980
Viscacha and Siskin,WS2 9JH,52.574894261773900,-1.997153070675660
Fish eagle and Elephant,WS1 3BJ,52.574468131674500,-1.970386213425880
Skunk and Maya,WV6 0AF,52.590984169610400,-2.147170957251620
Booted eagles and Dorcopsis,WS7 4QU,52.668286057132500,-1.929776602044890
Fulmarine petrel and Moluccan boobook,WS1 4HS,52.576061895184000,-1.983813344518520
Vole and Old World vulture,WS12 4FJ,52.721238000000000,-2.010706000000000
Fulmarine petrel and Tattler,WV4 6HX,52.566214779106300,-2.107285000000000
River dolphin and Dorcopsis,WS7 1PX,52.691347646905200,-1.935287908721390
Piping shrike and Tree warbler,WV12 4NS,52.596198066876900,-2.050859695810550
Viscacha and Skunk,WS6 6HR,52.654362941757600,-2.013202300910170
Piping shrike and Old World warbler,WV10 6JX,52.605420858614500,-2.132748617762070
Mink and Parrotlet,WS7 3XX,52.673036260309900,-1.936276135741020
Pratincole and Argus,WS3 1QG,52.601413225169100,-1.984690040327360
Pheasant and Scimitar babbler,WS2 8BY,52.595569805056200,-1.984028000000000
Grackle and Treepie,B74 3RW,52.581134860000000,-1.898451443000000
Siskin and Old World vulture,WS3 3LY,52.621560226582000,-2.000326208707180
Grouse and New World blackbird,WS8 7JX,52.656835158141500,-1.951777862647020
Marmoset and Grosbeak,WS7 1JH,52.687061521689300,-1.939348000000000
Mouse and Darwin's finches,WV1 9HE,52.588483000000000,-2.114949000000000
B and Mouse,WS9 0SW,52.593326000000000,-1.937660640302270
Logrunners and Herring gull,WV10 6FH,52.611350000000000,-2.127503000000000
Boto and Fulmarine petrel,WS11 9TB,52.669616272097200,-1.973531000000000
Grackle and Kangaroo,WS11 5TJ,52.706700965396100,-2.010598755722760
Gull and Chicken,WS9 0SU,52.597523679031000,-1.922935779722360
Cloud rat and Jay,B74 2HZ,52.574743010000000,-1.888343678000000
Masked owl and Asiatic leopard,WS1 3BA,52.574925582584500,-1.966490356348990
Coati and Black cockatoo,WV13 3EP,52.580898875477900,-2.066086790421760
Flameback and Peafowl,WS10 8NB,52.573493947234700,-2.040519000000000
Jay and Nukupuʻu,WS2 8SR,52.591489451806100,-2.001344343995410
Lemming and Booted eagles,WS1 2PY,52.576596052830000,-1.961102992812340
Snipe and Mole,WV1 2NS,52.584293540795000,-2.097130149119010
Minke whale and Thicketbird,WV1 9FQ,52.588468000000000,-2.114955000000000
White ibis and Thicketbird,WV98 1DD,52.600416380703300,-2.134313511427980
Parrotbill and Lemming,WS11 4BE,52.702606786972500,-2.032041348532880
Asiatic leopard and Black cockatoo,WV9 5AP,52.629220632221400,-2.151923738584800
Moluccan boobook and Guillemot,ST19 5NZ,52.717075000000000,-2.114391000000000
Partridge and Moluccan boobook,WS11 7LF,52.688533001458200,-2.009795363013970
Moluccan boobook and Cuscus,WS7 0HD,52.674583129115200,-1.909534596979750
River dolphin and Boto,WS10 8QT,52.567423585861900,-2.046296949473650
Badger and Snipe,WS4 1QW,52.615734422186000,-1.952443108457440
Prion and Diving bird,WS6 7QY,52.659404657973000,-2.022902356125070
Minke whale and Herring gull,WV10 0BP,52.595821280996900,-2.104360005427420
Crow and River dolphin,WV11 3JE,52.604163191792000,-2.068292498349080
Boto and Ice seal,WV4 6AF,52.566466000000000,-2.118673578060610
Magpie and Fish eagle,WV12 5JX,52.608779791196300,-2.037436144782710
Quetzal and Tattler,WS9 9RB,52.631699548474800,-1.918177515724420
Triller and Recurvebill,WS3 4NN,52.627724997945800,-1.976954409727080
Bunting and Kite,WV14 6NL,52.570496858998300,-2.067502265954040
Old World quail and Old World warbler,WS4 1QN,52.617513018780400,-1.949251000000000
New World blackbird and Lemming,WS9 8HR,52.615840856124800,-1.917040187402800
Meadowlark and Rabbit,WS4 2EQ,52.592105944753600,-1.969680632873180
Black cockatoo and Tahr,WS9 8UR,52.616031000000000,-1.931130000000000
Perching duck and Siskin,WS9 0BZ,52.597997866264600,-1.934111018805240
Thrasher and Eagle,WS11 7WQ,52.695194734750600,-2.001496116351480
Maya and Thicketbird,B74 3RU,52.579039890000000,-1.898057825000000
Hawk and Songlark,WS3 3PJ,52.633956720302600,-2.008837195032420
Guillemot and Armadillo,WV4 6BH,52.564136586130000,-2.109447893205390
Chicken and Thicketbird,WS6 6PZ,52.665688563441300,-2.022284648814950
Petrel and Argus,WS1 9QG,52.586089530900300,-1.981286000000000
Ground sloth and Logrunners,WV6 6AZ,52.600556657861300,-2.133398286400520
Argus and Fox,WS2 9JZ,52.584343000000000,-1.986172000000000
Flameback and Moluccan boobook,WS10 8NA,52.576584000000000,-2.020084000000000
Elephant and Parakeet,WS7 4RQ,52.677139638483400,-1.927706607706190
Gull and Stilt,WV13 2PN,52.585423668627500,-2.060647402784250
Perching duck and Kestrel,WV10 8DG,52.616641830652900,-2.104084693747550
Dolphin and Shearwater,WS2 0LE,52.581672000000000,-2.017873000000000
Darwin's finches and Crow,WS11 5QP,52.698464836129000,-2.022242344568410
Tahr and Capuchin,WS5 3BQ,52.575646772491300,-1.947203562011990
Crow and White ibis,WS12 4QH,52.720964000000000,-2.034749224431590
Philippine hawk-owl and Thrasher,WS6 6ED,52.656520059528200,-2.016410947333660
Zebra and Mouse,WV3 9SG,52.583430748440400,-2.141433977931430
Warbler and Macaw,WS3 2NH,52.617405775401100,-2.016529013448540
Elephant and Rat,WV1 4QB,52.592108206142300,-2.139498666582250
Chipmunk and Condor,WV13 3XD,52.593046000000000,-2.088552000000000
Duck and Minke whale,WS4 2JH,52.591320000762700,-1.957178278429880
Grouse and Francolin,WS9 8XN,52.621583167088600,-1.914030738245860
Condor and Egret,WV2 3JY,52.568160000000000,-2.124034000000000
Stilt and Myna,WV3 9QT,52.585780323364300,-2.146164606060320
Partridge and American sparrow,B74 2HT,52.577220830000000,-1.884810557000000
Skunk and Partridge,WS9 9DF,52.633935652713300,-1.914848819601260
Macaw and Mouse,WV1 2TX,52.576713898768300,-2.098618513687640
Solitaire and Wallaby,WS2 8AS,52.594607944292900,-1.984544746690040
River dolphin and Treepie,WV12 4EG,52.598145978463900,-2.033854205755200
Mink and Magpie,WV1 4JD,52.585527597053400,-2.131729023240050
Scimitar babbler and Snipe,WS4 1DJ,52.619692603414900,-1.959750451386370
Herring gull and Tree warbler,WS3 1QU,52.604575588222200,-1.973112538607000
Mouse and Bunting,WS7 1PY,52.692084997029400,-1.935656706657360
New World blackbird and Diving bird,WV10 8AX,52.627810000000000,-2.111424607439700
Fulmarine petrel and River dolphin,WS12 9FL,52.691883000000000,-2.028447000000000
Coati and Siskin,WS5 3PQ,52.575976000000000,-1.959436199911430
Marsh harrier and Linsang,WS11 1SN,52.678617000000000,-2.050527000000000
Piping shrike and Chicken,WS15 4LP,52.713961420913400,-1.902821768544180
Towhee and Thrasher,WS8 7RD,52.640345432402600,-1.945707411338830
Grackle and Greenbul,WV14 7AT,52.571193119267200,-2.060022743679300
Puffleg and Coati,WV10 6SU,52.620655572402400,-2.135335448185670
Mole and Magpie,WS2 9LT,52.584935295415100,-1.987736086530760
Moluccan boobook and Thicketbird,WS11 5BU,52.697844701003700,-2.021442971869560
Towhee and Lemming,WS7 2DR,52.683115514147700,-1.924102244038430
Maya and Parakeet,WV12 5FD,52.619509498684500,-2.048553052045310
Treepie and Prion,WV1 3NU,52.584496848884300,-2.128936456837730
Prion and Gull,WS1 9TP,52.586012000000000,-1.981280000000000
Dorcopsis and White ibis,WS15 4RP,52.705199339570900,-1.932899539541470
Macaw and Crow,B74 3JZ,52.589105080000000,-1.884528540000000
Shearwater and B,WS11 1PE,52.684155558066800,-2.045681362022590
Old World vulture and Mamo,WV9 5HA,52.628142360989200,-2.151535879609120
Coati and Tree warbler,WS7 9BL,52.681772730831900,-1.906783291479980
Egret and Egret,WS11 1RA,52.694565162296100,-2.046698430038560
Elephant and Pheasant,WS4 2DN,52.596222634338300,-1.967286204802390
Myna and Myna,WV13 1AB,52.590136625296600,-2.055989465175520
Cloud rat and Pratincole,WS7 1FN,52.684289096122600,-1.950534792490590
Zebra and Kite,WV6 0AR,52.592902950282500,-2.143959297180720
Bronzewing pigeon and Peafowl,WS12 1BL,52.704345974721800,-1.992690787781390
Cloud rat and B,WS8 6JR,52.655732000000000,-1.921104408789250
Macaw and River dolphin,WV9 5RH,52.625665987794700,-2.147745436436120
Perching duck and Egret,WS11 1LF,52.685894983830000,-2.032324880115550
Kākāriki and Buzzard,WS2 8QN,52.592433354351800,-1.996812519072700
Pitohui and Triller,WS7 4US,52.676048000000000,-1.920151000000000
Polecat and Ibex,WS12 4DY,52.716410211509400,-1.997307558975870
Eagle and Solitaire,WS1 2AP,52.583270418433200,-1.975649000000000
Towhee and Condor,WS5 3DW,52.576858014383700,-1.942081599332100
Hawk and Mouse,WV11 2DG,52.626592253591100,-2.051293983773980
Bunting and Polecat,WS2 9QX,52.572458005030900,-2.002996213030750
Magpie and Parrotbill,WV14 7NB,52.566753854785400,-2.072940404454110
Diving bird and Mole,WV2 2PP,52.567403000000000,-2.094284000000000
White ibis and Parrotlet,WS1 9SS,52.586462666643900,-1.980872385023240
Black cockatoo and Meadowlark,WS4 1PT,52.616111356272800,-1.950877111846590
Nukupuʻu and Mink,WS4 1PG,52.614404593750700,-1.954246000000000
Old World vulture and Darwin's finches,WS8 6HH,52.646928090614000,-1.932426767701180
Herring gull and Dorcopsis,WS3 4RA,52.626879000000000,-1.969494000000000
Capuchin and Grackle,WV3 0QH,52.584164000000000,-2.137879000000000
Parrotlet and Kangaroo,WV3 9NS,52.587261911325900,-2.147556986925260
Old World quail and Cuscus,WS3 2DN,52.613147000000000,-2.007932000000000
Asiatic leopard and Dorcopsis,WV10 6JS,52.606870543015800,-2.130656149495640
Marmoset and Triller,WS4 1QL,52.617171376880000,-1.949044442088990
Crow and Jerboa,WV4 4ER,52.566142736637400,-2.162843789381040
Dorcopsis and Wader,WS15 1QQ,52.727428000000000,-1.913024000000000
Francolin and Kestrel,WV12 5ES,52.615828692457400,-2.034384886813560
Badger and Guillemot,WV4 4AD,52.566280827119400,-2.146630766133040
Snipe and Dorcopsis,WV11 2HD,52.616885365180500,-2.065358372987490
Partridge and Cloud rat,WS2 9DL,52.569005942715000,-1.997773080006190
Boto and Argus,WV1 3AG,52.584994517166800,-2.125824000000000
Nukupuʻu and Bronzewing pigeon,WV11 1LH,52.608188569014200,-2.085251366477760
Kākāriki and Chicken,WV11 3AT,52.610553296716500,-2.071034530163450
Egret and Prion,WS12 4DL,52.712418853066100,-2.000120202754880
Mamo and Magpie,WV8 1TF,52.621088125471200,-2.156356497708240
Jerboa and Jay,WS4 1PX,52.616327573780600,-1.952014145281820
Bunting and Hawk,WS11 0DY,52.686265389957400,-2.024795326612070
Rabbit and Duck,WV14 0QZ,52.565232164313200,-2.089505071750000
Chicken and Old World quail,WV98 1AB,52.600416380703300,-2.134313511427980
Mole and Polecat,WV98 1SS,52.600416380703300,-2.134313511427980
River dolphin and Mockingbird,WV1 4SZ,52.588093697294100,-2.143722104530560
Argus and Linsang,WV13 3AD,52.594000000000000,-2.062961976960790
Logrunners and Petrel,WS2 9QT,52.574004269200400,-2.002361838310550
Condor and Peafowl,WS6 6AG,52.648987189848300,-2.012417267396710
Viscacha and Linsang,WV10 7BA,52.643963578391600,-2.090818952235270
Tit-tyrant and Capuchin,WV10 9ER,52.617075561700200,-2.120657723150300
Piping shrike and Tattler,WV14 6JP,52.571673688226300,-2.068950049287290
Thicketbird and Duck,WS11 9SE,52.673975521725500,-1.970275207751050
Argus and Jerboa,WS11 1PQ,52.685314556423000,-2.047368986871800
Mink and Chipmunk,WV11 3NY,52.604987309051300,-2.056894448603690
Kite and Duck,WS6 6BF,52.661860330073900,-2.013293315793030
Partridge and Polecat,WS3 2LE,52.619707684976300,-2.012202011714630
Fulmarine petrel and Pheasant,WS8 7PS,52.656928529036300,-1.923984828287110
Mouse and Chipmunk,WS8 7QJ,52.655772000000000,-1.927431000000000
Mamo and Piping shrike,WV3 7AA,52.578520001802700,-2.150582301238450
Petrel and Logrunners,WV3 9JQ,52.584903690714500,-2.156788338153400
Zebra and Siskin,WS9 0DN,52.601698387587300,-1.936778160109700
Chicken and Grosbeak,WV3 9YW,52.588468000000000,-2.114955000000000
Chickadee and Rat,WV10 6LS,52.630317628980800,-2.120487379397370
Pratincole and Hawaiian honeycreeper,WV12 4TP,52.595233946895400,-2.031489911847400
Hawk and Logrunners,WS1 2PW,52.579070020266000,-1.966974211171860
River dolphin and Goose,WS11 6DE,52.702682376667200,-2.012876792813480
Chicken and Fox,WS12 4BT,52.718971944048500,-2.008543986717040
Bronzewing pigeon and Tahr,WS3 3NR,52.623915517703300,-2.001892000000000
Thrasher and Chicken,WV2 2JJ,52.578563244800700,-2.101633123750240
Tattler and Peafowl,WV6 0TX,52.598412460508800,-2.144966562708770
Marmoset and Night heron,WS1 4DB,52.574613920231300,-1.979756031643020
Piping shrike and Jackal,WS12 3XP,52.691949490417100,-1.999602187675490
Pitohui and Mamo,WV9 5NW,52.624219234500400,-2.147267837240430
Fox and Petrel,WS3 3UP,52.628031656788300,-2.016473985656650
Wallaby and Polecat,WS4 1EN,52.607467057952000,-1.961326869058630
Mink and Old World vulture,WS10 8AF,52.569765849263500,-2.031442005233180
Snipe and Darwin's finches,WV6 9PT,52.603095550474000,-2.159614000000000
Fox and Polecat,WV10 7AE,52.647555560396900,-2.083938787742300
Kestrel and Darwin's finches,WS15 1PG,52.728189265943800,-1.910875157699030
Snipe and Parakeet,WS2 9UX,52.585690925200300,-2.005093042684590
Piping shrike and Towhee,WS3 2DW,52.621527836963600,-2.013753780265650
Thicketbird and American sparrow,WS6 7LD,52.655237637984700,-2.040639636484500
Grackle and Mamo,WV10 7TH,52.644994140408100,-2.094959339999910
Jay and Vole,WV11 1YH,52.609162698714100,-2.080645839562760
Perching duck and Snipe,WS2 8RU,52.590259000000000,-2.001079000000000
Night heron and Hawaiian honeycreeper,WV9 5ES,52.632064726337700,-2.156011000000000
Kangaroo and Boto,WV12 4FB,52.595474000000000,-2.037818000000000
Wader and Marmoset,WV10 0HH,52.590441403971900,-2.108775520678100
Argus and Civet,WS9 0QF,52.595624875302600,-1.934675552036430
Fulmarine petrel and White ibis,WS3 2TA,52.621325341793800,-2.016264626848260
Vole and Warbler,B74 3HX,52.581101750000000,-1.882084944000000
Diving bird and Tattler,WV10 7AG,52.647394299929700,-2.083155124169370
Coati and Flameback,WV10 7TW,52.645522863737600,-2.097014857133740
Dorcopsis and Marsh harrier,WS3 2NG,52.618394447229700,-2.017888276694780
Crow and Kestrel,WS3 3RE,52.625812366372400,-1.998199000000000
Fish eagle and Partridge,WV2 2LR,52.569935575164200,-2.098618021239390
Grackle and Capuchin,WV1 4EX,52.585717692337500,-2.130548833418320
Tit-tyrant and Old World vulture,WV11 2BE,52.635443265573500,-2.088259744513370
Piping shrike and Songlark,WS2 7AD,52.607744000000000,-2.006277000000000
Boto and Philippine hawk-owl,ST19 5AT,52.728756602878500,-2.118301052401320
Stint and Armadillo,WS2 9UZ,52.586535893510900,-2.006510084183860
Minke whale and Jay,WS9 0PQ,52.592202000000000,-1.890699000000000
Piping shrike and Boto,WV1 2PQ,52.585663754945500,-2.092439669133530
Francolin and Logrunners,WV14 6BX,52.570074629558300,-2.081296840576190
Elephant and Myna,WV11 3AD,52.610027782742300,-2.077560989551210
Maya and Elephant,WV10 7NH,52.646988555060000,-2.084854066420590
Chicken and Maya,WV3 0SG,52.583413794284600,-2.132800061454920
Lemming and Chickadee,WS3 2BD,52.609648779371500,-1.997165793832820
Skunk and Grouse,WV11 2ND,52.617860471568100,-2.057250930429860
Jackal and Vole,WS8 6JT,52.653763206619400,-1.922512058284040
Puffleg and Shearwater,WS4 1NL,52.608581551500400,-1.960602301819880
Peafowl and Masked owl,WS3 1SX,52.601871757184300,-1.985118066188870
Shearwater and Parrotlet,WS15 4LQ,52.728711786788500,-1.890824000000000
Black jay and Ground sloth,WV12 5BA,52.610513248093100,-2.042074734355720
Marsh harrier and Maya,WS3 2EJ,52.610305050176700,-2.001241658890680
Hawk and Buzzard,WS6 7LN,52.654519662131900,-2.037002431898300
Masked owl and Francolin,WV1 3BU,52.588468000000000,-2.114955000000000
Quetzal and Old World quail,WV10 6HA,52.628634454209100,-2.130913151602990
Chicken and Francolin,WS10 9ST,52.567781174713600,-2.022396691142960
Hawk and Tahr,WV10 6EW,52.623447488454900,-2.130809010860630
Francolin and Dolphin,WS3 3UR,52.627815803086800,-2.017168265330730
Boto and Goose,WV1 3AA,52.584339687013300,-2.124596834752740
Badger and Meadowlark,WS11 7YW,52.690331295977900,-2.003508006968950
Night heron and Vulture,WV98 1AS,52.600416380703300,-2.134313511427980
Pratincole and Mole,WV12 5UE,52.606849408516300,-2.054312716824660
Black jay and Marsh harrier,WV2 3ES,52.569547730305300,-2.128066291254920
Petrel and Perching duck,WS5 3QX,52.575326080795900,-1.954316343390510
Vulture and Bunting,WS8 6FH,52.644463000000000,-1.930828000000000
Scimitar babbler and Fox,WV10 8JG,52.618068944384900,-2.116155492216950
Bunting and Meadowlark,WS11 5JY,52.706321292439700,-2.024599611563210
Old World vulture and Elephant,WS2 9PS,52.582330000000000,-1.998924000000000
Black cockatoo and Quetzal,WS11 1QW,52.682925283571800,-2.042174307787130
Chickadee and Grosbeak,WV10 9PF,52.609352512661800,-2.112396209868000
Lemming and Pratincole,WV6 9AR,52.600924702833800,-2.162559539992700
Pheasant and Dorcopsis,WV8 1TN,52.620181216483600,-2.155555621259800
Wallaby and Kākāriki,WS5 3HN,52.569498090755700,-1.948007628464790
Grosbeak and Logrunners,WV1 4AU,52.591904735038300,-2.136678555352290
Linsang and Darwin's finches,WS6 7FE,52.662383212552500,-2.029394924906970
Mamo and Stint,WV10 9EB,52.613754555759600,-2.124311269913040
Crow and Jackal,WS7 0LR,52.673295332823900,-1.918839530408110
Skunk and Peafowl,WS12 2FT,52.693171373787100,-1.986789097903510
Coati and Vulture,WS2 9AS,52.573869273955700,-2.006213021547170
Armadillo and Marmoset,WV10 7JA,52.655099575382300,-2.081573240482090
Parrotlet and Masked owl,WV13 1SX,52.589289087797600,-2.061021779574010
Parakeet and Booted eagles,WS2 9AW,52.573734475985500,-2.005239140203800
Mink and Chicken,WV2 2NZ,52.569703534881000,-2.096566675316750
Gull and Goose,WV11 3SA,52.602074396107000,-2.057363136892950
B and American sparrow,WV10 9AY,52.609994000000000,-2.107429000000000
Tattler and Chipmunk,WS3 4PB,52.633215976285100,-1.969194431262140
Ibex and Philippine hawk-owl,WV1 1EQ,52.586795000000000,-2.124456000000000
Capuchin and Bronzewing pigeon,WS11 9NT,52.671989841455000,-1.974787052845270
Parrotbill and Mink,WS7 1LF,52.688150428630300,-1.941254604614210
Treepie and Marsh harrier,WS12 2EW,52.691300173297400,-1.977616702448930
Condor and Mamo,WV4 5DF,52.564660343084700,-2.133407163337450
Egret and Towhee,WV13 3BR,52.584818000000000,-2.079813000000000
Recurvebill and Francolin,WV13 3DA,52.586659348022400,-2.069549287174970
Darwin's finches and Myna,WS8 7PG,52.660027393576700,-1.934786955948030
Hawk and Marsh harrier,WV3 7HJ,52.570645560680500,-2.163627727037990
Darwin's finches and American sparrow,WV1 2JS,52.584720817550300,-2.102297000000000
Gull and Solitaire,ST19 5JY,52.718998488687200,-2.113625991402730
Armadillo and Bunting,B74 3HB,52.576691910000000,-1.886346614000000
Polecat and Flameback,WS2 8AN,52.592928000000000,-1.982744000000000
Philippine hawk-owl and Egret,WS3 3BW,52.621622862239600,-1.991389406734760
Coati and Boto,WS9 8RD,52.613698705489700,-1.913411070922800
Pheasant and Fox,WS9 0LB,52.600933000000000,-1.941341000000000
Kite and Pheasant,WV13 1BJ,52.593033000000000,-2.054089000000000
Egret and White ibis,WS10 8YN,52.577037345657400,-2.035859469860080
Cloud rat and Hawaiian honeycreeper,WS3 1PL,52.617495874770000,-1.984433434098540
Maya and Thicketbird,WV10 7DR,52.679495621284600,-2.084325597412260
Civet and Darwin's finches,WS11 6UP,52.693395334921200,-2.018511199170300
Snipe and Tit-tyrant,WV10 7BY,52.672329867697700,-2.117142618795960
Pheasant and Puffleg,WV13 3HP,52.576539060529700,-2.065652272427370
Rat and Magpie,WV10 9PW,52.606197992799000,-2.111457832523830
Tattler and Tattler,WS3 3AY,52.620121349684300,-1.988642273399570
Wader and Peafowl,WS2 0NH,52.592319869205000,-2.036300125959540
Old World quail and Guillemot,WV10 8UL,52.632690219871500,-2.112057208979700
Tree warbler and Gull,WS9 0JT,52.597233415156500,-1.933536389511880
Vulture and Tree warbler,WV3 9PP,52.586420574989300,-2.144557927138060
Scimitar babbler and Marmoset,WS11 8XY,52.679353205437300,-2.020354058097900
Macaw and American sparrow,WV11 1RH,52.603575414232500,-2.098605166459220
Logrunners and Logrunners,WV11 3RX,52.600563702542300,-2.058202730491260
Crow and Tahr,WS1 4DY,52.568124022357100,-1.984863724626190
Parrotlet and Prion,WS11 9PN,52.667424417770200,-1.982197947131800
Gull and Snipe,WV10 6RN,52.626041018949800,-2.134820261681000
Nukupuʻu and Viscacha,WS12 3DS,52.692362285614900,-1.986596996548230
River dolphin and Prion,WS3 3QF,52.628257533618000,-1.996337370431450
Armadillo and Old World quail,WV14 7BR,52.567626066530200,-2.056152454087770
Capuchin and Jackal,WS12 2LS,52.702942820060600,-1.984462761025720
Shearwater and Mink,WS3 3ER,52.616365000000000,-1.992365194389320
Peafowl and Viscacha,WV2 4PY,52.568974981104400,-2.141549675075520
Hawk and Capuchin,WS11 9RA,52.668717599530200,-1.974774129105220
Solitaire and Fish eagle,WS11 9UX,52.664940213997300,-1.967827000000000
Zebra and Thrasher,WV10 9DN,52.613508000000000,-2.111683000000000
Ground sloth and Myna,WS7 0DJ,52.675609605599700,-1.911736160367580
Treepie and Siskin,WV3 8AF,52.577809410668400,-2.164377526064750
Argus and Pratincole,WV12 5UJ,52.609215396604600,-2.050535203418780
Egret and Buzzard,WS3 4LN,52.627875920520500,-1.968592428091100
Chicken and Hawk,WS4 1BE,52.623907012152400,-1.954783102967040
Parrotlet and Rat,WS9 0HY,52.600604032304400,-1.918235279341830
Old World warbler and Francolin,WS5 3PW,52.576479000000000,-1.956514000000000
Badger and Old World vulture,WV6 9PZ,52.606850474407700,-2.161459252452670
Treepie and Chicken,WV6 9LZ,52.601804443567700,-2.156834012124020
Kākāriki and Black jay,WV14 0AE,52.565764846765200,-2.073145297135420
Petrel and Mamo,WS7 1FQ,52.684387672917500,-1.949795044501470
Shearwater and Mink,WV10 9XA,52.614474013619800,-2.124047466681500
Jerboa and Mouse,WS12 2TS,52.695211611809300,-1.983474100456480
Parakeet and Old World quail,WV12 5LT,52.608871373693500,-2.031706516972830
Parrotlet and Treepie,WS8 6AZ,52.647256430328400,-1.925272640282330
Polecat and Badger,WS1 3QQ,52.581698713313800,-1.985449456943620
Magpie and Bunting,WS3 2EX,52.617991198370400,-2.004624333288020
Pratincole and Logrunners,WV12 4BW,52.597823801092600,-2.028361907577500
Grackle and Rabbit,WV10 6RJ,52.626545282593800,-2.134083152159860
Darwin's finches and Snipe,WV11 1PE,52.600086462319300,-2.088409920260770
Scimitar babbler and Marmoset,WS11 1JH,52.694280000000000,-2.044301000000000
Chipmunk and Wader,WS1 3NF,52.580152125184100,-1.982852616531280
Ibex and Skunk,WV12 5AQ,52.610260459417600,-2.044983737767480
Night heron and Egret,WV2 2NA,52.571129438845500,-2.100730615590570
Masked owl and River dolphin,WV6 9LR,52.600532197911500,-2.160328645936450
Mamo and Gull,WS10 9RH,52.568249246293700,-2.019003596059540
Flameback and Francolin,WV2 3NT,52.568443707276000,-2.117764979031850
Peafowl and Jerboa,WV4 4LR,52.565652917867100,-2.165984314650320
Logrunners and Thrasher,WS1 4JZ,52.574282566147700,-1.989804787455340
Viscacha and Chipmunk,WV13 2DY,52.585492099576000,-2.048795677833540
Kite and American sparrow,WV6 0ND,52.596224906950100,-2.132218823138280
Civet and Mouse,WS7 1ND,52.684815250810400,-1.941214681184310
Fish eagle and Tahr,B74 3RJ,52.580585000000000,-1.896740807000000
Ground sloth and Minke whale,WS2 8NG,52.589090000000000,-1.993624536076010
Masked owl and Nukupuʻu,WV10 0BU,52.597183376356500,-2.109176105664110
American sparrow and Tree warbler,WV1 9SY,52.587139083658300,-2.129637946122910
Perching duck and Scimitar babbler,WS8 6BD,52.646078228959500,-1.924402632250510
Recurvebill and Masked owl,WS2 9TX,52.577348500811100,-2.001092962743430
Hawk and Lemming,WS12 4AX,52.712526445435600,-2.007935796038680
Elephant and Asiatic leopard,WS8 6JN,52.651480028022500,-1.922826495192520
Grouse and Jackal,WV10 6RT,52.620615841564800,-2.130697154047210
Songlark and Tit-tyrant,WS1 1RS,52.582749767390000,-1.980180329233570
Pheasant and Peafowl,WS14 0BN,52.654711414740600,-1.883676155853450
Cuscus and Lemming,WS12 4LG,52.725209846869200,-2.016600008059590
Hawaiian honeycreeper and Mouse,WV1 4TF,52.590084000000000,-2.149382000000000
Crow and Ice seal,WS12 2NN,52.701801663071500,-1.989302311297430
White ibis and American sparrow,WS2 8NE,52.587776483446600,-1.992930898318980
Logrunners and Parrotlet,WV9 5EQ,52.660027000000000,-2.139094000000000
Linsang and Guillemot,WV1 1ED,52.587062573726000,-2.125563970314450
Fish eagle and Logrunners,WV3 0ED,52.573025537808900,-2.137195188164010
Perching duck and Ground sloth,WV9 5PH,52.621294406387000,-2.149783926166500
Treepie and Wader,WS3 5BJ,52.634690684101300,-1.970759657835490
Peafowl and Puffleg,WS11 1NX,52.690137592315400,-2.034103401102100
Gull and Rat,WV10 8EJ,52.626524709383400,-2.110519780700330
Crow and Zebra,WV12 5PZ,52.605012938740600,-2.037875889966660
Flameback and Jackal,WS3 1BX,52.608452024583600,-1.983269982367650
Maya and Kākāriki,WS8 6EQ,52.647441325422400,-1.933889226972240
Lemming and Wader,WS3 4AB,52.633306194235900,-1.970465062279930
Duck and Magpie,WS4 1GB,52.599796666745800,-1.970192351453280
Thicketbird and Thrasher,WS2 7EU,52.601674760923600,-2.005139286985770
Tit-tyrant and Black cockatoo,WS8 7BT,52.633360000000000,-1.926212000000000
Grouse and River dolphin,WS8 6JG,52.653836520131500,-1.924684946724940
Crow and Kākāriki,WS2 0EP,52.594229000000000,-2.027518000000000
Moluccan boobook and Logrunners,WV4 5BW,52.565328980320100,-2.130370146744280
Pratincole and Old World quail,WV2 3AD,52.575220992855700,-2.127433590997870
Mouse and Bronzewing pigeon,WS12 1PB,52.704156829972200,-1.988088196661860
Skunk and Eagle,WV10 0TD,52.594777893599200,-2.114676544155960
Stint and Jackal,WV11 3TU,52.609145599659900,-2.079346278608160
Philippine hawk-owl and Chickadee,WV98 1BS,52.600416380703300,-2.134313511427980
Marmoset and Pitohui,WS12 4TA,52.718120920949900,-2.038477811301120
