name,postcode,lat,lon
Hawaiian honeycreeper and rat snake,BT43 6BQ,54.960185000000000,-6.228794000000000
Triller and garter snake,BT43 6FJ,54.994262000000000,-6.180133000000000
python and Rat,BT43 6QN,54.965966000000000,-6.224372000000000
Chickadee and Wallaby,BT43 6WE,54.967099000000000,-6.221791000000000
pit viper and brown snake,BT43 7NA,54.973079000000000,-6.198554000000000
boa constrictor and Skunk,BT44 0BB,54.945347000000000,-5.904853000000000
Flameback and amphisbaena,BT44 0BL,54.937382000000000,-5.985852000000000
Recurvebill and Zebra,BT44 0ET,54.991888000000000,-5.991048000000000
Snipe and Schneider python,BT44 0HF,54.991673000000000,-5.992494000000000
Marsh harrier and bushmaster,BT44 0HH,54.990250000000000,-5.993561000000000
indigo snake and Nukupu ªu,BT44 0HL,54.985468000000000,-5.993772000000000
Skunk and asp,BT44 0HS,54.983771000000000,-5.991623000000000
Magpie and pit viper,BT44 0JX,54.998013000000000,-5.999929000000000
loggerhead and dugite,BT44 0LD,54.951951000000000,-6.015315000000000
chameleon and Maya,BT44 0LF,54.952785000000000,-6.021111000000000
Triller and crocodile,BT44 0LH,54.979075000000000,-5.978078000000000
Magpie and Logrunners,BT44 0NT,55.118637000000000,-6.060318000000000
Eagle and Scimitar babbler,BT44 0RW,55.053869000000000,-6.049728000000000
boa and fer-de-lance,BT44 0RX,55.078927000000000,-6.057137000000000
hognose snake and B,BT44 0SA,55.057409000000000,-6.057975000000000
