name,postcode,lat,lon
Marmoset and Greenbul,DG7 1EB,54.940579492443100,-3.928430000000000
pit viper and Quetzal,DG7 1ES,54.937143798600500,-3.931562839460570
tree snake and Dolphin,DG7 1HS,54.941083952776800,-3.926818292172460
Night heron and mountain devil,DG7 1JH,54.941453700338300,-3.918217888256880
Mink and sand viper,DG7 1JJ,54.942084608885800,-3.916967694860310
mamba and cobra,DG7 1LA,54.943943223674500,-3.922208602606800
boomslang and Eagle,DG7 1LD,54.946325330931700,-3.924461482319950
blue racer and Jerboa,DG7 2ND,54.993131000000000,-4.082905000000000
Darwin's finches and habu,DG7 3BQ,54.997493770130400,-3.998015958671580
diamond python and Moluccan boobook,DG7 3DU,55.094507365493500,-3.934726154337180
turtle and grass snake,DG7 3DZ,55.104220965703200,-4.016303677169790
Herring gull and Chickadee,DG7 3EB,55.085876548790600,-4.004001000000000
swift and boa,DG7 3EJ,54.950167867243100,-3.920756794152780
Maya and viper,DG7 3NA,54.998770947286400,-4.009962063838780
swift and whip snake,DG7 3NE,55.009754070087600,-4.042885039699630
diamondback turtle and River dolphin,DG7 3PZ,55.077752000000000,-4.083541000000000
thorny devil and habu,DG7 3QA,55.086448053981200,-4.101559360105260
sea snake and Darwin's finches,DG7 3RB,55.073462314528500,-4.140462000000000
loggerhead and bull snake,DG7 3RH,55.074049926761500,-4.140556000000000
python and gavial,DG7 3RW,55.071504143775600,-4.141078572893980
Rabbit and Lemming,DG7 3UA,55.146998000000000,-4.169430000000000
