name,id,postcode,lat,lon
Ibex and Stilt,1318067,DG8 6DR,54.963316673501600,-4.485148588038660
diamond python and frill-necked lizard,1318037,DG8 6AW,54.959290000000000,-4.473730000000000
Tahr and alligator,990942,KA26 0QD,55.135299709515300,-4.824678837168650
Mamo and Ground sloth,1317832,DG8 6RU,55.008639107723500,-4.639590943453080
sea snake and B,1318072,DG8 6DX,54.966171015576600,-4.490069000000000
Egret and tiger snake,1318085,DG8 6EQ,54.956210336516700,-4.483631943481000
Maya and Grosbeak,1318084,DG8 6EP,54.957704251531100,-4.484427079473180
Crow and coral snake,1317840,DG8 6SL,54.974796501542700,-4.495640724440200
Dolphin and thorn lizard,1318210,DG8 6QF,54.949653000000000,-4.502718000000000
Bronzewing pigeon and perentie,1318186,DG8 6PA,54.959716884215900,-4.470804374832140
habu and Dolphin,1318307,DG8 0EN,54.975530407402400,-4.668845962517730
Thicketbird and Mole,990938,KA26 0PX,55.107090442761100,-4.765531818057540
Meadowlark and Prion,1318144,DG8 6JW,54.953282408494900,-4.481748785941830
Recurvebill and Gila monster,1318193,DG8 6PJ,54.964074762867000,-4.483242505925790
brown snake and diamondback terrapin,1318091,DG8 6EX,54.955829858523500,-4.484655007541510
Perching duck and Flameback,1317727,DG8 6RE,54.991685136977300,-4.529223931564480
Snipe and perentie,1318066,DG8 6DQ,54.964054000000000,-4.486069000000000
black snake and Cloud rat,1317826,DG8 6RL,55.041665000000000,-4.576431820957370
puff adder and Darwin's finches,1318180,DG8 6NT,54.961208601531500,-4.478332104688700
Duck and taipan,1318094,DG8 6HA,54.955296552233300,-4.486996302582160
