name,postcode,lat,lon
tortoise and Triller,LL40 2AW,52.766731000000000,-3.788100000000000
Triller and green turtle,LL40 2BS,52.795688905958200,-3.789851562253710
puff adder and Black cockatoo,LL40 2DG,52.763923232065000,-3.815390247031850
chuckwalla and anaconda,LL40 2DN,52.773413651268500,-3.810344477748200
Wader and Komodo dragon,LL40 2EB,52.785274214357800,-3.852728731480170
Prion and leathery turtle,LL40 2EY,52.755244020262300,-3.877371874323470
Parrotbill and bandy-bandy,LL40 2HW,52.795406000000000,-3.891012000000000
Fox and massasauga,LL40 2RR,52.752377679602300,-3.826023370726970
caiman and Warbler,LL40 2SU,52.759991903791800,-3.902148510314830
Recurvebill and Towhee,LL40 2TA,52.757884970852700,-3.907376991538450
goanna and agamid,LL40 2TT,52.752948667013600,-3.949956227312650
Tit-tyrant and mud turtle,LL40 2TY,52.755457000000000,-3.826997000000000
Puffleg and Civet,LL41 4DY,52.938981096670400,-3.958476688666950
kabaragoya and snake,LL41 4EU,52.937115409618600,-3.976666494021100
Chicken and mountain devil,LL41 4LA,52.957405000000000,-3.954054000000000
saltwater crocodile and bandy-bandy,LL41 4LF,52.970406688663500,-3.927491417439800
blindworm and diamond snake,LL41 4NU,52.960593648763000,-3.930523945027400
agama and tokay,LL41 4PH,52.966465109660900,-3.930382000000000
Zebra and Solitaire,LL41 4PY,52.948588167110500,-3.912365289735630
Shearwater and soft-shelled turtle,LL41 4RR,52.902466814984800,-3.924012624591510
hoop snake and blind snake,LL41 4RW,52.902188707292800,-3.923420404755430
Fulmarine petrel and Perching duck,LL41 4TA,52.904334000000000,-3.920898000000000
Bronzewing pigeon and garter snake,LL41 4TN,52.915889000000000,-3.918019000000000
jew lizard and dugite,LL44 2EL,52.787266070128300,-4.096529148204880
gavial and Kākāriki,LL44 2EQ,52.786027000000000,-4.095491000000000
snapping turtle and Dolphin,LL45 2LD,52.820752158520900,-4.100916620662050
goanna and Stilt,LL45 2PX,52.819158000000000,-4.120860000000000
Greenbul and Black jay,LL46 2TH,52.846475000000000,-4.082111000000000
elapid and jew lizard,LL46 2TL,52.843326490250300,-4.074980800313450
flying dragon and monitor,LL46 2UG,52.862096052216000,-4.113907362305740
Puffleg and Quetzal,LL46 2YH,52.859281000000000,-4.108452000000000
Darwin's finches and soft-shelled turtle,LL47 6TY,52.902996758699200,-4.064820890352160
Zebra and Pheasant,LL47 6UG,52.903327453829000,-4.063899821329640
loggerhead and horned viper,LL48 6AD,52.929656710671000,-4.066774424669440
gopher snake and crocodile,LL48 6BA,52.929487000000000,-4.074450251262720
Kite and Mamo,LL48 6DD,52.933855916448000,-4.066230556271560
bearded lizard and monitor,LL48 6HP,52.927258327733200,-4.090792359141520
Maya and thorn lizard,LL48 6HY,52.920164965704000,-4.097903193775430
Capuchin and king cobra,LL48 6LQ,52.956062000000000,-4.063255000000000
Dolphin and tree snake,LL48 6LR,52.930443318929200,-4.065487670504100
tokay and turtle,LL48 6NP,52.933971283766300,-4.065283712065730
whip snake and Guillemot,LL48 6NR,52.933302000000000,-4.066115000000000
bandy-bandy and Greenbul,LL48 6PD,52.931751433157800,-4.068332458121130
Jay and Mamo,LL48 6RW,52.932001770614400,-4.070992980194310
slowworm and Jackal,LL48 6SF,52.956389402720200,-4.065056942425090
frill-necked lizard and rock snake,LL49 9BW,52.926792580086500,-4.132160483649330
caiman and Puffleg,LL49 9DF,52.927995000000000,-4.128872000000000
agamid and Coati,LL49 9HW,52.930305000000000,-4.135323740841090
sand viper and alligator,LL49 9LP,52.925012000000000,-4.128740000000000
Chickadee and Rat,LL49 9PB,52.926725909297000,-4.134996000000000
Capuchin and cayman,LL49 9SB,52.943217010600000,-4.163599031655010
Mamo and perentie,LL49 9SL,52.932969177099700,-4.154591039553090
black snake and Songlark,LL49 9TE,52.953602000000000,-4.120245000000000
diamond python and Badger,LL51 9YU,52.955717000000000,-4.184635000000000
