name,postcode,lat,lon
Two Doves Coffee and Gift Shop Overton,LL13 0EE,52.9690,-2.9348
The Trotting Mare,LL13 0LE,52.9487,-2.9305
Meze Greek Restaurant,SY12 0AW,52.9080,-2.8934
The vault,SY12 0DE,52.9071,-2.8941
cherry tree cafe,SY12 0DG,52.9064,-2.8962
Black Lion Hotel,SY12 0EG,52.9068,-2.8954
Coco coffee bar ,SY12 0EG,52.9068,-2.8954
The Corner House ,SY12 0EP,52.9071,-2.8931
ELLESMERE CUISINE LTD,SY12 0ET,52.9066,-2.8922
The Red Lion Coaching Inn,SY12 0HD,52.9082,-2.8899
The Boathouse Ellesmere,SY12 0PA,52.9036,-2.8822
Sun Inn,SY12 0PH,52.9098,-2.8408
CHESTERS FISH AND CHIPS,SY13 1AA,52.9691,-2.6817
Jones's coffee house,SY13 1AA,52.9691,-2.6817
Swallow Chinese Restaurant,SY13 1AA,52.9691,-2.6817
The Wheatsheaf Whitchurch Limited,SY13 1AD,52.9693,-2.6818
Benjamins's,SY13 1AW,52.9691,-2.6833
The Black Bear,SY13 1AZ,52.9702,-2.6846
Etzio Italian kitchen ,SY13 1BB,52.9699,-2.6849
Reubens Bar and BBQ,SY13 1BG,52.9692,-2.6850
fiona's coffee shop,SY13 1DP,52.9679,-2.6831
the bulls head,SY13 1DP,52.9679,-2.6831
Cafe Bon Sol,SY13 1DW,52.9686,-2.6834
Nicky bs Cakes and Catering Limited,SY13 1DW,52.9686,-2.6834
The Dodington Lodge,SY13 1EN,52.9654,-2.6799
McDonald's,SY13 1JZ,52.9669,-2.7054
Blue Water Spices Indian Ltd,SY13 1QP,52.9696,-2.6785
Holly Farm Garden Centre and Nursery,SY13 2DD,52.9103,-2.6609
Bull and Dog,SY13 2RA,52.9044,-2.7015
Midway Truck Stop Ltd,SY13 3JT,52.9377,-2.6615
The Raven Cafe,SY13 3JT,52.9377,-2.6615
White Lion Ash Community Pub Limited,SY13 4DR,52.9528,-2.6406
The Olde Jack Inn,SY13 4PA,52.9326,-2.5953
Veeranar Limited,SY4 1BZ,52.7715,-2.9229
the old three pigeons,SY4 1DB,52.7672,-2.9165
Adi exclusive ltd T/A Admiral Spice ,SY4 2AY,52.7911,-2.8533
Adi exclusives Ltd trade as Admiral spice ,SY4 2AY,52.7911,-2.8533
New Inn Baschurch,SY4 2EF,52.7919,-2.8577
Mercure Albrighton Hall Hotel & Spa,SY4 3AG,52.7609,-2.7467
Sparrows Cafe Battlefield 1403,SY4 3DB,52.7526,-2.7201
The Red Lion,SY4 3RP,52.8103,-2.7884
mumbai lounge limited,SY4 4HP,52.7879,-2.6537
The Fox and Hounds,SY4 4JG,52.7865,-2.6483
The Stanton Arms,SY4 4LR,52.8118,-2.6412
Maypole court cafe bistro ,SY4 5AA,52.8558,-2.7232
The Castle Hotel,SY4 5AA,52.8558,-2.7232
Wem Truly Scrumptious Catering Company Limited,SY4 5DG,52.8555,-2.7247
Junoon,SY4 5DR,52.8552,-2.7275
Hawkstone Hall & Gardens,SY4 5LG,52.8652,-2.6233
The Happy Cafe,SY4 5SD,52.8641,-2.7062
The Dickin Arms,SY4 5SR,52.8576,-2.7847
The Burlton Inn,SY4 5TB,52.8308,-2.8087
Old Rectory Hotel,SY4 5UA,52.8577,-2.7320
Hawkstone Park Hotel,SY4 5UY,52.8573,-2.6429
The Lion Inn,TF6 6NP,52.7708,-2.5445
Ternhill Farm House ,TF9 3PX,52.8856,-2.5444
Castle Inn,TF9 3RZ,52.8992,-2.5636
