name,postcode,lat,lon
The Greyhound,LE12 5AG,52.785516691197100,-1.125095479605480
Cafe  Mash,LE12 5TQ,52.787087000000000,-1.100514919090700
The Windmill Inn,LE12 6TT,52.804336463114000,-1.103817000000000
The Three Crowns,LE12 6TZ,52.806076000000000,-1.109151000000000
Generous Briton,LE12 6XD,52.831560476908200,-1.150637000000000
Village Pub Barrow Limited,LE12 8JS,52.755753000000000,-1.152348000000000
Soar Bridge Inn,LE12 8PN,52.750156508244100,-1.151346000000000
The Bengal Tandoori and Balti Restaurant ,LE12 8PN,52.750156508244100,-1.151346000000000
The Moorings ,LE12 8PN,52.750156508244100,-1.151346000000000
Sysonby Knoll Hotel,LE13 0HP,52.765773589634600,-0.905045174732481
Quorn Lodge hotel,LE13 0HR,52.766944446493200,-0.892684372993326
Wildfig catering,LE13 0PB,52.770338252920200,-0.892212891629867
La Perla Restaurant ,LE13 0PP,52.764149548335300,-0.887983060510611
New Apurba ,LE13 0PP,52.764149548335300,-0.887983060510611
Subway ,LE13 0TR,52.765069361657900,-0.888285689620715
Mary's Place Cafe,LE13 1AE,52.763728084278400,-0.885222388044282
Amore Restaurant,LE13 1AF,52.762595000000000,-0.885019519039184
Harboro Hotel,LE13 1AF,52.762595000000000,-0.885019519039184
Melton spice ,LE13 1AF,52.762595000000000,-0.885019519039184
PURPLE GARLIC,LE13 1AF,52.762595000000000,-0.885019519039184
Coco cafe,LE13 1BU,52.764895805061000,-0.885118467329268
Cafe Smiles,LE13 1JY,52.769221598888200,-0.888165119936964
The Market Tavern,LE13 1JY,52.769221598888200,-0.888165119936964
AMICI,LE13 1NN,52.765923000000000,-0.888224987049214
TRUT LTD (trading as Spice Club),LE13 1NW,52.765815033503800,-0.887660000000000
CM Restaurants (Holdings) Ltd,LE13 1RB,52.764529090970300,-0.880932000000000
Soi Indian restaurant ,LE13 1RF,52.765904365476100,-0.881476361907548
54a king street coffee shop,LE13 1XB,52.764986019250100,-0.886109156340199
DESSERT CUPBOARD LTD,LE13 1XD,52.764393518304200,-0.886198376225926
Miss B's Tearooms,LE13 1XD,52.764393518304200,-0.886198376225926
More Coffee Co,LE13 1XD,52.764393518304200,-0.886198376225926
The Glass Pantry,LE13 1XH,52.764725388962800,-0.884203935745685
The Elms Cafe,LE13 1XJ,52.764383294498200,-0.884153396454464
sit and settle,LE13 1XJ,52.764383294498200,-0.884153396454464
Browsers Tea Shop,LE13 1XY,52.764925071510500,-0.884406323062826
TOGA RESTAURANT LTD T/A BELLINI,LE13 1YE,52.765471000000000,-0.885919000000000
The Plough Inn,LE14 3AH,52.858174383523100,-0.975884487779967
The Tap & Run,LE14 3BG,52.828923444203000,-0.987629958800401
Blue Bell Inn,LE14 3DT,52.750743777988300,-1.008466285954190
The Anchor Inn,LE14 3HB,52.823712637109900,-0.971413000000000
The Crown Inn,LE14 3LF,52.808286480865200,-1.006149113752720
J & L Sysonby Holdings Limited,LE14 3QU,52.763407000000000,-0.923348000000000
NAGS HEAD,LE14 4BN,52.871587448871700,-0.895652649755062
The Kings Arms,LE14 4DW,52.809614000000000,-0.870993000000000
The Plough Inn,LE14 4HW,52.871999399094300,-0.854665863061536
Fox & Grapes,NG1 1DL,52.953194669781200,-1.137671000000000
Marys kitchen,NG1 1DL,52.953194669781200,-1.137671000000000
Blend Coffee House Ltd,NG1 1DS,52.954265000000000,-1.138946000000000
GB CAFE LTD,NG1 1DS,52.954265000000000,-1.138946000000000
subway,NG1 1EE,52.954186000000000,-1.139305000000000
Nonsuch Kitchen,NG1 1EH,52.954421285168200,-1.140863545391510
Saracens ,NG1 1EH,52.954421285168200,-1.140863545391510
31K,NG1 1FE,52.953877443822800,-1.142734943315210
Shanghai Shanghai Restaurant,NG1 1FE,52.953877443822800,-1.142734943315210
Yolk,NG1 1FE,52.953877443822800,-1.142734943315210
Viva Street Food,NG1 1FF,52.953546488790000,-1.142770000000000
DESI DOWN TOWN,NG1 1FH,52.953863369962200,-1.140532000000000
Paris Nottingham Limited,NG1 1HF,52.951277300730500,-1.144929650787180
ROCKET (NOTTINGHAM) LTD,NG1 1HF,52.951277300730500,-1.144929650787180
Deli-Cious Chocolate at The Robe Room,NG1 1HN,52.950751057471100,-1.144908000000000
Hungry Pumpkin,NG1 1HN,52.950751057471100,-1.144908000000000
Provenance Tapas,NG1 1HN,52.950751057471100,-1.144908000000000
Anoki,NG1 1JU,52.952557216419800,-1.141659586644240
Mandarin,NG1 1JZ,52.953525688186500,-1.141327835025960
Nottingham Bowl,NG1 1JZ,52.953525688186500,-1.141327835025960
Scunthorpe Bowl,NG1 1JZ,52.953525688186500,-1.141327835025960
Mowgli Street Food - Nottingham,NG1 1LG,52.953435539506900,-1.143785617482040
The Angel Microbrewery,NG1 1LG,52.953435539506900,-1.143785617482040
Oscar & Rosie's,NG1 1LH,52.952853000000000,-1.143812000000000
Saltbox ,NG1 1LY,52.952710080142300,-1.140585000000000
Bonzai Sushi & Noodle Bar,NG1 1NL,52.953639000000000,-1.144433363661500
Hockley Kitchen,NG1 1NL,52.953639000000000,-1.144433363661500
Sexy Mama Love Cicchetti,NG1 1NL,52.953639000000000,-1.144433363661500
bar Iberico,NG1 1NL,52.953639000000000,-1.144433363661500
Six Barrel Drafthouse Hockley,NG1 1NN,52.953458658460100,-1.144499633280350
UGLY BREAD BAKERY,NG1 1NN,52.953458658460100,-1.144499633280350
the hockley arts club,NG1 1NU,52.953321692779700,-1.144204639503060
Debbie Bryan,NG1 1PF,52.953099236184400,-1.144521608627070
Annies Burger Shack,NG1 1PR,52.951967455868400,-1.143397841659950
THE LACEHOUSE,NG1 1PS,52.951789835335800,-1.143403000000000
penny lane,NG1 1QQ,52.952780583719500,-1.145360000000000
josephines tea lounge & bistro,NG1 2AB,52.954808468742100,-1.150962993307060
Cookieshake UK Limited,NG1 2AD,52.955304195650800,-1.148631154054800
Kings Walk Kitchen,NG1 2AE,52.955372972194800,-1.149448505704130
Petit Paris Limited,NG1 2AE,52.955372972194800,-1.149448505704130
The Filthy Vegan,NG1 2AE,52.955372972194800,-1.149448505704130
Route One,NG1 2AG,52.955259211975800,-1.149882415225500
BARBURRITO,NG1 2AS,52.954292359744000,-1.149186884242720
French Living,NG1 2AY,52.954718533754200,-1.149699506689520
T4,NG1 2AY,52.954718533754200,-1.149699506689520
The Alchemist Nottingham,NG1 2AY,52.954718533754200,-1.149699506689520
Georges Great British Kitchen,NG1 2BL,52.954345000000000,-1.150138000000000
REDS TRUE BARBECUE,NG1 2BL,52.954345000000000,-1.150138000000000
The Soulville Steakhouse (Nottingham),NG1 2BL,52.954345000000000,-1.150138000000000
Debenhams Restaurant Nottingham,NG1 2DS,52.954061381309800,-1.150828770503260
WOK & GO ,NG1 2EA,52.953672237858800,-1.145448054077240
The Kitchen On Pelham Street,NG1 2EG,52.953507769444600,-1.146329501518060
Tier Lounge Ltd,NG1 2EG,52.953507769444600,-1.146329501518060
Fox Cafe Limited,NG1 2EH,52.953790998181100,-1.146963978731890
Delilah Fine Foods Ltd,NG1 2EX,52.953153379981200,-1.146486000000000
Red Dog Saloon - Nottingham,NG1 2EX,52.953153379981200,-1.146486000000000
das kino,NG1 2FZ,52.952339000000000,-1.146081789076880
Cafe Contemporary,NG1 2GB,52.951588891844700,-1.145757022178080
Baresca,NG1 2GJ,52.951946272996700,-1.146702578828280
CROSS KEYS,NG1 2GJ,52.951946272996700,-1.146702578828280
Coco Tang,NG1 2GJ,52.951946272996700,-1.146702578828280
The Tap House Nottingham,NG1 2GJ,52.951946272996700,-1.146702578828280
White Rabbit Teahouse,NG1 2HB,52.952548000000000,-1.146482000000000
200 Degrees,NG1 2HN,52.952777966614700,-1.148606327485160
Geek Retreat Nottingham ,NG1 2HN,52.952777966614700,-1.148606327485160
Starbucks South Parade,NG1 2JS,52.952790104094900,-1.150302934026010
B Sweet,NG1 2NA,52.952598691238600,-1.149934571057170
Exchange Walk McDonalds,NG1 2NX,52.952690641432500,-1.148965271610430
SUHAN RESTAURANT,NG1 3AA,52.954580242441400,-1.142959212948810
Suede,NG1 3AA,52.954580242441400,-1.142959212948810
Sexy Mama Loves Spaghetti,NG1 3AF,52.953955785037500,-1.143626495220570
U CANTEEN LTD,NG1 3AF,52.953955785037500,-1.143626495220570
Balti House Tandoori,NG1 3AG,52.954825284443100,-1.143281846607940
Botti di Mamma,NG1 3AJ,52.954149895617000,-1.144366915617460
dolce restaurant ,NG1 3AJ,52.954149895617000,-1.144366915617460
BOHNS Best Burgers,NG1 3AL,52.954084000000000,-1.143774969209250
KAYAL RESTAURANT,NG1 3AL,52.954084000000000,-1.143774969209250
Million Doner,NG1 3BA,52.955120731750000,-1.144362644297140
Curious Tavern,NG1 3BE,52.954088584396900,-1.144771000000000
PEGGYS SKYLIGHT LIMITED,NG1 3BH,52.954193000000000,-1.145274000000000
subway,NG1 3DJ,52.954330000000000,-1.146790000000000
MOJO Nottingham,NG1 3DR,52.953921442101000,-1.146351127895700
Roxy Ball Room Nottingham,NG1 3DR,52.953921442101000,-1.146351127895700
Yamas Meze & Tapas,NG1 3DR,52.953921442101000,-1.146351127895700
Chopstix Nottingham,NG1 3ED,52.954282873442500,-1.147862294921800
Clumber Street McDonalds,NG1 3ED,52.954282873442500,-1.147862294921800
BISTROT PIERRE - NOTTINGHAM,NG1 3EN,52.956213606364400,-1.148613000000000
kfc,NG1 3EN,52.956213606364400,-1.148613000000000
Mayfair Restaurant,NG1 3FN,52.960305445017400,-1.150319406757800
The Golden Fleece,NG1 3FN,52.960305445017400,-1.150319406757800
Prickly Pear,NG1 3FQ,52.961162730497900,-1.150779003964180
Lincolnshire Poacher,NG1 3FR,52.962065274102400,-1.151282396414440
Six Barrel Drafthouse Victoria,NG1 3GX,52.957595237225300,-1.148452192222580
The Dice Cup,NG1 3GY,52.959048000000000,-1.149068573497790
Terrace Coffee Lounge,NG1 3JR,52.958740000000000,-1.146313689155970
The Mushy Pea Stall,NG1 3PT,52.956466395027600,-1.146805000000000
Clean Cut Kitchen,NG1 3QE,52.957402000000000,-1.147652000000000
Victoria Centre McDonalds,NG1 3QG,52.956509289072800,-1.147446393481430
Caffe Rizzoli Prosecco Bar,NG1 3QN,52.957777000000000,-1.147287000000000
Chopstix Nottingham Victoria,NG1 3QN,52.957777000000000,-1.147287000000000
Muffin Break,NG1 3QN,52.957777000000000,-1.147287000000000
Pokéwaves,NG1 3QN,52.957777000000000,-1.147287000000000
subway,NG1 3QN,52.957777000000000,-1.147287000000000
Alanya Catering Ltd,NG1 4AA,52.955402491751400,-1.149805178686880
Glasshouse,NG1 4AF,52.955865000000000,-1.148818991955290
The Pudding Pantry,NG1 4AF,52.955865000000000,-1.148818991955290
GINSECCO,NG1 4DB,52.955818823868800,-1.150198927908870
SY101 Limited t/a Alto,NG1 4DB,52.955818823868800,-1.150198927908870
The Lost City Adventure Golf,NG1 4DB,52.955818823868800,-1.150198927908870
subway,NG1 4DB,52.955818823868800,-1.150198927908870
tamatanga,NG1 4DB,52.955818823868800,-1.150198927908870
The Playwright,NG1 4FQ,52.957755549913800,-1.150756421570080
chunky chicken nottingham ltd,NG1 4FQ,52.957755549913800,-1.150756421570080
Dancing Dragon restaurant ,NG1 5BB,52.955564363992200,-1.161204336241230
Tough Marys Bakehouse Ltd,NG1 5FD,52.955418122901600,-1.158319379020020
The Strathdon Hotel,NG1 5FT,52.955284274300500,-1.157190682773420
Best Western Plus Nottingham City Centre,NG1 5FW,52.955408000000000,-1.155491000000000
The Stage,NG1 5FW,52.955408000000000,-1.155491000000000
Damas cafe and restaurant ,NG1 5GE,52.955717536378100,-1.159534000000000
MOGAL E AZAM RESTAURANT,NG1 5JS,52.955774281999300,-1.152775014224660
ROYAL EXPRESS CAFE,NG1 5JS,52.955774281999300,-1.152775014224660
Belgrave Rooms LTD,NG1 5LB,52.956487958643700,-1.153267189123590
Crowne Plaza Nottingham,NG1 5RH,52.955483000000000,-1.153446879959790
The Castle,NG1 6AA,52.950679532577300,-1.153097802547400
Watson Fothergills,NG1 6AA,52.950679532577300,-1.153097802547400
World Service Restaurant,NG1 6AF,52.950818360148000,-1.152233000000000
NAN TEI ,NG1 6AJ,52.951434304283000,-1.151788143483090
KASPAS,NG1 6BJ,52.950906969393300,-1.152215207915200
the cumin restaurant,NG1 6BJ,52.950906969393300,-1.152215207915200
Britannia Nottingham Hotel,NG1 6BN,52.952287000000000,-1.153959000000000
Bierkeller ,NG1 6DA,52.952205382560000,-1.151505142808410
Ned Ludd,NG1 6DA,52.952205382560000,-1.151505142808410
Kitty Cafe Nottingham Ltd,NG1 6DD,52.951804415119100,-1.152004168541680
Cafe Sobar (Double Impact Synergy CIC),NG1 6DQ,52.952380087924400,-1.152052449624970
SOUTHBANK BAR,NG1 6DQ,52.952380087924400,-1.152052449624970
The Specialty Coffee Shop,NG1 6DQ,52.952380087924400,-1.152052449624970
Crafty Crow,NG1 6EB,52.951312843679100,-1.153665914794730
Oz Bar,NG1 6FH,52.952758974265500,-1.152371000000000
St James (Nottingham) Ltd T/A St James Hotel,NG1 6FL,52.951724518500000,-1.154239000000000
Harts Hotel,NG1 6FN,52.951495677583400,-1.156624293282860
The Roundhouse,NG1 6FS,52.951830000000000,-1.155397000000000
The Maharaja's Retreat ,NG1 6GF,52.951950000000000,-1.153284738931300
Laguna Tandoori Nottingham,NG1 6HE,52.952478153017200,-1.154461819964880
Angel Row McDonalds,NG1 6HL,52.953543286484000,-1.152550674837570
CRESCENT PARTNERS LTD,NG1 6HL,52.953543286484000,-1.152550674837570
HD NOTTINGHAM LTD,NG1 6HL,52.953543286484000,-1.152550674837570
Taco Bell,NG1 6HL,52.953543286484000,-1.152550674837570
Grosvenor Casino Nottingham,NG1 6HS,52.952764000000000,-1.154114000000000
MemSaab Restaurant,NG1 6HS,52.952764000000000,-1.154114000000000
The Calcutta Club Ltd ,NG1 6HS,52.952764000000000,-1.154114000000000
WOLF Italian Street Food,NG1 6HW,52.954531000000000,-1.150906452461920
COPPER,NG1 6HX,52.954587481302300,-1.151488302864100
Pieminister Nottingham,NG1 6JB,52.953978616649300,-1.151827686903220
Kushi-ya,NG1 6JE,52.954004000000000,-1.152661000000000
MISS KOREA,NG1 6JE,52.954004000000000,-1.152661000000000
Pepe's Piri Piri City Centre,NG1 6JE,52.954004000000000,-1.152661000000000
Zaap Thai Street Food,NG1 6JG,52.953254087300000,-1.153181625600000
Fat Cat Nottingham,NG1 6JQ,52.954334698626500,-1.153859984986140
Mans Restaurant,NG1 6JQ,52.954334698626500,-1.153859984986140
TIGER NOTT LTD TRADING AS SUSHIMANIA,NG1 6JS,52.953988391941100,-1.154089000000000
Persian Empire Ltd,NG1 6LD,52.954540133670500,-1.152649000000000
May Sum Buffet Restaurant,NG1 6LF,52.954906450436200,-1.153508000000000
Pan Asia BBQ,NG1 6LF,52.954906450436200,-1.153508000000000
Starbucks Upper Parliament Street,NG1 6LF,52.954906450436200,-1.153508000000000
Hounds Gate Teahouse,NG1 7AB,52.951915208898200,-1.151153596933410
Cartwheel Cafe and Roastery,NG1 7DL,52.951369722795600,-1.147785579456040
Esculent,NG1 7DL,52.951369722795600,-1.147785579456040
The Magic Garden,NG1 7DL,52.951369722795600,-1.147785579456040
Canalhouse,NG1 7EH,52.948100095479500,-1.149397655313460
The Waterfront,NG1 7EH,52.948100095479500,-1.149397655313460
200 Degrees,NG1 7FE,52.948177000000000,-1.147331684115510
Barley Twist,NG1 7FE,52.948177000000000,-1.147331684115510
CURED,NG1 7FE,52.948177000000000,-1.147331684115510
The Framebreakers,NG11 6DT,52.892129492392600,-1.149170604726600
BlackCat Cafe (Ruddington) Ltd,NG11 6EA,52.891331019906400,-1.149394325244740
PHILOS,NG11 6EH,52.891952385543800,-1.149545665644720
The Bottle Top,NG11 6EH,52.891952385543800,-1.149545665644720
The Next Episode,NG11 6EN,52.893382488645000,-1.149651458661720
The Ruddington Arms,NG11 6EQ,52.894697000000000,-1.149756906403340
White Horse Inn & Kitchen,NG11 6HD,52.891587838827400,-1.151366161304650
TS CUISINE LIMITED,NG11 6LB,52.893490451270200,-1.145903547736070
Wellingtons Cafe,NG11 6PQ,52.872055000000000,-1.125465000000000
The Rancliffe Arms,NG11 6QT,52.860670750836400,-1.133685158486620
The Tailors Arms,NG11 7AX,52.925388293165900,-1.157251000000000
The Radcliffe,NG12 1AW,52.952663107311700,-1.031421924317030
The Humble Cat ,NG12 2AE,52.947687015459600,-1.039688928197120
The Chestnut,NG12 2BE,52.946456642787400,-1.044299994872930
Piano (Radcliffe on Trent),NG12 2FD,52.946447000000000,-1.039657000000000
Mewar Haveli,NG12 2LF,52.934548562406300,-1.079898000000000
Venezia,NG12 2NL,52.944617600227500,-1.006391571444190
plough inn,NG12 3AB,52.926251789470400,-0.983010968152738
Sarsfield's Chocolaterie and Tearooms,NG12 3ED,52.871941000000000,-0.986644000000000
The Nevile Arms,NG12 3EH,52.873408361616800,-0.991215396032155
THE MARTINS ARMS,NG12 3FD,52.890508000000000,-0.964109000000000
The Nottinghamshire Golf and Country Club Limited,NG12 3HB,52.928039991353800,-1.061740000000000
Grannies Tearooms,NG12 3JS,52.912406772159600,-1.038954000000000
Edwalton Golf Course,NG12 4AS,52.913022004841200,-1.109992686572720
Notcutts Wheatcroft,NG12 4DE,52.903710983076600,-1.124813378920600
The Air Hostess Ltd,NG12 4EA,52.900360889236000,-1.098760124061540
CHARDE ORIENTAL RESTAURANT,NG12 4EN,52.898716047559400,-1.098631000000000
Alices Tea Shop,NG12 5AD,52.869632772867200,-1.090304960318200
Stanton on the Wolds Golf Club Limited,NG12 5BH,52.870993069531300,-1.067486389976310
Gillmoores at Moores Nurseries and Garden Centre LTD,NG12 5BQ,52.872286000000000,-1.051205000000000
Keyworth Tavern,NG12 5DW,52.872481924879700,-1.079726494764210
Indian nights ,NG12 5JT,52.870913000000000,-1.090650000000000
Perkins Bar & Bistro,NG12 5NA,52.888438256144500,-1.087845529952060
The Griffin Inn Plumtree,NG12 5NB,52.892397754260300,-1.090720358317400
THE THATCH RESTAURANT,NG13 0AA,52.941718008620000,-0.805622688738765
The Poppy Seed,NG13 0AH,52.942089056933700,-0.803186808872577
Little jacks farm & garden centre ltd,NG13 0AU,52.944150000000000,-0.814098000000000
Pauls Restaurant,NG13 0BW,52.941809000000000,-0.802064000000000
Windmill Inn,NG13 0GA,52.910559970736400,-0.815565742497240
Anchor Inn,NG13 0JJ,52.898869285702700,-0.860321000000000
Yeung Sing Cantonese Restaurant,NG13 8AB,52.951595000000000,-0.952975000000000
Butlers Coffee House,NG13 8AD,52.951679553186200,-0.953553809815101
Horse & Plough,NG13 8AF,52.951399278240600,-0.954394097283109
Rose & May,NG13 8AF,52.951399278240600,-0.954394097283109
COPPER,NG13 8AP,52.952651683671500,-0.952041000000000
Number Sixteen,NG13 8AP,52.952651683671500,-0.952041000000000
The White Lion,NG13 8AT,52.950501000000000,-0.959521000000000
Costa Bingham,NG13 8BD,52.952189889117400,-0.953468000000000
The Wheatsheaf Bingham,NG13 8BG,52.951227463977900,-0.954279165742706
Indian Nights,NG13 8LA,52.973257000000000,-0.952631000000000
The Unicorns Head ,NG13 9HE,52.904071793151100,-0.925529754840399
Langar Hall,NG13 9HG,52.904568000000000,-0.929547000000000
Wildflower Farm & Tearoom,NG13 9HP,52.900174000000000,-0.913911000000000
abm catering at John Deere,NG13 9HT,52.896182923131200,-0.912152669093573
The Orston Durham Ox LTD,NG13 9NS,52.962560000000000,-0.855237000000000
Vat & Fiddle,NG2 1NB,52.945594543218400,-1.148494332058260
Embankment,NG2 2GR,52.939159045251500,-1.138651084548400
Brewhouse and Kitchen Nottingham,NG2 2GS,52.938666000000000,-1.137515000000000
Virgin Active Nottingham,NG2 3AE,52.946890000000000,-1.138542000000000
HOPS COFFEE HOUSE & BAR,NG2 3AJ,52.947683000000000,-1.146173101403820
Starbucks Bentinck Hotel,NG2 3AJ,52.947683000000000,-1.146173101403820
THE BENTINCK HOTEL,NG2 3AJ,52.947683000000000,-1.146173101403820
Hooters Restaurant,NG2 3AS,52.946184000000000,-1.144063000000000
kfc,NG2 3GG,52.946806000000000,-1.128156000000000
subway,NG2 3GZ,52.945447000000000,-1.132931000000000
TRENT NAVIGATION INN,NG2 3HS,52.940997000000000,-1.137856000000000
THE MARKET CAFE NOTTM,NG2 3JJ,52.944630000000000,-1.135521000000000
Eden Softplay,NG2 3LH,52.942524948179500,-1.141664641361860
Colwick Hall Hotel,NG2 4BH,52.945319067629900,-1.105789000000000
The Cheesecake Shop Colwick,NG2 4DH,52.946476000000000,-1.123698000000000
Scoops Express,NG2 4HJ,52.953765948730300,-1.122523376112010
Papas Wok,NG2 4HU,52.954367497734000,-1.122421892318670
The Dale’s Grill,NG2 4HU,52.954367497734000,-1.122421892318670
Cheff,NG2 5BL,52.938172437627800,-1.119327179713490
Bread and Butterflies,NG2 5BN,52.938447874529900,-1.118890077284430
Poppy & Pint,NG2 5DX,52.936499640703500,-1.119227220250400
cafe pizza,NG2 5FB,52.937790948756300,-1.134705425480610
Bombay Bridgford,NG2 5FF,52.937892000000000,-1.133558000000000
Bridgford Restaurant & Fish Bar,NG2 5FF,52.937892000000000,-1.133558000000000
Cuzina ,NG2 5FF,52.937892000000000,-1.133558000000000
Delhi Nights ,NG2 5FF,52.937892000000000,-1.133558000000000
Trent Bridge McDonalds,NG2 5FX,52.938703830607700,-1.129226337649620
WATERSIDE BAR & KITCHEN,NG2 5GJ,52.938261043766400,-1.134682000000000
Birds Bakery,NG2 5GQ,52.931849529556800,-1.126194978135810
COPPER,NG2 5GQ,52.931849529556800,-1.126194978135810
Yumacha Bar Brasserie,NG2 5GQ,52.931849529556800,-1.126194978135810
NO.8 DELICATESSEN,NG2 5LN,52.929921674187400,-1.125638721093380
Yumuchi Japanese Bar & Restaurant,NG2 5LN,52.929921674187400,-1.125638721093380
Tiffin Teahouse,NG2 5NG,52.929875816277700,-1.120641050512110
Larwood and Voce,NG2 6AJ,52.937264241903800,-1.130281899887980
Gusto Italian,NG2 6AP,52.933625266039000,-1.129298491192030
THE PARLOUR,NG2 6AP,52.933625266039000,-1.129298491192030
The Black Pearl ,NG2 6AP,52.933625266039000,-1.129298491192030
Escabeche,NG2 6AU,52.932237305889400,-1.127585662395070
Stratford Haven,NG2 6BA,52.931350000000000,-1.130209391613640
THE REFINERY,NG2 6EP,52.927105000000000,-1.129920000000000
Rushcliffe Arena,NG2 7HY,52.922438951468700,-1.138715122304120
Curry 2 Night ,NG2 7PL,52.935318201845000,-1.133385901582410
Aziz Khan Limited,NG2 7RS,52.918674145792100,-1.152725716472330
Lowe's  No.8 Coffee Shop,NG2 7RS,52.918674145792100,-1.152725716472330
PENTO LIMITED,NG2 7RS,52.918674145792100,-1.152725716472330
The Dorset,NG2 7RS,52.918674145792100,-1.152725716472330
Unicorfee,NG3 2DG,52.954604113751500,-1.136319925390240
Stonebridge City Farm,NG3 2FR,52.957889653491000,-1.131982090291200
Toros Steakhouse Nottingham,NG3 7EE,52.959353361027600,-1.112287207501610
The Chequers Inn,NG32 1LU,52.898080869406300,-0.756234000000000
The Fuel Tank,NG32 1PA,52.896135866304100,-0.783105961469369
Cafe Allez! Belvoir Castle,NG32 1PE,52.894737811257900,-0.782654566104432
The Geese and Fountain,NG32 1QR,52.852812000000000,-0.761982000000000
The Manners Arms,NG32 1RH,52.872907652814200,-0.773652848441627
The Wheel Inn,NG32 1RU,52.856746587651500,-0.799325000000000
Everest Bhansaghar,NG4 1JA,52.965774000000000,-1.113570000000000
Piginns cafe ,NG4 1JD,52.966137234540100,-1.109274000000000
The Waiting Room Nottingham ltd,NG4 2LA,52.964327340528000,-1.078269000000000
Victoria Retail Park McDonalds,NG4 2PE,52.960908000000000,-1.065137000000000
subway,NG4 2PE,52.960908000000000,-1.065137000000000
Mamas ventures ltd trading as Mamas Food Xpress,NG4 3BP,52.966700000000000,-1.086299622478500
Amores Restaurant,NG4 3FG,52.971495176439700,-1.082286114227240
Cafe118,NG4 3GP,52.970355298495400,-1.076711344038440
The Gedling Inn,NG4 3HL,52.974852237637400,-1.080472619270950
The Wrinkly Lettuce Cafe LTD,NG4 3HP,52.972690146661700,-1.081039702804100
Willowbrook,NG4 3HQ,52.972865175764100,-1.081586979251430
Heidis cafe,NG4 3JN,52.972849155397900,-1.085339993934380
Proark UK Hotels Ltd t/a Mercure Nottingham Sherwood Hotel,NG5 2BT,52.970062000000000,-1.153059314443720
Homemade Cafe,NG5 2BU,52.966094904810600,-1.152871083168700
Grill Town (Sherwood),NG5 2DA,52.972547286222400,-1.152581148834250
Masala Junction Restaurant,NG5 2DA,52.972547286222400,-1.152581148834250
The Cheesecake Shop Carrington,NG5 2DA,52.972547286222400,-1.152581148834250
The Cods Scallops,NG5 2DA,52.972547286222400,-1.152581148834250
COTSWOLD HOTEL,NG5 2EF,52.971933752276400,-1.152265540489820
Castle Marina McDonalds,NG7 1GX,52.945732000000000,-1.161394000000000
Ultimate Cafe Nottingham ,NG7 1GX,52.945732000000000,-1.161394000000000
Ultimate Cafe Nottingham,NG7 1GX,52.945732000000000,-1.161394000000000
