name,postcode,lat,lon
taipan and Macaw,NE19 1AD,55.232087303030000,-2.100756204859230
Ibex and Philippine hawk-owl,NE19 1BN,55.210010000000000,-2.104983000000000
swift and rat snake,NE19 1JH,55.250719178373500,-2.220292215358050
Stint and Komodo dragon,NE19 1JT,55.229258416689200,-2.177881217254150
Peafowl and bearded dragon,NE19 1LB,55.231636102953200,-2.208473004789120
Elephant and tuatara,NE19 1LL,55.236430620965500,-2.182929501235820
amphisbaena and Moluccan boobook,NE19 1NQ,55.231700190700000,-2.176131416900000
Viscacha and jew lizard,NE19 1RE,55.286591737522800,-2.264828120867040
carpet snake and king snake,NE19 2RL,55.182796022277400,-2.093094000000000
blue tongue and Meadowlark,NE19 2SL,55.168077339721900,-2.011273181540790
Black cockatoo and galliwasp,NE48 1AL,55.176525506138000,-2.393947098892450
jew lizard and adder,NE48 1AP,55.175803000000000,-2.357623000000000
B and leathery turtle,NE48 1LY,55.181414688927100,-2.326707000000000
tiger snake and monitor,NE48 1NU,55.166052968903000,-2.328574718909490
swift and diamond python,NE48 1RP,55.213511581801900,-2.302878000000000
Vulture and Philippine hawk-owl,NE48 2DU,55.153132249886800,-2.273217000000000
blind snake and Kangaroo,NE48 2TD,55.165071247121000,-2.128746678993000
monitor and black snake,NE48 2TE,55.156364608832000,-2.099199440264430
diamond python and skink,NE65 7AA,55.331526621979000,-2.096989563331610
American sparrow and Schneider python,NE65 7AN,55.297416400138100,-2.054494239474260
rattlesnake and caiman,NE65 7BN,55.363955310253100,-2.183454905910770
tokay and Fulmarine petrel,NE65 7DX,55.370344358435100,-2.053821775074300
sand lizard and Polecat,NE65 7HB,55.363292104720200,-2.019028116122650
