name,postcode,lat,lon
White ibis and lizard,DG1 3NE,55.167500107045300,-3.530495268441790
Puffleg and Skunk,DG1 3NG,55.167893101255300,-3.491543588810840
thorn lizard and turtle,DG10 9AQ,55.334304189906900,-3.444298446610640
Kangaroo and B,DG10 9BD,55.332746473826000,-3.436170246548540
goanna and Dorcopsis,DG10 9BF,55.334655611964300,-3.438887916829010
Maya and Quetzal,DG10 9BJ,55.333467651331100,-3.439034034194860
Zebra and River dolphin,DG10 9JA,55.336396946250500,-3.448190009530530
Ground sloth and Old World warbler,DG10 9JF,55.334698011057600,-3.445952386504980
diamondback turtle and chuckwalla,DG10 9JQ,55.334565507255900,-3.445758374455930
Dorcopsis and perentie,DG10 9NF,55.238805195759300,-3.406343652605460
Flameback and wall lizard,DG10 9NN,55.250008273897700,-3.362281264608190
diamondback terrapin and sea snake,DG10 9PG,55.304026506411400,-3.436045803458330
Black jay and Crow,DG10 9RE,55.299451000000000,-3.456180000000000
mud turtle and tree snake,DG10 9SG,55.311816020921800,-3.455944084171950
Perching duck and tokay,DG10 9SL,55.331769297522900,-3.479644499319640
River dolphin and carpet snake,DG11 1BG,55.217421717639100,-3.416781165829280
Nukupu ªu and Tit-tyrant,DG11 1EQ,55.213491138575900,-3.416295717453790
Badger and elapid,DG11 1LZ,55.152058348419600,-3.483419694322800
rat snake and Piping shrike,DG11 2LW,55.230006362402600,-3.284173643090520
Magpie and thorny devil,DG11 2NQ,55.155844449338500,-3.287109686227500
diamondback terrapin and Greenbul,DG11 2NU,55.185855448425900,-3.255659553159770
B and Wader,DG11 2NZ,55.192134137340400,-3.287824343082430
box turtle and Grouse,DG11 2RW,55.155969052056100,-3.360846971546280
