name,postcode,lat,lon
Dolphin and giant tortoise,NE24 1RB,55.150094677550900,-1.524080902540180
slowworm and perentie,NE24 1RX,55.157397544478900,-1.530318645575280
tiger snake and perentie,NE61 1BX,55.170380177166000,-1.693513612688330
carpet snake and boa,NE61 1EE,55.170767944909000,-1.690324000000000
White ibis and Solitaire,NE61 1LX,55.167634253823100,-1.691446848050740
Zebra and Cuscus,NE61 1NT,55.167573883318800,-1.689030000000000
Marsh harrier and Marmoset,NE61 1PS,55.167075943935200,-1.690980227780120
bearded dragon and frilled lizard,NE61 1QE,55.166242171760900,-1.691740139166670
Meadowlark and Mole,NE61 1RJ,55.169722468247300,-1.700049285167490
Mouse and Grackle,NE61 1SU,55.167896857295600,-1.685072000000000
bearded dragon and Logrunners,NE61 1TE,55.167870000000000,-1.681540000000000
Tit-tyrant and Vole,NE61 2AP,55.160367000000000,-1.693744000000000
giant tortoise and lizard,NE61 2BW,55.152507477579100,-1.686589180239230
racer and Bronzewing pigeon,NE61 2DR,55.152655000000000,-1.691248000000000
Chipmunk and Petrel,NE61 2FE,55.152067000000000,-1.691235000000000
deaf adder and Kangaroo,NE61 2HA,55.159526831282700,-1.673382081399480
green turtle and gopher snake,NE61 2NU,55.178468595580900,-1.682805000000000
tokay and rock python,NE61 2NY,55.176651240600000,-1.681250075600000
Petrel and Mole,NE61 2PJ,55.165670649349200,-1.700393614359830
frilled lizard and White ibis,NE61 2PS,55.162805000000000,-1.689820000000000
Gull and Fox,NE61 2RG,55.159915374377900,-1.698663210062070
Solitaire and king snake,NE61 2RU,55.160822415340500,-1.680779611828650
Kite and Goose,NE61 2SX,55.159814578475800,-1.687175417122870
Myna and Stint,NE61 2TA,55.160995729990400,-1.688735700903160
ringhals and Komodo dragon,NE61 2YH,55.153546148091000,-1.671516446253260
Duck and frill-necked lizard,NE61 2YQ,55.153175310829700,-1.673967465828730
Viscacha and Fox,NE61 3BA,55.259215684776600,-1.660529000000000
Magpie and blue racer,NE61 3DF,55.205640000000000,-1.703613000000000
coral snake and habu,NE61 3EL,55.245584000000000,-1.704355000000000
worm lizard and Herring gull,NE61 3FJ,55.179752000000000,-1.709550000000000
hoop snake and tokay,NE61 3FQ,55.180527000000000,-1.710298000000000
bandy-bandy and copperhead,NE61 3JS,55.176922881391000,-1.704831313343690
amethystine python and Parrotlet,NE61 3NA,55.195038000000000,-1.651694000000000
soft-shelled turtle and Civet,NE61 3RE,55.172859612046900,-1.707891382640510
terrapin and Kangaroo,NE61 3RR,55.174528895708600,-1.703294635918130
python and wall lizard,NE61 3SS,55.174061340421400,-1.710661561941560
Dorcopsis and Komodo dragon,NE61 5AN,55.284574303830700,-1.603508721352400
cayman and White ibis,NE61 5BF,55.287211854045700,-1.604962481450790
Gila monster and Grouse,NE61 5DZ,55.257522131289000,-1.599278212100150
Kite and Mouse,NE61 5ED,55.253933000000000,-1.600762000000000
Armadillo and Goose,NE61 5EN,55.256689927456600,-1.600340688563260
mountain devil and indigo snake,NE61 5JE,55.221514823271100,-1.569664000000000
Stilt and tortoise,NE61 5LH,55.221496118410800,-1.567211628543510
Chicken and Shearwater,NE61 5NJ,55.235503470544800,-1.615019646982680
Fox and Goose,NE61 5NP,55.235927923545900,-1.615691713898890
Logrunners and leguaan,NE61 5PA,55.219835346134700,-1.567669757704190
blind snake and harlequin snake,NE61 5PL,55.244887656254100,-1.627558845206400
Jackal and Magpie,NE61 5QA,55.244085000000000,-1.632395000000000
Armadillo and Bronzewing pigeon,NE61 5QP,55.240318084066600,-1.611607698347600
worm lizard and Prion,NE61 5RB,55.237838508995200,-1.611773377555570
Tree warbler and brown snake,NE61 5RF,55.238928939892600,-1.609938553285860
box turtle and blind snake,NE61 5SD,55.216513506250100,-1.589112000000000
Night heron and Schneider python,NE61 5SP,55.213584726104400,-1.589535507569120
goanna and Francolin,NE61 5TB,55.214334462398000,-1.545113000000000
Chicken and caiman,NE61 5TG,55.213003924562200,-1.537663806737770
gavial and leguaan,NE61 5XZ,55.212894004379600,-1.541876892777490
krait and mud turtle,NE61 6JD,55.165038631989400,-1.674373000000000
agama and Buzzard,NE61 6JY,55.166235309313700,-1.665542000000000
Fish eagle and Fulmarine petrel,NE61 6NP,55.163344144782900,-1.643544000000000
monitor and Moluccan boobook,NE61 6PU,55.210410979292500,-1.599845557285030
Elephant and Badger,NE61 6QL,55.177208670036900,-1.619569000000000
Magpie and Booted eagles,NE61 6YL,55.179072386014800,-1.654206873405250
Moluccan boobook and Booted eagles,NE61 9BJ,55.167869153065200,-1.691947368696870
krait and racer,NE61 9GN,55.167865000000000,-1.691960000000000
Vole and chuckwalla,NE61 9SW,55.156682230125700,-1.688643713861620
Snipe and thorn lizard,NE61 9UB,55.152932036648200,-1.683965283161390
Chicken and B,NE61 9UP,55.152932036648200,-1.683965283161390
gopher snake and Cloud rat,NE61 9WF,55.152932036648200,-1.683965283161390
Recurvebill and Thicketbird,NE61 9WX,55.152932036648200,-1.683965283161390
whip snake and Black jay,NE62 5AH,55.166643655224000,-1.590001838051250
mud turtle and Stint,NE62 5AN,55.166083691780600,-1.589159927478660
bushmaster and Minke whale,NE62 5AQ,55.166230946642100,-1.590194437868740
Logrunners and Parrotlet,NE62 5AW,55.166242312148000,-1.588232155174320
Dorcopsis and Diving bird,NE62 5DP,55.161168869245900,-1.600134371502690
tiger snake and gavial,NE62 5HB,55.160799604560500,-1.591741138329490
king snake and agama,NE62 5HZ,55.163964965163600,-1.581804370291310
cerastes and Bronzewing pigeon,NE62 5NQ,55.167391029408500,-1.601312271113890
Ice seal and Fox,NE62 5PQ,55.159792564808300,-1.607995525172180
milk snake and giant tortoise,NE62 5PY,55.161320614422100,-1.625292550027090
amethystine python and Condor,NE62 5QP,55.160845751501900,-1.597516503178320
sand viper and Cloud rat,NE63 0BJ,55.180679078112900,-1.563885071469630
Chicken and terrapin,NE63 0BP,55.181782794624100,-1.563449032345080
hognose snake and Meadowlark,NE63 0BX,55.179958543242300,-1.563421852701200
Buzzard and sea snake,NE63 0EE,55.176885134034900,-1.568417108830990
Partridge and New World blackbird,NE63 0EY,55.176976331254000,-1.573629000000000
king cobra and cobra de capello,NE63 0FD,55.170965000000000,-1.545057000000000
Civet and Wader,NE63 0HS,55.167672887052100,-1.555455896753010
Nukupuʻu and Ground sloth,NE63 0HT,55.168552049175900,-1.555053664405530
Towhee and saltwater crocodile,NE63 0LH,55.173431871753600,-1.565141658871200
turtle and tortoise,NE63 0LS,55.175715511051100,-1.565477937774210
rock snake and Philippine hawk-owl,NE63 0NF,55.171150558117500,-1.560440993433930
indigo snake and glass snake,NE63 0RZ,55.181668268013800,-1.569150620866090
cayman and iguana,NE63 0TE,55.169281773869300,-1.555563594756180
fer-de-lance and bearded lizard,NE63 0TP,55.171382129609400,-1.550014063263020
Siskin and Dorcopsis,NE63 0TZ,55.171084738544300,-1.554680090715040
tree snake and Condor,NE63 8BF,55.184348000000000,-1.591750000000000
swift and Siskin,NE63 8DQ,55.178627696495200,-1.578494810538010
Jerboa and Scimitar babbler,NE63 8DY,55.178939914601100,-1.577832019832420
Kangaroo and Piping shrike,NE63 8EG,55.176196278341100,-1.574406724901910
leathery turtle and gecko,NE63 8LP,55.171580448821300,-1.583074857755990
Herring gull and Stilt,NE63 8LU,55.170904510299400,-1.577273215228650
constrictor and tree snake,NE63 8PF,55.183974686036000,-1.589133037746620
Treepie and moloch,NE63 8RS,55.183488775683300,-1.575805242014630
snake and Gull,NE63 8RZ,55.184283083740500,-1.574242070687960
Marmoset and brown snake,NE63 8SN,55.188131000000000,-1.593095000000000
Mockingbird and flying dragon,NE63 8TG,55.187554570200000,-1.594593406900000
Goose and Triller,NE63 8TL,55.175748615900000,-1.582685956935340
Schneider python and alligator,NE63 8TW,55.186462368265300,-1.596787335758490
B and Gila monster,NE63 8UA,55.169731948203100,-1.568321649304950
slowworm and boomslang,NE63 9AA,55.183902000000000,-1.567776000000000
Marmoset and boomslang,NE63 9AG,55.185188212587300,-1.565893182120690
Myna and bull snake,NE63 9DL,55.183677206955300,-1.560491649181400
mamba and Viscacha,NE63 9EQ,55.178432589541200,-1.541816666998190
gavial and Zebra,NE63 9ES,55.186221049338500,-1.555752103913550
Black cockatoo and Linsang,NE63 9FR,55.184902741374600,-1.558954813665240
puff adder and Marmoset,NE63 9GF,55.179872000000000,-1.540810000000000
Mamo and milk snake,NE63 9JJ,55.184309327474100,-1.546601956279440
Vulture and Magpie,NE63 9WS,55.179697000000000,-1.546889000000000
Goose and blue racer,NE63 9XH,55.183193793120000,-1.573672629214950
tuatara and diamond python,NE63 9YG,55.188022503757800,-1.549559645914850
Pratincole and bandy-bandy,NE63 9YN,55.201186462183400,-1.528028338038860
Nukupuʻu and agamid,NE64 6AL,55.185327000000000,-1.509857000000000
worm lizard and Puffleg,NE64 6AS,55.186941150510300,-1.509161560189890
mud turtle and Tahr,NE64 6AZ,55.187259063749300,-1.507775556686120
Cuscus and Rat,NE64 6DJ,55.188126984406100,-1.506853914610940
Towhee and Duck,NE64 6DZ,55.186159530005400,-1.506972432714030
Zebra and Booted eagles,NE64 6HN,55.185625000000000,-1.514580000000000
Zebra and Rabbit,NE64 6HZ,55.187421703645400,-1.519270133728290
Bunting and carpet snake,NE64 6JB,55.188596990112800,-1.521077905733260
Kākāriki and worm lizard,NE64 6LH,55.186183055676400,-1.512830192231710
Cloud rat and Kestrel,NE64 6NL,55.184721744729200,-1.511434592715770
Logrunners and Skunk,NE64 6NS,55.183127156615200,-1.516967000000000
Stint and Capuchin,NE64 6PB,55.182401589319600,-1.515498823720820
python and bull snake,NE64 6PG,55.182877237490000,-1.517613085435630
fer-de-lance and horned toad,NE64 6PL,55.184222851272400,-1.514661000000000
cayman and Stilt,NE65 0DA,55.333984439640600,-1.583784284284290
Guillemot and sand viper,NE65 0EJ,55.331345510574900,-1.584631576481000
Old World warbler and diamond snake,NE65 0ES,55.331989620949700,-1.583789416081030
green turtle and Mamo,NE65 0FB,55.335877000000000,-1.582725771700000
python and king cobra,NE65 0FE,55.338591000000000,-1.612065000000000
Parrotlet and Gull,NE65 0GB,55.326880471609700,-1.598342813273850
Minke whale and giant tortoise,NE65 0HN,55.321948000000000,-1.598267000000000
Condor and water snake,NE65 0HR,55.317170418049600,-1.604948507533950
rock snake and garter snake,NE65 0LA,55.332129543564500,-1.585301183098940
Badger and king snake,NE65 0LE,55.332748920619800,-1.587769523251040
bandy-bandy and Scimitar babbler,NE65 0QJ,55.333029453490700,-1.575219106557500
Petrel and Snipe,NE65 0QL,55.332871052353900,-1.576182351471830
horned viper and Mole,NE65 0RA,55.330919400057900,-1.573097980536320
Myna and Hawk,NE65 0RT,55.330354968580800,-1.573576908396690
perentie and blind snake,NE65 0TE,55.341929051916600,-1.614304247878330
Flameback and Booted eagles,NE65 0TS,55.341339091033000,-1.615287497406260
racer and gavial,NE65 0UR,55.348330040372800,-1.612460160289780
Badger and Thicketbird,NE65 0UY,55.340598111108400,-1.613970313910090
worm lizard and diamond snake,NE65 0WU,55.337504846700000,-1.590258523100000
agama and River dolphin,NE65 0ZB,55.341052000000000,-1.617165000000000
tree snake and sand lizard,NE65 9DT,55.303985000000000,-1.711968000000000
Peafowl and cycling lizard,NE65 9FE,55.271663368369000,-1.677373762127840
Argus and Boto,NE65 9PT,55.299723000000000,-1.711860632170710
rattlesnake and Herring gull,NE65 9RQ,55.293931305895100,-1.596124321060100
amphisbaena and Black cockatoo,NE65 9UB,55.307206594510500,-1.613821861689700
Solitaire and cobra,NE65 9UZ,55.308210807808300,-1.610299118162550
crocodile and Komodo dragon,NE65 9YD,55.295691439357200,-1.606815355260060
boa and king snake,NE66 2EW,55.370390910391600,-1.677865464921270
Capuchin and diamond python,NE66 2UR,55.369836498788500,-1.682335072377410
tuatara and Dolphin,NE66 2XY,55.369689843363700,-1.698965943034920
hoop snake and Crow,NE66 3QH,55.372278379944400,-1.636352032247340
