name,postcode,lat,lon
diamond snake and Partridge,NE19 1AT,55.232449944998000,-2.176810574139020
Bunting and turtle,NE19 1AX,55.231315000000000,-2.101336000000000
Treepie and frill-necked lizard,NE19 1AZ,55.232621620792400,-2.106874000000000
Marmoset and Perching duck,NE19 1BL,55.216140000000000,-2.118727000000000
Marmoset and tuatara,NE19 1TA,55.265694460587700,-2.245915388519220
diamond snake and Ice seal,NE48 2HZ,55.157782342541600,-2.259280707599550
Herring gull and rock python,NE48 2RG,55.164276895743000,-2.154957160721300
alligator and Dorcopsis,NE48 2RY,55.175821593769000,-2.170074955057930
Myna and Black cockatoo,NE48 2SJ,55.177279163126100,-2.148020495568980
diamondback and Mole,NE61 4BH,55.165704517699500,-1.983457450167120
mud turtle and black snake,NE61 4PG,55.238982449851600,-1.891761644210240
skink and Marsh harrier,NE65 7AE,55.329228000000000,-2.068361000000000
fer-de-lance and black snake,NE65 7EE,55.305396000000000,-1.897594000000000
Elephant and elapid,NE65 7EN,55.326714426740500,-1.956598589961790
Jay and Zebra,NE65 7HP,55.333172886165500,-1.985185853320700
Warbler and racer,NE65 7HU,55.313277974662200,-1.949160959225560
Pratincole and Diving bird,NE65 7JP,55.345076463222800,-1.944973507577370
White ibis and Black cockatoo,NE65 7JQ,55.326038492062600,-1.951052000000000
Meadowlark and Snipe,NE65 7LY,55.315159414537900,-1.958265511425460
ringhals and harlequin snake,NE65 7NN,55.300517000000000,-1.944956000000000
Francolin and rattlesnake,NE65 7PD,55.311485000000000,-1.908233000000000
Grouse and loggerhead,NE65 7PW,55.311387000000000,-1.898387000000000
Black cockatoo and cobra,NE65 7RX,55.305755679471100,-1.914547111261010
Rabbit and Ground sloth,NE65 7TR,55.305146000000000,-1.916218000000000
lizard and Argus,NE65 7XQ,55.311414218322900,-1.899473695480080
tiger snake and Mink,NE65 7XZ,55.311370212210800,-1.912376714829070
