name,id,postcode,lat,lon
sand lizard and Wallaby,885206,LL65 1HL,53.312552724491700,-4.633118733805780
gavial and Old World vulture,884735,LL65 2RB,53.303261361808000,-4.621844379256740
whip snake and anaconda,885260,LL65 1NP,53.311337643375300,-4.639679702232480
Marsh harrier and habu,885212,LL65 1HU,53.315092674665000,-4.635362173925930
Tit-tyrant and Mole,885242,LL65 1LR,53.311369060643700,-4.656076018160000
slowworm and Jay,885094,LL65 2NG,53.306069831550500,-4.627825897193430
Songlark and Lemming,885055,LL65 2HN,53.309606570231100,-4.625235908122630
Parrotlet and Ibex,2617786,LL65 1NQ,53.311766000000000,-4.634981000000000
Rat and king cobra,884731,LL65 2QD,53.282395068997800,-4.627842483743440
Diving bird and chameleon,884771,LL65 2SY,53.299258995505800,-4.628130000000000
king snake and bandy-bandy,884991,LL65 2DB,53.306794891217600,-4.628380841204890
boa constrictor and harlequin snake,884928,LL65 1UD,53.311164000000000,-4.632147000000000
Ice seal and Mamo,885179,LL65 1DR,53.315621876121700,-4.624824519007830
grass snake and Ice seal,885250,LL65 1NA,53.312249863831000,-4.639901168470360
viper and tokay,885223,LL65 1LL,53.311817708037400,-4.651674952126970
Thicketbird and puff adder,885018,LL65 2EL,53.308300879839800,-4.617965003695410
White ibis and hognose snake,884945,LL65 1YP,53.312614975278200,-4.662699365642810
Polecat and Towhee,885279,LL65 1PS,53.313135656616000,-4.636848014694760
anole and box turtle,884973,LL65 2BD,53.306514475275800,-4.633752699804990
Mamo and blind snake,885300,LL65 1SB,53.308199000000000,-4.637309000000000
flying lizard and Solitaire,884772,LL65 2SZ,53.302500476057000,-4.625775379066210
Civet and cobra,885042,LL65 2FE,53.306951107287700,-4.633524394113400
Skunk and Tahr,885104,LL65 2NU,53.304922893600800,-4.626122000000000
thorn lizard and terrapin,885090,LL65 2NB,53.301700074485100,-4.634747077571520
Triller and rattlesnake,885176,LL65 1DJ,53.308789427248100,-4.629674386099950
Fulmarine petrel and box turtle,885265,LL65 1NW,53.309469075016900,-4.644473430947360
Black cockatoo and wall lizard,884955,LL65 2AF,53.307489929368900,-4.634368211070200
