name,postcode,lat,lon
copperhead and Vole,LL55 1AE,53.141173891569400,-4.274257773893960
jew lizard and hognose snake,LL55 1AY,53.142490000000000,-4.272697000000000
Dorcopsis and water snake,LL55 1EE,53.142338808248600,-4.261250528799340
slowworm and Coati,LL55 1HE,53.143439879014200,-4.265285956758200
Chicken and viper,LL55 1HJ,53.145969366000900,-4.265598586261540
Crow and king snake,LL55 1LW,53.151510070742500,-4.263587170239760
anole and boomslang,LL55 1PP,53.140738645323200,-4.273038583833290
Peafowl and gopher snake,LL55 1PT,53.140794089922500,-4.269944000000000
Treepie and Ground sloth,LL55 1RF,53.140323000000000,-4.275566729578680
Egret and Snipe,LL55 1RR,53.140163745588400,-4.276078000000000
Scimitar babbler and blindworm,LL55 1RT,53.141267049052500,-4.276909294708290
smooth snake and Petrel,LL55 1SY,53.141870000000000,-4.274680769052640
cycling lizard and Songlark,LL55 1UL,53.161993735280200,-4.220127761615560
Bronzewing pigeon and Quetzal,LL55 1YD,53.169438027949300,-4.203679791997350
Chicken and Piping shrike,LL55 1YP,53.166262199411300,-4.201362620493130
Chicken and Lemming,LL55 1YY,53.165041715838800,-4.201240288436870
Armadillo and Schneider python,LL55 2BS,53.142199279239800,-4.253437835657200
Linsang and Zebra,LL55 2DD,53.139966000000000,-4.266957000000000
snapping turtle and slowworm,LL55 2DW,53.139177261868200,-4.260605945828440
Ground sloth and Grackle,LL55 2EA,53.138992754154400,-4.256589201492740
Badger and dukite,LL55 2EH,53.137552475097900,-4.259997308312900
worm lizard and Vulture,LL55 2EP,53.137315996469900,-4.262152000000000
Skunk and blue tongue,LL55 2LE,53.137247095925500,-4.269430366269420
Mink and tree snake,LL55 2RN,53.139010000000000,-4.267116000000000
Grackle and Black cockatoo,LL55 2SH,53.133407000000000,-4.244958712179100
pit viper and boomslang,LL55 4BS,53.154459235771600,-4.193953104949890
Macaw and tuatara,LL55 4HJ,53.130340733531800,-4.210751663698310
Fulmarine petrel and Rat,LL55 4QA,53.146504184442700,-4.196718334763380
sand lizard and leathery turtle,LL55 9ZX,53.140375110240300,-4.277475141742080
brown snake and water snake,LL56 4QB,53.192048046845600,-4.189151081231200
constrictor and king snake,LL56 4QG,53.186572527788100,-4.193557061744900
Black jay and sidewinder,LL56 4QX,53.188363786712400,-4.209006422499220
taipan and Perching duck,LL60 6AL,53.223519406253600,-4.234456178233890
flying lizard and diamondback terrapin,LL60 6BL,53.222732573772500,-4.269889851304370
blindworm and sea snake,LL60 6DP,53.213535000000000,-4.269463000000000
Buzzard and horned toad,LL60 6DS,53.212942283971500,-4.267964145603710
bearded dragon and whip snake,LL60 6EG,53.209215808120800,-4.252895000000000
indigo snake and Elephant,LL60 6HA,53.211995381295100,-4.253431230257490
swift and Stilt,LL60 6LA,53.226942664009200,-4.292301565100980
Moluccan boobook and Prion,LL60 6NE,53.192432615873800,-4.334113152645530
agama and Boto,LL60 6NJ,53.190789122668800,-4.333559772867040
wall lizard and River dolphin,LL61 5BA,53.226573000000000,-4.201300000000000
Stilt and Diving bird,LL61 5JG,53.223188529804800,-4.205900299967120
B and Ice seal,LL61 5JY,53.223832093878100,-4.199296766114370
pit viper and snake,LL61 5NY,53.221733000000000,-4.199075000000000
Night heron and boa,LL61 5YX,53.221634000000000,-4.214164000000000
Ibex and cobra de capello,LL61 6HZ,53.179016024608100,-4.269700000000000
racer and mountain devil,LL61 6NT,53.217743130517800,-4.199419079241900
Linsang and sea snake,LL61 6RN,53.162827096406800,-4.324831083464820
Minke whale and Darwin's finches,LL61 6RY,53.164356399808700,-4.359518008283190
Eagle and Night heron,LL61 6SJ,53.191201000000000,-4.270454000000000
loggerhead and Siskin,LL61 6SY,53.165548346537800,-4.357443971289300
habu and Ibex,LL61 6TR,53.167090155982100,-4.363573073215480
Jackal and Pheasant,LL61 6UF,53.178369268942700,-4.274729240786930
wall lizard and king snake,LL61 6YL,53.167504084397900,-4.321059282510230
diamondback terrapin and Chicken,LL61 6YR,53.166022828554400,-4.324480000000000
diamondback terrapin and racer,LL61 6YZ,53.166518854374500,-4.324551953771370
dugite and carpet snake,LL62 5AB,53.199992000000000,-4.403850000000000
leathery turtle and Pheasant,LL62 5AN,53.193257723114900,-4.389071207374310
Masked owl and Armadillo,LL62 5AR,53.193863705031300,-4.387547914734400
gavial and Lemming,LL62 5BA,53.185421457204100,-4.379444906582670
Grosbeak and Grackle,LL62 5HU,53.196371443203200,-4.422585000000000
Buzzard and elapid,LL62 5LP,53.179830198963500,-4.416880322950110
Wallaby and Scimitar babbler,LL63 5AX,53.200368000000000,-4.455475471150600
Night heron and Jerboa,LL63 5LX,53.191639610936500,-4.463190073570320
brown snake and Hawk,LL63 5RS,53.226237445525200,-4.477941685633420
Gull and crocodile,LL63 5RX,53.209109000000000,-4.465885000000000
agamid and Mockingbird,LL63 5UD,53.238882411877600,-4.479077102059980
racer and Mouse,LL63 5UF,53.241038303374700,-4.466611912371680
Goose and snapping turtle,LL63 5YH,53.219640356958000,-4.472632086230270
fer-de-lance and elapid,LL63 5YN,53.203343000000000,-4.487183000000000
diamondback terrapin and New World blackbird,LL64 5JR,53.219254461276500,-4.509566411325500
gecko and Boto,LL64 5JY,53.229863449228000,-4.521095614547400
puff adder and B,LL64 5YX,53.227509721454100,-4.522275797764830
deaf adder and Meadowlark,LL64 5YZ,53.226352450909200,-4.523001841480860
Polecat and Viscacha,LL65 3AJ,53.289550424345400,-4.414999663542020
Parakeet and giant tortoise,LL65 3AZ,53.283950741334000,-4.404241809265910
diamondback turtle and Tree warbler,LL65 3BF,53.292119749238700,-4.565713644942890
box turtle and Gull,LL65 3BP,53.297493000000000,-4.559642000000000
dukite and swift,LL65 3DW,53.285516000000000,-4.563877000000000
hognose snake and black snake,LL65 3EP,53.278878106784000,-4.570185489767410
soft-shelled turtle and Duck,LL65 3EU,53.281494545231100,-4.567267092347650
kabaragoya and Old World vulture,LL65 3HA,53.276378813552200,-4.575585682431520
Grouse and wall lizard,LL65 3LF,53.255587158974900,-4.547317742161690
B and diamondback turtle,LL65 3LH,53.260696251347500,-4.524409258566060
Nukupuʻu and Ibex,LL65 3LJ,53.290271713457200,-4.378683420861750
Stilt and Old World vulture,LL65 3LN,53.263420913351400,-4.523969992421660
worm lizard and mamba,LL65 3LX,53.274012138884400,-4.375275256916870
caiman and snapping turtle,LL65 3NF,53.269462499935100,-4.520171590488370
Asiatic leopard and Siskin,LL65 3PP,53.268925137341400,-4.475461618400800
Nukupuʻu and Minke whale,LL65 3PS,53.268130224098600,-4.471741307029730
gavial and gecko,LL65 3PU,53.269668000000000,-4.470934716872410
black snake and Logrunners,LL65 3SF,53.267136000000000,-4.481987000000000
Goose and taipan,LL65 4DE,53.319005097174300,-4.501334075199680
horned viper and Capuchin,LL65 4DY,53.348575668209200,-4.515071468216250
Schneider python and Old World quail,LL65 4PJ,53.258953271464800,-4.413259646414880
Bronzewing pigeon and Ibex,LL65 4RA,53.264838000000000,-4.414431000000000
carpet snake and Black jay,LL65 4TL,53.323717350462000,-4.463722077042800
Vole and sand lizard,LL65 4UG,53.310761264410900,-4.528985253577480
habu and carpet snake,LL65 4UW,53.312375385593500,-4.530882295825260
glass snake and crocodile,LL66 0BN,53.347863020393900,-4.443388228510550
Prion and Pratincole,LL71 7AP,53.294545086096900,-4.407658266180320
rat snake and Mouse,LL71 7DL,53.326983485638400,-4.393416224603370
cerastes and Ice seal,LL71 8EB,53.329794853561800,-4.373313359219430
Coati and Songlark,LL74 8AB,53.320330188100500,-4.230609649413930
Mockingbird and Macaw,LL74 8RS,53.325870245831000,-4.226878000000000
bearded lizard and Grackle,LL74 8RY,53.313448776995900,-4.246663000000000
dukite and Pitohui,LL74 8TQ,53.319265261458800,-4.228481432256720
Snipe and Quetzal,LL74 8TS,53.316620563995900,-4.225671157207900
jew lizard and Night heron,LL74 8UE,53.317807698671300,-4.229981940486060
Coati and bearded dragon,LL76 8SX,53.301013000000000,-4.232948000000000
Minke whale and Linsang,LL77 7AB,53.252172766667800,-4.312165736769430
Vole and Puffleg,LL77 7AX,53.257637000000000,-4.334080000000000
taipan and caiman,LL77 7EJ,53.265190281556400,-4.362699224867250
Tit-tyrant and king snake,LL77 7EU,53.251309998009200,-4.313587651787850
Shearwater and Ibex,LL77 7EY,53.249229724014400,-4.314224874667350
Hawk and black snake,LL77 7GD,53.246726666943700,-4.341100745752660
constrictor and swift,LL77 7HH,53.255312551566400,-4.307012182724310
Parrotlet and saltwater crocodile,LL77 7JA,53.251824000000000,-4.306150000000000
kabaragoya and Grackle,LL77 7LX,53.263910299900600,-4.375074976879890
Black jay and Logrunners,LL77 7NX,53.275859805106700,-4.308704051698580
cerastes and Stint,LL77 7RJ,53.279891827575900,-4.310346569715870
New World blackbird and Prion,LL77 7RT,53.254542098763700,-4.309654297591990
Grouse and Stilt,LL77 7TT,53.248263000000000,-4.312209000000000
tuatara and sand lizard,LL77 7UX,53.249916409867500,-4.307096480205230
Mamo and ringhals,LL77 8UX,53.291086023899800,-4.339355304368950
hoop snake and Grouse,LL78 8JY,53.315929942899900,-4.257148474768710
