name,postcode,lat,lon
Molly's Bar & Restaurant,LL54 5RS,53.135673386972200,-4.278855954106160
celtic royal hotel,LL55 1AY,53.142490000000000,-4.272697000000000
y gegin fach,LL55 1NP,53.139729537578400,-4.273149754070150
Caernarfon Tandoori,LL55 1NS,53.140464486340200,-4.272799818688110
The four alls,LL55 1RF,53.140323000000000,-4.275566729578680
The Crown,LL55 1RH,53.140854000000000,-4.276026032100110
Ty Castell,LL55 1RN,53.140598512940300,-4.277546774523640
Purple Hops Ltd trading as The Old Market Hall,LL55 1RR,53.140163745588400,-4.276078000000000
Wal,LL55 1RR,53.140163745588400,-4.276078000000000
palace vaults,LL55 1RR,53.140163745588400,-4.276078000000000
Black Boy Inn,LL55 1RW,53.140991789910100,-4.275788249903670
Anglesey Arms,LL55 1SG,53.139720245951700,-4.278337603748180
Galeri,LL55 1SQ,53.143461000000000,-4.275081000000000
Ty Winsh,LL55 1SR,53.142140000000000,-4.277853000000000
Apollo Bingo Caernarfon,LL55 1SY,53.141870000000000,-4.274680769052640
The Old Courthouse Caernarfon ,LL55 2AY,53.139765651782200,-4.276904614623240
SOPNA TANDOORI RESTAURANT,LL55 2BB,53.143358342250800,-4.234881848007320
The Mill Bistro,LL55 2BB,53.143358342250800,-4.234881848007320
PGL Enterprises Limited T/a McDonald's,LL55 2HS,53.133716484582800,-4.268810664933280
Cafe Gisda,LL55 2NA,53.139393064806600,-4.273819766828070
Copa bar and diner,LL55 2NA,53.139393064806600,-4.273819766828070
nemo,LL55 2NF,53.139767429124200,-4.274931043767160
Y Castell,LL55 2NN,53.139140126397100,-4.274823123563010
Caffi De Winton,LL55 2PF,53.137750957906400,-4.273179807887750
Villa Marina,LL55 2PN,53.138625189787500,-4.273539969361790
ROUTE 66,LL55 2SH,53.133407000000000,-4.244958712179100
Ty Mawr Tearooms,LL55 3AW,53.175803015094000,-4.156569391493420
Lodge Dinorwig,LL55 3EY,53.134517000000000,-4.117589000000000
Caban,LL55 3NR,53.142245214138300,-4.154333993116950
THE LITTLE TAVERN,LL55 3PD,53.146491296459600,-4.152707254063680
Gallt y Glyn,LL55 4EL,53.128142769058300,-4.139158986865480
SNOWDONIA WATERSPORTS LIMITED,LL55 4EL,53.128142769058300,-4.139158986865480
Brynteg Country Club & Boathouse,LL55 4RF,53.139833681757300,-4.179137788244290
La Marina,LL56 4JN,53.187144749799300,-4.205411220238490
The Swellies,LL56 4JN,53.187144749799300,-4.205411220238490
Garddfon Inn,LL56 4RQ,53.182650325128000,-4.211661123236950
THE WAVERLEY HOTEL,LL57 1LZ,53.223093952964700,-4.134602085842170
Kyffin Cafe Deli,LL57 1NT,53.224895700049300,-4.128369637313840
Torna a Surriento,LL57 1NY,53.226106372207600,-4.127017000000000
Wood Fired Shack,LL57 1NY,53.226106372207600,-4.127017000000000
Blue Sky Cafe,LL57 1PA,53.226475127175300,-4.125511562295020
Penguin cafe ,LL57 1PB,53.227084974896900,-4.125092317848550
KFC,LL57 1UL,53.228024161087300,-4.123577000000000
Templetons,LL57 1YE,53.229107304741800,-4.121087241059600
Bangor Tandoori,LL57 1YH,53.229064361727400,-4.121984079203110
Belle Vue Bangor,LL57 2EU,53.227721994461400,-4.134218097779600
TREBORTH GARDEN CENTER,LL57 2RZ,53.209974000000000,-4.167646000000000
Tap and Spile Bangor,LL57 2SW,53.236100435748900,-4.122182362192100
Y LLANGOLLEN,LL57 3AN,53.180260377505600,-4.062808905324800
Ty Golchi,LL57 4BT,53.197263050256500,-4.181781310144680
HARVEYS BANGOR,LL57 4SU,53.210297453085900,-4.148762161453340
PGL Enterprises Limited T/a McDonald's,LL57 4SU,53.210297453085900,-4.148762161453340
Bwyty Blondin Restaurant,LL57 4YG,53.167598044739200,-4.065612449172000
Mercado,LL58 8AP,53.263417084108400,-4.091476639945360
The Bull Beaumaris ,LL58 8AP,53.263417084108400,-4.091476639945360
Tredici Italian Kitchen,LL58 8AP,53.263417084108400,-4.091476639945360
The Bulkeley Hotel Ltd,LL58 8AW,53.263299519311700,-4.091515884494370
The Liverpool Arms Hotel ,LL58 8BA,53.262512647219400,-4.093831578773300
Bishopsgate House Hotel and Restaurant,LL58 8BB,53.262745638263000,-4.093183000000000
The Midland,LL58 8BB,53.262745638263000,-4.093183000000000
Pier House Cafe and Bistro,LL58 8BS,53.262770367027000,-4.091954879020670
Harry's Bistro,LL58 8HU,53.276479949619200,-4.101204111465880
Hydeout Bar-B-Q and Smokehouse,LL59 5BD,53.227291845900900,-4.163546727078280
VICTORIA HOTEL,LL59 5DR,53.224687478232600,-4.162891042449100
Bridge Tafarn limited ,LL59 5DT,53.223312931819000,-4.164929000000000
Brittania Curry house,LL59 5EE,53.226412916502300,-4.162933088334730
Harri's Portuguese Kitchen,LL59 5EE,53.226412916502300,-4.162933088334730
Freckled Angel,LL59 5EF,53.227199805467700,-4.162178708921630
Taste of India,LL59 5EF,53.227199805467700,-4.162178708921630
Dylan's Menai Bridge,LL59 5EY,53.225634653995200,-4.161230892014180
Chateau Rhianfa,LL59 5NS,53.238644179623300,-4.142971000000000
Gazelle Hotel,LL59 5PD,53.242990215001500,-4.133089618652880
Four Crosses Inn,LL59 5RP,53.232485000000000,-4.181520000000000
Libertine,LL59 5WY,53.226068000000000,-4.163611000000000
GAERWEN ARMS,LL60 6DW,53.220915817655600,-4.267561678294670
The Topiary Coffee Shop,LL60 6LA,53.226942664009200,-4.292301565100980
James Pringle Weavers of Llanfairpwllgwyngyll,LL61 5UJ,53.221184491014600,-4.208915000000000
The Penrhos Arms Hotel,LL61 5YQ,53.221517585124300,-4.209320000000000
Plas Coch 1569 Restaurant,LL61 6EJ,53.192152131550900,-4.229096487180390
Anglesey Model Village,LL61 6RS,53.156706054920100,-4.349465209425770
The Marram Grass,LL61 6RS,53.156706054920100,-4.349465209425770
Anglesey Sea Zoo and Marine Resource Center,LL61 6TQ,53.160588000000000,-4.284514000000000
The Anglesey Sea Salt Company Ltd,LL61 6TQ,53.160588000000000,-4.284514000000000
TALDRWST FARM ,LL61 6YF,53.164572678514700,-4.322920728567430
Bengal hut,LL74 8SN,53.321781810173900,-4.226600541132330
The Benllech,LL74 8SW,53.320780974978600,-4.222899739389380
Breeze Hill Hotel,LL74 8TN,53.317670066770900,-4.226281308508120
Panton Arms,LL75 8AZ,53.281920000000000,-4.215916006253040
The Bull Inn,LL75 8LJ,53.286713020978700,-4.218204515031830
Ship Inn,LL75 8RJ,53.307129000000000,-4.207690000000000
The Tavern on the Bay,LL75 8RJ,53.307129000000000,-4.207690000000000
The Coffee Hut,LL77 7DU,53.256495370393300,-4.310929020334150
Mona House coffee shop,LL77 7PH,53.255908983940700,-4.310253000000000
Alis spice ,LL77 7PN,53.255674680719800,-4.308276059147980
Popty Pizza,LL77 7TJ,53.261622103758900,-4.309901019677450
Nant yr Odyn Country Hotel Ltd,LL77 7YE,53.235540000000000,-4.327482000000000
Tafarn Y Rhos,LL77 7YU,53.244037891133100,-4.344326334280870
Benllech Tandoori,LL78 8JY,53.315929942899900,-4.257148474768710
Tandoori restaurants,LL78 8JY,53.315929942899900,-4.257148474768710
