id,postcode,lat,lon
PPL,WESTABERTHAW,51.3923,-3.4033
PPL,WESTACRE,52.7000,0.6333
ADM3,WESTALLEN,54.8464,-2.3375
PPL,WESTALVINGTON,50.2801,-3.7923
ADM4,WESTANDMIDDLECHINNOCK,50.9168,-2.7481
PPL,WESTANSTEY,51.0346,-3.6379
PPL,WESTASHBY,53.2338,-0.1047
PPL,WESTASHTON,51.2988,-2.1738
PPL,WESTAUCKLAND,54.6309,-1.7213
ADM4,WESTAYTON,54.2492,-0.4976
PPL,WESTBAGBOROUGH,51.0936,-3.1850
PPL,WESTBARCLOY,54.8500,-3.7833
PPL,WESTBARKWITH,53.3090,-0.2619
PPLX,WESTBARNES,51.3979,-0.2404
PPL,WESTBARNS,55.9938,-2.5535
PPL,WESTBARSHAM,52.8689,0.8288
PPL,WESTBAY,50.7108,-2.7611
PPL,WESTBECKHAM,52.9114,1.1819
PPL,WESTBEDFONT,51.4502,-0.4664
ADM3,WESTBEDLINGTON,55.1297,-1.6160
ADM4,WESTBERE,51.3074,1.1516
PPL,WESTBERGHOLT,51.9122,0.8499
ADM2,WESTBERKSHIRE,51.4167,-1.2500
PPL,WESTBLATCHINGTON,50.8450,-0.1857
ADM3,WESTBLETCHLEY,51.9980,-0.7621
PPL,WESTBOLDON,54.9456,-1.4505
ADM4,WESTBOROUGHANDDRYDODDINGTON,53.0082,-0.7235
PPLX,WESTBOURNE,51.5213,-0.1938
ADM4,WESTBRADFORD,53.9100,-2.3976
ADM4,WESTBRADLEY,51.1107,-2.6015
PPL,WESTBRETTON,53.6204,-1.5682
PPL,WESTBRIDGFORD,52.9298,-1.1254
PPLX,WESTBROMPTON,51.4870,-0.1910
PPL,WESTBROMWICH,52.5187,-1.9945
ADM4,WESTBUCKFASTLEIGH,50.4910,-3.8336
PPL,WESTBUCKLAND,51.0667,-3.9167
PPL,WESTBURTON,54.2833,-1.9667
PPLA3,WESTBURY,51.2600,-2.1875
PPL,WESTBURYONSEVERN,51.8237,-2.4119
PPL,WESTBURYONTRYM,51.4924,-2.6204
PPL,WESTBURYSUBMENDIP,51.2356,-2.7172
PPL,WESTBUTTERWICK,53.5423,-0.7425
PPL,WESTBYFLEET,51.3376,-0.5065
ADM4,WESTBYWITHPLUMPTONS,53.7766,-2.9564
ADM4,WESTCAISTER,52.6446,1.7065
PPL,WESTCALDER,55.8519,-3.5698
PPL,WESTCAMEL,51.0197,-2.6018
PPL,WESTCANISBAY,58.6333,-3.1333
PPL,WESTCHALDON,50.6500,-2.3167
PPL,WESTCHALLOW,51.5922,-1.4710
ADM4,WESTCHELBOROUGH,50.8443,-2.6527
PPL,WESTCHEVINGTON,55.2696,-1.6415
PPL,WESTCHILTINGTON,50.9554,-0.4494
PPL,WESTCHINNOCK,50.9182,-2.7588
PPL,WESTCLANDON,51.2606,-0.5032
PPL,WESTCLIFFE,51.1544,1.3570
PPLX,WESTCLIFFONSEA,51.5442,0.6918
PPL,WESTCOKER,50.9191,-2.6871
ADM4,WESTCOMPTON,50.7479,-2.6238
PPL,WESTCORNFORTH,54.7029,-1.5194
ADM4,WESTCOTBARTON,51.9316,-1.3790
PPL,WESTCOTE,51.8667,-1.6833
PPL,WESTCOTT,51.2244,-0.3720
PPL,WESTCOTTINGWITH,53.8500,-0.9500
ADM4,WESTCREWKERNE,50.8766,-2.8240
PPL,WESTCROACHY,57.3000,-4.2500
PPL,WESTCULTS,57.1167,-2.1833
PPL,WESTDARLOCHAN,55.4471,-5.6859
PPL,WESTDEAN,51.0426,-1.6351
ADM4,WESTDEEPING,52.6724,-0.3514
PPL,WESTDERBY,53.4328,-2.9096
PPL,WESTDEREHAM,52.5815,0.4480
ADM3,WESTDEVONDISTRICT,50.6514,-4.0325
PPLX,WESTDIDSBURY,53.4250,-2.2359
ADM3,WESTDORSETDISTRICT,50.7946,-2.6102
PPL,WESTDOWN,51.1667,-4.1167
PPL,WESTDRAYTON,51.5000,-0.4667
PPLX,WESTDULWICH,51.4378,-0.0936
ADM2,WESTDUNBARTONSHIRE,55.9667,-4.5333
PPL,WESTDUNNET,58.6259,-3.3603
PPL,WESTEALING,51.5136,-0.3229
PPL,WESTEND,50.9274,-1.3328
PPLX,WESTENDOFLONDON,51.5141,-0.1551
PPL,WESTENHANGER,51.0973,1.0391
PPL,WESTERCLYNEKIRKTON,58.0333,-3.8833
PPL,WESTERDALE,58.4500,-3.5000
PPL,WESTERFEARN,57.8500,-4.3000
PPL,WESTERFIELD,52.0846,1.1715
PPLL,WESTERFINTRAE,57.2381,-2.3141
PPL,WESTERGATE,50.8399,-0.6712
PPL,WESTERGAULRIG,57.2000,-3.3833
PPL,WESTERGRUINARDS,57.8972,-4.5074
PPL,WESTERHAM,51.2663,0.0689
PPL,WESTERINVERWICK,57.1833,-4.8000
PPL,WESTERLEIGH,51.5160,-2.4342
PPL,WESTERQUARFF,60.0951,-1.2648
PPL,WESTERRARICHIE,57.7333,-3.9667
PPL,WESTERURRAY,57.5333,-4.4833
ADM4,WESTFARLEIGH,51.2478,0.4442
PPL,WESTFELTON,52.8249,-2.9735
ADM4,WESTFEN,53.1017,-0.0248
PPL,WESTFIELD,51.8929,-1.8747
PPLX,WESTFINCHLEY,51.6071,-0.1874
PPL,WESTFIRLE,50.8447,0.0872
ADM4,WESTFIRSBY,53.3558,-0.4994
PPL,WESTGATE,54.7387,-2.1437
PPL,WESTGATEONSEA,51.3824,1.3367
PPL,WESTGERINISH,57.3500,-7.3500
PPLX,WESTGORTON,53.4682,-2.2016
PPLX,WESTGREEN,51.5922,-0.0908
PPL,WESTGRIMSTEAD,51.0393,-1.7009
PPL,WESTGRINSTEAD,50.9743,-0.3320
ADM4,WESTHADDLESEY,53.7319,-1.1514
PPL,WESTHADDON,52.3417,-1.0780
PPL,WESTHAGBOURNE,51.5865,-1.2612
PPL,WESTHAGLEY,52.4167,-2.1500
ADM4,WESTHALL,52.3787,1.5464
PPL,WESTHALLAM,52.9709,-1.3585
PPL,WESTHALTON,53.6775,-0.6301
PPL,WESTHAM,51.5333,0.0167
PPL,WESTHAMPNETT,50.8481,-0.7503
PPLX,WESTHAMPSTEAD,51.5490,-0.1914
PPL,WESTHANNEY,51.6339,-1.4138
PPL,WESTHANNINGFIELD,51.6695,0.5066
ADM3,WESTHARDWICK,53.6608,-1.3721
ADM4,WESTHARLSEY,54.3788,-1.3729
PPL,WESTHARPTREE,51.3091,-2.6317
PPLX,WESTHARROW,51.5778,-0.3573
PPL,WESTHARTING,50.9870,-0.8917
PPL,WESTHARTLEPOOL,54.6833,-1.2000
PPL,WESTHATCH,50.9833,-3.0000
PPL,WESTHAUXWELL,54.3413,-1.7708
PPL,WESTHAY,51.1783,-2.8081
PPL,WESTHEAD,53.5629,-2.8436
PPL,WESTHEATH,52.3973,-1.9590
PPLX,WESTHENDON,51.5784,-0.2354
ADM4,WESTHENDRED,51.5837,-1.3592
PPL,WESTHESLERTON,54.1722,-0.6076
PPL,WESTHIDE,52.0946,-2.6060
PPL,WESTHILL,57.1526,-2.2797
PPL,WESTHOATHLY,51.0770,-0.0551
PPLX,WESTHOLLANDPARK,51.5016,-0.2133
ADM4,WESTHORNDON,51.5769,0.3482
ADM4,WESTHORPE,52.2863,0.9957
PPL,WESTHORRINGTON,51.2241,-2.6141
PPL,WESTHORSLEY,51.2603,-0.4556
PPL,WESTHOUGHAM,51.1151,1.2346
PPL,WESTHOUGHTON,53.5490,-2.5246
PPL,WESTHOUSES,53.1162,-1.3693
PPL,WESTHUMBLE,51.2546,-0.3352
ADM4,WESTHUNTSPILL,51.2073,-2.9973
PPL,WESTHYDE,51.6103,-0.5118
PPL,WESTHYTHE,51.0659,1.0288
PPLA,WESTILSLEY,51.5399,-1.3237
ADM4,WESTITCHENOR,50.7998,-0.8738
PPL,WESTKAMES,56.0496,-5.3452
PPL,WESTKEAL,53.1496,0.0479
PPLX,WESTKENSINGTON,51.4908,-0.2067
PPL,WESTKILBRIDE,55.6900,-4.8577
PPL,WESTKINGSDOWN,51.3428,0.2613
PPL,WESTKINGTON,51.4955,-2.2728
PPL,WESTKIRBY,53.3730,-3.1842
PPL,WESTKNAPTON,54.1686,-0.6625
ADM4,WESTKNIGHTON,50.6968,-2.3778
PPL,WESTKNOYLE,51.0878,-2.2076
PPL,WESTKYO,54.8833,-1.7333
PPLX,WESTLAKE,50.3675,-3.9387
ADM3,WESTLANCASHIREDISTRICT,53.6110,-2.8869
PPL,WESTLANGDON,51.1767,1.3173
ADM4,WESTLANGTON,52.5240,-0.9546
PPL,WESTLANGWELL,58.0500,-4.2000
PPL,WESTLAROCH,56.6667,-5.1500
ADM4,WESTLAVINGTON,50.9761,-0.7318
PPL,WESTLAYTON,54.4845,-1.7807
PPL,WESTLEAKE,52.8339,-1.2155
PPLX,WESTLEIGH,53.5069,-2.5375
PPL,WESTLETON,52.2647,1.5746
PPL,WESTLEXHAM,52.7178,0.7239
PPL,WESTLEY,52.2500,0.6667
PPL,WESTLEYWATERLESS,52.1818,0.3667
ADM3,WESTLINDSEYDISTRICT,53.3973,-0.4746
PPL,WESTLINTON,55.7497,-3.3561
PPL,WESTLISS,51.0487,-0.9003
PPL,WESTLOOE,50.4000,-4.4167
ADM2,WESTLOTHIAN,55.9167,-3.5000
PPL,WESTLULWORTH,50.6261,-2.2468
PPL,WESTLUTTON,54.1125,-0.5752
PPL,WESTLYDFORD,51.0822,-2.6222
PPL,WESTLYN,51.2194,-3.8345
PPL,WESTLYNN,52.7506,0.3852
PPL,WESTMALLING,51.2927,0.4091
ADM4,WESTMALVERN,52.1099,-2.3469
PPL,WESTMANCOTE,52.0356,-2.0959
ADM4,WESTMARKHAM,53.2404,-0.9330
PPL,WESTMARSH,53.5730,-0.0913
PPL,WESTMARTON,53.9502,-2.1633
PPL,WESTMELTON,53.5042,-1.3580
PPL,WESTMEON,51.0124,-1.0883
PPL,WESTMERSEA,51.7780,0.9187
PPL,WESTMESTON,50.9069,-0.0989
PPL,WESTMILL,51.9257,-0.0116
PPL,WESTMINSTERABBEY,51.4990,-0.1288
PPL,WESTMOLESEY,51.3999,-0.3800
PPL,WESTMONKTON,51.0494,-3.0542
ADM4,WESTMOORS,50.8281,-1.8809
ADMD,WESTMORLAND,54.5000,-2.5833
PPL,WESTMOSTARD,54.3114,-2.4439
PPL,WESTMUIR,56.6500,-3.0333
PPL,WESTMYNE,51.2167,-3.5333
PPL,WESTNEWTON,55.5500,-2.1500
PPLX,WESTNORWOOD,51.4316,-0.1027
PPLX,WESTOE,54.9885,-1.4180
PPLA3,WESTON,53.0667,-2.4000
ADM4,WESTONANDWEEDON,52.1249,-1.1298
ADM3,WESTONBEGGARD,52.0750,-2.6108
ADM4,WESTONBIRTWITHLASBOROUGH,51.6189,-2.2236
ADM4,WESTONBYWELLAND,52.5156,-0.8616
ADM4,WESTONCOLVILLE,52.1518,0.3505
PPL,WESTONCORBETT,51.2189,-1.0168
PPL,WESTONDOWN,51.4678,-2.8083
PPLA3,WESTONING,51.9814,-0.4970
PPL,WESTONINGORDANO,51.4644,-2.7967
ADM4,WESTONLONGVILLE,52.7017,1.1126
PPL,WESTONLULLINGFIELDS,52.8187,-2.8546
PPL,WESTONONAVON,52.1651,-1.7684
PPL,WESTONONTHEGREEN,51.8642,-1.2288
PPL,WESTONPATRICK,51.2185,-1.0140
PPL,WESTONPOINT,53.3264,-2.7565
PPL,WESTONRHYN,52.9142,-3.0657
PPL,WESTONSUBEDGE,52.0500,-1.8167
PPLA2,WESTONSUPERMARE,51.3460,-2.9766
PPL,WESTONTURVILLE,51.7917,-0.7577
PPL,WESTONUNDERLIZARD,52.6949,-2.2892
PPL,WESTONUNDERPENYARD,51.9078,-2.5369
ADM3,WESTONUNDERREDCASTLE,52.8552,-2.6435
ADM4,WESTONUNDERWETHERLEY,52.3208,-1.4708
PPLA3,WESTONUNDERWOOD,52.1457,-0.7386
PPL,WESTONUPONTRENT,52.8484,-1.4012
PPL,WESTONZOYLAND,51.1085,-2.9284
PPL,WESTORCHARD,50.9477,-2.2532
PPL,WESTORD,55.7500,-2.0667
ADM3,WESTOVERTON,51.4161,-1.7979
PPL,WESTOW,54.0776,-0.8492
ADM3,WESTOXFORDSHIREDISTRICT,51.8399,-1.5014
PPL,WESTPARLEY,50.7712,-1.8789
PPL,WESTPECKHAM,51.2525,0.3361
PPL,WESTPENNARD,51.1407,-2.6468
PPL,WESTPENTIRE,50.4058,-5.1339
PPLX,WESTPILTON,55.9667,-3.2500
PPL,WESTPORT,55.4764,-5.7116
PPL,WESTPUTFORD,50.9189,-4.3329
PPLX,WESTPUTNEY,51.4583,-0.2338
PPL,WESTQUANTOXHEAD,51.1679,-3.2731
PPL,WESTQUARTER,55.9914,-3.7402
PPLA3,WESTRAINTON,54.8167,-1.5000
PPL,WESTRASEN,53.3896,-0.4043
PPL,WESTRAVENDALE,53.4818,-0.1519
PPL,WESTRAYNHAM,52.7927,0.7764
ADMD,WESTRIDING,53.9167,-1.9167
ADM4,WESTRILLANDSTARMORE,52.4182,-1.1458
PPL,WESTROUNTON,54.4247,-1.3647
PPL,WESTROW,52.3512,0.4612
PPL,WESTRUDHAM,52.8192,0.6939
PPLX,WESTRUISLIP,51.5811,-0.4380
PPL,WESTRUNTON,52.9376,1.2439
PPL,WESTRUTHER,55.7420,-2.5845
PPL,WESTSALTOUN,55.8960,-2.8600
PPL,WESTSCRAFTON,54.2482,-1.8890
ADM3,WESTSOMERSETDISTRICT,51.1182,-3.4445
PPL,WESTSOMERTON,52.7204,1.6530
ADM4,WESTSTAFFORD,50.7034,-2.3952
PPL,WESTSTOCKWITH,53.4430,-0.8136
PPL,WESTSTOKE,50.8667,-0.8167
PPL,WESTSTONESDALE,54.4151,-2.1712
ADM4,WESTSTOUR,51.0005,-2.3197
PPL,WESTSTOURMOUTH,51.3180,1.2334
PPL,WESTSTOW,52.3046,0.6671
PPL,WESTSTRATTON,51.1608,-1.2447
ADM1H,WESTSUFFOLK,52.2500,0.8333
ADM2,WESTSUSSEX,51.0000,-0.4167
PPL,WESTTANFIELD,54.2050,-1.5882
PPL,WESTTARBERT,57.9021,-6.8079
PPL,WESTTHIRSTON,55.2949,-1.7093
PPL,WESTTHORNEY,50.8159,-0.9105
PPLX,WESTTHORNTON,51.3922,-0.1189
PPL,WESTTHURROCK,51.4783,0.2767
PPL,WESTTILBURY,51.4767,0.3895
ADM3,WESTTISBURY,51.0608,-2.1250
PPL,WESTTISTED,51.0591,-1.0628
PPL,WESTTOFTS,52.5011,0.7053
ADM4,WESTTORRINGTON,53.3187,-0.2896
PPL,WESTTOWN,51.4078,-2.7495
PPLX,WESTTWICKENHAM,51.4394,-0.3586
ADM4,WESTTYTHERLEY,51.0644,-1.6109
PPL,WESTWALTON,52.6978,0.1741
PPL,WESTWARD,54.7935,-3.1306
PPL,WESTWARDHO,51.0388,-4.2381
PPL,WESTWELL,51.7881,-1.6770
PPL,WESTWELLOW,50.9727,-1.5829
PPL,WESTWEMYSS,56.1402,-3.0848
ADM4,WESTWICK,54.0907,-1.4639
PPL,WESTWICKHAM,51.3667,-0.0167
PPL,WESTWIMBLEDON,51.4161,-0.2397
PPL,WESTWINCH,52.7179,0.4122
PPL,WESTWINTERSLOW,51.0898,-1.6705
PPL,WESTWITTERING,50.7808,-0.8957
PPL,WESTWITTON,54.2914,-1.9077
PPLA3,WESTWOOD,51.3346,-2.2797
PPL,WESTWOODBURN,55.1764,-2.1710
PPL,WESTWOODHAY,51.3646,-1.4381
PPL,WESTWOODLANDS,51.1945,-2.3183
PPL,WESTWORLDHAM,51.1258,-0.9408
PPL,WESTWORLINGTON,50.9070,-3.7509
PPL,WESTWORTHING,50.8105,-0.3903
PPL,WESTWRATTING,52.1427,0.3468
PPL,WESTWYCOMBE,51.6446,-0.8035
