name,postcode,lat,lon
swan restaurant,KA10 6AA,55.54433400000000,-4.66328400000000
Bloom coffee kitchen,KA10 6AB,55.54325300000000,-4.66544600000000
LIDO TROON,KA10 6AB,55.54325300000000,-4.66544600000000
MAHARANI,KA10 6AB,55.54325300000000,-4.66544600000000
C Gulls,KA10 6AU,55.54407501220700,-4.66149997711182
The Poppy Room,KA10 6AU,55.54404000000000,-4.66152000000000
The Strawberry Cushion,KA10 6AU,55.54404000000000,-4.66152000000000
harbour bar,KA10 6BH,55.54364100000000,-4.67154400000000
The Anchorage Hotel,KA10 6BQ,55.54417000000000,-4.66707800000000
jade dragon,KA10 6BQ,55.54417000000000,-4.66707700000000
SCOTTS TROON,KA10 6DJ,55.54503200000000,-4.67823400000000
Silver Spoons Tearoom,KA10 6EA,55.5441,-4.6630
Tinto Tapas Bar ,KA10 6EA,55.54384390000000,-4.66351290000000
The Venice Cafe ,KA10 6EB,55.5435,-4.6633
Blueberry's,KA10 6EF,55.54118000000000,-4.65948800000000
South Beach Hotel,KA10 6EG,55.53838700000000,-4.65565300000000
Royal Troon Golf Club,KA10 6EP,55.53264300000000,-4.65067000000000
Piersland House Hotel,KA10 6HD,55.53435500000000,-4.64552300000000
Costa Coffee,KA10 6HR,55.54352970000000,-4.66266730000000
Dan McKays,KA10 6QU,55.54520800000000,-4.66153600000000
BARASSIE GOLF CLUB,KA10 6SY,55.56183800000000,-4.65363600000000
LOCHGREEN HOUSE HOTEL,KA10 7EN,55.5308,-4.6310
The Old Loans Inn,KA10 7EX,55.55134000000000,-4.62481500000000
HIGHGROVE HOUSE HOTEL,KA10 7HL,55.5545,-4.6180
DSS BAR,KA11 1AE,55.62283800000000,-4.64146000000000
Gk Cuisine ,KA11 1AE,55.62283800000000,-4.64146000000000
SUBWAY,KA11 2DJ,55.63238200000000,-4.63568400000000
Nelly's Kitchen,KA11 4EE,55.61220000000000,-4.60596600000000
The Brae,KA11 4EG,55.60920200000000,-4.61926400000000
HF Irvine Hotel Limited,KA11 4LD,55.61140500000000,-4.64931400000000
Gailes Links,KA11 5AE,55.5902,-4.6624
The Gailes Hotel,KA11 5AE,55.59018600000000,-4.66242300000000
Western Gailes Golf Club,KA11 5AE,55.59018600000000,-4.66242300000000
Ambassador restaurant,KA12 0AD,55.61509300000000,-4.66538200000000
Fran’s Coffee House ,KA12 0AL,55.61437400000000,-4.66660400000000
MAMMA'S FISH AND CHIPS,KA12 0AX,55.61482800000000,-4.66557000000000
Hamiltons  Restaurant,KA12 0AY,55.6141,-4.6641
Adesso,KA12 0BD,55.61435700000000,-4.66285400000000
Buzz Bingo,KA12 0BH,55.61352200000000,-4.66281400000000
Costa Coffee,KA12 8AG,55.60999600000000,-4.67199100000000
KFC,KA12 8AG,55.60999600000000,-4.67199100000000
McDonald's,KA12 8AG,55.60999600000000,-4.67199100000000
McDonalds Restaurant,KA12 8AG,55.60999600000000,-4.67199100000000
TACO BELL-Riverway Irvine,KA12 8AG,55.60999679565430,-4.67199087142944
Tony Macaroni,KA12 8AG,55.60999600000000,-4.67199100000000
Cafe Cafe,KA12 8AN,55.61601400000000,-4.66768400000000
The Dessert Retail Co T/a Shells Scoops and Shakes ,KA12 8AN,55.61601400000000,-4.66768400000000
Seagate Leisure Centre Cafe,KA12 8AS,55.61720200000000,-4.66844800000000
Burger King,KA12 8AY,55.60766700000000,-4.67243600000000
FRECKLETONS,KA12 8EH,55.61291200000000,-4.67144300000000
XS Irvine Ltd (Xspresso Cafe),KA12 8HD,55.6063,-4.6636
THE NICHE RESTAURANT,KA12 8PW,55.61062300000000,-4.67703600000000
Vanilla Joe's Factory Parlour,KA12 8PW,55.61062300000000,-4.67703600000000
Small Talk Coffee & Gift Shop,KA12 8PY,55.60926900000000,-4.68016800000000
Duncan’s Bar and Bistro,KA12 8PZ,55.60776600000000,-4.68476500000000
GRO coffee,KA12 8PZ,55.60776600000000,-4.68476500000000
Puffers Cafe,KA12 8QG,55.6099,-4.6778
Si Cafe Bar and Restaurant,KA12 8RU,55.62204900000000,-4.67039700000000
Irvine Golf Club ( bogsidecatering ),KA12 8SN,55.62616300000000,-4.68577000000000
Irvine Golf Club,KA12 8SN,55.62616300000000,-4.68577000000000
Subway,KA13 6AQ,55.65407690000000,-4.69697530000000
THE CORNERHOUSE,KA13 6EN,55.65345382690430,-4.70205783843994
TAYLORS HOTEL,KA13 6JU,55.65451500000000,-4.70736200000000
The Alton Inn,KA13 6JU,55.65451500000000,-4.70736200000000
Viewfield Manor Leisure Park,KA13 7RD,55.66203400000000,-4.61433500000000
McDonalds,KA20 3DE,55.64698700000000,-4.73793400000000
Pop Inn,KA20 3HD,55.63914600000000,-4.75606000000000
Premier Leisure,KA21 5DA,55.63303100000000,-4.79430700000000
 WEST END CAFE,KA21 5DS,55.63441100000000,-4.79095700000000
BASEBOWL,KA21 5DS,55.63441100000000,-4.79095700000000
The Kandy Bar,KA21 5DS,55.6345,-4.7909
The Melbourne,KA21 5DS,55.63441100000000,-4.79095700000000
CAFE AVANTI,KA21 5DT,55.63471300000000,-4.79032700000000
Cafe del Greco,KA21 5EB,55.63380100000000,-4.78811700000000
Costa Coffee,KA21 5EL,55.63302000000000,-4.78847400000000
The Eglinton Diner & Fish Fry,KA21 5EN,55.63301200000000,-4.78961800000000
Nonsuch Cafe,KA21 5EW,55.63194200000000,-4.79198900000000
Nonsuch Lounge and Sports Bar,KA21 5EW,55.63194200000000,-4.79198900000000
Café at the Station,KA21 5HN,55.6334,-4.7841
Summer Holdings T/a Shells Scoops and Shakes Dessert Cafe ,KA21 5HQ,55.63303770000000,-4.78606760000000
Motherland Spice,KA21 5HR,55.63250000000000,-4.78446500000000
The Windy Ha,KA21 5HR,55.63250000000000,-4.78446500000000
Cecchinis Restaurant & Bar,KA22 8DA,55.63963100000000,-4.81780600000000
lauriston hotel & restaurant,KA22 8EA,55.64013800000000,-4.80077300000000
Rowan Tree Restaurant and Garden Centre,KA22 8PG,55.66097200000000,-4.83102800000000
The Waterside Hotel and Restaurant,KA23 9NG,55.67485900000000,-4.85244000000000
New City Cantonese Restaurant Ltd,KA7 1BG,55.46372200000000,-4.63249800000000
Unity Grill ,KA7 1BG,55.46352280000000,-4.63269900000000
wellington restaurant,KA7 1BX,55.46271400000000,-4.63426600000000
THE TREEHOUSE,KA7 1BZ,55.4624,-4.6339
Cecchinis Restaurant,KA7 1EH,55.46160800000000,-4.63471500000000
The Chatterbox Coffee Shop ,KA7 1EH,55.46160800000000,-4.63471500000000
The Pavilion Cafe,KA7 1EQ,55.46059700000000,-4.64032600000000
THE WATERFRONT,KA7 1HZ,55.46500900000000,-4.63247300000000
7 Day Ruby,KA7 1JX,55.46479200000000,-4.63206300000000
Pandora Cafe/Restaurant ,KA7 1JX,55.46479300000000,-4.63206300000000
willie wastles bar restaurant,KA7 1JX,55.46479200000000,-4.63206300000000
Kawiarnia Coffee House,KA7 1LP,55.46336200000000,-4.63131900000000
cafe le monde,KA7 1LP,55.46336200000000,-4.63131900000000
Mecca Bingo,KA7 1NP,55.46221000000000,-4.63217600000000
Subway,KA7 1NS,55.46141600000000,-4.63068300000000
Stage Door Cafe ,KA7 1NU,55.4614,-4.6316
Burger King,KA7 1PZ,55.46189500000000,-4.62927500000000
Arthur Street Kitchen,KA7 1QJ,55.46233100000000,-4.63201000000000
Cafe Nero,KA7 1RB,55.46050900000000,-4.62896200000000
The Tam O'Shanter Inn & Restaurant,KA7 1RQ,55.46120100000000,-4.62856500000000
Wishing Well,KA7 1SP,55.45920181274410,-4.62870121002197
CAFE VITO,KA7 1SU,55.45853200000000,-4.62849800000000
The Ghillie Dhu ,KA7 1SU,55.4584,-4.6283
Christina’s bistro ltd,KA7 1TG,55.46212800000000,-4.62807300000000
No8 bar & grill,KA7 1UB,55.4614,-4.6337
The Fullarton Cafe,KA7 1UB,55.46143000000000,-4.63373700000000
Smiths Bar and Restaurant,KA7 1UF,55.45948500000000,-4.63140900000000
Saffy's,KA7 1UL,55.46027800000000,-4.63215800000000
Smokehouse,KA7 2AA,55.4595,-4.6354
Hotel Kylestrome Bar & Grill,KA7 2AX,55.45782140000000,-4.63073700000000
Glenpark Hotel,KA7 2DG,55.45762500000000,-4.63514500000000
Ayrshire and Galloway Hotel,KA7 2EA,55.45835800000000,-4.62945100000000
The Meridian,KA7 2EA,55.45835800000000,-4.62945100000000
The Growler,KA7 2EG,55.4572,-4.6295
Tudor Kitchen & Grill,KA7 2EG,55.45716200000000,-4.62949800000000
Mr Basrai's World Buffet,KA7 2ER,55.45755600000000,-4.62886850000000
Cake.,KA7 2EU,55.4566,-4.6290
Cafe 51,KA7 2HD,55.45604800000000,-4.62909200000000
The Fox & Willow,KA7 2RE,55.45166600000000,-4.62971800000000
Savoy Park Hotel,KA7 2UT,55.45628600000000,-4.63682700000000
The Chestnuts Hotel,KA7 2UZ,55.45053400000000,-4.63967000000000
RIVER COTTAGE SCOTLAND LTD,KA8 0BJ,55.4649,-4.6284
3 Idiots,KA8 0BL,55.46502860000000,-4.62830620000000
AG Restaurants Ltd (T/A McDonalds),KA8 0JE,55.46765000000000,-4.61532300000000
McDonald's,KA8 0JE,55.46765000000000,-4.61532300000000
home Thai & Grill restaurant,KA8 8DD,55.47175800000000,-4.62667300000000
the sugar cube,KA8 8EB,55.46625200000000,-4.63026200000000
GRANNY GRAPES ,KA8 8NW,55.48337430000000,-4.61783090000000
KFC,KA8 9SS,55.4791,-4.6003
Costa Coffee,KA9 1AB,55.50114380000000,-4.61072860000000
The Eagle Tavern,KA9 1AJ,55.5018,-4.6107
The Red Lion,KA9 1AJ,55.50173300000000,-4.61082100000000
Buckley’s ,KA9 1JN,55.50019300000000,-4.61054500000000
LIDO PRESTWICK,KA9 1JN,55.50019300000000,-4.61054600000000
Scruffy Duffy's,KA9 1JS,55.49943600000000,-4.61060600000000
Sea Breeze Coffee Shop & Gift Shop,KA9 1LA,55.49872450000000,-4.61079010000000
Taj Bar & Kitchen,KA9 1LA,55.49872450000000,-4.61079010000000
Buf Prestwick Ltd,KA9 1NX,55.4998,-4.6112
Caprice,KA9 1PA,55.4984,-4.6115
VITO'S ITALIAN,KA9 1PA,55.49845600000000,-4.61152300000000
COSTLEY'S PATISSERIE,KA9 1PB,55.49708200000000,-4.61268300000000
VICS & THE VINE,KA9 1PB,55.4971,-4.6126
Prestwick St Nicholas Golf Club,KA9 1SN,55.49380800000000,-4.62038300000000
Carlton Hotel,KA9 1TP,55.48486000000000,-4.61719200000000
