name,postcode,lat,lon
Thrasher and habu,KA1 5BA,55.596366983762600,-4.456950895037640
krait and monitor,KA1 5BJ,55.598063396097600,-4.457517334328900
Tit-tyrant and Rabbit,KA1 5DH,55.596793152955500,-4.450929594407150
Dorcopsis and Schneider python,KA1 5DR,55.598394000000000,-4.448782373120230
monitor and Tit-tyrant,KA1 5EJ,55.595745901631600,-4.447562596903280
diamond python and Elephant,KA1 5JX,55.563401845973800,-4.412893628575350
Prion and hognose snake,KA16 9AF,55.605589059476300,-4.331701652344260
grass snake and Old World quail,KA16 9BJ,55.607490985819000,-4.317828000000000
Puffleg and Mouse,KA16 9BP,55.604179345364000,-4.334554454204430
fer-de-lance and Partridge,KA16 9DZ,55.610285165403900,-4.319245003012830
ringhals and Dolphin,KA16 9HT,55.606113514921900,-4.342941410410800
hoop snake and Black cockatoo,KA16 9JR,55.597860189068000,-4.301320337844260
Recurvebill and Puffleg,KA17 0DP,55.613056798803300,-4.288458892544920
Skunk and Ice seal,KA17 0FB,55.606631450874100,-4.287925768825620
cycling lizard and Cuscus,KA17 0HY,55.610053099595900,-4.275517534757940
saltwater crocodile and Jay,KA17 0LL,55.609629664489600,-4.298214962266390
rock snake and monitor,KA17 0LT,55.603675648050500,-4.235744266999130
Vole and habu,KA17 0LU,55.614677590087900,-4.225317985685680
terrapin and Mole,KA18 1AN,55.459270000000000,-4.279018000000000
Maya and Old World vulture,KA18 1AZ,55.458206663899900,-4.273832269399170
blue racer and turtle,KA18 1BL,55.454566688643400,-4.265588277699000
Tattler and Siskin,KA18 1JN,55.456693220449100,-4.266754144492220
Kestrel and Shearwater,KA18 1JR,55.451590073093100,-4.262760720892740
Grackle and bandy-bandy,KA18 1JZ,55.454419671248500,-4.263333999330650
saltwater crocodile and mamba,KA18 1LB,55.454673114590800,-4.263237808058580
death adder and Ice seal,KA18 1PU,55.455596459789100,-4.254607572408770
Puffleg and glass snake,KA18 1QJ,55.454316508895400,-4.255293681062960
jew lizard and Masked owl,KA18 1RT,55.462696400497800,-4.279374368065760
Quetzal and ringhals,KA18 2AF,55.468082000000000,-4.292854791804800
rattlesnake and Maya,KA18 2AL,55.468647271101300,-4.287517938826290
Treepie and diamondback,KA18 2AY,55.470537460117100,-4.294573481386390
cayman and Badger,KA18 2BJ,55.472547631785800,-4.300006916953240
Komodo dragon and soft-shelled turtle,KA18 2BS,55.474548156097100,-4.299253153019880
Petrel and viper,KA18 2DD,55.473159000000000,-4.297259000000000
Kangaroo and Siskin,KA18 2EX,55.470313908614200,-4.288753704850220
frilled lizard and glass snake,KA18 2JQ,55.475633516352100,-4.286419454909120
Shearwater and Vulture,KA18 2NH,55.460586002698200,-4.359863715949830
bearded dragon and flying lizard,KA18 2NR,55.461371312590700,-4.360622494645020
Hawk and Rat,KA18 2NU,55.462359555053700,-4.357849895954470
diamondback and Komodo dragon,KA18 2PE,55.459976174372600,-4.366771576055360
Kangaroo and bicycle lizard,KA18 2PL,55.459560562603600,-4.371523798177190
chuckwalla and Polecat,KA18 3HB,55.458757471712400,-4.233197132885110
garter snake and sand lizard,KA18 3HT,55.459837380430500,-4.228686826391790
Cloud rat and Buzzard,KA18 3HU,55.454579000000000,-4.230699000000000
Philippine hawk-owl and Duck,KA18 3PF,55.518071760972700,-4.080459974378520
tortoise and tuatara,KA18 3PJ,55.519705430296600,-4.078993760458560
agamid and monitor,KA18 3QZ,55.522098446544000,-4.064513435220010
tortoise and Ground sloth,KA18 3RW,55.524268368416700,-4.068540369192260
agamid and Triller,KA3 6AW,55.652317894985200,-4.451601374036660
New World blackbird and rock snake,KA3 6AX,55.652147137191400,-4.462368393945870
diamondback terrapin and thorny devil,KA3 6HX,55.628113000000000,-4.427670166459840
viper and cerastes,KA3 6JD,55.662449920991300,-4.410210380370190
Darwin's finches and Moluccan boobook,KA3 6JT,55.603127783730200,-4.456727000000000
hoop snake and Cuscus,KA4 8AF,55.600148395834400,-4.381034564768110
Partridge and Macaw,KA4 8AN,55.601777106047800,-4.381863553212570
Fulmarine petrel and elapid,KA4 8AX,55.602643000000000,-4.385409000000000
flying lizard and Tree warbler,KA4 8BX,55.597153895793500,-4.394488652334070
horned viper and tree snake,KA4 8FA,55.599700000000000,-4.369387000000000
Old World quail and Prion,KA4 8HE,55.601021370100200,-4.380976344908250
Jackal and sand lizard,KA4 8HS,55.599456012641700,-4.379198769535460
Partridge and Linsang,KA4 8JL,55.600474860211200,-4.374863080856820
tree snake and Songlark,KA4 8LE,55.594413617689200,-4.393972475878770
Viscacha and racer,KA4 8LJ,55.591804000000000,-4.367784000000000
cerastes and Kite,KA4 8LL,55.594921135446000,-4.374352830595610
perentie and Mole,KA4 8LU,55.601146573428500,-4.367553424556640
turtle and python,KA4 8NF,55.578814327059500,-4.363669970617740
Shearwater and cerastes,KA4 8NL,55.554882000000000,-4.358427000000000
Gull and Buzzard,KA5 5BQ,55.514229489301800,-4.382953894938790
death adder and bushmaster,KA5 5DD,55.516750000000000,-4.380001000000000
Pitohui and copperhead,KA5 5DF,55.517186931302500,-4.381089159606850
king cobra and Myna,KA5 5DS,55.512510048727200,-4.382168844249690
Komodo dragon and Kākāriki,KA5 5JA,55.453641000000000,-4.458299000000000
Francolin and Linsang,KA5 5JE,55.469648491262800,-4.439929110995360
Hawk and Linsang,KA5 5TH,55.513932494253800,-4.460664503679220
Fulmarine petrel and Hawaiian honeycreeper,KA5 6AF,55.514837547299200,-4.376179228998100
dugite and Treepie,KA5 6BP,55.514044984376100,-4.373945502314940
whip snake and Asiatic leopard,KA5 6BW,55.513455973692500,-4.372801231328080
Guillemot and diamondback turtle,KA5 6DT,55.520856463057100,-4.382815968331910
Siskin and black snake,KA5 6HG,55.533847952267000,-4.344916621813710
Prion and Fox,KA5 6JB,55.510255142928600,-4.286906518317830
pit viper and diamond snake,KA5 6JE,55.508541000000000,-4.268942000000000
Ibex and caiman,KA5 6JF,55.514756760607800,-4.242768067767340
Macaw and Egret,KA5 6ND,55.501810157547400,-4.286226738024570
king snake and milk snake,KA5 6NL,55.499903202571000,-4.317372929408160
coral snake and dugite,KA5 6PF,55.500280911116200,-4.327782522668470
Nukupuʻu and milk snake,KA5 6QH,55.510289489499200,-4.337433099205330
Thrasher and flying dragon,KA5 6QP,55.505428145250600,-4.335957157888480
turtle and Black cockatoo,KA5 6RA,55.504791340468100,-4.331643628807600
Chipmunk and gaboon viper,KA5 6RG,55.504401247959100,-4.330417015027830
Night heron and Pheasant,KA5 6RT,55.502667656600200,-4.332246486753130
Pheasant and grass snake,KA5 6SD,55.503148052638800,-4.329202786840340
Moluccan boobook and Black jay,KA5 6SP,55.506294316729000,-4.325397753658880
death adder and Puffleg,ML10 6BP,55.672359042191900,-4.063946261892570
blind snake and Stilt,ML10 6BT,55.672380313794700,-4.063215846541320
swift and Jackal,ML10 6GW,55.636746000000000,-4.082825000000000
Bronzewing pigeon and Viscacha,ML10 6XN,55.672957000000000,-4.082682000000000
