name,postcode,lat,lon
Duck and Pheasant,NE71 6TW,55.548305986616100,-2.168036680841810
Gull and Petrel,NE71 6XR,55.553923573402300,-2.137895539781030
Ice seal and Coati,TD12 4BF,55.654969861474600,-2.260748052078160
box turtle and Bronzewing pigeon,TD12 4EB,55.655404524584400,-2.254870764103090
Treepie and Boto,TD12 4EQ,55.655738032901600,-2.249993932290170
Tit-tyrant and bearded lizard,TD12 4LG,55.647654906737200,-2.261207855756580
Warbler and Herring gull,TD12 4QD,55.616975501193900,-2.195749933175810
wall lizard and Treepie,TD12 4QN,55.590328000000000,-2.253084000000000
worm lizard and Pratincole,TD12 4QT,55.567268449840300,-2.212151935142840
Myna and Snipe,TD12 4RS,55.616472605316500,-2.262826121333700
Cloud rat and brown snake,TD12 4SF,55.640744638893800,-2.199363612515700
Mink and Cloud rat,TD12 4UE,55.647424122938400,-2.228284020330420
constrictor and Tit-tyrant,TD12 4XH,55.654239783857200,-2.176341369128150
Peafowl and anaconda,TD3 6LQ,55.657376737844800,-2.533190467155800
Thrasher and Thrasher,TD5 7AD,55.599885417477800,-2.431143175577780
Petrel and deaf adder,TD5 7HT,55.597379355430400,-2.433448424854930
bearded lizard and Mole,TD5 7LF,55.603652648107400,-2.430470298399380
Wader and Towhee,TD5 7NE,55.606788434394700,-2.438107743315770
python and Songlark,TD5 7QN,55.638672093086600,-2.419051367370790
diamondback and massasauga,TD5 7RG,55.629327169416100,-2.416474004845500
Argus and Black cockatoo,TD5 7TZ,55.609525559807100,-2.423740623938950
leathery turtle and Vulture,TD5 8AJ,55.476930000000000,-2.349019000000000
Argus and loggerhead,TD5 8AP,55.471878259216100,-2.379725947971770
Tit-tyrant and mamba,TD5 8BU,55.562210825371900,-2.322727335834850
cayman and coral snake,TD5 8BX,55.553853496877100,-2.316191420003800
box turtle and Kākāriki,TD5 8HF,55.603216596688800,-2.405515731761570
Moluccan boobook and massasauga,TD5 8JW,55.581436831398900,-2.446644825818500
cycling lizard and Old World vulture,TD5 8LJ,55.509272284021800,-2.473583202346720
worm lizard and mamba,TD5 8QB,55.517241427363700,-2.366495823338910
Stint and Skunk,TD5 8RP,55.543603975973400,-2.289628299806240
Tit-tyrant and box turtle,TD8 6RF,55.456242000000000,-2.475382000000000
frilled lizard and puff adder,TD8 6RP,55.475275000000000,-2.451375000000000
