name,postcode,lat,lon
Civet and Skunk,EH45 6AG,55.651923000000000,-3.187818000000000
Vulture and American sparrow,EH45 8AE,55.652524204914000,-3.187883952121090
Parrotlet and whip snake,EH45 8AP,55.651004800661000,-3.190746135264150
horned viper and Jerboa,EH45 8DQ,55.653664000000000,-3.191749000000000
Scimitar babbler and mamba,EH45 8GL,55.650263798567100,-3.183747284544000
Guillemot and Fulmarine petrel,EH45 8HF,55.658503251740300,-3.198619224302280
chameleon and bushmaster,EH45 8NY,55.617540910909500,-3.321490181304420
bandy-bandy and diamond python,EH45 8SG,55.652522000000000,-3.190061000000000
Quetzal and flying dragon,EH45 8SL,55.651751856639500,-3.188766410924100
gecko and sand lizard,EH45 8SP,55.651821505574300,-3.190850388298910
racer and cayman,EH45 9AH,55.644794613768600,-3.181548447348230
constrictor and hoop snake,EH45 9AT,55.646744897405200,-3.184308489489130
bearded dragon and Linsang,EH45 9DL,55.648915366599600,-3.194003919060430
Warbler and skink,EH45 9ED,55.649339000000000,-3.204966000000000
carpet snake and garter snake,EH45 9GY,55.640045000000000,-3.110961000000000
mud turtle and horned viper,EH45 9JH,55.628738641549200,-3.241403979138430
Peafowl and tree snake,EH45 9LL,55.638841678112400,-3.103873601980000
Grackle and Polecat,EH45 9LT,55.636605108107600,-3.106765450473040
water snake and king snake,ML12 6FW,55.612296178520400,-3.409174354197840
Black jay and blue racer,ML12 6QH,55.585667572709700,-3.401540382596820
