name,postcode,lat,lon
Caberston Coffee Shop,EH43 6AY,55.6247,-3.0222
Loulabelles Cafe,EH44 6HA,55.61947600000000,-3.06225300000000
Caddon View,EH44 6HH,55.6203,-3.0593
Traquair Arms Hotel,EH44 6PD,55.61642600000000,-3.06479100000000
Traquair Garden Cafe,EH44 6PW,55.60835400000000,-3.06400000000000
Why Not,TD1 1BA,55.61640330000000,-2.80764210000000
The Salmon Inn,TD1 1EP,55.61535500000000,-2.80715900000000
Gary moore catering ,TD1 1PW,55.62157440185550,-2.81754493713379
Macari's Cafe,TD1 1RY,55.61711500000000,-2.81013200000000
Abeerah Ltd,TD1 1SQ,55.6186,-2.8116
Zaika tandoori ,TD1 3AA,55.61525200000000,-2.80642600000000
Paolo's Italian,TD1 3AD,55.61486800000000,-2.80600600000000
Quins,TD1 3AD,55.61486800000000,-2.80600600000000
Baxterstorey,TD1 3HF,55.60732800000000,-2.78400900000000
Kingsknowes Hotel,TD1 3HY,55.60324478149414,-2.78472137451172
Clovenfords Hotel,TD1 3LU,55.61997200000000,-2.87424600000000
Melrose cricket club cafe,TD6 9BH,55.5970,-2.7452
Ochiltree's Cafe,TD6 9BQ,55.59955000000000,-2.78209300000000
marmions brasserie,TD6 9LB,55.59838200000000,-2.72057400000000
Greenhouse Cafe,TD6 9LD,55.59838104248050,-2.72057390213013
marmions place,TD6 9LD,55.5984,-2.7206
The Kings Arms Hotel,TD6 9PB,55.59802627563480,-2.72118592262268
George and Abbotsford Hotel ,TD6 9PD,55.59756088256840,-2.72100305557251
Burts Hotel,TD6 9PL,55.59745700000000,-2.71898600000000
Rhymers Fayre / Abbey Fine Wines,TD6 9PL,55.59745700000000,-2.71898600000000
The Townhouse Hotel,TD6 9PQ,55.59770500000000,-2.71949800000000
The Station Hotel and Restaurant,TD6 9PT,55.59687000000000,-2.71934000000000
The Ship Inn,TD6 9RA,55.59708900000000,-2.71882100000000
Provender Melrose,TD6 9RU,55.59847870000000,-2.72241860000000
Taste of Spice,TD7 4BT,55.54722500000000,-2.84210400000000
The Selkirk Deli,TD7 4BZ,55.54804400000000,-2.84052100000000
Three Hills Coffee ,TD7 4BZ,55.54778180000000,-2.84088030000000
JAZROSE COFFEE SHOP,TD7 4DG,55.54659000000000,-2.84296200000000
Smiddy Bar & Restaurant  ,TD7 4NU,55.49193400000000,-2.83704600000000
Woll Golf Course Limited,TD7 4PE,55.48391723632813,-2.85154485702515
JSTLCrosskeys,TD7 5JN,55.50888824462890,-2.97112393379211
Auld Cross Keys Inn,TD9 8NU,55.45755500000000,-2.68370500000000
