name,postcode,lat,lon
Guillemot and Diving bird,NE66 5PP,55.548535903856500,-1.914846986108540
Scimitar babbler and Puffleg,NE71 6AN,55.586538000000000,-2.002734000000000
amphisbaena and Chicken,NE71 6BP,55.548231534034200,-2.017676309486080
puff adder and terrapin,NE71 6BW,55.547746329947800,-2.017533000000000
Fish eagle and Partridge,NE71 6DL,55.548007051182600,-2.016614326747580
Rat and Moluccan boobook,NE71 6HG,55.566197152780800,-2.101580120216040
Tattler and Eagle,NE71 6LA,55.546138386082200,-2.014378928508540
Fish eagle and Buzzard,NE71 6LW,55.543757307279700,-2.014045251412970
Night heron and rattlesnake,NE71 6ND,55.544584000000000,-2.017215000000000
hognose snake and black snake,NE71 6RH,55.532303114858000,-2.043112353574510
Duck and Pheasant,NE71 6TW,55.548305986616100,-2.168036680841810
Gull and Petrel,NE71 6XR,55.553923573402300,-2.137895539781030
Ice seal and Coati,TD12 4BF,55.654969861474600,-2.260748052078160
box turtle and Bronzewing pigeon,TD12 4EB,55.655404524584400,-2.254870764103090
Treepie and Boto,TD12 4EQ,55.655738032901600,-2.249993932290170
Tit-tyrant and bearded lizard,TD12 4LG,55.647654906737200,-2.261207855756580
Warbler and Herring gull,TD12 4QD,55.616975501193900,-2.195749933175810
wall lizard and Treepie,TD12 4QN,55.590328000000000,-2.253084000000000
worm lizard and Pratincole,TD12 4QT,55.567268449840300,-2.212151935142840
Cloud rat and brown snake,TD12 4SF,55.640744638893800,-2.199363612515700
Mink and Cloud rat,TD12 4UE,55.647424122938400,-2.228284020330420
constrictor and Tit-tyrant,TD12 4XH,55.654239783857200,-2.176341369128150
blindworm and whip snake,TD15 2TJ,55.670027330425500,-2.012215000000000
Francolin and Chicken,TD15 2TP,55.666881167615700,-1.977431721014710
Dorcopsis and grass snake,TD15 2UE,55.651506219705000,-1.971163619855600
Minke whale and Maya,TD15 2UL,55.612646756425200,-1.948538224766880
