name,postcode,lat,lon
Puffleg and Zebra,NE66 3DG,55.459641554200000,-1.665421320100000
bull snake and tortoise,NE66 3DZ,55.517882579722200,-1.637070358758110
skink and flying dragon,NE66 3HR,55.500319000000000,-1.663145000000000
Goose and Perching duck,NE66 3SB,55.475128000000000,-1.678231000000000
loggerhead and Macaw,NE66 3SJ,55.475671000000000,-1.679460000000000
turtle and caiman,NE66 3SL,55.459116891700000,-1.667434059400000
krait and leathery turtle,NE66 3TR,55.472061000000000,-1.592468892315660
amphisbaena and White ibis,NE66 3TS,55.472840767591400,-1.594852004107740
monitor and goanna,NE66 3UP,55.495546200747400,-1.634553209226300
Magpie and Fulmarine petrel,NE66 3UT,55.494156795484400,-1.632666770044300
blue tongue and rock snake,NE66 3XH,55.496730652070400,-1.637027321193990
Zebra and Francolin,NE66 3XJ,55.497879112414500,-1.639501909785890
Guillemot and Myna,NE67 5DY,55.503479891603000,-1.711894184196210
Kākāriki and Condor,NE67 5EB,55.498133826558300,-1.697101400701210
mamba and caiman,NE67 5ED,55.512343442413600,-1.694933875627450
king cobra and horned toad,NE67 5EE,55.552611341358400,-1.628096025471500
Magpie and bearded dragon,NE67 5EN,55.541020541448800,-1.672337187388050
diamondback terrapin and bearded dragon,NE68 7TR,55.579055085013700,-1.658934982379400
Kestrel and White ibis,NE68 7YS,55.576889000000000,-1.655290000000000
