name,postcode,lat,lon
Night heron and Jerboa,LL63 5LX,53.191639610936500,-4.463190073570320
brown snake and Hawk,LL63 5RS,53.226237445525200,-4.477941685633420
Gull and crocodile,LL63 5RX,53.209109000000000,-4.465885000000000
agamid and Mockingbird,LL63 5UD,53.238882411877600,-4.479077102059980
racer and Mouse,LL63 5UF,53.241038303374700,-4.466611912371680
Goose and snapping turtle,LL63 5YH,53.219640356958000,-4.472632086230270
fer-de-lance and elapid,LL63 5YN,53.203343000000000,-4.487183000000000
diamondback terrapin and New World blackbird,LL64 5JR,53.219254461276500,-4.509566411325500
gecko and Boto,LL64 5JY,53.229863449228000,-4.521095614547400
puff adder and B,LL64 5YX,53.227509721454100,-4.522275797764830
deaf adder and Meadowlark,LL64 5YZ,53.226352450909200,-4.523001841480860
Grouse and wall lizard,LL65 3LF,53.255587158974900,-4.547317742161690
B and diamondback turtle,LL65 3LH,53.260696251347500,-4.524409258566060
Stilt and Old World vulture,LL65 3LN,53.263420913351400,-4.523969992421660
caiman and snapping turtle,LL65 3NF,53.269462499935100,-4.520171590488370
Asiatic leopard and Siskin,LL65 3PP,53.268925137341400,-4.475461618400800
Nukupu ªu and Minke whale,LL65 3PS,53.268130224098600,-4.471741307029730
gavial and gecko,LL65 3PU,53.269668000000000,-4.470934716872410
black snake and Logrunners,LL65 3SF,53.267136000000000,-4.481987000000000
