name,id,postcode,lat,lon
goanna and bandy-bandy,885131,LL64 5UX,53.227270319242800,-4.521692355297800
krait and garter snake,885685,LL62 5BD,53.193923334330600,-4.385021097917900
Herring gull and B,885236,LL62 5HU,53.196371443203200,-4.422585000000000
tortoise and goanna,885659,LL61 6YP,53.165881032901900,-4.325445063295240
Solitaire and Mockingbird,885026,LL64 5QN,53.231730000000000,-4.519617000000000
bearded dragon and boomslang,885468,LL63 5UA,53.234040054145100,-4.488807468749750
Recurvebill and fer-de-lance,885402,LL63 5RR,53.226796278000400,-4.483487701803570
gecko and Meadowlark,885694,LL62 5BY,53.218950490812700,-4.427052737953860
smooth snake and dukite,885108,LL65 2NZ,53.248441598975300,-4.597996789606300
Minke whale and Gila monster,2592928,LL65 3FF,53.274441000000000,-4.511815000000000
mountain devil and bushmaster,883428,LL77 7YL,53.242427106159400,-4.346681296756830
amethystine python and giant tortoise,885713,LL62 5ED,53.237011000000000,-4.360562000000000
Chicken and Mouse,885341,LL62 5NN,53.207141190172600,-4.401391000000000
snapping turtle and diamondback turtle,884590,LL65 3RB,53.274118237926500,-4.480831671055160
Vole and rock python,2617787,LL64 5AF,53.227630000000000,-4.520041000000000
Fox and blue tongue,885040,LL65 2FB,53.271874758432900,-4.583864234288050
Mole and anaconda,885719,LL62 5ER,53.205085751024300,-4.389729407288710
Moluccan boobook and king snake,885057,LL65 2HQ,53.271900931544600,-4.584315786502470
Goose and Flameback,884428,LL65 4RW,53.253975535049500,-4.395273481866450
Darwin's finches and swift,885354,LL62 5PH,53.206904134088700,-4.401242160182950
Grackle and snake,884386,LL65 4PL,53.259120427227900,-4.416102940565350
tiger snake and Moluccan boobook,885721,LL62 5ET,53.209542000000000,-4.381396000000000
box turtle and Logrunners,885336,LL62 5NE,53.205236640956300,-4.403230437868980
Kestrel and White ibis,885030,LL64 5QS,53.234666385440600,-4.516342747138730
agamid and Egret,884441,LL65 4SS,53.256183105206100,-4.420840037390250
wall lizard and crocodile,885775,LL60 6ND,53.190343770469500,-4.332427813610370
Myna and tree snake,883669,LL77 7JR,53.245314000000000,-4.340769000000000
Cuscus and Dorcopsis,884405,LL65 4RP,53.251508213241600,-4.377056053992260
