name,postcode,lat,lon
Ice seal and Myna,LL16 5HA,53.212162364364800,-3.504839923098940
Wader and giant tortoise,LL16 5LL,53.165585647271100,-3.597377766100110
Booted eagles and Peafowl,LL16 5NB,53.160005316921400,-3.570845597397430
boa constrictor and tortoise,LL18 5SX,53.269529966984800,-3.515131765597670
Rat and tokay,LL18 5TF,53.269518488724900,-3.507422000000000
snake and coral snake,LL18 5WJ,53.269184219633500,-3.501248901705310
moloch and sidewinder,LL22 8BU,53.236350918401500,-3.693917254066290
Civet and sidewinder,LL22 8DP,53.266239743625100,-3.580376000000000
box turtle and Triller,LL22 8EE,53.268409355882900,-3.628080501126290
Chipmunk and Tit-tyrant,LL22 8RP,53.173309933723200,-3.655807306758740
New World blackbird and cobra,LL22 8SG,53.217946969795200,-3.605077227767330
Duck and blindworm,LL22 8SY,53.207689116564200,-3.621704204792720
Dolphin and Condor,LL22 8TL,53.208686803722900,-3.594413712300150
Greenbul and tokay,LL22 8TR,53.206192000000000,-3.598888000000000
Old World warbler and Cloud rat,LL22 8YL,53.242352015164100,-3.621845870689500
Tattler and hawksbill,LL24 0AF,53.090226000000000,-3.802935000000000
viper and giant tortoise,LL24 0AN,53.089874664992600,-3.800560777835260
Puffleg and kabaragoya,LL24 0AS,53.084448208224200,-3.796750638275700
Towhee and sand lizard,LL24 0DY,53.095649180779900,-3.891356297040490
carpet snake and deaf adder,LL24 0EL,53.102807000000000,-3.907087000000000
Shearwater and Gull,LL24 0LD,53.050132641741500,-3.684947444110350
Herring gull and racer,LL24 0LU,53.058559369211000,-3.724880410883790
Piping shrike and Fulmarine petrel,LL25 0PJ,53.065066965567600,-3.862673062978100
taipan and Boto,LL25 0PX,53.066017684128600,-3.822191910518780
Partridge and Goose,LL26 0AA,53.139042911812900,-3.795609000000000
dugite and Condor,LL26 0BX,53.152895865318300,-3.785654780282480
python and Tit-tyrant,LL26 0GA,53.137382283173600,-3.796776737197450
Lemming and frilled lizard,LL26 0PL,53.136752158663700,-3.798021160605970
horned toad and Meadowlark,LL26 0RT,53.088682000000000,-3.754099000000000
diamondback and Darwin's finches,LL26 0SB,53.134358072496500,-3.790446727522990
bicycle lizard and Vulture,LL26 0SD,53.133185101063000,-3.786541242823630
Grosbeak and Civet,LL26 0SS,53.124466000000000,-3.775703000000000
saltwater crocodile and Grackle,LL26 0ST,53.121609192793800,-3.777409000000000
diamondback terrapin and Solitaire,LL26 0SU,53.099002000000000,-3.755370000000000
garter snake and elapid,LL26 0TY,53.156461145733500,-3.807355190812960
puff adder and tortoise,LL26 0YS,53.149540000000000,-3.797823000000000
Bronzewing pigeon and Dorcopsis,LL27 0JH,53.151870552180900,-3.824226000733300
Cloud rat and flying dragon,LL27 0QD,53.152568864206500,-3.825003375555860
fer-de-lance and cycling lizard,LL28 5TG,53.255183765504300,-3.792926679342830
Civet and deaf adder,LL32 8DJ,53.264392000000000,-3.851025000000000
wall lizard and hognose snake,LL32 8JB,53.207350492486200,-3.853820832267530
king cobra and tortoise,LL32 8JF,53.202408716472000,-3.847274036367670
Jay and puff adder,LL32 8NQ,53.270555006900600,-3.843718062672410
Quetzal and terrapin,LL32 8TL,53.233029000000000,-3.849656000000000
Chicken and crocodile,LL32 8TN,53.249207000000000,-3.834841000000000
Duck and Kangaroo,LL32 8UX,53.260958270375900,-3.838177467231590
terrapin and American sparrow,LL32 8YX,53.207223265924600,-3.845804050457950
Warbler and Recurvebill,LL34 6SH,53.273118418998700,-3.900130000000000
