name,postcode,lat,lon
Linsang and Ibex,EH23 4UG,55.844312481083200,-3.046831545839530
Pitohui and Wallaby,EH23 4GQ,55.843594000000000,-3.052082000000000
Vole and Mouse,EH23 4PX,55.855092000000000,-3.052013000000000
Vulture and Logrunners,EH23 4TP,55.843116476793700,-3.049051137112100
Puffleg and Songlark,EH23 4GG,55.843602623058600,-3.052098532436070
Black cockatoo and Tree warbler,EH23 4QW,55.813812193787400,-3.039836773362730
Hawk and Fulmarine petrel,EH23 4HG,55.841321820201400,-3.046655344723480
Black jay and Goose,EH37 5SQ,55.864367000000000,-2.963388000000000
Puffleg and Magpie,EH23 4FZ,55.837949914438300,-3.046931993386650
Chipmunk and Old World vulture,TD2 6PP,55.772755869814200,-2.804078779375700
Shearwater and River dolphin,EH23 4AW,55.849955000000000,-3.055305000000000
Minke whale and Snipe,EH37 5PP,55.862491265567000,-2.961919900484850
Fulmarine petrel and Petrel,EH23 4QA,55.831423000000000,-3.039987000000000
Fox and Night heron,TD2 6PX,55.775103397594600,-2.824070041293680
Chicken and Parakeet,EH23 4SU,55.821176000000000,-3.021698000000000
Pitohui and Marmoset,EH23 4EE,55.851276663493900,-3.049941881792250
Macaw and Parrotbill,EH23 4PN,55.859083936737100,-3.055839000000000
Quetzal and Thicketbird,EH23 4JZ,55.838002057821000,-3.048194842861800
Thrasher and Vole,EH37 5XT,55.809539000000000,-2.964379000000000
Buzzard and Quetzal,EH23 4DF,55.843132810147800,-3.042903205588620
New World blackbird and Night heron,EH23 4HW,55.842261705370700,-3.040724005057630
Lemming and Mamo,EH23 4UZ,55.847733781250100,-3.051299769292600
Francolin and Goose,EH37 5TF,55.824122229452700,-2.874252275385900
Parakeet and Prion,EH19 3JH,55.858187530070800,-3.071297000000000
Peafowl and Piping shrike,TD2 6PU,55.773324356037600,-2.849139388594020
Vulture and Tahr,EH23 4NS,55.852743018729300,-3.011117395570530
Quetzal and Old World quail,EH22 5TJ,55.863302818713500,-3.039851000000000
Greenbul and Buzzard,EH23 4AT,55.851638508687400,-3.055957600341390
Parrotbill and Treepie,EH37 5TG,55.832052069694900,-2.867230019281280
Old World vulture and Partridge,EH23 4BH,55.852125992213500,-3.058830080465030
Tit-tyrant and Chickadee,EH23 4FE,55.850717103544700,-3.050230276790950
Quetzal and Asiatic leopard,EH23 4UH,55.845381506660400,-3.046860284163750
Scimitar babbler and Quetzal,TD2 6RB,55.788197998782600,-2.814188345527850
Partridge and Thicketbird,EH23 4JA,55.837195965417500,-3.045667000000000
Ice seal and Towhee,TD2 6PJ,55.771697000000000,-2.802427761649130
Tattler and Jerboa,TD1 2SJ,55.690855197881900,-2.867250646926100
Greenbul and Snipe,EH23 4GZ,55.842751217003800,-3.037623404691740
Songlark and Mole,EH23 4FQ,55.852604844684400,-3.063121000000000
Mockingbird and Old World vulture,EH23 4QQ,55.828322766286500,-3.029514000000000
Peafowl and Snipe,EH23 4AG,55.848166880413200,-3.056727000000000
Herring gull and Cuscus,EH22 4UG,55.863074953594100,-3.060374257189910
Lemming and Treepie,EH23 4TX,55.847573000000000,-3.053332079638910
Black cockatoo and Jay,EH23 4JL,55.835539241392500,-3.048288239465010
Greenbul and Skunk,TD1 2RP,55.701772127716900,-2.886188831623650
Cloud rat and Lemming,EH23 4TS,55.846553000000000,-3.052849000000000
Snipe and Duck,EH23 4XE,55.849287108451200,-3.050383371497770
Condor and Moluccan boobook,EH23 4PH,55.857240000000000,-3.056605000000000
Dorcopsis and Thicketbird,EH36 5PW,55.851439798377700,-2.849564577138730
Skunk and American sparrow,EH22 4QD,55.864444998454700,-3.060922905116540
Black cockatoo and Masked owl,EH23 4GF,55.844041443733600,-3.052270089735140
Cuscus and Armadillo,EH37 5UZ,55.847141615801000,-2.982718618251050
Rat and Armadillo,EH23 4LA,55.838472051743600,-3.047872165111940
Polecat and Solitaire,EH23 4ES,55.848140770874700,-3.046774751196280
