name,postcode,lat,lon
rattlesnake and Viscacha,IV19 1BN,57.808856832711900,-4.048181456965500
Komodo dragon and sand lizard,IV19 1LZ,57.797421571510900,-4.034105242608450
sand lizard and Grouse,IV20 1RE,57.828204000000000,-3.824941000000000
water snake and Peafowl,IV20 1RX,57.816036000000000,-3.920083000000000
crocodile and crocodile,IV20 1SY,57.775042715818800,-3.965698324865630
cerastes and Ice seal,IV20 1YS,57.834976446233400,-3.827574327396720
diamondback turtle and flying lizard,IV25 3AE,57.879689000000000,-4.024939000000000
Jackal and racer,IV25 3AP,57.879836297633300,-4.027356332194190
Tit-tyrant and gecko,IV25 3HW,57.881390339638700,-4.031306171391170
python and Pratincole,IV25 3LU,57.877555639358200,-4.025018734675550
Buzzard and cobra de capello,IV25 3QP,57.883548860196900,-4.037331456768370
Zebra and Herring gull,IV25 3QW,57.882252812015500,-4.035234142171750
leguaan and gaboon viper,IV25 3SB,57.880389114795800,-4.031553288043680
elapid and racer,IV25 3SH,57.880714094400000,-4.029532000000000
hoop snake and Flameback,IV25 3SQ,57.880243825432200,-4.027716584221870
skink and leguaan,IV25 3WE,57.880394794942000,-4.031554183314870
glass snake and hoop snake,KW10 6RN,57.975859048598300,-3.971494903785710
milk snake and bicycle lizard,KW10 6TD,57.935375014839000,-4.018495231503990
Parrotlet and Petrel,KW10 6TZ,57.977446095765900,-3.974592274583680
