name,id,postcode,lat,lon
Goose and python,1002957,IV19 1AF,57.811220556281800,-4.054240911453390
Recurvebill and harlequin snake,1003006,IV19 1DW,57.806502612150100,-4.050976611958300
boa constrictor and hognose snake,1002956,IV19 1AE,57.811700114229900,-4.054032517323710
Songlark and Partridge,1002637,IV19 1HR,57.815008219293100,-4.063328603581020
caiman and smooth snake,1002984,IV19 1BT,57.808975705485800,-4.052497311266090
Dorcopsis and Chickadee,1001121,IV28 3XA,57.987785573553100,-4.154509015401480
Gila monster and bearded dragon,1003008,IV19 1DY,57.812763049946800,-4.056079418809690
gopher snake and kabaragoya,1001025,IV25 3JE,57.962507000000000,-4.108701000000000
Kite and fer-de-lance,1003007,IV19 1DX,57.808040000000000,-4.057006000000000
Magpie and Skunk,1002968,IV19 1AX,57.809249826470000,-4.054987283918630
thorny devil and Dolphin,1002731,IV19 1PP,57.810641104259800,-4.056177444647230
horned viper and flying dragon,1000949,IV27 4ET,57.927506000000000,-4.401488063685200
Chipmunk and bull snake,1002978,IV19 1BJ,57.809699264618200,-4.051090808721490
coral snake and Mamo,1002962,IV19 1AP,57.810739888721200,-4.055072069767530
diamondback turtle and Towhee,1002690,IV19 1NN,57.805507503084800,-4.060261249478290
cobra and Mamo,1003019,IV19 1EP,57.811347412435400,-4.058052522092450
Herring gull and Chickadee,1001496,IV24 3EF,57.895436409052200,-4.347347492686060
viper and sand lizard,1002653,IV19 1JR,57.807011530652600,-4.065009394431540
crocodile and deaf adder,1001177,IV25 3RE,57.889794000000000,-4.083724000000000
racer and milk snake,1002987,IV19 1BX,57.808765959058000,-4.053798318067310
