name,postcode,lat,lon
taipan and Perching duck,LL60 6AL,53.223519406253600,-4.234456178233890
flying lizard and diamondback terrapin,LL60 6BL,53.222732573772500,-4.269889851304370
blindworm and sea snake,LL60 6DP,53.213535000000000,-4.269463000000000
Buzzard and horned toad,LL60 6DS,53.212942283971500,-4.267964145603710
bearded dragon and whip snake,LL60 6EG,53.209215808120800,-4.252895000000000
indigo snake and Elephant,LL60 6HA,53.211995381295100,-4.253431230257490
swift and Stilt,LL60 6LA,53.226942664009200,-4.292301565100980
wall lizard and River dolphin,LL61 5BA,53.226573000000000,-4.201300000000000
Stilt and Diving bird,LL61 5JG,53.223188529804800,-4.205900299967120
B and Ice seal,LL61 5JY,53.223832093878100,-4.199296766114370
pit viper and snake,LL61 5NY,53.221733000000000,-4.199075000000000
Night heron and boa,LL61 5YX,53.221634000000000,-4.214164000000000
racer and mountain devil,LL61 6NT,53.217743130517800,-4.199419079241900
Wallaby and Scimitar babbler,LL63 5AX,53.200368000000000,-4.455475471150600
brown snake and Hawk,LL63 5RS,53.226237445525200,-4.477941685633420
Gull and crocodile,LL63 5RX,53.209109000000000,-4.465885000000000
agamid and Mockingbird,LL63 5UD,53.238882411877600,-4.479077102059980
racer and Mouse,LL63 5UF,53.241038303374700,-4.466611912371680
Goose and snapping turtle,LL63 5YH,53.219640356958000,-4.472632086230270
fer-de-lance and elapid,LL63 5YN,53.203343000000000,-4.487183000000000
diamondback terrapin and New World blackbird,LL64 5JR,53.219254461276500,-4.509566411325500
gecko and Boto,LL64 5JY,53.229863449228000,-4.521095614547400
puff adder and B,LL64 5YX,53.227509721454100,-4.522275797764830
deaf adder and Meadowlark,LL64 5YZ,53.226352450909200,-4.523001841480860
Polecat and Viscacha,LL65 3AJ,53.289550424345400,-4.414999663542020
Parakeet and giant tortoise,LL65 3AZ,53.283950741334000,-4.404241809265910
diamondback turtle and Tree warbler,LL65 3BF,53.292119749238700,-4.565713644942890
box turtle and Gull,LL65 3BP,53.297493000000000,-4.559642000000000
dukite and swift,LL65 3DW,53.285516000000000,-4.563877000000000
hognose snake and black snake,LL65 3EP,53.278878106784000,-4.570185489767410
soft-shelled turtle and Duck,LL65 3EU,53.281494545231100,-4.567267092347650
kabaragoya and Old World vulture,LL65 3HA,53.276378813552200,-4.575585682431520
Grouse and wall lizard,LL65 3LF,53.255587158974900,-4.547317742161690
B and diamondback turtle,LL65 3LH,53.260696251347500,-4.524409258566060
Nukupuʻu and Ibex,LL65 3LJ,53.290271713457200,-4.378683420861750
Stilt and Old World vulture,LL65 3LN,53.263420913351400,-4.523969992421660
worm lizard and mamba,LL65 3LX,53.274012138884400,-4.375275256916870
caiman and snapping turtle,LL65 3NF,53.269462499935100,-4.520171590488370
Asiatic leopard and Siskin,LL65 3PP,53.268925137341400,-4.475461618400800
Nukupuʻu and Minke whale,LL65 3PS,53.268130224098600,-4.471741307029730
gavial and gecko,LL65 3PU,53.269668000000000,-4.470934716872410
black snake and Logrunners,LL65 3SF,53.267136000000000,-4.481987000000000
ringhals and Gila monster,LL65 4BA,53.362623316528400,-4.483147305285430
Goose and taipan,LL65 4DE,53.319005097174300,-4.501334075199680
horned viper and Capuchin,LL65 4DY,53.348575668209200,-4.515071468216250
iguana and Parakeet,LL65 4EL,53.373311976656200,-4.537066678898550
boomslang and Black cockatoo,LL65 4EQ,53.368986229167600,-4.533306767391240
Recurvebill and deaf adder,LL65 4LA,53.373610000000000,-4.531988000000000
Shearwater and Dolphin,LL65 4PB,53.350772000000000,-4.538777000000000
Schneider python and Old World quail,LL65 4PJ,53.258953271464800,-4.413259646414880
Bronzewing pigeon and Ibex,LL65 4RA,53.264838000000000,-4.414431000000000
carpet snake and Black jay,LL65 4TL,53.323717350462000,-4.463722077042800
Vole and sand lizard,LL65 4UG,53.310761264410900,-4.528985253577480
habu and carpet snake,LL65 4UW,53.312375385593500,-4.530882295825260
glass snake and crocodile,LL66 0BN,53.347863020393900,-4.443388228510550
milk snake and Old World warbler,LL67 0HD,53.415536375525000,-4.456598625248300
lizard and Grackle,LL67 0HF,53.414916134755100,-4.457597000000000
worm lizard and python,LL67 0NF,53.412892679693800,-4.448741457611240
Logrunners and tortoise,LL68 0PS,53.384502475065000,-4.451652583634240
krait and Cuscus,LL68 0RY,53.391709435852300,-4.453586099760810
Armadillo and Capuchin,LL68 9AU,53.408204797493900,-4.351918906215480
cobra de capello and Quetzal,LL68 9BJ,53.406736257855000,-4.349791628884570
copperhead and Ice seal,LL68 9BL,53.408600622717000,-4.353731281147780
skink and Marsh harrier,LL68 9DT,53.411198766293700,-4.335893229950060
bearded dragon and chuckwalla,LL68 9LY,53.402295309750000,-4.306911671019110
Warbler and Linsang,LL68 9NA,53.398272787706900,-4.308032776575760
Ibex and Jerboa,LL68 9RA,53.357875000000000,-4.360102131875620
ringhals and Petrel,LL68 9SR,53.420691538329400,-4.371527149729030
agama and coral snake,LL68 9TE,53.419562818179600,-4.369056244340430
Komodo dragon and gaboon viper,LL68 9TH,53.403788000000000,-4.352066000000000
Partridge and Flameback,LL68 9TP,53.396454056708700,-4.366463170669560
Prion and snapping turtle,LL69 9YB,53.390311390107000,-4.318475651311320
Marmoset and thorny devil,LL69 9YW,53.387287415323800,-4.317709692668110
anole and gavial,LL70 9PJ,53.356673000000000,-4.284316476820230
Prion and Pratincole,LL71 7AP,53.294545086096900,-4.407658266180320
rat snake and Mouse,LL71 7DL,53.326983485638400,-4.393416224603370
cerastes and Ice seal,LL71 8EB,53.329794853561800,-4.373313359219430
box turtle and Chicken,LL72 8HH,53.352168668271500,-4.236764639532850
Parrotlet and caiman,LL72 8HL,53.352218000000000,-4.236636550271500
Ice seal and Meadowlark,LL72 8HU,53.354901206688200,-4.234398250111690
water snake and boa constrictor,LL72 8LA,53.354544466090000,-4.234244338470820
Boto and diamondback turtle,LL72 8NL,53.355847324123200,-4.263375754290550
Coati and Songlark,LL74 8AB,53.320330188100500,-4.230609649413930
Mockingbird and Macaw,LL74 8RS,53.325870245831000,-4.226878000000000
bearded lizard and Grackle,LL74 8RY,53.313448776995900,-4.246663000000000
dukite and Pitohui,LL74 8TQ,53.319265261458800,-4.228481432256720
Snipe and Quetzal,LL74 8TS,53.316620563995900,-4.225671157207900
jew lizard and Night heron,LL74 8UE,53.317807698671300,-4.229981940486060
Coati and bearded dragon,LL76 8SX,53.301013000000000,-4.232948000000000
Minke whale and Linsang,LL77 7AB,53.252172766667800,-4.312165736769430
Vole and Puffleg,LL77 7AX,53.257637000000000,-4.334080000000000
taipan and caiman,LL77 7EJ,53.265190281556400,-4.362699224867250
Tit-tyrant and king snake,LL77 7EU,53.251309998009200,-4.313587651787850
Shearwater and Ibex,LL77 7EY,53.249229724014400,-4.314224874667350
Hawk and black snake,LL77 7GD,53.246726666943700,-4.341100745752660
constrictor and swift,LL77 7HH,53.255312551566400,-4.307012182724310
Parrotlet and saltwater crocodile,LL77 7JA,53.251824000000000,-4.306150000000000
kabaragoya and Grackle,LL77 7LX,53.263910299900600,-4.375074976879890
Black jay and Logrunners,LL77 7NX,53.275859805106700,-4.308704051698580
cerastes and Stint,LL77 7RJ,53.279891827575900,-4.310346569715870
New World blackbird and Prion,LL77 7RT,53.254542098763700,-4.309654297591990
Grouse and Stilt,LL77 7TT,53.248263000000000,-4.312209000000000
tuatara and sand lizard,LL77 7UX,53.249916409867500,-4.307096480205230
Mamo and ringhals,LL77 8UX,53.291086023899800,-4.339355304368950
hoop snake and Grouse,LL78 8JY,53.315929942899900,-4.257148474768710
