name,postcode,lat,lon
Night heron and blue racer,LL63 5RQ,53.217826028465300,-4.479028771350200
cycling lizard and worm lizard,LL63 5TD,53.218951383295200,-4.500036190206570
Armadillo and Schneider python,LL64 5JP,53.223025498199900,-4.510670935198900
flying dragon and bearded lizard,LL64 5JW,53.225453269515500,-4.517480293394070
Cloud rat and Civet,LL64 5JZ,53.229392475315200,-4.521682273560090
Polecat and Old World quail,LL64 5QY,53.234967350334800,-4.512733812678490
asp and cobra de capello,LL64 5RB,53.232867000000000,-4.519444000000000
bicycle lizard and agama,LL65 1AN,53.314756052817600,-4.640416264070530
horned toad and Jackal,LL65 1AS,53.316239300544800,-4.641649003695330
Hawk and bull snake,LL65 1BQ,53.309661155843100,-4.649994920620680
Elephant and slowworm,LL65 1EU,53.314601227310800,-4.632374072215400
Mockingbird and horned viper,LL65 1HN,53.313675454268900,-4.633172865547500
Scimitar babbler and deaf adder,LL65 1PX,53.309474695628500,-4.647055927209830
rat snake and Buzzard,LL65 1RR,53.310030707660500,-4.634539754919270
giant tortoise and Old World vulture,LL65 1RW,53.310870000000000,-4.634036000000000
Mink and coral snake,LL65 1SN,53.309660936527600,-4.634889000000000
perentie and hoop snake,LL65 1SR,53.306675705312500,-4.637440440489020
Dorcopsis and Viscacha,LL65 1SS,53.306357454036500,-4.637600949591970
Mamo and Condor,LL65 1SY,53.307260390354700,-4.638242096430270
puff adder and alligator,LL65 1TL,53.310063194331900,-4.637949631706330
worm lizard and goanna,LL65 1YS,53.314306000000000,-4.656729848475090
snake and krait,LL65 2AR,53.304721206069900,-4.636779519220350
amphisbaena and Polecat,LL65 2EH,53.308168000000000,-4.618317000000000
B and hognose snake,LL65 2EN,53.307215700715500,-4.617484000000000
Solitaire and mountain devil,LL65 2HF,53.306305099031100,-4.626534369288490
Jerboa and Tahr,LL65 2HN,53.309606570231100,-4.625235908122630
Macaw and Jay,LL65 2LZ,53.272080000000000,-4.598799182323980
Magpie and Logrunners,LL65 2NP,53.305818000000000,-4.627578318652360
moloch and Flameback,LL65 2NR,53.305734180460500,-4.627144783749260
diamondback turtle and water snake,LL65 2PD,53.303672276453800,-4.619512940992670
Black cockatoo and sea snake,LL65 2PW,53.304957000000000,-4.618016069370200
Black cockatoo and whip snake,LL65 2PX,53.273747295507400,-4.581682272848090
diamond snake and alligator,LL65 2PZ,53.272365617139700,-4.583203888203880
fer-de-lance and Partridge,LL65 2RY,53.301881573773400,-4.630600548720070
puff adder and tiger snake,LL65 2TF,53.300012000000000,-4.627379000000000
chameleon and frill-necked lizard,LL65 2WJ,53.282069245400000,-4.632399074300000
gavial and Kangaroo,LL65 2WN,53.283012481400000,-4.633252252100000
Nukupu ªu and python,LL65 2YF,53.295750902515300,-4.626456658336440
Ibex and Tattler,LL65 3AE,53.270005002188000,-4.480173443003300
tuatara and Tattler,LL65 3AG,53.286367018168700,-4.571353000000000
puff adder and anole,LL65 3BF,53.292119749238700,-4.565713644942890
hawksbill and Myna,LL65 3DE,53.299190000000000,-4.527389322546170
taipan and massasauga,LL65 3DF,53.299534429845900,-4.526715572312130
python and diamond python,LL65 3DH,53.300931280319500,-4.531225764503840
Cloud rat and Black jay,LL65 3DZ,53.268080142825900,-4.493994592771900
Vole and Chicken,LL65 3EY,53.279157648208000,-4.575977890054750
Mouse and chuckwalla,LL65 3FF,53.274441000000000,-4.511815000000000
Polecat and River dolphin,LL65 3LW,53.261831665900500,-4.523441487703390
bull snake and Towhee,LL65 3TS,53.293865234506700,-4.502220203003290
Skunk and whip snake,LL65 4DB,53.316161630960500,-4.510851978999230
giant tortoise and Grouse,LL65 4DH,53.315398510288000,-4.523654000000000
Ice seal and Meadowlark,LL65 4EW,53.397282964652600,-4.560606549559400
Bronzewing pigeon and whip snake,LL65 4HP,53.371041607413100,-4.510938325968780
Quetzal and Tahr,LL65 4NS,53.352121000000000,-4.535777000000000
amphisbaena and Shearwater,LL65 4NU,53.352578466421000,-4.537908237854820
Pitohui and Logrunners,LL65 4UY,53.316735729369300,-4.533017252864970
Ice seal and B,LL65 4YD,53.320824056733000,-4.542013909976500
Chipmunk and Booted eagles,LL68 0SN,53.382580000000000,-4.484670000000000
diamond python and Macaw,LL68 0SR,53.389435879723300,-4.504591568671800
Mamo and Dolphin,LL68 0UD,53.392766494845900,-4.495822594653510
