name,postcode,lat,lon
Out to lunch,CH1 6ER,53.26091400000000,-2.94610900000000
Foxes tea rooms ,CH1 6EY,53.24882125854490,-2.96456098556519
Pesto at The Yacht,CH1 6EY,53.24882125854490,-2.96456098556519
Red Ensign Starbucks,CH1 6JS,53.23312200000000,-2.94246900000000
Flip Out Chester,CH1 6LT,53.24706400000000,-2.93206000000000
The Kitchen  Flip Out Chester,CH1 6LT,53.24706400000000,-2.93206000000000
Crabwall Manor Hotel & Spa ,CH1 6NE,53.21990300000000,-2.92467000000000
Brook Mollington Banastre Hotel & Spa,CH1 6NN,53.21685200000000,-2.91822500000000
Little Molly's Tea Rooms,CH1 6NY,53.21756362915040,-2.91788101196289
The indian brasserie ,CH2 1JF,53.21898800000000,-2.87808800000000
The Oakfield,CH2 1LH,53.22551700000000,-2.87760700000000
Fish and Chips At Weston Grove,CH2 1QL,53.21416900000000,-2.88058000000000
Village Cafe Upton,CH2 1QL,53.21426800000000,-2.88053700000000
The Bears Paw,CH2 2BT,53.20634460449220,-2.88925504684448
Wahala Barbecue & Grill,CH2 3LF,53.2026,-2.8613
The Piper,CH2 3LS,53.2045,-2.8577
DoubleTree by Hilton Hotel & Spa Chester,CH2 3PD,53.20636900000000,-2.85433800000000
Shrewsbury Arms ,CH2 4EB,53.22733000000000,-2.82651900000000
Meadow lea farm coffee shop,CH2 4EH,53.21891700000000,-2.83040100000000
THE CHESTER FIELDS,CH2 4JR,53.23620500000000,-2.82360400000000
Encirc,CH2 4LF,53.28000259399410,-2.81421709060669
Duke of Wellington,CH2 4NR,53.28429500000000,-2.82635900000000
KFC,CH41 0AB,53.40040600000000,-3.05435000000000
Fat Lolly Sams,CH41 0DF,53.39530181884770,-3.05646395683289
Pitstop cafe,CH41 1FD,53.4066,-3.0459
Cafe Barista - 12 Quays,CH41 1FE,53.4032,-3.0161
Burger King  Kiosk 4 Food Court,CH41 2PH,53.38906478881840,-3.02937889099121
Charming Thai Kitchen Restaurant ,CH41 2QJ,53.38843200000000,-3.03186000000000
Busy Bee Takeaway ,CH41 2RA,53.3888,-3.0271
Coffee on the Square,CH41 2RD,53.38949584960940,-3.02318000793457
Caffe Nero,CH41 2XU,53.38952800000000,-3.02460900000000
The Cafe,CH41 2XY,53.3904,-3.0225
Wimpy Restaurant ,CH41 2XY,53.39040800000000,-3.02267500000000
Costa Coffee,CH41 2YB,53.38962900000000,-3.02537800000000
M & Ems ltd t/a Subway,CH41 2ZL,53.38939600000000,-3.02639500000000
Sun Ying,CH41 4DA,53.38917300000000,-3.03246500000000
Cramstones Cafe,CH41 4DB,53.38919600000000,-3.03398400000000
Caffe Cream at Birkenhead Park,CH41 4HY,53.39539337158200,-3.03863096237183
Mecca Bingo,CH41 4PF,53.39175300000000,-3.02407600000000
Joro Vegan Eatery,CH41 5AR,53.39272110000000,-3.01599520000000
Sugarr Food and Dessert Bar LTD,CH41 5BT,53.39258000000000,-3.01675700000000
Gallaghers Traditional Pub,CH41 5DQ,53.39386400000000,-3.01265200000000
The Riverview,CH41 5DQ,53.39386400000000,-3.01265200000000
Alleycats ,CH41 6AB,53.3918,-3.0182
capitol chinese restaurant,CH41 6AE,53.39311700000000,-3.01804800000000
Sawasdee Thai restaurant ,CH41 6AF,53.39199600000000,-3.01877400000000
Liberty Bell Coffee,CH41 6DJ,53.3949,-3.0125
Bamboo Thai Limited,CH41 6DU,53.3954,-3.0093
Caffe Cream at Woodside,CH41 6DU,53.3954,-3.0093
Haku,CH41 6DU,53.3954,-3.0093
Low Slow and Dough Ltd,CH41 6DU,53.3954,-3.0093
REFRESHMENT ROOMS WOODSIDE LTD,CH41 6DU,53.3954,-3.0093
Woodside Ferry Village,CH41 6DU,53.39545440673830,-3.00947189331055
Mcdonalds,CH41 6EB,53.38928400000000,-3.03000100000000
PGriffiths foods ltd Mcdonalds Birkenhead,CH41 6EB,53.38928400000000,-3.03000100000000
McDonalds,CH41 9DF,53.38642500000000,-3.01638500000000
KFC - ROCKFERRY,CH42 1LJ,53.37574900000000,-3.01077900000000
KFC,CH42 1LJ,53.37574900000000,-3.01077900000000
WATERFRONT PUBS LIMITED,CH42 1LS,53.3744,-3.0031
Subway,CH42 5AB,53.38109100000000,-3.02415000000000
Armadillo Restaurant,CH42 6PU,53.37378500000000,-3.02499800000000
Rubens Coffee Ltd,CH42 8PF,53.37316513061520,-3.04757404327393
Thai Rooster Kitchen ,CH42 8PF,53.37316600000000,-3.04757400000000
Benricks,CH42 8PQ,53.37390700000000,-3.04512700000000
M & Ems ltd t/a Subway,CH42 8PQ,53.37390700000000,-3.04512700000000
Ruhi Balti,CH42 9PD,53.37411500000000,-3.03881900000000
Villa Venezia NW Limited,CH42 9PN,53.37453100000000,-3.03329800000000
Ella Turkish Charcoal Grill,CH42 9PQ,53.3730,-3.0403
Home Coffee,CH43 5SF,53.38255900000000,-3.04149100000000
Elixir Oxton,CH43 5SG,53.38174600000000,-3.04304900000000
Thyme Oxton Ltd,CH43 5SG,53.38174600000000,-3.04304900000000
Fit Grill,CH43 5SR,53.38227500000000,-3.04416000000000
Queens Arms ,CH43 5TL,53.37835600000000,-3.04525100000000
Oxton Bar and Kitchen,CH43 5TQ,53.38167600000000,-3.04178500000000
Subway,CH43 9JW,53.37887900000000,-3.06423500000000
Townfield Cafe,CH43 9JW,53.37883500000000,-3.06423500000000
Cult Coffee,CH44 2AE,53.4197,-3.0495
The Bidston Golf Club Ltd,CH44 2HR,53.41214200000000,-3.08090800000000
McDonalds,CH44 5TP,53.41969500000000,-3.04334600000000
PGriffiths foods ltd Mcdonalds Wallasey,CH44 5TP,53.41969500000000,-3.04334600000000
Rise & Grind wallasey ltd ,CH44 5UB,53.41755220000000,-3.04466850000000
The Cafe,CH44 5XT,53.4193,-3.0455
Costa Coffee - Within Central Atrium,CH44 5XU,53.41962800000000,-3.04581040000000
Costa Coffee,CH44 5XU,53.41962800000000,-3.04581040000000
Jeanies Cafe,CH44 5XX,53.41930200000000,-3.04405900000000
CAFE CROSS THE MERSEY LIMITED,CH44 6QY,53.40925216674800,-3.01706504821777
Tandoori Mahal,CH44 8AU,53.41926900000000,-3.02714500000000
The Ferry ,CH44 8DF,53.41894000000000,-3.02557100000000
Porkys pantry ,CH45 3LE,53.42268000000000,-3.06456200000000
Subway,CH45 3LN,53.42380142211910,-3.06486105918884
stollies cafe and delicatessen,CH45 3LN,53.42352300000000,-3.06482190000000
Sheridans Bar & Grill,CH45 3LQ,53.42312300000000,-3.06434800000000
PANEER RESTAURANT LIMITED,CH45 4JP,53.42088317871090,-3.04406690597534
Paneer Restaurant,CH45 4JP,53.42088317871090,-3.04406690597534
New Chinese Kitchen,CH45 4LD,53.42355600000000,-3.04687200000000
KFC - LISCARD,CH45 4NE,53.41989890000000,-3.04668980000000
KFC,CH45 4NE,53.41989890000000,-3.04668980000000
Pizza Hut,CH45 4NE,53.42017200000000,-3.04626100000000
M & Ems ltd t/a Subway,CH45 4NL,53.41987100000000,-3.04583300000000
vinovino restaurant ,CH45 4NN,53.4193,-3.0475
The new Ying king restaurant ,CH45 4QN,53.42106200000000,-3.04626900000000
Elachi,CH45 4QW,53.42194800000000,-3.04680200000000
Pizza Hut,CH46 0PD,53.40055900000000,-3.11078600000000
M & Ems ltd t/a Subway,CH46 0RL,53.39972100000000,-3.11494600000000
Cafe Blu ,CH46 0SJ,53.40102300000000,-3.11213700000000
Mockbeggar Hall  Wetherspoons,CH46 0SL,53.40026092529300,-3.11408805847168
Leasowe Castle Hotel,CH46 3RF,53.41861700000000,-3.10802200000000
saughall hotel ,CH46 5ND,53.38960900000000,-3.12349300000000
Asma Turkish Restaurant,CH46 6DQ,53.3960,-3.1255
Fullhouse Chinese Restaurant,CH47 2AB,53.39061600000000,-3.17850930000000
Nine Leaves Tea Lounge,CH47 2AB,53.39073900000000,-3.17871000000000
Monte Carlo restaurant bar and grill,CH47 2AE,53.39126400000000,-3.17842400000000
The Potting Shed,CH47 2AE,53.39130440000000,-3.17854410000000
Khao Soi Thai Restaurant,CH47 2AF,53.39195500000000,-3.17757000000000
The Artizan Hoylake,CH47 2AF,53.3919,-3.1776
Flavours,CH47 2BG,53.39320400000000,-3.17668800000000
The Quadrant Restaurant,CH47 2EE,53.39044952392580,-3.17993497848511
ground ,CH47 2EE,53.3904,-3.1799
Popsy's Licensed Coffee Shop And Bistro,CH47 3AG,53.39774800000000,-3.17443700000000
Bank Coffee Shop,CH47 3BB,53.39290237426760,-3.17618298530579
Subway,CH47 3BB,53.39290237426760,-3.17618298530579
Mother India Kitchen,CH47 3BD,53.39407400000000,-3.17510300000000
Julian's Restaurant,CH47 3BW,53.39700900000000,-3.17195000000000
Heima Coffee,CH47 8XA,53.3998,-3.1555
Maple Gardens Cafe ,CH47 8XT,53.40751020000000,-3.14897790000000
ATRIUM RESTAURANT,CH47 9RE,53.39431600000000,-3.14181400000000
Lattetude,CH48 0QA,53.37280200000000,-3.18550500000000
Royal Bengal Restaurant,CH48 0QB,53.36828231811520,-3.18330502510071
Pebbles(Hoylake)Ltd,CH48 0QG,53.37248500000000,-3.18842700000000
Subway,CH48 0QX,53.37176132202150,-3.18421292304993
The Tapas Kitchen,CH48 0RB,53.36801147460940,-3.18256092071533
Love Brownies West Kirby,CH48 0RD,53.37191030000000,-3.18477230000000
PICKLED WALNUT,CH48 0RD,53.3717,-3.1847
Rubens Coffee Ltd,CH48 0RD,53.37196410000000,-3.18478880000000
Green Onions Cafe,CH48 0RE,53.3702,-3.1842
The Nook Cafe,CH48 0RE,53.37053140000000,-3.18422300000000
shuhel balti house,CH48 0RE,53.36974600000000,-3.18394550000000
Andres Restaurant,CH48 0RF,53.36894607543950,-3.18362307548523
CALDY GOLF CLUB,CH48 1NB,53.35401900000000,-3.15388300000000
The Caldy Golf Club Limited,CH48 1NB,53.35401900000000,-3.15388300000000
Annabel's Cafe,CH48 1PL,53.3743,-3.1465
JJ Jacobs Estates Ltd,CH48 1PP,53.3729,-3.1354
Hickory's Smokehouse,CH48 3JN,53.36729700000000,-3.17496700000000
Aubergine Café,CH48 4DA,53.37220800000000,-3.18376000000000
Hannah's West Kirby,CH48 4DD,53.37241000000000,-3.18331400000000
The Sweet Pea Cafe,CH48 4DD,53.37255859375000,-3.18291211128235
Forza ,CH48 4DY,53.3735,-3.1845
Grand Ave,CH48 4DY,53.37355000000000,-3.18438300000000
Karma indian food ,CH48 4DY,53.37355000000000,-3.18438300000000
The Wro,CH48 4DY,53.37355000000000,-3.18438300000000
West Kirby Tap,CH48 4DY,53.37355000000000,-3.18438300000000
toast,CH48 4DZ,53.37300100000000,-3.18351100000000
Costa Coffee,CH48 4EF,53.37276020000000,-3.18246600000000
Dee Hotel - Wetherspoons,CH48 4EF,53.37276020000000,-3.18246600000000
Figo's Mediterranean Kitchen ,CH48 4EG,53.37292480468750,-3.18144989013672
Blind Pig West Kirby,CH48 4HD,53.37271118164060,-3.18461489677429
Leaf Tea Shop & Bar West Kirby Venue Ltd,CH48 6DS,53.3742,-3.1684
The Ridger,CH48 9XW,53.37290140000000,-3.15236250000000
THE VILLAGE CAFE,CH49 0TH,53.38466800000000,-3.09802900000000
Noya Mediterranean Restaurant,CH49 0TQ,53.38495800000000,-3.09778100000000
Kerala Kitchen,CH49 0UB,53.38372802734380,-3.09847092628479
Re-Fuel Cafe,CH49 1AB,53.37622070312500,-3.10254693031311
Oak Bar and Bistro,CH49 3NQ,53.37695300000000,-3.12058900000000
IRBY MILL LTD,CH49 3NT,53.36774500000000,-3.12276700000000
McDonalds,CH49 6QG,53.37955900000000,-3.10228700000000
Pizza Hut,CH5 1QJ,53.21128463745120,-3.03255391120911
KFC - QUEENSFERRY,CH5 1SX,53.20593160000000,-3.02371060000000
KFC,CH5 1SX,53.20593160000000,-3.02371060000000
M & Ems ltd t/a Subway,CH5 1SX,53.20661600000000,-3.02263500000000
Thaidee Queensferry,CH5 1SX,53.2066,-3.0227
The Plough Inn,CH5 1TJ,53.20012170000000,-3.03755440000000
McDonald's,CH5 1TP,53.20528411865230,-3.02580595016479
C J's Cafe,CH5 2JZ,53.22565930000000,-2.99757370000000
Starbucks,CH5 2NS,53.22750854492190,-3.01072907447815
Burger King,CH5 2NY,53.22716522216800,-2.99743390083313
Just Jo’sCafe,CH5 2RA,53.21247700000000,-3.01214200000000
Compass Group-Education Sector,CH5 4BR,53.22599100000000,-3.07835500000000
YVONNES CAFE,CH5 4DS,53.2204,-3.0535
GTs Bar and Grill,CH5 4JR,53.20763100000000,-3.06275600000000
McDonald's,CH6 5BG,53.2480,-3.1380
RAJ BALTI HOUSE LIMITED,CH6 5DH,53.24797500000000,-3.13119900000000
Temptations Retail Ltd,CH6 5GB,53.25031140000000,-3.14021980000000
Eastern Spice,CH6 5NR,53.2490,-3.1332
Thaidee Flint,CH6 5NR,53.2490,-3.1332
Coach and Horses Inn,CH6 5QG,53.22623100000000,-3.14230900000000
FLINT MOUNTAIN HOTEL,CH6 5QG,53.22623100000000,-3.14230900000000
107 ltd,CH60 0AF,53.32770919799800,-3.09841203689575
AJS TEA ROOM & BAR,CH60 0AF,53.32800360000000,-3.09856890000000
Barton Rouge,CH60 0AH,53.32723400000000,-3.09539600000000
Blind Pig Heswall,CH60 0AH,53.32730130000000,-3.09578090000000
Gusto Italian,CH60 0AH,53.3272,-3.0955
Pizza Express,CH60 0AH,53.32723400000000,-3.09539700000000
Silk Rd Heswall,CH60 0AH,53.32723400000000,-3.09539700000000
Paolos Neapolitan Pizza Ltd,CH60 0AJ,53.32780600000000,-3.09679300000000
Rubens Coffee Ltd,CH60 0AJ,53.32780456542970,-3.09679293632507
The Coffee Shop,CH60 0AJ,53.32780600000000,-3.09679300000000
Burnt Truffle Limited,CH60 0AQ,53.32621200000000,-3.09317900000000
Stones,CH60 0AQ,53.32621200000000,-3.09317900000000
WYLDE COFFEE,CH60 0AQ,53.32620239257810,-3.09319305419922
Black Horse Hotel,CH60 0DP,53.32404400000000,-3.10210100000000
The Jug & Bottle,CH60 4RH,53.32657500000000,-3.09965900000000
Tel Island Food Bar ,CH60 5RT,53.32790500000000,-3.09481400000000
Barcode Cafe and Bar,CH60 7RE,53.32952200000000,-3.09788800000000
Nova Restaurant ,CH60 7RE,53.32952200000000,-3.09788800000000
Brunch Cafe,CH60 7RJ,53.33521270751950,-3.09677290916443
M & Ems ltd t/a Subway,CH60 7SE,53.32857400000000,-3.10020600000000
Costa Coffee,CH60 7SG,53.32915100000000,-3.10001100000000
Sheldrakes Restaurant ,CH60 9JS,53.32574400000000,-3.11942700000000
Fox & Hounds,CH61 1BW,53.34182900000000,-3.08294400000000
Shippons,CH61 3UA,53.3522,-3.1188
Zeera Restaurant,CH61 3UA,53.35225700000000,-3.11898000000000
Aroma ,CH61 3UE,53.35256958007810,-3.11721491813660
Dine India ,CH61 9ND,53.34369200000000,-3.09451200000000
Brunch Cafe,CH62 0BY,53.31703400000000,-2.96287100000000
riverside convenience store limited,CH62 1DY,53.36449570000000,-2.99348590000000
Buzz Bingo,CH62 3PN,53.34084900000000,-2.97572400000000
Cafe Pausa @ Dunelm,CH62 3PN,53.34084800000000,-2.97572400000000
Costa Coffee,CH62 3PN,53.34084900000000,-2.97572400000000
KFC BROMBOROUGH 02036,CH62 3PN,53.34084800000000,-2.97572400000000
KFC,CH62 3PN,53.34084800000000,-2.97572400000000
M & Ems ltd t/a Subway,CH62 3PN,53.34084800000000,-2.97572400000000
McDonalds,CH62 3PN,53.34084701538090,-2.97572398185730
Nando's,CH62 3PN,53.34084800000000,-2.97572400000000
PGriffiths foods ltd Mcdonalds Bromborough,CH62 3PN,53.34084701538090,-2.97572398185730
Pizza Hut,CH62 3PN,53.34084701538090,-2.97572398185730
Starbucks @ Village Hotel,CH62 4UE,53.34931500000000,-2.98580200000000
Tudor rose tea room,CH62 4XD,53.34990400000000,-2.99819500000000
The John Masefield  Wetherspoons,CH62 5AD,53.36132080000000,-2.99784990000000
Wirral Kitchen Ltd,CH62 6AU,53.3250,-2.9715
king Wah Restaurant,CH62 6AU,53.32494500000000,-2.97156300000000
Rubens Coffee Ltd,CH62 6BB,53.32236600000000,-2.98455000000000
WIRRAL TANDOORI RESTAURANT LIMITED,CH62 7ES,53.33356000000000,-2.97776500000000
M KITCHEN LTD,CH62 7HA,53.33209290000000,-2.97680000000000
M. KITCHEN LTD,CH62 7HA,53.33209290000000,-2.97680000000000
Cafe/desserts,CH62 7HH,53.3309,-2.9777
Rubens Coffee Ltd,CH62 7HH,53.3309,-2.9777
Village cafe,CH62 7HH,53.33097100000000,-2.97781100000000
Yogibare ,CH62 7HH,53.3309,-2.9777
Starbucks,CH62 9AQ,53.30600600000000,-2.96151300000000
Pesto at the Dibbinsdale Inn,CH63 0HJ,53.32431100000000,-2.99294300000000
Mere Brook House,CH63 0LU,53.32378800000000,-3.01444500000000
Bromborough Golf Club,CH63 0NW,53.31689900000000,-2.99885000000000
Thornton Hall Health Club,CH63 1JF,53.31849300000000,-3.04980700000000
Thornton Hall Hotel,CH63 1JF,53.31849300000000,-3.04980700000000
seven stars,CH63 1JW,53.32092400000000,-3.04422200000000
Wheatsheaf Inn,CH63 4JH,53.31137400000000,-3.03441300000000
Royal Voluntary Service,CH63 4JY,53.33136010000000,-3.02864920000000
Alo Pho,CH63 5JB,53.36165200000000,-3.01103200000000
STEAK HOUSE (UK) LTD,CH63 5ND,53.3612,-3.0271
MUZZY'S BREAKFAST HOUSE LTD,CH63 5NH,53.36167700000000,-3.02703600000000
The Mouse at Brimstage,CH63 6JA,53.33648900000000,-3.04670500000000
oriental delight,CH63 7NX,53.3563,-3.0038
wellington ,CH63 7PW,53.35350300000000,-3.00522000000000
La Luce Del Sole,CH63 7RE,53.35017040000000,-3.00275220000000
Sunlight Restaurant & Bar,CH63 7RE,53.34970855712890,-3.00214099884033
Rubens Coffee Ltd,CH63 8LG,53.35633468627930,-3.02310609817505
EZO LTD,CH63 8QT,53.3552,-3.0243
Our Coffee Shop,CH63 9JP,53.34096730000000,-3.00360260000000
Lady Hamilton,CH64 0SG,53.28294820000000,-3.06379920000000
NAGS HEAD WILLASTON LTD,CH64 1RA,53.29243800000000,-3.00648500000000
POLLARDS INN,CH64 2TU,53.29202500000000,-3.00763100000000
Bluebell Tearooms/Cafe,CH64 3TE,53.31808853149410,-3.06700110435486
Wheatsheaf Inn,CH64 4AP,53.27796300000000,-3.05059800000000
Baxterstorey,CH64 4AY,53.27335800000000,-3.04270200000000
Burtons at the Manor,CH64 5SJ,53.2596,-3.0286
The Neston Club,CH64 6QJ,53.29334640502930,-3.07936096191406
LITTLE TEA HOUSE,CH64 6SA,53.29407200000000,-3.08178000000000
The Ship,CH64 6SA,53.29407200000000,-3.08178000000000
britannia spice,CH64 6SA,53.29441000000000,-3.08212290000000
Elephant Lounge & Bar,CH64 6SB,53.29534400000000,-3.08317800000000
Saltys ,CH64 6SL,53.29590000000000,-3.08337100000000
Mozkitos Coffee House,CH64 6SP,53.29630200000000,-3.08269200000000
Cascades Coffee Shop,CH64 8TF,53.27353700000000,-2.99983300000000
Costa Coffee - Neston,CH64 9TZ,53.2893,-3.0634
Costa Coffee,CH64 9TZ,53.28932800000000,-3.06340300000000
Paisley Grey,CH64 9TZ,53.28932050000000,-3.06317720000000
Elephant Bank,CH64 9UB,53.28970250000000,-3.06468680000000
The Blue Bicycle,CH64 9UB,53.28950680000000,-3.06445690000000
Krikri Greek Restaurant,CH64 9UJ,53.28806800000000,-3.06269700000000
SONARGAON RESTAURANT LTD,CH64 9UJ,53.28896210000000,-3.06304830000000
REALFOODKITCHEN365,CH64 9XF,53.28983510000000,-3.06601670000000
Kelly’s cafe,CH65 0AJ,53.27838600000000,-2.89890700000000
Club 3000 Bingo Ellesmere Port,CH65 0AN,53.27775720000000,-2.90267770000000
M & Ems ltd t/a Subway,CH65 0AN,53.27818400000000,-2.90179800000000
Pizza Hut,CH65 0AN,53.27816970000000,-2.90190860000000
Tasty Food House ,CH65 0AN,53.2782,-2.9018
Wok & Go,CH65 0AN,53.27818298339840,-2.90179800987244
Costa Coffee,CH65 0AP,53.27762200000000,-2.90009100000000
Compass Group Uk & Ireland At Asda,CH65 0BZ,53.27670200000000,-2.89810700000000
dominik cafe,CH65 0HW,53.27838600000000,-2.89890700000000
Holiday Inn Ellesmere Port - Cheshire Oaks,CH65 2AL,53.28926200000000,-2.89652600000000
Eco Truck Cafe Limited,CH65 4LB,53.27903600000000,-2.87420400000000
Wolverham sandwich bar,CH65 5DD,53.27351300000000,-2.88935800000000
The Cockney Leek Bistro,CH65 7EU,53.2780,-2.9106
Essence of Spice,CH65 8AB,53.27967050000000,-2.89947090000000
Grace Tea Room,CH65 8AD,53.28076900000000,-2.89862700000000
Eastern Delight restaurant,CH65 9BD,53.27414200000000,-2.90849000000000
Burger King,CH65 9HD,53.26423400000000,-2.88603200000000
Costa Coffee,CH65 9HD,53.26423400000000,-2.88603100000000
Five Guys,CH65 9HD,53.26423400000000,-2.88603200000000
Freedome,CH65 9HD,53.2647,-2.8861
Haute Dolci,CH65 9HD,53.26381042515490,-2.88737697986947
Nandos,CH65 9HD,53.26423400000000,-2.88603100000000
Pizza Hut,CH65 9HD,53.26423400000000,-2.88603200000000
Prezzo,CH65 9HD,53.26423400000000,-2.88603100000000
Starbucks Coffee Company,CH65 9HD,53.26423400000000,-2.88603200000000
Starbucks Ellesmere Port - Cheshire Oaks,CH65 9HD,53.2647,-2.8861
Tenpin Ltd,CH65 9HD,53.26423400000000,-2.88603200000000
Zizzi,CH65 9HD,53.26423400000000,-2.88603200000000
Burger box ,CH65 9JJ,53.2638,-2.8803
COMPTOIR LIBANAIS,CH65 9JJ,53.26687930000000,-2.88047360000000
Crepe monsieur ,CH65 9JJ,53.2638,-2.8803
Donut diner ,CH65 9JJ,53.26372500000000,-2.88071300000000
Harry Ramsdens,CH65 9JJ,53.2638,-2.8803
LEON,CH65 9JJ,53.26687930000000,-2.88047360000000
McDonald's Cheshire Oaks,CH65 9JJ,53.26362200000000,-2.88126700000000
McDonalds Restaurant,CH65 9JJ,53.26362200000000,-2.88126700000000
Pizza Express,CH65 9JJ,53.26362200000000,-2.88126700000000
Starbucks Cheshire Oaks Outlet Centre,CH65 9JJ,53.2638,-2.8803
Wagamama,CH65 9JJ,53.26362200000000,-2.88126700000000
KFC,CH65 9JY,53.26186752319340,-2.88178491592407
Patisserie Valerie,CH65 9LA,53.26605600000000,-2.87911200000000
Pret A Manger,CH65 9LA,53.26611900000000,-2.87911400000000
Starbucks Coffee,CH65 9LA,53.26605600000000,-2.87911200000000
Blue Planet Aquarium,CH65 9LF,53.26024600000000,-2.89040100000000
Pig N Cow Diner,CH66 1LG,53.28762817382810,-2.92445302009583
Boulder Hut Limited,CH66 1ST,53.29363330000000,-2.91821310000000
Saffron,CH66 1SW,53.2939,-2.9224
Old Wirral Hundred,CH66 2BY,53.26160000000000,-2.92975300000000
White Swan,CH66 3NZ,53.27653100000000,-2.93664600000000
Holdi spice lounge ,CH66 3RF,53.28516500000000,-2.94622400000000
Meanay's Cafe,CH66 3RQ,53.28348900000000,-2.94450800000000
The White Lion,CH66 5PU,53.29166800000000,-2.95489000000000
Inglewood Manor ,CH66 8PF,53.27456530000000,-2.98109220000000
Compass Group-Education Sector,CH7 6AA,53.21200400000000,-3.14483600000000
highfield hall,CH7 6AZ,53.20586776733400,-3.10929203033447
McDonald's,CH7 6HS,53.2023,-3.0978
The Celtic Arms,CH7 6WA,53.20178985595700,-3.12330508232117
Penymaes stores ,CH8 7BX,53.27615900000000,-3.20959800000000
Bells Cafe,CH8 7LH,53.27360100000000,-3.22245200000000
Kassidys tea rooms ,CH8 7LH,53.27418170000000,-3.22319060000000
Stamford Gate Hotel Ltd,CH8 7SJ,53.26276397705080,-3.21074891090393
Betty Berkins Coffee Shop at Glasdir,CH8 8BD,53.2472,-3.1893
Springfield Hotel,CH8 8BD,53.24721145629880,-3.18934392929077
Burger King,CH8 8DF,53.22765100000000,-3.17106400000000
SIREN Liverpool,L1 0AB,53.39680320000000,-2.97984200000000
KFC,L1 0AE,53.39600930000000,-2.98397850000000
Ditto Coffee Liverpool Limited,L1 0AF,53.39707500000000,-2.98172910000000
The Baltic Roastery Limited,L1 0AH,53.39538090000000,-2.98012340000000
Blundell Street Reataurant ,L1 0AJ,53.39672088623050,-2.98364901542664
McDonalds ,L1 0AJ,53.39628270000000,-2.98438300000000
McDonalds,L1 0AJ,53.39628270000000,-2.98438300000000
Chapters Of Us,L1 0AX,53.3960,-2.9821
Baltic Bakehouse,L1 0AY,53.39681890000000,-2.98197040000000
Love Lane Brewery Bar & Kitchen,L1 0AY,53.39664620000000,-2.98304570000000
Coffee & Fandisha ,L1 0BL,53.3960,-2.9790
MY VISION LIMITED,L1 1DG,53.4051,-2.9818
Bramleys Cafe,L1 1DS,53.40605920000000,-2.98393950000000
P & D Italian Deli,L1 1DS,53.4059,-2.9841
Ask Italian,L1 1EP,53.40706634521480,-2.98188710212708
SHAKESPEARE,L1 1EQ,53.40678760000000,-2.98389620000000
McDonalds,L1 1HL,53.40739440917970,-2.98132300376892
KFC,L1 1HU,53.40592470000000,-2.97951400000000
Wetherspoons,L1 1HU,53.40591430664060,-2.97952890396118
Ma Egertons Stage Door,L1 1JA,53.40864500000000,-2.97772610000000
Caffe Nero Express,L1 1JD,53.40795898437500,-2.97823691368103
Starbucks,L1 1JF,53.40831756591800,-2.97722196578979
McDonalds,L1 1JR,53.40538890000000,-2.97909550000000
Shiraz Palace,L1 1JR,53.40539050000000,-2.97890000000000
Lobster Pot,L1 1JW,53.40507030000000,-2.98066760000000
Starbucks Ranelagh St Liverpool,L1 1JW,53.4050,-2.9809
Starbucks,L1 1JW,53.40508020000000,-2.98056260000000
Berlin doner,L1 1LG,53.4070,-2.9828
Dunkin Donuts Liverpool,L1 1LH,53.40679550170900,-2.98194098472595
The Cafe,L1 1LP,53.4062,-2.9815
KFC,L1 1LT,53.40695590000000,-2.98092160000000
Fat Lolly Sams,L1 1LX,53.40725326538090,-2.98107910156250
Subway,L1 1LX,53.40725326538090,-2.98107910156250
Key Lime Coffee,L1 1NG,53.40680694580080,-2.98034691810608
Holiday Inn Liverpool - City Centre,L1 1NQ,53.40676498413090,-2.98001503944397
Costa Coffee,L1 1NY,53.40803909301760,-2.97819399833679
Archie's,L1 1QE,53.40492790000000,-2.97959610000000
Burger King,L1 1QE,53.40460720000000,-2.98014560000000
Subway,L1 1QE,53.40460720000000,-2.98014560000000
wonton to go,L1 1QE,53.4048,-2.9799
Bon Pan Asian Restaurant (Liverpool Branch),L1 1QR,53.40546417236330,-2.98082709312439
Costa Coffee,L1 1QR,53.40546417236330,-2.98082709312439
McDonalds ,L1 1QR,53.40546417236330,-2.98082709312439
Wildwood Kitchen,L1 1QR,53.40531539916990,-2.98154592514038
Burger King,L1 1RH,53.40770380000000,-2.98287930000000
Costa Coffee,L1 1RH,53.40770380000000,-2.98287930000000
Five Guys,L1 1RH,53.40796700000000,-2.98227310000000
La Tasca - Liverpool,L1 1RH,53.4077,-2.9829
Nandos,L1 1RH,53.40817000000000,-2.98302550000000
icestone gelato,L1 1RH,53.40770380000000,-2.98287930000000
The North Western (Wetherspoons),L1 1RJ,53.40851120000000,-2.97870090000000
Damas Cafe & Eatery ,L1 2SJ,53.40291700000000,-2.97578980000000
Indian delight,L1 2SJ,53.40282780000000,-2.97571260000000
UNI Restaurant,L1 2SJ,53.40317560000000,-2.97605150000000
Yukti isf,L1 2SJ,53.40305090000000,-2.97591320000000
The Butterfly and Grasshopper,L1 2SU,53.4030,-2.9742
Bao & Bap,L1 2TE,53.40268560000000,-2.97330270000000
Cafe' Porto,L1 2TE,53.40268560000000,-2.97330270000000
Turncoat Bar & Pizza at The Bombed Out Church,L1 2TR,53.4022,-2.9743
Voltagabbana at The Botanical Garden,L1 2TR,53.4022,-2.9743
The Athenaeum,L1 3DD,53.40472793579100,-2.98389410972595
Caffe Nero,L1 3DE,53.40394930000000,-2.98478720000000
BISTRO FRANC,L1 3DN,53.40289940000000,-2.98559640000000
Bem Brasil,L1 3DN,53.40326710000000,-2.98448250000000
Lunya,L1 3DN,53.40351080000000,-2.98391940000000
Yard & Coop,L1 3DN,53.40318280000000,-2.98467200000000
Yard and Coop Liverpool,L1 3DN,53.40318280000000,-2.98467200000000
Roxy Ball Room Liverpool,L1 3DS,53.4036,-2.9844
Malmo Coffee,L1 3DY,53.40416336059570,-2.98260188102722
Subway (Hanover Street),L1 3DY,53.40399060000000,-2.98298930000000
Turtle Bay,L1 3DY,53.40390830000000,-2.98315290000000
Wok & Go (Liverpool One),L1 3DY,53.40388080000000,-2.98322750000000
Head of Steam (Liverpool),L1 3DZ,53.40439200000000,-2.98217650000000
Starbucks,L1 3EU,53.40408550000000,-2.98581240000000
MerseyMade Ltd,L1 3HJ,53.4021,-2.9862
Alberts Schenke,L1 4AA,53.4025,-2.9857
Hanover Street Social,L1 4AA,53.40270200000000,-2.98530220000000
Angel Restaurant ,L1 4AF,53.40371322631840,-2.98290801048279
Einstein's,L1 4AN,53.40305670000000,-2.98068150000000
McCooleys,L1 4AQ,53.40322410000000,-2.98000850000000
villa romano ltd,L1 4AQ,53.40410930000000,-2.98166840000000
SPICE THAI,L1 4AR,53.40400060000000,-2.98177120000000
Moloko,L1 4AS,53.40234320000000,-2.97890530000000
Epic RBG t/a Mason's Liverpool,L1 4AU,53.4028,-2.9809
Peacock,L1 4AZ,53.40217950000000,-2.97914220000000
7983 Ltd,L1 4BB,53.4012,-2.9764
Wreckfish Limited,L1 4BE,53.4027,-2.9816
MOJO Liverpool,L1 4BG,53.40142822265630,-2.97649288177490
Cowshed Liverpool,L1 4BL,53.40106582641600,-2.97671008110046
Harpers Pizza,L1 4BS,53.40285850000000,-2.97943930000000
Potts Coffee,L1 4BS,53.4027,-2.9797
Tree of Life Bookshop and Cafe,L1 4BS,53.4027,-2.9797
Caribou Poutine,L1 4BW,53.40276370000000,-2.97915560000000
Merchant,L1 4BX,53.40198800000000,-2.98056670000000
Brewdog,L1 4DE,53.40183140000000,-2.97716520000000
Caffe Nero,L1 4DJ,53.40427350000000,-2.98028830000000
Naked Noodle,L1 4DJ,53.40417630000000,-2.98007550000000
Bundobust Liverpool,L1 4DN,53.40391250000000,-2.97951180000000
CRUST (LIVERPOOL) LTD,L1 4DN,53.40379680000000,-2.97922440000000
K O Grill,L1 4DN,53.40383220000000,-2.97928540000000
Pieminister Liverpool,L1 4DN,53.40367230000000,-2.97905610000000
Mother Espresso,L1 4DQ,53.40230941772460,-2.97773098945618
Cafe Latino,L1 4DS,53.40399932861330,-2.98064303398132
Cat Cafe Liverpool,L1 4DS,53.40431960000000,-2.98123700000000
Taco Bell,L1 4DS,53.40431870000000,-2.98134230000000
Wok to Walk,L1 4DS,53.40363830000000,-2.97991270000000
BAKCHICH,L1 4EA,53.40339090000000,-2.97939560000000
Johnny English Fish and Chips,L1 4EA,53.40324990000000,-2.97904640000000
wok & go ,L1 4EA,53.40327800000000,-2.97891170000000
Egg Cafe,L1 4ED,53.40389920000000,-2.97769250000000
Newington Temple,L1 4ED,53.40349510000000,-2.97847750000000
Ban Di Bul Korean restaurant,L1 4EU,53.40318570000000,-2.97811240000000
LA PARRILLA MEXICAN TAPAS BAR AND GRILL,L1 4EU,53.40314120000000,-2.97805120000000
La Parrilla,L1 4EU,53.40314120000000,-2.97805120000000
Pronto Pizza,L1 4EU,53.40331820000000,-2.97848890000000
Subway,L1 4EU,53.40338850000000,-2.97868640000000
Toro's Steakhouse,L1 4EU,53.40331000000000,-2.97829570000000
Kassap Meat House,L1 4EZ,53.40276250000000,-2.97709490000000
Leaf Tea Shop & Bar (Liverpool) Ltd,L1 4EZ,53.40299280000000,-2.97752130000000
Mowgli Street Food - Bold Street  Liverpool,L1 4EZ,53.40292190000000,-2.97739940000000
89BSC Ltd,L1 4HF,53.4026,-2.9768
Maray Bold Street,L1 4HF,53.40248740000000,-2.97666740000000
Pho,L1 4HF,53.40270910000000,-2.97703350000000
The Italian Club,L1 4HF,53.40259340000000,-2.97689550000000
Greek Taverna Bold Street Ltd,L1 4HR,53.40288640000000,-2.97843640000000
KASBAH CAFE BAZAAR RESTAURANT,L1 4HR,53.40296630000000,-2.97855860000000
Red Dog Saloon - Liverpool,L1 4HR,53.40311760000000,-2.97874260000000
Fogo Brazil bar & grill ,L1 4HY,53.4025,-2.9774
Honest Burgers,L1 4HY,53.40244570000000,-2.97737340000000
Maggie Mays Cafe Bar,L1 4HY,53.40268540000000,-2.97773990000000
Slims at Bold Street Limited ,L1 4HY,53.4025,-2.9774
Soul Cafe,L1 4HY,53.40218060000000,-2.97681080000000
The Little Shoe Bold Street ,L1 4HY,53.40223290000000,-2.97684330000000
American Pizza Slice ,L1 4JA,53.40197750000000,-2.97637000000000
Cafe Tabac,L1 4JA,53.40194320000000,-2.97615860000000
Jimmy's,L1 4JA,53.40184750000000,-2.97599840000000
The Italian Club Fish,L1 4JA,53.40188930000000,-2.97615740000000
Big bowl noodle bar,L1 4JF,53.40146740000000,-2.97608760000000
Pattersons Gradwell,L1 4JH,53.40243560000000,-2.98298360000000
Clockworks,L1 4JJ,53.40212880000000,-2.98202890000000
ALMOST FAMOUS LIVERPOOL,L1 4JN,53.40187220000000,-2.98002990000000
Crazy Pedro's Liverpool,L1 4JN,53.40218734741210,-2.98133897781372
Vietnom,L1 4JQ,53.4006,-2.9764
Dong Restaurant,L1 4JR,53.40108020000000,-2.97886490000000
down the hatch,L1 5AA,53.40180120000000,-2.98251770000000
Il Forno Restaurant,L1 5AG,53.40058940000000,-2.97850590000000
SAPPORO TEPPANYAKI LTD,L1 5AG,53.40048820000000,-2.97821600000000
The Monro,L1 5AG,53.40125940000000,-2.98062510000000
Lock & Key Bar & Kitchen,L1 5AP,53.40252110000000,-2.98461000000000
PINS (Liverpool) Limited,L1 5AP,53.40252110000000,-2.98461000000000
The Brunch Club,L1 5AP,53.40252110000000,-2.98461000000000
Duke Street Food and Drink Market Limited,L1 5AS,53.40191740000000,-2.98369360000000
Mayflower restaurant,L1 5AS,53.40198280000000,-2.98339430000000
PILGRIM ,L1 5AS,53.40191740000000,-2.98369360000000
Thoughtfully Cafe Liverpool Ltd,L1 5BE,53.4015,-2.9851
A Tavola,L1 5BF,53.40052795410160,-2.97877407073975
Chilli Chilli Restaurant,L1 5DN,53.39938930000000,-2.97739360000000
JUMBO CITY RESTAURANT LIMITED ,L1 5DN,53.39888830000000,-2.97819430000000
North Garden Restaurant,L1 5DN,53.39917090000000,-2.97771950000000
Amalia Italian Restaurant,L1 5FB,53.40175000000000,-2.98436660000000
La Famiglia Restaurant ,L1 6AF,53.40753760000000,-2.98777950000000
Spice City Indian Cuisine Limited,L1 6AF,53.40743980000000,-2.98764190000000
Casa Italia,L1 6AL,53.40666580200200,-2.98648095130920
Koukash Bar & Grill,L1 6BR,53.40814590454100,-2.98681592941284
Jam Restaurant,L1 6BW,53.40727060000000,-2.98533140000000
Mei Zhen Noodle Bar,L1 6BX,53.40750300000000,-2.98543200000000
200 Degrees,L1 6DA,53.40679030000000,-2.98574650000000
Costa Coffee,L1 6DA,53.40679030000000,-2.98574650000000
Everyman Cinema,L1 6DA,53.40679030000000,-2.98574650000000
Sultan Palace,L1 6DE,53.4085,-2.9843
Kaspa's,L1 6DQ,53.40871000000000,-2.98512890000000
Caffe Nero,L1 6DT,53.40687800000000,-2.98492120000000
Lobster Pot,L1 6DZ,53.40597040000000,-2.98527970000000
Subway,L1 6EG,53.40665550000000,-2.98466030000000
Sir Thomas Hotel,L1 6JB,53.40807723999020,-2.98571610450745
The Shankly Hotel,L1 6JD,53.40796279907230,-2.98429894447327
Joe & The Juice,L1 8BJ,53.40286340000000,-2.98682610000000
Pret A Manger,L1 8BQ,53.40349770000000,-2.98646440000000
Sugar and Dice Ltd,L1 8DP,53.39960500000000,-2.98505410000000
BARBURRITO,L1 8JF,53.40406380000000,-2.98652640000000
Five Guys,L1 8JF,53.40414047241210,-2.98640799522400
Gourmet Burger Kitchen,L1 8JF,53.40406380000000,-2.98652640000000
Nandos,L1 8JF,53.40406380000000,-2.98652640000000
Pizza Express,L1 8JF,53.40406380000000,-2.98652640000000
Pizza Hut Restaurant,L1 8JF,53.40406380000000,-2.98652640000000
Smoke & Dough,L1 8JF,53.40406380000000,-2.98652640000000
Starbucks Paradise Street,L1 8JF,53.4041,-2.9864
TGI Fridays,L1 8JF,53.40414047241210,-2.98640799522400
Wagamama Ltd,L1 8JF,53.40406380000000,-2.98652640000000
Yee Rah,L1 8JF,53.40414047241210,-2.98640799522400
Yo Sushi,L1 8JF,53.40383148193360,-2.98695707321167
Zizzi,L1 8JF,53.40406380000000,-2.98652640000000
Hilton Liverpool City Centre,L1 8LW,53.40237400000000,-2.98896400000000
Starbucks Liverpool One,L1 8LW,53.4024,-2.9890
Starbucks,L1 8LW,53.40318950000000,-2.98752070000000
QUICK CHEF CAFE TURKISH BBQ,L1 9AS,53.40174450000000,-2.97075440000000
SUBWAY,L1 9AS,53.40201480000000,-2.97303040000000
The Fly in the Loaf,L1 9AS,53.40202880000000,-2.97228000000000
92 Degrees,L1 9AX,53.40141610000000,-2.97134850000000
Bing House,L1 9AX,53.40165780000000,-2.97257230000000
Grilla (Hardman) Ltd,L1 9AX,53.4016,-2.9723
Costa Coffee,L1 9BP,53.4012,-2.9701
Chatime Liverpool,L1 9BQ,53.4023,-2.9698
Costa Coffee,L1 9BQ,53.40183580000000,-2.97002440000000
Everyman Theatre,L1 9BQ,53.40298600000000,-2.96927500000000
Papillon Hope Street,L1 9BQ,53.4023,-2.9698
The Refinery,L1 9BQ,53.4023,-2.9698
Moose Coffee (UK) Ltd,L1 9BW,53.40096282958980,-2.97049593925476
Frederiks,L1 9BX,53.40195360000000,-2.97047330000000
Pizza Express,L1 9DA,53.40135520000000,-2.97074280000000
The London Carriage Works,L1 9DA,53.4009,-2.9711
Free State Kitchen,L1 9DE,53.40252830000000,-2.97275770000000
Chamber 36 ,L1 9DF,53.40016400000000,-2.97608780000000
Tokyo Noodle Bar,L1 9DF,53.40123720000000,-2.97566120000000
Yuet Ben Restaurant,L1 9DU,53.40011990000000,-2.97598150000000
DILAN TURKISH RESTAURANT AND STEAK HOUSE,L12 2AH,53.42148820000000,-2.89653610000000
New Orchid Garden Restaurant,L12 2AH,53.42185100000000,-2.89731120000000
Subway,L12 9JH,53.42476670000000,-2.89085630000000
KFC,L13 1AA,53.41042670000000,-2.92088540000000
Starbucks Edge Ln Liverpool,L13 1AA,53.41034050000000,-2.92028680000000
Starbucks,L13 1AA,53.41034050000000,-2.92028680000000
McDonalds  Edge Lane Retail Park,L13 1AD,53.40979850000000,-2.92308330000000
Bjs Diner,L13 1BA,53.40758740000000,-2.91956050000000
the children's discovery zone ltd,L13 1EH,53.40565872192380,-2.92704010009766
Costa Coffee,L13 1FA,53.40883760000000,-2.92567240000000
Jos cafe,L13 3DN,53.41593350000000,-2.91429390000000
derby lane sandwich bar,L13 3DW,53.41753800000000,-2.91488500000000
Murrys Diner,L13 4AH,53.40646910000000,-2.91418120000000
Franky’z ,L13 5SD,53.41310520000000,-2.91269860000000
Costa Coffee,L13 5XE,53.41332550000000,-2.91305440000000
VANILLA,L13 5XE,53.41389410000000,-2.90943570000000
KFC TUEBROOK 02026,L13 8AA,53.42428840000000,-2.93468380000000
KFC,L13 8AA,53.42428840000000,-2.93468380000000
Subway,L13 8AD,53.42466580000000,-2.93354830000000
Pizza Hut,L14 2DD,53.41909470000000,-2.88917350000000
Subway,L14 2DD,53.41909470000000,-2.88917350000000
Burger King,L14 2DE,53.41997528076170,-2.88706994056702
KFC,L14 2DE,53.41981730000000,-2.88352340000000
Mecca Bingo,L14 2DE,53.41997528076170,-2.88706994056702
Rocket Pub & Kitchen Ltd,L14 3PA,53.40621020000000,-2.89971980000000
Streats waffle bar & bistro ,L15 3JJ,53.39152980000000,-2.93162020000000
Loaded Burgers,L15 3JL,53.39033280000000,-2.92950390000000
REYHOON ,L15 3JL,53.39019420000000,-2.92883930000000
Evil eye burrito ltd ,L15 3JT,53.39043030000000,-2.93084440000000
Halabala Bistro,L15 4LF,53.4002,-2.9274
Something else,L15 4LG,53.39959820000000,-2.92397560000000
Cafe express deli,L15 4LL,53.40020330000000,-2.92826010000000
TIGER ROCK LTD,L15 5AG,53.38923390000000,-2.91699970000000
The Tavern Company,L15 5AG,53.38916040000000,-2.91626450000000
Costa Coffee,L15 5AH,53.38987690000000,-2.92454690000000
GT Smith Liverpool Ltd,L15 5AH,53.3896,-2.9260
Subway,L15 5AH,53.38980050000000,-2.92513170000000
Meatless,L15 5AJ,53.38956750000000,-2.92037510000000
Bean There Coffee Shop,L15 5AN,53.38882950000000,-2.91581810000000
Leaf Tea Shop & Bar (Smithdown) Ltd,L15 5AN,53.3888,-2.9169
Maggie Fu,L15 5AN,53.38910760000000,-2.91771670000000
Portland Street 358,L15 5AN,53.38891650000000,-2.91736880000000
TRIBECA BAR & PIZZERIA ,L15 5AN,53.38941120000000,-2.91849210000000
Costa Coffee,L15 5AU,53.3903,-2.9263
Waterfall Elior,L15 6TQ,53.39570999145510,-2.91646194458008
Canton Palace Chinese Restaurant,L15 6UY,53.39674377441410,-2.89870810508728
Wetherspoons The Fiveways,L15 6XS,53.39679630000000,-2.89646840000000
Wavertree Town Hall,L15 8HF,53.39864890000000,-2.91768340000000
spire restaurant,L15 9EA,53.38956550000000,-2.91478140000000
Costa Coffee,L15 9EB,53.39009094238280,-2.91682291030884
Macello meathouse ,L16 0JN,53.39434680000000,-2.89106330000000
Zara’s Hub ,L16 0JN,53.39439700000000,-2.89035750000000
Elior UK (Staff Canteen),L16 0JP,53.39366912841800,-2.88318395614624
khalisha restaurant,L16 5EU,53.4016,-2.8890
Calisa,L16 7PF,53.39485910000000,-2.89227700000000
Neighbourhood Bistro,L16 8NA,53.39070740000000,-2.89933280000000
Cucina di Vincenzo,L16 8NE,53.39022820000000,-2.89899180000000
EL  NIDO,L16 8NE,53.39025920000000,-2.89917290000000
Eton Place,L16 8NE,53.39020630000000,-2.89892360000000
Press Bros Coffee,L17 0BD,53.3728,-2.9288
Sefton Park Palm House,L17 1AP,53.3834,-2.9392
Mcdonalds,L17 4JP,53.38058853149410,-2.95233798027039
Otterspool Adventure Centre Ltd,L17 5AL,53.36337550000000,-2.93291420000000
Coopers Coffee Shop,L17 6AE,53.36721730000000,-2.92552880000000
Justino's Restaurant and Bar,L17 6AE,53.36702990000000,-2.92504000000000
Justino's Ristorante and Bar,L17 6AE,53.36702990000000,-2.92504000000000
Domino's Pizza - Liverpool - Aigburth Road,L17 7BR,53.37917520000000,-2.95039730000000
Al Dente restaurant & bar,L17 8UN,53.37962400000000,-2.94821240000000
Hexagon Events t/a Hafla Hafla,L17 8UP,53.38125980000000,-2.94596360000000
POLIDOR 68,L17 8UP,53.38142340000000,-2.94574180000000
Yum Cha,L17 8UP,53.3813,-2.9459
Keith's Food & Wine Bar,L17 8UR,53.38171460000000,-2.94529720000000
Bistro Noir,L17 8US,53.38022820000000,-2.94697750000000
The Lodge,L17 8US,53.38069220000000,-2.94613150000000
Love&Rockets ,L17 8UU,53.38122790000000,-2.94545180000000
Nonno’s Pizza and Plates,L17 8UU,53.38090060000000,-2.94592560000000
Pippins Corner,L17 8UU,53.38154530000000,-2.94509800000000
The Lark Bistro,L17 8UU,53.38219030000000,-2.94424030000000
rhubarb cafe bar,L17 8UW,53.38051000000000,-2.94654870000000
Maranto's,L17 8XT,53.3799,-2.9459
Churrasco Steakhouse ,L17 8XW,53.37888190000000,-2.94772360000000
Subway,L17 9PE,53.37803360000000,-2.94698950000000
Catherine Braidy,L17 9PJ,53.37544220000000,-2.94049840000000
Light Of Bengal Restaurant Ltd,L17 9PW,53.37501040000000,-2.93939160000000
Dovedale Towers,L18 1DG,53.3866,-2.9198
The Potting Shed Liverpool LTD,L18 1HN,53.3889,-2.9266
Costa Coffee,L18 1LG,53.38872080000000,-2.91240250000000
Glass Onion,L18 1LG,53.38872080000000,-2.91240250000000
Funglok restaurant,L18 2DA,53.3870,-2.9090
GEORGOUTSATES LIMITED,L18 2DA,53.3870,-2.9090
Maray Allerton,L18 2DA,53.38714530000000,-2.90918130000000
THREE PIGGIES,L18 2DA,53.38700103759770,-2.90902805328369
Baltic Bakehouse,L18 2DD,53.38589680000000,-2.90787660000000
Bloom Bar and Bistro,L18 2DD,53.38547897338870,-2.90741705894470
Corner Room Cafe & Bar,L18 2DD,53.38541530000000,-2.90737020000000
Costa Coffee,L18 2DD,53.38520990000000,-2.90718540000000
East River,L18 2DD,53.38561150000000,-2.90756990000000
Laus18,L18 2DD,53.38550460000000,-2.90744730000000
The Interesting Eating Company,L18 2DD,53.38547780000000,-2.90741670000000
M RAY LIMITED,L18 2DG,53.38666590000000,-2.90957700000000
Calderstones Mansion House,L18 3JB,53.3816,-2.8941
Allerton Golf Trading Ltd,L18 3JT,53.37508010864260,-2.89276599884033
Amakura Coffee shop,L18 4QY,53.36865400000000,-2.91170300000000
Espresso Plus ,L18 5EA,53.38033240000000,-2.91381670000000
Lolivetto Ltd,L18 5EA,53.38064270000000,-2.91320690000000
The Rose of Mossley,L18 5EA,53.37998630000000,-2.91441060000000
52 Rose Lane Bistro ,L18 5ED,53.37996680000000,-2.91343300000000
Cocomo,L18 5EP,53.38426180000000,-2.91483300000000
Subway,L18 5HU,53.38503290000000,-2.90800860000000
Elior UK,L18 6HF,53.38131060000000,-2.90931250000000
Chaba Chaba Thai Restaurant,L18 6HG,53.38405609130860,-2.90639400482178
HOPE AND SMOKE,L18 6HG,53.38418050000000,-2.90662230000000
Istanbul Restaurant - Allerton,L18 6HG,53.3840,-2.9064
Gustum bar and restaurant,L18 8AG,53.37950030000000,-2.91449040000000
The Pig Shed Canteen,L19 2JX,53.35355080000000,-2.89647680000000
The Spice Brasserie ,L19 2NJ,53.35328590000000,-2.89704210000000
Funtown,L19 2PA,53.3532,-2.8951
KFC GARSTON 02073,L19 2PA,53.35334000000000,-2.89319290000000
KFC,L19 2PA,53.35334000000000,-2.89319290000000
The Climbing Hangar Matchworks,L19 2RF,53.35052690000000,-2.88612260000000
Space coffee & restaurant,L19 3QD,53.3663,-2.9236
Madhari Restaurant ltd,L19 3QG,53.36319780000000,-2.91638020000000
Costa Coffee,L19 5NH,53.35953140258790,-2.88869905471802
Dunelm Mill,L19 5NY,53.35400820000000,-2.89181390000000
Costa Coffee,L19 5PQ,53.3577,-2.8909
Santa Maluco Ltd,L2 0NA,53.40669520000000,-2.99180650000000
Pasta Cosa ,L2 0NE,53.40657230000000,-2.99145770000000
Caffe Nero,L2 0NR,53.40602080000000,-2.99085820000000
Viva Brazil Liverpool ,L2 0NR,53.40617980000000,-2.99108750000000
EVERTON LEISURE LTD,L2 0PL,53.4057,-2.9925
Liberte ,L2 0PL,53.40551480000000,-2.99323810000000
Mowgli Street Food - Water Street  Liverpool,L2 0RD,53.40669280000000,-2.99182330000000
OH ME OH MY,L2 0RG,53.40589580000000,-2.99389380000000
Silk Rd Beetham Plaza,L2 0XJ,53.40523640000000,-2.99320160000000
Debenhams Restaurant Liverpool One,L2 1TA,53.40489690000000,-2.98849530000000
Chopstix Liverpool Lord Street,L2 1TD,53.40507840000000,-2.98733150000000
Costa Coffee,L2 1TD,53.40514650000000,-2.98789110000000
Caffe Nero,L2 1TL,53.40515820000000,-2.98637060000000
McDonalds ,L2 1TL,53.40516070000000,-2.98606980000000
Mcdonalds,L2 1TL,53.40516070000000,-2.98606980000000
Tortilla,L2 1TL,53.40516550000000,-2.98658140000000
The Lion Tavern,L2 2BP,53.40903470000000,-2.99043180000000
Railway Exchange Ltd,L2 2DT,53.40890760000000,-2.99057920000000
shenanigans (liverpool) limited,L2 2EN,53.41038570000000,-2.98901890000000
Thomas Rigby's,L2 2EZ,53.40769195556640,-2.98987388610840
The Excelsior,L2 2JH,53.40973910000000,-2.98459610000000
The Galley at the Ship & Mitre,L2 2JH,53.40973910000000,-2.98459610000000
Costa Coffee,L2 2NZ,53.40819220000000,-2.99241230000000
SUBWAY,L2 3AB,53.4077,-2.9908
El Gato Negro Tapas,L2 3YL,53.40754318237300,-2.99268388748169
Fazenda Rodizio Bar & Grill,L2 3YL,53.40754318237300,-2.99268388748169
JL Coffee House Ltd (T/A Esquires Coffee Liverpool),L2 3YL,53.40754318237300,-2.99268388748169
Gino D'acampo My Restaurant ,L2 4SW,53.4067,-2.9909
Rudys Castle St,L2 4SW,53.4067,-2.9909
Moose Coffee (UK) Ltd,L2 4TQ,53.40710090000000,-2.99058240000000
Nude Lifestyle Kitchen,L2 4TQ,53.40706730000000,-2.99029580000000
Queens wine bar and bistro,L2 4TX,53.40672350000000,-2.99055860000000
Pizza Express,L2 5QQ,53.40702056884770,-2.98815894126892
Harrisons bar and kitchen,L2 5QU,53.40672190000000,-2.98858800000000
Shiraz BBQ,L2 5QU,53.40674710000000,-2.98879920000000
Aloft Liverpool ,L2 5QW,53.40734481811520,-2.98920392990112
BABY E COFFEE & DELI LTD,L2 5RL,53.4077,-2.9889
Laboulee Doree,L2 5ST,53.40820400000000,-2.98762950000000
Dale Street Kitchen,L2 5TF,53.40897650000000,-2.98551120000000
Rococo Coffee House Ltd,L2 6PB,53.40550870000000,-2.98746180000000
bistro pierre,L2 6PS,53.40607620000000,-2.98622640000000
Pattersons Baltic,L2 6PT,53.4061,-2.9863
Roxy Ball Room Liverpool Two,L2 6PX,53.40602400000000,-2.98691610000000
McCooleys,L2 6PY,53.40657580000000,-2.98668920000000
Turtle Bay,L2 6QE,53.40657806396480,-2.98771190643311
Subway,L2 6SG,53.40570350000000,-2.98816120000000
The Slaughterhouse,L2 7LS,53.4056,-2.9912
manhattan bar and grill ltd,L2 7LS,53.40548790000000,-2.99105640000000
Chop Chop,L2 7NB,53.40552080000000,-2.99143320000000
Old Bank,L2 7NE,53.4052,-2.9914
THE CORNMARKET,L2 7NT,53.40547561645510,-2.99153804779053
Wetherspoons,L2 7NX,53.40473950000000,-2.99133980000000
30 James Street    ,L2 7PQ,53.40495930000000,-2.99193160000000
Liverpool Operations Ltd,L2 7PQ,53.4049,-2.9919
The Liverpool Pub ,L2 7PQ,53.40506960000000,-2.99164840000000
ABBEY ROAD BAR AND KITCHEN,L2 9QA,53.4061,-2.9889
cook street coffee,L2 9QU,53.40611810000000,-2.98954030000000
Veggie republic ,L2 9RF,53.40625050000000,-2.98907350000000
TIGER ROCK CITY LTD,L2 9RU,53.40609030000000,-2.98887420000000
San Carlo Liverpool,L2 9SH,53.40589950000000,-2.99020850000000
Bacaro,L2 9UB,53.40569330000000,-2.99018740000000
Starbucks,L24 1XZ,53.34863670000000,-2.86222200000000
Burger King,L24 1YD,53.33727645874020,-2.85545110702515
Frankie and Benny's,L24 1YD,53.33727645874020,-2.85545110702515
J D Wetherspoon (Airside),L24 1YD,53.33727645874020,-2.85545110702515
Starbucks Coffee Company,L24 1YD,53.33727645874020,-2.85545110702515
Starbucks,L24 1YD,53.33727645874020,-2.85545110702515
Subway,L24 1YD,53.33727645874020,-2.85545110702515
Futures Leisure Preston Ltd,L24 1YH,53.34262466430660,-2.86044001579285
Subway,L24 2WZ,53.34491960000000,-2.83949430000000
Costa Coffee  Next,L24 8QB,53.35073089599610,-2.87930703163147
Costa Coffee,L24 8QB,53.35073089599610,-2.87930703163147
McDonalds ,L24 8QB,53.35073089599610,-2.87930703163147
McDonalds,L24 8QB,53.35073089599610,-2.87930703163147
Nandos,L24 8QB,53.34966830000000,-2.88071760000000
Pizza Hut Restaurant,L24 8QB,53.35073089599610,-2.87930703163147
TGI Fridays,L24 8QB,53.35073089599610,-2.87930703163147
Wagamama,L24 8QB,53.35073089599610,-2.87930703163147
Zizzi,L24 8QB,53.35073089599610,-2.87930703163147
The Chinese Buffet,L24 8QD,53.34910964965820,-2.88188695907593
Mellors Catering Services Ltd,L24 8RF,53.34311910000000,-2.87588110000000
Waterfall Elior,L24 8RF,53.34312438964840,-2.87587594985962
McDonald's Restaurant Hunts Cross,L24 9GB,53.35791397094730,-2.86671304702759
Mcdonalds,L24 9GB,53.35791397094730,-2.86671304702759
KFC,L24 9GQ,53.35613060000000,-2.86478350000000
Tilly Mint Nutrition,L24 9GQ,53.35612869262700,-2.87237095832825
Go Fresh Cafe ,L24 9HJ,53.3546,-2.8697
Costa Coffee,L24 9HZ,53.34970190000000,-2.85958190000000
Pepperwood Kitchen,L24 9LG,53.35430560000000,-2.85335310000000
Compass Group Uk,L24 9WA,53.35751724243160,-2.86819195747375
Subway,L24 9WA,53.35751724243160,-2.86819195747375
Hunts cross supper bar ,L25 0NT,53.35909520000000,-2.85504680000000
Costa Coffee,L25 1PD,53.39153490000000,-2.87223740000000
Subway,L25 1PD,53.39158370000000,-2.87223810000000
KFC,L25 2RF,53.39026480000000,-2.86036630000000
Subway,L25 2RF,53.39074430000000,-2.86010200000000
McDonald's Restaurant Belle Vale,L25 2RJ,53.39099730000000,-2.85639940000000
McDonalds,L25 2RJ,53.39099730000000,-2.85639940000000
Sayers Cafe,L25 2RQ,53.3907,-2.8587
The Elephant ,L25 5NH,53.37555930000000,-2.86677050000000
Stablers Catering,L25 5PN,53.3796,-2.8550
IMAGINE MORE CAFE - STRAWBERRY FIELD,L25 6EJ,53.38043540000000,-2.88215850000000
CRUST (WOOLTON) LTD,L25 7RA,53.3746,-2.8672
Coast Coffee Ltd,L25 7RA,53.37477360000000,-2.86682460000000
Caveau,L25 7RE,53.37408290000000,-2.86955130000000
Istanbul BBQ & Bistro ,L25 7RE,53.37441630000000,-2.86820530000000
Elior Uk ( Tesco staff Canteen),L25 7SF,53.37379455566410,-2.87324309349060
CookHouse Pub & Carvery,L25 9NQ,53.37302398681640,-2.85286092758179
Subway,L26 0AD,53.35978700000000,-2.82977200000000
Liverpool Golf Centre Bistro,L27 0YB,53.39304351806640,-2.83738088607788
TNS Catering_Childwall Golf Club,L27 2YA,53.39761734008790,-2.84309601783752
Bean,L3 0AA,53.40893550000000,-2.99786010000000
Titanic Hotel Liverpool,L3 0AN,53.42198181152340,-2.99875307083130
Cargo Seafood Restaurant,L3 1BD,53.41113520000000,-3.00155300000000
Cafe Lucaya,L3 1BH,53.4062,-2.9941
Matou Pan Asian Restaurant & Bar,L3 1BY,53.40424660000000,-2.99441190000000
Fab4 Cafe at The Beatles Story  Pier Head,L3 1DP,53.4047,-2.9972
Ma Boyle's Alehouse & Eatery,L3 1LG,53.40663820000000,-2.99433230000000
Malmaison Liverpool,L3 1QZ,53.40847015380860,-2.99756407737732
The Richmond,L3 2AA,53.4102,-2.9863
Costa Coffee,L3 2FE,53.41019450000000,-2.98714900000000
Fattoush ,L3 2FE,53.41022990000000,-2.98721000000000
Love Thy Neighbour,L3 2FE,53.40967960000000,-2.98634010000000
Costa Coffee,L3 4AA,53.39964110000000,-2.99371800000000
Peaberry Coffee House & Kitchen,L3 4AA,53.39964110000000,-2.99371800000000
Porters Cafe,L3 4AA,53.4000,-2.9938
Rubens Coffee Ltd,L3 4AA,53.39964110000000,-2.99371800000000
Fab4 Cafe at The Beatles Story  Royal Albert Dock,L3 4AD,53.39941024780270,-2.99138188362122
Holiday Inn Express Liverpool - Royal Albert Dock,L3 4AD,53.39941024780270,-2.99138188362122
Lunyalita,L3 4AD,53.39940880000000,-2.99138140000000
Maray Dockside,L3 4AD,53.39941024780270,-2.99138188362122
Rosa's Thai Cafe,L3 4AD,53.39940880000000,-2.99138140000000
Madre Liverpool,L3 4AE,53.39992520000000,-2.99089710000000
Costa Coffee,L3 4AF,53.4012,-2.9918
Gusto Italian ,L3 4AF,53.40121078491210,-2.99183011054993
Turncoat Bar,L3 4AF,53.40094320000000,-2.99163470000000
Campanile Liverpool,L3 4AJ,53.39533615112300,-2.98480510711670
Puffle waffle,L3 4AS,53.39947509765630,-2.99087190628052
Tate Liverpool,L3 4BB,53.40040206909180,-2.99406695365906
Grosvenor Casino Leo Liverpool,L3 4BF,53.39481970000000,-2.98435710000000
SPRING CITY LIMITED,L3 4BH,53.38033160000000,-2.97643090000000
Bean,L3 4BJ,53.3849,-2.9796
La Viva Limited,L3 4BJ,53.3849,-2.9796
Delifonseca Dockside,L3 4BN,53.38669204711910,-2.98030495643616
The Yacht Club Bar & Restaurant ,L3 4BP,53.39076995849610,-2.98497104644775
Chung Ku Restaurant,L3 4DB,53.37836074829100,-2.97336411476135
The Dolby Hotel,L3 4DE,53.39415710000000,-2.98404100000000
Eastzesst LIVERPOOL ,L3 4FN,53.39772070000000,-2.99004610000000
Jurys Inn,L3 4FN,53.39772033691410,-2.99004888534546
Pizza Express,L3 4FP,53.39842540000000,-2.99044390000000
Pullman Liverpool,L3 4FP,53.39594880000000,-2.99023960000000
Dough Bar,L3 5GA,53.4067,-2.9774
SUBWAY,L3 5NL,53.40889420000000,-2.97236970000000
Thaihee Korean Restaurant,L3 5NY,53.40920470000000,-2.97081890000000
Liner Hotel ,L3 5QB,53.40847396850590,-2.97557091712952
Costa Coffee,L3 5RF,53.40581050000000,-2.96705620000000
SUBWAY,L3 5RF,53.40580040000000,-2.96719140000000
Starbucks LJMU,L3 5RF,53.40509470000000,-2.97254050000000
Kimos (Mount Pleasant) ,L3 5SD,53.40419600000000,-2.97547310000000
Rumi by Bukhara,L3 5SD,53.40419600000000,-2.97547310000000
Starbucks,L3 5SR,53.40331649780270,-2.96871399879456
Land Lifestyle Ltd,L3 5TF,53.40392684936520,-2.97122502326965
Jidong Bubble Tea,L3 5TX,53.4058,-2.9652
Caffe Nero,L3 5UE,53.40584182739260,-2.96319103240967
Britannia Adelphi Hotel,L3 5UL,53.40551376342770,-2.97696304321289
Manhattan Chicken Ltd,L3 6DJ,53.41143570000000,-2.98793650000000
Ten Streets Social,L3 7BX,53.4186,-2.9997
Factory Kitchen,L3 7ED,53.41832620000000,-2.99793140000000
Costa Coffee,L3 8JA,53.40945880000000,-2.97405840000000
TJ Hughes Liverpool,L3 8JA,53.4097,-2.9731
Layers Food Drink Market,L3 8JG,53.41016940000000,-2.96950280000000
Hotel Indigo Liverpool,L3 9AG,53.40744018554690,-2.99394488334656
Out to Lunch liverpool ltd,L3 9AG,53.40806180000000,-2.99284620000000
RADISSON BLU LIVERPOOL,L3 9BD,53.41089940000000,-2.99643250000000
City Wine Bar and Kitchen,L3 9BS,53.40876430000000,-2.99376510000000
Trattoria 51 Liverpool Ltd,L3 9BS,53.40894210000000,-2.99400990000000
Sanskruti Restaurant,L3 9LP,53.4093,-2.9922
Starbucks Liverpool Old Hall,L3 9LQ,53.40936900000000,-2.99281880000000
Starbucks,L3 9LQ,53.40936900000000,-2.99281880000000
Panoramic 34 Ltd,L3 9PJ,53.40991960000000,-2.99643970000000
Staff Canteen (Compass Group),L3 9PY,53.41115680000000,-2.99574650000000
Bean Coffee & Cocktails,L3 9RY,53.41054916381840,-2.99418306350708
Costa Coffee,L3 9SJ,53.41017870000000,-2.99374030000000
Lakeside Bar & Grill LTD,L34 1PJ,53.4231,-2.8262
McDonald's,L36 3YB,53.42190400000000,-2.86217600000000
McDonald's,L36 5RT,53.41022860000000,-2.83786900000000
COFFEE WAGON ,L36 6EG,53.41468900000000,-2.82485300000000
The Cafe,L36 9UG,53.4123,-2.8393
The Coffee House Huyton,L36 9UJ,53.41169000000000,-2.83985400000000
El pueblo,L36 9UL,53.4110,-2.8395
etonplace Huyton village,L36 9UQ,53.41093060000000,-2.83902610000000
Subway,L36 9UR,53.41181700000000,-2.83851800000000
Club 3000 Bingo Huyton,L36 9US,53.41074300000000,-2.84292000000000
Costa Coffee,L36 9YG,53.41262000000000,-2.83928600000000
Miru sushi,L4 2QZ,53.4248,-2.9538
Wok noodle,L4 2QZ,53.42476510000000,-2.95397210000000
CHATIME YORK LTD,L5 3BB,53.4229,-2.9759
THE CREPES HOUSE LIMITED,L5 3BB,53.4229,-2.9759
Sedpraiz Eatery ,L5 4NH,53.42327117919920,-2.96108698844910
KFC - GREAT HOMER,L5 5AA,53.42425290000000,-2.98170360000000
KFC,L5 5AA,53.42425290000000,-2.98170360000000
McDonald's,L5 5AA,53.42353980000000,-2.98156410000000
McDonalds,L5 5AA,53.42353980000000,-2.98156410000000
Subway,L5 5AA,53.42452090000000,-2.98016200000000
Newton Park limited ,L5 9TZ,53.42462921142580,-2.99603104591370
Starbucks Prescot Street,L6 1BA,53.41072810000000,-2.96525160000000
Starbucks,L6 1BA,53.41072810000000,-2.96525160000000
Blue Diamond,L6 4BB,53.42249330000000,-2.94234910000000
Harmans On Site Services Ltd,L7 0HA,53.4096,-2.9434
CornerCafe Prescot Road Liverpool,L7 0LB,53.41319050000000,-2.93999210000000
McDonald's,L7 2RN,53.41190719604490,-2.94652295112610
Mcdonalds Restaurant,L7 2RN,53.41190719604490,-2.94652295112610
Buzz Bingo,L7 5LZ,53.40333175659180,-2.94679903984070
Compass Group Cafe,L7 5LZ,53.40333175659180,-2.94679903984070
SUBWAY,L7 7AJ,53.40094710000000,-2.96369110000000
Starbucks Myrtle St Liverpool,L7 7DN,53.40164310000000,-2.97005130000000
Starbucks,L7 7DN,53.40164310000000,-2.97005130000000
92 Degrees,L7 7DP,53.4008,-2.9667
MR ZHANG'S KITCHEN,L7 7DP,53.40082050000000,-2.96647590000000
Red hong ltd,L7 7DP,53.4008,-2.9667
The Art school restaurant,L7 7EB,53.40062332153320,-2.96931505203247
KFC MYRTLE PARADE 02071,L7 7EL,53.40061187744140,-2.96513390541077
KFC,L7 7EL,53.40061187744140,-2.96513390541077
Font Bar,L7 7JE,53.40312170000000,-2.96830390000000
HOMETOWN DINING HOUSE,L7 7JE,53.40282058715820,-2.96870398521423
Big bowl,L7 8UE,53.41064590000000,-2.96610950000000
Pizza Hut,L7 8UL,53.41088780000000,-2.96411740000000
Starbucks,L7 8XE,53.41160850000000,-2.95473090000000
Costa Coffee,L7 8XP,53.40952301025390,-2.96480894088745
Royal Voluntary Service,L7 8XP,53.40952301025390,-2.96480894088745
Subway,L7 8XP,53.4095,-2.9648
FAJITA’s,L7 9LQ,53.41047780000000,-2.92938640000000
Costa Coffee,L7 9NN,53.40901050000000,-2.92984910000000
RED SEA LIVERPOOL LTD ,L8 0QD,53.39709710000000,-2.94950330000000
Broaster ,L8 0QE,53.39506750000000,-2.94926260000000
GRU,L8 0QF,53.39405340000000,-2.94905960000000
Kebabish Original,L8 0QL,53.39552320000000,-2.94975620000000
Sakoon cafe,L8 0QL,53.39561980000000,-2.94976160000000
Elior (Tesco),L8 4XF,53.38481060000000,-2.96394910000000
Eat Up Gud,L8 5RE,53.3932,-2.9795
Hafla Hafla Ltd ,L8 5RE,53.3932,-2.9795
Little Korea,L8 5RE,53.3932,-2.9795
Midnight Baltic ,L8 5RE,53.39315610000000,-2.97797640000000
Pattersons Baltic,L8 5RE,53.39315610000000,-2.97797640000000
Wholesome Junkies Liverpool LTD,L8 5RE,53.3932,-2.9795
The Baltic Social,L8 5RN,53.39445440000000,-2.97920300000000
Arcains,L8 5SD,53.39341710000000,-2.97910650000000
Punch Tarmeys,L8 5SD,53.39341710000000,-2.97910650000000
Costa Coffee,L8 5SN,53.38099750000000,-2.97328020000000
Portland Pizza and Fish and Chips,L8 5SN,53.38190841674800,-2.97488903999329
Subway,L8 5SN,53.38097550000000,-2.97324060000000
APOCALYPSE COW LIVERPOOL (HH FOOD LTD),L8 5XJ,53.39362335205080,-2.97810411453247
LITTLE FURNACE WOOD FIRED PIZZAS LTD,L8 5XJ,53.3936,-2.9781
Lu Ban Restaurant,L8 5XJ,53.39362335205080,-2.97810411453247
Blackburne Arms ,L8 7NL,53.39952480000000,-2.96847790000000
Caffe Nero,L8 7NL,53.40085020000000,-2.96776380000000
Liverpool Women's NHS,L8 7SS,53.3985,-2.9600
