name,postcode,lat,lon
The Lemon Tree At Langwith,NG20 9BH,53.2276,-1.2086
The Gate Hotel,NG20 9DN,53.2267,-1.2091
Jug and Glass Inn,NG20 9EW,53.2281,-1.2028
The Devonshire,NG20 9RF,53.2180,-1.2271
Amber Hotels Ltd,S1 2AB,53.3855,-1.4615
Hotel ibis Sheffield City,S1 2AR,53.3832,-1.4632
Extra Life Gaming Lounge,S1 2AT,53.3828,-1.4636
KFC Haymarket,S1 2AW,53.3838,-1.4645
KFC,S1 2AW,53.3834,-1.4646
SUBWAY,S1 2AW,53.3838,-1.4644
Hygge Coffee shop,S1 2AZ,53.3828,-1.4650
Old Queens Head,S1 2BG,53.3809,-1.4630
Burger King,S1 2BQ,53.3784,-1.4627
Kollective Coffee & Kitchen ,S1 2BS,53.3769,-1.4660
The Rutland Arms,S1 2BS,53.3766,-1.4662
Feast,S1 2DW,53.3849,-1.4705
Couch,S1 2EG,53.3832,-1.4712
Sakushi Limited,S1 2EG,53.3832,-1.4712
urbandeli,S1 2EG,53.3832,-1.4712
Blue Moon Cafe Sheffield Ltd,S1 2EW,53.3830,-1.4703
Costa Coffee,S1 2FB,53.3817,-1.4704
MACPOT LIMITED ,S1 2FB,53.3817,-1.4703
Subway Orchard Square,S1 2FB,53.3817,-1.4703
Cavells Cafe Bar,S1 2GA,53.3830,-1.4677
Cara Restaurants Limited McDonalds 496,S1 2GE,53.3825,-1.4676
McDonald's,S1 2GE,53.3826,-1.4678
Tokyou Restaurant,S1 2GF,53.3827,-1.4655
The Bankers Draft Sheffield (Wetherspoon),S1 2GH,53.3832,-1.4664
Caffe Piazza,S1 2GN,53.3826,-1.4715
GRAZIE,S1 2GY,53.3819,-1.4711
HUMPIT,S1 2GY,53.3819,-1.4711
Smokin Bull Burger and Grill,S1 2GY,53.3821,-1.4712
Starbucks Fargate,S1 2HE,53.3818,-1.4694
Bar Public limited,S1 2HH,53.3804,-1.4700
Costa Coffee,S1 2HJ,53.3792,-1.4704
Head of Steam (Sheffield),S1 2JE,53.3804,-1.4682
Mamas and Leonies,S1 2JE,53.3804,-1.4682
Aagrah Leopold ,S1 2JG,53.3816,-1.4721
Cubana Tapas Bar & Restaurant,S1 2JG,53.3815,-1.4716
Lisboa Patisserie,S1 2JL,53.3793,-1.4700
Starbucks Tudor Square,S1 2LA,53.3808,-1.4676
Lynne's Pantry Limited,S1 2LG,53.3807,-1.4691
EGO Mediterranean Restaurant Sheffield,S1 2LH,53.3799,-1.4674
Howard Hotel,S1 2LW,53.3783,-1.4651
Howst,S1 2LX,53.3783,-1.4661
Roebuck Tavern,S1 2NB,53.3784,-1.4694
Silversmiths,S1 2NT,53.3782,-1.4666
Tamper Coffee Sellers Wheel,S1 2NU,53.3768,-1.4680
The Mowbray Cafe,S1 2NU,53.3768,-1.4680
Marmadukes Norfolk Row,S1 2PA,53.3811,-1.4687
ANDREWS Cafe Tea Rooms,S1 2PD,53.3819,-1.4676
Feast,S1 2PD,53.3819,-1.4676
CHINESE TABLE LIMITED,S1 2PF,53.3823,-1.4673
Smoke Barbecue,S1 2PN,53.3822,-1.4657
Mulberry bar and venue,S1 2PP,53.3814,-1.4664
Debenhams Restaurant Sheffield,S1 3LR,53.3778,-1.4727
BUTLERS BALTI HOUSE,S1 4BT,53.3834,-1.4759
BANG BANG HOT POT RESTAURANT ,S1 4DA,53.3805,-1.4810
YEPSS,S1 4DE,53.3847,-1.4744
Noodle Doodle,S1 4EL,53.3820,-1.4746
Tsuki Restaurant and Bar,S1 4EP,53.3815,-1.4744
FirePit Rocks,S1 4ES,53.3809,-1.4765
ISTANBUL RESTAURANT,S1 4ES,53.3809,-1.4765
Bloo88,S1 4ET,53.3806,-1.4779
Subway West Street,S1 4EU,53.3803,-1.4794
Bar&Beyond Sheffield,S1 4EW,53.3801,-1.4791
KFC West Street,S1 4EW,53.3801,-1.4791
KFC,S1 4EW,53.3800,-1.4792
MOUNT LEBANON,S1 4EW,53.3801,-1.4791
The Wick,S1 4EW,53.3801,-1.4791
200 Degrees,S1 4GE,53.3800,-1.4734
Heavenly Desserts,S1 4GE,53.3797,-1.4748
Pieminister Sheffield,S1 4GE,53.3798,-1.4748
SIMMONITE,S1 4GE,53.3798,-1.4750
Chatime Sheff Ltd,S1 4GF,53.3801,-1.4743
Copper Pot,S1 4GF,53.3800,-1.4745
Lonestar,S1 4GF,53.3800,-1.4745
Luckyfox,S1 4GF,53.3800,-1.4745
MR MIYAGI REVOLVING SUSHI BAR,S1 4GF,53.3800,-1.4745
Sheffield Water Works Company Sheffield (Wetherspoon),S1 4GF,53.3803,-1.4730
UNIQUE SUSHI LTD T/A LETS SUSHI,S1 4GF,53.3801,-1.4744
Chilli Flow,S1 4GH,53.3800,-1.4764
Noodle Inn Centro,S1 4GH,53.3800,-1.4764
Marmadukes Cambridge St,S1 4HP,53.3788,-1.4720
The Benjamin Huntsman Sheffield (Wetherspoon),S1 4HP,53.3799,-1.4724
Akbar's,S1 4JB,53.3797,-1.4804
Gaard West one,S1 4JB,53.3795,-1.4805
Ginseng Korean restaurant ,S1 4JB,53.3797,-1.4804
Hang,S1 4JB,53.3797,-1.4804
WEST ONE SUSHI LTD T/A LETS SUSHI,S1 4JB,53.3797,-1.4804
han restaurant,S1 4JB,53.3797,-1.4804
China Red Restaurant,S1 4JD,53.3767,-1.4743
The Cabin Pancake and Waffle House Ltd,S1 4JH,53.3755,-1.4754
Wildwood Artisan Gifts and Coffee Shop Ltd,S1 4JH,53.3754,-1.4753
sushi express,S1 4JU,53.3770,-1.4769
SUBWAY,S1 4PB,53.3754,-1.4746
AUNTIE ANNES SHEFFIELD,S1 4PF,53.3762,-1.4735
Bitz & bitez ,S1 4PF,53.3753,-1.4731
Costa Coffee,S1 4PF,53.3764,-1.4731
Lemongrass thai street food,S1 4PF,53.3765,-1.4728
Pizza Express,S1 4PF,53.3765,-1.4728
The Market Chippy,S1 4PF,53.3768,-1.4725
El paso,S1 4PT,53.3745,-1.4739
SPIRIT OF SHEFFIELD LTD,S1 4PT,53.3745,-1.4739
Shapla Tandoori Restaurant ,S1 4PT,53.3745,-1.4739
Fresh Choice Noodles,S1 4QB,53.3768,-1.4714
Brunch and Lunch The Moor Ltd,S1 4QD,53.3767,-1.4720
Wongting,S1 4QD,53.3767,-1.4719
Lane7 Sheffield,S1 4QN,53.3775,-1.4713
Dashu bakery and cafe ,S1 4QP,53.3773,-1.4707
ALS Gongcha,S1 4QY,53.3771,-1.4705
Birdhouse Tea Bar & Kitchen,S1 4RG,53.3753,-1.4687
Twisted Burger Company,S1 4SQ,53.3743,-1.4684
Thyme,S1 4UP,53.3738,-1.4762
Chez Lahlou,S10 1GB,53.3873,-1.4978
cinque terre restuarant ltd,S10 1GB,53.3873,-1.4978
The Closed Shop,S10 1GG,53.3852,-1.4984
Varanasi Inn,S10 1GW,53.3845,-1.5068
Waterfall Elior,S10 1LA,53.3846,-1.5018
Rajput Restaurant Ltd ,S10 1LG,53.3870,-1.4990
San Lorenzo,S10 1QU,53.3876,-1.5071
The Crooked Cafe,S10 1TE,53.3857,-1.5084
Casanova Pizzeria Ristorante,S10 1TG,53.3854,-1.5078
Dana Cafe,S10 1TG,53.3854,-1.5078
JAFLONG INDIAN RESTAURANT LIMITED,S10 1TG,53.3854,-1.5078
The Punchbowl,S10 1TH,53.3867,-1.5072
Zara’s ,S10 1TH,53.3867,-1.5072
Old Grindstone,S10 1UA,53.3810,-1.5054
Dandelion Cocoa,S10 1UH,53.3840,-1.5079
INDAIN CHEF,S10 1UH,53.3837,-1.5078
The Masons ,S10 1UR,53.3825,-1.5079
Waterfall Elior,S10 2DN,53.3746,-1.4862
Waterfall Elior,S10 2FA,53.3782,-1.4807
Big foodie Ltd ,S10 2GW,53.3800,-1.4816
Maveli Restaurant and Bar ,S10 2GW,53.3799,-1.4818
Appetito,S10 2GZ,53.3800,-1.4836
Jinding Restaurant,S10 2GZ,53.3800,-1.4836
Pepper Greenhouse,S10 2GZ,53.3800,-1.4836
Napoli Centro Pizzeria,S10 2HP,53.3790,-1.4894
the potato oven,S10 2HP,53.3790,-1.4894
Chong Qing Restaurant ,S10 2HS,53.3802,-1.4817
New Pot Restaurant ltd / Jimmys Kitchen,S10 2HS,53.3802,-1.4817
So Famous,S10 2HS,53.3802,-1.4818
Sundaes gelato ,S10 2HS,53.3802,-1.4809
The Francis Newton Sheffield (Wetherspoon),S10 2LA,53.3768,-1.4921
Lokanta,S10 2QA,53.3769,-1.5005
Thyme Cafe,S10 2QA,53.3769,-1.5005
La Vaca,S10 2QE,53.3769,-1.5014
Vittles Cafe,S10 2QE,53.3769,-1.5014
Waterfall Elior,S10 2SA,53.3781,-1.4966
Butcher and Catch,S10 2SP,53.3777,-1.4999
Nottingham House,S10 2SR,53.3790,-1.4984
Taste of Thailand ,S10 2SS,53.3779,-1.5002
Bar One ,S10 2TG,53.3806,-1.4877
Costa Coffee,S10 2TH,53.3806,-1.4900
Starbucks Broomhill,S10 2TJ,53.3809,-1.4927
The York,S10 3BA,53.3774,-1.5008
Balti King,S10 3BB,53.3776,-1.5016
Bambukat,S10 3BD,53.3768,-1.5027
Cawa Coffee,S10 3BD,53.3768,-1.5027
Proove,S10 3BD,53.3768,-1.5027
Medirest Healthcare Compass Group,S10 3BR,53.3744,-1.5175
Waterfall Elior,S10 3BT,53.3727,-1.5171
Halifax Hall Hotel,S10 3ER,53.3714,-1.5056
RANMOOR TANDOORI,S10 3GD,53.3711,-1.5230
bulls head,S10 3GD,53.3711,-1.5230
The Rising Sun,S10 3QA,53.3673,-1.5301
Waterfall Elior,S10 3QA,53.3673,-1.5301
Lavang,S10 3QD,53.3674,-1.5310
Waterfall Elior,S10 3QP,53.3680,-1.5347
The shiny sheff,S10 4EP,53.3709,-1.5559
The Coffee Rooms,S10 4GA,53.3638,-1.5454
HALLAMSHIRE GOLF CLUB CATERING,S10 4LA,53.3744,-1.5415
Hallamshire Golf Club Ltd,S10 4LA,53.3744,-1.5415
Costa Coffee,S10 5BA,53.3777,-1.5011
The Steel Cauldron,S10 5BL,53.3779,-1.5014
Waterfall Elior,S10 5DP,53.3769,-1.5154
PAPA CICCOS ,S10 5NH,53.3797,-1.5200
Cuore Siciliano,S10 5RY,53.3793,-1.5209
Hudson's Kitchen,S10 5RY,53.3793,-1.5210
Hudsons Kitchen,S10 5RY,53.3793,-1.5210
The Greystones,S11 7BS,53.3642,-1.5151
Gigi’s Cucina,S11 7EB,53.3681,-1.5230
La Coppola,S11 7EB,53.3681,-1.5230
Lovely Pear,S11 7EB,53.3681,-1.5230
Oakbrook Coffee Co Limited,S11 7EB,53.3681,-1.5230
Waterfall Elior,S11 7GL,53.3627,-1.5105
Waterfall Elior,S11 7LG,53.3595,-1.5211
Waterfall Elior,S11 7LH,53.3578,-1.5213
Waterfall Elior,S11 7PQ,53.3577,-1.5158
The Norfolk Arms Hotel,S11 7TS,53.3497,-1.5651
Rossi’s Italian Restaurant ,S11 8AE,53.3671,-1.4772
Dumpling City,S11 8FJ,53.3726,-1.4773
The Beer Engine,S11 8FJ,53.3726,-1.4773
The Sheaf Island Sheffield (Wetherspoon),S11 8HG,53.3726,-1.4821
Waterfall Elior,S11 8JN,53.3706,-1.4887
Ashoka Restaurant ,S11 8NX,53.3714,-1.4880
Graze Inn,S11 8NX,53.3714,-1.4880
Honeycomb,S11 8NX,53.3714,-1.4881
Uncle Sams Diner ltd,S11 8PE,53.3714,-1.4893
friesday s11 limited,S11 8PE,53.3714,-1.4893
TRIO FOOD UK LIMITED,S11 8PF,53.3706,-1.4906
The Italian kitchen ,S11 8PF,53.3706,-1.4906
Aysha's PrithiRaj Restaurant,S11 8PG,53.3700,-1.4924
Starbucks Ecclesall Sheffield,S11 8PG,53.3700,-1.4924
Coffika Eccy Rd,S11 8PJ,53.3702,-1.4927
Costa Coffee,S11 8PN,53.3690,-1.4941
Cafe Marco,S11 8PP,53.3692,-1.4947
Koko Restaurant Limited,S11 8PR,53.3687,-1.4971
ALL SIAM LIMITED,S11 8PT,53.3679,-1.5006
Hopper  Coffee  Bar & Kitchen,S11 8PT,53.3679,-1.5006
La Patisserie,S11 8PT,53.3679,-1.5006
Mowgli Street Food - Sheffield,S11 8PT,53.3679,-1.5006
PATOO THAI,S11 8PT,53.3680,-1.5005
Maranellos,S11 8PX,53.3696,-1.4947
The Delightful Touch,S11 8QF,53.3682,-1.4974
BROCCO ON THE PARK,S11 8RS,53.3687,-1.5020
Clarrie's Kitchen,S11 8TB,53.3661,-1.5073
Olive ,S11 8TB,53.3661,-1.5073
URBAN CHOOLA ,S11 8TD,53.3646,-1.5082
LA LUNA RESTAURANT,S11 8TN,53.3615,-1.5080
Elly Joy,S11 8XX,53.3673,-1.4968
Nam Song Sharrow Vale Limited,S11 8XX,53.3673,-1.4968
TONCO,S11 8XX,53.3673,-1.4968
The Stag's Head,S11 8YL,53.3661,-1.4913
Waterfall Elior,S11 8YU,53.3652,-1.4972
Waterfall Elior,S11 8YZ,53.3675,-1.4902
Made By Jonty,S11 8ZG,53.3671,-1.4999
Waterfall Elior,S11 8ZG,53.3671,-1.4999
Seven Hills Bakery ,S11 8ZH,53.3677,-1.4965
Otto's Restaurant Limited,S11 8ZP,53.3673,-1.5005
The Union Hotel Limited,S11 9EF,53.3611,-1.4935
monument coffee co,S11 9PL,53.3563,-1.5123
Waterfall Elior,S11 9QH,53.3512,-1.5291
Waterfall Elior,S12 2AR,53.3569,-1.4158
Waterfall Elior,S12 2EJ,53.3518,-1.4206
RUBEEZ RESTAURANT ,S12 2LN,53.3462,-1.4269
Punch Bowl,S12 2SF,53.3574,-1.4322
Fairway Inn,S12 3BP,53.3403,-1.3970
Bay Of Bengal,S12 3GB,53.3414,-1.4124
Chutney,S12 3GG,53.3449,-1.4261
Waterfall Elior,S12 3HS,53.3421,-1.4197
The Swan,S12 3XR,53.3300,-1.3966
The Bridge Inn,S12 3YD,53.3195,-1.3988
Treat Squad,S12 4EJ,53.3472,-1.3787
Waterfall Elior,S12 4HJ,53.3445,-1.3851
Waterfall Elior,S12 4QE,53.3467,-1.3903
Memory lane tearoom ,S13 7PD,53.3591,-1.3674
Elior - Balmoral Care Home,S13 7PR,53.3573,-1.3643
Brunswick Gardens,S13 7RB,53.3607,-1.3612
Waterfall Elior,S13 7RB,53.3607,-1.3612
Waterfall Elior,S13 8HH,53.3726,-1.3988
Costa Coffee,S13 8HR,53.3761,-1.3947
KFC Handsworth,S13 8HR,53.3732,-1.3976
Waterfall Elior,S13 8LT,53.3639,-1.4028
KFC,S13 9BH,53.3760,-1.3944
D&H Taylor t/as McDonald's,S13 9BS,53.3740,-1.3925
Waterfall Elior,S13 9HH,53.3690,-1.3776
Waterfall Elior,S13 9HJ,53.3696,-1.3733
Everest Inn,S13 9HS,53.3704,-1.3759
Ego at the Dore Moor,S17 3AB,53.3339,-1.5567
The Crown Inn,S17 3AX,53.3177,-1.5419
The Cricket Inn,S17 3AZ,53.3165,-1.5479
Almas Restaurant,S17 3GU,53.3271,-1.5394
Rajdhani Express Ltd ,S17 3LB,53.3299,-1.5154
THE SUMMERHOUSE,S17 3LB,53.3299,-1.5154
Omega at Abbeydale ltd,S17 3LJ,53.3251,-1.5206
Seasons Gallery & Gifts Limited,S17 3LP,53.3217,-1.5241
Waterfall Elior,S17 3PT,53.3223,-1.5333
Waterfall Elior,S17 3QP,53.3233,-1.5382
Cross Scythes Hotel,S17 4AE,53.3143,-1.5409
Waterfall Elior,S17 4AP,53.3149,-1.5417
Rendezvous ,S17 4DT,53.3154,-1.5331
Waterfall Elior,S17 4FB,53.3121,-1.5365
The Shepley Spitfire,S17 4HE,53.3122,-1.5240
Waterfall Elior,S17 4PD,53.3182,-1.5115
Castle Inn,S17 4PT,53.3214,-1.5105
Abbeydale Golf Club Ltd,S17 4QA,53.3245,-1.5115
S17 Coffee Shop & Bistro,S17 4QX,53.3188,-1.5035
Dronfield Hall Barn,S18 1PX,53.3023,-1.4743
Samad Cottage,S18 1PX,53.3023,-1.4744
The Blue Stoops,S18 1PX,53.3023,-1.4743
Coffee Central,S18 1PY,53.3020,-1.4751
Manor House (Dronfield) Ltd,S18 1PY,53.3020,-1.4751
The Atrium Cafe,S18 1QX,53.3015,-1.4712
Hyde Park Inn,S18 1UH,53.2938,-1.4736
The Coach & Horses,S18 2GD,53.3106,-1.4767
Little Italy Restaurant,S18 2GF,53.3054,-1.4742
Mint Leaf ,S18 2LJ,53.3047,-1.4646
Simply Chinese The Rock,S18 2XA,53.3018,-1.4694
Ayeshas authentic restaurant ,S18 2XB,53.3011,-1.4667
The White Swan,S18 2XF,53.2998,-1.4660
The Tickled Trout,S18 7SL,53.2746,-1.4960
Hackney house cafe and gifts ,S18 7TD,53.2670,-1.4829
The Peacock at Barlow,S18 7TD,53.2670,-1.4829
The Royal Oak,S18 7WJ,53.2842,-1.5261
The Angel,S18 7WT,53.2954,-1.5147
The Cow Shed Cafe ,S18 8XL,53.3115,-1.5110
Jolly Farmer,S18 8ZQ,53.3017,-1.4948
Temptations Bakery and Coffee Lounge Limited,S18 8ZQ,53.3017,-1.4948
Waterfall Elior,S2 1AA,53.3729,-1.4166
Waterfall Elior,S2 1EE,53.3614,-1.4266
Waterfall Elior,S2 1EY,53.3648,-1.4206
KFC,S2 1GJ,53.3640,-1.4342
KFC,S2 1GJ,53.3649,-1.4355
LITTLE JACKS,S2 1LB,53.3647,-1.4279
Waterfall Elior,S2 1PL,53.3687,-1.4251
Waterfall Elior,S2 1TR,53.3823,-1.4379
The rhubarb shed ltd,S2 1UL,53.3764,-1.4349
Waterfall Elior,S2 2PJ,53.3648,-1.4459
Cara Restaurants Limited McDonalds 719,S2 2TP,53.3735,-1.4620
McDonald's,S2 2TP,53.3741,-1.4622
Waterfall Elior,S2 3DJ,53.3618,-1.4691
Royal Standard,S2 4AX,53.3741,-1.4651
KFC,S2 4DL,53.3691,-1.4651
H Ponsford Ltd,S2 4HS,53.3610,-1.4726
India Garden,S2 4HT,53.3598,-1.4740
Olam-D Kitchen ,S2 4HT,53.3598,-1.4740
Pour,S2 4HT,53.3598,-1.4740
China Town Restaurant,S2 4LA,53.3723,-1.4765
The Clubhouse,S2 4LA,53.3721,-1.4766
stack lounge,S2 4LE,53.3704,-1.4774
Pepe's Piri Piri,S2 4LH,53.3694,-1.4768
Saigon68 Vietnamese cafe,S2 4LH,53.3694,-1.4768
Tin Tin Chinese Restaurant,S2 4LN,53.3727,-1.4770
Rassams Creamery,S2 4LP,53.3721,-1.4772
Kings flavour,S2 4LR,53.3711,-1.4776
La Romantica,S2 4LR,53.3711,-1.4776
Taco Mex Mexican food LTD,S2 4LR,53.3711,-1.4776
Taco mex Mexican chef ltd,S2 4LR,53.3711,-1.4776
Yama Sushi,S2 4LR,53.3711,-1.4776
kebab,S2 4LR,53.3711,-1.4776
kebabish express,S2 4LR,53.3711,-1.4776
lemon pepper grillz,S2 4LR,53.3712,-1.4775
the potato oven,S2 4LR,53.3711,-1.4776
Desi cafe,S2 4LT,53.3694,-1.4773
Middle East shawarma ,S2 4LT,53.3694,-1.4773
Amigos Mexican Kitchen ,S2 4LW,53.3682,-1.4763
Imrans diner,S2 4LW,53.3682,-1.4763
Little Istanbul 2,S2 4LW,53.3682,-1.4763
Treatz Sheffield,S2 4LW,53.3682,-1.4763
Butta la Pasta,S2 4NA,53.3669,-1.4755
Jabbarwocky,S2 4NA,53.3669,-1.4755
Golden Taste,S2 4NF,53.3671,-1.4752
Southernfriedchickenoutletsltd,S2 4NF,53.3672,-1.4752
Wasabisabi ,S2 4NF,53.3671,-1.4752
Waterfall Elior,S2 4NJ,53.3644,-1.4722
OISOI Gathering,S2 4QF,53.3720,-1.4748
The Treehouse Board Game Cafe,S2 4QF,53.3719,-1.4751
pbz,S2 4QF,53.3720,-1.4748
Breeze Shisha lounge,S2 4QU,53.3705,-1.4740
Smokey bar and grill,S2 4QU,53.3706,-1.4742
Bramall Subway,S2 4QZ,53.3725,-1.4717
Waterfall Elior,S2 5ED,53.3794,-1.4437
Waterfall Elior,S2 5QD,53.3817,-1.4585
South Street Kitchen,S2 5QX,53.3803,-1.4687
The Meeting Place,S20 1EF,53.3488,-1.3361
Waterfall Elior,S20 1EG,53.3427,-1.3326
Pulpd Ltd,S20 3AB,53.3294,-1.3340
Waterfall Elior,S20 4TA,53.3243,-1.3533
Waterfall Elior,S20 5AD,53.3264,-1.3612
The Royal Oak ,S20 5AF,53.3239,-1.3616
The British Oak,S20 5AY,53.3301,-1.3727
Mosborough Hall Hotel,S20 5EA,53.3215,-1.3567
D&H Taylor t/as McDonald's,S20 7JJ,53.3446,-1.3569
KFC,S20 7JJ,53.3446,-1.3569
KFC,S20 7JL,53.3444,-1.3538
Waterfall Elior,S20 7JU,53.3364,-1.3514
Shhhh Coffee Shop LTD,S20 7PH,53.3416,-1.3534
The ginger publican company limited,S20 7PH,53.3416,-1.3535
D&H Taylor t/as McDonald's,S20 7PJ,53.3420,-1.3514
KFC,S20 7PJ,53.3416,-1.3511
McDonald's,S20 7PJ,53.3416,-1.3512
Costa Coffee,S20 7PN,53.3419,-1.3510
Waterfall Elior,S20 8FB,53.3305,-1.3485
Akhtars In Killarmarsh Ltd,S21 1DX,53.3250,-1.3215
The Travellers Rest,S21 2BW,53.3179,-1.2979
The Sitwell Arms Hotel,S21 3WF,53.3000,-1.3370
Angel & Harlequin,S21 3YB,53.3021,-1.3180
Woodheads Cafe,S21 4FT,53.3085,-1.3553
The Devonshire Arms ,S21 5RN,53.2972,-1.3939
Bengal tandoori,S25 2PN,53.3692,-1.2101
the royal elephant ,S25 2PQ,53.3667,-1.2120
Paulos Restaurant ,S25 2PS,53.3692,-1.2106
Whiter's CafeBistro ,S25 2PS,53.3692,-1.2106
aroma coffee shop,S25 2PS,53.3692,-1.2106
Dolcetti Coffee House and Bistro ,S25 3SA,53.3783,-1.2312
Tropical Butterfly House Ltd,S25 4EQ,53.3559,-1.2135
Greenbean Coffee Shop & Bistro,S26 1DJ,53.3613,-1.2666
Ricardo's Cafe and Bistro,S26 2EB,53.3631,-1.2981
ASTON  HALL HOTEL LIMITED,S26 2EE,53.3627,-1.2986
The Cafe at the Corner,S26 4QA,53.3638,-1.3199
Cuppa n cake ,S26 4UN,53.3621,-1.3281
The Duke of Leeds ,S26 5LQ,53.3389,-1.2850
Aston’s restaurant ,S26 5PQ,53.3494,-1.2994
Rother Valley Golf Centre Ltd,S26 5PQ,53.3494,-1.2994
The Vintage Tack Room and Playbarn,S26 5PQ,53.3494,-1.2994
ASIA PALACE,S26 5QJ,53.3413,-1.2918
The station pub,S26 6NP,53.3366,-1.2407
Traditionals of Kiveton Park,S26 6RD,53.3409,-1.2707
KFC,S26 7XR,53.3151,-1.2814
Welcome Break South Retail,S26 7XR,53.3152,-1.2815
The Beehive,S26 7YH,53.3220,-1.2605
The copper kettle,S3 7AG,53.3868,-1.4733
Bugby diner,S3 7HE,53.3821,-1.4826
Waterfall Elior,S3 7JA,53.3862,-1.4812
Piccolos,S3 7RX,53.3799,-1.4806
BB's Italian Restaurant Ltd,S3 7SB,53.3793,-1.4772
Forum Kitchen & Bar,S3 7SB,53.3793,-1.4772
The Common Room,S3 7SB,53.3793,-1.4772
The Old House,S3 7SB,53.3793,-1.4772
Little Snack Bar,S3 7SF,53.3795,-1.4780
Taco Bell,S3 7SF,53.3795,-1.4780
sweet house ,S3 7SF,53.3795,-1.4780
UNIT SHEFFIELD,S3 7WB,53.3763,-1.4803
Icarus and Apollo,S3 8AS,53.3945,-1.4783
URBAN PIZZA CO,S3 8AS,53.3945,-1.4783
Bullion Chocolate,S3 8AT,53.3935,-1.4788
Edo Sushi,S3 8AT,53.3935,-1.4789
Foundry Coffee Roasters,S3 8AT,53.3930,-1.4782
Jar Bar,S3 8AT,53.3930,-1.4782
MA-BA KITCHEN LTD t/a MA-ba,S3 8AT,53.3930,-1.4782
Rad Dude Food,S3 8AT,53.3935,-1.4788
Rutland Cutlery Works Ltd,S3 8AT,53.3930,-1.4782
Slick Chick's Fried Chicken and Cheesecake,S3 8AT,53.3930,-1.4782
Gaard,S3 8BX,53.3922,-1.4754
Peddler,S3 8BX,53.3922,-1.4754
The Depot Bakery Burton Rd,S3 8BX,53.3922,-1.4754
Church Temple of Fun,S3 8DG,53.3925,-1.4803
Domo Restaurant ,S3 8DH,53.3891,-1.4725
Pina,S3 8EF,53.3921,-1.4734
The Mowbray,S3 8EN,53.3911,-1.4730
The Riverside,S3 8EN,53.3903,-1.4711
The Harlequin,S3 8GG,53.3885,-1.4659
AU Village African Restaurant ,S3 8HT,53.3876,-1.4627
Wicker Kebabish,S3 8HT,53.3876,-1.4627
Agha Lounge ,S3 8JT,53.3863,-1.4620
Thyme,S3 8LN,53.3839,-1.4663
Depot Pizza Company at Kommune ,S3 8LS,53.3815,-1.4635
Kommune,S3 8LS,53.3815,-1.4635
MorMor,S3 8LS,53.3815,-1.4635
The Depot Bakery at Kommune,S3 8LS,53.3815,-1.4635
Torito ,S3 8LS,53.3815,-1.4635
YOKI SOCIAL TABLE LTD,S3 8LS,53.3815,-1.4635
BETESEB ETHIOPIAN RESTAURANT ,S3 8LT,53.3844,-1.4652
Trawlers catch,S3 8LT,53.3844,-1.4653
Albies Coffee Ltd,S3 8NB,53.3851,-1.4663
7 Spices Balti,S3 8PP,53.3862,-1.4707
Island Cafe,S3 8RY,53.3893,-1.4713
Millowners Arms,S3 8RY,53.3893,-1.4713
the Taphouse Bar ,S3 8RY,53.3893,-1.4713
Craft & Dough Kelham Island,S3 8SD,53.3892,-1.4705
Bar Kelham,S3 8SE,53.3898,-1.4771
Stew & Oyster,S3 8SE,53.3897,-1.4766
The Grind Cafe Kelham Island Limited,S3 8SJ,53.3883,-1.4735
JORO RESTAURANT LIMITED,S3 8US,53.3883,-1.4758
Waterfall Elior,S35 0AE,53.4238,-1.5441
Shoulder of mutton,S35 0AQ,53.4243,-1.5410
Waterfall Elior,S4 7BX,53.4034,-1.4638
Nile Cafe,S4 7JB,53.3925,-1.4574
ALNASIM RESTAURANT,S4 7LF,53.3912,-1.4590
HADRAMOUT RESTAURANTS ,S4 7LF,53.3912,-1.4588
Spital chippy,S4 7LF,53.3912,-1.4588
mangla restaurant,S4 7LF,53.3912,-1.4588
SHAZ (SHEFF) LTD,S4 7LG,53.3913,-1.4583
AROOJ MEGA BUFFET RESTAURANT LTD,S4 7WZ,53.3899,-1.4448
The Quays Hotel,S4 7YA,53.3877,-1.4578
Watan,S4 8GB,53.4073,-1.4473
My chicken 2 Nite,S4 8GS,53.4092,-1.4476
Subway,S40 1AH,53.2359,-1.4308
The Market Pub,S40 1AH,53.2359,-1.4308
Market Hall Cafe,S40 1AR,53.2355,-1.4295
The Portland Hotel Chesterfield (Wetherspoon),S40 1AY,53.2352,-1.4312
Westbars Tandoori ,S40 1AZ,53.2358,-1.4353
KFC,S40 1BA,53.2359,-1.4368
Mutiara Chinese Restaurant,S40 1BA,53.2359,-1.4364
the barley mow,S40 1JR,53.2375,-1.4304
The County Music Bar,S40 1JS,53.2376,-1.4297
Cara Restaurants Limited McDonalds 142,S40 1PB,53.2349,-1.4293
McDonald's,S40 1PB,53.2350,-1.4281
peacock coffee lounge ,S40 1PB,53.2349,-1.4293
Woodheads Cafe,S40 1PF,53.2348,-1.4276
Royal Oak,S40 1PX,53.2354,-1.4278
Thyme To Eat,S40 1PX,53.2354,-1.4278
CHESTERFIELDS VICTORIA BAKERY LTD,S40 1QF,53.2362,-1.4290
jamjar interiors ltd trading as vintage tea rooms,S40 1QR,53.2341,-1.4282
No10 Cafe & Restaurant ,S40 1QX,53.2345,-1.4273
The Soulville Steakhouse (Chesterfield),S40 1QX,53.2346,-1.4273
Costa Coffee,S40 1RB,53.2351,-1.4271
ODYSSEY GREEK  RESTAURANT,S40 1RF,53.2362,-1.4278
Bottle and Thyme,S40 1RL,53.2365,-1.4272
O-TOKUDA Japanese Restaurant,S40 1RL,53.2365,-1.4271
Smoothies and bites ltd,S40 1SA,53.2355,-1.4258
The Rectory,S40 1SF,53.2356,-1.4250
Pizza Pi ,S40 1SH,53.2341,-1.4269
The Spread Eagle,S40 1SH,53.2340,-1.4270
Costa Coffee,S40 1TA,53.2329,-1.4280
Darwin and Bear,S40 1TX,53.2370,-1.4295
Pinocchio Pizza & Pasta House,S40 1TX,53.2370,-1.4295
Thai Pavilion,S40 1TX,53.2370,-1.4295
Thyme,S40 1UN,53.2373,-1.4280
Lunchbox,S40 1UR,53.2367,-1.4276
Coffee Street,S40 1XA,53.2368,-1.4255
Ciuri ciuri restaurant ,S40 1XL,53.2364,-1.4251
Stephensons Tea and Coffee House ,S40 1XL,53.2364,-1.4251
New Dynasty restaurant ,S40 2AB,53.2346,-1.4401
Junction Bar,S40 2AH,53.2356,-1.4394
Teresa Lambarelli's Italian Caffe and Pasta Bar,S40 2AH,53.2356,-1.4394
Limetree North Ltd,S40 2AL,53.2353,-1.4408
Nonnas,S40 2AP,53.2349,-1.4431
G A.S Bar ,S40 2AQ,53.2352,-1.4396
Gulab Tandoori,S40 2BA,53.2341,-1.4460
The Crafty Dog,S40 2BL,53.2338,-1.4476
Meringue Bakery and Cafe,S40 2BY,53.2328,-1.4507
McDonald's,S40 2ED,53.2290,-1.4230
Martinos,S40 2ER,53.2226,-1.4264
Boythorpe,S40 2NE,53.2306,-1.4366
CHESTERFIELD BOWL,S40 2TU,53.2195,-1.4236
Koo Chesterfield,S40 3AD,53.2317,-1.4577
St Thomas Coffee Bar,S40 3AW,53.2317,-1.4591
Blue Stoops,S40 3JQ,53.2210,-1.4511
Brampton Manor ,S40 3QR,53.2360,-1.4568
Woodside,S40 4DB,53.2397,-1.4614
Masons Coffee House,S41 0JA,53.2204,-1.4073
Lockoford Inn,S41 0TQ,53.2502,-1.4152
KFC,S41 7EW,53.2514,-1.4261
Casa Hotel,S41 7JB,53.2509,-1.4238
Costa Coffee,S41 7JB,53.2512,-1.4262
KFC,S41 7JB,53.2507,-1.4239
chesters chesterfield ltd,S41 7JH,53.2477,-1.4264
El cafe verde,S41 7JQ,53.2494,-1.4275
Lombardi's Ristorante Italiano,S41 7LL,53.2399,-1.4279
Sicily Restaurant,S41 7LS,53.2427,-1.4268
Brewers Fayre Lock Keeper,S41 7NJ,53.2510,-1.4198
JBs Sandwich Bar,S41 7QB,53.2415,-1.4309
Thai Thai restaurant,S41 7RW,53.2337,-1.4239
ASHOKA ,S41 7SA,53.2373,-1.4243
Einstein's,S41 7SA,53.2373,-1.4243
Miss Poppys Coffee Shop,S41 7SB,53.2370,-1.4250
The Old Post Restaurant,S41 7SH,53.2385,-1.4259
Spa Lane Vaults Chesterfield (Wetherspoon),S41 7TH,53.2352,-1.4242
The galleon steakhouse ,S41 7TH,53.2348,-1.4242
PIG & PUMP,S41 7TJ,53.2356,-1.4244
Pomegranate,S41 7TJ,53.2356,-1.4244
Aruba,S41 7TP,53.2368,-1.4230
Bar Rumba,S41 7TP,53.2368,-1.4229
Indian Blues Ltd,S41 7TP,53.2368,-1.4229
Urban kitchen ,S41 7UG,53.2386,-1.4217
Dehli 41 Indian Restaurant,S41 8LP,53.2576,-1.4283
Costa Coffee,S41 8LS,53.2512,-1.4262
Afats grill,S41 8LT,53.2586,-1.4280
Giorgio's Italian Restaurant,S41 8LT,53.2586,-1.4280
Whittington Care Centre (Elior UK),S41 9HF,53.2679,-1.4336
The Jungle Play Centre,S41 9RF,53.2675,-1.4399
THE HUNLOKE ARMS,S42 6NB,53.2030,-1.4191
Barley Mow,S42 6TX,53.2039,-1.4437
THE PEACOCK (CUTTHORPE) LLP,S42 7AS,53.2557,-1.4937
Beefeater Highwayman,S42 7DA,53.2378,-1.5418
Mamaccino,S42 7DA,53.2378,-1.5419
Bulls Head,S42 7EW,53.2181,-1.4955
the Royal Oak,S42 7JH,53.2422,-1.5174
Fox & Goose Inn ,S42 7JJ,53.2431,-1.5283
Lyric Hotels Ltd t/a Ringwood Hall Hotel,S43 1DQ,53.2585,-1.3822
Chutney Spice ,S43 1JG,53.2572,-1.3957
Atalian Servest (Bistro),S43 3LY,53.2578,-1.3595
The Royal Oak,S43 4EU,53.2901,-1.2901
Van Dyk By Wildes ,S43 4TD,53.2879,-1.2550
THE PEBLEY INN,S43 4TH,53.3085,-1.2813
Cara Restaurants Limited McDonalds 1027,S43 4WP,53.2836,-1.2909
Costa Coffee,S43 4WP,53.2836,-1.2923
KFC,S43 4WP,53.2837,-1.2920
McDonald's,S43 4WP,53.2844,-1.2913
Cara Restaurants Limited McDonalds 1398,S44 5HB,53.2481,-1.3400
McDonald's,S44 5HB,53.2440,-1.3332
KFC Markham Vale,S44 5HP,53.2465,-1.3325
KFC,S44 5HP,53.2445,-1.3334
The Arkwright Arms,S44 5JG,53.2373,-1.3426
The white hart,S44 5TE,53.2340,-1.3787
Courtyard Kitchen,S44 6DB,53.2295,-1.2903
Masons little cafe ,S44 6DT,53.2292,-1.2900
The Pump Bolsover,S44 6PN,53.2293,-1.2921
The Pillar of Rock Chesterfield (Wetherspoon),S44 6PP,53.2299,-1.2938
Capillies sandwich bar and cafe,S5 0QF,53.4227,-1.4556
Costa Coffee,S5 0QG,53.4227,-1.4548
KFC Lane Top,S5 0QG,53.4227,-1.4548
KFC,S5 0QG,53.4224,-1.4548
Soowes coffee pot café ,S5 0QG,53.4228,-1.4546
A TASTE OF ARABIA,S5 6HH,53.4181,-1.4473
Henrys cafe ,S5 6HH,53.4175,-1.4457
SUGAR XPRESS,S5 6HH,53.4175,-1.4457
Subway,S5 6HL,53.4189,-1.4466
Kebabish express ,S5 6HU,53.4225,-1.4540
Yum Tum,S5 6QG,53.4184,-1.4498
Waterfall Elior,S5 6TB,53.4147,-1.4511
the potato oven,S5 7AB,53.4066,-1.4535
Noor pizza,S5 7AE,53.4069,-1.4525
Northern Perk,S5 7AU,53.4098,-1.4561
Big Baps,S5 7TR,53.4217,-1.4567
 Cafe express ,S5 8BA,53.4189,-1.4809
Niagara Conference & Leisure,S6 1LU,53.4160,-1.5030
Costa Coffee,S6 1NN,53.4189,-1.4962
Subway,S6 1QB,53.4126,-1.4996
Napoleons Casino,S6 2BL,53.4041,-1.4901
Sette Colli restaurant ,S6 2BY,53.4032,-1.5001
OEC Sheffield,S6 2DE,53.4060,-1.4933
Owlerton Stadium,S6 2DE,53.4060,-1.4933
McDonald's,S6 2GB,53.4022,-1.4930
The Garrison Hotel,S6 2GB,53.4018,-1.4935
KFC Penistone Road,S6 2GF,53.4030,-1.4951
KFC,S6 2GF,53.4043,-1.4958
The Rawson Spring Sheffield (Wetherspoon),S6 2LN,53.4019,-1.5003
Costa Coffee,S6 2LX,53.4021,-1.4999
Hillsborough Tap,S6 2LX,53.4022,-1.4999
Waterfall Elior,S6 2NU,53.4005,-1.5000
Waterfall Elior,S6 2PL,53.3992,-1.5024
Waterfall Elior,S6 2TS,53.3971,-1.4968
Mamma Mia Pepe,S6 2UG,53.3999,-1.4952
THE BLIND MONKEY,S6 2WA,53.3946,-1.4947
Waterfall Elior,S6 2WJ,53.3929,-1.4959
SAW GRINDERS UNION LTD,S6 3AE,53.3902,-1.4780
Yum Tum,S6 3DH,53.3919,-1.4841
V.or.V,S6 3FB,53.3900,-1.4773
Aesthete Coffee and Kitchen,S6 3TE,53.3934,-1.5009
Burger Zone,S6 3TE,53.3934,-1.5009
Vito’s Italian Restaurant,S6 3TE,53.3935,-1.5009
CAFE PIE,S6 3TF,53.3946,-1.5023
Waterfall Elior,S6 4AJ,53.4146,-1.5130
Hole in one catering ,S6 4BE,53.4168,-1.5250
The wadsley Jack,S6 4BJ,53.4102,-1.5211
the rose and crown,S6 4BN,53.4111,-1.5218
Rubys cafe ,S6 4GW,53.4036,-1.5031
Lignum.V Caribbean Cafe,S6 4GX,53.4044,-1.5039
Subway Hillsborough,S6 4GY,53.4032,-1.5017
ChocoLatte,S6 4HA,53.4042,-1.5033
Buttercup,S6 4JD,53.4027,-1.5037
Boxcar willys ,S6 4JQ,53.4020,-1.5030
Holme lane deli,S6 4JW,53.4013,-1.5058
Big si's cafe,S6 4JZ,53.4001,-1.5103
Waterfall Elior,S6 4RH,53.4016,-1.5118
Waterfall Elior,S6 5HN,53.3966,-1.5242
The Rivelin Pub,S6 5SL,53.3855,-1.5430
The Peacock,S6 6AJ,53.3939,-1.5432
Waterfall elior,S6 6AN,53.3943,-1.5470
Waterfall Elior,S6 6BN,53.3957,-1.5465
kafe stannington ltd,S6 6BX,53.3932,-1.5468
Waterfall Elior,S6 6HE,53.4035,-1.5608
the old horns,S6 6LG,53.4035,-1.5608
WISEWOOD INN,S6 6RR,53.4041,-1.5341
Waterfall Elior,S6 6SG,53.4057,-1.5343
Nags Head Inn,S6 6SJ,53.4112,-1.5682
GW Boutique Hotel,S60 1DJ,53.4211,-1.3684
Magna Science Adventure Centre,S60 1DX,53.4183,-1.3850
Toyoda Gosei Canteen,S60 1FB,53.4249,-1.3751
Carlton Park Hotel,S60 2BG,53.4190,-1.3480
KFC Canklow,S60 2JH,53.4178,-1.3608
KFC,S60 2JH,53.4152,-1.3621
Rotherham Hospice,S60 2SW,53.4240,-1.3408
Costa Coffee,S60 2UD,53.4146,-1.3428
McDonald's Canklow,S60 2XG,53.4095,-1.3609
McDonald's,S60 2XG,53.4104,-1.3613
The Chequers Inn,S60 4HB,53.4061,-1.3315
The Sitwell Arms,S60 4HQ,53.4040,-1.3286
Cuccinis ltd,S60 4LA,53.4166,-1.3215
No.21 coffee shop & bistro,S60 5BS,53.4037,-1.3744
The Centre Community Cafe Brinsworth,S60 5BU,53.4046,-1.3703
JoJo's Cafe,S60 5DL,53.4079,-1.3684
Thirsty Flame,S60 5HE,53.4040,-1.3619
PHOENIX PAVILION,S60 5PA,53.4102,-1.3735
BB's Coffee Shop c/o Boundary Mill Stores,S60 5TR,53.3888,-1.3715
WHITBYS,S60 5TR,53.3879,-1.3718
bay tree bistro ltd,S65 3HU,53.4235,-1.3060
mark woodward t/a brecks social club,S65 3HZ,53.4215,-1.3069
Beefeater The Brecks,S65 3JB,53.4199,-1.3081
Seven Seas Limited,S66 1AG,53.4199,-1.2875
McDonald's Bramley - Bawtry Rd,S66 1YY,53.4220,-1.2542
McDonald's,S66 1YY,53.4230,-1.2549
Chaudrys Restaurant Ltd,S66 2BW,53.4218,-1.2844
Gas Lamp Wickersley Limited,S66 2BW,53.4218,-1.2844
The Courtyard ,S66 2BW,53.4218,-1.2844
The Olive Lounge Wickersley Limited,S66 2BW,53.4218,-1.2844
The Queens Hotel Rotherham (Wetherspoon),S66 7NQ,53.4233,-1.1966
The Cove Coffee House,S66 8LF,53.4233,-1.2036
Roche Abbey English Heritage,S66 8NW,53.4044,-1.1850
Treasure island ,S66 8QL,53.4238,-1.2471
The Croft Steakhouse ltd,S66 9AN,53.3981,-1.2627
The Greasy Spoon,S66 9DD,53.3942,-1.2572
Waterfall Elior,S7 1BE,53.3664,-1.4767
Da Silva Restaurant ,S7 1DU,53.3617,-1.4810
Da Silva Restaurant,S7 1DU,53.3617,-1.4810
Nether Edge Pizza,S7 1FF,53.3642,-1.4764
Four corners cafe,S7 1FH,53.3633,-1.4777
Dead Donkey Bar,S7 1FL,53.3624,-1.4783
LA MAMA (SHEFFIELD) LIMITED,S7 1FL,53.3618,-1.4788
gj coffee shop ltd,S7 1FL,53.3618,-1.4788
Cole's Corner,S7 1FN,53.3607,-1.4796
La baracca ltd,S7 1FN,53.3607,-1.4796
The Broadfield,S7 1FR,53.3584,-1.4826
Barrowboy,S7 1FS,53.3601,-1.4793
Meraki Restaurant,S7 1FS,53.3600,-1.4793
Picture House Social ,S7 1FS,53.3600,-1.4793
Pizza Hut,S7 1FS,53.3600,-1.4793
Casa mia,S7 1LJ,53.3668,-1.4807
Mercure Sheffield Kenwoodhall Hotels and Spa,S7 1NQ,53.3646,-1.4909
Waterfall Elior,S7 1RB,53.3577,-1.4840
Homemade by Thelmas Ltd,S7 1RU,53.3587,-1.4880
The vintage tearoom,S7 1TB,53.3561,-1.4844
Watefall Elior,S7 1TD,53.3570,-1.4840
northtown kitchen ,S7 2BE,53.3549,-1.4854
Kia’s Pastaria ,S7 2BG,53.3535,-1.4858
Ajanta’s Vegetarian ,S7 2BL,53.3520,-1.4876
Waterfall Elior,S7 2BN,53.3492,-1.4932
Waterfall Elior,S7 2DY,53.3525,-1.4928
Away We Go,S7 2EF,53.3531,-1.4996
Waterfall Elior,S7 2HE,53.3481,-1.5064
Martha Heritage T/A Heritage Lifestyle ,S7 2LH,53.3436,-1.5015
Waterfall Elior,S7 2LN,53.3469,-1.5085
THE MILLHOUSES,S7 2QD,53.3467,-1.4956
Bessie's Cafe,S7 2QF,53.3466,-1.4964
La Scala,S7 2QL,53.3458,-1.4969
The Waggon & Horses,S7 2QQ,53.3417,-1.5021
Spoon,S8 0BL,53.3394,-1.4830
Waterfall Elior,S8 0BN,53.3385,-1.4859
The Ale House,S8 0JP,53.3452,-1.4868
Cara Restaurants Limited McDonalds 885,S8 0JT,53.3481,-1.4878
McDonald's,S8 0JT,53.3463,-1.4906
Costa Coffee,S8 0LB,53.3467,-1.4911
Subway,S8 0LB,53.3471,-1.4897
Dos Amigos,S8 0PS,53.3444,-1.4798
Costa Coffee,S8 0RG,53.3567,-1.4780
Everest Tandoori,S8 0RL,53.3584,-1.4754
Elior,S8 0SB,53.3457,-1.4789
The Woodseats Palace Sheffield (Wetherspoon),S8 0SD,53.3441,-1.4784
Kashmiri Aroma (S Yorks) LLP,S8 0SF,53.3420,-1.4784
Sultan ,S8 0SF,53.3420,-1.4784
Costa Coffee,S8 0SH,53.3403,-1.4796
KFC,S8 0SH,53.3404,-1.4795
Viraaj Restaurant,S8 0SL,53.3434,-1.4779
Subway,S8 0SP,53.3423,-1.4778
Sultan Spice World ,S8 0SP,53.3423,-1.4778
The vintage pantry,S8 0XL,53.3612,-1.4758
Virgin Active Sheffield,S8 0XQ,53.3598,-1.4788
The cosy tearoom ,S8 0YD,53.3600,-1.4758
Apna Style LTD,S8 0ZT,53.3637,-1.4750
TANG CHINESE RESTAURANT,S8 7BP,53.3280,-1.4880
Marthas,S8 7DG,53.3275,-1.4888
Waterfall Elior,S8 7RA,53.3270,-1.4870
Elior,S8 7TR,53.3319,-1.4820
Ferdinandos Eatalian,S8 7UP,53.3282,-1.4740
Costa Coffee,S8 8BS,53.3270,-1.4662
DoubleTree by Hilton Sheffield Park Hotel,S8 8BW,53.3240,-1.4715
Waterfall Elior,S8 8EE,53.3219,-1.4707
Waterfall Elior,S8 8JS,53.3370,-1.4585
Lees Hall Golf Club,S8 8LL,53.3406,-1.4617
Rose Garden Cafe,S8 8LL,53.3406,-1.4617
Waterfall Elior,S8 8SJ,53.3452,-1.4708
Waterfall Elior,S8 9EH,53.3526,-1.4786
Waterfall Elior,S8 9HJ,53.3546,-1.4660
Elior,S8 9JP,53.3472,-1.4617
Laing O Rourke,S80 3DT,53.2978,-1.1678
ARROW FARM SHOP,S80 3DZ,53.3021,-1.1870
Half Moon,S80 3EE,53.2937,-1.2008
The Parish Oven  Thorpe Salvin,S80 3JU,53.3237,-1.2158
Creswell Heritage Trust,S80 3LH,53.2790,-1.2054
Notcutts Dukeries,S80 3LW,53.2621,-1.1761
The Harley Cafe,S80 3LW,53.2621,-1.1761
S80 Coffee House,S80 4AA,53.2636,-1.2107
Limestone House (Elmton and Creswell Village Company),S80 4JE,53.2624,-1.2176
The Elm Tree Elmton ,S80 4LS,53.2543,-1.2459
The butchers arms ,S81 8QA,53.3492,-1.1710
Waterfall Elior (Taylor Shaw),S9 1AN,53.4141,-1.4267
Waterfall Elior,S9 1AS,53.4115,-1.4210
SUBWAY - MEADOWHALL INTERCHANGE,S9 1BS,53.4104,-1.4222
Coffika Meadowhall,S9 1EH,53.4149,-1.4101
Caffe Rizzoli Prosecco Bar,S9 1EL,53.4149,-1.4101
Costa Coffee,S9 1EL,53.4146,-1.4085
Debenhams Restaurant Meadowhall,S9 1EL,53.4149,-1.4101
Costa Coffee,S9 1EN,53.4142,-1.4108
BARBURRITO,S9 1EP,53.4130,-1.4125
Barnis,S9 1EP,53.4141,-1.4128
Chaobaby,S9 1EP,53.4130,-1.4125
KFC Meadowhall,S9 1EP,53.4141,-1.4128
KFC,S9 1EP,53.4140,-1.4131
McDonald's The Oasis  Meadowhall,S9 1EP,53.4141,-1.4128
McDonald's,S9 1EP,53.4140,-1.4135
Nando's,S9 1EP,53.4138,-1.4127
Pizza Hut,S9 1EP,53.4130,-1.4125
Subway Meadowhall Oasis,S9 1EP,53.4141,-1.4128
Tapas Revolution Sheffield,S9 1EP,53.4149,-1.4101
Tasty plaice,S9 1EP,53.4130,-1.4125
The Steel Foundry Sheffield (Wetherspoon),S9 1EP,53.4142,-1.4138
Wrapchic,S9 1EP,53.4149,-1.4101
Yangtze Sheffield,S9 1EP,53.4141,-1.4128
let's sushi,S9 1EP,53.4130,-1.4125
Subway Meadowhall High Street,S9 1ES,53.4124,-1.4121
Air Haus ,S9 1EW,53.4126,-1.4068
Costa Coffee,S9 1EW,53.4112,-1.4091
Jump INC Sheffield,S9 1EW,53.4126,-1.4068
Waterfall Elior,S9 1LU,53.4188,-1.4260
Waterfall Elior,S9 1NR,53.4211,-1.4267
Simply Classic Pretty little thing,S9 1RF,53.4059,-1.3942
Waterfall elior,S9 1SG,53.4138,-1.3965
The Green Room,S9 1XH,53.3956,-1.3855
Waterfall Elior,S9 2AE,53.3984,-1.4274
Costa Coffee,S9 2DD,53.4026,-1.4187
KFC,S9 2DD,53.4026,-1.4187
Taco Bell,S9 2DD,53.4026,-1.4187
big filla ltd,S9 2DE,53.4012,-1.4172
39 Desserts Sheffield,S9 2EP,53.4013,-1.4139
Monkey Bizness Sheffield,S9 2EP,53.4013,-1.4139
Nando's,S9 2EP,53.4012,-1.4143
Subway Centretainment,S9 2EP,53.4015,-1.4150
Thyme,S9 2FA,53.4015,-1.4230
Thyme,S9 2YL,53.4099,-1.4069
tinsley subway,S9 2YL,53.4095,-1.4077
McDonald's Meadowhall Retail Park  near Valley Centertainment,S9 2YZ,53.4052,-1.4124
McDonald's,S9 2YZ,53.4057,-1.4146
Courtyard Cafe-Bar,S9 3QS,53.3927,-1.4332
Focus 101 Eatery ,S9 3QS,53.3927,-1.4333
La Vlad Restaurant,S9 3RA,53.3924,-1.4350
Big Baps Sandwich Shop ,S9 3RN,53.3934,-1.4325
Indus The Restaurant Limited,S9 3RP,53.3940,-1.4317
Costa Coffee,S9 3YE,53.3958,-1.4431
Waterfall Elior,S9 4GQ,53.3799,-1.4175
waverley road cafe,S9 4PJ,53.3852,-1.4083
DLE HOSPITALITY LTD,S9 4WG,53.3824,-1.4270
Waterfall Elior,S9 5EF,53.3946,-1.4172
Subway,S9 5HZ,53.3873,-1.4084
Cara Restaurants Limited McDonalds 1189,S9 5PA,53.3912,-1.4087
McDonald's,S9 5PA,53.3922,-1.4095
