name,postcode,lat,lon
Fantasia,LN12 1AA,53.342985688503000,0.262205000000000
The Blitz Tearoom,LN12 1AA,53.342985688503000,0.262205000000000
Ians at 46a,LN12 1AD,53.341918703022500,0.261331000000000
Saltys Mablethorpe Ltd,LN12 1AF,53.341547326487400,0.261314552761206
The Louth,LN12 1AF,53.341547326487400,0.261314552761206
The Mirage,LN12 1AG,53.342021000000000,0.262444128325076
Bibbys burger bar ,LN12 1AL,53.342281762691000,0.263832183373044
Crackers Currys ltd,LN12 1AL,53.342281762691000,0.263832183373044
Empire amusements,LN12 1AS,53.341539270086500,0.259841919019094
The coffee lounge,LN12 1AS,53.341539270086500,0.259841919019094
Coffee Pot,LN12 1HR,53.342500306648700,0.259892749046215
The Beck,LN12 1LU,53.344859112950000,0.261144297630649
Kitchen Cafe,LN12 1NE,53.329856611603500,0.224651982418136
Dunes Complex,LN12 1RG,53.343411643200000,0.263546476600000
Gerardos,LN12 2AF,53.340093378115800,0.263550998807091
Lady Bâ€™s Cupcakery ,LN12 2AF,53.340093378115800,0.263550998807091
The Beach Bar,LN12 2ET,53.314079285735400,0.283102009391877
Bacchus Hotel Limited,LN12 2EY,53.312593745945500,0.280860926353800
Seashells b&b bar & restaurant ,LN12 2LP,53.316228516468400,0.280259047640468
Seacroft Holiday Estate (Trusthorpe) Limited,LN12 2PN,53.325822025561400,0.272476000000000
the Saracens head,PE24 5PP,53.224753885932100,0.297702794929334
Coffee bar,PE24 5TB,53.223900478973800,0.338513000000000
mooch cafe,PE24 5TS,53.214498000000000,0.334150000000000
Larissa ,PE24 5TU,53.213198000000000,0.339007000000000
Mrs M's at The Gingham Restaurant,PE24 5TU,53.213198000000000,0.339007000000000
King's Oak Club,PE24 5UA,53.212869967545100,0.331380315955872
Chapel Garden Centre,PE24 5UB,53.214958593327900,0.322956094006744
Anderby Beach Cafe,PE24 5XW,53.259767158022300,0.321215935858406
POPAS BAR,PE24 5XW,53.259767158022300,0.321215935858406
O'Grady's Bar,PE25 1LX,53.201087000000000,0.348140000000000
The Anchor Hotel And Bars,PE25 1LX,53.201087000000000,0.348140000000000
