name,postcode,lat,lon
La Trattoria da Vincenzo ,LN1 1JT,53.231164785452800,-0.541486990258268
QUEEN IN THE WEST,LN1 1PR,53.233793624630600,-0.553608622611857
The Horse and Groom,LN1 1RH,53.230459623447100,-0.547788261763293
COFFEE AROMA,LN1 1TR,53.229345418540900,-0.541041000000000
Age UK Lincoln & South Lincolnshire,LN1 1UQ,53.230638098526800,-0.541789541957693
Rising Cafe (From the Rubble) Lincoln,LN1 1XD,53.229272778894600,-0.542614954084512
Marco Pierre White Steakhouse Lincoln,LN1 1YW,53.229790327299700,-0.546435000000000
Samba Brazil,LN1 1YW,53.229790327299700,-0.546435000000000
CHINA HONG RESTAURANT,LN1 1YX,53.228894235621800,-0.544006068724248
The Royal William IV,LN1 1YX,53.228894235621800,-0.544006068724248
Pyewipe,LN1 2BG,53.245849460643700,-0.577079000000000
DAMBUSTERS INN,LN1 2SD,53.301586548789400,-0.572478131651878
Harbour Lights,LN1 2TS,53.249539396753600,-0.596138893839264
Quayside Coffee Ltd,LN1 2TU,53.249574458983800,-0.596198000000000
The Black Horse ,LN1 2YW,53.339847198436100,-0.577869581481059
The Black Horse,LN1 2YW,53.339847198436100,-0.577869581481059
Grayz Tea Room,LN1 3AJ,53.235250795286200,-0.538935794830847
Crafty Imp,LN1 3AL,53.235253000000000,-0.539026000000000
CURTIS OF LINCOLN ,LN1 3AN,53.235348171358000,-0.538812612329914
Elite on the Bail,LN1 3AN,53.235348171358000,-0.538812612329914
The Duke William,LN1 3AP,53.236352203265000,-0.538462000000000
Sanctuary in the Bail Limited,LN1 3AR,53.235789936659500,-0.538288000000000
The Prince of Wales Inn,LN1 3AR,53.235789936659500,-0.538288000000000
White Hart Hotel,LN1 3AR,53.235789936659500,-0.538288000000000
 Tower Hotels Lincoln Limited,LN1 3BD,53.236140774375200,-0.540403853815998
Ole Ole Tapas Bar & Restaurant,LN1 3BU,53.235320074804600,-0.543862955832030
Stokes Lawn cafe,LN1 3BU,53.235320074804600,-0.543862955832030
The Bronze Pig,LN1 3LB,53.236962848087300,-0.543672350512890
Peony tea parlour ,LN1 3LN,53.239384394549900,-0.545418294312403
Churchills,LN2 1AL,53.230039168935700,-0.539862296710057
Madame Waffle Ltd,LN2 1AL,53.230039168935700,-0.539862296710057
The Still,LN2 1DH,53.228959577293800,-0.539794157129931
Coffee Cats Lincoln Ltd,LN2 1EH,53.230084634492600,-0.538755000000000
Harry's jerk centre,LN2 1EH,53.230084634492600,-0.538755000000000
The Taste,LN2 1EW,53.230431395422000,-0.537391963236398
Lady Rose's Edwardian Tea Room,LN2 1EY,53.229789538378900,-0.537099227318829
Thomas2,LN2 1HA,53.228808000000000,-0.536863000000000
Red Panda Gaming Cafe,LN2 1HW,53.231064111242400,-0.539872371000861
lawsons bar and bistro ,LN2 1JD,53.231891358572500,-0.539155046267919
Craft ,LN2 1JG,53.231035000000000,-0.539563081457902
Shu Xiang Yuan (Uk) Ltd ,LN2 1JS,53.230384665102400,-0.539446038427287
Kaspas ,LN2 1LA,53.230749024983700,-0.537351000000000
The Collection Cafe Lincoln County Council,LN2 1LP,53.232143857988800,-0.537753102747043
Bunty's Tea Room,LN2 1LT,53.233026324822300,-0.538607003620656
Bells Tea Shop,LN2 1LU,53.233926198575100,-0.538681237966819
PIMENTO,LN2 1LU,53.233926198575100,-0.538681237966819
The Wig & Mitre,LN2 1LU,53.233926198575100,-0.538681237966819
THE ADAM & EVE TAVERN,LN2 1NT,53.233228158082200,-0.532352376112534
THE LINCOLN HOTEL,LN2 1PN,53.235708788107000,-0.535234262221439
KFC,LN2 1RE,53.238283506118700,-0.531879765518763
GREEK2ME LTD,LN2 2NR,53.265663757549400,-0.488732000000000
Black Bull,LN2 3HZ,53.304705000000000,-0.484174000000000
Mammaâ€™s italian Bistro ,LN2 4FN,53.241683580364200,-0.507426782093333
Starbucks,LN2 4GR,53.251875868142400,-0.517475000000000
mach restaurant,LN2 4RA,53.252054743954200,-0.481372000000000
Darkside Training,LN2 4SY,53.237798019204500,-0.510139250018359
Moonraker floating tearoom,LN2 5DQ,53.228432503096700,-0.537564000000000
Witch and Wardrobe Lincoln ,LN2 5DQ,53.228432503096700,-0.537564000000000
Woodside Falconry LTD,LN3 5DQ,53.269326569749100,-0.380652577911757
THE OPEN DOOR,LN3 5UA,53.210333407536300,-0.325224147785211
The Old Angel Inn,LN3 5XE,53.211242380314200,-0.323376677929019
The Ferry Boat,LN4 1AZ,53.223644845760600,-0.475039546186353
Butcher & Beast ,LN4 1JS,53.212369697801200,-0.456031738987206
curtis of lincoln ,LN5 7AF,53.226080949977300,-0.542306000000000
Bar Unico,LN5 7AR,53.228001198043600,-0.541549552743454
Stokes High Bridge cafe,LN5 7AU,53.228390000000000,-0.540872954290280
Grand coffee house,LN5 7BS,53.226336000000000,-0.538042000000000
Starbucks Lincoln High Street,LN5 7DR,53.227980665093400,-0.540606461271130
McDonald's,LN5 7DW,53.227185869318300,-0.541037958659265
200 Degrees,LN5 7ET,53.227426279337700,-0.538647873192821
Curtis of Lincoln,LN5 7ET,53.227426279337700,-0.538647873192821
Sign of the Fish,LN5 7ET,53.227426279337700,-0.538647873192821
Costa travelines,LN5 7EW,53.226254000000000,-0.539721000000000
Blest Curry Ltd,LN5 7PR,53.222821034787500,-0.544170000000000
Golden Eagle,LN5 8BD,53.216440960960700,-0.546000929667485
KFC,LN5 8HX,53.219444703138400,-0.544790000000000
Curtis of Lincoln ,LN6 0QB,53.215245000000000,-0.605288000000000
Coffee Corner,LN6 3QN,53.201135000000000,-0.611749000000000
Starbucks Tritton Park,LN6 7AN,53.223109123325300,-0.552470731203730
McDonald's,LN6 7JL,53.203287678828900,-0.580178340947960
The Elite Fish and Chip Company,LN6 7JW,53.203387000000000,-0.583110000000000
Boultham Park Cafe,LN6 7PH,53.208646340873500,-0.561508348854263
Curtis of Lincoln,LN6 7PH,53.208646340873500,-0.561508348854263
Jump INC Lincoln,LN6 7UB,53.218584367939500,-0.556161000000000
ADVOCATE ARMS HOTEL  ,LN8 3EH,53.387347835504600,-0.336524219334895
Jossals Bistro and Coffee Shop,LN8 3EH,53.387347835504600,-0.336524219334895
Nice and naughty bistro,LN8 3EN,53.387409843902300,-0.335064000000000
WHITE SWAN,LN8 3EN,53.387409843902300,-0.335064000000000
The March Hare,LN8 3HL,53.387844110269500,-0.337301847511524
THE GEORGE,LN8 3HN,53.387983680214600,-0.336995661838776
The Vintage Tearooms,LN8 3XU,53.400533438824500,-0.261898758159038
The Kings Head,LN8 3YA,53.398812000000000,-0.262134000000000
Rand Farm Park,LN8 5NJ,53.293236980392300,-0.341233198267951
The Buzz Stop,LN8 5NJ,53.293236980392300,-0.341233198267951
The Adam and Eve,LN8 5QU,53.286984071749800,-0.302545560634317
