name,postcode,lat,lon
Treepie and Egret,AB37 9BS,57.457023000000000,-3.394089000000000
chameleon and Ice seal,IV12 5PS,57.546387161279300,-3.764370418613300
Meadowlark and dukite,IV36 1AP,57.611369000000000,-3.613867000000000
terrapin and cobra,IV36 1AS,57.611519918208900,-3.614727677622200
snapping turtle and Cuscus,IV36 1AW,57.612394412314000,-3.610263494905690
Wallaby and Capuchin,IV36 1BZ,57.611388870340900,-3.614437297167080
bushmaster and Piping shrike,IV36 1DB,57.611131624813100,-3.610289000000000
goanna and gavial,IV36 1EX,57.607462761825500,-3.625661389617600
Badger and Old World warbler,IV36 1FD,57.613790687792300,-3.587240412690010
Prion and Bronzewing pigeon,IV36 1FE,57.613070845991400,-3.588046017316940
grass snake and Magpie,IV36 1GP,57.610084201571700,-3.621610530460670
Pitohui and Buzzard,IV36 1HA,57.605426728425400,-3.622608111576710
Chipmunk and Magpie,IV36 1JF,57.604236883556600,-3.632680362762650
Zebra and Greenbul,IV36 1LG,57.607277438575200,-3.613485049901290
gecko and Gila monster,IV36 1ND,57.602091966958200,-3.617137782581890
amethystine python and fer-de-lance,IV36 1NJ,57.603648583361000,-3.621156541432880
dugite and king snake,IV36 1PH,57.609337000000000,-3.611869000000000
Kestrel and Piping shrike,IV36 1PJ,57.607953171954200,-3.611924922016960
Skunk and Marmoset,IV36 1QS,57.611349211456200,-3.587786775408990
smooth snake and tortoise,IV36 2JN,57.605577332643500,-3.600940983723640
Boto and box turtle,IV36 2PL,57.594533000000000,-3.627209000000000
asp and cobra de capello,IV36 2QD,57.595809520702800,-3.632420192486370
White ibis and racer,IV36 2QR,57.530589408519700,-3.603013146980780
boa and cerastes,IV36 2SZ,57.591506000000000,-3.657540000000000
flying lizard and Mouse,IV36 9AU,57.608458000000000,-3.621855000000000
