name,id,postcode,lat,lon
Zebra and turtle,1003565,IV15 9LY,57.604479790658700,-4.423516638378610
frilled lizard and Meadowlark,1000742,IV3 5AP,57.472173743341000,-4.247376790190100
Recurvebill and harlequin snake,1002713,IV2 3XJ,57.473637429128500,-4.202117350771130
Greenbul and Boto,1002053,IV2 4RW,57.454243444074700,-4.244592448446290
coral snake and carpet snake,1003494,IV14 9FT,57.582397720944900,-4.546098793381260
snake and Dorcopsis,1000654,IV3 8JG,57.435550821885000,-4.302012643040390
hawksbill and Masked owl,1000582,IV3 8BZ,57.485727999843200,-4.233994696014780
Old World vulture and Masked owl,1004382,IV1 9SX,57.473536338870000,-4.233400331843750
Dorcopsis and rock snake,1000665,IV3 8JZ,57.409539036480200,-4.337171000000000
Puffleg and whip snake,1003579,IV15 9NT,57.594468609792800,-4.434782380149660
massasauga and anole,1003614,IV15 9QN,57.596001493367200,-4.432642289622670
fer-de-lance and Treepie,1002242,IV2 4AL,57.470077029836200,-4.220681382605740
lizard and tuatara,2591019,IV1 3JJ,57.506362000000000,-4.269628000000000
anaconda and turtle,1002502,IV2 4PF,57.460367000000000,-4.204103000000000
tiger snake and Towhee,1004416,IV1 9UR,57.473536338870000,-4.233400331843750
Dolphin and Grouse,1000612,IV3 8ES,57.488067383160600,-4.245304000000000
Towhee and dugite,998343,IV4 7DF,57.485258603678600,-4.459091180339620
Pratincole and Quetzal,1000605,IV3 8EH,57.485924325477300,-4.241664807477760
indigo snake and harlequin snake,1000331,IV3 8QR,57.485769307845800,-4.257905852291890
Thicketbird and Logrunners,1004371,IV1 9SH,57.473536338870000,-4.233400331843750
deaf adder and Capuchin,998399,IV5 7PS,57.442182099628300,-4.417168033532850
tiger snake and jew lizard,1002706,IV2 3WA,57.479066824631500,-4.196322251910140
Wallaby and Treepie,1004397,IV1 9TR,57.473536338870000,-4.233400331843750
turtle and Grosbeak,1002171,IV2 4XR,57.451492735573000,-4.244657195623250
Herring gull and hognose snake,1000615,IV3 8EW,57.486196194415000,-4.239512489153400
cerastes and agamid,1002406,IV2 4LR,57.454022808792700,-4.238811162017940
Pratincole and Kestrel,1004230,IV1 1SU,57.490875258242100,-4.229503451998540
Cuscus and soft-shelled turtle,1002365,IV2 4HL,57.461488759864200,-4.215475183617710
Puffleg and glass snake,2642542,IV6 7AF,57.517043000000000,-4.461814000000000
Philippine hawk-owl and racer,1784694,IV2 6BY,57.447779000000000,-4.204079000000000
Black jay and Condor,997530,IV7 8JW,57.599482542211200,-4.342126202618390
water snake and cobra de capello,1002056,IV2 4SA,57.474721900951100,-4.225299896527480
Pratincole and gavial,1000875,IV3 5PE,57.467108676627500,-4.237627232756530
Hawk and Hawk,997447,IV7 8DL,57.578980267625800,-4.439735887185680
king snake and Coati,1004261,IV1 3XA,57.504963215301500,-4.260861170214000
thorn lizard and Jay,1784745,IV3 8GD,57.470063000000000,-4.265375000000000
Parakeet and Coati,1002816,IV2 3ED,57.474014326700700,-4.188213306778070
bushmaster and Fulmarine petrel,1002717,IV2 3XQ,57.473390014484600,-4.200334542599670
tokay and Buzzard,997482,IV7 8HD,57.567703381152000,-4.439716856085770
Egret and Schneider python,998449,IV4 7ER,57.477774499302600,-4.466845480407360
flying dragon and Quetzal,2642520,IV3 8AX,57.466079000000000,-4.255656000000000
Diving bird and copperhead,1002383,IV2 4JJ,57.459497173570900,-4.217338642514020
Kite and grass snake,1000899,IV3 5QL,57.479893000000000,-4.238709000000000
Linsang and Snipe,1004570,IV1 1HB,57.479777899346700,-4.227492486794160
alligator and Stilt,1002388,IV2 4JR,57.460003565530200,-4.225822251415650
iguana and agama,997430,IV7 8BN,57.566143000000000,-4.431636000000000
Greenbul and Buzzard,1002577,IV2 3SA,57.469365286015300,-4.195656554301850
Pratincole and diamondback turtle,1000720,IV3 8PZ,57.482801775593900,-4.241923857532010
king cobra and Myna,1784623,IV1 9EH,57.479403000000000,-4.226319000000000
sea snake and River dolphin,997500,IV7 8JB,57.579998000000000,-4.360194000000000
Pitohui and Tit-tyrant,1002493,IV2 4NS,57.460441000000000,-4.221397000000000
Diving bird and Piping shrike,1004608,IV1 1NG,57.483304000000000,-4.229826000000000
Greenbul and Zebra,1002434,IV2 3JA,57.473450000000000,-4.211796000000000
Tattler and Rabbit,998492,IV4 7JY,57.483170447580800,-4.462487818031410
Cuscus and puff adder,1002712,IV2 3XE,57.481879047820100,-4.202513438682760
Jay and gaboon viper,1002810,IV2 3DT,57.461642546197900,-4.192809047431240
Civet and wall lizard,1000867,IV3 5NU,57.473384990096700,-4.234723000000000
Marsh harrier and mud turtle,997820,IV7 8AX,57.560486496639300,-4.432796938907610
Philippine hawk-owl and thorny devil,1000568,IV3 8BB,57.490262227052900,-4.241780577456560
Peafowl and skink,1003496,IV14 9HA,57.590470864268000,-4.533410036434540
Siskin and blindworm,1003945,IV1 9XB,57.473536338870000,-4.233400331843750
Tahr and copperhead,1004403,IV1 9TZ,57.473536338870000,-4.233400331843750
sand lizard and Old World quail,1000325,IV3 8QG,57.475037254748900,-4.257593724967120
Coati and Vole,1003279,IV15 9UB,57.607007729097600,-4.429912539906160
Bunting and Marmoset,1002767,IV2 3AH,57.477423285118300,-4.219876287561420
Wader and Thicketbird,1002485,IV2 3NU,57.478218336774900,-4.216054602472000
Fish eagle and gaboon viper,1000703,IV3 8NZ,57.473364363926900,-4.263694987031040
tiger snake and Goose,1000344,IV3 8RH,57.477671664746300,-4.323278662750910
Hawaiian honeycreeper and Vole,1003240,IV15 9RY,57.595679644682300,-4.428821805711070
Condor and Herring gull,2619611,IV2 6ET,57.445291000000000,-4.250875000000000
Viscacha and Gull,1002721,IV2 3XX,57.478041582533200,-4.203583469285760
blue racer and diamond python,1002472,IV2 3NA,57.478097734369000,-4.221755000000000
tortoise and sand viper,1003588,IV15 9PE,57.606264085175400,-4.420438025391450
Crow and monitor,998804,IV4 7AA,57.502636000000000,-4.472964000000000
Polecat and boa,1000919,IV3 5RR,57.473877563037900,-4.243028184788780
tokay and horned toad,1003490,IV14 9ES,57.568533000000000,-4.578377000000000
Kangaroo and taipan,1003305,IV15 9XF,57.593152580961900,-4.423783538428160
terrapin and Piping shrike,1000334,IV3 8QU,57.477519692786600,-4.260465867687960
Jackal and Francolin,1002369,IV2 4HR,57.460865714450600,-4.213603464772010
Badger and Dolphin,1000904,IV3 5QS,57.478835634773100,-4.241113611381510
Hawaiian honeycreeper and Mink,1002448,IV2 3JU,57.475465481064400,-4.216755182406650
water snake and Black jay,1002362,IV2 4HG,57.466912000000000,-4.214169000000000
Cuscus and Puffleg,1000345,IV3 8RJ,57.479109906452800,-4.361454467573260
fer-de-lance and diamond snake,1002276,IV2 4DG,57.452215561285800,-4.232799845547630
Partridge and agama,1003500,IV15 9AB,57.600101000000000,-4.440900000000000
Diving bird and puff adder,1003618,IV15 9QT,57.594435516631500,-4.417325558377800
giant tortoise and death adder,1003443,IV14 9AX,57.588371428244000,-4.542634375488350
leguaan and constrictor,997480,IV7 8HA,57.567046505448500,-4.438368536906720
perentie and skink,2591021,IV1 9FA,57.479387000000000,-4.226317000000000
chuckwalla and sand viper,1784750,IV3 8GW,57.463083000000000,-4.275748000000000
green turtle and terrapin,1002784,IV2 3BE,57.475274606953000,-4.218411556692590
moloch and box turtle,1000543,IV3 5SZ,57.471524352633900,-4.232343566486200
Parrotlet and Kangaroo,997476,IV7 8GW,57.606451000000000,-4.328228000000000
hoop snake and Parrotlet,1000670,IV3 8LF,57.481295459440100,-4.236176245237230
puff adder and Rat,1003938,IV1 9WT,57.473536338870000,-4.233400331843750
Tahr and tree snake,998443,IV4 7EH,57.481501505028900,-4.464661078986880
diamond snake and Solitaire,1002783,IV2 3BD,57.475546112431600,-4.218811649408720
Old World vulture and Tahr,1004573,IV1 1HN,57.478441064558100,-4.223307585300450
Rabbit and diamondback,1002567,IV2 3RP,57.471634993780700,-4.196893474315670
Gull and Myna,1004516,IV1 1EN,57.479777899346700,-4.227492486794160
Mockingbird and cobra de capello,1000876,IV3 5PF,57.468219864774300,-4.236277694499560
sand viper and worm lizard,1002447,IV2 3JT,57.476344709305600,-4.217342215106130
Linsang and American sparrow,1002405,IV2 4LQ,57.457331956381200,-4.236646196745550
constrictor and frilled lizard,1000789,IV3 5EP,57.472708896578700,-4.236485345603640
loggerhead and Crow,1000699,IV3 8NU,57.473374518720200,-4.261627450552940
Eagle and bandy-bandy,1000608,IV3 8EN,57.486332115191000,-4.238436317668880
Ibex and Warbler,1004597,IV1 1LS,57.480362205419400,-4.225442849647750
slowworm and Tattler,1002043,IV2 4RG,57.455502499884600,-4.241502240234720
Scimitar babbler and Marmoset,998387,IV5 7PB,57.480058050733800,-4.409644435021480
green turtle and asp,1784746,IV3 8GE,57.470138428050900,-4.264046387799820
viper and Jay,1004388,IV1 9TE,57.473536338870000,-4.233400331843750
diamondback terrapin and bandy-bandy,998018,IV6 7PX,57.523655000000000,-4.469226000000000
Grosbeak and habu,1003239,IV15 9RW,57.605408619635400,-4.424281564613150
skink and Warbler,1002516,IV2 4PY,57.460820121088600,-4.209032365949380
bicycle lizard and Perching duck,1002331,IV2 4EE,57.461621585558600,-4.218651125674680
Chickadee and Egret,1002517,IV2 4PZ,57.460813835912800,-4.210415826521210
Logrunners and thorn lizard,1001984,IV2 6AQ,57.446073820208300,-4.219842484449360
Coati and Masked owl,997663,IV6 7SG,57.520941015800200,-4.364676585888100
Mamo and giant tortoise,1003513,IV15 9HG,57.594896158857900,-4.424234300935370
Tit-tyrant and Vole,1004396,IV1 9TQ,57.473536338870000,-4.233400331843750
Linsang and Guillemot,1002231,IV2 3YN,57.461502730648700,-4.202887853217210
Diving bird and Quetzal,1004389,IV1 9TF,57.473536338870000,-4.233400331843750
Diving bird and Grackle,1003250,IV15 9SP,57.599712272122100,-4.448472858241940
Recurvebill and Flameback,1003292,IV15 9UU,57.605110500864400,-4.435109184848280
