name,postcode,lat,lon
6 Burgerz,BB1 1BB,53.7429,-2.4793
STEAKOUT,BB1 1BB,53.7429,-2.4793
subway,BB1 1EY,53.7464,-2.4795
Chai Station,BB1 1NR,53.7478,-2.4587
sahad blackburn ,BB1 1TD,53.7435,-2.4713
Wright's Bites,BB1 2AL,53.7477,-2.4461
FLIP OUT BLACKBURN,BB1 2EE,53.7307,-2.4526
The Dog Inn,BB1 2NN,53.7188,-2.4321
The grey mare,BB1 2PG,53.7118,-2.4080
The Pack,BB1 2PL,53.7186,-2.4253
The Burger Bros,BB1 3AN,53.7486,-2.4673
HAWELI INDIAN CUISINE,BB1 3AZ,53.7486,-2.4701
speedy steaks,BB1 3BD,53.7512,-2.4607
McDonald's,BB1 3HR,53.7540,-2.4454
The red lion,BB1 3HY,53.7513,-2.4452
spice lounge ,BB1 4AD,53.7812,-2.4465
Checks & Greys,BB1 5AA,53.7470,-2.4821
Butlers Family Restaurant,BB1 5AF,53.7483,-2.4832
Exchange Coffee Company Blackburn Market,BB1 5AF,53.7483,-2.4832
JW Chilli & Salt Blackburn ,BB1 5AF,53.7483,-2.4832
KFC,BB1 5AF,53.7483,-2.4832
Spindles Diner ltd,BB1 5AF,53.7483,-2.4832
The Pepper Pot ,BB1 5AF,53.7483,-2.4832
Wellbread,BB1 5AF,53.7483,-2.4832
Zakros Greek Cuisine & Thai noodle bar,BB1 5AF,53.7483,-2.4832
Haute Dolci,BB1 5AL,53.7479,-2.4817
Calypso Restaurant,BB1 5BY,53.7492,-2.4742
TCK DELI MARKET LTD,BB1 5DP,53.7522,-2.4699
Naafiah GrillHouse ,BB1 6DS,53.7526,-2.4813
Chaiiwala,BB1 6EE,53.7559,-2.4773
Kebabish Original,BB1 6JZ,53.7589,-2.4711
Dipz Donut & Gelato,BB1 6LB,53.7591,-2.4704
Roberto's Bar & Bistro,BB1 7AR,53.7505,-2.4857
 McDonald's,BB1 7DJ,53.7491,-2.4843
WAHEED'S BUFFET,BB1 7EG,53.7518,-2.4849
Wana and sons ltd,BB1 7LE,53.7528,-2.4829
Griller bb ltd,BB1 7LG,53.7529,-2.4811
RHODE ISLAND COFFEE LTD,BB1 7NQ,53.7485,-2.4817
Chickanos,BB1 8AE,53.7522,-2.4870
S Q Restaurant,BB1 8AP,53.7538,-2.4904
The Fig And The Olive,BB1 8DS,53.7611,-2.4876
The clove,BB1 8DU,53.7595,-2.4876
Foxs Sandwich Deli,BB1 8DW,53.7585,-2.4893
EGO at the Knowles Arms,BB1 8QW,53.7712,-2.4850
Shajan Indian Restaurant,BB1 9EX,53.7951,-2.5071
Tiggis,BB1 9EX,53.7951,-2.5071
The Bonny Inn Limited,BB1 9HQ,53.7912,-2.4891
Wilpshire Golf Club,BB1 9LF,53.7885,-2.4740
LAHORE QILA LTD,BB1 9TL,53.7609,-2.4718
Samosa chaat ,BB10 1QX,53.7998,-2.2397
Subway,BB10 2AR,53.8024,-2.2233
Simply Classic BooHoo,BB10 2BQ,53.8058,-2.2171
Oaks Hotel,BB10 2LF,53.8164,-2.2355
THE COFFEE HOUSE,BB10 2QP,53.8162,-2.2232
The Thornton,BB10 3JS,53.7877,-2.2076
Hare and Hounds,BB10 3QH,53.8137,-2.1952
Horses and Ponies Protection Association,BB10 3QU,53.8105,-2.1757
Shooters Arms ,BB10 3RJ,53.8291,-2.1810
Burnley Football CLub,BB10 4BX,53.7885,-2.2303
Kettledrum Inn,BB10 4RG,53.7716,-2.1927
Towneley Garden Centre,BB10 4SD,53.7837,-2.2070
Ellis’s ,BB11 1AP,53.7914,-2.2432
Siam Thai Cafe,BB11 1BB,53.7903,-2.2444
Astoria (Burnley) Ltd,BB11 1DR,53.7890,-2.2444
Mr Greens Diner Ltd,BB11 1DW,53.7886,-2.2437
Brambles tearooms,BB11 1EP,53.7885,-2.2438
Illuminati,BB11 1NA,53.7888,-2.2457
Lancashire coffee ltd,BB11 1NH,53.7890,-2.2434
Quick Crepes Burnley,BB11 1NH,53.7890,-2.2434
RHODE ISLAND COFFEE LTD,BB11 1NH,53.7890,-2.2434
St James coffee House,BB11 1NL,53.7896,-2.2462
Starvin Marvin,BB11 1PP,53.7898,-2.2461
Costa Coffee,BB11 1QE,53.7894,-2.2430
McDonald's,BB11 1QL,53.7891,-2.2418
Salva Fast Food ,BB11 1QL,53.7891,-2.2418
Whats 4 Dessert,BB11 1RA,53.7898,-2.2547
Bannys Drive Thru,BB11 1TQ,53.7866,-2.2494
KFC BURNLEY 02032,BB11 1TQ,53.7866,-2.2494
Subway,BB11 1TQ,53.7866,-2.2494
The Bridge Bier Huis Ltd,BB11 1UH,53.7900,-2.2413
The Palazzo,BB11 2AS,53.7878,-2.2431
Ivy Joans Diner,BB11 2DB,53.7891,-2.2400
Aroma Asian Restaurant ,BB11 2DL,53.7913,-2.2391
Shimla spice,BB11 2DW,53.7908,-2.2381
star cafe ltd,BB11 2EQ,53.7879,-2.2402
Rosehill House Hotel Limited,BB11 2PW,53.7801,-2.2530
The Boathouse ,BB11 2RU,53.7931,-2.2366
Lahori Kebabish,BB11 3AB,53.7879,-2.2363
Towneley Golf Club,BB11 3ED,53.7771,-2.2324
Dine Experience Limited,BB11 3RF,53.7689,-2.2216
Cramptons Catering,BB11 3RW,53.7717,-2.2517
Chocstop dessert cafe ,BB11 4HU,53.7853,-2.2487
zil mil,BB11 4HU,53.7853,-2.2487
BALLERO,BB11 4SB,53.7889,-2.2607
Usha Limited,BB11 5BZ,53.7779,-2.2686
Subway,BB11 5DB,53.7810,-2.2774
New Waggonners ltd,BB11 5NS,53.7621,-2.2613
Beijing cantonese restaurant ,BB11 5PB,53.7494,-2.2691
Bertram's restaurant,BB12 0RT,53.8013,-2.2535
The Lounge restaurant,BB12 0RT,53.8013,-2.2535
Wilfred's restaurant,BB12 0RT,53.8013,-2.2535
Holiday Inn Express Burnley M65 J10,BB12 0TJ,53.7939,-2.2564
Simply Classic Exertis,BB12 7BF,53.7891,-2.3037
Simply classic,BB12 7NG,53.7953,-2.3290
The Stork Hotel,BB12 7NZ,53.8068,-2.3504
Higher Trapp,BB12 7QW,53.8165,-2.3400
Brewschetta Cafe by the River ltd ,BB12 7RT,53.8028,-2.3843
Mooch Cafe87 ,BB12 8BL,53.8002,-2.3128
The Cellar Restaurant Pendle limited,BB12 8HG,53.8019,-2.3174
The Lawrence Hotel,BB12 8HG,53.8019,-2.3174
Jaipur restaurant Padiham ,BB12 8QN,53.7990,-2.3102
Fence Gate,BB12 9EE,53.8307,-2.2670
Fence Gate Lodge Ltd,BB12 9EP,53.8296,-2.2697
porkys,BB12 9ER,53.8288,-2.2758
Four Alls ,BB12 9EZ,53.8245,-2.2932
The Pendle Inn,BB12 9JX,53.8586,-2.2720
The White Swan,BB12 9QA,53.8377,-2.2535
The Sparrowhawk Pub ,BB12 9QG,53.8425,-2.2464
Mad Hatters Cupcakes & Tea Room,BB2 1AG,53.7497,-2.4850
muffins tea shop ,BB2 1AG,53.7497,-2.4850
Heavenly Desserts Blackburn Ltd,BB2 1AN,53.7504,-2.4864
The Tawa & Grill Hut,BB2 1EH,53.7498,-2.4927
Roomali,BB2 1JD,53.7482,-2.4857
The Refreshment Bar,BB2 1JU,53.7484,-2.4851
Witton Inn,BB2 1XQ,53.7416,-2.5068
Taste Of India ,BB2 2AD,53.7459,-2.4829
Crust,BB2 2BH,53.7463,-2.4827
The health chef limited,BB2 2BH,53.7463,-2.4827
Cube Lounge,BB2 2BY,53.7468,-2.4830
THIRA RESTAURANT,BB2 2BY,53.7468,-2.4830
Exchange Coffee Company Blackburn Shop,BB2 2DG,53.7473,-2.4838
Stay Grounded Limited,BB2 2DH,53.7465,-2.4862
OBSERVATORY HOTEL,BB2 3HG,53.7355,-2.4700
COSTA COFFEE,BB2 3HH,53.7356,-2.4627
Raj mooring ltd ,BB2 3PZ,53.7398,-2.4861
Brunch Cafe and Takeaway,BB2 4DT,53.7341,-2.5028
Revolution cafe ltd,BB2 4DT,53.7341,-2.5028
  McDonald's,BB2 4LQ,53.7286,-2.4923
The Arches ,BB2 5HD,53.7280,-2.5315
Kaspas Blackburn,BB2 6AE,53.7514,-2.4883
THE QUEEN VIC FISH AND CHIPS BLACKBURN,BB2 6AE,53.7514,-2.4883
THE NILE ,BB2 6BS,53.7495,-2.5010
The Clog & Billycock,BB2 6QB,53.7499,-2.5299
TGC AT THE WOODLANDS RESTAURANT,BB2 7AA,53.7532,-2.5113
Traders Arms,BB2 7EW,53.7739,-2.5255
The Bay Horse Inn,BB2 7HX,53.7805,-2.5368
Hawkshaw Farm Visitor Centre,BB2 7JA,53.7872,-2.5245
The Millstone,BB2 7JR,53.7736,-2.5291
The golden cup,BB3 0AJ,53.7140,-2.4827
Chopstix Blackburn,BB3 0AT,53.7136,-2.4815
McDonald's,BB3 0AT,53.7136,-2.4815
Vaughns Country Cafe,BB3 0PA,53.6892,-2.5087
Black Olive Deli & Coffee Ltd,BB3 1AT,53.7000,-2.4723
Amalfi Lounge ,BB3 1AU,53.6974,-2.4693
Papas American diner ,BB3 1AU,53.6974,-2.4693
SUBWAY,BB3 1AU,53.6974,-2.4693
Sweet Vintage Darwen,BB3 1BG,53.6954,-2.4672
FLAMES GRILL AND BAR ,BB3 1BZ,53.6911,-2.4666
The Alexandra hotel ,BB3 1NL,53.7007,-2.4765
Akash Indian Brasserie,BB3 1PX,53.6979,-2.4705
anaz restaurant,BB3 1QA,53.6987,-2.4714
Artisan Cafe and Wine Bar ,BB3 2AA,53.6946,-2.4662
The Bridge cafe,BB3 2AA,53.6946,-2.4662
The Whitehall Hotel,BB3 2JU,53.6813,-2.4654
Zest cafe lounge,BB3 2PR,53.6860,-2.4619
DOLLYS TEAROOM AND RESTAURANT,BB3 2PS,53.6857,-2.4626
Craven Heifer Inn,BB3 3LD,53.6908,-2.4483
The Ranken Arms ,BB3 3LY,53.6959,-2.4307
The Crown & Thistle,BB3 3PP,53.6792,-2.4271
Holden Wood Tea Rooms,BB4 4AT,53.7029,-2.3575
Pearsons,BB4 4HD,53.6900,-2.3282
The Robin Hood Inn,BB4 4NP,53.6894,-2.3382
The mill cafe,BB4 4NP,53.6894,-2.3382
Holden Arms,BB4 4PD,53.6994,-2.3400
Las tapas,BB4 5HL,53.7087,-2.3263
The Link Cafe,BB4 5PG,53.7038,-2.3220
Dearden Tea Rooms,BB4 5QJ,53.7058,-2.3253
Domino's Pizza,BB4 5SN,53.7042,-2.3262
Jaznias,BB4 5SN,53.7042,-2.3262
Zee Desserts LTD,BB4 5SN,53.7042,-2.3262
Anarkali Indian restaurant ,BB4 5TU,53.7200,-2.3371
Tiger Lounge Rawtenstall,BB4 6AA,53.7002,-2.2879
The Firepit Restaurant and Grill,BB4 6AJ,53.6980,-2.2925
The Whitchaff,BB4 6EH,53.6927,-2.2985
woolpack,BB4 6LN,53.6928,-2.3119
sykeside country house hotel ,BB4 6QE,53.6958,-2.3161
MR FITZPATRICK'S TEMPERANCE BAR LIMITED,BB4 6QS,53.7014,-2.2867
McDonald's,BB4 6QX,53.6995,-2.2924
The Old Library Waterfoot ,BB4 7AW,53.6920,-2.2501
North Street Restaurant Limited,BB4 7LX,53.7021,-2.2841
BLOSSOM RESTAURANT,BB4 7NG,53.7005,-2.2872
Ashoka Restaurant,BB4 7PA,53.7001,-2.2754
Nino's Restaurant,BB4 7PA,53.7001,-2.2754
A Vucciria,BB4 7QN,53.7033,-2.2845
Do Dah's,BB4 7QN,53.7033,-2.2845
Fresh cafe ,BB4 7QN,53.7033,-2.2845
Laturka bistro,BB4 7QN,53.7033,-2.2845
Siphon espresso and brew bar,BB4 7QN,53.7033,-2.2845
The fig tree,BB4 7QN,53.7033,-2.2845
THE INDIAN HARVEST,BB4 8AJ,53.7253,-2.2864
BB4 8EW,BB4 8EW,53.7063,-2.2871
Gate of India ,BB4 8EW,53.7063,-2.2871
MONDELLOS,BB4 8NE,53.7233,-2.2876
The Hargreaves Arms Pub & Restaurant ,BB4 9PQ,53.7193,-2.2479
Los Pollos Hermanos,BB5 1AS,53.7559,-2.3653
Coffee beanz,BB5 1DZ,53.7535,-2.3630
Infant St Chip Shop,BB5 1DZ,53.7535,-2.3630
Boardwalk ,BB5 1EE,53.7518,-2.3618
Rileys ,BB5 1EH,53.7520,-2.3611
Tiger Lounge Accrington,BB5 1EH,53.7520,-2.3611
Yankeez ,BB5 1EH,53.7520,-2.3611
Frankies Cafe,BB5 1ER,53.7534,-2.3644
BRUNCH COFFEE SHOP LTD,BB5 1EW,53.7542,-2.3637
Lancashire Tea Rooms & More,BB5 1EX,53.7544,-2.3653
Mitali Accrington Ltd,BB5 1HN,53.7520,-2.3630
Carers Link Lancashire,BB5 1LE,53.7534,-2.3668
Subway,BB5 1PL,53.7539,-2.3664
mickimorgans,BB5 1PR,53.7546,-2.3676
McDonald's,BB5 1PY,53.7559,-2.3774
GRANTS BAR,BB5 2BQ,53.7500,-2.3597
The Gallery Kitchen,BB5 2JS,53.7412,-2.3566
McDonald's,BB5 2SB,53.7262,-2.3326
Spice Room,BB5 2SB,53.7262,-2.3326
Royal Phoenix Restaurant,BB5 3DA,53.7474,-2.3926
The Pavillion coffee shop,BB5 3DE,53.7474,-2.3898
ELEANOR EATERY,BB5 3JX,53.7417,-2.3978
The White Bull Oswaldtwistle,BB5 3QW,53.7374,-2.4058
Britannia,BB5 3RJ,53.7296,-2.4148
The Whitecroft Indian Bar & Restaurant,BB5 3RJ,53.7296,-2.4148
The Duckworth hall inn ,BB5 3RQ,53.7348,-2.4235
The Plough,BB5 3RY,53.7369,-2.3838
MR GATTY'S TEA ROOM,BB5 4AA,53.7568,-2.3819
Monte Cristo Italian Restaurant,BB5 4EP,53.7549,-2.3876
Yummies Breakfast Ltd,BB5 4LZ,53.7503,-2.4104
westend fish and chips,BB5 4LZ,53.7503,-2.4104
the stanhill pub & kitchen,BB5 4PS,53.7448,-2.4160
Balti Stan Indian Cuisine ,BB5 5HD,53.7726,-2.3826
The Hare and Hounds,BB5 5HE,53.7725,-2.3821
The Hyndburn Restaurant & Bar,BB5 5SQ,53.7858,-2.3842
THE WALTON,BB5 5UL,53.7918,-2.3494
The Jump Works,BB5 6EG,53.7560,-2.3598
whitakers arms,BB5 6HG,53.7621,-2.3505
Cafe Ri-An,BB5 6PR,53.7537,-2.3618
Clayton street chippy,BB6 7AQ,53.7853,-2.4045
Alis chicken village ,BB6 7DD,53.7857,-2.4077
Tipsy Cows Cheese & Wine Merchants Ltd,BB6 7NF,53.7867,-2.4075
Great British fish and chip bank ,BB6 7QQ,53.7860,-2.4059
The Green Olive deli and bistro ,BB6 7QQ,53.7860,-2.4059
Checcos,BB6 7UH,53.7994,-2.3877
Game Cock Carvery,BB6 7UH,53.7994,-2.3877
Pendle catering ltd,BB6 8AF,53.8025,-2.4731
Black Bull Inn,BB6 8AW,53.8175,-2.4553
The Avenue Hotel Ltd,BB6 8AY,53.8241,-2.4526
Northcote Hotel,BB6 8BE,53.8093,-2.4476
Café Emporia Ltd,BB7 1BE,53.8704,-2.3918
1823 Spinning Block Bistro,BB7 1EB,53.8678,-2.3949
Boilerhouse Cafe,BB7 1EB,53.8678,-2.3949
Bowland Beer Hall,BB7 1EB,53.8678,-2.3949
Bowland Food Hall,BB7 1EB,53.8678,-2.3949
Spinning Block Hotel,BB7 1EB,53.8678,-2.3949
Swan with Two Necks,BB7 1PT,53.8521,-2.3716
Costa Coffee,BB7 2BT,53.8720,-2.3921
ROSE AND CROWN HOTEL,BB7 2BT,53.8720,-2.3921
Swan and Royal Hotel,BB7 2BX,53.8719,-2.3916
Brioche,BB7 2DP,53.8727,-2.3898
Exchange Coffee Company Clitheroe,BB7 2DP,53.8727,-2.3898
Mansell's Coffee Shop,BB7 2DQ,53.8718,-2.3915
Ice and Spice and all things nice,BB7 2EU,53.8731,-2.3930
Maxwells Cafe Bar,BB7 2EU,53.8731,-2.3930
the apricot meringue,BB7 2EU,53.8731,-2.3930
Secret Garden Cafe,BB7 2JW,53.8728,-2.3927
Edisford Bridge Hotel,BB7 3LJ,53.8679,-2.4208
The Eagle ,BB7 9AQ,53.8346,-2.4031
Freemasons ,BB7 9DF,53.8320,-2.3887
Sanwitches cafe,BB7 9ED,53.8299,-2.3403
Loom Loft Ltd,BB7 9FL,53.8271,-2.4044
wellsprings(pendlehill)ltd,BB7 9HN,53.8465,-2.3467
Sheridan Hotels Ltd t/as Foxfields Country Hotel,BB7 9HY,53.8134,-2.4299
Blueberries Cafe,BB7 9JW,53.8273,-2.4196
Ebenezers ,BB7 9NN,53.8176,-2.4147
Mitton Hall,BB7 9PQ,53.8421,-2.4318
the bayley arms,BB7 9QB,53.8386,-2.4809
Shireburn Arms,BB7 9QJ,53.8371,-2.4761
Flavours Cookery School,BB7 9SE,53.8253,-2.4108
FORUM BAR & KITCHEN,BB7 9SP,53.8213,-2.4068
The Dog Inn,BB7 9SP,53.8213,-2.4068
Trishna Whalley,BB7 9SP,53.8213,-2.4068
KING STREET KITCHEN,BB7 9SW,53.8222,-2.4069
Tastebuds (Whalley) Limited,BB7 9TH,53.8221,-2.4076
McDonald's,BB7 9WF,53.8404,-2.3955
Carlos Ristorante Ltd,BB8 0AD,53.8562,-2.1742
Chosen By Jessica,BB8 0AD,53.8562,-2.1742
Rileys bar,BB8 0AG,53.8555,-2.1781
Tubbs of Colne,BB8 0AG,53.8555,-2.1781
J wild (Confectioners) Ltd,BB8 0HS,53.8570,-2.1659
Pendle Kitchen,BB8 0HS,53.8570,-2.1659
About Coffee LTD,BB8 0LG,53.8572,-2.1696
The Crown Hotel (Colne) Limited,BB8 0QD,53.8551,-2.1801
Colne golf club ,BB8 7EB,53.8674,-2.1394
The Spinning Mill ,BB8 8LF,53.8460,-2.1965
Trawden Arms,BB8 8RU,53.8452,-2.1351
The Old Rock Cafe,BB8 8RW,53.8470,-2.1354
KFC - COLNE,BB8 9DR,53.8605,-2.1678
Vanillaz ,BB8 9HT,53.8577,-2.1655
BB's Coffee Shop c/o Boundary Outlet,BB8 9NW,53.8575,-2.1787
Bannisters Restaurant c/o Boundary Outlet,BB8 9NW,53.8575,-2.1787
Bannys British Kitchen,BB8 9NW,53.8575,-2.1787
Bumbellini's c/o Boundary Outlet,BB8 9NW,53.8575,-2.1787
The Chocolate Strawberry,BB9 5NF,53.8284,-2.2358
Connellys,BB9 5RQ,53.8282,-2.2330
Will's,BB9 6BH,53.8595,-2.2069
Barrowford Lounge,BB9 6DX,53.8517,-2.2163
Park View Cafe,BB9 6EW,53.8523,-2.2155
The Bombay Lounge,BB9 6EW,53.8523,-2.2155
Booths,BB9 6HH,53.8547,-2.2152
LHT ENTERPRISES LTD,BB9 6JQ,53.8535,-2.2091
The Bay Horse Inn Roughlee,BB9 6NP,53.8590,-2.2394
The Cross Gaits,BB9 6RF,53.8680,-2.2048
Subway,BB9 7AJ,53.8330,-2.2207
Northern Relish LTD,BB9 7DR,53.8351,-2.2287
Giddy Kippers Ltd,BB9 7DU,53.8347,-2.2299
Subway,BB9 7YL,53.8423,-2.2172
M I FOODS LTD,BB9 8EP,53.8428,-2.2032
S R Desserts Ltd,BB9 8EP,53.8428,-2.2032
Samsons cafe/sandwich shop ,BB9 9HL,53.8393,-2.2042
Costa Coffee,BB9 9SL,53.8363,-2.2137
Europa Bar & Club ,BB9 9TL,53.8389,-2.2102
Caths Cafe,BB9 9UA,53.8392,-2.2089
The Coach at Edenfield,BL0 0HJ,53.6736,-2.3061
Old Mill Hotel,BL0 9DS,53.6503,-2.3233
The Toby Inn Ltd,BL7 0JQ,53.6713,-2.3851
The Strawbury Duck,BL7 0LU,53.6529,-2.4169
Basils Restaurant Whitworth,OL12 8PW,53.6549,-2.1768
Samson Beer Company Limited,OL12 8PY,53.6554,-2.1730
Nibbles Café,OL12 8QS,53.6612,-2.1740
Ashoka Restaurant,OL12 8QW,53.6603,-2.1740
Marios of Bacup Ltd,OL13 0AT,53.7003,-2.2008
Lucy Lous Cafe,OL13 0DH,53.6932,-2.2094
Rose 'n' Bowl,OL13 0UG,53.6922,-2.2223
Dolce & Gelato,OL13 8AB,53.7042,-2.2023
The street food kitchen,OL13 8EX,53.7030,-2.2014
Anna's Cafe-Bar,OL13 8QE,53.7239,-2.1982
Zee Desserts,OL13 9NH,53.7032,-2.2005
1832 Barista,OL13 9NJ,53.7027,-2.2000
The Old Boot Cafe & Wine Bar,OL13 9NJ,53.7027,-2.2000
Glen view inn,OL14 7EW,53.7314,-2.1504
staff of life inn,OL14 8JF,53.7274,-2.1285
Ribinns Ltd ta The White Bull Hotel,PR3 3XP,53.8117,-2.5323
Black Bull,PR3 3YE,53.8129,-2.5342
Potters Barn ,PR3 3YE,53.8129,-2.5342
Always Cake,PR3 3YN,53.8189,-2.5335
Ribchester Arms,PR3 3ZP,53.8138,-2.5307
