name,postcode,lat,lon
Blackburn Tenpin,BB1 1AQ,53.7446,-2.4786
Pizza Hut,BB1 1AQ,53.7446,-2.4786
6 Burgerz,BB1 1BB,53.7430,-2.4793
Burger King,BB1 1BB,53.7430,-2.4793
STEAKOUT,BB1 1BB,53.7430,-2.4792
Steak out,BB1 1BB,53.7430,-2.4792
Dunelm Soft Furnishings Ltd Cafe Pausa,BB1 1DG,53.7441,-2.4807
Nando's,BB1 1DG,53.7441,-2.4807
subway,BB1 1EY,53.7465,-2.4795
Starbucks (Cathedral),BB1 1FB,53.7468,-2.4802
Turtle Bay,BB1 1FB,53.7468,-2.4807
Chai Station,BB1 1NR,53.7479,-2.4587
sahad blackburn ,BB1 1TD,53.7436,-2.4714
Wright's Bites,BB1 2AL,53.7477,-2.4462
FLIP OUT BLACKBURN,BB1 2EE,53.7318,-2.4536
Starbucks,BB1 2EE,53.7307,-2.4526
Zeddy's chicken  and pizza,BB1 2HR,53.7392,-2.4524
Powerleague Soccerdome,BB1 2NG,53.7275,-2.4462
The Dog Inn,BB1 2NN,53.7188,-2.4320
The grey mare,BB1 2PG,53.7118,-2.4080
The Pack,BB1 2PL,53.7187,-2.4250
KFC @ Frontier Park,BB1 3AL,53.7492,-2.4652
Starbucks @ Frontier Park,BB1 3AL,53.7492,-2.4652
The Burger Bros,BB1 3AN,53.7486,-2.4673
HAWELI INDIAN CUISINE,BB1 3AZ,53.7486,-2.4702
speedy steaks,BB1 3BD,53.7512,-2.4608
McDonald's,BB1 3HR,53.7540,-2.4454
McDonalds Restaurant,BB1 3HW,53.7524,-2.4484
The red lion,BB1 3HY,53.7515,-2.4452
spice lounge ,BB1 4AD,53.7812,-2.4465
Checks & Greys,BB1 5AA,53.7469,-2.4816
Butlers Family Restaurant,BB1 5AF,53.7481,-2.4828
Exchange Coffee Company Blackburn Market,BB1 5AF,53.7482,-2.4827
JW Chilli & Salt Blackburn ,BB1 5AF,53.7481,-2.4828
KFC,BB1 5AF,53.7481,-2.4828
Spindles Diner ltd,BB1 5AF,53.7481,-2.4828
Thai noodle bar ,BB1 5AF,53.7482,-2.4827
The Pepper Pot ,BB1 5AF,53.7482,-2.4827
Wellbread,BB1 5AF,53.7481,-2.4828
Zakros Greek Cuisine & Thai noodle bar,BB1 5AF,53.7482,-2.4827
Haute Dolci,BB1 5AL,53.7479,-2.4817
FRANKIE'S BLACKBURN,BB1 5BD,53.7484,-2.4800
Calypso Restaurant,BB1 5BY,53.7492,-2.4742
TCK DELI MARKET LTD,BB1 5DP,53.7524,-2.4693
Costa Coffee,BB1 6AD,53.7501,-2.4813
Buzz Bingo,BB1 6AF,53.7507,-2.4802
Marhaba sweets,BB1 6DS,53.7526,-2.4814
Naafiah GrillHouse ,BB1 6DS,53.7526,-2.4814
Pepe's Piri Piri,BB1 6DS,53.7526,-2.4814
Chaiiwala,BB1 6EE,53.7554,-2.4781
Kebabish Original,BB1 6JZ,53.7589,-2.4711
Dipz Donut & Gelato,BB1 6LB,53.7580,-2.4713
Sliders ,BB1 6LR,53.7579,-2.4700
Roberto's Bar & Bistro,BB1 7AR,53.7506,-2.4856
 McDonald's,BB1 7DJ,53.7488,-2.4843
McDonalds Restaurant Ltd,BB1 7DJ,53.7488,-2.4843
WAHEED'S BUFFET,BB1 7EG,53.7518,-2.4849
Burger King The Mall,BB1 7JB,53.7488,-2.4830
KFC,BB1 7JE,53.7491,-2.4835
Costa Coffee,BB1 7JG,53.7492,-2.4827
Wana and sons ltd,BB1 7LE,53.7527,-2.4829
Griller bb ltd,BB1 7LG,53.7530,-2.4811
RHODE ISLAND COFFEE LTD,BB1 7NQ,53.7487,-2.4832
Chickanos,BB1 8AE,53.7522,-2.4870
S Q Restaurant,BB1 8AP,53.7539,-2.4905
The Fig And The Olive,BB1 8DS,53.7611,-2.4876
The clove,BB1 8DU,53.7595,-2.4876
Foxs Sandwich Deli,BB1 8DW,53.7585,-2.4894
EGO at the Knowles Arms,BB1 8QW,53.7712,-2.4850
Shajan Indian Restaurant,BB1 9EX,53.7951,-2.5071
Tiggis,BB1 9EX,53.7951,-2.5071
The Bonny Inn Limited,BB1 9HQ,53.7912,-2.4879
Wilpshire Golf Club,BB1 9LF,53.7885,-2.4740
LAHORE QILA LTD,BB1 9TL,53.7610,-2.4719
Mad Hatters Cupcakes & Tea Room,BB2 1AG,53.7497,-2.4848
muffins tea shop ,BB2 1AG,53.7497,-2.4850
Ginger Muffin,BB2 1AN,53.7504,-2.4865
Heavenly Desserts Blackburn Ltd,BB2 1AN,53.7504,-2.4865
The Tawa & Grill Hut,BB2 1EH,53.7498,-2.4927
Roomali,BB2 1JD,53.7482,-2.4854
The Refreshment Bar,BB2 1JU,53.7485,-2.4851
Achari ,BB2 1XB,53.7414,-2.5063
Witton Inn,BB2 1XQ,53.7416,-2.5068
Taste Of India ,BB2 2AD,53.7459,-2.4830
Crust,BB2 2BH,53.7464,-2.4823
The health chef limited,BB2 2BH,53.7463,-2.4827
Cube Lounge,BB2 2BY,53.7467,-2.4830
THIRA RESTAURANT,BB2 2BY,53.7467,-2.4830
Exchange Coffee Company Blackburn Shop,BB2 2DG,53.7473,-2.4840
Stay Grounded Limited,BB2 2DH,53.7465,-2.4862
Costa Coffee Drive Thru Grimshaw Park,BB2 3DY,53.7424,-2.4783
OBSERVATORY HOTEL,BB2 3HG,53.7355,-2.4700
COSTA COFFEE,BB2 3HH,53.7366,-2.4668
WH Smiths Costa Coffee,BB2 3HH,53.7366,-2.4668
Raj mooring ltd ,BB2 3PZ,53.7400,-2.4859
Brunch Cafe and Takeaway,BB2 4DT,53.7341,-2.5029
Revolution cafe ltd,BB2 4DT,53.7341,-2.5029
  McDonald's,BB2 4LQ,53.7286,-2.4920
Feni Rec Cafe,BB2 5EG,53.7240,-2.5376
The Arches ,BB2 5HD,53.7280,-2.5315
Pleasington Golf Club,BB2 5JF,53.7297,-2.5432
The Butlers Arms,BB2 5JH,53.7326,-2.5431
Kaspas Blackburn,BB2 6AE,53.7514,-2.4886
THE QUEEN VIC FISH AND CHIPS BLACKBURN,BB2 6AE,53.7514,-2.4883
THE NILE ,BB2 6BS,53.7495,-2.5012
The Clog & Billycock,BB2 6QB,53.7499,-2.5299
TGC AT THE WOODLANDS RESTAURANT,BB2 7AA,53.7533,-2.5113
Traders Arms,BB2 7EW,53.7743,-2.5239
The Bay Horse Inn,BB2 7HX,53.7805,-2.5368
Hawkshaw Farm Visitor Centre,BB2 7JA,53.7843,-2.5246
The Millstone,BB2 7JR,53.7733,-2.5289
608 Costa Coffee Shop at BAE Systems,BB2 7LE,53.7760,-2.5804
609 Costa Coffee Bar at BAE Systems,BB2 7LE,53.7760,-2.5804
Stanley House Hotel & Spa,BB2 7NP,53.7645,-2.5390
feildens arms,BB2 7PR,53.7760,-2.5473
KFC,BB2 7PU,53.7698,-2.5552
The golden cup,BB3 0AJ,53.7143,-2.4829
Chopstix Blackburn,BB3 0AT,53.7136,-2.4816
Costa Coffee,BB3 0AT,53.7136,-2.4816
McDonald's,BB3 0AT,53.7136,-2.4816
McDonalds Restaurant Ltd,BB3 0DB,53.7131,-2.4763
Vaughns Country Cafe,BB3 0PA,53.6892,-2.5087
Black Olive Deli & Coffee Ltd,BB3 1AT,53.6995,-2.4716
Amalfi Lounge ,BB3 1AU,53.6974,-2.4691
Papas American diner ,BB3 1AU,53.6974,-2.4691
SUBWAY,BB3 1AU,53.6974,-2.4691
Sweet Vintage Darwen,BB3 1BG,53.6955,-2.4672
FLAMES GRILL AND BAR ,BB3 1BZ,53.6911,-2.4667
The Alexandra hotel ,BB3 1NL,53.7007,-2.4765
Eddie's Wood fired pizza,BB3 1PL,53.6954,-2.4687
Cjs cafe,BB3 1PS,53.6958,-2.4684
Akash Indian Brasserie,BB3 1PX,53.6979,-2.4706
anaz restaurant,BB3 1QA,53.6987,-2.4714
Artisan Cafe and Wine Bar ,BB3 2AA,53.6948,-2.4664
The Bridge cafe,BB3 2AA,53.6948,-2.4664
The Whitehall Hotel,BB3 2JU,53.6813,-2.4654
Zest cafe lounge,BB3 2PR,53.6860,-2.4619
DOLLYS TEAROOM AND RESTAURANT,BB3 2PS,53.6858,-2.4625
Astley Bank Hotel Ltd,BB3 2QB,53.6861,-2.4670
Craven Heifer Inn,BB3 3LD,53.6908,-2.4483
The Ranken Arms ,BB3 3LY,53.6956,-2.4318
The Crown & Thistle,BB3 3PP,53.6791,-2.4271
The White Bull  Oswaldtwistle,BB5 3QW,53.7374,-2.4058
Britannia,BB5 3RJ,53.7296,-2.4146
The Whitecroft Indian Bar & Restaurant,BB5 3RJ,53.7296,-2.4146
The Duckworth hall inn ,BB5 3RQ,53.7349,-2.4236
Yummies Breakfast Ltd,BB5 4LZ,53.7503,-2.4103
westend fish and chips,BB5 4LZ,53.7502,-2.4086
the stanhill pub & kitchen,BB5 4PS,53.7448,-2.4160
Clayton street chippy,BB6 7AQ,53.7854,-2.4045
Alis chicken village ,BB6 7DD,53.7857,-2.4077
Tipsy Cows Cheese & Wine Merchants Ltd,BB6 7NF,53.7867,-2.4075
Great British fish and chip bank ,BB6 7QQ,53.7860,-2.4059
The Green Olive deli and bistro ,BB6 7QQ,53.7860,-2.4063
Pendle catering ltd,BB6 8AF,53.8025,-2.4731
Black Bull Inn,BB6 8AW,53.8176,-2.4553
The Avenue Hotel Ltd,BB6 8AY,53.8230,-2.4526
Northcote Hotel,BB6 8BE,53.8114,-2.4503
Royal Taj,BB6 8DD,53.8046,-2.4475
Edisford Bridge Hotel,BB7 3LJ,53.8679,-2.4208
The Eagle ,BB7 9AQ,53.8342,-2.4039
Sheridan Hotels Ltd t/as Foxfields Country Hotel,BB7 9HY,53.8114,-2.4317
Blueberries Cafe,BB7 9JW,53.8273,-2.4196
Ebenezers ,BB7 9NN,53.8176,-2.4147
Mitton Hall,BB7 9PQ,53.8416,-2.4311
the bayley arms,BB7 9QB,53.8386,-2.4809
Shireburn Arms,BB7 9QJ,53.8371,-2.4762
Flavours Cookery School,BB7 9SE,53.8253,-2.4108
FORUM BAR & KITCHEN,BB7 9SP,53.8203,-2.4068
The Dog Inn,BB7 9SP,53.8203,-2.4068
KING STREET KITCHEN,BB7 9SW,53.8223,-2.4069
Tastebuds (Whalley) Limited,BB7 9TH,53.8221,-2.4076
The Strawbury Duck,BL7 0LU,53.6530,-2.4169
1260 Craft & Crust,PR1 0AD,53.7503,-2.7293
No 15 Cafe,PR1 0AR,53.7509,-2.7297
Costa Coffee - Penwortham,PR1 0DQ,53.7499,-2.7322
Costa Coffee,PR1 0DQ,53.7493,-2.7344
Lime Bar Lounge,PR1 0DQ,53.7499,-2.7322
SUBWAY,PR1 0DQ,53.7491,-2.7352
THE SIR TOM FINNEY,PR1 0NL,53.7417,-2.7426
Andreas Fish and Chips,PR1 0QB,53.7489,-2.7343
The Cow Shed,PR1 0QB,53.7489,-2.7339
Booths,PR1 0XW,53.7360,-2.7310
The Stanley Arms,PR1 1DA,53.7589,-2.6974
Home Bakery ,PR1 1FB,53.7609,-2.6978
Level,PR1 1HT,53.7596,-2.6975
house of gelato,PR1 1NA,53.7701,-2.7046
mastersons,PR1 1NA,53.7699,-2.7048
quattro,PR1 1TJ,53.7659,-2.6982
BURGER HUT,PR1 1TS,53.7638,-2.6947
SNA Preston Ltd,PR1 1YT,53.7612,-2.6963
FORUM BAR & KITCHEN,PR1 2AA,53.7574,-2.7019
Kimji Korean,PR1 2AA,53.7574,-2.7019
Pizza Express,PR1 2AA,53.7574,-2.7019
The Cafe Bar,PR1 2AA,53.7573,-2.7018
Turtle Bay,PR1 2AP,53.7586,-2.6990
Cafune - South American Cafe,PR1 2AR,53.7591,-2.6998
Nando's,PR1 2AR,53.7590,-2.6997
Istanbul shawarma ,PR1 2AT,53.7606,-2.7045
Shahzaad Tandoori Restaurant ,PR1 2AT,53.7606,-2.7045
Town House Coffee and Brew Bar,PR1 2AT,53.7606,-2.7045
Subway,PR1 2AU,53.7595,-2.7009
Patisserie Valerie,PR1 2AY,53.7582,-2.7023
tinos restaurant,PR1 2BB,53.7602,-2.7043
Cocos ,PR1 2ED,53.7618,-2.7059
Cool Panda,PR1 2ED,53.7618,-2.7059
A Taste of Thailand,PR1 2EE,53.7611,-2.7043
AASEM & NOOR LTD,PR1 2EE,53.7610,-2.7041
AZUMA RESTAURANT,PR1 2EE,53.7611,-2.7043
Food savour ltd,PR1 2EE,53.7611,-2.7043
Grillaz ,PR1 2EE,53.7611,-2.7043
Plau,PR1 2EE,53.7611,-2.7043
Caffe Nero,PR1 2EJ,53.7598,-2.7011
McDonald's Restaurants Ltd,PR1 2EJ,53.7598,-2.7011
McDonalds,PR1 2EJ,53.7598,-2.7011
Aunty Dollys cafe,PR1 2JA,53.7610,-2.7000
Brew and Bake,PR1 2JA,53.7610,-2.7000
CHERRY PIE COFFEE & CO,PR1 2JA,53.7610,-2.7000
Jonah's,PR1 2JA,53.7610,-2.7000
NURCAN & STEVE LTD,PR1 2JA,53.7610,-2.7000
Pickles of Preston ltd,PR1 2LA,53.7605,-2.6997
BISTROT PIERRE - PRESTON,PR1 2NJ,53.7577,-2.7047
Caffe Nero,PR1 2NJ,53.7577,-2.7047
KFC,PR1 2NJ,53.7577,-2.7047
Laviva Café ,PR1 2NJ,53.7577,-2.7047
Moka cafe bar and restaurant,PR1 2NJ,53.7577,-2.7047
Subway Fishergate,PR1 2NJ,53.7577,-2.7047
1842 Restaurant & Bar,PR1 2NL,53.7586,-2.7033
Burger King,PR1 2NQ,53.7589,-2.7018
Burger king- Preston St George,PR1 2NQ,53.7589,-2.7018
Raffles coffee house,PR1 2NQ,53.7589,-2.7017
The Harris Cafe,PR1 2PP,53.7593,-2.6984
BALUGA BAR & CLUB,PR1 2QY,53.7588,-2.6980
Heavenly Desserts,PR1 2QY,53.7588,-2.6980
ICEBURG,PR1 2QY,53.7587,-2.6983
Olive Tree Brasserie ,PR1 2QY,53.7588,-2.6980
Rise.,PR1 2QY,53.7587,-2.6984
Subway,PR1 2QY,53.7588,-2.6980
smashed preston limited,PR1 2QY,53.7587,-2.6983
Baba’s biryani ,PR1 2RQ,53.7622,-2.7040
CUBE DESSERTS (PRESTON) LTD,PR1 2RQ,53.7622,-2.7040
Lapar Malaysian Cuisine Ltd,PR1 2RQ,53.7622,-2.7040
Smoke and grill ,PR1 2RQ,53.7622,-2.7040
street food preston ltd,PR1 2RQ,53.7622,-2.7040
the new york pizza co preston,PR1 2RQ,53.7622,-2.7040
Taste Tea,PR1 2UP,53.7579,-2.7060
A&R Fast Food Ltd/TA German Doner kebab,PR1 2UT,53.7588,-2.7046
KASPAS NORTH WEST LTD,PR1 2UT,53.7589,-2.7037
Subway,PR1 2XQ,53.7639,-2.7099
Legacy Preston International Hotel,PR1 2YF,53.7599,-2.7074
Angelos,PR1 3BN,53.7576,-2.6977
Stratos,PR1 3BN,53.7576,-2.6977
Authentic Cuisine (Preston) Ltd,PR1 3BQ,53.7592,-2.6958
Mamma Mia Preston,PR1 3BT,53.7590,-2.6947
Pepe's Piri Piri,PR1 3BT,53.7590,-2.6947
MAHARAJA RESTAURANT,PR1 3DH,53.7597,-2.6941
Delilicious cafe,PR1 3NR,53.7571,-2.6993
Ravenous,PR1 3NR,53.7571,-2.6993
Thai Orchid,PR1 3NS,53.7571,-2.6995
Clares kitchen & Vintage Tea Room ,PR1 3NT,53.7575,-2.6997
Wings and Beer Co,PR1 3NT,53.7575,-2.6997
Paluca's Limited ,PR1 3NU,53.7579,-2.7005
We Dont Give a Fork,PR1 3NU,53.7573,-2.7001
NAAFIAH PRESTON LTD,PR1 3YH,53.7584,-2.6934
Taste of Turkey  restaurant,PR1 3YH,53.7584,-2.6934
Lola,PR1 4BA,53.7574,-2.6831
Manjaros,PR1 4BA,53.7574,-2.6831
Club 3000 Bingo Preston,PR1 4DT,53.7610,-2.6834
Traian Ltd/ Steakhouse Saloon,PR1 4DT,53.7610,-2.6834
chicos preston limited,PR1 4HL,53.7573,-2.6910
Costa Coffee - Drive Thru,PR1 4HZ,53.7601,-2.6890
Flipout Preston,PR1 4LQ,53.7607,-2.6827
The Destination ,PR1 4LQ,53.7588,-2.6839
new hall lane cafe,PR1 4ST,53.7637,-2.6741
The Hesketh’s arms ,PR1 4SY,53.7658,-2.6647
top cafe,PR1 5EB,53.7664,-2.6794
THE VENUE PRESTON LTD,PR1 5LG,53.7634,-2.6886
Miller rd cafe,PR1 5QS,53.7680,-2.6705
Firdous Limited,PR1 5UT,53.7667,-2.6761
Rosemary on the Park,PR1 6AU,53.7750,-2.6959
Fiza Foods Ltd,PR1 6PZ,53.7652,-2.6924
Marco & Carl ,PR1 6PZ,53.7653,-2.6926
Grill Shack ,PR1 6QA,53.7677,-2.6912
Chaiiwala,PR1 6QB,53.7691,-2.6908
Costa Coffee,PR1 6QY,53.7734,-2.6784
Goffys,PR1 6QY,53.7734,-2.6784
KFC - DEEPDALE,PR1 6QY,53.7739,-2.6768
KFC,PR1 6QY,53.7739,-2.6768
McDonald's Restaurants Ltd,PR1 6QY,53.7739,-2.6768
McDonalds Restaurants,PR1 6QY,53.7739,-2.6768
Nandos,PR1 6QY,53.7739,-2.6768
Pizza Hut Restaurant,PR1 6QY,53.7739,-2.6768
Subway Deepdale,PR1 6QY,53.7739,-2.6768
Ultimate Cafe Preston,PR1 6QY,53.7738,-2.6766
Starbucks Coffee Co,PR1 6UY,53.7733,-2.6828
Naafiah,PR1 6XH,53.7699,-2.6862
RK Dining,PR1 7EN,53.7696,-2.7113
Khan'z,PR1 7JN,53.7673,-2.7155
Pizza Hut (Delivery),PR1 7RB,53.7688,-2.7102
Starbucks,PR1 8AP,53.7560,-2.7072
THEATRE STREET BAR & GRILL,PR1 8BQ,53.7570,-2.7044
Costa Coffee,PR1 8HJ,53.7570,-2.7058
MOKA ON THE BALCONY,PR1 8HJ,53.7570,-2.7058
McDonald's Restaurants Ltd,PR1 8HJ,53.7570,-2.7058
McDonalds Restaurants Ltd,PR1 8HJ,53.7570,-2.7058
Starbucks Coffee Co,PR1 8HJ,53.7570,-2.7058
Starbucks Fishergate,PR1 8HL,53.7568,-2.7058
Origin Juice and Brew Bar,PR1 8JB,53.7555,-2.7118
The Continental,PR1 8JP,53.7506,-2.7089
Pavilion Cafe,PR1 8JT,53.7531,-2.7030
Papershopplus At Better Butts,PR1 8NL,53.7593,-2.7132
THE SILK ROUTE RESTAURANT,PR1 8UY,53.7607,-2.7195
The Pear Tree Inn Penwortham,PR1 9QB,53.7399,-2.7069
Ristorante Salvatore's,PR1 9XD,53.7494,-2.7323
Tap and Vine,PR1 9XD,53.7492,-2.7327
Ignite Cafe,PR2 1AU,53.7630,-2.7280
Lyn's Lunch Box,PR2 1UL,53.7693,-2.7550
Lillybetts,PR2 1XL,53.7673,-2.7632
Delicachix ,PR2 2LP,53.7712,-2.7282
Pitstop Cafe,PR2 2NE,53.7655,-2.7165
Tang Restaurant,PR2 2NH,53.7648,-2.7189
Taboosh ,PR2 2NJ,53.7652,-2.7189
MAHARANI SOUTH INDIAN RESTAURANT LTD,PR2 2NN,53.7638,-2.7236
gusto italia ashton,PR2 2NN,53.7638,-2.7236
Take 5 coffee shop ,PR2 2PD,53.7604,-2.7518
McDonald's Restaurants Ltd,PR2 2TX,53.7622,-2.7418
McDonalds Restaurant,PR2 2TX,53.7622,-2.7418
The Beach Hut Cafe Bar,PR2 2YP,53.7608,-2.7432
KFC,PR2 2YQ,53.7603,-2.7271
Plungington Hotel,PR2 3AR,53.7767,-2.7178
Preston Golf Club,PR2 4DD,53.7830,-2.6859
Giddy Kids,PR2 5BE,53.7874,-2.6325
Clip n Climb Preston Limited,PR2 5BW,53.7864,-2.6478
The Plough,PR2 5JR,53.8053,-2.6233
Starbucks Preston East,PR2 5PZ,53.7900,-2.6586
Marinos Restaurant Ltd,PR2 8AH,53.7786,-2.6900
Costa Coffee - Drive Thru,PR2 9BQ,53.7852,-2.6823
Subway,PR2 9BQ,53.7852,-2.6823
Booths,PR2 9HD,53.7923,-2.7056
Subway,PR2 9HD,53.7924,-2.7056
Mellors Catering Services Ltd,PR2 9HT,53.7914,-2.7074
McDonald's Restaurants Ltd,PR2 9NP,53.7911,-2.6850
McDonalds Restaurants,PR2 9NP,53.7911,-2.6850
Costa Coffee - Fulwood Village,PR2 9RX,53.7919,-2.7132
Costa Coffee,PR2 9RX,53.7919,-2.7132
Sai Surbhi,PR2 9UP,53.7925,-2.7142
The ginger bistro ,PR2 9UP,53.7925,-2.7142
Maeve and Willow,PR25 1XB,53.6986,-2.7130
THE CAFE LTD,PR25 2AA,53.6954,-2.6947
New Wonderland Ltd,PR25 2EX,53.6905,-2.6998
The Hideout ,PR25 2LD,53.6944,-2.6952
Emmas Coffee House at the Museum Ltd,PR25 2LE,53.6946,-2.6928
Antonellos,PR25 2SA,53.6958,-2.6926
The Gables,PR25 2SD,53.6945,-2.6958
Withy Arms,PR25 3EL,53.6881,-2.6983
McDonald's Restaurants Ltd,PR25 3LZ,53.6977,-2.6907
McDonalds,PR25 3LZ,53.6977,-2.6907
Sweet Delight,PR25 3NH,53.6972,-2.6897
The Cookie Jar,PR25 3NP,53.6980,-2.6902
The Chequered Flag Cafe Ltd,PR25 3XJ,53.6980,-2.6997
Lakeside Coffee House,PR25 5DA,53.6833,-2.6774
Bangla Spice,PR25 5SB,53.7030,-2.6725
Avant Garden Centre Cafe ,PR25 5XW,53.6897,-2.6767
The Midge Hall,PR26 6TN,53.7020,-2.7444
Leyland Garden Centre,PR26 8LQ,53.6636,-2.7485
Lot 1 The Coffee Shop Ltd,PR26 8PH,53.7016,-2.7127
THE BLUE ANCHOR PUBLIC HOUSE LIMITED,PR26 9AB,53.6788,-2.7856
The Grapes ,PR26 9RA,53.6614,-2.7745
The Wheatsheaf,PR26 9RA,53.6614,-2.7745
Panshi Bangla Cuisine,PR26 9RB,53.6608,-2.7747
Thyme on the yarrow,PR26 9RB,53.6608,-2.7747
The Crown Hotel,PR26 9RN,53.6645,-2.7759
Barton Grange Garden Centre,PR3 0BT,53.8595,-2.7468
The Flowerbowl,PR3 0BT,53.8598,-2.7461
The White Bull Bilsborrow,PR3 0RE,53.8531,-2.7452
Guy's Lodge,PR3 0RS,53.8505,-2.7614
Guys Eating Establishments Ltd,PR3 0RS,53.8505,-2.7614
Owd Nells Tavern,PR3 0RS,53.8505,-2.7614
THE STAGS HEAD,PR3 2AU,53.8225,-2.6677
The Green Man,PR3 2LP,53.8516,-2.6897
The Alston Arms,PR3 2NA,53.8354,-2.6086
ferraris country house ltd,PR3 2TB,53.8510,-2.6016
The Corporation Arms,PR3 2YJ,53.8308,-2.5814
Francos,PR3 3BD,53.8194,-2.6070
The Potting Shed ,PR3 3BE,53.8184,-2.6056
The Bridge Cafe,PR3 3FE,53.8299,-2.6077
CROMWELLS,PR3 3JA,53.8308,-2.6012
Tayah’s Cafe,PR3 3JJ,53.8314,-2.6025
Old Station cafe,PR3 3JP,53.8323,-2.6045
the towneley arms,PR3 3JP,53.8323,-2.6045
65s Cafe,PR3 3NH,53.8325,-2.6055
Fullaloves Wines,PR3 3NJ,53.8324,-2.6059
The Forrest Arms,PR3 3NP,53.8328,-2.6071
The Dog Inn,PR3 3RR,53.8294,-2.5998
Top Chippy,PR3 3RR,53.8294,-2.5999
Ribinns Ltd ta The White Bull Hotel,PR3 3XP,53.8117,-2.5323
Black Bull,PR3 3YE,53.8129,-2.5342
Potters Barn ,PR3 3YE,53.8129,-2.5342
Always Cake,PR3 3YN,53.8189,-2.5335
Angels Restaurant,PR3 3ZA,53.8283,-2.5608
Ribchester Arms,PR3 3ZP,53.8138,-2.5307
The Pickled Goose,PR3 5AA,53.8330,-2.7379
Walled Garden Restaurant,PR3 5AA,53.8331,-2.7379
Barton bangla brasserie limited,PR3 5AB,53.8389,-2.7400
Planks Kitchen,PR3 5AB,53.8429,-2.7443
Billy Bob's Parlour,PR3 5AD,53.8470,-2.7437
Italian Orchard,PR3 5DB,53.8133,-2.7123
Bella Maria 2020 LTD,PR3 5DL,53.8106,-2.7245
Preston Marriott Hotel,PR3 5JB,53.8077,-2.7220
Preston Grasshoppers RFC Ltd,PR4 0AP,53.7972,-2.7333
Bartle Hall Hotel,PR4 0HA,53.7915,-2.7819
The Saddle Inn,PR4 0RS,53.7871,-2.7803
Sitting Goose,PR4 0RT,53.7886,-2.7814
Ashton & Lea Golf Club Ltd,PR4 0XA,53.7707,-2.7689
Stickyweeds Coffee Shop,PR4 4AB,53.7266,-2.7501
Trattoria San Marco,PR4 4RJ,53.6962,-2.8107
Booths,PR4 5AU,53.7254,-2.7921
The Golden Ball,PR4 5AU,53.7254,-2.7921
THE LOUNGE BAR AND RESTAURANT,PR4 5BF,53.7071,-2.7965
The Hideaway  kitchen & bar,PR4 5BF,53.7071,-2.7965
Happy Bunnies,PR4 5EB,53.7265,-2.7783
The Ram’s Head,PR4 5HA,53.7270,-2.7805
EGO at the Fox Cub,PR4 5JT,53.7071,-2.7957
Tootsies Ice Cream and Coffee Shop,PR4 5JT,53.7071,-2.7957
Romano's,PR4 5NB,53.7271,-2.7830
Mad Hatters Tea Shop ,PR4 5PD,53.7273,-2.7825
The Anchor,PR4 5SL,53.7330,-2.7657
Cafe Delphine,PR5 0DP,53.7340,-2.6195
Boars Head,PR5 0RX,53.7347,-2.5875
The Royal Oak at Riley Green,PR5 0SL,53.7245,-2.5747
Subway Tickled Trout Services,PR5 0UJ,53.7642,-2.6372
Farmhouse Kitchen at Huntleys,PR5 0UN,53.7721,-2.5920
Bukhara Samlesbury,PR5 0UP,53.7686,-2.5807
SAMLESBURY HALL LIMITED ,PR5 0UP,53.7693,-2.5725
Samlesbury Hall Limited,PR5 0UP,53.7693,-2.5725
Nabs Head Hotel,PR5 0UQ,53.7616,-2.5758
New Hall Tavern ,PR5 0XA,53.7572,-2.6219
The Yew Tree,PR5 4AU,53.7497,-2.6748
Dunelm Mill Shop,PR5 4AW,53.7488,-2.6791
McDonald's Restaurants Ltd,PR5 4AW,53.7488,-2.6791
McDonalds Restaurants Ltd,PR5 4AW,53.7488,-2.6791
Prezzo,PR5 4AW,53.7490,-2.6774
SUBWAY,PR5 4AW,53.7488,-2.6791
Starbucks Capitol Retail Park,PR5 4AW,53.7488,-2.6791
Starbucks,PR5 4AW,53.7488,-2.6791
Holland house cafe,PR5 4HD,53.7463,-2.6667
RAEES,PR5 4HT,53.7441,-2.6467
Pinocchios ,PR5 4JA,53.7469,-2.6724
Youngs,PR5 5JD,53.7263,-2.6949
SANGAM BALTI HOUSE,PR5 5RU,53.7260,-2.6928
KFC - LOSTOCK HALL,PR5 5RY,53.7269,-2.6936
KFC,PR5 5RY,53.7269,-2.6936
The Hunters,PR5 5UL,53.7402,-2.6829
The Mill Cafe,PR5 5XU,53.7237,-2.6777
Burger King,PR5 6BA,53.7216,-2.6710
Cuerden View Cafe,PR5 6BY,53.7086,-2.6628
SUBWAY,PR5 6EJ,53.7222,-2.6622
YE OLDE HOB INN,PR5 6EP,53.7210,-2.6613
WA Bar and Bistro,PR5 6EQ,53.7223,-2.6620
Dilnaz Indian restaurant ltd,PR5 6FN,53.7229,-2.6611
Walton Arms ,PR5 6GD,53.7355,-2.6622
Valley Coffee,PR5 6GS,53.7339,-2.6598
Tiny Tea Cups Play Cafe Ltd,PR5 6LF,53.7296,-2.6595
The Beam and Brycg,PR5 6QL,53.7356,-2.6632
Withy Arms,PR5 6QP,53.7315,-2.6625
The Greedy Goose Cafe ,PR5 6TP,53.7286,-2.6610
THE HOSPITAL INN,PR5 6YP,53.7259,-2.6385
Baxterstorey Caterers,PR5 8BX,53.7187,-2.6508
Sagar Premier,PR5 8HZ,53.7173,-2.6380
masons arms,PR6 0HU,53.6613,-2.6210
the ley inn ,PR6 7EU,53.7001,-2.6526
The sea view inn,PR6 7HH,53.6762,-2.6349
The Red Cat,PR6 7HS,53.6896,-2.6377
Mediterranean 3 at the bay horse,PR6 7HW,53.6884,-2.6388
The HalfwayHouse,PR6 7JB,53.7027,-2.6393
Whittle Vintage Tearoom,PR6 7LD,53.6887,-2.6364
Lord Nelson,PR6 7RD,53.7041,-2.6365
THE BEAUMONT,PR6 7TY,53.7067,-2.6450
The Little Tiger ,PR6 8DA,53.7005,-2.5469
Hare & Hounds,PR6 8DP,53.6982,-2.5440
The Red Lion,PR6 8EU,53.6853,-2.6068
The Village Tearoom at Wheelton Limited,PR6 8EY,53.6861,-2.6067
Little Hong Kong ,PR6 8HD,53.6859,-2.5993
The Dressers Arms,PR6 8HD,53.6859,-2.5993
Whins green kitchen,PR6 8HN,53.6916,-2.6035
golden lion hotel,PR6 8HP,53.6956,-2.5949
The Top Lock,PR6 8LT,53.6885,-2.6150
CAVENDISH ARMS,PR6 8NG,53.7129,-2.6101
The Cottage Tea Room,PR6 8QS,53.6878,-2.5668
Boatel Party Cruises,PR6 9AE,53.6651,-2.6165
Caffe Latte,PR7 1AB,53.6547,-2.6299
McDonald's Restaurants Ltd,PR7 1AQ,53.6529,-2.6282
McDonalds Restaurants Ltd,PR7 1AQ,53.6529,-2.6282
Woodchats Coffee Shop,PR7 1AQ,53.6529,-2.6282
SUBWAY,PR7 1BG,53.6531,-2.6321
Tapas Esteban,PR7 1BH,53.6530,-2.6316
GOODIES COFFEE SHOP,PR7 1BJ,53.6535,-2.6319
Chorley Town Cafe Limited,PR7 1BW,53.6525,-2.6321
Chorley Town Café ,PR7 1BW,53.6525,-2.6321
Costa Coffee,PR7 1DE,53.6533,-2.6296
La Rocca Ristorante Limited,PR7 1EX,53.6595,-2.6290
Lean & Green,PR7 1EX,53.6595,-2.6290
Escape Entertainment Venue,PR7 1FD,53.6542,-2.6289
Smokies BBQ RESTAURANT ,PR7 1HP,53.6536,-2.6337
Cafe Ambio at Astley Park,PR7 1NP,53.6596,-2.6453
The Astley,PR7 1XA,53.6611,-2.6462
The Cosmopolitan Restaurant  Wine & Cocktail Bar,PR7 2AA,53.6520,-2.6308
ITALIAN COTTAGE ,PR7 2EX,53.6503,-2.6322
Encore,PR7 2RP,53.6531,-2.6336
BLUEHOUSE CHORLEY LTD,PR7 2SG,53.6506,-2.6313
the old stables vintage tea shop,PR7 2SJ,53.6521,-2.6330
Ottoman grill bar ,PR7 2SL,53.6511,-2.6321
Bay leaf ,PR7 2SQ,53.6511,-2.6314
Pizza Hut Delivery,PR7 2SQ,53.6511,-2.6314
The Elephant,PR7 6EN,53.6624,-2.7198
The Plough ,PR7 6HB,53.6702,-2.7029
Euxton Mills,PR7 6JD,53.6583,-2.6744
Papa Luigis Euxton,PR7 6JH,53.6681,-2.6754
TWENTY SEVEN CHORLEY,PR7 6TE,53.6727,-2.6665
Tiggis Xpress,PR7 7JA,53.6758,-2.6588
Costa Coffee - Buckshaw Village,PR7 7LJ,53.6760,-2.6546
Costa Coffee,PR7 7LJ,53.6760,-2.6546
Starbucks,PR7 7ND,53.6865,-2.6681
KFC - BUCKSHAW,PR7 7NH,53.6768,-2.6575
KFC,PR7 7NH,53.6768,-2.6575
Mcdonalds,WN8 6LN,53.8612,-2.5693
Siesta Coffee,WN8 6LN,53.8612,-2.5693
Subway,WN8 6LN,53.8612,-2.5693
