name,id,postcode,lat,lon
terrapin and Greenbul,1630319,BB5 5HS,53.773379950000000,-2.386796775000000
carpet snake and Guillemot,624955,OL14 6PD,53.703437170608400,-2.106223848041050
leathery turtle and diamondback terrapin,1635960,BB12 6TA,53.795790140000000,-2.275042760000000
White ibis and slowworm,626674,OL12 8AE,53.659139206000400,-2.177988477113680
sand lizard and monitor,1635876,BB12 6LW,53.791499840000000,-2.287810977000000
elapid and snake,1637796,BB10 2EH,53.813097250000000,-2.215379031000000
Masked owl and Shearwater,1627452,BB8 9BJ,53.857073970000000,-2.171561439000000
Mamo and Philippine hawk-owl,625426,OL13 9UU,53.715304834035300,-2.178816764875070
Kite and cobra,1631279,BB4 9UE,53.697091460000000,-2.242108134000000
boa and jew lizard,1637509,BB10 2QX,53.817764640000000,-2.228511062000000
bull snake and king snake,626462,OL12 8XA,53.688256606228200,-2.168496069187190
Parrotlet and worm lizard,1627802,BB8 8LN,53.845831220000000,-2.194390052000000
Condor and agama,1627338,BB9 0EU,53.821347870000000,-2.205806000000000
Tit-tyrant and galliwasp,625102,OL14 7DW,53.726003031969800,-2.119178476589180
frilled lizard and gopher snake,1631643,BB4 8DA,53.730357170000000,-2.286559174000000
kabaragoya and Rat,1631572,BB4 7TY,53.696621720000000,-2.256190585000000
black snake and python,1636593,BB11 5DD,53.782738890000000,-2.279221871000000
turtle and moloch,1636411,BB11 9SP,53.787596100000000,-2.244648146000000
Booted eagles and loggerhead,1631391,BB4 8RS,53.703093300000000,-2.295629000000000
Egret and Armadillo,1031650,HX7 5TL,53.698039000000000,-1.996372937650350
hawksbill and Egret,1031682,HX7 6AW,53.741853448981500,-2.016079449706950
Boto and brown snake,1629021,BB7 2FB,53.872247730000000,-2.397792461000000
frilled lizard and Francolin,625994,OL13 0EU,53.692331544525000,-2.216684682273920
indigo snake and Perching duck,624565,OL14 8NH,53.733079031857500,-2.141708745963360
death adder and Hawaiian honeycreeper,1593648,BL0 0LB,53.667850630000000,-2.305931141000000
Skunk and Minke whale,1630485,BB5 4DH,53.765020740000000,-2.378452252000000
racer and Polecat,1563406,BL7 0JT,53.660782020000000,-2.385098602000000
Solitaire and monitor,626724,OL12 8EP,53.679625405651300,-2.163889527754500
chuckwalla and harlequin snake,1637657,BB10 1RT,53.804843890000000,-2.235759548000000
Linsang and horned viper,1031686,HX7 6BB,53.742257550727200,-2.018535799194400
Black cockatoo and Vole,1632482,BB4 4EH,53.691645070000000,-2.318657773000000
Parrotbill and Old World vulture,623939,OL15 9PB,53.660749019291400,-2.088456684910750
Meadowlark and Boto,1637535,BB10 2RR,53.816340770000000,-2.220939462000000
frill-necked lizard and Crow,1632393,BB4 5PG,53.703761250000000,-2.321960731000000
blue racer and soft-shelled turtle,1632030,BB4 6DP,53.693194680000000,-2.292591321000000
Buzzard and Dolphin,1626480,BB9 9EQ,53.833592990000000,-2.213569767000000
Rabbit and Kite,625437,OL14 5AA,53.713142372501900,-2.097975789528770
rat snake and iguana,625911,OL13 8NN,53.711684094256300,-2.225798912404580
Elephant and cerastes,1637626,BB10 1PJ,53.804590000000000,-2.241391461000000
Tattler and black snake,625792,OL13 8BP,53.707365234042700,-2.203279246986920
Pratincole and Myna,1635624,BB12 9DY,53.831768690000000,-2.263153788000000
soft-shelled turtle and Bunting,1637164,BB10 4TQ,53.765854110000000,-2.195764527000000
diamondback and perentie,1031133,HX7 8DT,53.741575457366200,-2.010424125563300
Fish eagle and sidewinder,624644,OL14 8RG,53.723425000000000,-2.074161000000000
Ibex and Buzzard,626115,OL13 0SH,53.692261929402700,-2.225179967157020
habu and Egret,1630245,BB5 5AU,53.762299250000000,-2.366277397000000
dukite and mountain devil,1631090,BB5 1BW,53.756796870000000,-2.363878602000000
habu and milk snake,1631453,BB4 8TX,53.703685680000000,-2.309720663000000
sand lizard and smooth snake,1635840,BB12 6HP,53.789137940000000,-2.283226025000000
Stint and Rat,1031348,HX7 8RT,53.749864000000000,-1.998037000000000
Tree warbler and Bronzewing pigeon,626092,OL13 0RB,53.693380220618100,-2.223171769620550
Logrunners and Egret,1630280,BB5 5DW,53.766806360000000,-2.370791985000000
bearded lizard and Jay,625181,OL14 5QW,53.712825000000000,-2.091248757509980
frilled lizard and New World blackbird,1631472,BB4 9AA,53.692780170000000,-2.253668487000000
brown snake and caiman,1631675,BB4 8EY,53.706386920000000,-2.286123463000000
Zebra and Condor,1629568,BB5 9SE,53.750058850000000,-2.368763987000000
Minke whale and Duck,1626478,BB9 9EG,53.833834110000000,-2.214437097000000
Kite and Buzzard,1628201,BB8 0HG,53.855299720000000,-2.167783944000000
Greenbul and Eagle,1636467,BB11 4HP,53.782731980000000,-2.254059488000000
Fulmarine petrel and dukite,625976,OL13 0DP,53.692863988428400,-2.210448107236950
Crow and Pitohui,1637458,BB10 2NB,53.821011000000000,-2.228134000000000
Vole and Maya,1636279,BB11 5NL,53.772678010000000,-2.256578069000000
Hawk and green turtle,1627541,BB8 9EA,53.862560650000000,-2.168694938000000
Stilt and worm lizard,1636848,BB11 1PB,53.789843000000000,-2.245253000000000
Ice seal and snapping turtle,1636508,BB11 4LU,53.786076530000000,-2.253578855000000
Wallaby and diamond python,625553,OL13 8QW,53.724459935006900,-2.198315071336790
Pratincole and terrapin,1594021,BL0 0ED,53.654921860000000,-2.303870500000000
Chickadee and Logrunners,1631342,BB4 8PE,53.717544580000000,-2.284699117000000
slowworm and Solitaire,623938,OL15 9PA,53.655243982095200,-2.104846536056130
anole and rock python,1031768,HX7 6JB,53.738150841500000,-2.012197000824200
sand lizard and Schneider python,1637917,BB10 2HZ,53.811397160000000,-2.200639253000000
hoop snake and ringhals,1631944,BB4 5TE,53.703183200000000,-2.323001507000000
Kite and diamond snake,625916,OL13 8NZ,53.725963509630700,-2.196761103056310
gecko and smooth snake,1631483,BB4 9AQ,53.693679710000000,-2.253325582000000
Komodo dragon and garter snake,1631947,BB4 5TH,53.703175850000000,-2.322395542000000
tokay and flying dragon,623957,OL15 9QB,53.659788453472100,-2.086865799644440
king snake and Capuchin,1637779,BB10 2DN,53.808767950000000,-2.213762314000000
goanna and flying lizard,1636185,BB12 6AD,53.795203390000000,-2.280018228000000
bearded lizard and Boto,1630424,BB5 5JJ,53.770114000000000,-2.385219000000000
mountain devil and Nukupuʻu,1632131,BB4 4NX,53.691407720000000,-2.336419284000000
Thicketbird and Thrasher,1563429,BL7 0LA,53.657612480000000,-2.397825462000000
hognose snake and constrictor,1626272,BB9 8QJ,53.849562000000000,-2.220507117000000
Jackal and Jay,1031645,HX7 5TE,53.705767469219000,-1.999250559607040
blindworm and green turtle,1637276,BB10 3LP,53.790399460000000,-2.196303954000000
Warbler and mud turtle,1637226,BB10 3EY,53.805397290000000,-2.223706170000000
diamond python and skink,1632237,BB4 5DF,53.704662810000000,-2.327572466000000
massasauga and mud turtle,1637396,BB10 4BX,53.788469370000000,-2.230324841000000
Fox and tortoise,1627764,BB8 8HG,53.849378980000000,-2.165982000000000
Kite and cobra,1626469,BB9 7TR,53.840366780000000,-2.220245425000000
hognose snake and amethystine python,626352,OL12 8NQ,53.673716551442500,-2.172857984610610
giant tortoise and Puffleg,1636558,BB11 4RL,53.781013000000000,-2.255126568000000
diamondback terrapin and flying dragon,1632041,BB4 6EF,53.691529200000000,-2.297319682000000
puff adder and indigo snake,625116,OL14 7EW,53.731378641366100,-2.150418742539880
Petrel and agama,1626032,BB9 9LW,53.834858420000000,-2.187850847000000
Tit-tyrant and anole,625476,OL14 5DU,53.717369403185800,-2.094712647280570
leguaan and blue tongue,1635542,BB12 8SS,53.796428530000000,-2.301113184000000
grass snake and Crow,1637031,BB10 4HS,53.785106980000000,-2.205962000000000
Rat and Old World quail,1635244,BB12 9JJ,53.846483720000000,-2.266407624000000
Towhee and rattlesnake,1628315,BB8 0QZ,53.861794730000000,-2.156892862000000
Solitaire and flying dragon,1031685,HX7 6AZ,53.742095398397500,-2.020749324089470
Guillemot and agamid,1635614,BB12 9BZ,53.823627170000000,-2.297100399000000
blind snake and Songlark,1627592,BB8 9LL,53.864128640000000,-2.165751343000000
ringhals and swift,1031711,HX7 6DS,53.742993484140900,-2.024509935308810
rock snake and asp,1637978,BB10 1EQ,53.808174720000000,-2.233060053000000
gopher snake and Maya,1632608,BB4 4LR,53.685564000000000,-2.330950984000000
Hawk and Maya,1637249,BB10 3JD,53.792351110000000,-2.221359702000000
Armadillo and coral snake,625607,OL13 9DE,53.705342877147400,-2.197937237290300
Ground sloth and blindworm,1031317,HX7 8QT,53.762203322596000,-2.005317454062220
hognose snake and Stilt,1626051,BB9 9PA,53.836814260000000,-2.195670275000000
indigo snake and Skunk,1630897,BB5 2HZ,53.745130280000000,-2.363899028000000
Francolin and sand viper,1626148,BB9 9TT,53.838086940000000,-2.208471504000000
Towhee and brown snake,624965,OL14 6PR,53.703941560896200,-2.105028436068970
dugite and garter snake,1637559,BB10 2TP,53.799565000000000,-2.219028199000000
Moluccan boobook and Hawk,1630530,BB5 2PE,53.742865310000000,-2.354903547000000
Chickadee and anaconda,1630873,BB5 2ET,53.734858810000000,-2.345028110000000
Coati and Lemming,626053,OL13 0NG,53.692303103348100,-2.231858587657420
Komodo dragon and bearded lizard,1593778,BL0 0SA,53.658291210000000,-2.314774374000000
Condor and snapping turtle,625726,OL13 0TG,53.695478792992500,-2.239524235824040
Black jay and Mink,1637968,BB10 1DZ,53.804810680000000,-2.234362407000000
anaconda and Jerboa,1626576,BB9 8AP,53.841288000000000,-2.197757373000000
constrictor and racer,1563405,BL7 0JR,53.659484190000000,-2.386191405000000
Myna and Pheasant,624298,OL15 9EJ,53.651652450603100,-2.089466000000000
python and Hawaiian honeycreeper,1636189,BB12 6AH,53.792037990000000,-2.280710571000000
gavial and bandy-bandy,1031756,HX7 6HJ,53.740505075709500,-2.017261488708240
Schneider python and crocodile,625540,OL13 8QE,53.723875965167600,-2.198160769165890
rock python and elapid,1628321,BB8 0RG,53.864064040000000,-2.160840000000000
Elephant and Magpie,625350,OL13 9QT,53.696963728408100,-2.199276107589920
Scimitar babbler and Jerboa,1635477,BB12 8PL,53.803574660000000,-2.311398349000000
Fox and cycling lizard,1630313,BB5 5HE,53.772487380000000,-2.382054689000000
Grackle and Tahr,1635293,BB12 9PJ,53.835326130000000,-2.259848335000000
Duck and Marsh harrier,1630942,BB5 0JD,53.747436150000000,-2.379689156000000
deaf adder and Gull,1635631,BB12 7HX,53.807000240000000,-2.346972094000000
Pitohui and alligator,1636970,BB11 2LA,53.782981340000000,-2.250889127000000
New World blackbird and cerastes,624907,OL14 8DU,53.723655006890900,-2.102061828500850
Grouse and Perching duck,1638021,BB10 1LR,53.801039920000000,-2.236800991000000
Badger and gecko,1630437,BB5 3TH,53.739264090000000,-2.380282516000000
king snake and snake,625996,OL13 0EX,53.691557336042800,-2.217362159374190
swift and Bunting,1636280,BB11 5NP,53.770749410000000,-2.258978644000000
agama and wall lizard,1636133,BB12 0LY,53.793471380000000,-2.258845487000000
Magpie and hoop snake,1637650,BB10 1RH,53.802988000000000,-2.234033000000000
diamondback terrapin and elapid,1626827,BB9 5LU,53.821497050000000,-2.231934022000000
blue racer and rock python,1627703,BB8 9SH,53.861975290000000,-2.181768839000000
River dolphin and Vole,1635901,BB12 6PB,53.797436250000000,-2.293438499000000
python and giant tortoise,1031540,HX7 5RU,53.719473971576300,-1.989810000000000
Jerboa and diamondback turtle,626100,OL13 0RP,53.692623441512400,-2.224121826958380
Shearwater and lizard,1637151,BB10 4SY,53.751597000000000,-2.186356000000000
massasauga and box turtle,1627415,BB9 0PE,53.835364000000000,-2.198505000000000
Pitohui and python,1627378,BB9 0JZ,53.833099110000000,-2.202961489000000
Crow and diamondback terrapin,1031427,HX7 7AJ,53.757726294633300,-2.016176614307970
Tree warbler and Triller,1635956,BB12 6SU,53.793932300000000,-2.269914811000000
Parakeet and Capuchin,1630983,BB5 0NR,53.740666600000000,-2.377323589000000
bandy-bandy and gavial,2299882,OL13 9BE,53.704171000000000,-2.195372000000000
Viscacha and deaf adder,625904,OL13 8ND,53.702796000000000,-2.225630000000000
tuatara and Old World warbler,1628998,BB7 2DT,53.872254370000000,-2.395784967000000
anole and Guillemot,1636455,BB11 4ES,53.777852400000000,-2.261648000000000
Grackle and green turtle,1631985,BB4 6BN,53.694144980000000,-2.289902204000000
Old World quail and Boto,1636627,BB11 2RF,53.776192830000000,-2.238952220000000
leathery turtle and Nukupuʻu,1635525,BB12 7EN,53.794671110000000,-2.306535256000000
Scimitar babbler and Old World warbler,1637583,BB10 3AY,53.801673970000000,-2.234314531000000
Herring gull and Ground sloth,1626696,BB9 8JE,53.844630690000000,-2.197530609000000
Diving bird and Crow,1627960,BB8 7DX,53.866228960000000,-2.147283772000000
Fulmarine petrel and skink,1631798,BB4 8JY,53.711793930000000,-2.283963319000000
Thrasher and rat snake,1752678,BB5 0TN,53.752198495898800,-2.381628090623590
lizard and Hawk,1635927,BB12 0AS,53.796334730000000,-2.247902291000000
Pitohui and gopher snake,1031433,HX7 7AT,53.780322000000000,-2.069072000000000
carpet snake and Marmoset,1635884,BB12 6NF,53.792331690000000,-2.296833474000000
blue tongue and rock python,626109,OL13 0RZ,53.695301339301500,-2.224423819347010
tuatara and Eagle,1631917,BB4 7PE,53.702112390000000,-2.276854586000000
python and glass snake,1636928,BB11 2EF,53.788070950000000,-2.240962600000000
Skunk and Chicken,1031434,HX7 7AU,53.777687661934000,-2.083240316239550
glass snake and Coati,1637630,BB10 1PR,53.803024700000000,-2.242080908000000
Tree warbler and Greenbul,1631106,BB5 1ED,53.753700020000000,-2.362547551000000
tree snake and Rat,1637919,BB10 2JB,53.811971720000000,-2.201036858000000
Eagle and goanna,1630079,BB5 5WP,53.776754800000000,-2.374111835000000
grass snake and Peafowl,625493,OL14 5EU,53.715884487738900,-2.097057894009540
Puffleg and Logrunners,1627129,BB9 4DA,53.834115140000000,-2.218268000000000
Moluccan boobook and Goose,1631664,BB4 8EJ,53.704123070000000,-2.285638503000000
Jerboa and Old World warbler,1629320,BB7 1NQ,53.869484750000000,-2.387942013000000
Chickadee and Songlark,1031383,HX7 8TP,53.754789000000000,-2.005756000000000
Chickadee and krait,1635587,BB12 9AE,53.824697000000000,-2.325182000000000
Warbler and moloch,1636789,BB11 3QY,53.759542380000000,-2.217819651000000
Argus and Stint,1636877,BB11 1RY,53.790627640000000,-2.252073234000000
mountain devil and boa constrictor,1635506,BB12 8RL,53.795618090000000,-2.305266964000000
River dolphin and Pitohui,1637698,BB10 1UF,53.807570980000000,-2.229199640000000
deaf adder and Coati,1629876,BB5 6RF,53.764032620000000,-2.342415521000000
Old World vulture and Stilt,2638285,BB12 6BH,53.788841000000000,-2.274557000000000
caiman and Armadillo,1630990,BB5 0PF,53.749038590000000,-2.370256304000000
carpet snake and Scimitar babbler,624914,OL14 8EE,53.722210956345000,-2.108817220994680
Duck and Bronzewing pigeon,1752447,BB11 9GL,53.790933870641400,-2.240888219424130
Warbler and constrictor,1635681,BB12 7PH,53.808523970000000,-2.351327000000000
pit viper and Old World quail,1031256,HX7 8HX,53.746923635323800,-2.006316211272200
constrictor and Myna,1635719,BB12 7RH,53.807369860000000,-2.358804460000000
mud turtle and king cobra,625113,OL14 7ER,53.730119553862800,-2.151020533685440
perentie and Masked owl,1636589,BB11 5BY,53.779458950000000,-2.271096552000000
Booted eagles and Fox,626723,OL12 8EN,53.679087670441400,-2.162615000000000
Solitaire and horned viper,1752793,BB7 9HX,53.833869249548100,-2.337804178450450
Fulmarine petrel and Rat,625570,OL13 8RS,53.709458821725000,-2.192805609308470
Argus and Ice seal,1627107,BB9 6JX,53.854146390000000,-2.219618554000000
blind snake and Condor,1630486,BB5 4DJ,53.764566050000000,-2.377280084000000
Booted eagles and sidewinder,625149,OL14 5NP,53.720797936300500,-2.100721343881440
Condor and Viscacha,1630483,BB5 4DF,53.767394720000000,-2.378094345000000
bicycle lizard and Buzzard,1637231,BB10 3FG,53.804358260000000,-2.226585615000000
green turtle and bull snake,1635995,BB12 7BS,53.791376530000000,-2.311945461000000
Skunk and Tahr,1631398,BB4 8SB,53.704811160000000,-2.287309478000000
indigo snake and rat snake,1629209,BB7 1BY,53.864863130000000,-2.399455851000000
taipan and Siskin,1627052,BB9 0XF,53.826718340000000,-2.207822493000000
Siskin and Mink,1031470,HX7 7ES,53.755460558392500,-2.020983490343130
Puffleg and rock snake,625397,OL13 9TP,53.693416878613600,-2.191656969228220
bicycle lizard and puff adder,1626650,BB9 6PD,53.872730000000000,-2.235856926000000
boa and Jackal,1637690,BB10 1TW,53.810687430000000,-2.235063425000000
taipan and sand viper,1628274,BB8 0NU,53.860690370000000,-2.162772858000000
bearded dragon and frilled lizard,1031817,HX7 6PG,53.736887718669000,-2.035860998688430
tortoise and Cloud rat,1631047,BB5 0RR,53.751049320000000,-2.376855583000000
Eagle and tuatara,1627360,BB9 0JA,53.827051140000000,-2.202430871000000
Ground sloth and Wader,1631834,BB4 7DR,53.686756880000000,-2.249983079000000
Black cockatoo and horned toad,1632096,BB4 6NB,53.686374450000000,-2.313197229000000
iguana and Dorcopsis,624674,OL14 8WS,53.713276218808400,-2.099157900209420
rattlesnake and Booted eagles,1631266,BB4 9TG,53.699766010000000,-2.244031952000000
Peafowl and Solitaire,1800059,OL13 9AU,53.690699277500000,-2.185133306600000
Jackal and Chickadee,624766,OL14 7PT,53.700686113897900,-2.107004534527770
Masked owl and diamondback turtle,1626593,BB9 8BP,53.838289970000000,-2.183231332000000
anole and brown snake,1626364,BB9 8ST,53.844631590000000,-2.212759687000000
Hawk and Pheasant,624980,OL14 6QJ,53.696510672565200,-2.102404909103190
green turtle and cayman,625240,OL14 5TF,53.717915034958400,-2.072848194806380
green turtle and Grackle,1630742,BB5 1NA,53.750143000000000,-2.368005542000000
tuatara and Hawk,1628268,BB8 0NE,53.859028080000000,-2.162431911000000
Linsang and Diving bird,1630974,BB5 0NE,53.743625840000000,-2.376121000000000
American sparrow and River dolphin,626445,OL12 8TZ,53.653704527061600,-2.181853940969710
puff adder and crocodile,1031492,HX7 7HU,53.749913607773100,-2.053842034417890
king cobra and Kangaroo,1593625,BL0 0HX,53.679194900000000,-2.305468402000000
copperhead and elapid,1626616,BB9 8EB,53.839628690000000,-2.205682949000000
Goose and Darwin's finches,1593551,BL0 0HH,53.653910500000000,-2.301760000000000
python and tree snake,1631335,BB4 8NW,53.722566140000000,-2.285869663000000
Chipmunk and bearded lizard,1627587,BB8 9LE,53.860678010000000,-2.165235936000000
copperhead and Night heron,1631509,BB4 9DD,53.697094660000000,-2.249302260000000
puff adder and agamid,1629057,BB7 2JG,53.873952600000000,-2.393200207000000
Kestrel and krait,1627123,BB9 6LT,53.867871750000000,-2.214170348000000
hawksbill and chameleon,624042,OL15 9RH,53.661118843130300,-2.086671820115520
Masked owl and Thicketbird,1630895,BB5 2HX,53.747352950000000,-2.363448000000000
Pheasant and Gull,1630501,BB5 4EE,53.756363250000000,-2.387504820000000
wall lizard and Greenbul,1631445,BB4 8TH,53.721654310000000,-2.279968440000000
king snake and Quetzal,625276,OL14 6DA,53.719197359029500,-2.062091000000000
tree snake and Kite,1630927,BB5 0HF,53.747194660000000,-2.384948733000000
coral snake and sea snake,626471,OL12 8XQ,53.668941330213300,-2.161804725235920
sidewinder and iguana,624638,OL14 8QT,53.739168472835300,-2.166137813627870
Marmoset and Prion,2622804,BB11 4EH,53.785151000000000,-2.264547000000000
horned viper and Treepie,625810,OL13 8DR,53.708211650105400,-2.202374363743960
bandy-bandy and perentie,1632057,BB4 6HQ,53.697503430000000,-2.291182390000000
cobra de capello and Grosbeak,1627035,BB9 0TP,53.835959760000000,-2.201486176000000
Songlark and giant tortoise,1629732,BB5 6BE,53.761071560000000,-2.362641000000000
constrictor and sand lizard,1630020,BB5 5SD,53.783750860000000,-2.381595532000000
indigo snake and chuckwalla,1627234,BB9 0BJ,53.831978410000000,-2.216767498000000
Towhee and galliwasp,1635609,BB12 9BT,53.830652150000000,-2.294795000000000
soft-shelled turtle and constrictor,2638279,BB11 4EJ,53.785339000000000,-2.248172000000000
bushmaster and Egret,1626778,BB9 7BG,53.834745010000000,-2.227372787000000
mountain devil and blue tongue,1628930,BB7 1PW,53.861663000000000,-2.394149239000000
Lemming and Parrotlet,1636130,BB11 5HE,53.784660830000000,-2.275986761000000
blue racer and cayman,1636738,BB11 3LB,53.783195230000000,-2.238233000000000
goanna and Parakeet,1628339,BB7 9EW,53.832762690000000,-2.336488262000000
White ibis and constrictor,1630278,BB5 5DT,53.768584980000000,-2.376876174000000
giant tortoise and pit viper,1631552,BB4 7SX,53.705575100000000,-2.279740411000000
American sparrow and Grackle,625667,OL13 9HW,53.705632008110300,-2.191485317579870
fer-de-lance and Maya,1627349,BB9 0HF,53.821917530000000,-2.213647032000000
hognose snake and Quetzal,1630667,BB5 3BQ,53.739507820000000,-2.385575836000000
whip snake and Puffleg,1629822,BB5 6LY,53.774334110000000,-2.341604000000000
Stilt and Dolphin,1031269,HX7 8LA,53.746042474852200,-2.010638000000000
Rat and Marmoset,1637543,BB10 2SH,53.816349650000000,-2.230538608000000
wall lizard and soft-shelled turtle,1627868,BB8 8PX,53.836778310000000,-2.129431519000000
snake and massasauga,1636220,BB12 6DP,53.794635360000000,-2.273000995000000
boa constrictor and Fish eagle,1635743,BB12 7RY,53.812969010000000,-2.365003000000000
loggerhead and black snake,1636799,BB11 3RR,53.770753000000000,-2.240378000000000
Darwin's finches and adder,1593333,BL0 9DQ,53.652010320000000,-2.320839812000000
bandy-bandy and glass snake,1636753,BB11 3LW,53.782119060000000,-2.237377258000000
Stint and Piping shrike,625405,OL13 9UB,53.711324497822400,-2.183829854692750
rock python and B,625674,OL13 9JF,53.702458290752200,-2.197575293519090
Marsh harrier and kabaragoya,1031504,HX7 7JJ,53.744840163338200,-2.062447882316540
Thrasher and milk snake,624970,OL14 6PX,53.699862015453000,-2.103821684582430
anaconda and leathery turtle,1635786,BB12 8BL,53.800236540000000,-2.312770401000000
constrictor and B,1637686,BB10 1TR,53.808873520000000,-2.224833258000000
snapping turtle and habu,1630456,BB5 4AS,53.761324480000000,-2.381968459000000
habu and taipan,1637743,BB10 2AF,53.809454320000000,-2.240477906000000
Old World quail and Old World quail,1637476,BB10 2PA,53.809474310000000,-2.225580589000000
king snake and sand lizard,1616714,BD22 0HY,53.836353790000000,-1.991468874000000
sand lizard and Cuscus,1637554,BB10 2TB,53.804071920000000,-2.211126749000000
wall lizard and king snake,625335,OL13 9PX,53.696613218131200,-2.188157798106480
Snipe and American sparrow,1637364,BB10 3RQ,53.834880960000000,-2.172883736000000
Grouse and Schneider python,1627581,BB8 9JL,53.858728090000000,-2.164908963000000
sea snake and Old World warbler,1593762,BL0 0RF,53.666710400000000,-2.298310164000000
frill-necked lizard and mud turtle,1626062,BB9 9QA,53.835536970000000,-2.206969677000000
White ibis and wall lizard,625057,OL14 6UG,53.684374828240900,-2.093745081631060
thorn lizard and Mockingbird,1630466,BB5 4BG,53.759004450000000,-2.376638658000000
Mamo and constrictor,1635735,BB12 6EG,53.791172780000000,-2.273965149000000
pit viper and Chipmunk,1626542,BB9 7XE,53.838815540000000,-2.213246851000000
box turtle and Grackle,1631549,BB4 7ST,53.703024270000000,-2.267150946000000
Badger and diamondback,1626985,BB9 6BE,53.863778380000000,-2.206136056000000
thorny devil and Egret,1627724,BB9 0AT,53.830848420000000,-2.220332174000000
hawksbill and amphisbaena,2585156,BB12 9ND,53.849555000000000,-2.272097000000000
Hawaiian honeycreeper and gecko,625979,OL13 0DU,53.695541000000000,-2.201556000000000
Eagle and Vole,1593695,BL0 0PN,53.658880750000000,-2.316170897000000
saltwater crocodile and amphisbaena,1631504,BB4 9BX,53.695705270000000,-2.243099741000000
Capuchin and terrapin,1616703,BD22 0HH,53.823276410000000,-2.007741000000000
Elephant and rock python,1626588,BB9 8BG,53.840004020000000,-2.190685353000000
Parrotbill and Komodo dragon,1626481,BB9 9ER,53.837622260000000,-2.206919187000000
Grosbeak and skink,1629408,BB6 7UD,53.787696700000000,-2.392696245000000
Black jay and worm lizard,1631770,BB4 7AQ,53.686853140000000,-2.283190000000000
Kangaroo and frilled lizard,624877,OL14 8AW,53.717404000000000,-2.085530000000000
flying dragon and Quetzal,1626503,BB9 9HY,53.838996580000000,-2.202519000000000
Bunting and loggerhead,1637285,BB10 3LZ,53.793684060000000,-2.193860110000000
Mink and horned toad,1626501,BB9 9HW,53.838319810000000,-2.203716192000000
monitor and Tree warbler,1630636,BB5 2XG,53.734544680000000,-2.351058814000000
worm lizard and Mockingbird,1626894,BB9 7LS,53.837576840000000,-2.217343504000000
krait and slowworm,1636655,BB11 3AG,53.786237000000000,-2.237188000000000
milk snake and rock snake,1631987,BB4 6BQ,53.695054490000000,-2.289196654000000
anole and bicycle lizard,1630132,BB5 4LE,53.755122270000000,-2.390466009000000
Dolphin and amethystine python,2621888,BB5 5LB,53.773353000000000,-2.383246000000000
Diving bird and Condor,1636600,BB11 5DN,53.783776150000000,-2.281505269000000
black snake and chuckwalla,626372,OL12 8PU,53.654199759407300,-2.175244224500810
Francolin and elapid,1631327,BB4 8NL,53.723249040000000,-2.285950073000000
Grouse and bearded dragon,1635470,BB12 8PB,53.808059960000000,-2.314726865000000
Perching duck and tree snake,624872,OL14 8AQ,53.718116959532000,-2.080334129090440
Fox and agama,1630341,BB5 3LY,53.745473530000000,-2.397305956000000
Macaw and hawksbill,1782620,HX7 7EQ,53.747304344789900,-2.016748998635360
amphisbaena and Pheasant,1627063,BB9 4BD,53.834115140000000,-2.218268000000000
viper and Lemming,1631376,BB4 8QY,53.738051570000000,-2.286308353000000
Cloud rat and Treepie,1631292,BB5 0AR,53.751853200000000,-2.378455133000000
Recurvebill and leguaan,1626660,BB9 6PZ,53.840748220000000,-2.232435645000000
Parrotbill and tuatara,1631846,BB4 7EG,53.682291350000000,-2.244869506000000
Masked owl and galliwasp,1636331,BB11 5RA,53.776435700000000,-2.316417137000000
Pratincole and Mink,626702,OL12 8DA,53.663291000000000,-2.173012000000000
boomslang and racer,1631267,BB4 9TH,53.702143650000000,-2.246090607000000
leathery turtle and Masked owl,1631773,BB4 7AU,53.693356000000000,-2.249507000000000
Polecat and thorny devil,1631198,BB4 9QA,53.718281160000000,-2.248579086000000
Old World quail and Asiatic leopard,2649526,BB9 7WD,53.837176000000000,-2.214030000000000
Piping shrike and alligator,1627613,BB8 9NT,53.854107490000000,-2.183999810000000
Warbler and Triller,1630835,BB5 2AZ,53.750438860000000,-2.359061896000000
rock snake and Condor,1626961,BB9 5TA,53.817697950000000,-2.225761502000000
Ground sloth and Parakeet,1627508,BB9 0SE,53.830276740000000,-2.208295933000000
Mouse and Triller,1630621,BB5 4JQ,53.757048630000000,-2.389573861000000
Kangaroo and Puffleg,1635129,BB12 9EE,53.830736000000000,-2.267037000000000
Boto and bearded lizard,1637599,BB10 3BU,53.800700950000000,-2.230877789000000
terrapin and krait,1630016,BB5 5RY,53.781970760000000,-2.384553885000000
cobra and Shearwater,1635728,BB12 6DY,53.792866070000000,-2.272412656000000
Jerboa and diamond snake,1630458,BB5 4AU,53.760770850000000,-2.380825798000000
boa and whip snake,625573,OL13 8RW,53.726994830278800,-2.198160296429630
brown snake and lizard,1627329,BB9 0EH,53.826599790000000,-2.213898766000000
Eagle and Fish eagle,1637397,BB10 4BY,53.788185300000000,-2.228471534000000
agamid and tokay,2649522,BB8 8FH,53.847752000000000,-2.182682000000000
Thicketbird and Tree warbler,1630886,BB5 2HL,53.747815940000000,-2.364483311000000
hawksbill and Herring gull,625741,OL13 0UJ,53.691636059103700,-2.223419974745230
diamondback and Vole,1632042,BB4 6EG,53.693652700000000,-2.296395712000000
garter snake and Snipe,1636068,BB12 0GH,53.790929280000000,-2.240887922000000
terrapin and Grouse,1635849,BB12 6HZ,53.790650980000000,-2.281930817000000
bearded dragon and Vole,2638278,BB10 3FJ,53.801837000000000,-2.232115000000000
Mink and grass snake,1635917,BB12 6QA,53.791429190000000,-2.267895038000000
Fulmarine petrel and Perching duck,1920480,BB7 2HB,53.874106000000000,-2.392153000000000
Goose and Logrunners,1636519,BB11 4NT,53.785516120000000,-2.259251790000000
whip snake and gecko,1637362,BB10 3RN,53.824670650000000,-2.179024553000000
diamond snake and Thicketbird,1632148,BB4 4PX,53.691399000000000,-2.330072543000000
Argus and krait,1631892,BB4 7LW,53.698233830000000,-2.267044853000000
Ibex and Grosbeak,1631361,BB4 8QE,53.732945110000000,-2.283044886000000
diamond python and Cloud rat,1627994,BB8 7HS,53.862427880000000,-2.122653328000000
Prion and sand lizard,624746,OL14 7NF,53.707807098554300,-2.104280621009010
Boto and grass snake,1626792,BB9 7DD,53.831901880000000,-2.224166616000000
iguana and hognose snake,1631639,BB4 8BW,53.729870370000000,-2.287162152000000
perentie and massasauga,1031378,HX7 8TG,53.751372545092100,-1.990636332551430
hognose snake and hoop snake,1031306,HX7 8PQ,53.742025185364800,-1.993731318562190
Tree warbler and Argus,625973,OL13 0DH,53.693216514943700,-2.209435000000000
Badger and bicycle lizard,1628075,BB8 7NS,53.874376730000000,-2.170613000000000
goanna and Mockingbird,1629290,BB7 1LA,53.868010030000000,-2.385373544000000
Komodo dragon and Magpie,1637533,BB10 2RP,53.815785500000000,-2.219858173000000
Petrel and gaboon viper,1636853,BB11 1PP,53.789849140000000,-2.246088083000000
Piping shrike and Argus,1635581,BB12 8XD,53.800028040000000,-2.273051235000000
water snake and sidewinder,1637964,BB10 1DT,53.801535180000000,-2.236333108000000
anole and diamondback turtle,1637172,BB10 4TZ,53.767709440000000,-2.209457303000000
hoop snake and Towhee,1637950,BB10 1BL,53.800852050000000,-2.240868935000000
chuckwalla and sidewinder,626398,OL12 8RG,53.659736290172400,-2.175373147161710
tree snake and diamondback turtle,2662009,BB9 4GZ,53.834157000000000,-2.218269000000000
Tattler and Fish eagle,625168,OL14 5PQ,53.722590623740300,-2.106408619469610
cerastes and monitor,1616710,BD22 0HT,53.833882310000000,-2.004521655000000
Duck and Wallaby,625212,OL14 7HX,53.710854746865000,-2.138952293401100
deaf adder and White ibis,1632069,BB4 6JF,53.691481000000000,-2.302632444000000
Perching duck and Boto,1631714,BB4 8JG,53.705179780000000,-2.287266546000000
Grackle and anole,1636923,BB11 4BG,53.788390000000000,-2.264734000000000
pit viper and diamondback terrapin,1637726,BB10 1XB,53.803287200000000,-2.232061159000000
Hawaiian honeycreeper and Capuchin,1630898,BB5 2JD,53.744844600000000,-2.363259724000000
Kestrel and Duck,1627538,BB8 9DX,53.861617910000000,-2.167991718000000
Dolphin and Philippine hawk-owl,1632245,BB4 5DR,53.706106340000000,-2.328871331000000
boomslang and viper,1626483,BB9 9ET,53.837042580000000,-2.204272235000000
Masked owl and tokay,1629999,BB5 5RB,53.777158360000000,-2.382931728000000
Rat and Bunting,1631302,BB5 0BS,53.751338230000000,-2.387716349000000
Thrasher and Scimitar babbler,1031570,HX7 7NY,53.749861088801800,-2.020586390157600
Ibex and ringhals,625530,OL13 8PS,53.715584311389800,-2.200940039729660
Petrel and giant tortoise,1895231,BB11 1LN,53.787992000000000,-2.249113000000000
Fox and Coati,1637175,BB10 4UD,53.767525230000000,-2.206847005000000
Argus and Kākāriki,626085,OL13 0QT,53.692824568633700,-2.222305622320090
tuatara and leathery turtle,1636300,BB11 5PQ,53.747700000000000,-2.273591000000000
giant tortoise and Thrasher,1629778,BB5 6HF,53.760045050000000,-2.353713684000000
cerastes and anole,1629411,BB6 7UG,53.788163330000000,-2.384610553000000
anole and Thicketbird,1629536,BB5 6XF,53.767660900000000,-2.340275625000000
Scimitar babbler and Gila monster,626008,OL13 0HR,53.689743149764300,-2.216580519225760
B and Marsh harrier,1630030,BB5 5SU,53.778689610000000,-2.393021821000000
ringhals and tree snake,625977,OL13 0DS,53.697913904361400,-2.200810324243180
Schneider python and dugite,1630455,BB5 4AR,53.760614540000000,-2.381931675000000
Philippine hawk-owl and python,1631617,BB4 9EY,53.698591230000000,-2.255672446000000
Gull and Chicken,624847,OL14 7TP,53.691324279705800,-2.102695158761790
Jay and Minke whale,1631776,BB4 7AY,53.692078240000000,-2.249802622000000
Zebra and smooth snake,1637693,BB10 1TZ,53.806018250000000,-2.228052308000000
Parakeet and Wallaby,1628344,BB7 9FB,53.809017310000000,-2.386851634000000
Pitohui and kabaragoya,626059,OL13 0NS,53.691279581738400,-2.235881102180500
boa constrictor and elapid,1631238,BB4 9RL,53.713636390000000,-2.251884989000000
Schneider python and bearded dragon,1629789,BB5 6HU,53.765996500000000,-2.347103970000000
Jerboa and Rabbit,1636740,BB11 3LE,53.782477710000000,-2.237819395000000
Thrasher and bicycle lizard,1635481,BB12 8PR,53.803304550000000,-2.311578551000000
worm lizard and bearded dragon,1637331,BB10 3PX,53.788757980000000,-2.188646331000000
Ice seal and Prion,1628159,BB8 0BD,53.861396140000000,-2.159263307000000
frill-necked lizard and Masked owl,626463,OL12 8XD,53.689195699839800,-2.165395584371050
Minke whale and snake,1635981,BB12 7AX,53.796115910000000,-2.314348921000000
Mink and Diving bird,1631657,BB4 8DW,53.728843000000000,-2.281259000000000
Grouse and anaconda,1630295,BB5 5EQ,53.766254060000000,-2.374974152000000
bearded dragon and River dolphin,1895442,BB11 4AP,53.786240000000000,-2.265616000000000
perentie and horned viper,1636471,BB11 4HT,53.784957620000000,-2.251401774000000
rock python and Pitohui,1635968,BB12 7AB,53.797818820000000,-2.312752396000000
snapping turtle and Dorcopsis,1637051,BB10 4JZ,53.788522430000000,-2.216330653000000
Civet and king snake,624670,OL14 8SR,53.719157225823700,-2.069774213359140
box turtle and Warbler,1638024,BB10 1LU,53.801055940000000,-2.237787971000000
tree snake and Old World quail,1635877,BB12 6LX,53.790057440000000,-2.289607392000000
copperhead and Jerboa,1629004,BB7 2EA,53.871891000000000,-2.397167558000000
Chickadee and rock snake,1631517,BB4 9DR,53.699315080000000,-2.249133640000000
diamondback turtle and harlequin snake,1637460,BB10 2NE,53.819752080000000,-2.227929490000000
hognose snake and cobra,625738,OL13 0UF,53.690968235696400,-2.229594895592670
sand viper and cerastes,1636726,BB11 3HQ,53.782175260000000,-2.231625831000000
Egret and ringhals,625006,OL14 8HA,53.726463340095700,-2.117239811730310
Rabbit and box turtle,1636139,BB12 0NN,53.792411110000000,-2.262831243000000
viper and soft-shelled turtle,625310,OL14 6HQ,53.715083963371900,-2.055857991188920
fer-de-lance and caiman,1637646,BB10 1QR,53.800305320000000,-2.240106666000000
bicycle lizard and gaboon viper,1636260,BB11 5LE,53.780397120000000,-2.269585057000000
moloch and lizard,2638347,BB9 5QD,53.824686000000000,-2.240597000000000
water snake and Goose,1631645,BB4 8DD,53.731119770000000,-2.283366084000000
Hawaiian honeycreeper and American sparrow,1593719,BL0 0QS,53.673202850000000,-2.321455044000000
Asiatic leopard and tree snake,1637217,BB11 1ED,53.788602130000000,-2.244957574000000
mud turtle and Vulture,1626999,BB9 6DE,53.840083840000000,-2.227371348000000
horned toad and terrapin,625307,OL14 6HL,53.714661000000000,-2.059070000000000
Petrel and Crow,625731,OL13 0TX,53.692293502470800,-2.217835412343300
blue racer and puff adder,1627574,BB8 9JB,53.858009970000000,-2.164252384000000
viper and Condor,1630535,BB5 2PL,53.741798560000000,-2.350891888000000
Old World warbler and Songlark,1629073,BB7 2LE,53.868034090000000,-2.399987920000000
Gull and blindworm,1637697,BB10 1UE,53.807239500000000,-2.228635979000000
Argus and Fulmarine petrel,1626405,BB9 9BT,53.834713280000000,-2.210293335000000
cobra de capello and boa constrictor,2588943,HX7 8FB,53.748890000000000,-1.999934000000000
monitor and Boto,1637600,BB10 3BW,53.800493700000000,-2.231149938000000
Mouse and Old World quail,1631402,BB4 8SG,53.701563550000000,-2.288514254000000
Quetzal and Fulmarine petrel,626367,OL12 8PP,53.654754348566500,-2.177198000000000
rattlesnake and green turtle,1637255,BB10 3JL,53.790681120000000,-2.199902733000000
Myna and Komodo dragon,1031473,HX7 7EW,53.745592426644200,-2.016414483911860
thorny devil and Buzzard,1635286,BB12 9PA,53.829598820000000,-2.260770027000000
Fulmarine petrel and Moluccan boobook,1627902,BB8 8SD,53.843781820000000,-2.135806074000000
monitor and Tattler,1031243,HX7 8HB,53.745495000000000,-2.009636677148180
gaboon viper and Crow,1630735,BB5 1LG,53.753055990000000,-2.367425345000000
Pitohui and Thrasher,1632223,BB4 6RL,53.699760470000000,-2.298074478000000
Zebra and Fish eagle,625655,OL13 9HE,53.704103203093800,-2.197522416465910
Solitaire and gavial,1630903,BB5 2JQ,53.748974270000000,-2.364857284000000
rat snake and tuatara,1630096,BB5 5XN,53.781523670000000,-2.386628898000000
Darwin's finches and cycling lizard,1632246,BB4 5DS,53.706365990000000,-2.329236930000000
Masked owl and adder,1636402,BB11 9SB,53.787596100000000,-2.244648146000000
Thrasher and Kestrel,2649477,BB12 7FP,53.784432000000000,-2.313138000000000
crocodile and boa constrictor,625598,OL13 9BS,53.705499153387700,-2.201240343404740
black snake and rat snake,1626388,BB9 9AG,53.833443190000000,-2.211685000000000
leguaan and Armadillo,626685,OL12 8AX,53.660676916983200,-2.177495595250560
frill-necked lizard and Chicken,1631758,BB4 6WA,53.702004720000000,-2.284442659000000
diamondback terrapin and New World blackbird,625877,OL13 8JN,53.727008576389700,-2.195265522419420
Tit-tyrant and python,1626525,BB9 7TZ,53.842371000000000,-2.220757000000000
Coati and thorny devil,1637581,BB10 3AW,53.803564850000000,-2.227887141000000
galliwasp and Grouse,1626607,BB9 8DG,53.837650720000000,-2.183957952000000
amethystine python and python,624580,OL14 8PF,53.734153377244000,-2.145229203138970
Fish eagle and gaboon viper,1631901,BB4 7NG,53.700533170000000,-2.287159141000000
perentie and Dolphin,1637771,BB10 2DB,53.810885640000000,-2.220637385000000
smooth snake and mountain devil,1631248,BB4 9SB,53.708136890000000,-2.233551567000000
Kākāriki and boa constrictor,1631173,BB4 9NL,53.729240860000000,-2.223953000000000
Recurvebill and Petrel,1630513,BB5 4HD,53.753185000000000,-2.389189276000000
Thrasher and Piping shrike,1031770,HX7 6JE,53.737710737846700,-2.008543000000000
Towhee and diamond snake,1629537,BB5 6XG,53.768147970000000,-2.339672723000000
Marmoset and Parrotbill,1629258,BB7 1HF,53.862716000000000,-2.393916000000000
rock snake and hoop snake,1632280,BB4 5JB,53.711378960000000,-2.326064000000000
iguana and Ibex,1631068,BB5 0SX,53.750195160000000,-2.371191523000000
Argus and Jerboa,1630290,BB5 5EH,53.765837760000000,-2.375880657000000
snake and thorn lizard,625701,OL13 9LT,53.704495831821900,-2.193767520542160
cayman and bearded lizard,1031307,HX7 8PR,53.740119839149700,-1.996976025761950
Tit-tyrant and Wallaby,1627903,BB8 8SE,53.843692330000000,-2.135456222000000
puff adder and Chickadee,1626077,BB9 9RL,53.836458650000000,-2.209314368000000
Civet and ringhals,1629245,BB7 1EN,53.866275180000000,-2.390984029000000
Parakeet and Nukupuʻu,1636418,BB11 9SX,53.787596100000000,-2.244648146000000
Prion and anaconda,1626680,BB9 8HG,53.841959340000000,-2.204053033000000
Parakeet and Asiatic leopard,1637652,BB10 1RL,53.802572580000000,-2.234410647000000
king cobra and Fulmarine petrel,1593689,BL0 0PD,53.664205770000000,-2.314652012000000
pit viper and Guillemot,625459,OL14 5BU,53.714667167477200,-2.090615583515970
Nukupuʻu and amethystine python,1631858,BB4 7HB,53.692470350000000,-2.255650465000000
Quetzal and wall lizard,1626529,BB9 7UH,53.840997440000000,-2.219428081000000
Scimitar babbler and indigo snake,1637416,BB10 4DX,53.786666350000000,-2.228463272000000
Mockingbird and Tree warbler,625774,OL13 8AN,53.704049521611800,-2.202748215744620
saltwater crocodile and Chipmunk,626118,OL13 0SP,53.692566739659600,-2.230315364027700
Ground sloth and turtle,1627102,BB9 6JR,53.852799630000000,-2.218836211000000
deaf adder and Black jay,626091,OL13 0RA,53.693380305346700,-2.223126337618300
perentie and diamondback terrapin,1593530,BL0 0EQ,53.661394440000000,-2.303447980000000
Recurvebill and moloch,1627671,BB8 9QH,53.858755250000000,-2.183336058000000
American sparrow and cayman,625879,OL13 8JQ,53.694740000000000,-2.207338000000000
sand viper and diamondback turtle,1627651,BB8 8BU,53.856104230000000,-2.135785232000000
alligator and Mockingbird,1627316,BB9 5LE,53.822136000000000,-2.236554664000000
copperhead and tree snake,1627209,BB9 5DJ,53.825624320000000,-2.230999759000000
Stilt and worm lizard,1635768,BB12 8AJ,53.797032940000000,-2.273973013000000
Viscacha and Marmoset,1630692,BB5 3EG,53.744583270000000,-2.394719905000000
tiger snake and amethystine python,1636018,BB12 7DX,53.794485430000000,-2.308841349000000
sidewinder and dukite,624731,OL14 7JY,53.710679849218700,-2.108151078108570
rattlesnake and whip snake,1631161,BB4 9LT,53.709361000000000,-2.250724678000000
Thrasher and Philippine hawk-owl,1635731,BB12 6EB,53.793830660000000,-2.271143764000000
alligator and constrictor,1635544,BB12 8SW,53.796992340000000,-2.305626126000000
Fish eagle and soft-shelled turtle,1631016,BB5 2NE,53.748032860000000,-2.361118814000000
Parrotbill and Myna,1782623,HX7 8NG,53.734380649063100,-1.995748772145120
bushmaster and bushmaster,1636246,BB11 5JJ,53.773214750000000,-2.261907028000000
Tree warbler and Capuchin,625512,OL14 5HU,53.717995679915500,-2.098290157411030
Snipe and ringhals,1637413,BB10 4DT,53.787735040000000,-2.228924428000000
Thicketbird and White ibis,1636683,BB11 3DB,53.789961950000000,-2.234659018000000
puff adder and worm lizard,1627627,BB8 8AJ,53.852921300000000,-2.177913931000000
Coati and puff adder,625938,OL13 0AH,53.701913662282200,-2.200783947095630
Flameback and Ibex,1627393,BB9 0LY,53.826955000000000,-2.201398148000000
viper and swift,1637691,BB10 1TX,53.807651200000000,-2.224811525000000
cerastes and Grosbeak,1631970,BB4 6AR,53.698039210000000,-2.285173191000000
tree snake and carpet snake,1593818,BL0 9BT,53.650313680000000,-2.316666515000000
Thicketbird and puff adder,1636367,BB11 5TH,53.781992000000000,-2.298824000000000
Warbler and Cuscus,1626408,BB9 9BX,53.832615100000000,-2.212561960000000
Capuchin and coral snake,626704,OL12 8DF,53.664951344956600,-2.174063043043340
Asiatic leopard and Francolin,1627187,BB9 5BF,53.824612800000000,-2.228958000000000
Tattler and diamondback,1593331,BL0 9DN,53.651064870000000,-2.321468047000000
Asiatic leopard and Jerboa,1593774,BL0 0RW,53.658344050000000,-2.286599697000000
whip snake and tree snake,1626149,BB9 9TU,53.838428790000000,-2.208290847000000
Hawaiian honeycreeper and Warbler,1627493,BB9 0RL,53.829211520000000,-2.210949433000000
tree snake and water snake,1630691,BB5 3EF,53.744125660000000,-2.391743771000000
fer-de-lance and king snake,1627556,BB8 9EU,53.863864070000000,-2.168563339000000
horned viper and Logrunners,626361,OL12 8PE,53.660027064281200,-2.173210454360930
taipan and bushmaster,1031455,HX7 7DQ,53.743894128967300,-2.012865839715880
diamondback and rat snake,1630893,BB5 2HU,53.748063000000000,-2.363394000000000
grass snake and cerastes,625091,OL14 7DE,53.720190529091700,-2.106720775036760
Zebra and Old World warbler,1626249,BB9 8PE,53.845695580000000,-2.220805394000000
cobra and bearded dragon,1636969,BB11 2JZ,53.783355640000000,-2.252409016000000
Boto and flying dragon,1631640,BB4 8BX,53.729504660000000,-2.285992557000000
horned toad and boa,626068,OL13 0PD,53.690427743230600,-2.234846605216330
Wader and Treepie,1631389,BB4 8RQ,53.743019330000000,-2.283643312000000
amphisbaena and Rat,1632452,BB4 4BU,53.698567340000000,-2.324829102000000
Flameback and deaf adder,1630958,BB5 0JZ,53.744628000000000,-2.384167000000000
Fish eagle and Wader,1636286,BB11 5NX,53.751952630000000,-2.264367878000000
sea snake and flying lizard,1636327,BB11 4BP,53.786588630000000,-2.262035930000000
amphisbaena and Crow,1627200,BB9 5BY,53.823974870000000,-2.228742377000000
Maya and Chickadee,1632134,BB4 4PA,53.698418640000000,-2.342700238000000
king snake and water snake,1635802,BB12 8DN,53.803607360000000,-2.309303000000000
Thicketbird and Tahr,1637745,BB10 2AH,53.799891490000000,-2.226455230000000
cobra de capello and Darwin's finches,1628292,BB8 0PU,53.858881750000000,-2.150602766000000
loggerhead and python,1631767,BB4 7AG,53.695943770000000,-2.274148535000000
Fulmarine petrel and Polecat,1629293,BB7 1LE,53.866593880000000,-2.386942017000000
Logrunners and giant tortoise,1630736,BB5 1LL,53.753665540000000,-2.367961474000000
Moluccan boobook and Chicken,1627649,BB8 8BS,53.853873630000000,-2.137191784000000
goanna and Scimitar babbler,1629813,BB5 6LL,53.766802150000000,-2.338827469000000
Cloud rat and bicycle lizard,1637601,BB10 3BX,53.800361890000000,-2.229585397000000
saltwater crocodile and smooth snake,1627342,BB9 0EZ,53.822544420000000,-2.214911052000000
Mockingbird and snake,1635433,BB12 8JN,53.800957580000000,-2.318833756000000
Recurvebill and horned toad,1630847,BB5 2BW,53.748159530000000,-2.357844499000000
Cloud rat and constrictor,1629166,BB7 0SU,53.873454570000000,-2.391583356000000
Dolphin and Egret,626104,OL13 0RT,53.693530865172400,-2.224323526825190
cycling lizard and Masked owl,1635850,BB12 6JA,53.791781050000000,-2.282955434000000
Night heron and tiger snake,1630819,BB5 3JW,53.741125460000000,-2.399357188000000
Tree warbler and Black jay,1031312,HX7 8QL,53.759326940980600,-2.008866345084700
diamond python and monitor,1636254,BB11 5JW,53.776834140000000,-2.263173867000000
Pitohui and Herring gull,625885,OL13 8JY,53.694159722308000,-2.214695017053120
Parrotlet and tokay,1635303,BB12 9PX,53.848948130000000,-2.253168662000000
wall lizard and smooth snake,1636283,BB11 5NT,53.754684710000000,-2.260396338000000
smooth snake and Mockingbird,1626796,BB9 7DJ,53.831926560000000,-2.225382274000000
chuckwalla and copperhead,1752664,BB4 9DG,53.693057378764000,-2.252277175926830
Marmoset and Nukupuʻu,1629803,BB5 6JY,53.765465970000000,-2.340925350000000
Triller and Mockingbird,1626441,BB9 7RL,53.842742920000000,-2.208327484000000
Partridge and viper,625676,OL13 9JH,53.701812324822000,-2.196860347062870
Asiatic leopard and Badger,1627964,BB8 7EB,53.867442810000000,-2.139365234000000
River dolphin and Tattler,625980,OL13 0DW,53.693088929429700,-2.210312934074820
loggerhead and amethystine python,1636634,BB11 2RS,53.793037000000000,-2.239032045000000
flying lizard and Elephant,1627869,BB8 8PY,53.840535140000000,-2.120947908000000
leguaan and snapping turtle,1031442,HX7 7BS,53.742590724412400,-2.014078377721380
crocodile and cerastes,1630669,BB5 3BT,53.739455120000000,-2.393489280000000
Francolin and chameleon,2638284,BB12 6BF,53.789140000000000,-2.273208000000000
sand lizard and Coati,1631705,BB4 8HW,53.708295370000000,-2.284879011000000
garter snake and Old World warbler,1627605,BB8 9NF,53.854589030000000,-2.180596615000000
Crow and Myna,1632589,BB4 4JS,53.687560350000000,-2.330119761000000
taipan and alligator,625444,OL14 5AQ,53.714005956832500,-2.097083861275900
Magpie and Hawk,2591607,BB11 1EL,53.791916000000000,-2.240651000000000
Night heron and Grouse,624937,OL14 6LY,53.711856692243700,-2.098442467815160
gopher snake and puff adder,1636739,BB11 3LD,53.783042680000000,-2.238460003000000
dukite and bicycle lizard,1637026,BB10 4HL,53.787127290000000,-2.207292624000000
blindworm and Mole,1636050,BB12 0DY,53.810758000000000,-2.245026000000000
dugite and lizard,1635538,BB12 7HL,53.801664250000000,-2.330044307000000
Perching duck and Marmoset,625627,OL13 9DW,53.707779736903400,-2.197812000000000
Ice seal and mamba,1626246,BB9 8PA,53.846325370000000,-2.220459128000000
Gull and puff adder,1631536,BB4 7SB,53.703807450000000,-2.282288675000000
soft-shelled turtle and Mouse,1638017,BB10 1LL,53.799348760000000,-2.237520203000000
diamond snake and Crow,1626129,BB9 9SG,53.835381270000000,-2.213746025000000
Linsang and gaboon viper,1630841,BB5 2BP,53.749030310000000,-2.358200681000000
Logrunners and Parakeet,1629413,BB6 7UJ,53.798849630000000,-2.381945234000000
Scimitar babbler and tuatara,625290,OL14 6DW,53.725384615037100,-2.055174547398050
