name,id,postcode,lat,lon
K훮k훮riki and Goose,158680,TR20 8TW,50.102881268623200,-5.560653173613500
Booted eagles and B,158440,TR20 9JU,50.124943845053500,-5.436887000000000
bicycle lizard and Bronzewing pigeon,158920,TR20 9HU,50.123671180015200,-5.417154277803660
king cobra and Herring gull,158557,TR20 9RG,50.119854000000000,-5.379831000000000
K훮k훮riki and leguaan,160236,TR18 4LZ,50.115696707000200,-5.545248860655240
snapping turtle and cycling lizard,159890,TR19 6JD,50.096486946136800,-5.651982096862600
agama and Schneider python,159783,TR19 7LF,50.124221811865500,-5.683916510109820
whip snake and water snake,163197,TR13 9LZ,50.092760371574100,-5.314210803726870
Komodo dragon and mud turtle,160980,TR18 2JJ,50.117968766618000,-5.537133599145140
Thrasher and anaconda,160341,TR18 3LE,50.124200248703500,-5.538712916741350
Flameback and elapid,160273,TR18 4QE,50.113013336808100,-5.549443508881910
Cloud rat and Black jay,161203,TR17 0BH,50.123603278228900,-5.473948638239890
Grouse and Myna,160607,TR18 4HG,50.114135496440500,-5.537910000000000
rock python and snapping turtle,158574,TR20 9SL,50.109281533454300,-5.382625102134440
Vulture and Armadillo,163161,TR13 9JA,50.085447000000000,-5.316125000000000
puff adder and snapping turtle,159462,TR19 7RN,50.104430807153100,-5.659413232203160
rattlesnake and leathery turtle,163176,TR13 9JX,50.085974372413400,-5.316510746466480
turtle and cayman,163027,TR13 9BY,50.083521758823000,-5.312300707730140
Triller and Eagle,159741,TR19 7EZ,50.124757102215100,-5.679371000000000
frilled lizard and mamba,163041,TR13 9DS,50.084831094868900,-5.314963682946700
Thicketbird and pit viper,160365,TR18 5AE,50.104546528296200,-5.551236888535650
caiman and B,1766974,TR20 9NZ,50.114233421410300,-5.443836000000000
viper and Wallaby,159696,TR19 7BS,50.076845113436900,-5.691799739669180
Civet and Stilt,160868,TR18 2DD,50.121207386390300,-5.535959265192050
elapid and python,160741,TR17 0EH,50.123961873886300,-5.475192066948120
B and python,160288,TR18 4QY,50.113451421265400,-5.554526583663700
krait and Grosbeak,159926,TR18 5EL,50.101218388801900,-5.547983279218430
Mouse and chameleon,160139,TR18 4LA,50.117465601140600,-5.551536083800540
leguaan and sand viper,2637427,TR19 6EW,50.073950000000000,-5.624533000000000
Old World warbler and Argus,163299,TR13 9RX,50.110571855523000,-5.351505784569980
python and Dolphin,159933,TR18 5EU,50.099487648561400,-5.555729756911640
horned toad and Jay,161013,TR18 2NT,50.118298429228300,-5.534583376510830
amphisbaena and thorn lizard,163302,TR13 9SA,50.109887089201700,-5.352786905321420
soft-shelled turtle and rat snake,160407,TR18 5DN,50.101648856999700,-5.553903753422970
blue racer and caiman,160864,TR18 2BY,50.120781272134600,-5.536361612793900
Parrotlet and Hawk,163526,TR13 0RT,50.117259008060200,-5.294888936179290
pit viper and king cobra,159718,TR19 7EA,50.124887919158500,-5.677670224053700
boa constrictor and Bronzewing pigeon,160205,TR19 6AE,50.100598594360900,-5.584807163580560
deaf adder and Old World quail,160558,TR18 4BP,50.117596146981900,-5.538254000000000
bandy-bandy and Night heron,160032,TR18 5HH,50.106695282806200,-5.549815254402150
frilled lizard and tiger snake,160314,TR18 4SR,50.117947336558200,-5.540783928078240
worm lizard and Towhee,158434,TR20 9JN,50.124931000000000,-5.436642405905150
diamondback terrapin and frill-necked lizard,162829,TR13 9TR,50.099460000000000,-5.362799000000000
bull snake and bicycle lizard,160529,TR18 2PP,50.122427845915700,-5.541072883926620
sand viper and boomslang,163508,TR13 9AX,50.085403393530000,-5.310361209692470
White ibis and Chickadee,160887,TR18 2EB,50.122200377195700,-5.540272459538570
diamondback terrapin and White ibis,160996,TR18 2LQ,50.121457470778400,-5.533067166072000
Snipe and mamba,163301,TR13 9RZ,50.111347412928600,-5.352063603722170
death adder and viper,159917,TR19 6LT,50.057715230002900,-5.667215188881250
bull snake and coral snake,163033,TR13 9DG,50.085844000000000,-5.313244000000000
bearded lizard and wall lizard,159757,TR19 7HW,50.122389823266200,-5.681087000000000
diamond python and Grackle,160567,TR18 4DD,50.117356857670700,-5.538907392189220
Lemming and iguana,160338,TR18 3LA,50.124913659782900,-5.556272144862040
constrictor and Marmoset,160510,TR18 4AR,50.117214743916700,-5.533831881572550
rock python and Scimitar babbler,158559,TR20 9RJ,50.117437000000000,-5.390210000000000
Stilt and Vole,160987,TR18 2JY,50.120771429539900,-5.533142541235810
cayman and River dolphin,160406,TR18 5DL,50.102182000000000,-5.555356000000000
cobra de capello and blind snake,158788,TR20 9AR,50.110315000000000,-5.403318000000000
anole and Fox,2664718,TR18 2FR,50.121915000000000,-5.535828000000000
cycling lizard and cycling lizard,159811,TR19 7NS,50.117138000000000,-5.688017000000000
Partridge and bearded dragon,2648038,TR18 9FJ,50.118857000000000,-5.539647000000000
viper and leathery turtle,160152,TR18 5QZ,50.107243272969800,-5.550429356997030
perentie and death adder,160579,TR18 4DT,50.115586415707800,-5.535600696071950
black snake and Mink,161210,TR17 0BT,50.124558445508600,-5.459450384619760
Logrunners and turtle,160027,TR18 5GA,50.106637575451600,-5.549643118840010
carpet snake and Linsang,158784,TR20 9AH,50.112601627459900,-5.398612053375420
Booted eagles and Komodo dragon,163151,TR13 9HP,50.087558585409700,-5.314592728774830
