name,postcode,lat,lon
red lion pub,TR11 5EP,50.11706400000000,-5.10936600000000
the red lion pub,TR11 5EP,50.11706400000000,-5.10936600000000
Trelawne Hotel,TR11 5HT,50.11625200000000,-5.09868100000000
Budock Vean Hotel Ltd,TR11 5LG,50.10666000000000,-5.13157600000000
The New Inn ,TR12 6HA,50.08218200000000,-5.12693100000000
The Shipwrights Arms,TR12 6JX,50.09265300000000,-5.13589100000000
Helford River Sailing Club,TR12 6LB,50.09382700000000,-5.12974500000000
Three Tuns,TR12 6NA,50.05066300000000,-5.08750700000000
The White Hart Hotel,TR12 6ND,50.05040100000000,-5.08792400000000
Roskilly's Croust House,TR12 6NX,50.03948000000000,-5.08146700000000
The Five Pilchards Inn,TR12 6PP,50.0670,-5.0798
The Paris Hotel,TR12 6SX,50.02263600000000,-5.09509200000000
The Cornish Seal Sanctuary,TR12 6UG,50.09565700000000,-5.20504600000000
Polurrian on the Lizard,TR12 7EN,50.02219900000000,-5.25205200000000
Mullion Cove Hotel,TR12 7EP,50.01721600000000,-5.25555400000000
Mullion Meadows Coffee Shop,TR12 7HB,50.02055800000000,-5.25055900000000
Mounts Bay Inn,TR12 7HN,50.02725400000000,-5.24275800000000
THE OLD INN,TR12 7HN,50.02725400000000,-5.24275800000000
The Witchball,TR12 7NJ,49.96810700000000,-5.20381100000000
Fallowfields,TR12 7PG,49.9652,-5.1965
The Terrace,TR12 7PG,49.9652,-5.1965
Wheal Dream Restaurant,TR13 0LR,50.11958200000000,-5.26328300000000
Flambards Theme Park ,TR13 0QA,50.09212000000000,-5.25836700000000
Lakeside Cafe,TR13 0SR,50.09876100000000,-5.27969900000000
The Bell Inn,TR13 8AA,50.10050600000000,-5.27365000000000
Boo Koos,TR13 8AB,50.10062200000000,-5.27335000000000
Costa Coffee,TR13 8AB,50.10062300000000,-5.27335000000000
The Coffee Bean,TR13 8EQ,50.10039800000000,-5.27588000000000
BEIJING CUISINE,TR13 8ER,50.10097900000000,-5.27571000000000
The Reel Pizza Co,TR13 8PT,50.10163100000000,-5.27267800000000
hutchinsoins fish and chips,TR13 8RE,50.09822800000000,-5.27180200000000
Henlys Bar And Restaurant,TR13 8TG,50.10149000000000,-5.27479400000000
CAST Caf√©,TR13 8TP,50.10223220000000,-5.27309630000000
