name,postcode,lat,lon
Skunk and sidewinder,PH1 4AW,56.513541000000000,-3.527297000000000
Minke whale and Zebra,PH10 7NS,56.721759971849600,-3.500661178528830
turtle and Pratincole,PH15 2AY,56.621550377490600,-3.866548377150670
Pitohui and blind snake,PH15 2BF,56.617228992846200,-3.875461657956230
Jay and viper,PH15 2BS,56.621179515479800,-3.869105339980480
bearded lizard and Armadillo,PH15 2BW,56.616827844381800,-3.874056488029210
terrapin and goanna,PH15 2DD,56.619701310476400,-3.865007000000000
Warbler and caiman,PH15 2DY,56.616276819584100,-3.859280328072720
python and mountain devil,PH15 2JD,56.623366000000000,-3.903868000000000
soft-shelled turtle and flying dragon,PH15 2JX,56.649123089383600,-3.821962307911360
amphisbaena and Pitohui,PH16 5BN,56.703094512298600,-3.734797253441020
Capuchin and milk snake,PH16 5HA,56.706127614542100,-3.724727227956840
giant tortoise and frilled lizard,PH16 5HW,56.706320804552100,-3.725699863607100
sand lizard and American sparrow,PH16 5JS,56.693669399104500,-3.702863023501830
bearded lizard and blue racer,PH16 5TE,56.686044000000000,-3.698012000000000
moloch and anaconda,PH8 0BH,56.557402172539200,-3.574277000000000
cerastes and dugite,PH8 0BT,56.539966000000000,-3.705486000000000
hoop snake and Ground sloth,PH8 0JB,56.548655469250500,-3.514738331283090
Snipe and bull snake,PH8 0JG,56.562556738064000,-3.508719733679030
Civet and gavial,PH9 0LG,56.654209000000000,-3.668849000000000
Pitohui and Black cockatoo,PH9 0NE,56.664914846559500,-3.661767391775590
flying dragon and chuckwalla,PH9 0NF,56.658458000000000,-3.663522000000000
Viscacha and Jackal,PH9 0PZ,56.644972833211100,-3.690735112578380
