name,postcode,lat,lon
Solitaire and Perching duck,DD5 4JA,56.489094001145800,-2.807462800204300
Darwin's finches and glass snake,DD7 7GX,56.496444000000000,-2.730358000000000
Chickadee and Grackle,DD7 7HD,56.498968475763500,-2.726031000000000
Zebra and Guillemot,DD7 7JQ,56.498813526721900,-2.727765949680990
Bunting and glass snake,DD7 7JX,56.497969796978900,-2.732216726620130
water snake and dukite,DD7 7LH,56.499548000000000,-2.735740000000000
Rabbit and carpet snake,DD7 7NR,56.496430792847600,-2.741754057706160
Piping shrike and Parakeet,DD7 7SJ,56.497796227637600,-2.758221000000000
Schneider python and bearded dragon,KY10 3XQ,56.277836877876900,-2.644653000000000
amphisbaena and Coati,KY16 8BP,56.334296000000000,-2.783131000000000
Stint and Crow,KY16 8BY,56.334340147445200,-2.793111756944390
Tahr and Mamo,KY16 8DJ,56.331157706332500,-2.786366457577300
Pheasant and racer,KY16 8EA,56.332711229996100,-2.799126757445870
Old World quail and Warbler,KY16 8HF,56.330772211207900,-2.793280324340170
gavial and racer,KY16 8JA,56.335890959513500,-2.796119000000000
flying lizard and caiman,KY16 8JG,56.333672855700100,-2.801864035333620
cobra de capello and Dolphin,KY16 8QA,56.311016699077100,-2.664835741683620
taipan and Badger,KY16 8XB,56.329919230344300,-2.811229805026670
harlequin snake and king snake,KY16 8YG,56.328420017128000,-2.798148000000000
Petrel and Masked owl,KY16 9AE,56.341051541464900,-2.795920202794010
slowworm and bicycle lizard,KY16 9AL,56.340357000000000,-2.808782000000000
tiger snake and Goose,KY16 9AR,56.342764537054800,-2.793286000000000
cobra and king cobra,KY16 9BW,56.339109091690700,-2.803158933181620
Gull and Coati,KY16 9DF,56.336498289404000,-2.809493145524440
Herring gull and king snake,KY16 9DY,56.337358242840500,-2.811388000000000
Stint and bicycle lizard,KY16 9ED,56.337793551167500,-2.796790529801380
horned toad and cobra,KY16 9EJ,56.338047301512500,-2.797847227848150
Jackal and Kākāriki,KY16 9JS,56.335486000000000,-2.788202000000000
gavial and Jay,KY16 9PP,56.341036768932000,-2.789805077088460
Prion and Tit-tyrant,KY16 9QZ,56.338956113421800,-2.787804798022520
Guillemot and Stilt,KY16 9TD,56.339021623783800,-2.795829401236730
kabaragoya and White ibis,KY16 9XQ,56.339213688045000,-2.800880313864920
