name,id,postcode,lat,lon
Coati and sea snake,890300,LL43 2AE,52.778142444564700,-4.095378772301260
Quetzal and Rat,889259,LL53 5LA,52.890116435720100,-4.413999989994370
diamond snake and Boto,889942,LL44 2DL,52.788872089923200,-4.097229285984240
chuckwalla and ringhals,890150,LL42 1AU,52.722674983202600,-4.053831332109710
Marsh harrier and Greenbul,890248,LL42 1NS,52.724717583329400,-4.060472890937200
Macaw and Goose,890067,LL46 2RU,52.841407042820100,-4.114951107435370
monitor and rock snake,889725,LL47 6TB,52.893720996720800,-4.071367078127830
mud turtle and diamondback turtle,889948,LL44 2DU,52.797012000000000,-4.089507000000000
flying lizard and Tattler,889272,LL53 5LW,52.892092552779300,-4.408787489589790
Treepie and Tree warbler,890035,LL45 2PF,52.834925406113100,-4.069517559385490
Prion and brown snake,890169,LL42 1BY,52.720214894169600,-4.051553830067660
Meadowlark and Myna,889159,LL53 5AN,52.880846656424800,-4.418835526768840
Masked owl and Warbler,890291,LL42 1YS,52.734499000000000,-4.066785000000000
diamond python and brown snake,889284,LL53 5NW,52.886109716613700,-4.420451617778300
Marmoset and Ground sloth,889389,LL53 5TJ,52.894903943515900,-4.451971319681230
black snake and diamondback,890231,LL42 1LT,52.721918311874100,-4.055469067304010
pit viper and alligator,889269,LL53 5LR,52.891530283076200,-4.409305000000000
Magpie and snake,889290,LL53 5PF,52.880739134900700,-4.424105930818370
Old World quail and elapid,890047,LL46 2NJ,52.865117053544300,-4.110369768437310
Tree warbler and deaf adder,889322,LL53 5TF,52.890093000000000,-4.427951000000000
Night heron and Stint,889977,LL45 2DZ,52.818935709959800,-4.108026899011170
boa constrictor and Peafowl,889953,LL44 2EF,52.787547253902200,-4.096898600334060
mountain devil and king cobra,890165,LL42 1BT,52.720440770206300,-4.051490397015860
python and bull snake,889264,LL53 5LG,52.891742198905600,-4.411429212570760
sand lizard and Puffleg,890115,LL46 2UW,52.869564689153700,-4.106484812076930
Chipmunk and Puffleg,888923,LL53 7NG,52.881167675239600,-4.455538000000000
B and Komodo dragon,890119,LL46 2YB,52.857456648491100,-4.108349128027640
Grouse and amethystine python,889970,LL44 2HZ,52.800637310359000,-4.073941189506200
Pratincole and Parakeet,890070,LL46 2SA,52.839280921919900,-4.113169928935100
Night heron and whip snake,890101,LL46 2TW,52.853806648498700,-4.062276600945040
fer-de-lance and Vulture,889978,LL45 2EQ,52.822617691796900,-4.113162000000000
sand viper and fer-de-lance,889938,LL44 2DD,52.796916042618500,-4.102481804374810
blue tongue and Maya,890159,LL42 1BJ,52.735072560780900,-4.069922905446600
Petrel and puff adder,889250,LL53 5HH,52.888605649263900,-4.416220198197870
Zebra and Chicken,891297,LL37 2QS,52.676990347254000,-4.066790324805610
viper and slowworm,890041,LL45 2PZ,52.818292000000000,-4.103336000000000
taipan and tuatara,889282,LL53 5NT,52.880691726940100,-4.423345268920370
Rat and Egret,890082,LL46 2ST,52.853801258282900,-4.108632344250280
