name,postcode,lat,lon
The Needles Pub,DE24 0UQ,52.88581848144530,-1.41544497013092
The Malt Shovel,DE72 2AA,52.86159896850590,-1.38467204570770
The Coopers Arms,DE72 2BJ,52.85068600000000,-1.40053700000000
The Boathouse,DE72 2GL,52.8674,-1.3464
TANDOORI NIGHTS,DE72 2GP,52.86905400000000,-1.35308700000000
Welcome Break Days Inn,DE72 2HA,52.86929500000000,-1.34121400000000
LYNCH INNS LTD (NEW INN),DE72 2HG,52.87017600000000,-1.34120000000000
Malt Shovel,DE72 2HG,52.87017600000000,-1.34120000000000
Old crown inn,DE72 2HL,52.86422600000000,-1.33839300000000
Golden dragon,DE72 2HN,52.86257400000000,-1.33070900000000
Welcome Break (Eastbound),DE72 2WA,52.86793400000000,-1.36711200000000
Welcome Break (Westbound) & Days Inn Lodge,DE72 2WA,52.86793400000000,-1.36711200000000
Fintons Cafe & Bakehouse,DE72 3DA,52.89659400000000,-1.32168300000000
Anderson's,DE72 3DW,52.89766400000000,-1.31705800000000
Hoggs Bistro ,DE72 3DX,52.89706000000000,-1.31831700000000
Pumpkinz Coffee House,DE72 3NB,52.89432500000000,-1.34349500000000
Coach and Horses kitchen,DE72 3PS,52.89462661743164,-1.34100818634033
Bay Leaf,DE73 6TB,52.86915510000000,-1.43727370000000
No 61,DE73 6TB,52.86915510000000,-1.43727370000000
The Lawns Hotel,DE73 6TB,52.86915510000000,-1.43727370000000
Owl House Day Spa,DE73 8BB,52.80705200000000,-1.37817200000000
Melbourne View Hotel & Events Ltd (Coffee shop),DE73 8BR,52.82899400000000,-1.40058300000000
Hardinge Arms,DE73 8BX,52.83195400000000,-1.42469200000000
Forteys ,DE73 8DS,52.82298400000000,-1.42868300000000
Harpur's,DE73 8FE,52.82468600000000,-1.42922500000000
Zeerah ,DE73 8FE,52.82468600000000,-1.42922500000000
The Melbourne Inn,DE73 8GJ,52.82256900000000,-1.43032100000000
Baxterstorey At Amazon Fulfilment Centre,DE74 2BB,52.83397110000000,-1.30365490000000
Baxterstorey At Shop Direct,DE74 2BB,52.83488430000000,-1.31581120000000
Hidden Gem Kitchen,DE74 2DA,52.83573900000000,-1.28117000000000
Red Lion,DE74 2DA,52.8358,-1.2811
Best Western Premier Yew Lodge Hotel,DE74 2DF,52.8369,-1.2842
Sweet Olives Restaurant at The Kegworth Hotel,DE74 2DF,52.8369,-1.2842
Cap and Stocking,DE74 2FF,52.83739700000000,-1.27894600000000
Curry Tonight ,DE74 2LB,52.84267300000000,-1.33745900000000
Rose of Bengal Ltd,DE74 2LB,52.84267300000000,-1.33745900000000
The CASTLE INN,DE74 2PP,52.83878700000000,-1.34350100000000
Nags Head Castle Donington,DE74 2PS,52.8333,-1.3447
The Millstream Bar & Grill,DE74 2RR,52.84312500000000,-1.38125000000000
The Priest House Hotel,DE74 2RR,52.84312500000000,-1.38125000000000
Burger King,DE74 2SA,52.82613300000000,-1.32963700000000
CASTLE ROCK,DE74 2SA,52.82613300000000,-1.32963700000000
PORK&PICKLE,DE74 2SA,52.82613300000000,-1.32963700000000
Proof 65,DE74 2SA,52.83004200000000,-1.32428720000000
STARBUCKS,DE74 2SA,52.82613300000000,-1.32963700000000
Burger King,DE74 2TN,52.82172200000000,-1.30817200000000
Radisson Blu East Midlands Airport,DE74 2TZ,52.8265,-1.3119
Baxterstorey Ltd At Price Waterhouse Coopers (PwC),DE74 2UZ,52.82591800000000,-1.31386400000000
Hilton East Midlands ,DE74 2YW,52.85731100000000,-1.29875500000000
Bom Bom Patisserie Canal House,LE11 1AW,52.77729640000000,-1.21435180000000
Caravelli italian restaurant,LE11 1BT,52.77445900000000,-1.20268100000000
Bamboo African & Carribean Restaurant,LE11 1ER,52.77465300000000,-1.20086900000000
Deli Bites Cafe,LE11 1EU,52.77486200000000,-1.20108800000000
Boat Inn,LE11 1JN,52.77854000000000,-1.20268100000000
Baxter's Tearoom and Winebar,LE11 1TG,52.77249600000000,-1.20497000000000
Beacon Bingo Loughborough,LE11 1TG,52.77249600000000,-1.20497000000000
HEAVENLY DESSERTS (LOUGHBOROUGH),LE11 1TG,52.7725,-1.2049
Ryan’s Indian Cuisine ,LE11 1TG,52.77249600000000,-1.20497000000000
Casa cafe,LE11 1UD,52.77334500000000,-1.20547400000000
Murdochs,LE11 1UD,52.77330150000000,-1.20543910000000
B H Bistro Ltd t/as Goodliffes,LE11 1UE,52.77305600000000,-1.20524200000000
Himalayan inn,LE11 1UE,52.77305600000000,-1.20524200000000
A Perfect Blend,LE11 1UL,52.7732,-1.2060
Muffin Break Cafe,LE11 1UQ,52.7740,-1.2059
The Cedars Hotel,LE11 2AB,52.76041400000000,-1.19431300000000
Salims ,LE11 2AE,52.77022400000000,-1.20387000000000
Tawa Indian kitchen & grill,LE11 2AG,52.76912300000000,-1.20196400000000
LG Thai Derm Restaurant,LE11 2AQ,52.76631700000000,-1.19905100000000
CINNAMON RESTAURANT,LE11 2BX,52.76002000000000,-1.20928700000000
NOODLE BAR,LE11 2DS,52.76822662353520,-1.20777499675751
McDonalds Restaurant ,LE11 2HJ,52.75855600000000,-1.20679500000000
McDonalds,LE11 2HJ,52.75855600000000,-1.20679500000000
Cactus Cafe ,LE11 2PY,52.77154300000000,-1.20494300000000
FERNANDOS GRILLHOUSE,LE11 2PY,52.77154300000000,-1.20494300000000
LA FAVORTA,LE11 2PY,52.77154300000000,-1.20494300000000
Peri Peri Delight Limited,LE11 2PY,52.77154300000000,-1.20494300000000
The Beacon Inn,LE11 2RB,52.76036200000000,-1.21331200000000
Mr Chan's Restaurant,LE11 2TP,52.76884500000000,-1.20740800000000
The Jam Garden,LE11 2TP,52.7688,-1.2074
Laughing Buddha,LE11 2TY,52.77029000000000,-1.20446200000000
Mount Gurkha ,LE11 3AA,52.77257600000000,-1.21292900000000
SUBWAY,LE11 3AA,52.77257600000000,-1.21292900000000
Subway,LE11 3BE,52.7719,-1.2138
Dolcino Loughborough Limited,LE11 3DL,52.7703,-1.2067
Devonshire Fisheries,LE11 3DW,52.77001400000000,-1.20750600000000
The Cheesecake Shop Loughborough,LE11 3DW,52.7697,-1.2077
Caffe Nero,LE11 3EA,52.77170800000000,-1.20676300000000
Costa Coffee,LE11 3EA,52.77170800000000,-1.20676300000000
Fork in chips,LE11 3EA,52.77213820000000,-1.20653210000000
German Doner Kebab Loughborough,LE11 3EB,52.7718,-1.2061
McDonalds Restaurant ,LE11 3EB,52.77174800000000,-1.20606600000000
Subway,LE11 3EB,52.77174900000000,-1.20606600000000
Teas and C's coffee shop,LE11 3EB,52.77152600000000,-1.20610870000000
Olivia's Coffee and Bakery,LE11 3EP,52.77127700000000,-1.20786230000000
Tarboush Restaurant ,LE11 3EP,52.77125800000000,-1.20797200000000
Baobab cafe,LE11 3ER,52.77166500000000,-1.20839400000000
Cafe Ambience,LE11 3ER,52.77177820000000,-1.20887600000000
Muzzy's Turquoise Cafe,LE11 3ER,52.77166330000000,-1.20854080000000
Party Pieces Coffee House,LE11 3ER,52.77165700000000,-1.20848400000000
The blacksmiths ,LE11 3HB,52.76903400000000,-1.20747900000000
Browns Lane Bar & Restaurant ,LE11 3HE,52.76828300000000,-1.20949400000000
Charnwood Service Station,LE11 3QU,52.76100300000000,-1.25848300000000
Bom Bom Patisserie Derwent Drive,LE11 3RJ,52.7602,-1.2370
Manchuhan,LE11 3TT,52.76938300000000,-1.22780800000000
Cino cafe,LE11 3XA,52.77175800000000,-1.20744400000000
Tylers Department Store,LE11 3XA,52.77175800000000,-1.20744400000000
Longcliffe Golf Club,LE11 3YA,52.75217200000000,-1.25512200000000
The Priory,LE11 3YD,52.75202900000000,-1.24814600000000
Peter  and that's enough,LE11 5AA,52.77213000000000,-1.20935000000000
The Griffin,LE11 5AA,52.77210400000000,-1.20943900000000
Charnwood Golf & Leisure Complex,LE11 5AD,52.78552100000000,-1.23899900000000
delhi bites,LE11 5AL,52.77243000000000,-1.20848500000000
Grab and go,LE11 5BE,52.77338027954100,-1.20892095565796
Pizza Hut,LE11 5BE,52.77329900000000,-1.20944700000000
Swan In The Rushes,LE11 5BE,52.77329900000000,-1.20944700000000
MUGAL E SHAHI,LE11 5BG,52.77340300000000,-1.20874900000000
Indian ocean,LE11 5BJ,52.77248001098630,-1.20809805393219
SUNDAES GELATO,LE11 5BJ,52.77219250000000,-1.20679090000000
2 Monkeys Cafe,LE11 5BL,52.77264100000000,-1.20771000000000
The Basin Restaurant and Bar,LE11 5BX,52.7754,-1.2134
Doorstep Desserts,LE11 5DF,52.77462820000000,-1.22393010000000
Pizza Hut Restaurant,LE11 5HG,52.78016500000000,-1.22416300000000
Royal Voluntary Service,LE11 5JY,52.77318300000000,-1.22591700000000
The Greyhound,LE12 5AG,52.78552700000000,-1.12511000000000
THE ROYAL OAK,LE12 5DB,52.80355000000000,-1.28327300000000
The Falcon Inn,LE12 5DG,52.80702600000000,-1.29176100000000
Rose & Crown,LE12 5EQ,52.80581400000000,-1.24957700000000
Terracotta The Old Canteen,LE12 5EW,52.8122,-1.2382
The Plough Inn,LE12 5HB,52.80381600000000,-1.23513400000000
the anchor inn,LE12 5JB,52.79187900000000,-1.25361400000000
Richard and Inger Mee,LE12 5LL,52.79433600000000,-1.26279600000000
NICAL LTD,LE12 5PE,52.8232,-1.2536
The Star,LE12 5RQ,52.83216700000000,-1.23600300000000
Everyman Driving Experience,LE12 5SQ,52.78827400000000,-1.14314500000000
Cafe  Mash,LE12 5TQ,52.78700740000000,-1.10035560000000
HEAT INDIAN RESTAURANT LIMITED,LE12 6JG,52.83406600000000,-1.17711300000000
Three Horseshoes East Leake,LE12 6PB,52.82909300000000,-1.18336700000000
The Cottage ,LE12 6PG,52.83129800000000,-1.17726900000000
The Windmill Inn,LE12 6TT,52.80434700000000,-1.10397900000000
The Three Crowns,LE12 6TZ,52.80622100000000,-1.10926700000000
Generous Briton,LE12 6XD,52.83153300000000,-1.15066600000000
Spicecube,LE12 7AP,52.73144100000000,-1.14309000000000
Stonehurst Farm,LE12 7AR,52.73374500000000,-1.14735400000000
The Swan Inn,LE12 7AT,52.73171600000000,-1.14271300000000
The Waterside Inn,LE12 7BB,52.73170700000000,-1.14018200000000
Shanaya restaurant ,LE12 7DE,52.72591800000000,-1.13653500000000
JJ'S CAFE,LE12 7EY,52.71951000000000,-1.14547000000000
Cafe nineteen ,LE12 7RX,52.73041500000000,-1.11121200000000
The Brewery,LE12 7RX,52.73041500000000,-1.11121200000000
Yasmins Restaurant and Takeaway ,LE12 7RX,52.73041500000000,-1.11121200000000
The Manor House ,LE12 8AL,52.73755800000000,-1.18975800000000
THE MONK,LE12 8BS,52.74461700000000,-1.16789600000000
GFTUET Trading Company Ltd t/a Quorn Grange Hotel,LE12 8DB,52.73959700000000,-1.16237800000000
Charnia Kitchen,LE12 8DT,52.74315000000000,-1.17153800000000
Tandoori Empire SHR Limited,LE12 8DT,52.74315000000000,-1.17153800000000
THE WHITE HORSE,LE12 8ET,52.74262700000000,-1.16743000000000
Tamalada ,LE12 8ET,52.74262700000000,-1.16743000000000
Village Pub Barrow Limited,LE12 8JS,52.75452400000000,-1.15148300000000
The Navigation Inn,LE12 8LQ,52.74746100000000,-1.14806400000000
The Hunting Lodge,LE12 8LZ,52.74887400000000,-1.14708900000000
Soar Bridge Inn,LE12 8PN,52.75016700000000,-1.15189300000000
The Bengal Tandoori and Balti Restaurant ,LE12 8PN,52.75016700000000,-1.15189300000000
The Moorings ,LE12 8PN,52.75016700000000,-1.15189300000000
The Curzon Arms,LE12 8QZ,52.72208600000000,-1.21785000000000
The Pear Tree Inn,LE12 8RT,52.72214700000000,-1.21472500000000
The Cafe Next Door,LE12 8RZ,52.72562500000000,-1.21601000000000
The Wheatsheaf Inn,LE12 8SS,52.71649600000000,-1.21125900000000
lingdale Golf Club,LE12 8TF,52.71128700000000,-1.22424500000000
The Griffin Inn,LE12 8TJ,52.71164700000000,-1.18416900000000
The Pied Bull,LE12 9AA,52.77430600000000,-1.29347800000000
Finkin Deli ltd,LE12 9AN,52.77243120000000,-1.29123390000000
Meet'n'Eat,LE12 9AN,52.7730,-1.2908
Junction 23 Lorry Park Ltd,LE12 9BS,52.75960600000000,-1.28724100000000
OUT OF INDIA ,LE12 9BS,52.75960600000000,-1.28724100000000
Bull and Bush,LE12 9JF,52.76808600000000,-1.28908800000000
Cafè Leo's ,LE12 9QE,52.77106600000000,-1.29132200000000
The Queen's Head,LE12 9TP,52.78131200000000,-1.33947300000000
KFC,LE4 3LH,52.68614900000000,-1.12819100000000
Dining room restaurant ,LE4 4GL,52.68144900000000,-1.11744200000000
the cafe on the corner leicester limited ,LE4 4NB,52.67896500000000,-1.12317200000000
R Treats Limited ,LE4 4NG,52.68049900000000,-1.12388100000000
Generous raj,LE4 8DS,52.67952800000000,-1.09757100000000
The Harrow Inn,LE4 8EB,52.67574700000000,-1.10158300000000
Dunelm,LE4 8GP,52.68396100000000,-1.08949100000000
McDonald's Restaurants Ltd,LE4 8GP,52.6840,-1.0895
Pizza Hut Restaurant,LE4 8GP,52.68396100000000,-1.08949100000000
McDonalds Restaurants Ltd,LE4 8GS,52.68386200000000,-1.08481900000000
Starbucks,LE4 8GS,52.68386200000000,-1.08481900000000
The Bradgate,LE6 0AE,52.68520800000000,-1.23408600000000
THE GREY LADY,LE6 0AH,52.69744100000000,-1.23230400000000
Jade tearoom,LE6 0HB,52.68214400000000,-1.22591500000000
The Old Post Office Tea Room,LE6 0HB,52.68214400000000,-1.22591500000000
The Park Kitchen and Deli,LE6 0HB,52.68214400000000,-1.22591500000000
Bradgate Park Trust - Conservatory Tearoom,LE6 0HE,52.68947500000000,-1.20495400000000
Bradgate Park Trust - Deer Barn Tearoom,LE6 0HE,52.68947500000000,-1.20495400000000
Cinnamon Foods ltd,LE67 1GE,52.67649000000000,-1.36050400000000
The Birch Tree Public House,LE67 1TD,52.70755200000000,-1.33139600000000
The Queens Head ,LE67 2QP,52.69372400000000,-1.42371300000000
Alisons cafe ,LE67 3ED,52.72519500000000,-1.37354700000000
brown stone bistro ltd,LE67 3ED,52.72519500000000,-1.37354700000000
imge restaurant ,LE67 3ED,52.72519500000000,-1.37354700000000
la torre coalville,LE67 3EE,52.7248,-1.3722
Dallys kitchen ,LE67 3LF,52.72572900000000,-1.37777400000000
brown sugar desserts limited,LE67 3LF,52.72549110000000,-1.37510470000000
PALACE COALVILLE,LE67 3LT,52.72364200000000,-1.37573200000000
McDonalds Restaurants Ltd,LE67 3NU,52.73184500000000,-1.37480000000000
McLean Restaurants Ltd,LE67 3NU,52.73184500000000,-1.37480000000000
Rose Cup Tea Room ,LE67 3PN,52.7224,-1.3741
KFC,LE67 3TN,52.73725128173830,-1.37235295772552
Hermitage FM Community Coffee Lounge,LE67 3TU,52.7264,-1.3745
SUBWAY (MARLBOROUGH SQUARE),LE67 3WD,52.72317800000000,-1.37471600000000
Costa Coalville,LE67 3XA,52.72425000000000,-1.37341300000000
Costa Coffee,LE67 3XA,52.72425000000000,-1.37341300000000
Insomnia Coalville Ltd.,LE67 3XA,52.7242,-1.3733
Bulls Head,LE67 4UY,52.72400300000000,-1.31250300000000
Sunnyside Restaurant,LE67 6HL,52.69737700000000,-1.39355200000000
Bombay Bistro Restaurant ,LE67 6LG,52.68814400000000,-1.39700800000000
The Horse Shepshed LTD,LE67 8AA,52.7583,-1.3665
ANGEL INN,LE67 8GB,52.74691100000000,-1.40616800000000
the George Inn,LE67 8HF,52.75274400000000,-1.39173200000000
Gelsmoor Inns Ltd,LE67 8HP,52.76440300000000,-1.39689000000000
The Cross Keys,LE67 8PJ,52.77067100000000,-1.40636400000000
Robin Hood Public House,LE67 8QQ,52.73905700000000,-1.38562700000000
The George and Dragon,LE67 8UH,52.76069200000000,-1.37118600000000
Ai & co Ltd ,LE67 9PP,52.6981,-1.2970
Ulversroft Grange Tearoom,LE67 9QB,52.70605300000000,-1.28718000000000
Welby Hospitality Ltd. ,LE67 9RF,52.6848,-1.2669
The old Thatched inn,LE67 9TQ,52.68874300000000,-1.31063100000000
Indian Fusion,LE67 9UW,52.68869200000000,-1.27778800000000
The Brook Cafe,LE7 1GG,52.69802100000000,-1.07552600000000
Fox and Hounds Public House,LE7 1GP,52.69981200000000,-1.07454100000000
Queen Victoria Public House,LE7 1GQ,52.70052000000000,-1.07772300000000
The bay tree Syston Limited,LE7 1GZ,52.69938300000000,-1.07376500000000
the gate hangs well,LE7 1NH,52.70036800000000,-1.08595400000000
Saffron Ivy,LE7 2HA,52.69554570000000,-1.07838400000000
the red rose ,LE7 2HA,52.69505800000000,-1.07936200000000
The New World Cafe,LE7 2HB,52.6971,-1.0760
subway,LE7 2HD,52.69858600000000,-1.07407900000000
Mumbai Wok Limited,LE7 2JS,52.6948,-1.0788
Spice of India,LE7 2JS,52.69482900000000,-1.07887800000000
Costa Coffee,LE7 2JT,52.69794700000000,-1.07403300000000
Costa Syston,LE7 2JT,52.6979,-1.0741
Gurkha Embassy,LE7 2JT,52.69794700000000,-1.07403300000000
MOINA SYSTON T/A TARAJ PALACE,LE7 2JT,52.6979,-1.0741
The Hideaway Cafe ,LE7 2JT,52.69752050000000,-1.07452460000000
Britannia Inn,LE7 3DB,52.70272200000000,-1.04150600000000
The Horse and Groom,LE7 3DJ,52.70298000000000,-1.04229900000000
Revia Ltd,LE7 3QD,52.68017100000000,-1.05433600000000
the malt shovel,LE7 3QG,52.68269700000000,-1.06221100000000
The Star Inn 1744,LE7 4UH,52.73701800000000,-1.04247300000000
The Wheel Restaurant Ltd,LE7 4YS,52.72397200000000,-1.03568000000000
Clara's Cafe,LE7 7BW,52.67825400000000,-1.18356300000000
The Pumping Station,LE7 7GB,52.69771957397460,-1.18768405914307
The Bradgate Arms,LE7 7HG,52.69411900000000,-1.17801500000000
Wheatsheaf Inn,LE7 7JN,52.69507600000000,-1.16312600000000
The Blue Bell,LE7 7NW,52.70556300000000,-1.14119900000000
Deli 1880,LE7 7PS,52.71057600000000,-1.13692600000000
Butchers Bar & Steakhouse,NG10 1EF,52.89580000000000,-1.26816700000000
TAPPERS HARKER,NG10 1GR,52.89466200000000,-1.26582300000000
KFC,NG10 1HD,52.89778200000000,-1.26893600000000
The Cods Scallops,NG10 1JE,52.89737750000000,-1.27097200000000
Mount Gurkha Spice,NG10 1JF,52.89630000000000,-1.27200900000000
AL NASEEB RESTAURANT,NG10 1JL,52.89777900000000,-1.27125600000000
Costa Coffee,NG10 1JL,52.89777900000000,-1.27125600000000
Costa Long Eaton,NG10 1JL,52.89777900000000,-1.27125600000000
Copper Cogs,NG10 1JQ,52.89922050000000,-1.27167280000000
Trent Lock Golf & Country Club,NG10 2FY,52.87673000000000,-1.27345100000000
Waterside cafe,NG10 3AE,52.87317276000980,-1.29764795303345
Esquina,NG10 3AU,52.87792800000000,-1.30092000000000
The Wilsthorpe Tavern,NG10 3LJ,52.89098900000000,-1.29015700000000
Georges Tradition,NG10 3RJ,52.89269000000000,-1.29344300000000
West Park Leisure Centre,NG10 4AA,52.89704400000000,-1.29248100000000
Dovecote Barn - Cafe  Bar & Bistro,NG11 0AA,52.88958800000000,-1.22420300000000
The Sun Inn,NG11 0HX,52.86604700000000,-1.20416800000000
Dhaka Delhi limited,NG11 6DT,52.89213900000000,-1.14918400000000
The Framebreakers,NG11 6DT,52.8921,-1.1492
BlackCat Cafe (Ruddington) Ltd,NG11 6EA,52.8913,-1.1494
PHILOS,NG11 6EH,52.89196200000000,-1.14956000000000
The Bottle Top,NG11 6EH,52.89196300000000,-1.14956000000000
The Next Episode,NG11 6EN,52.89348300000000,-1.14964900000000
The Ruddington Arms,NG11 6EQ,52.89484100000000,-1.14977100000000
White Horse Inn & Kitchen,NG11 6HD,52.89159800000000,-1.15138000000000
The Cottage Hotel,NG11 6LA,52.89297866821290,-1.14704298973083
TS CUISINE LIMITED,NG11 6LB,52.8935,-1.1459
Wellingtons Cafe,NG11 6PQ,52.87217400000000,-1.12567100000000
The Rancliffe Arms,NG11 6QT,52.86068100000000,-1.13369900000000
Lark Hill Retirement Village,NG11 8BF,52.8984,-1.1935
CHARDE ORIENTAL RESTAURANT,NG12 4EN,52.89872600000000,-1.09880800000000
Alices Tea Shop,NG12 5AD,52.86966323852540,-1.09028494358063
Stanton on the Wolds Golf Club Limited,NG12 5BH,52.87100300000000,-1.06750000000000
Gillmoores at Moores Nurseries and Garden Centre LTD,NG12 5BQ,52.87211400000000,-1.05101500000000
Sophia’s Coffee Shop,NG12 5FT,52.87489100000000,-1.08306200000000
Indian nights ,NG12 5JT,52.87124640000000,-1.09032600000000
Perkins Bar & Bistro,NG12 5NA,52.88844800000000,-1.08785900000000
The Griffin Inn Plumtree,NG12 5NB,52.89240800000000,-1.09073400000000
