name,postcode,lat,lon
Four Counties Restaurant LTD,B79 0PB,52.677744120000000,-1.571135229000000
THE MILL WHEEL,DE11 7AS,52.788520412397700,-1.518742002289480
Bombay Spice,DE11 7EA,52.767229875521700,-1.531426241194550
The Jennings Rooms ,DE11 7EH,52.768937068309500,-1.533497756888090
The Bulls Head,DE11 7ET,52.782230691722400,-1.519478526178570
The midway inn,DE11 7ND,52.781333355853500,-1.544988651608260
Cafe espresso limited,DE11 8HY,52.773267046204800,-1.556012000000000
Bodell's,DE11 8JU,52.774746275955600,-1.555077970987590
McLean Restaurants Ltd,DE11 8JU,52.774746275955600,-1.555077970987590
The Bluebell Tearoom (Swadlincote)LTD,DE11 8JU,52.774746275955600,-1.555077970987590
Swadlincote Snowsports Centre,DE11 8LP,52.770064955299100,-1.550901430085430
Subway,DE11 9AA,52.770448000000000,-1.554470000000000
Cafe Cru ,DE11 9PN,52.762432843557900,-1.560523525589570
YHA National Forest,DE12 6BD,52.738046000000000,-1.548757000000000
Lakeside Bistro,DE12 6BW,52.733144998707800,-1.543935257381690
Artisan Deli Digbeth Limited,DE12 7AJ,52.682040420362000,-1.523802921584890
The Globe Inn Snarestone ,DE12 7DB,52.681028644321600,-1.490177474848840
HongKong Restaurant ,DE12 7HR,52.704796983097600,-1.509243998335740
The Halfway House ,DE12 7PX,52.723189361011700,-1.531350322242840
Jungle Madness,DE12 7PY,52.722878159875800,-1.534507311580060
THE CRICKETTS INN,DE12 8AP,52.717405890052000,-1.561094360182110
Planters at Bretby,DE15 0QS,52.810161208397600,-1.573617154518350
Bollywood Restaurant,DE23 3TZ,52.892597466313900,-1.531413865653230
Littleover Lodge Hotel,DE23 4AN,52.890090000000000,-1.535898302584250
kfc,DE23 8AG,52.897043000000000,-1.476365000000000
The Needles Pub,DE24 0UQ,52.885800038219100,-1.415449505928940
MCDONALDS RESTAURANT,DE24 8BT,52.896491000000000,-1.469385000000000
THE CORONATION,DE24 8SL,52.899037425840700,-1.442669381863270
New bridge inn,DE24 9EF,52.878933101347600,-1.445675971050420
Rolls-Royce Leisure Association,DE24 9HY,52.891102218936300,-1.460740730262490
Bee's Tea Room,DE65 6AA,52.870988018968300,-1.543249382175890
Nadee,DE65 6AR,52.864735000000000,-1.541636000000000
Bevingtons Tea Room ,DE65 6BP,52.853672745464900,-1.564370055257370
The Dragon,DE65 6BP,52.853672745464900,-1.564370055257370
The Waters Edge Indian Restaurant ,DE65 6BT,52.853151832184000,-1.566959196201020
Beetroot Tree,DE65 6DW,52.855930630799400,-1.559906978027730
Lotus Indian Kitchen,DE65 6DW,52.855930630799400,-1.559906978027730
THE BOARDWALK,DE65 6DW,52.855930630799400,-1.559906978027730
Willow Tree Tea Room,DE65 6DW,52.855930630799400,-1.559906978027730
The Swan Inn,DE65 6EF,52.833925835295400,-1.525261619462420
The Boot,DE65 6FT,52.839646418415700,-1.549174874743700
Jaipur Restaurant,DE65 6GD,52.838260513963400,-1.548773555271990
THE BULLS HEAD,DE65 6GF,52.836392870801200,-1.546981876144990
The Malt Shovel,DE72 2AA,52.861285000000000,-1.384914000000000
The Coopers Arms,DE72 2BJ,52.850675615957400,-1.400522388433310
The Boathouse,DE72 2GL,52.867174000000000,-1.346297000000000
LYNCH INNS LTD (NEW INN),DE72 2HG,52.870473000000000,-1.341185993821680
Malt Shovel,DE72 2HG,52.870473000000000,-1.341185993821680
Old crown inn,DE72 2HL,52.864216613169500,-1.337027000000000
Golden dragon,DE72 2HN,52.862564444146800,-1.330695656831760
Fintons Cafe & Bakehouse,DE72 3DA,52.896585000000000,-1.321642341181550
Anderson's,DE72 3DW,52.897653750681600,-1.317043958738050
Hoggs Bistro ,DE72 3DX,52.897049689137200,-1.318302140076480
Coach and Horses kitchen,DE72 3PS,52.894615686868700,-1.340993807635780
The Sweet Lounge,DE73 5XE,52.867722000000000,-1.449028000000000
RAGLEY BOAT STOP,DE73 7FY,52.861440441501600,-1.487932951306080
Swarkestone Nursery Ltd,DE73 7GQ,52.861086000000000,-1.460340000000000
The Brookfield,DE73 7HF,52.853717548542400,-1.471302236848140
The Bubble Inn Stenson,DE73 7HL,52.866997691387400,-1.517116000000000
The Staff of Life,DE73 7JH,52.809490707043700,-1.481867348191490
The Wheel Inn,DE73 7JZ,52.811999918599200,-1.473944676711750
Breedon Holdings Limited,DE73 8AP,52.802783680026400,-1.399623456093460
Melbourne View Hotel & Events Ltd (Coffee shop),DE73 8BR,52.828984084961400,-1.400568577735770
Hardinge Arms,DE73 8BX,52.831944016025400,-1.424677456356690
Forteys ,DE73 8DS,52.822973736250900,-1.428669116334360
Harpur's,DE73 8FE,52.824675366296600,-1.429210747170220
Zeerah ,DE73 8FE,52.824675366296600,-1.429210747170220
The Melbourne Inn,DE73 8GJ,52.822336078112900,-1.430205000000000
Hidden Gem Kitchen,DE74 2DA,52.835978826351600,-1.282415000000000
Red Lion,DE74 2DA,52.835978826351600,-1.282415000000000
Best Western Premier Yew Lodge Hotel,DE74 2DF,52.836941832101200,-1.284165000000000
Sweet Olives Restaurant at The Kegworth Hotel,DE74 2DF,52.836941832101200,-1.284165000000000
Cap and Stocking,DE74 2FF,52.837387341743900,-1.279036000000000
Curry Tonight ,DE74 2LB,52.842663452627300,-1.337445071369630
The Millstream Bar & Grill,DE74 2RR,52.843115404485300,-1.381236480954420
The Priest House Hotel,DE74 2RR,52.843115404485300,-1.381236480954420
CASTLE ROCK,DE74 2SA,52.826123676677300,-1.329623046614560
PORK&PICKLE,DE74 2SA,52.826123676677300,-1.329623046614560
STARBUCKS,DE74 2SA,52.826123676677300,-1.329623046614560
Radisson Blu East Midlands Airport,DE74 2TZ,52.826150622245200,-1.310774404484760
Hilton East Midlands ,DE74 2YW,52.857301012306700,-1.298741371538560
Bom Bom Patisserie Canal House,LE11 1AW,52.777541604268200,-1.214915273630400
Caravelli italian restaurant,LE11 1BT,52.774448393243900,-1.202667295601540
Bamboo African & Carribean Restaurant,LE11 1ER,52.774893000000000,-1.200465000000000
Deli Bites Cafe,LE11 1EU,52.774851205367700,-1.201073793559660
Boat Inn,LE11 1JN,52.778529731508700,-1.202666858861640
Baxter's Tearoom and Winebar,LE11 1TG,52.772486005329100,-1.204956231306020
Beacon Bingo Loughborough,LE11 1TG,52.772486005329100,-1.204956231306020
HEAVENLY DESSERTS (LOUGHBOROUGH),LE11 1TG,52.772486005329100,-1.204956231306020
Ryan’s Indian Cuisine ,LE11 1TG,52.772486005329100,-1.204956231306020
Casa cafe,LE11 1UD,52.773245616888600,-1.205386000000000
Murdochs,LE11 1UD,52.773245616888600,-1.205386000000000
B H Bistro Ltd t/as Goodliffes,LE11 1UE,52.773045187509600,-1.205227686752100
Himalayan inn,LE11 1UE,52.773045187509600,-1.205227686752100
A Perfect Blend,LE11 1UL,52.773132037175900,-1.205908000000000
Muffin Break Cafe,LE11 1UQ,52.773921649921800,-1.205893607395890
The Cedars Hotel,LE11 2AB,52.760403818454600,-1.194714000000000
Salims ,LE11 2AE,52.770213216131900,-1.203856313694890
CINNAMON RESTAURANT,LE11 2BX,52.760092088837900,-1.209434862128500
NOODLE BAR,LE11 2DS,52.768216653911500,-1.207761138219200
subway,LE11 2FF,52.754203000000000,-1.198274000000000
McDonalds Restaurant ,LE11 2HJ,52.758546117969300,-1.206780746410010
Cactus Cafe ,LE11 2PY,52.771425000000000,-1.204768000000000
FERNANDOS GRILLHOUSE,LE11 2PY,52.771425000000000,-1.204768000000000
LA FAVORTA,LE11 2PY,52.771425000000000,-1.204768000000000
The Beacon Inn,LE11 2RB,52.760351495012100,-1.213297883847450
Mr Chan's Restaurant,LE11 2TP,52.768773000000000,-1.207380000000000
The Jam Garden,LE11 2TP,52.768773000000000,-1.207380000000000
Laughing Buddha,LE11 2TY,52.770280112007600,-1.204447982514230
Mount Gurkha ,LE11 3AA,52.772566020965200,-1.212914720394560
Dolcino Loughborough Limited,LE11 3DL,52.770234000000000,-1.206746000000000
Devonshire Fisheries,LE11 3DW,52.769745000000000,-1.207674000000000
The Cheesecake Shop Loughborough,LE11 3DW,52.769745000000000,-1.207674000000000
Fork in chips,LE11 3EA,52.771697916398100,-1.206749308376120
German Doner Kebab Loughborough,LE11 3EB,52.771749000000000,-1.206055014945880
McDonalds Restaurant ,LE11 3EB,52.771749000000000,-1.206055014945880
Teas and C's coffee shop,LE11 3EB,52.771749000000000,-1.206055014945880
Olivia's Coffee and Bakery,LE11 3EP,52.771247512891800,-1.207958118873970
Tarboush Restaurant ,LE11 3EP,52.771247512891800,-1.207958118873970
Baobab cafe,LE11 3ER,52.771646474429600,-1.208469674068150
Cafe Ambience,LE11 3ER,52.771646474429600,-1.208469674068150
Muzzy's Turquoise Cafe,LE11 3ER,52.771646474429600,-1.208469674068150
Party Pieces Coffee House,LE11 3ER,52.771646474429600,-1.208469674068150
The blacksmiths ,LE11 3HB,52.769023753096100,-1.207464878326830
Browns Lane Bar & Restaurant ,LE11 3HE,52.768273060659100,-1.209479412563750
Charnwood Service Station,LE11 3QU,52.760992954209800,-1.258469569967820
Bom Bom Patisserie Derwent Drive,LE11 3RJ,52.760200770139400,-1.237025461230240
Manchuhan,LE11 3TT,52.769203000000000,-1.227664000000000
Cino cafe,LE11 3XA,52.771747414508300,-1.207430253822200
Tylers Department Store,LE11 3XA,52.771747414508300,-1.207430253822200
Longcliffe Golf Club,LE11 3YA,52.752018230780100,-1.254993000000000
The Priory,LE11 3YD,52.752019075320100,-1.248132191039660
Peter and that's enough,LE11 5AA,52.772119713272200,-1.209335640770210
The Griffin,LE11 5AA,52.772119713272200,-1.209335640770210
delhi bites,LE11 5AL,52.772419597573800,-1.208470478478930
Slider Town,LE11 5AY,52.772633254117700,-1.207695952361160
Grab and go,LE11 5BE,52.773476000000000,-1.208970000000000
Swan In The Rushes,LE11 5BE,52.773476000000000,-1.208970000000000
MUGAL E SHAHI,LE11 5BG,52.773392249950300,-1.208734483610700
2 Monkeys Cafe,LE11 5BL,52.772630182684600,-1.207695863306630
Doorstep Desserts,LE11 5DF,52.774700000000000,-1.224157000000000
Royal Voluntary Service,LE11 5JY,52.773291000000000,-1.225903714193400
THE ROYAL OAK,LE12 5DB,52.803540620261000,-1.283096000000000
The Falcon Inn,LE12 5DG,52.807016611717100,-1.291569000000000
Terracotta The Old Canteen,LE12 5EW,52.812213797533000,-1.238207319501020
The Plough Inn,LE12 5HB,52.803806587364900,-1.235120486470630
Richard and Inger Mee,LE12 5LL,52.794273844892200,-1.262826000000000
NICAL LTD,LE12 5PE,52.823251660410900,-1.253552047413240
The Star,LE12 5RQ,52.832156564412000,-1.235988341570300
HEAT INDIAN RESTAURANT LIMITED,LE12 6JG,52.834055452252200,-1.177098888896400
Three Horseshoes East Leake,LE12 6PB,52.829082386961800,-1.183352368736500
The Manor House ,LE12 8AL,52.737547734043500,-1.189877000000000
THE MONK,LE12 8BS,52.744606239026900,-1.167881679226330
Charnia Kitchen,LE12 8DT,52.743139420311600,-1.171523993462060
Tandoori Empire SHR Limited,LE12 8DT,52.743139420311600,-1.171523993462060
THE WHITE HORSE,LE12 8ET,52.742616224009900,-1.167415936192750
Tamalada ,LE12 8ET,52.742616224009900,-1.167415936192750
The Curzon Arms,LE12 8QZ,52.722076031322900,-1.217467000000000
The Pear Tree Inn,LE12 8RT,52.722136292633500,-1.214710997261470
The Cafe Next Door,LE12 8RZ,52.725614858572400,-1.215995970058790
The Wheatsheaf Inn,LE12 8SS,52.716955000000000,-1.211244689643380
lingdale Golf Club,LE12 8TF,52.711276308915800,-1.224231327595890
The Pied Bull,LE12 9AA,52.774295463218000,-1.293464290014590
Meet'n'Eat,LE12 9AN,52.772939685660400,-1.290729147184070
Junction 23 Lorry Park Ltd,LE12 9BS,52.759595956303900,-1.287226416572450
OUT OF INDIA ,LE12 9BS,52.759595956303900,-1.287226416572450
Bull and Bush,LE12 9JF,52.768075345743000,-1.289074066199090
Cafè Leo's ,LE12 9QE,52.771055308331000,-1.291308190850420
The Bradgate,LE6 0AE,52.685197816778100,-1.234205000000000
THE GREY LADY,LE6 0AH,52.697565000000000,-1.232110000000000
Jade tearoom,LE6 0HB,52.682133154577900,-1.225901443945140
The Old Post Office Tea Room,LE6 0HB,52.682133154577900,-1.225901443945140
The Park Kitchen and Deli,LE6 0HB,52.682133154577900,-1.225901443945140
Bradgate Park Trust - Conservatory Tearoom,LE6 0HE,52.689465051083000,-1.204940712320640
Bradgate Park Trust - Deer Barn Tearoom,LE6 0HE,52.689465051083000,-1.204940712320640
COSTA COFFEE,LE65 1AF,52.746926988051900,-1.472550651917430
The Courtyard Cafe,LE65 1AG,52.747354052933900,-1.471552944453710
Zamanis,LE65 1AL,52.746477595363900,-1.472570889589480
Amino Food,LE65 1AN,52.747036197748500,-1.470830896241830
Dolce cafe,LE65 1AN,52.747036197748500,-1.470830896241830
Subway,LE65 1AN,52.747036197748500,-1.470830896241830
De la zouch bangladeshi cuisine,LE65 1AP,52.747613216607800,-1.469194334672560
Taste of Thai Restaurant,LE65 1AP,52.747613216607800,-1.469194334672560
Rose Cottage Tearooms,LE65 1HP,52.747711507901400,-1.471074562887070
McLean Restaurants Ltd,LE65 1JP,52.751506868310800,-1.445842029316730
Suzy Q's Limited,LE65 1LF,52.746051067230500,-1.472902113196140
Peach House Restaurant,LE65 1RU,52.785119926697300,-1.440270303728300
Bull and lion packington,LE65 1WH,52.728498731093900,-1.466523000000000
Poochies of Packington ,LE65 1WJ,52.728577303122800,-1.466123268103910
North's,LE65 2FH,52.746060036562600,-1.473686962750380
The Vine Restaurant & Cocktail Bar,LE65 2FH,52.746060036562600,-1.473686962750380
Wong Kwei Restaurant,LE65 2FH,52.746060036562600,-1.473686962750380
La Zouch Restaurant,LE65 2FQ,52.746493995958200,-1.477016000000000
The Beeches,LE65 2LP,52.750555000000000,-1.483737000000000
willesley park golf club,LE65 2PF,52.735702106307000,-1.483497579777570
olive branch cafe,LE65 2RF,52.752863000000000,-1.483301000000000
The Tap House,LE65 2TA,52.766249000000000,-1.491688000000000
Cinnamon Foods ltd,LE67 1GE,52.676446000000000,-1.360476000000000
The Birch Tree Public House,LE67 1TD,52.707541683424400,-1.331381930567490
The Queens Head ,LE67 2QP,52.694254000000000,-1.423514000000000
Belper Arms,LE67 2SE,52.678494105143900,-1.453954430889430
Alisons cafe ,LE67 3ED,52.725148257420100,-1.373593000000000
brown stone bistro ltd,LE67 3ED,52.725148257420100,-1.373593000000000
imge restaurant ,LE67 3ED,52.725148257420100,-1.373593000000000
la torre coalville,LE67 3EE,52.724837000000000,-1.372281648498700
brown sugar desserts limited,LE67 3LF,52.725738000000000,-1.377686000000000
PALACE COALVILLE,LE67 3LT,52.723632216786800,-1.375717632100790
McLean Restaurants Ltd,LE67 3NU,52.731834927407500,-1.374786020231500
Rose Cup Tea Room ,LE67 3PN,52.722400890782200,-1.374062148276340
SUBWAY (MARLBOROUGH SQUARE),LE67 3WD,52.723296000000000,-1.374702632155110
Costa Coalville,LE67 3XA,52.724240285449500,-1.373399144838230
Insomnia Coalville Ltd.,LE67 3XA,52.724240285449500,-1.373399144838230
Bulls Head,LE67 4UY,52.723766000000000,-1.312004000000000
Sunnyside Restaurant,LE67 6HL,52.697349000000000,-1.393405000000000
Bombay Bistro Restaurant ,LE67 6LG,52.688108000000000,-1.397044612486140
The Horse Shepshed LTD,LE67 8AA,52.757245000000000,-1.365390000000000
ANGEL INN,LE67 8GB,52.746472000000000,-1.406353000000000
the George Inn,LE67 8HF,52.752734080211700,-1.391392000000000
Gelsmoor Inns Ltd,LE67 8HP,52.763537000000000,-1.397955000000000
The Cross Keys,LE67 8PJ,52.770688526426500,-1.406334671224930
Robin Hood Public House,LE67 8QQ,52.739047295068600,-1.385613729161480
The George and Dragon,LE67 8UH,52.759713000000000,-1.374734000000000
Ai & co Ltd ,LE67 9PP,52.698056543697900,-1.297018713945950
Subway,LE67 9PU,52.700687000000000,-1.305293000000000
Ulversroft Grange Tearoom,LE67 9QB,52.706043612898600,-1.287166575692250
Welby Hospitality Ltd. ,LE67 9RF,52.684839339805300,-1.266964003241130
The old Thatched inn,LE67 9TQ,52.688359000000000,-1.311111000000000
Indian Fusion,LE67 9UW,52.688753127273300,-1.277742877340180
Clara's Cafe,LE7 7BW,52.678244160825400,-1.183402000000000
The Pumping Station,LE7 7GB,52.697708582446700,-1.187670127455290
The Bradgate Arms,LE7 7HG,52.694108936770600,-1.178120000000000
Wheatsheaf Inn,LE7 7JN,52.695065607413400,-1.163112167448520
Butchers Bar & Steakhouse,NG10 1EF,52.895900000000000,-1.268314000000000
TAPPERS HARKER,NG10 1GR,52.894651394657000,-1.265808477179880
The Cods Scallops,NG10 1JE,52.896960180120200,-1.271403439073500
Mount Gurkha Spice,NG10 1JF,52.896361679046900,-1.272022944104780
AL NASEEB RESTAURANT,NG10 1JL,52.897768242179300,-1.271047000000000
Costa Long Eaton,NG10 1JL,52.897768242179300,-1.271047000000000
Copper Cogs,NG10 1JQ,52.898967096626000,-1.271622000000000
Trent Lock Golf & Country Club,NG10 2FY,52.876157000000000,-1.272391000000000
Waterside cafe,NG10 3AE,52.873373538716700,-1.300131423074830
Esquina,NG10 3AU,52.877917810081000,-1.300905244877240
The Wilsthorpe Tavern,NG10 3LJ,52.890978704105600,-1.290142274170480
Georges Tradition,NG10 3RJ,52.892679333189800,-1.293429141678840
West Park Leisure Centre,NG10 4AA,52.897033517851600,-1.292466428560080
Dovecote Barn - Cafe Bar & Bistro,NG11 0AA,52.889343000000000,-1.223866000000000
The Sun Inn,NG11 0HX,52.866036159198400,-1.204153812251830
Lark Hill Retirement Village,NG11 8BF,52.898427000000000,-1.193467000000000
Attenborough Nature Centre,NG9 6DY,52.899659000000000,-1.235694000000000
