name,postcode,lat,lon
Grosbeak and Dolphin,NR10 4ET,52.767577167999800,1.164486830373920
puff adder and Partridge,NR10 4FF,52.769283206900000,1.163884061200000
chameleon and bearded lizard,NR10 4FH,52.769830877183100,1.121205351625210
mud turtle and Darwin's finches,NR10 4JX,52.758908771596000,1.108372044385970
Old World warbler and Black jay,NR10 4LH,52.765652186113600,1.110824515651730
Puffleg and bull snake,NR10 4LZ,52.762387154155300,1.110502697011440
snake and Duck,NR10 4PF,52.749740739192100,1.155827199077850
Thrasher and Siskin,NR10 4RB,52.752844683076400,1.110533830858860
Mockingbird and gaboon viper,NR10 4RT,52.776672824376300,1.088654294312300
Partridge and Perching duck,NR11 6QN,52.826404375854200,1.130380000000000
Triller and bicycle lizard,NR11 6QP,52.828688752486300,1.133547346552840
Old World warbler and Booted eagles,NR11 7DD,52.825438000000000,1.158835000000000
cobra and blue racer,NR19 1AN,52.676501000000000,0.942767000000000
bull snake and Badger,NR19 1AY,52.677133061417000,0.940797435133852
Kangaroo and Coati,NR19 1AZ,52.676225935838300,0.940751267223447
loggerhead and green turtle,NR19 1BW,52.675123882475200,0.938413609701658
Marmoset and rock snake,NR19 1DZ,52.679754022285700,0.941358298956266
puff adder and agama,NR19 1FG,52.680217112507400,0.946967712047013
giant tortoise and Peafowl,NR19 2AJ,52.704773697929000,0.872748819944425
thorny devil and Perching duck,NR19 2BA,52.682980761933500,0.937801896959919
Logrunners and Ground sloth,NR19 2DB,52.680760957185600,0.943099000000000
Maya and Dolphin,NR19 2DN,52.682305157200000,0.934930238900000
habu and carpet snake,NR19 2EN,52.683785763883000,0.942324859907953
Diving bird and Grackle,NR19 2JF,52.686323000000000,0.805907000000000
Old World vulture and Jerboa,NR19 2JH,52.676224262631900,0.810052906089372
hoop snake and chameleon,NR19 2LZ,52.680474091646500,0.845614734559016
blindworm and Old World warbler,NR19 2PS,52.679063000000000,0.923926000000000
Marmoset and Treepie,NR19 2QF,52.699434443625700,0.904505000000000
Ice seal and bull snake,NR19 2QJ,52.697851000000000,0.900774000000000
water snake and horned toad,NR19 2SR,52.691975417866700,0.939900915174109
amphisbaena and New World blackbird,NR19 2SU,52.693387864936400,0.939877459284013
box turtle and Grouse,NR19 2TB,52.678483301298600,0.927675462890356
hognose snake and Dorcopsis,NR19 2UU,52.681647000000000,0.946966850928498
deaf adder and Jay,NR19 2WB,52.682285801199900,0.939353325518106
Darwin's finches and amphisbaena,NR20 3AJ,52.675544438790900,1.066212568150600
Duck and Schneider python,NR20 3AU,52.679113529372600,0.956969564112215
diamondback terrapin and Egret,NR20 3BH,52.681112000000000,0.966279000000000
blue tongue and sea snake,NR20 3BN,52.678759087171900,0.956398156673600
Tree warbler and sea snake,NR20 3DJ,52.684123466181000,1.025660121738430
iguana and Egret,NR20 3DL,52.682680199855500,1.038181000000000
Mamo and River dolphin,NR20 3DZ,52.702092481009300,1.040822000000000
glass snake and Black cockatoo,NR20 3ED,52.711527568006900,1.036933000000000
Cloud rat and alligator,NR20 3EY,52.682655323652700,0.981062383067678
diamondback turtle and bandy-bandy,NR20 3GH,52.682751000000000,0.966087000000000
Puffleg and Meadowlark,NR20 3HF,52.677237000000000,1.051550000000000
whip snake and Mole,NR20 3JD,52.691627170619600,1.084449861577160
king cobra and Darwin's finches,NR20 4AA,52.741347303592400,1.023475570407390
gecko and soft-shelled turtle,NR20 4BA,52.695705811107600,0.955145891172811
Kestrel and thorny devil,NR20 4BW,52.718655751207700,0.925049972702747
blue tongue and turtle,NR20 4DY,52.712064354955100,0.911163846711560
racer and Badger,NR20 4JH,52.742121196329800,0.861544319475284
Bronzewing pigeon and puff adder,NR20 4LT,52.702325188997900,0.979176210028605
dugite and hawksbill,NR20 4PA,52.714517293945000,0.985693745158564
skink and Guillemot,NR20 4PP,52.712502670500700,0.986059558064918
Siskin and Kākāriki,NR20 4SQ,52.744990978381100,1.031863470003490
boa and rattlesnake,NR20 5AD,52.781802936344100,1.010530121252160
sidewinder and Dorcopsis,NR20 5AQ,52.788694000000000,0.958246000000000
Grosbeak and Ground sloth,NR20 5DD,52.823950231005300,1.026508850846760
Mole and deaf adder,NR20 5DP,52.763975186691600,0.877802373112317
tortoise and kabaragoya,NR20 5FA,52.824098401100000,1.022792851900000
Macaw and adder,NR20 5GY,52.802204362000000,1.046201523500000
Capuchin and massasauga,NR20 5HQ,52.745620000000000,0.949163000000000
hawksbill and garter snake,NR20 5QD,52.800641262562300,1.054549787629950
Mink and rat snake,NR20 5QU,52.824710396382300,1.088766661740560
Pratincole and Darwin's finches,NR20 5SS,52.772268379867700,0.835542789058955
crocodile and bicycle lizard,NR20 5TS,52.791214000000000,0.962924000000000
Partridge and sand viper,NR21 0AR,52.867284777914400,0.843699816887215
galliwasp and Old World quail,NR21 0BJ,52.864975114609100,0.961293394381646
Egret and Wader,NR21 0FH,52.862590000000000,0.960657000000000
Moluccan boobook and rat snake,NR21 0HH,52.872243263368900,0.894137700139889
Ibex and Dorcopsis,NR21 0HT,52.856662489199300,0.902474743355681
box turtle and leguaan,NR21 0HW,52.874312420767900,0.892625804929329
Masked owl and Chipmunk,NR21 0JG,52.852373658934200,0.911992713453930
Perching duck and snake,NR21 0LP,52.822573682397300,0.914867801438328
alligator and blue racer,NR21 0LT,52.817265737795200,0.940101792561552
sand lizard and Tree warbler,NR21 0LZ,52.837998920879300,0.957258893400365
gopher snake and massasauga,NR21 0NR,52.834448165435700,0.927605000000000
viper and ringhals,NR21 0PB,52.875728957459000,0.929461363890559
Prion and slowworm,NR21 0QT,52.896807000000000,0.996878000000000
Greenbul and rock python,NR21 7AB,52.826086462720500,0.842373141846625
Moluccan boobook and Dorcopsis,NR21 7EA,52.810041804455600,0.815831000000000
Flameback and frilled lizard,NR21 7HU,52.796727000000000,0.832660979533329
snapping turtle and Argus,NR21 7PG,52.837387123565500,0.789831332038240
Towhee and deaf adder,NR21 8AN,52.837792111238000,0.853339639841975
blindworm and Jay,NR21 8AZ,52.830196563139900,0.853212769947858
hawksbill and Asiatic leopard,NR21 8GD,52.832947320900000,0.858842374700000
Masked owl and loggerhead,NR21 8HL,52.832894012100000,0.875186690300000
goanna and Tree warbler,NR21 8HN,52.830939742194200,0.859186000000000
Tit-tyrant and Night heron,NR21 8JL,52.838103184593200,0.866175513251839
fer-de-lance and Shearwater,NR21 8LU,52.833636993596800,0.873112488148295
Crow and Thicketbird,NR21 8NA,52.834036697126700,0.874801921157281
Macaw and king cobra,NR21 8PT,52.829103360696500,0.870571288299528
snapping turtle and Black cockatoo,NR21 8QG,52.840513000000000,0.855732000000000
Fish eagle and Dorcopsis,NR21 9BH,52.829875357178900,0.847119261013669
Dolphin and coral snake,NR21 9BX,52.830397962120800,0.847450397084775
Recurvebill and Bunting,NR21 9DD,52.833045578498600,0.848039399619629
Fulmarine petrel and Tree warbler,NR21 9DL,52.835995758220700,0.849509540668730
White ibis and Skunk,NR21 9DY,52.831467551174400,0.846347425393239
Kite and Old World warbler,NR21 9EJ,52.833425804100000,0.844560096482883
Old World quail and Booted eagles,NR21 9FA,52.832899000000000,0.842967000000000
chameleon and puff adder,NR21 9HG,52.837251740445100,0.841008752650399
whip snake and Perching duck,NR21 9NH,52.844773145476900,0.823690000000000
Wader and Francolin,NR21 9RT,52.841374832579300,0.840817647109925
adder and Viscacha,NR21 9RZ,52.841905052218900,0.842708667430273
Egret and Myna,NR21 9SA,52.843256000000000,0.831278873464718
chameleon and turtle,NR22 6DD,52.898537949046000,0.874491611069465
snake and leguaan,NR24 2AD,52.853076462339100,1.056033892870380
asp and Thicketbird,NR24 2AP,52.856721269193200,1.037718934188000
crocodile and Schneider python,NR24 2DF,52.856411908081300,1.036805907475790
Black cockatoo and Philippine hawk-owl,NR24 2EQ,52.877428437101500,1.068255831002340
Peafowl and Mouse,NR24 2HF,52.856365581672200,1.041423136595420
Polecat and Chicken,NR24 2HR,52.856600290889400,1.062016405429120
leathery turtle and Stint,NR24 2HS,52.856278000000000,1.059557000000000
Rat and Cuscus,NR24 2JQ,52.846949454062400,1.071467006400510
rock snake and Peafowl,NR24 2JY,52.854187000000000,1.050373242393500
glass snake and cobra de capello,NR24 2JZ,52.853609901085400,1.055922831345360
goanna and Minke whale,NR24 2LB,52.852356230217300,1.057112284204400
Moluccan boobook and mountain devil,NR24 2NB,52.850460387906600,1.060187631890500
Kestrel and Jackal,NR24 2PF,52.889069585016300,1.015806314772830
boa constrictor and ringhals,NR24 2SD,52.848538000000000,1.063276000000000
adder and Elephant,NR9 5AN,52.718299000000000,1.060267000000000
Flameback and Minke whale,NR9 5AZ,52.723360000000000,1.105371529805080
gecko and rock python,NR9 5LQ,52.685306324334400,1.117035017887290
Boto and leathery turtle,NR9 5NQ,52.724305551318500,1.146449671799690
adder and Gila monster,NR9 5PB,52.733007999592700,1.131283834225930
racer and Kākāriki,NR9 5RW,52.718435470785000,1.058084906890550
giant tortoise and Black jay,NR9 5SR,52.714937000000000,1.133513000000000
puff adder and Ice seal,PE32 2NL,52.707342000000000,0.832247000000000
bandy-bandy and tokay,PE32 2PY,52.735636170806500,0.824111605535953
gecko and Kākāriki,PE32 2RS,52.722092490984600,0.822643643235230
frill-necked lizard and boomslang,PE32 2TH,52.763828093221400,0.772272128551513
