name,postcode,lat,lon
bull snake and River dolphin,NR29 3LW,52.676615544166400,1.654685165001070
Parrotbill and Pitohui,NR29 3LX,52.681138582410000,1.663454562639280
Chickadee and boa,NR29 3NS,52.684771452100600,1.713431110780640
monitor and Viscacha,NR29 3QS,52.676081000000000,1.719553783603600
Booted eagles and Vole,NR29 3RT,52.677268056715800,1.686437821267990
mamba and Francolin,NR29 3SD,52.676506490706300,1.690961072090120
White ibis and diamondback turtle,NR29 4AZ,52.713123000000000,1.690737000000000
cycling lizard and perentie,NR29 4BG,52.716575386255500,1.693620823227300
Coati and Marmoset,NR29 4BZ,52.704277031382100,1.701199108693190
Buzzard and Capuchin,NR29 4DB,52.714760620798700,1.687779847603950
perentie and Grouse,NR29 4EQ,52.753124000000000,1.644445000000000
Peafowl and chuckwalla,NR29 4HA,52.699144453704400,1.689274995906710
Booted eagles and alligator,NR29 4HE,52.699338590702300,1.689972459374590
rat snake and viper,NR29 4HJ,52.697173240155200,1.694380000000000
flying dragon and asp,NR29 4NT,52.694303326860500,1.691072183425350
cobra and White ibis,NR29 4PL,52.703895242054500,1.635125753668520
Elephant and Lemming,NR29 4PR,52.707380384095700,1.632054215422770
Stilt and mountain devil,NR29 4QY,52.702558611771000,1.626648000000000
Fish eagle and habu,NR29 4SJ,52.699590373099300,1.632961349579590
puff adder and leathery turtle,NR29 4TE,52.696829000000000,1.684520000000000
Logrunners and Myna,NR29 5EG,52.682358144311400,1.637612304754330
whip snake and Nukupu ªu,NR29 5EQ,52.682832274299400,1.637696147093620
