name,postcode,lat,lon
the goat inn,NR10 5DH,52.76986400000000,1.33505700000000
The Diplomat Pub,NR10 5JZ,52.76407700000000,1.34125600000000
The Royal Hotel,NR11 8BN,52.87532900000000,1.44000800000000
Ship Inn,NR11 8BQ,52.87669200000000,1.43983300000000
Vernon Arms,NR11 8NP,52.88011169433590,1.35183095932007
The Kingfisher Cafe,NR12 0AP,52.84228600000000,1.49931800000000
The Cliff Top Inn,NR12 0JB,52.85613632202150,1.47180497646332
Poachers Pocket,NR12 0LS,52.84497500000000,1.49417200000000
White Horse Crostwick Public House,NR12 7BD,52.69769100000000,1.34109500000000
OLD RECTORY HOTEL CROSTWICK LTD,NR12 7BG,52.69208300000000,1.33775100000000
Un Caf√®,NR12 7BY,52.67912292480470,1.33013200759888
A Piece of Cake (Coltishall) Ltd,NR12 7DL,52.7272,1.3600
The Norfolk Mead,NR12 7DN,52.72551100000000,1.36166600000000
Kings Head,NR12 7EA,52.72824478149410,1.36958003044128
The Rising Sun,NR12 7EA,52.72824500000000,1.36958000000000
The Recruiting Sergeant,NR12 7EE,52.72751000000000,1.35299100000000
the white horse at neatishead,NR12 8AD,52.7360,1.4661
Horse & Groom,NR12 8AH,52.74566200000000,1.40055100000000
Aimes Ltd t/a Costa Coffee Hoveton,NR12 8AJ,52.71159800000000,1.40915300000000
Costa Coffee,NR12 8AJ,52.71159800000000,1.40915300000000
Hotel Wroxham,NR12 8AJ,52.71159800000000,1.40915300000000
Thai Ubon Restaurant ,NR12 8AJ,52.71159800000000,1.40915300000000
Number 14 ltd,NR12 8DA,52.71203200000000,1.40875800000000
McDonalds Restaurant,NR12 8DB,52.7125,1.4110
ROYS HOVETON CAFE,NR12 8DB,52.7125,1.4110
Mcdonalds Restaurant,NR12 8DU,52.71672000000000,1.42055700000000
Bure Valley Adventures Ltd,NR12 8JW,52.70823200000000,1.44869400000000
The New Inn Horning,NR12 8PF,52.70091800000000,1.46632800000000
Waterfall Elior,NR12 8QN,52.71749496459960,1.41264998912811
Wroxham Barns,NR12 8QU,52.73425700000000,1.41372200000000
Liberty  Norwich Road  Wroxham,NR12 8RX,52.71021900000000,1.40396600000000
The Station Smokehouse ,NR12 8UT,52.71523800000000,1.40798600000000
The Ingham Swan,NR12 9AB,52.77919200000000,1.54330000000000
The Crown Inn,NR12 9AD,52.76824500000000,1.45404700000000
Daddy donuts,NR12 9AU,52.77158200000000,1.51601980000000
The Swan Inn,NR12 9AU,52.77156100000000,1.51595700000000
Cafe Charlotte Ltd,NR12 9AZ,52.77115800000000,1.51709600000000
Cherry Blossom Cafe ,NR12 9BB,52.77201400000000,1.51461400000000
Vera's Coffee Shop,NR12 9LJ,52.77356000000000,1.48082100000000
Wayford Bridge Inn,NR12 9LL,52.77092200000000,1.47970700000000
The Maltsters,NR13 6AB,52.67605200000000,1.48861000000000
The Lodge Countryhouse,NR13 6HD,52.68800800000000,1.40975600000000
THE GREEN MAN NORWICH FAMILY DINER,NR13 6NQ,52.68349200000000,1.37273100000000
Fur & Feather Public House,NR13 6SW,52.6831,1.4432
Labone Indian Cuisine,NR28 0DA,52.82252100000000,1.38520400000000
Ramblers at North Walsham Garden Centre,NR28 0DR,52.81295394897460,1.38293099403381
The Beechwood Hotel,NR28 0HD,52.82292100000000,1.38223600000000
Rossis Leisure Ltd,NR28 0JQ,52.81656500000000,1.36599200000000
Aimes Ltd t/a Costa Coffee North Walsham,NR28 9BT,52.82139430000000,1.38657530000000
Costa Coffee,NR28 9BT,52.82139430000000,1.38657530000000
Cafe Kitale,NR28 9BY,52.82202000000000,1.38667900000000
Shambles Cafe Bar Bistro,NR28 9BZ,52.82182030000000,1.38585290000000
Waterfall Elior,NR28 9JL,52.81983947753910,1.38586103916168
The Kings Arms Hotel,NR28 9JX,52.82062600000000,1.38542800000000
Scarborough Hill Country Inn,NR28 9NA,52.80476700000000,1.39872300000000
Cross Keys Ph,NR28 9PS,52.77517600000000,1.45602000000000
The White Lady,NR28 9RW,52.78237000000000,1.41229900000000
the lion at thurne,NR29 3AP,52.68878555297850,1.55488598346710
The Boathouse,NR29 3LP,52.67610800000000,1.65313300000000
Whites Lounge Bar,NR29 3NW,52.67807100000000,1.71178200000000
The Codfather,NR29 3QL,52.67559814453130,1.71576595306396
the Jolly Farmers ,NR29 3RP,52.6752,1.6880
Hermanus,NR29 4BP,52.71385400000000,1.69558300000000
THE BELL ,NR29 4EU,52.69644546508790,1.68943202495575
Hemsby Beach Holiday Park ,NR29 4HR,52.6964,1.6981
MB's Leisure Bar,NR29 4HS,52.6958,1.7048
Club Belle  Hemsby Belle Aire Holiday Park,NR29 4HZ,52.69537000000000,1.70365700000000
The Lacon Arms,NR29 4JG,52.69446000000000,1.70745900000000
Tis BAR AND GRILL,NR29 4NW,52.69028091430660,1.70559501647949
The Crown Inn,NR29 5AA,52.74043600000000,1.53456600000000
The Waterside (Rollesby) Ltd,NR29 5EF,52.68051500000000,1.63998900000000
Bridgestones,NR29 5JD,52.7102,1.5801
Flour and Bean,NR29 5JE,52.71075700000000,1.58030900000000
Wayfarers Cafe,NR29 5NX,52.69962600000000,1.50985600000000
The Dog at Ludham Bridge,NR29 5NY,52.70209600000000,1.51454100000000
Kings Arms  Ludham,NR29 5QQ,52.71038100000000,1.53595400000000
