name,postcode,lat,lon
Civet and Kestrel,AB45 2BJ,57.629051000000000,-2.718937000000000
iguana and mamba,AB45 2DS,57.664741000000000,-2.562421000000000
Wader and Nukupu ªu,AB45 2JL,57.671499240000000,-2.565795053000000
Marsh harrier and green turtle,AB45 2LX,57.675228080000000,-2.577472114000000
thorn lizard and Linsang,AB45 2PF,57.681505190000000,-2.700506650000000
Mink and Pratincole,AB45 2QP,57.683508000000000,-2.690703272000000
python and brown snake,AB45 2RA,57.681184520000000,-2.688560872000000
leguaan and dukite,AB45 2RL,57.680414110000000,-2.688177347000000
glass snake and Old World vulture,AB45 2SL,57.661270180000000,-2.747128074000000
Fulmarine petrel and snake,AB45 2TQ,57.684591030000000,-2.706100525000000
amphisbaena and gavial,AB45 3AP,57.628946460000000,-2.601419059000000
Thicketbird and alligator,AB45 3TQ,57.645366840000000,-2.568336654000000
Jerboa and tokay,AB45 3UT,57.635897000000000,-2.542095000000000
White ibis and asp,AB56 1SB,57.682716390000000,-2.947602653000000
Duck and Crow,AB56 4DD,57.677663290000000,-2.932530573000000
terrapin and Flameback,AB56 4LA,57.701418000000000,-2.863442000000000
horned viper and horned toad,AB56 4QB,57.696973300000000,-2.906972498000000
Tree warbler and gaboon viper,AB56 4QS,57.700286480000000,-2.899622553000000
Marmoset and leguaan,AB56 4RD,57.702462000000000,-2.855198800000000
frill-necked lizard and frilled lizard,AB56 4RR,57.690813420000000,-2.819745627000000
Grosbeak and Maya,AB56 4UY,57.688534520000000,-2.820717287000000
tuatara and frilled lizard,AB56 5JL,57.648642780000000,-2.947853520000000
