name,postcode,lat,lon
gavial and Old World warbler,AB43 6HX,57.668738040000000,-2.249082101000000
boa constrictor and bandy-bandy,AB43 6SH,57.628975630000000,-2.151524000000000
worm lizard and fer-de-lance,AB43 7LP,57.654480160000000,-2.182428314000000
black snake and Gull,AB44 1LU,57.670070770000000,-2.492884072000000
Boto and Quetzal,AB44 1NL,57.667832140000000,-2.491093609000000
sea snake and Kākāriki,AB44 1NT,57.666233990000000,-2.493217525000000
agamid and hognose snake,AB44 1PQ,57.664398810000000,-2.489304034000000
Mockingbird and Condor,AB44 1QA,57.666805120000000,-2.484894475000000
Ibex and Tit-tyrant,AB44 1QJ,57.669690660000000,-2.495913110000000
Parakeet and Kite,AB44 1QQ,57.671477000000000,-2.493842000000000
frill-necked lizard and Grackle,AB44 1RG,57.658468000000000,-2.485236000000000
milk snake and Diving bird,AB44 1RN,57.670224580000000,-2.492367000000000
Meadowlark and Maya,AB44 1RP,57.669596240000000,-2.490178711000000
glass snake and Buzzard,AB44 1SN,57.671861520000000,-2.487409617000000
Viscacha and Komodo dragon,AB44 1TL,57.670332880000000,-2.496877000000000
Komodo dragon and Buzzard,AB44 1TN,57.670751000000000,-2.495791885000000
indigo snake and anole,AB44 1UB,57.669525370000000,-2.499112671000000
Asiatic leopard and python,AB44 1UL,57.667549240000000,-2.503644923000000
Cloud rat and Kite,AB44 1XD,57.665837000000000,-2.500520000000000
flying lizard and anaconda,AB44 1XZ,57.665509590000000,-2.496995807000000
Old World warbler and Jackal,AB45 1AS,57.663426000000000,-2.521273212000000
River dolphin and frill-necked lizard,AB45 1BJ,57.661760030000000,-2.528955882000000
anole and hoop snake,AB45 1EY,57.665895970000000,-2.527993646000000
indigo snake and Meadowlark,AB45 1FP,57.659976750000000,-2.532231455000000
Tahr and kabaragoya,AB45 1FS,57.657364630000000,-2.536064260000000
death adder and Treepie,AB45 1JJ,57.669433530000000,-2.524157000000000
Boto and Ice seal,AB45 2JG,57.668318400000000,-2.537198187000000
Marmoset and garter snake,AB45 3ET,57.661980570000000,-2.339086107000000
anole and rock snake,AB45 3HL,57.652201000000000,-2.351461000000000
rat snake and Asiatic leopard,AB45 3HX,57.664655750000000,-2.315394204000000
Macaw and Logrunners,AB45 3LR,57.636192840000000,-2.482593630000000
taipan and crocodile,AB45 3RA,57.640665060000000,-2.441079229000000
Grosbeak and tiger snake,AB45 3TA,57.655386230000000,-2.532348538000000
Parrotlet and Schneider python,AB45 3YL,57.669240940000000,-2.338097835000000
blue tongue and leguaan,AB45 3YQ,57.670561460000000,-2.341395834000000
Darwin's finches and Hawk,AB45 3YW,57.671487000000000,-2.337800000000000
rat snake and turtle,AB45 3ZG,57.670344000000000,-2.335426000000000
