name,postcode,lat,lon
Sam Smith Contract Catering,BT29 4RT,54.61485100000000,-6.30175500000000
Heffrons Bar,BT41 3AB,54.74984200000000,-6.31928200000000
Truffles tea room ,BT41 3AB,54.74984200000000,-6.31928200000000
The Old Forge,BT41 3AD,54.74938200000000,-6.31976700000000
Waves,BT41 3AF,54.74764200000000,-6.32192000000000
COFFEE BREAK,BT41 3SF,54.76553700000000,-6.48346800000000
The Elk Complex,BT41 3SF,54.7655,-6.4835
The Lock Keeper's Cottage,BT41 3TE,54.75339508056640,-6.46394681930542
O'Neill Arms Country House Hotel,BT41 3TQ,54.75421580000000,-6.46121570000000
NOSH CAFE AND SANDWICH BAR,BT45 5AG,54.75537200000000,-6.60899900000000
The Coachman,BT45 5AH,54.75583800000000,-6.61205800000000
Mrs Bs,BT45 5AN,54.75511900000000,-6.61045200000000
Subway Magherafelt,BT45 5AN,54.75511900000000,-6.61045200000000
District 45 Restaurant,BT45 5DD,54.75719000000000,-6.61087800000000
COCO CRAFT PIZZA,BT45 6AB,54.75411060000000,-6.60941760000000
taaj restaurant,BT45 6AB,54.75450800000000,-6.60887300000000
Church Street Restaurant,BT45 6AP,54.75644400000000,-6.60535800000000
Ground Espresso Bars Ltd,BT45 6BW,54.7535,-6.6049
Bob & Berts Magherafelt   ,BT45 6EA,54.75603310000000,-6.60784500000000
Mary's Bar,BT45 6ED,54.75513700000000,-6.60658400000000
Slims healthy kitchen,BT45 6ED,54.75513700000000,-6.60658400000000
The Cosy Corner,BT45 6ED,54.75513700000000,-6.60658400000000
Sizzlers Restaurant,BT45 6EE,54.75499900000000,-6.60781600000000
Sizzlin smokehouse ,BT45 6EE,54.75499900000000,-6.60781600000000
Costa Coffee,BT45 6PR,54.75404739379880,-6.61237096786499
Munchies Cafe,BT45 6PR,54.75404739379880,-6.61237096786499
Viva Cafe,BT45 6PR,54.75404739379880,-6.61237096786499
MOESGRILL MAGHERAFELT,BT45 8DP,54.77200900000000,-6.57724000000000
KFC,BT45 8DR,54.76952800000000,-6.57934700000000
The Old Thatch Inn Ltd,BT45 8ET,54.77291500000000,-6.53114800000000
The Tilley Lamp,BT71 5AX,54.61886400000000,-6.55020400000000
