name,postcode,lat,lon
anole and cobra,BT29 4AP,54.636086000000000,-6.228931000000000
Macaw and elapid,BT29 4DF,54.666250000000000,-6.255130000000000
Thrasher and rock snake,BT29 4HB,54.612430000000000,-6.190687000000000
Minke whale and glass snake,BT29 4HL,54.587134000000000,-6.160575000000000
Lemming and milk snake,BT29 4NL,54.570166000000000,-6.206708000000000
snapping turtle and Moluccan boobook,BT29 4NP,54.574491000000000,-6.205695000000000
Shearwater and Gull,BT29 4NR,54.580411000000000,-6.191441000000000
Songlark and cobra de capello,BT29 4RA,54.638741000000000,-6.261853000000000
Greenbul and Snipe,BT29 4ST,54.619630000000000,-6.127694000000000
Kite and carpet snake,BT29 4SZ,54.637793000000000,-6.128625000000000
Gila monster and jew lizard,BT29 4UX,54.620105000000000,-6.219933000000000
mountain devil and Grackle,BT29 4WP,54.619164000000000,-6.207695000000000
tortoise and perentie,BT29 4XD,54.620943000000000,-6.222930000000000
Gila monster and diamondback,BT29 4YJ,54.616898000000000,-6.221745000000000
galliwasp and habu,BT41 1AU,54.721657000000000,-6.203314000000000
indigo snake and frilled lizard,BT41 1BA,54.721011000000000,-6.203389000000000
tiger snake and Quetzal,BT41 1BG,54.723796000000000,-6.204773000000000
Fox and boa,BT41 1EP,54.716183000000000,-6.201571000000000
elapid and Puffleg,BT41 1HX,54.713227000000000,-6.186479000000000
Kangaroo and anole,BT41 1JD,54.711173000000000,-6.186601000000000
turtle and carpet snake,BT41 1JG,54.711834000000000,-6.187007000000000
loggerhead and rock snake,BT41 1LY,54.715159000000000,-6.196305000000000
cobra de capello and flying dragon,BT41 1NN,54.706260000000000,-6.185021000000000
Wader and Egret,BT41 1SP,54.708997000000000,-6.207520000000000
gaboon viper and puff adder,BT41 1SS,54.708952000000000,-6.211727000000000
Wallaby and Condor,BT41 2AP,54.748936000000000,-6.311154000000000
saltwater crocodile and Pitohui,BT41 2AR,54.748526000000000,-6.312056000000000
bicycle lizard and sidewinder,BT41 2DD,54.709985000000000,-6.179393000000000
cobra and Chipmunk,BT41 2DJ,54.737683000000000,-6.216548000000000
loggerhead and bearded dragon,BT41 2DU,54.715308000000000,-6.174063000000000
elapid and Duck,BT41 2EX,54.705002000000000,-6.167191000000000
Kangaroo and swift,BT41 2EY,54.701357000000000,-6.161565000000000
frill-necked lizard and Jackal,BT41 2HH,54.698065000000000,-6.125725000000000
Diving bird and Mouse,BT41 2LG,54.774344000000000,-6.230383000000000
sand viper and rock python,BT41 2NN,54.755707000000000,-6.286623000000000
Rabbit and Armadillo,BT41 2NU,54.754761000000000,-6.317265000000000
puff adder and Armadillo,BT41 2PN,54.768666000000000,-6.267926000000000
Gull and Pratincole,BT41 2QQ,54.748555000000000,-6.194171000000000
blue tongue and mud turtle,BT41 2RQ,54.735696000000000,-6.179171000000000
Fish eagle and worm lizard,BT41 2TL,54.731780000000000,-6.221653000000000
Jay and goanna,BT41 2WD,54.728005000000000,-6.211555000000000
Moluccan boobook and Marsh harrier,BT41 3AB,54.749680000000000,-6.319235000000000
Grosbeak and tortoise,BT41 3AX,54.751293000000000,-6.321121000000000
Bronzewing pigeon and Ibex,BT41 3BD,54.750851000000000,-6.321636000000000
boomslang and Bronzewing pigeon,BT41 3BE,54.751652000000000,-6.325004000000000
sand lizard and Booted eagles,BT41 3BN,54.755102000000000,-6.323044000000000
racer and Piping shrike,BT41 3BU,54.756253000000000,-6.322234000000000
mamba and Moluccan boobook,BT41 3DQ,54.762912000000000,-6.334343000000000
rat snake and Solitaire,BT41 3HA,54.773138000000000,-6.353999000000000
Logrunners and Maya,BT41 3HY,54.746993000000000,-6.407739000000000
galliwasp and B,BT41 3PB,54.718433000000000,-6.460601000000000
habu and Stilt,BT41 3SG,54.746873000000000,-6.510850000000000
hognose snake and ringhals,BT41 3SU,54.764562000000000,-6.466216000000000
Asiatic leopard and Armadillo,BT41 3TE,54.753403000000000,-6.463951000000000
amethystine python and diamondback terrapin,BT41 4AW,54.714925000000000,-6.221196000000000
gaboon viper and White ibis,BT41 4BL,54.710907000000000,-6.217569000000000
diamondback turtle and Wallaby,BT41 4DR,54.705018000000000,-6.223412000000000
boa and blindworm,BT41 4FB,54.709167000000000,-6.219026000000000
Dolphin and leguaan,BT41 4JL,54.726024000000000,-6.218769000000000
puff adder and Asiatic leopard,BT41 4JW,54.709834000000000,-6.214900000000000
Chickadee and Perching duck,BT41 4PR,54.697459000000000,-6.204510000000000
Komodo dragon and tortoise,BT41 4PT,54.696488000000000,-6.210321000000000
Prion and cerastes,BT41 4RA,54.735179000000000,-6.237013000000000
Booted eagles and snake,BT41 9SW,54.725163000000000,-6.209152000000000
