name,postcode,lat,lon
THE BLUE HOUSE RESTAURANT AND PUB,DH6 2AP,54.77097200000000,-1.40589800000000
JABIR INDIAN SPICE LTD,DH6 2EW,54.7724,-1.4244
Shotton Community Hub,DH6 2PQ,54.75784301757810,-1.38750195503235
Horns Garden Centre,DH6 2PX,54.7552,-1.3917
Costa Coffee - Peterlee,SR8 1AL,54.75921800000000,-1.33342200000000
Costa Coffee,SR8 1AL,54.75921800000000,-1.33342200000000
CAFE EDEN,SR8 1AX,54.75961200000000,-1.33313600000000
Club 3000 Bingo Peterlee,SR8 1BJ,54.7585,-1.3324
Subway Restaurant ,SR8 1BS,54.76021600000000,-1.33516100000000
SAMBUCA ITALIAN LTD,SR8 1BT,54.76012200000000,-1.33611100000000
Chimes Cafe,SR8 1BU,54.75962448120120,-1.33545100688934
PETERLEE LODGE HOTEL,SR8 1BU,54.75962500000000,-1.33545100000000
Luciano Bar and Bistro ,SR8 1QB,54.74825800000000,-1.34228600000000
Martinos peterlee ,SR8 2DP,54.7687,-1.3474
Bee Happy Play Cafe ,SR8 2LS,54.75697780000000,-1.37030900000000
The Royal George,SR8 2ND,54.75160700000000,-1.36023900000000
Charltons,SR8 2RB,54.76686300000000,-1.36125800000000
The Play Place ,SR8 2RD,54.76773100000000,-1.36408800000000
spread from the med taverna,SR8 2RR,54.75298690795900,-1.36644399166107
Whistle Stop Bakehouse ,SR8 4LG,54.76526000000000,-1.31296300000000
Sizzlers cafe,SR8 4SB,54.76358900000000,-1.31319300000000
The Haven Cafe,SR8 4TQ,54.77078400000000,-1.31736100000000
McDonalds,SR8 5HA,54.76077100000000,-1.33137600000000
The Chef,TS1 1HR,54.57696000000000,-1.23533100000000
Cooplands Orchard  Dundas Arcade Middlesbrough,TS1 1HT,54.5776,-1.2353
JEAN'S KITCHEN,TS1 1HT,54.57742800000000,-1.23553900000000
Jurys Inn Middlesbrough,TS1 1JH,54.57675600000000,-1.23146800000000
Cafe at Twenty Three LTD,TS1 1LP,54.5765,-1.2350
the lobby bar,TS1 1NG,54.57660700000000,-1.23492000000000
Tiny,TS1 1NS,54.57697400000000,-1.23472800000000
Alkaline kitchen ,TS1 1PQ,54.57759980000000,-1.23458060000000
Luxe Bar & Grill at Boulevard 8,TS1 1QA,54.57770600000000,-1.23401700000000
Subway,TS1 1RD,54.57762200000000,-1.23630900000000
Caffe Nero,TS1 1RJ,54.57689900000000,-1.23700300000000
Esquires Coffee House,TS1 1RJ,54.57689900000000,-1.23700300000000
Isaac Wilson,TS1 1SF,54.57797200000000,-1.23754000000000
BURGERKING,TS1 1SU,54.5772,-1.2398
Muffin Break,TS1 1SU,54.57725300000000,-1.23905400000000
Burger King,TS1 1TA,54.57716700000000,-1.23959700000000
Nando's,TS1 2DY,54.57466500000000,-1.22627800000000
THE MASSALA RESTAURANT,TS1 2ES,54.57277500000000,-1.23287300000000
Subway,TS1 2JR,54.57364700000000,-1.23726500000000
BEDFORD STREET COFFEE LIMITED,TS1 2LL,54.57372200000000,-1.23641200000000
Bedford Street Social,TS1 2LL,54.57372200000000,-1.23641200000000
ROUNTON HOSPITALITY LTD.,TS1 2LL,54.5737,-1.2365
The Tipsy Cow,TS1 2LL,54.5737,-1.2365
Sweets & Pickles Limited,TS1 2LS,54.5741,-1.2360
Holiday Inn Express Middlesbrough,TS1 2PA,54.57568500000000,-1.23563300000000
Baker Street Kitchen,TS1 2PX,54.57329559326170,-1.23564803600311
Lane7 Middlesbrough,TS1 2RU,54.57597900000000,-1.23505600000000
Turtle Bay,TS1 2RX,54.57568600000000,-1.23563400000000
Guli Chinese Restaurant,TS1 3QD,54.56960000000000,-1.23828400000000
BLUE ICECREAM LTD,TS1 3QW,54.5702,-1.2385
The Oven North East Ltd,TS1 3QW,54.57026600000000,-1.23841100000000
uno ristorante,TS1 3QW,54.57026600000000,-1.23841100000000
Oodles,TS1 3RA,54.57266100000000,-1.23767000000000
ROSHIES,TS1 3RA,54.57266100000000,-1.23767000000000
Sticky Fingers Cafe & Rock Bar,TS1 3RB,54.5719,-1.2379
TA MOKO,TS1 3RB,54.57183456420900,-1.23791801929474
Uno momento,TS1 3RB,54.57183600000000,-1.23791800000000
Akbar's Restaurant,TS1 3RF,54.57125200000000,-1.23794400000000
PBT (Middlesbrough) Ltd,TS1 3RF,54.5712,-1.2379
Peri Peri Original,TS1 3RF,54.57125200000000,-1.23794400000000
Sweet Treat Dessert Lounge,TS1 3RF,54.57125200000000,-1.23794400000000
TSONE MBRO LTD ,TS1 3RF,54.5712,-1.2379
icestone gelato,TS1 3RF,54.5712,-1.2379
Fire and Dice Games,TS1 4AF,54.57295150000000,-1.23891530000000
KFC,TS1 4AG,54.57211700000000,-1.23836100000000
Geek Retreat Middlesbrough,TS1 4AT,54.56929070000000,-1.23941960000000
The Corner Cafe,TS1 5AS,54.57466800000000,-1.23812800000000
McDonald's,TS1 5DD,54.57423400000000,-1.23767200000000
McDonalds,TS1 5DD,54.57423400000000,-1.23767200000000
Eliano's Brasserie ,TS1 5DJ,54.57397500000000,-1.23790900000000
Cafe Etch,TS1 5ET,54.57541300000000,-1.23797400000000
Salam Restaurant,TS1 5JD,54.57565900000000,-1.24275000000000
BREWHOUSE COFFEE SHOPS AND RESTAURANTS LIMITED,TS1 5UB,54.57549100000000,-1.23891700000000
TJ Hughes Middlesbrough,TS1 5UB,54.57549000000000,-1.23891600000000
W2 WORLD BUFFET,TS1 5UB,54.57549285888670,-1.23891699314117
OGradys Hotel,TS10 1AE,54.61868100000000,-1.07115400000000
Bengal Spice ,TS10 1AH,54.61988500000000,-1.06996500000000
Clock Stop Cafe Bistro,TS10 1DL,54.61871719360350,-1.06912398338318
Cappulatte,TS10 1DU,54.61816200000000,-1.07026800000000
Central Park ,TS10 1EE,54.61770600000000,-1.06941100000000
Light of asia,TS10 1EF,54.6199,-1.0699
food at Locke park,TS10 1PB,54.6132,-1.0811
The Cleveland Bay,TS10 2DD,54.61236300000000,-1.05728500000000
Costa Coffee,TS10 2ED,54.61352200000000,-1.06531000000000
Daisy-Mae's Vintage Tea Room,TS10 3AA,54.61952900000000,-1.06822300000000
Pier Vista,TS10 3AA,54.61953000000000,-1.06822300000000
The Beacon Lounge,TS10 3AA,54.61953000000000,-1.06822300000000
Tommy tuckers ,TS10 3AD,54.61901300000000,-1.06761600000000
Beacon Bingo Redcar,TS10 3AE,54.6191,-1.0662
the park hotel,TS10 3AR,54.61689000000000,-1.05694800000000
Claxton Hotel,TS10 3AW,54.61701200000000,-1.05874200000000
Lemongrass,TS10 3AW,54.6170,-1.0587
Reloved Cafe,TS10 3BZ,54.61867000000000,-1.06627600000000
BERISHA GROUP LTD,TS10 3DH,54.6173,-1.0615
KFC,TS10 3DN,54.61783000000000,-1.06451400000000
Marthas Vineyard,TS10 3DQ,54.61760900000000,-1.06038500000000
Footprints Community Cafe,TS10 3DU,54.61837800000000,-1.06798600000000
Costa Coffee - Redcar,TS10 3FB,54.61801400000000,-1.06638400000000
Costa Coffee,TS10 3FB,54.61801400000000,-1.06638400000000
Waterfall Elior at Outward Academy,TS10 4AB,54.60552000000000,-1.08139200000000
Redcar,TS10 4NW,54.5993,-1.0688
The Starting Gate,TS10 4PS,54.59568400000000,-1.06780800000000
Clare's sandwiches ,TS10 5AA,54.61701200000000,-1.08576400000000
Tocketts Mill Limited,TS14 6QA,54.55435180664060,-1.03221404552460
Baxterstorey (Santander),TS17 6BJ,54.56342800000000,-1.30892000000000
Pier 22 Cafe,TS17 6BN,54.55750700000000,-1.30597400000000
Tees Valley Catering,TS17 6FB,54.56209400000000,-1.29884500000000
Pizza Express,TS17 7BG,54.55910500000000,-1.27962800000000
chadwick & co coffee house & kitchen,TS17 7BG,54.55910500000000,-1.27962800000000
KFC,TS17 7BQ,54.5578,-1.2791
McDonald's Restaurant,TS17 7BS,54.55691900000000,-1.27785700000000
McDonalds,TS17 7BS,54.55691900000000,-1.27785700000000
Nando's,TS17 7BT,54.55633200000000,-1.27879500000000
Burger King,TS17 7BU,54.56018500000000,-1.27384100000000
Hollywood Bowl,TS17 7BU,54.56018500000000,-1.27384100000000
Pizza Hut Restaurant,TS17 7BU,54.56018500000000,-1.27384100000000
Costa Coffee,TS17 7BW,54.55637000000000,-1.27313500000000
Subway,TS18 1AG,54.56364400000000,-1.31225700000000
Remember me tearooms ,TS18 1AR,54.56419900000000,-1.31181500000000
The George Pub & Grill,TS18 1BD,54.56272500000000,-1.31332400000000
Ramsgates Take5 Caffe,TS18 1BS,54.5631,-1.3139
Cafe Express,TS18 1BW,54.56271800000000,-1.31207200000000
MDZ Restaurant t/a Vadah,TS18 1BZ,54.56163900000000,-1.31051200000000
Frandos Peri Peri,TS18 1DF,54.56218400000000,-1.31474000000000
Hidden tearooms,TS18 1DS,54.56331300000000,-1.31399500000000
Bethanies,TS18 1DW,54.56326675415040,-1.31668698787689
Borge Restaurant,TS18 1ER,54.5615,-1.3155
Kilimanjaro Stockton,TS18 1EW,54.5612,-1.3170
Carusos ,TS18 1JY,54.56114300000000,-1.32286100000000
Barnacles,TS18 1LH,54.56422400000000,-1.31459800000000
Melissa Coffee Lounge,TS18 1LH,54.56422400000000,-1.31459800000000
Carpaccio Bar Restaurant,TS18 1LJ,54.56403900000000,-1.31679700000000
Ivy House,TS18 1LN,54.56451900000000,-1.31445400000000
Wags & Whiskers Pet Boutique & Canine Cafe,TS18 1LN,54.56449530000000,-1.31428050000000
Flavours Coffee House,TS18 1NA,54.56638700000000,-1.31411300000000
Costa Coffee,TS18 1PL,54.56688500000000,-1.31325400000000
 Ramsgate Cafe ,TS18 1PQ,54.5649,-1.3185
KFC,TS18 1QX,54.5660,-1.3178
Caffe Nero,TS18 1RG,54.56528500000000,-1.31473500000000
Costa Coffee,TS18 1SB,54.56440900000000,-1.31230600000000
Shakes Ice Cream Cafe,TS18 1SB,54.56440800000000,-1.31230600000000
Hope and Union,TS18 1SL,54.56478600000000,-1.31166190000000
Hampton by Hilton Stockton,TS18 1TW,54.56749343872070,-1.30820202827454
SORRISO N LTD,TS18 1UB,54.56711150000000,-1.31275880000000
The Bygone Bakery Tearoom,TS18 2AA,54.56808560000000,-1.31378620000000
Fun Shack/ CLip n Climb Stockton,TS18 2AD,54.57709300000000,-1.28503500000000
Jump 360 Stockton,TS18 2LX,54.57221600000000,-1.29478800000000
subway,TS18 2LX,54.57221600000000,-1.29478800000000
Land of Make Believe Limited,TS18 2NH,54.57336044311520,-1.29340696334839
Dunelm Mill,TS18 2PS,54.57333000000000,-1.28247100000000
McDonald's Restaurant,TS18 2SP,54.57695900000000,-1.28062900000000
McDonalds Restaurants Ltd,TS18 2SP,54.57695900000000,-1.28062900000000
Peking Garden,TS18 3AA,54.56067900000000,-1.31235400000000
Burger King,TS18 3BA,54.55942200000000,-1.30931300000000
Grosvenor Casinos Limited,TS18 3BA,54.55942200000000,-1.30931300000000
Mecca Bingo Club,TS18 3BA,54.55942200000000,-1.30931300000000
Café 81,TS18 4AR,54.56147800000000,-1.32814400000000
THE OXBRIDGE HOTEL,TS18 4AW,54.56151700000000,-1.32539100000000
The Village Deli ,TS18 5BD,54.55539300000000,-1.33616100000000
The Masham Public House Limited,TS18 5DR,54.55417500000000,-1.34024700000000
Elmwood Tearoom ,TS18 5EP,54.55536270141600,-1.34355294704437
Cafe Sapore,TS18 5EQ,54.55511200000000,-1.34066500000000
Parkwood Hotel ,TS18 5ER,54.55447300000000,-1.34375200000000
LJ's Cafe,TS19 0AP,54.56941400000000,-1.32170400000000
Justlovepies.co.uk,TS19 0RP,54.57332992553710,-1.33241999149323
Buttercup House Bed and Breakfast,TS19 8FE,54.5783,-1.3499
Reliance Subway,TS19 8HJ,54.58986500000000,-1.35075100000000
Costa Coffee,TS19 8PE,54.58294200000000,-1.34677600000000
CAFE LILLI LTD,TS20 1AE,54.58954300000000,-1.31197600000000
Canteen and Cocktails Ltd,TS20 1AH,54.58691900000000,-1.31041000000000
Scruffy Duck,TS20 1AH,54.58691900000000,-1.31041100000000
The Open Jar Ltd,TS20 1AH,54.58656160000000,-1.31013510000000
Betsy place ltd trading as 12 Harland place,TS20 1AL,54.58661900000000,-1.30970400000000
Jolsha Limited,TS20 1AL,54.58661900000000,-1.30970400000000
NORTON CAFE,TS20 1DH,54.58754200000000,-1.30930200000000
Costa Coffee,TS20 1DL,54.58734400000000,-1.30930400000000
The Hambletonian,TS20 1DT,54.59237200000000,-1.31163400000000
The Violet Green,TS20 1DT,54.5924,-1.3116
Norton Tavern,TS20 1PE,54.5971,-1.3193
La porto italiano Norton,TS20 2QQ,54.58466900000000,-1.31077050000000
Scrann ,TS20 2QQ,54.58653080000000,-1.30947030000000
Hydes Bar,TS20 2RZ,54.58752100000000,-1.30879100000000
The Smiths Arms,TS21 1EA,54.58963500000000,-1.39117600000000
The Ship Redmarshall,TS21 1EP,54.58385800000000,-1.40045200000000
The Vane Arms,TS21 3JU,54.6048,-1.3808
Hamilton Russell arms ,TS21 3JW,54.60380300000000,-1.38150600000000
McDonald's Restaurant,TS21 3LU,54.59318600000000,-1.35328300000000
McDonalds,TS21 3LU,54.59318600000000,-1.35328300000000
Billingham Golf Club Ltd,TS22 5NA,54.60885100000000,-1.31261000000000
The blue bells ,TS22 5PQ,54.63268800000000,-1.28074600000000
Costa Coffee,TS22 5PZ,54.62861600000000,-1.30685500000000
KFC,TS22 5PZ,54.6285,-1.3057
McDonalds,TS22 5PZ,54.62861700000000,-1.30685600000000
WOLVISTON DP LTD,TS22 5PZ,54.6285,-1.3057
The Stables (Wynyard) LTD,TS22 5QQ,54.63585100000000,-1.35226600000000
The Peppermill Bistro,TS23 1AB,54.59749400000000,-1.29435200000000
The Porky Pint Ltd,TS23 1HF,54.59260400000000,-1.28959200000000
Synthonia Suites,TS23 1LH,54.5962,-1.2820
LA PORTO ITALIANO LIMITED,TS23 2LT,54.60686300000000,-1.29197600000000
subway,TS23 2ND,54.60751400000000,-1.29258400000000
Li-Wah Restaurant,TS23 2NN,54.60747700000000,-1.29408600000000
The Lion Sports Bar & Grill,TS23 3DF,54.61303700000000,-1.28284200000000
Evolution Grills Ltd,TS23 3TA,54.60653686523440,-1.27927100658417
Cafe Lush,TS23 4EA,54.60137176513670,-1.26648402214050
Cafe bela,TS23 4HN,54.60069700000000,-1.26313700000000
THE THREE HORSESHOES,TS23 4HS,54.61593600000000,-1.25690000000000
Dunelm & Pausa Coffee Shop,TS24 0RN,54.69291700000000,-1.21113900000000
Rosies ,TS24 0UG,54.69189000000000,-1.19853000000000
Thai Village ,TS24 0UG,54.69189000000000,-1.19853000000000
Biancos deli,TS24 0UH,54.69208870000000,-1.19832200000000
Casa del Mar,TS24 0UH,54.69208870000000,-1.19832200000000
Kilimanjaro Hartlepool,TS24 0UH,54.69208870000000,-1.19832200000000
Lock Gates,TS24 0UH,54.69208870000000,-1.19832200000000
Wallis & Co,TS24 0UH,54.69208870000000,-1.19832200000000
Black Olive Hartlepool Ltd,TS24 0UJ,54.6926,-1.1983
Grace ( hartlepool) limited,TS24 0UJ,54.6926,-1.1983
JF Pub Group Ltd,TS24 0UJ,54.6926,-1.1983
Mama marina,TS24 0UJ,54.6926,-1.1983
Portofino Restaurant ,TS24 0XF,54.6886,-1.2030
KFC,TS24 0XR,54.69052700000000,-1.21118500000000
McDonald's Restaurants,TS24 0XR,54.69052700000000,-1.21118500000000
McDonalds Restaurant,TS24 0XR,54.69052700000000,-1.21118500000000
Nandos,TS24 0XR,54.69052600000000,-1.21118400000000
Pizza Hut Restaurant,TS24 0XR,54.69052700000000,-1.21118500000000
KFC,TS24 0XS,54.6875,-1.2062
Mecca Bingo,TS24 0XS,54.68728400000000,-1.20735400000000
Portals Place,TS24 0YB,54.69024500000000,-1.19848400000000
HDI (T/A Sambuca Hartlepool) Ltd,TS24 7DH,54.6862,-1.2067
Big Bamboo Lounge & Prep,TS24 7HD,54.68511200000000,-1.20914900000000
Starbucks,TS24 7LD,54.68020800000000,-1.21092000000000
McDonald's Restaurants,TS24 7RR,54.6836,-1.2131
Galleries ,TS24 7RS,54.68428200000000,-1.21411300000000
McDonalds Restaurant,TS24 7RT,54.68428200000000,-1.21411300000000
Kwicksnax,TS24 7RX,54.68405400000000,-1.21500200000000
TJ Hughes Hartlepool,TS24 7RZ,54.6847,-1.2138
DAISY AND BEAS,TS24 7SA,54.68325805664060,-1.21537399291992
LilyAnne’s Coffee Bar,TS24 7SE,54.68512725830080,-1.21584999561310
Fish Face,TS25 1BS,54.66002200000000,-1.18763900000000
Fizzy Izzy's,TS25 1BS,54.66002200000000,-1.18763900000000
Larry's Lanes,TS25 1BS,54.66002200000000,-1.18763900000000
MATTEOS ,TS25 1BS,54.66002200000000,-1.18763900000000
Youngs Fisheries,TS25 1BS,54.66002200000000,-1.18763900000000
the marine hotel,TS25 1BS,54.66002200000000,-1.18763900000000
Seaton Carew Golf Club,TS25 1DE,54.6572,-1.1861
mayfair centre,TS25 1DE,54.64969635009770,-1.19123697280884
Jump 360 Hartlepool,TS25 1NN,54.66140800000000,-1.20838400000000
McDonald's Restaurants,TS25 1PN,54.67821500000000,-1.20715900000000
McDonalds Restaurant,TS25 1PN,54.67821500000000,-1.20715900000000
Ange&Cheryl's place,TS25 1PX,54.67556400000000,-1.20849700000000
Burger King,TS25 1XJ,54.66574370000000,-1.21000330000000
Starbucks,TS25 1XJ,54.66740036010740,-1.20823705196381
Surfside,TS25 1XN,54.66949900000000,-1.19097000000000
The Hope and Anchor,TS25 2EN,54.64347400000000,-1.23975500000000
Fens Hotel,TS25 2LT,54.65403600000000,-1.23294000000000
welcome cafe,TS25 4HZ,54.6698,-1.2412
The Greenside,TS25 5BQ,54.6706,-1.2183
The Place in the Park,TS26 0BQ,54.68324100000000,-1.23981900000000
the golden lion,TS26 0EN,54.68960100000000,-1.24500600000000
Marco Polo restaurant hartlepool,TS26 8AD,54.68581008911130,-1.21696901321411
Masons Cafe,TS26 8PQ,54.6881,-1.2194
LOAVES&FISHES1960 CO LTD MARY LAMBERT,TS26 9DD,54.68320000000000,-1.21646000000000
Tea at Hart,TS26 9DE,54.68436000000000,-1.21650100000000
Habibi,TS26 9DQ,54.68508130000000,-1.21660810000000
King Johns Tavern,TS26 9HD,54.68461100000000,-1.21779900000000
The Raby Arms,TS27 3AJ,54.70764100000000,-1.27063600000000
White Hart Inn,TS27 3AW,54.70707800000000,-1.27255500000000
The Spotted Cow,TS27 3EF,54.68383000000000,-1.29401900000000
OK Diner Elwick,TS27 3HH,54.65522700000000,-1.30840300000000
Dalton Lodge Ltd,TS27 3HN,54.6689,-1.2990
Parkdean Resorts Ltd,TS27 4BN,54.73309500000000,-1.25924600000000
Hardwicke Hall Manor Hotel  Bar & Restaurant,TS27 4PA,54.74564700000000,-1.30133300000000
The Castle Eden Inn,TS27 4SD,54.72949100000000,-1.34024500000000
prickly pear at the old brewery limited,TS27 4SU,54.73684100000000,-1.35671300000000
Cinnamon Spice Club,TS29 6JQ,54.69572448730470,-1.43341994285584
Buzz Bingo,TS3 6HB,54.56717400000000,-1.21155700000000
Elior UK at Pennyman House,TS3 6LB,54.57105700000000,-1.21443600000000
The Prickly Pear Bistro,TS3 7SF,54.55876500000000,-1.20101800000000
McDonalds,TS3 8AG,54.57510100000000,-1.20622100000000
Subway fleetpoint,TS3 8AG,54.57510100000000,-1.20622100000000
Starbucks,TS3 8AL,54.57070000000000,-1.20253300000000
Subway,TS4 2AF,54.57417678833010,-1.22538805007935
McDonalds,TS4 2AG,54.57394000000000,-1.22395600000000
Pizza Hut Restaurant,TS4 2JQ,54.56615100000000,-1.22292900000000
Starr and Style TA Bon Appetit,TS4 3AF,54.55402300000000,-1.21524300000000
VINE,TS5 5PH,54.55630111694340,-1.24714505672455
Cafe Central Park,TS5 6AA,54.56510100000000,-1.24163100000000
Fellinis Restaurant,TS5 6AA,54.56510100000000,-1.24163100000000
Delhi lounge m ltd,TS5 6AB,54.56432000000000,-1.24183100000000
subway,TS5 6DZ,54.55736600000000,-1.24782100000000
the yellow rose,TS5 6EN,54.56100300000000,-1.24883600000000
The Copperstone,TS5 6HR,54.56102200000000,-1.24187700000000
Olivello Limited ,TS5 6HX,54.56054500000000,-1.24317000000000
Persian Cottage ltd,TS5 6JQ,54.56150100000000,-1.24367800000000
Snax coffee shop,TS5 6QN,54.55709200000000,-1.23426500000000
The Smith's Dock Inn,TS6 0JF,54.5565,-1.1647
Minfika,TS6 0LN,54.55626200000000,-1.15539100000000
The Coffee Shed,TS6 0NH,54.55734500000000,-1.15601800000000
Mike Hind Fitness Ltd,TS6 6PT,54.5746,-1.1883
Compass Group UK & Ireland Ltd,TS6 6UD,54.60209800000000,-1.14032500000000
Costa Coffee,TS6 6UX,54.57107200000000,-1.18148800000000
Iron Co Coffee House,TS6 6XH,54.57615300000000,-1.18859600000000
The peppermill cafe (North),TS6 8BL,54.56539500000000,-1.13671900000000
The Van (wilton),TS6 8JB,54.5750,-1.1013
Elior UK,TS6 9GA,54.56124300000000,-1.14045700000000
The Kitchen Eston,TS6 9HF,54.55751400000000,-1.14426200000000
The Beacon,TS6 9PP,54.56480300000000,-1.14692400000000
