name,id,postcode,lat,lon
diamondback terrapin and massasauga,1920048,BT81 7RT,54.677354000000000,-7.525650000000000
milk snake and Prion,1938420,BT93 8BG,54.551523000000000,-7.831619000000000
Mouse and Grouse,1747613,BT93 0FH,54.554658000000000,-7.606192000000000
sea snake and kabaragoya,1745125,BT81 7ED,54.713730000000000,-7.593853000000000
racer and Philippine hawk-owl,1745212,BT81 7NU,54.708963000000000,-7.506943000000000
Towhee and monitor,1747664,BT93 1EZ,54.600185000000000,-7.709652000000000
rat snake and Grouse,1932838,BT93 0LH,54.552467000000000,-7.680641000000000
milk snake and carpet snake,1748166,BT93 8AX,54.555504000000000,-7.821342000000000
brown snake and caiman,1735673,BT78 4SA,54.616227000000000,-7.491208000000000
lizard and Ground sloth,1745261,BT81 7RH,54.677215000000000,-7.552888000000000
sidewinder and Mockingbird,1745180,BT81 7JY,54.737643000000000,-7.588584000000000
Dorcopsis and Tree warbler,1745189,BT81 7LJ,54.728143000000000,-7.639867000000000
bicycle lizard and Towhee,1745158,BT81 7HU,54.722015000000000,-7.586055000000000
tiger snake and Rat,1745113,BT81 7DF,54.710967000000000,-7.600506000000000
Francolin and tuatara,1745211,BT81 7NT,54.706529000000000,-7.512063000000000
frilled lizard and Parrotbill,1932888,BT93 1FZ,54.557651000000000,-7.691374000000000
thorny devil and massasauga,1745324,BT81 7UX,54.710377000000000,-7.682534000000000
Tahr and water snake,1745240,BT81 7QE,54.685922000000000,-7.573897000000000
sand viper and Greenbul,1745290,BT81 7SZ,54.682867000000000,-7.633648000000000
tree snake and Philippine hawk-owl,1699389,BT81 7AZ,54.707224000000000,-7.590985000000000
Grosbeak and Snipe,1748173,BT93 8BN,54.560387000000000,-7.806356000000000
elapid and carpet snake,1745132,BT81 7EP,54.658702000000000,-7.667613000000000
Francolin and dugite,1703377,BT81 7SN,54.609329000000000,-7.670245000000000
