name,postcode,lat,lon
ringhals and agama,BT34 4FJ,54.057563000000000,-6.013327000000000
taipan and leathery turtle,BT34 4JB,54.110839000000000,-6.006834000000000
brown snake and American sparrow,BT34 4JS,54.044327000000000,-6.032648000000000
massasauga and agama,BT34 4LJ,54.029658000000000,-6.059806000000000
Polecat and python,BT34 4NN,54.074518000000000,-5.973953000000000
Masked owl and agama,BT34 4NR,54.070582000000000,-5.989103000000000
blue racer and flying lizard,BT34 4PQ,54.084965000000000,-5.949038000000000
Wallaby and Rat,BT34 4SH,54.065291000000000,-6.066470000000000
tree snake and Dorcopsis,BT34 4TS,54.107955000000000,-5.897056000000000
Cuscus and horned toad,BT34 4TT,54.107829000000000,-5.896254000000000
bushmaster and horned viper,BT34 4UD,54.113154000000000,-5.918586000000000
Fish eagle and Mouse,BT34 4WT,54.044408000000000,-6.035162000000000
Shearwater and Tree warbler,BT34 4XD,54.105068000000000,-5.922969000000000
iguana and Armadillo,BT34 4XJ,54.105580000000000,-5.958493000000000
tortoise and Pratincole,BT34 4XU,54.065308000000000,-6.012959000000000
sand lizard and Prion,BT34 4XW,54.080377000000000,-5.954259000000000
jew lizard and whip snake,BT34 4YY,54.055846000000000,-6.005681000000000
death adder and puff adder,BT34 4ZA,54.109452000000000,-5.934232000000000
Siskin and White ibis,BT34 4ZR,54.080133000000000,-5.982985000000000
