name,id,postcode,lat,lon
krait and indigo snake,16691,YO15 1NX,54.115622933082300,-0.121512532540793
thorny devil and Ice seal,16437,YO15 2LX,54.093986839751700,-0.177649040784317
Eagle and worm lizard,16438,YO15 2LY,54.094611565868600,-0.178539192156321
bandy-bandy and alligator,16531,YO15 1HJ,54.131129649171200,-0.178881201153007
Kangaroo and gavial,16022,YO16 7HG,54.098959458577100,-0.192663720942505
Hawk and Ice seal,16795,YO15 2HB,54.088610000000000,-0.189368000000000
grass snake and amethystine python,16530,YO15 1HH,54.132192000000000,-0.177136000000000
Ground sloth and agama,15878,YO16 6XF,54.126995928195600,-0.179552241710755
B and rock snake,16529,YO15 1HG,54.131659447315600,-0.176470234969522
diamondback turtle and Mole,16559,YO15 3ET,54.083112000000000,-0.196766426311096
tuatara and anaconda,16190,YO16 6GZ,54.103785976259500,-0.189639428759538
Nukupuʻu and Mamo,15636,YO16 7JW,54.091840476140500,-0.196872461397472
Tattler and gaboon viper,16398,YO16 4LH,54.087135813735800,-0.197840943481165
asp and Prion,16769,YO15 2DL,54.082694474566900,-0.191795952999046
Skunk and gopher snake,16183,YO16 6GR,54.107042616211800,-0.182171000000000
Nukupuʻu and Songlark,15898,YO16 6YH,54.105113377769900,-0.178721346796457
Bronzewing pigeon and horned viper,16700,YO15 1PH,54.111487996489300,-0.126702158917449
mud turtle and River dolphin,16694,YO15 1PA,54.117032577771800,-0.121984305828314
Perching duck and Greenbul,15627,YO16 7JF,54.091542055822700,-0.191961665908834
cobra de capello and Vole,16394,YO16 4LB,54.086658000000000,-0.199447023333893
Pheasant and water snake,16195,YO16 6HF,54.105454905490400,-0.198423241518550
grass snake and Fox,16806,YO15 2HZ,54.087203828779300,-0.184429084040567
Mink and gecko,16470,YO15 2QP,54.085739608293000,-0.187474365472951
Puffleg and cerastes,16211,YO16 6QU,54.092991418193500,-0.184344554586273
kabaragoya and dukite,16517,YO15 3BJ,54.082106875284700,-0.195765710906337
garter snake and Meadowlark,16323,YO16 6RR,54.106522711890600,-0.181565942524700
Dorcopsis and Badger,16021,YO16 7HF,54.099515194278200,-0.193756021631643
Rabbit and Chipmunk,16578,YO15 3HZ,54.081829496820400,-0.196450395014623
frill-necked lizard and diamond snake,15885,YO16 6XQ,54.127266482340600,-0.196329182980774
sand lizard and king snake,16723,YO15 1QP,54.116554752473000,-0.123046344818210
horned viper and snapping turtle,16560,YO15 3EU,54.083088852246600,-0.197358000000000
Linsang and diamondback terrapin,16455,YO15 2PH,54.085831054405500,-0.185788586433412
indigo snake and Parakeet,16743,YO15 1YT,54.084436000000000,-0.194603466071103
Booted eagles and Stint,16639,YO15 1JG,54.136013000000000,-0.149475000000000
Tit-tyrant and python,15847,YO16 6TU,54.099957078847900,-0.177754347596500
Linsang and Gull,15858,YO16 6UH,54.099816708372300,-0.179764041620999
cayman and boomslang,16789,YO15 2ET,54.086370000000000,-0.187456755410100
Chickadee and Ice seal,16449,YO15 2NX,54.082207890328000,-0.188132774815412
Mamo and Petrel,16433,YO15 2LS,54.091728033186600,-0.178501000000000
flying dragon and Herring gull,15983,YO16 7DL,54.098638562575700,-0.193442360266068
