id,postcode,lat,lon
PPL,NORTHACTON,51.5226,-0.2585
PPLA2,NORTHALLERTON,54.3390,-1.4324
PPL,NORTHAM,51.0333,-4.2167
PPLQ,NORTHAMERIC,53.4941,-1.6961
ADM3,NORTHAMPTON,52.2344,-0.8812
ADM2,NORTHAMPTONSHIRE,52.2500,-0.8333
ADM4,NORTHANDMIDDLELITTLETON,52.1239,-1.8709
ADM3,NORTHANDSOUTHANSTON,53.3502,-1.2068
PPL,NORTHASTON,51.9558,-1.3088
PPL,NORTHAW,51.7034,-0.1479
ADM4,NORTHAWANDCUFFLEY,51.7067,-0.1389
ADM2,NORTHAYRSHIRE,55.6969,-4.7337
PPL,NORTHBADDESLEY,50.9774,-1.4455
PPL,NORTHBALLACHULISH,56.6942,-5.1822
PPL,NORTHBARROW,51.0625,-2.5660
PPL,NORTHBARSHAM,52.8787,0.8423
ADM3,NORTHBEDLINGTON,55.1568,-1.5954
PPL,NORTHBERSTED,50.8005,-0.6879
PPL,NORTHBERWICK,56.0583,-2.7229
PPL,NORTHBOARHUNT,50.8892,-1.1470
PPLA3,NORTHBOROUGH,52.6587,-0.2982
PPLX,NORTHBOURNE,50.7691,-1.8919
PPL,NORTHBOVEY,50.6416,-3.7834
PPLA3,NORTHBRADLEY,51.2950,-2.2047
PPL,NORTHBREWHAM,51.1311,-2.3986
PPL,NORTHBURLINGHAM,52.6362,1.4963
PPL,NORTHBURTON,54.1356,-0.3409
PPL,NORTHCADBURY,51.0428,-2.5231
PPLX,NORTHCAMP,51.2745,-0.7512
PPL,NORTHCARLTON,53.2870,-0.5833
PPLA3,NORTHCAVE,53.7801,-0.6496
PPL,NORTHCERNEY,51.7728,-1.9749
PPL,NORTHCHAPEL,51.0569,-0.6436
PPL,NORTHCHARLTON,55.5000,-1.7358
PPLX,NORTHCHEAM,51.3714,-0.2302
PPL,NORTHCHERITON,51.0300,-2.4437
PPL,NORTHCHURCH,51.7711,-0.5852
ADM4,NORTHCLAINES,52.2336,-2.2087
PPL,NORTHCLIFFE,53.8167,-0.6667
PPL,NORTHCLIFTON,53.2399,-0.7666
PPL,NORTHCOATES,53.4836,0.0315
ADM4,NORTHCOCKERINGTON,53.3982,0.0704
PPL,NORTHCOLLINGHAM,53.1500,-0.7500
PPL,NORTHCOMMON,52.3413,0.8986
PPL,NORTHCORNELLY,51.5228,-3.7073
PPLX,NORTHCOTE,51.4577,-0.1635
ADM4,NORTHCOTES,53.4973,0.0568
PPL,NORTHCOTT,50.7000,-4.3500
PPL,NORTHCOUNTRY,50.2498,-5.2370
PPL,NORTHCOVE,52.4464,1.6290
PPL,NORTHCOWTON,54.4305,-1.5631
PPL,NORTHCRAWLEY,52.0930,-0.6486
PPL,NORTHCREAKE,52.9090,0.7546
PPL,NORTHCROSSAIG,55.7000,-5.4500
PPL,NORTHCURRY,51.0225,-2.9717
PPL,NORTHDALTON,53.9572,-0.5759
ADM4,NORTHDEIGHTON,53.9606,-1.3997
PPL,NORTHDELL,58.4683,-6.2934
ADM3,NORTHDEVONDISTRICT,51.0611,-3.9273
ADM3,NORTHDORSETDISTRICT,50.9193,-2.2588
ADM2H,NORTHDOWNDISTRICT,54.6605,-5.6683
PPL,NORTHDUFFIELD,53.8258,-0.9641
ADM3,NORTHEASTDERBYSHIRE,53.2000,-1.5000
ADM2,NORTHEASTLINCOLNSHIRE,53.5333,-0.0833
PPL,NORTHELKINGTON,53.3935,-0.0695
PPL,NORTHELMHAM,52.7464,0.9461
PPLA3,NORTHELMSALL,53.6088,-1.2821
PPLX,NORTHEND,51.4879,-0.2059
PPL,NORTHENDEN,53.4080,-2.2578
ADMD,NORTHERNENGLAND,54.9167,-2.3333
ADM1,NORTHERNIRELAND,54.5000,-6.5000
PPL,NORTHERRADALE,57.7621,-5.7825
PPL,NORTHFAMBRIDGE,51.6428,0.6751
PPLA3,NORTHFERRIBY,53.7212,-0.5052
PPLX,NORTHFIELD,51.4984,-0.3152
PPL,NORTHFINCHLEY,51.6077,-0.1660
PPL,NORTHFLEET,51.4463,0.3255
PPL,NORTHFRODINGHAM,53.9667,-0.4833
PPL,NORTHGALSON,58.4420,-6.3769
PPL,NORTHGATE,51.1209,-0.1813
ADM3,NORTHGOSFORTH,55.0255,-1.6173
PPLX,NORTHGREENFORD,51.5504,-0.3329
PPL,NORTHGRIMSTON,54.1010,-0.7121
PPL,NORTHHAYLING,50.8240,-0.9636
PPL,NORTHHEATH,50.9830,-0.4870
ADM3,NORTHHERTFORDSHIREDISTRICT,51.9564,-0.1644
PPLL,NORTHHESSARYTOR,50.5503,-4.0083
PPLA3,NORTHHILL,50.5500,-4.4333
PPL,NORTHHINKSEY,51.7501,-1.2920
PPL,NORTHHOLMWOOD,51.2122,-0.3261
ADM4,NORTHHORSHAM,51.0900,-0.3028
PPL,NORTHHUISH,50.3945,-3.8136
PPL,NORTHHYKEHAM,53.1831,-0.5877
PPL,NORTHIAM,50.9944,0.6003
PPL,NORTHILL,52.1056,-0.3230
PPL,NORTHINGTON,51.1328,-1.1891
PPL,NORTHKELSEY,53.5034,-0.4254
PPLX,NORTHKENSINGTON,51.4954,-0.1780
PPL,NORTHKESSOCK,57.5025,-4.2479
ADM3,NORTHKESTEVEN,53.1167,-0.6333
PPL,NORTHKILLINGHOLME,53.6382,-0.2870
PPL,NORTHKILVINGTON,54.2610,-1.3506
PPL,NORTHKILWORTH,52.4442,-1.0958
PPL,NORTHKYME,53.0593,-0.2836
ADM2,NORTHLANARKSHIRE,55.8667,-3.9167
PPL,NORTHLEACH,51.8299,-1.8371
ADM4,NORTHLEACHWITHEASTINGTON,51.8207,-1.8279
PPL,NORTHLEIGH,51.8143,-1.4414
PPL,NORTHLEVERTON,53.3305,-0.8226
ADM4,NORTHLEVERTONWITHHABBLESTHORPE,53.3290,-0.8112
PPL,NORTHLEW,50.7723,-4.1229
ADM2,NORTHLINCOLNSHIRE,53.5833,-0.5000
ADM3,NORTHLODGE,54.8737,-1.5575
PPLX,NORTHLONDON,51.5532,-0.1226
PPL,NORTHLOPHAM,52.4035,0.9917
ADMD,NORTHLORN,56.5833,-5.2000
PPLA3,NORTHLUFFENHAM,52.6211,-0.6199
PPL,NORTHMARDEN,50.9394,-0.8506
PPL,NORTHMARSTON,51.8990,-0.8770
ADM4,NORTHMEOLS,53.6851,-2.9180
PPL,NORTHMIDDLETON,55.8189,-3.0273
ADMD,NORTHMIDLAND,52.9333,-0.5000
PPL,NORTHMOLTON,51.0539,-3.7991
PPL,NORTHMOOR,51.7229,-1.3947
PPL,NORTHMOORGREENORMOORLAND,51.0842,-2.9489
PPL,NORTHMORETON,51.6013,-1.1913
PPL,NORTHMUNDHAM,50.8139,-0.7587
PPL,NORTHMUSKHAM,53.1199,-0.8109
PPL,NORTHMYMMS,51.7140,-0.2124
PPL,NORTHNEWBALD,53.8167,-0.6167
ADM4,NORTHNEWINGTON,52.0585,-1.3942
ADM3,NORTHNEWNTON,51.3221,-1.8319
PPL,NORTHNEWTON,51.0740,-3.0021
PPL,NORTHNIBLEY,51.6606,-2.3756
ADM3,NORTHNORFOLKDISTRICT,52.8358,1.1936
PPL,NORTHOCKENDON,51.5420,0.3001
PPL,NORTHOLT,51.5485,-0.3678
PPLX,NORTHOLTMANDEVILLE,51.5485,-0.3717
PPLX,NORTHOLTWESTEND,51.5383,-0.3941
PPL,NORTHOP,53.2069,-3.1328
ADM3,NORTHOPHALL,53.2042,-3.0965
PPL,NORTHORMSBY,53.4199,-0.0614
PPL,NORTHORPE,53.4631,-0.6535
ADM4,NORTHOTTERINGTON,54.3099,-1.4394
PPL,NORTHOWERSBY,53.4369,-0.4027
PPLX,NORTHPARKESTATE,52.0914,-4.6479
ADM4,NORTHPERROTT,50.8780,-2.7462
PPL,NORTHPETHERTON,51.0924,-3.0155
PPL,NORTHPETHERWIN,50.6769,-4.4335
PPL,NORTHPICKENHAM,52.6274,0.7514
ADM4,NORTHPIDDLE,52.1885,-2.0519
ADM4,NORTHPOORTON,50.7817,-2.6815
PPLX,NORTHQUARTER,53.4827,-2.2358
PPL,NORTHQUEENSFERRY,56.0090,-3.3913
ADM4,NORTHRAUCEBY,53.0130,-0.4913
PPL,NORTHREPPS,52.9042,1.3372
PPLX,NORTHRICHMOND,51.4671,-0.2992
ADMD,NORTHRIDING,54.3333,-1.4167
ADM4,NORTHRIGTON,53.9449,-1.5740
PPL,NORTHRODE,53.1956,-2.1675
PPL,NORTHROE,60.5873,-1.3356
PPL,NORTHRUNCTON,52.7170,0.4340
PPL,NORTHSCARLE,53.1930,-0.7287
PPL,NORTHSEATON,55.1739,-1.5418
PPL,NORTHSHIELDS,55.0165,-1.4492
PPL,NORTHSOMERCOTES,53.4457,0.1410
ADM2,NORTHSOMERSET,51.3333,-2.8333
ADM4,NORTHSTAINLEYWITHSLENINGFORD,54.1755,-1.5589
PPLX,NORTHSTIFFORD,51.4969,0.3033
PPL,NORTHSTOKE,51.5718,-1.1223
PPL,NORTHSTONEHAM,50.9532,-1.3704
PPL,NORTHSTOWE,52.2877,0.0581
PPL,NORTHSUNDERLAND,55.5769,-1.6644
PPL,NORTHTAMERTON,50.7499,-4.3940
PPLL,NORTHTARBOTHILL,57.2159,-2.0788
PPL,NORTHTAWTON,50.7997,-3.8976
PPL,NORTHTHORESBY,53.4665,-0.0558
PPL,NORTHTOLSTA,58.3333,-6.2167
PPL,NORTHTON,57.7965,-7.0623
PPL,NORTHTUDDENHAM,52.6861,1.0149
PPL,NORTHTULLICH,56.2985,-5.0905
ADM3,NORTHTURTON,53.6565,-2.4475
ADM2,NORTHUMBERLAND,55.2500,-2.0000
PPLX,NORTHUMBERLANDHEATH,51.4749,0.1522
PPLX,NORTHUMBERLANDPARK,51.6042,-0.0598
ADMD,NORTHUMBRIA,55.0000,-2.5000
PPL,NORTHWALSHAM,52.8212,1.3875
PPL,NORTHWALTHAM,51.2125,-1.1961
PPL,NORTHWARNBOROUGH,51.2608,-0.9537
ADM3,NORTHWARWICKSHIREDISTRICT,52.5610,-1.6228
PPL,NORTHWATFORD,51.6807,-0.3945
ADM4,NORTHWAY,52.0059,-2.1162
PPL,NORTHWEALD,51.7174,0.1687
ADM4,NORTHWEALDBASSETT,51.7368,0.1439
ADM3,NORTHWESTLEICESTERSHIRE,52.7321,-1.4317
PPLX,NORTHWESTLONDON,51.5585,-0.2383
PPL,NORTHWHEATLEY,53.3623,-0.8563
PPL,NORTHWICH,53.2588,-2.5202
PPLX,NORTHWICK,52.2174,-2.2325
PPLX,NORTHWICKPARK,51.5690,-0.3180
PPL,NORTHWIDCOMBE,51.3233,-2.6103
PPL,NORTHWILLINGHAM,53.3788,-0.2544
PPL,NORTHWINGFIELD,53.1820,-1.3887
PPL,NORTHWITHAM,52.7861,-0.6266
PPL,NORTHWOLD,52.5445,0.5843
PPLA3,NORTHWOOD,50.7410,-1.3119
ADM4,NORTHWOODANDTINKERSLEY,53.1786,-1.6007
PPL,NORTHWOODGREEN,51.8445,-2.4092
PPLX,NORTHWOODHILLS,51.5988,-0.4096
PPL,NORTHWOOLWICH,51.4999,0.0631
PPL,NORTHWOOTTON,52.7833,0.4333
PPLA3,NORTHWRAXALL,51.4734,-2.2630
ADM2,NORTHYORKSHIRE,54.1667,-1.5000
PPL,NORTON,54.1330,-0.7850
ADM4,NORTONANDLENCHWICK,52.1279,-1.9497
PPL,NORTONBAVANT,51.1870,-2.1306
PPL,NORTONBRIDGE,52.8670,-2.1921
ADM4,NORTONBUCKLANDANDSTONE,51.3126,0.8359
PPL,NORTONCANES,52.6714,-1.9626
PPL,NORTONCANON,52.1219,-2.9080
ADM4,NORTONCONYERS,54.1841,-1.5241
PPL,NORTONDISNEY,53.1215,-0.6729
PPL,NORTONFITZWARREN,51.0266,-3.1501
PPL,NORTONHAWKFIELD,51.3824,-2.5918
PPL,NORTONHEATH,51.7167,0.3167
PPL,NORTONINHALES,52.9441,-2.4431
ADM4,NORTONJUXTAKEMPSEY,52.1560,-2.1705
PPL,NORTONJUXTATWYCROSS,52.6587,-1.5236
ADM4,NORTONLECLAY,54.1340,-1.3912
PPL,NORTONLINDSEY,52.2659,-1.6701
PPL,NORTONMALREWARD,51.3879,-2.5741
PPL,NORTONMANDEVILLE,51.7190,0.2853
ADM4,NORTONONDERWENT,54.1251,-0.7930
ADM3,NORTONRADSTOCK,51.2893,-2.4619
PPL,NORTONSTPHILIP,51.3022,-2.3247
ADM4,NORTONSUBCOURSE,52.5428,1.5601
ADM4,NORTONSUBHAMDON,50.9377,-2.7474
