name,postcode,lat,lon
Puffleg and Black jay,SA45 9PB,52.213903995762700,-4.362570109977970
Puffleg and Fulmarine petrel,SA48 8RD,52.204558824580900,-4.131913324169120
Tit-tyrant and Mole,SA40 9TJ,52.141566000000000,-4.241469000000000
Nukupuʻu and Marsh harrier,SA46 0AL,52.241698068198300,-4.257921519405550
Prion and Masked owl,SA46 0EG,52.233595000000000,-4.244388000000000
Chicken and Crow,SA44 6LP,52.179693960896400,-4.367221295007380
Mamo and Stint,SY23 5BJ,52.303484000000000,-4.144083499450970
Dorcopsis and Hawaiian honeycreeper,SA48 8BP,52.211084222496800,-4.195782426740210
Triller and Bunting,SY23 5EH,52.283391000000000,-4.109438000000000
Armadillo and Capuchin,SA44 4XA,52.138232000000000,-4.303218000000000
Macaw and B,SA46 0DX,52.240615397364500,-4.260927883650860
Marmoset and Hawaiian honeycreeper,SA44 6JQ,52.165572880706700,-4.337634566341280
Chipmunk and Herring gull,SA46 0BJ,52.240621000000000,-4.265850000000000
Myna and Towhee,SA47 0NW,52.193188688494100,-4.310401000000000
Kangaroo and Gull,SA46 0EB,52.235432538281000,-4.259229076166480
Condor and River dolphin,SA46 0EN,52.240640672936900,-4.261485777743310
Nukupuʻu and Cloud rat,SY23 5AB,52.306186056181500,-4.143761927253080
Dorcopsis and Scimitar babbler,SY23 5JQ,52.251622609318300,-4.178181529499950
Parakeet and Kite,SA45 9TS,52.202607180971900,-4.376122976295220
Thicketbird and Tree warbler,SA44 6BL,52.173603191079200,-4.370949124657070
Vole and Mamo,SY23 5BU,52.303226000000000,-4.151818000000000
Thrasher and Masked owl,SA47 0NG,52.193070548046000,-4.309374401023350
Tahr and Thrasher,SA44 6LQ,52.189301000000000,-4.405772000000000
Ice seal and Parakeet,SY23 5EJ,52.277221424598500,-4.093782339880590
Fulmarine petrel and Wallaby,SA44 6BG,52.151574108292000,-4.364573749622270
Egret and Parrotlet,SA47 0PP,52.193700617541000,-4.309802143323330
Bunting and Moluccan boobook,SA44 6NL,52.187974195964300,-4.352928366774210
Diving bird and Night heron,SA46 0LW,52.252326448060500,-4.230037711448480
Rat and Rat,SA47 0NR,52.193180499785000,-4.312482108373770
Fulmarine petrel and Kestrel,SA44 4XP,52.143745516237900,-4.323234135466440
Greenbul and Puffleg,SA46 0AU,52.243162713064600,-4.260325004215430
Gull and Jerboa,SA48 7PS,52.194594061791800,-4.199095642084040
Mink and Meadowlark,SA48 8BG,52.172640406385900,-4.146122799811180
Parrotlet and Thrasher,SA45 9RS,52.186765000000000,-4.394282000000000
Wallaby and Cuscus,SA46 0AF,52.240989000000000,-4.257929000000000
Black cockatoo and Vulture,SA48 8DP,52.210482404700000,-4.195694826700000
Mole and Duck,SA47 0PN,52.166090710024500,-4.307362000000000
Duck and Jerboa,SA44 6LE,52.170054000000000,-4.384712000000000
Dolphin and Lemming,SA48 7NA,52.137263226611700,-4.160539772113710
Chipmunk and Egret,SY23 5JY,52.270837414950100,-4.165038023356950
Piping shrike and Eagle,SA45 9SS,52.199468696043900,-4.326520904479780
Crow and Guillemot,SA46 0BG,52.241722333057800,-4.263225311525300
Wallaby and Meadowlark,SA46 0JN,52.243309560900000,-4.255737000000000
Herring gull and Black jay,SA47 0NX,52.197491667780000,-4.320066649729130
Tit-tyrant and Grouse,SA44 6DN,52.163608000000000,-4.408948000000000
Kestrel and Maya,SA46 0DG,52.241637762597200,-4.259192826045540
Minke whale and Snipe,SA48 7SH,52.204362910237800,-4.191177358170750
Quetzal and Mouse,SY23 5BN,52.304575137902000,-4.144828216086090
Dolphin and Petrel,SA48 8BN,52.161044693394900,-4.103996905429040
Flameback and Polecat,SA48 8AD,52.179137617299900,-4.154231927117300
Thrasher and Old World warbler,SA47 0RQ,52.194618361083000,-4.303338249507570
Treepie and Stint,SA44 6HU,52.134210000000000,-4.390468000000000
Skunk and Fulmarine petrel,SA46 0JL,52.243373251606800,-4.254490960263200
Buzzard and Elephant,SA48 7RF,52.213488490079800,-4.234542000000000
Kākāriki and Capuchin,SY23 5DJ,52.306663041090600,-4.157559292081190
Condor and Prion,SA46 0DD,52.240669486787800,-4.258103646246760
Perching duck and Badger,SA48 8RG,52.208983054382100,-4.164487385178080
Warbler and Bronzewing pigeon,SA45 9NX,52.214740735521700,-4.360522000000000
Kestrel and Masked owl,SA44 6NA,52.175713463737100,-4.349984617892160
Guillemot and Piping shrike,SA44 6JW,52.138459893249400,-4.364741034699710
Grosbeak and Buzzard,SA46 0HN,52.217995372843400,-4.287301929587030
B and Black cockatoo,SY23 5LQ,52.269518430510300,-4.115800069361330
Dorcopsis and Petrel,SA45 9TL,52.203291000000000,-4.353299000000000
Mouse and Macaw,SY23 5HP,52.283937000000000,-4.182303000000000
Mouse and Gull,SA47 0RG,52.193893461340300,-4.301778998059520
Marmoset and Egret,SA46 0HA,52.223160825422100,-4.272518000000000
Jackal and Duck,SA47 0NJ,52.195276485938000,-4.310147266255570
Wallaby and Grosbeak,SA44 6HF,52.144537462847900,-4.404804948690180
Zebra and Civet,SA45 9PJ,52.216763129455800,-4.361243267707720
Rabbit and Tit-tyrant,SA45 9TQ,52.207698000000000,-4.355508000000000
Prion and Maya,SA44 6NJ,52.194288934239700,-4.358667000000000
Bronzewing pigeon and Chickadee,SA46 0EF,52.222225217174800,-4.238367736536180
Mink and Nukupuʻu,SA45 9PT,52.212592658619400,-4.358899396876460
Snipe and Moluccan boobook,SA44 6EY,52.162088171875800,-4.406248610938070
Recurvebill and Marmoset,SA48 7SF,52.207938268094400,-4.196681087116930
Petrel and American sparrow,SA48 7RN,52.159203450238800,-4.264532322454080
Flameback and Grouse,SA44 6HX,52.136982000000000,-4.381016000000000
Stilt and Kestrel,SA45 9TT,52.204417046200000,-4.371053759400000
Chickadee and Polecat,SA47 0ND,52.194258895273200,-4.307007034320450
Pratincole and Booted eagles,SA48 7NQ,52.152290000000000,-4.155142000000000
Grouse and White ibis,SA48 7PH,52.182468980092500,-4.185273189212840
Quetzal and Scimitar babbler,SA47 0NA,52.193944535813600,-4.312038911725240
Polecat and Grouse,SA47 0RS,52.208573000000000,-4.275196000000000
American sparrow and Moluccan boobook,SY23 5ED,52.294544000000000,-4.130793000000000
Rabbit and Recurvebill,SA47 0RX,52.194793817743400,-4.258937507389250
Greenbul and B,SA46 0DA,52.243285000000000,-4.259174000000000
Logrunners and Buzzard,SA47 0NN,52.193928000000000,-4.308833000000000
