name,postcode,lat,lon
Bubbleton Farm Kitchen,SA70 7RY,51.6579,-4.7509
Whitewell Holiday Park,SA70 7RY,51.6579,-4.7509
Celtic Haven Limited - Waves restaurant,SA70 7SG,51.6513,-4.7692
Manorbier Country Park ,SA70 7SN,51.6582,-4.7937
Marthas Kitchen,SA70 7SN,51.6582,-4.7938
The Potting Shed,SA70 7SN,51.6582,-4.7937
Tudor Lodge,SA70 7SS,51.6572,-4.8054
Castlemead Restaurant with Rooms ,SA70 7TA,51.6456,-4.7968
YHA Manorbier,SA70 7TT,51.6425,-4.7826
parsonage farm inn,SA70 8LR,51.6778,-4.7745
The Sun Inn,SA70 8LS,51.6767,-4.7746
The Swanlake Inn,SA70 8QE,51.6559,-4.8108
Dinosaur Park Ltd,SA70 8RB,51.6864,-4.7525
New Minerton Leisure Park ,SA70 8RD,51.6933,-4.7533
MANOR WILDLIFE PARK,SA70 8RJ,51.6885,-4.7634
Browns Cafe,SA71 4DA,51.6752,-4.9147
Foot at Williams,SA71 4NP,51.6760,-4.9166
the royal george,SA71 4NT,51.6767,-4.9185
The Globe Hotel Angle Ltd,SA71 5AT,51.6844,-5.0902
Freshwater Inn,SA71 5LE,51.6496,-4.8613
DIAL INN,SA71 5NU,51.6686,-4.8706
Bubbling Cauldrons Cabin Cafe ,SA71 5PB,51.6693,-4.8666
Paternoster Farm ,SA71 5RX,51.6607,-4.9843
Cheeky chimps,SA72 4RS,51.6925,-4.9252
The Brewery Inn Cosheston Ltd,SA72 4UD,51.6962,-4.8858
mcdonalds,SA72 6BP,51.6937,-4.9325
Cwtch coffee,SA72 6BT,51.6938,-4.9406
Cafe No 9,SA72 6DW,51.6951,-4.9392
The Helm,SA72 6JN,51.6938,-4.9478
The Dolphin hotel ,SA72 6XH,51.6916,-4.9485
