name,postcode,lat,lon
Cadwaladers,SA70 7AD,51.67157800000000,-4.69830900000000
Qube Restaurant ,SA70 7AD,51.67157800000000,-4.69830900000000
BUDDHA BUDDHA,SA70 7AJ,51.67145156860350,-4.69870805740356
CAFFI LLEW,SA70 7AJ,51.67145200000000,-4.69870700000000
The Baytree Restaurant,SA70 7AJ,51.67145200000000,-4.69870700000000
Fat Seagul,SA70 7AS,51.67125300000000,-4.69759600000000
Clarence Hotel,SA70 7DU,51.66896100000000,-4.70146600000000
Giltar Hotel Ltd,SA70 7DU,51.66896100000000,-4.70146600000000
The Belgrave Hotel,SA70 7DU,51.66896100000000,-4.70146600000000
BLUEBERRY'S,SA70 7EU,51.67266800000000,-4.70099200000000
The Cove ,SA70 7HD,51.67215347290040,-4.69995021820068
The Mooring,SA70 7HD,51.67215200000000,-4.69994900000000
Billycan ,SA70 7HS,51.67103195190430,-4.69984006881714
D.Fecci and sons,SA70 7HS,51.67103100000000,-4.69983900000000
The Lounge 2,SA70 7JB,51.67122650146480,-4.69999599456787
CWLBOX ,SA70 7JD,51.6721,-4.7012
Indie burger,SA70 7JD,51.67213100000000,-4.70125000000000
TOP JOES TENBY,SA70 7JD,51.6721,-4.7012
Tenby United Rugby Football Club,SA70 7JD,51.67213100000000,-4.70125000000000
The Fuchsia Caffe,SA70 7JD,51.67213100000000,-4.70125000000000
The Paddock Inn ,SA70 7NR,51.66661500000000,-4.72510300000000
New Overlander Inn,SA70 7PS,51.65882700000000,-4.72239400000000
Cross inn,SA70 7PU,51.65949400000000,-4.72347500000000
Trefloyne,SA70 7RH,51.66434500000000,-4.73686900000000
Tenby Leisure Centre Cafe,SA70 8DU,51.67163700000000,-4.71953200000000
