name,postcode,lat,lon
Downham Hall,CM11 1LG,51.6285,0.5008
The White Horse,CM11 1NA,51.6359,0.4726
Beauvoir Arms,CM11 1QH,51.6388,0.4875
Oliver's Italian,CM11 2DG,51.6269,0.4269
Duke of York,CM11 2PR,51.6127,0.4345
copperfield bakeries ltd,CM11 2RB,51.6136,0.4301
The magic mushroom restaurant ,CM11 2UD,51.6012,0.4455
Tiptree Tea Rooms at Barleylands,CM11 2UF,51.5982,0.4460
The shepherd and dog public house,CM11 2YA,51.6035,0.4730
Pizza Hut,CM12 0AA,51.6291,0.4192
Helen Arber Performing Arts Ltd,CM12 0DX,51.6305,0.4140
Peapod Cafe,CM12 0DX,51.6304,0.4142
Players Lounge,CM12 0DX,51.6304,0.4142
peapod cafe ltd,CM12 0DX,51.6304,0.4142
Wildwood Restaurants,CM12 9AB,51.6229,0.4156
Gandhi Restaurant,CM12 9AP,51.6248,0.4162
Ask Italian,CM12 9AS,51.6256,0.4172
AMICO,CM12 9AX,51.6264,0.4181
Kosthuree,CM12 9AX,51.6264,0.4181
Pizza Express,CM12 9AX,51.6264,0.4181
Slipprd discs brown sugar,CM12 9AX,51.6264,0.4181
Cloud9 Espresso Bar and Kitchen,CM12 9BA,51.6273,0.4187
J D Wetherspoon,CM12 9BA,51.6272,0.4187
Thai House Essex Ltd,CM12 9BA,51.6273,0.4187
Menad,CM12 9BE,51.6279,0.4189
Harry's Bar and Restaurant,CM12 9BQ,51.6270,0.4190
Prezzo,CM12 9BQ,51.6270,0.4190
the chequers,CM12 9BQ,51.6270,0.4190
Fish 'n' Chick'n Billericay,CM12 9BS,51.6254,0.4179
Flamingo,CM12 9BS,51.6254,0.4179
Costa Coffee,CM12 9BT,51.6247,0.4171
Giggling Squid,CM12 9BY,51.6240,0.4165
La Toscana Italian Restaurant,CM12 9BY,51.6240,0.4165
Wimpy Billericay,CM12 9BY,51.6240,0.4165
French Martini,CM12 9DZ,51.6276,0.4184
The Coach & Horses,CM12 9LU,51.6251,0.4182
Pasha,CM12 9UN,51.5949,0.4285
The Hutton Junction,CM13 1AB,51.6317,0.3334
Chartwells (Compass Group) At Woodlands School,CM13 1SD,51.6284,0.3692
rayleigh inns limited,CM13 1SG,51.6281,0.3804
Bonnies cafe,CM13 1SN,51.6250,0.3834
Essex quality food and wine ltd TA Masons Restaurant & Bar,CM13 2AA,51.6128,0.3189
The Fat Turk,CM13 3AE,51.6011,0.2919
Warley Park Ltd,CM13 3DX,51.5906,0.3123
Virgin Active Clearview,CM13 3EN,51.5721,0.3157
Thatchers Arms,CM13 3HU,51.5931,0.2842
De Rougemont Manor,CM13 3JP,51.5880,0.2908
Chartwells (Compass Group) At Woodlands Preparatory School,CM13 3LA,51.5797,0.3001
Peri UK Ltd,CM13 3LB,51.5766,0.2995
Starbucks East Horndon,CM13 3LL,51.5799,0.3555
The Halfway House,CM13 3LL,51.5799,0.3555
Greene King @ The Boars Head,CM13 3PS,51.5949,0.3545
The Green Man,CM13 3PZ,51.5965,0.3508
Caffe Nero,CM14 4AB,51.6207,0.3047
Cafe Amoore,CM14 4AG,51.6202,0.3046
Starbucks Coffee Shop,CM14 4AJ,51.6202,0.3027
Las Tapas,CM14 4AN,51.6198,0.3012
WHITTAKERS,CM14 4AN,51.6198,0.3012
Zizzi,CM14 4AN,51.6198,0.3012
BALTI HOUSE,CM14 4AP,51.6195,0.2992
Lemongrass,CM14 4AP,51.6195,0.2992
ROOSTERS PIRI PIRI,CM14 4AP,51.6195,0.2992
Subway,CM14 4AP,51.6195,0.2992
Burger King,CM14 4AW,51.6197,0.3006
MEAT STOP,CM14 4BA,51.6192,0.3009
jehan curry hut ,CM14 4BJ,51.6193,0.3014
Hey Joe music & coffee,CM14 4BX,51.6195,0.3022
Harrys and Bonnies coffee shop,CM14 4DB,51.6204,0.3041
The Raj Restaurant Essex Ltd,CM14 4DJ,51.6181,0.2983
CKN Bar & Kitchen,CM14 4EG,51.6151,0.2992
The Spread Eagle,CM14 4HD,51.6182,0.3035
Marygreen Manor Hotel,CM14 4NR,51.6127,0.2786
Giggling Squid,CM14 4RG,51.6213,0.3047
Pizza Express,CM14 4RG,51.6213,0.3047
Rossi ,CM14 4RG,51.6213,0.3047
Wildwood,CM14 4RG,51.6213,0.3047
Nandos,CM14 4RR,51.6202,0.3006
cafe 89 Ltd t/a Eightea9,CM14 4RR,51.6202,0.3007
eastern oriental chinese restaurant ltd,CM14 4RW,51.6207,0.3017
Chick N Shack,CM14 4RX,51.6199,0.2991
Prezzo,CM14 4RZ,51.6196,0.2981
Bardswell Social Club and Institute Limited,CM14 4TJ,51.6213,0.2969
Pizza Hut,CM14 5HA,51.6118,0.2990
The Essex Arms,CM14 5HA,51.6118,0.2990
Ubaid Limited,CM14 5HA,51.6119,0.2990
Juboraj Tandoori,CM14 5HR,51.6123,0.2986
dw cafe & sports bar ,CM14 5LF,51.6050,0.3007
The Bull Brentwood,CM14 5LZ,51.6120,0.2744
mizu ,CM14 5NA,51.6094,0.2659
The White Horse Pub,CM14 5PX,51.6403,0.2585
Alec's Restaurant,CM14 5SD,51.6534,0.2575
secret nuclear bunker,CM14 5TL,51.6750,0.2544
The Eagle,CM15 0AA,51.6660,0.2695
Ongar Garden Centre,CM15 0LB,51.6876,0.2575
Prince of Wales,CM15 0UG,51.6555,0.3575
THE BRENTWOOD KITCHEN,CM15 8AA,51.6214,0.3071
Empire ,CM15 8JD,51.6300,0.3280
Mondello Family Ltd,CM15 8JD,51.6306,0.3292
Tandoori  Nights,CM15 8JU,51.6291,0.3221
SHENFIELD TANDOORI,CM15 8NL,51.6305,0.3273
Woody's,CM15 8NL,51.6305,0.3273
COSTA COFFEE - SHENFIELD,CM15 8NR,51.6308,0.3286
Costa Coffee,CM15 8NR,51.6308,0.3285
SIENNAS RESTAURANT,CM15 8PA,51.6312,0.3296
Subway,CM15 8PA,51.6311,0.3295
hollands wine bar,CM15 8PA,51.6312,0.3296
The Rose,CM15 8RN,51.6373,0.3264
Vault,CM15 8YX,51.6304,0.3289
Woodland coffee shop,CM15 9AU,51.6220,0.3053
The Barnyard cafe,CM15 9HS,51.6276,0.2866
ROYAL ROSE ,CM15 9JH,51.6361,0.2814
DUSK,CM15 9SS,51.6545,0.2683
Atalian Servest Food Co - T/A Academy Healthcare,CM2 7TP,51.6982,0.5382
The Ship Stock,CM2 8LB,51.6766,0.4634
Brewers Arms,CM3 4HD,51.6896,0.5854
White Elm Garden Centre and Tea Room,CM3 4LR,51.6961,0.5950
Munchies Cafe,CM3 5JT,51.6493,0.6092
WHALEBONE,CM3 5QU,51.6517,0.6004
McDonald's Asda SWF,CM3 5SY,51.6435,0.6175
Costa Coffee,CM3 5TD,51.6442,0.6174
Vibrant catering limited T/A Elachi ,CM3 5TG,51.6440,0.6168
Coffee Lounge,CM3 5TQ,51.6447,0.6184
SUBWAY,CM3 5TQ,51.6447,0.6184
The Eatery,CM3 5TQ,51.6447,0.6184
Marsh Farm,CM3 5WP,51.6352,0.6139
Chillies Indian Fusion,CM3 5XF,51.6447,0.6190
Fish 'n' Chick'n South Woodham Ferrers,CM3 5XF,51.6447,0.6190
Passage To India,CM3 5XU,51.6449,0.6189
The Folly Bistro,CM3 8AA,51.6799,0.5606
Elior UK,CM3 8BD,51.6652,0.5242
The Bell Inn,CM3 8DY,51.6524,0.5487
Royal Tiger ,CM3 8EE,51.6698,0.5353
The Old Windmill,CM3 8HJ,51.6504,0.5197
Cafe on the Water,CM3 8HX,51.6491,0.5125
Bartellas Restaurant,CM4 0EH,51.6949,0.4119
Ivy Hill Lounge,CM4 0EH,51.6949,0.4119
The Red Lion,CM4 0EQ,51.6878,0.4093
The Cricketers Mill Green ,CM4 0RH,51.6857,0.3693
Blackmore tearooms ,CM4 0RL,51.6930,0.3185
The Leather Bottle,CM4 0RL,51.6930,0.3185
THE HOOP (STOCK) LIMITED,CM4 9BD,51.6646,0.4457
RAVENS BAKERY ESSEX LTD,CM4 9DW,51.6714,0.3858
Abigail's Delicatessen,CM4 9ED,51.6722,0.3879
Bar Management Services,CM4 9ED,51.6721,0.3883
The black bull,CM4 9JA,51.6897,0.4178
Dandelion & Burdock Kitchen & Lounge,CM4 9LH,51.6637,0.4430
The Bear Inn,CM4 9LH,51.6637,0.4430
THE BAKERS ARMS,CM4 9NF,51.6654,0.4487
The Old Kings Head,CM4 9PQ,51.6531,0.4360
Phoenix Smokery,CM4 9RN,51.6592,0.4758
Fratelli Bites and Coffee Ltd,CM5 9EE,51.6997,0.2439
The Woodman,CM5 9QF,51.6766,0.2138
Thai River Restaurant,RM11 1RL,51.5631,0.2197
MOTHER INDIA (HORNCHURCH) LTD,RM11 1SU,51.5677,0.2203
KFC,RM11 1TP,51.5633,0.2153
Tarantino LTD,RM11 1TP,51.5633,0.2153
Uraswamy's,RM11 1TP,51.5633,0.2153
Nes' CAFE,RM11 1TS,51.5633,0.2173
OLIMBOS LIMITED,RM11 1TS,51.5633,0.2174
Nandos,RM11 1TX,51.5628,0.2193
Wimpy,RM11 1TX,51.5627,0.2196
Pizza Hut Delivery,RM11 2LG,51.5833,0.2210
Waterfall Elior @ Havering Sixth Form College,RM11 3SU,51.5613,0.2308
Passage to india ,RM11 3XB,51.5594,0.2351
Tandoori Lounge,RM11 3XS,51.5618,0.2215
Tops cafe / asya top ltd,RM11 3XS,51.5616,0.2218
MANDARIN PALACE,RM11 3XT,51.5616,0.2236
Prezzo,RM11 3XT,51.5616,0.2236
Umberto restaurant ,RM11 3XT,51.5616,0.2236
Sukhothai Hornchurch,RM11 3YD,51.5622,0.2206
COSTA COFFEE - HORNCHURCH 1,RM12 4UH,51.5625,0.2183
Costa Coffee,RM12 4UH,51.5625,0.2183
The Rising Sun Pub,RM12 4UW,51.5627,0.2170
Tea Island,RM12 6AF,51.5614,0.2213
Da Vinci's,RM12 6JL,51.5608,0.2210
vertigo lounge ,RM12 6JL,51.5608,0.2210
Zizzi,RM12 6JT,51.5602,0.2209
Fireaway Pizza ,RM12 6NB,51.5606,0.2204
ONYX RESTAURANT & BAR ,RM12 6NB,51.5604,0.2203
Pride Of Hornchurch Ltd,RM12 6NB,51.5604,0.2203
SUBWAY,RM12 6NJ,51.5613,0.2205
Mustard Rainham limited,RM12 6QP,51.5612,0.2227
Taste of Bengal,RM12 6QP,51.5613,0.2228
COSTA COFFEE - HORNCHURCH 2,RM12 6QX,51.5620,0.2200
Costa Coffee,RM12 6QX,51.5620,0.2200
Starbucks Hornchurch,RM12 6QX,51.5621,0.2200
Arya's Kitchen,RM12 6RJ,51.5520,0.2188
Can's Meze Bar ,RM14 1RQ,51.5687,0.2676
Cranham Tandoori ,RM14 1RQ,51.5687,0.2676
Upminster Garden Centre,RM14 1TS,51.5944,0.2553
Spice of India,RM14 1XJ,51.5616,0.2675
Ginger Lounge,RM14 2AA,51.5525,0.2477
Lefke ,RM14 2AD,51.5534,0.2473
Roots,RM14 2AD,51.5534,0.2473
Caffe Gelato,RM14 2AH,51.5533,0.2479
THE TEACOSY LIMITED,RM14 2AH,51.5532,0.2479
Prezzo,RM14 2AJ,51.5541,0.2484
Pizza Express,RM14 2SH,51.5564,0.2489
ACE CREAMS & TAPAS,RM14 2SJ,51.5569,0.2490
COSTA COFFEE - UPMINSTER 2,RM14 2SJ,51.5569,0.2491
Costa Coffee,RM14 2SJ,51.5569,0.2490
Sorrento restaurant,RM14 2SJ,51.5569,0.2490
The Station Pantry,RM14 2SU,51.5586,0.2496
COSTA COFFEE - UPMINSTER 1,RM14 2TR,51.5577,0.2502
Costa Coffee,RM14 2TR,51.5577,0.2502
WIMPY,RM14 2TR,51.5577,0.2502
Barracuda Fish and Chips ,RM14 2TU,51.5580,0.2503
Caffe Nero,RM14 2UB,51.5567,0.2498
The Fete Lounge ltd,RM14 2UB,51.5567,0.2498
Masala Grill Original LTD,RM14 3BL,51.5564,0.2508
T&K COFFEE LTD,RM14 3BL,51.5564,0.2508
cafe le raj/raj essex ltd,RM14 3BL,51.5564,0.2508
SWEET ROSE CAKERY LIMITED,RM14 3BS,51.5561,0.2507
Samihah limited t/a kushoom bugh,RM14 3BT,51.5562,0.2520
Pizza Hut Delivery,RM14 3BU,51.5565,0.2520
The Jobber's Rest,RM14 3LT,51.5577,0.2762
Jaxons eating house,RM14 3NU,51.5596,0.2848
Top Meadow Golf Centre ,RM14 3PR,51.5420,0.2989
The Old White Horse,RM14 3PS,51.5406,0.2961
Langdon Hills Golf & Country Club Ltd,RM14 3TY,51.5447,0.3952
MingLong Essex Limited,RM15 4BB,51.4990,0.2558
Taste of Aveley,RM15 4BX,51.4989,0.2546
Sir Henry’s,RM15 4XB,51.5130,0.2512
Sam's cafe,RM15 4YD,51.4965,0.2277
Compass Group UK And Ireland - Chartwells,RM15 5AY,51.5128,0.2767
The Raj Ockendon,RM15 5DX,51.5107,0.2821
Woody's,RM15 6DU,51.5131,0.2940
hevsel meze restaurants ltd,RM16 2BD,51.4981,0.3295
Burger King,RM16 3BG,51.4923,0.2723
EDC Caffe & Costa Coffee,RM16 3BG,51.4923,0.2723
Subway,RM16 3BG,51.4923,0.2723
McDonald's Orsett Cock,RM16 3BJ,51.5060,0.3825
Voujon restaurant ,RM16 3BL,51.5054,0.3827
McDonalds,RM16 3BW,51.5099,0.3964
Cafe Sartoria,RM16 3HS,51.5147,0.3710
Garden Brasserie,RM16 3HS,51.5147,0.3710
The Whitmore Arms,RM16 3LB,51.5127,0.3698
kushi,RM16 6EW,51.4862,0.2883
pepes piri piri,RM17 5DD,51.4788,0.3237
MEMEL,RM17 5HF,51.4796,0.3253
Desi Indian Dining Club,RM17 5HJ,51.4794,0.3258
New Delhi,RM17 5HJ,51.4794,0.3258
Village Indiya,RM17 5RY,51.4889,0.3409
Bombay Restaurant,RM17 5RZ,51.4889,0.3390
Pizza Hut Delivery,RM17 5RZ,51.4889,0.3390
Orchard Cafe,RM17 5SY,51.4846,0.3421
the bull public house,RM17 6EY,51.4769,0.3423
Feast,RM17 6LU,51.4778,0.3226
KFC Grays,RM17 6LU,51.4778,0.3226
KFC,RM17 6LU,51.4778,0.3226
Nagawa ,RM17 6LU,51.4779,0.3228
Izgara Meze,RM17 6LY,51.4775,0.3225
Subway,RM17 6NB,51.4774,0.3233
Gurkha Cookhouse ,RM17 6NQ,51.4762,0.3221
Break Bar,RM17 6QE,51.4774,0.3243
Burger King,RM17 6QE,51.4771,0.3237
Costa Coffee,RM17 6QE,51.4771,0.3237
The Snack Shack,RM17 6QE,51.4771,0.3238
Wimpy ,RM17 6QE,51.4771,0.3238
THE ROYAL HOTEL,RM19 1QA,51.4832,0.2307
Compass Group UK And Ireland - Chartwells,RM19 1QY,51.4792,0.2399
Costa Coffee,RM19 1TS,51.4860,0.2442
Best Western Thurrock Hotel ,RM19 1YN,51.4888,0.2655
Waterfall Elior @ Dreywood Court,RM2 6EY,51.5827,0.2139
McDonald's 289 - West Thurrock,RM20 1TX,51.4890,0.2756
Costa Coffee,RM20 1WN,51.4865,0.2782
McDonalds,RM20 1WN,51.4865,0.2782
Nandos,RM20 1WN,51.4865,0.2782
Partyman World Lakeside,RM20 1WN,51.4864,0.2761
Pizza Hut Restaurant,RM20 1WN,51.4860,0.2789
FO Leisure Ltd,RM20 2AD,51.4884,0.2816
Flip Out Lakeside,RM20 2AD,51.4884,0.2816
Hollywood Bowl,RM20 2AD,51.4884,0.2816
Nickelodeon Adventure Lakeside,RM20 2AD,51.4884,0.2816
Puttshack Lakeside,RM20 2AD,51.4884,0.2816
TGI Fridays,RM20 2AD,51.4884,0.2816
Zizzi,RM20 2AD,51.4884,0.2816
Caffe Nero,RM20 2ZF,51.4871,0.2831
Costa Coffee,RM20 2ZF,51.4871,0.2831
McDonald's 510 - Lakeside 2,RM20 2ZF,51.4871,0.2831
McDonalds,RM20 2ZF,51.4871,0.2831
Pret A Manger,RM20 2ZF,51.4871,0.2831
Starbucks,RM20 2ZF,51.4871,0.2831
Costa Coffee,RM20 2ZG,51.4871,0.2831
McDonald's 357 - Lakeside 1,RM20 2ZH,51.4866,0.2841
McDonalds,RM20 2ZH,51.4866,0.2841
Burger King,RM20 2ZJ,51.4871,0.2831
Chopstix Lakeside,RM20 2ZJ,51.4871,0.2831
Five Guys,RM20 2ZJ,51.4871,0.2831
KFC Lakeside,RM20 2ZJ,51.4871,0.2831
KFC,RM20 2ZJ,51.4871,0.2831
Nandos,RM20 2ZJ,51.4871,0.2831
Pizza Express,RM20 2ZJ,51.4871,0.2831
Pizza Hut Express,RM20 2ZJ,51.4871,0.2831
Shake Shack Lakeside,RM20 2ZJ,51.4871,0.2831
Thai Express Lakeside,RM20 2ZJ,51.4875,0.2835
Tortilla,RM20 2ZJ,51.4871,0.2831
Wasabi Co,RM20 2ZJ,51.4871,0.2831
Spreads cafe,RM20 2ZL,51.4868,0.2829
Ask Italian,RM20 2ZN,51.4873,0.2814
GBK (Gourmet Burger Kitchen),RM20 2ZN,51.4873,0.2814
Nandos,RM20 2ZN,51.4873,0.2814
OO&O Lakeside Limited,RM20 2ZN,51.4872,0.2814
Prezzo,RM20 2ZN,51.4873,0.2814
Wagamama,RM20 2ZN,51.4873,0.2814
Caffe Rizzoli Prosecco Bar,RM20 2ZP,51.4871,0.2835
Chiktopia,RM20 2ZP,51.4871,0.2835
German Doner Kebab (GDK),RM20 2ZP,51.4871,0.2835
Rock Up Lakeside,RM20 2ZP,51.4878,0.2845
Wasabi Sushi & Bento,RM20 2ZP,51.4871,0.2835
Wimpy Lakeside ,RM20 2ZP,51.4871,0.2835
Costa Coffee,RM20 2ZQ,51.4875,0.2825
Creams Cafe Intu Lakeside,RM20 2ZQ,51.4875,0.2825
Pizza Hut Restaurant,RM20 2ZQ,51.4875,0.2825
Taco Bell,RM20 2ZT,51.4857,0.2844
SPICY TOP LTD T/A SHAMPAAN,RM20 3HL,51.4760,0.2811
Burger King Lakeside Retail Park,RM20 3LP,51.4859,0.2713
Costa Coffee,RM20 3LP,51.4858,0.2714
Dunelm Mill - Caffe Pausa,RM20 3LP,51.4859,0.2713
Starbucks Coffee Company,RM20 3LP,51.4859,0.2713
KFC Thurrock,RM20 3WE,51.4839,0.2770
KFC,RM20 3WE,51.4839,0.2770
TGI Fridays Restaurant,RM20 3WE,51.4839,0.2770
the ship inn,RM20 4AR,51.4766,0.2907
KFC,RM3 0AA,51.5932,0.2146
McDonald's Gallows Corner,RM3 0AP,51.5916,0.2178
Mcdonalds,RM3 0AP,51.5916,0.2178
BONAR LIMITED,RM3 0BP,51.5936,0.2336
KUZINE,RM3 0BS,51.5939,0.2344
Costa Coffee @ Tesco Romford Gallows Extra,RM3 0LL,51.5937,0.2184
The Deers Rest,RM3 7LL,51.6161,0.2174
CAFE ESPRESSO,RM3 9AA,51.6126,0.2217
Cafe Espresso ,RM3 9AA,51.6126,0.2217
INCO RESTAURANT,RM3 9PB,51.6056,0.2323
Pizza Hut,SS11 7AB,51.6149,0.5238
Lodge country inn,SS11 7QT,51.6355,0.5810
MEADOW CROFT GARDEN CENTRE,SS11 7QU,51.6412,0.5837
THE BARGE INN,SS11 7RE,51.6237,0.5688
Nicemeal Spice LTD T/A Marcopolo Indian,SS11 8AB,51.6141,0.5235
Huttons at wickford ,SS11 8JE,51.6174,0.5348
Carpenters Arms,SS11 8TZ,51.5986,0.5728
The Lillies cafe ,SS12 0JX,51.6103,0.4970
THE BEKASH RESTAURANT,SS12 0PZ,51.5993,0.5135
PLUSH RESTAURANT,SS12 9AE,51.6129,0.5204
BRITANIA FISH AND CHIPS,SS12 9AQ,51.6119,0.5200
Prezzo,SS12 9AT,51.6116,0.5203
Tony's,SS12 9AT,51.6117,0.5203
Costa Coffee,SS12 9AZ,51.6129,0.5210
Subway,SS12 9AZ,51.6129,0.5210
Partyman World Basildon,SS13 1LJ,51.5854,0.5006
80K restaurant,SS13 1LN,51.5844,0.5018
The Gun Pub,SS13 2DU,51.5653,0.5267
Pizza Hut Express,SS13 3AS,51.5653,0.5054
McDonald's ,SS13 3AX,51.5652,0.5062
KFC Pitsea,SS13 3BB,51.5652,0.5074
Mine Cafe Pitsea Ltd ,SS13 3BG,51.5641,0.5041
KFC,SS13 3BY,51.5642,0.5058
McDonalds,SS13 3BY,51.5642,0.5057
Rose cafe,SS13 3DU,51.5663,0.5040
Elior @ Tesco Extra,SS13 3JY,51.5632,0.4991
Donut king,SS14 1AE,51.5697,0.4601
Muscovado Coffee Shop,SS14 1AE,51.5694,0.4609
Starbucks Coffee Company,SS14 1AE,51.5693,0.4607
McDonald's Restaurant Eastgate Shopping Centre,SS14 1AF,51.5695,0.4604
McDonalds,SS14 1AF,51.5695,0.4604
Nando's,SS14 1AF,51.5695,0.4604
Subway,SS14 1AF,51.5695,0.4604
Costa Coffee,SS14 1BA,51.5708,0.4579
The Chef Bakery,SS14 1BZ,51.5691,0.4588
Buzz Bingo,SS14 1DH,51.5686,0.4547
Towngate Theatre Café Bar,SS14 1DL,51.5705,0.4543
Burger King,SS14 1EB,51.5699,0.4614
ESQUIRES COFFEE HOUSE (BASILDON),SS14 1EB,51.5699,0.4615
HABIBA FOODS LIMITED T/A  Muffin Break ,SS14 1EB,51.5699,0.4615
James Breslaw,SS14 1EB,51.5699,0.4615
Papa's Crepes,SS14 1EB,51.5699,0.4615
Miracles cafe ,SS14 1EU,51.5701,0.4623
Poppins Restaurants,SS14 1EU,51.5701,0.4623
Cafe Cinco,SS14 1HH,51.5702,0.4604
Jodhpur Indian Kitchen,SS14 1HH,51.5702,0.4604
Costa Coffee,SS14 1HR,51.5697,0.4596
Patisserie Valerie,SS14 1HR,51.5697,0.4596
Tasty Buds,SS14 2HB,51.5780,0.4738
The Coriander (Basildon) Ltd,SS14 2HB,51.5780,0.4738
Subway Whitmore Way,SS14 2NL,51.5778,0.4762
Atalian Servest Food Co,SS14 3AD,51.5866,0.4720
Campanile Basildon,SS14 3AE,51.5845,0.4425
Burger King,SS14 3AF,51.5812,0.4435
Costa Coffee,SS14 3AF,51.5812,0.4435
Costa Coffee,SS14 3HZ,51.5908,0.4795
KFC Mayflower,SS14 3HZ,51.5907,0.4789
KFC,SS14 3HZ,51.5907,0.4789
McDonald's Restaurant Mayflower Retail Park,SS14 3HZ,51.5908,0.4795
McDonalds,SS14 3HZ,51.5908,0.4795
Nando's,SS14 3HZ,51.5908,0.4795
Pizza Express,SS14 3HZ,51.5908,0.4795
Basil Spice,SS14 3JF,51.5856,0.4890
UP THE ROAD PIZZA,SS14 3JF,51.5856,0.4890
Nando's,SS14 3TJ,51.5827,0.4633
360 Play (Basildon) Limited,SS14 3WB,51.5851,0.4625
AROMA,SS14 3WB,51.5851,0.4625
Hollywood Bowl,SS14 3WB,51.5851,0.4625
Legends Basildon,SS14 3WB,51.5852,0.4632
McDonalds,SS14 3WB,51.5851,0.4625
Mr Mulligans Basildon,SS14 3WB,51.5851,0.4625
Pizza Hut Restauant,SS14 3WB,51.5851,0.4625
Sprinkles Gelato Basildon,SS14 3WB,51.5852,0.4632
Team Sport Indoor Karting,SS14 3WB,51.5851,0.4625
Villagio,SS14 3WB,51.5852,0.4632
Wagamama,SS14 3WB,51.5852,0.4632
McDonald's Restaurant Festival Leisure Park,SS14 3WE,51.5840,0.4660
McDonald's Restaurant Laindon,SS15 4DP,51.5857,0.4267
McDonalds,SS15 4DR,51.5842,0.4240
Baxterstorey Catering Services,SS15 5FS,51.5794,0.4409
B & D's Cafe & Grill,SS15 5HL,51.5732,0.4418
KFC,SS15 6BN,51.5784,0.4222
Costa Coffee,SS15 6EE,51.5814,0.4053
KFC Laindon,SS15 6NE,51.5704,0.4213
stay and play,SS15 6PH,51.5697,0.4191
Basildon Golf Course Ltd,SS16 5JP,51.5590,0.4589
Doorsteps Cafe,SS16 5SA,51.5637,0.4448
Miller & Carter,SS16 6HU,51.5528,0.4213
Montys Curry Centre,SS17 0AH,51.5141,0.4288
efe's,SS17 0HF,51.5154,0.4274
Green Palace Ltd T/A Panahar Restaurant  ,SS17 0HL,51.5152,0.4255
railway tavern,SS17 0HL,51.5152,0.4255
Subway,SS17 0LD,51.5143,0.4203
Selekt Chicken,SS17 7LJ,51.5250,0.4477
Paulettes bakery,SS17 7NA,51.5247,0.4483
STANFORD CURRY LTD,SS17 7NA,51.5246,0.4480
The Springhouse,SS17 7QT,51.5244,0.4501
Swan pub,SS17 8LD,51.5242,0.4059
The Bell Inn & Ostlers,SS17 8LD,51.5242,0.4059
RT Inn Ltd,SS17 9AA,51.5266,0.4596
Hireco Tl Ltd,SS17 9LE,51.5203,0.4853
SIMLA TANDOORI,SS5 6NA,51.6279,0.6135
The Anchor,SS5 6ND,51.6277,0.6142
Hullbridge Community Association,SS5 6PA,51.6282,0.6160
Asiana Fine Indian Dining,SS6 7BY,51.5857,0.6045
Kings Fish Restaurant,SS6 7EA,51.5868,0.6058
Subway,SS6 7EA,51.5868,0.6058
Ask Italian,SS6 7EF,51.5874,0.6069
Pizza Express,SS6 7EJ,51.5859,0.6057
La Romantica LTD,SS6 7EW,51.5871,0.6071
Prezzo,SS6 7EW,51.5871,0.6071
Squires Coffee Shop,SS6 7EW,51.5871,0.6071
rayleigh indian ltd,SS6 7EW,51.5871,0.6072
Wildwood Farm (Farm Shop),SS6 7FS,51.5886,0.6009
Oyster Wharf,SS6 7JD,51.5852,0.6057
Amira Enterprise Ltd,SS6 7JQ,51.5845,0.6060
Marco's Bar Ltd,SS6 7JQ,51.5846,0.6059
TOB BURGERS ,SS6 7JQ,51.5846,0.6059
Gambero D'Oro Restaurant Rayleigh,SS6 7QA,51.5845,0.6038
McDonald's,SS6 7UP,51.5763,0.6022
McDonalds Restaurants Ltd,SS6 7UP,51.5763,0.6022
Base Jump (London) Ltd,SS6 7XL,51.5772,0.6096
Barrington Grill,SS6 8EB,51.5886,0.6105
MPG REMEDY LIMITED t/a Remedy Tea Rooms,SS6 9ES,51.5973,0.5785
Cafe No.11,SS6 9HN,51.5915,0.6024
The Bagelry,SS6 9QG,51.6061,0.6102
Grubs Up,SS6 9RL,51.6004,0.5912
Mumtaz Mahal ,SS7 1LT,51.5452,0.5659
Benfleet Tandoori,SS7 1NA,51.5453,0.5623
Gambero D'Oro Restaurant,SS7 1NA,51.5453,0.5623
BOYCE HILL GOLF CLUB,SS7 1PD,51.5497,0.5688
Boyce Hill Golf & Country Club ,SS7 1PD,51.5497,0.5688
VILLAGE INDIYA,SS7 1QB,51.5567,0.5986
Runnymede Leisure Centre,SS7 1TF,51.5619,0.5849
Castle Spice,SS7 2BN,51.5527,0.6115
Crystal cafe,SS7 2BN,51.5527,0.6115
Maison Noir,SS7 2BN,51.5527,0.6115
ADANA 01 LTD,SS7 2NA,51.5555,0.6106
GALLO D' ORO LIMITED,SS7 2PA,51.5533,0.6082
Fattys Bar ,SS7 2PB,51.5534,0.6072
McDonald's,SS7 2PB,51.5534,0.6072
McDonalds Restaurant Ltd,SS7 2PB,51.5534,0.6072
Latino's Restaurant & Tapas Bar,SS7 2RD,51.5540,0.6088
Natural Bake,SS7 2RF,51.5538,0.6097
Fredericks,SS7 3NZ,51.5740,0.6038
Tandoori Parlour,SS7 3PB,51.5688,0.5798
By George of Thundersley Limited,SS7 3PS,51.5698,0.5836
Virgin Active Thundersley,SS7 3YN,51.5629,0.5987
Amala Indian Restaurant,SS7 5HA,51.5537,0.5590
Asia Benfleet ,SS7 5HA,51.5537,0.5590
TASTY BITES ,SS7 5HA,51.5537,0.5590
SUBWAY KENTS HILL,SS7 5HB,51.5542,0.5587
Marksmart Ltd/ta akash balti tandoori restaurant ,SS7 5HZ,51.5525,0.5611
Pizza Hut,SS7 5HZ,51.5525,0.5611
Enjoy cafe,SS7 5LA,51.5532,0.5609
Cafe Max,SS7 5LN,51.5493,0.5628
KFC Tarpots,SS7 5SQ,51.5670,0.5523
KFC,SS7 5SQ,51.5670,0.5525
J D Hubbard LTD t/a Benfleet Wimpy,SS7 5UH,51.5676,0.5514
MALAYA,SS7 5XR,51.5662,0.5614
The Bar,SS8 0DB,51.5144,0.5810
Canvey Island Conservative Club Ltd,SS8 0JA,51.5200,0.5889
JONES CORNER CAFE,SS8 0JR,51.5204,0.5773
KIRSTYS CAFE,SS8 0PQ,51.5212,0.5566
McDonald's,SS8 0PS,51.5269,0.5372
McDonalds Restaurant Ltd,SS8 0PS,51.5269,0.5372
Rio Coffee,SS8 7AD,51.5224,0.5932
SUBWAY,SS8 7AE,51.5224,0.5920
izzie coffe meze bar restaurant,SS8 7AE,51.5224,0.5920
kushi,SS8 7AG,51.5218,0.5928
Douro Valley,SS8 7AJ,51.5212,0.5922
MEZ Turkish ,SS8 7AJ,51.5212,0.5922
THE HAYSTACK,SS8 7AJ,51.5212,0.5922
Rio Bingo Canvey Island,SS8 7AL,51.5196,0.5927
PARADISE INDIAN RESTAURANT ,SS8 7AT,51.5199,0.5932
JIMMY MAC'S,SS8 7DN,51.5129,0.5982
The Labworth Restaurant ,SS8 7DW,51.5118,0.5946
Spice Lounge,SS8 7FJ,51.5127,0.5967
oysterbay sports bar,SS8 7FJ,51.5127,0.5967
KFC Canvey,SS8 7RD,51.5230,0.5962
KFC,SS8 7RD,51.5230,0.5962
The Corner Club,SS8 7RQ,51.5228,0.6030
The Fountain,SS8 8HE,51.5255,0.6042
Castlepoint Golf Course,SS8 9FG,51.5337,0.5747
Oysterfleet Hotel,SS8 9PA,51.5238,0.5930
Waterside Farm Leisure Centre,SS8 9RA,51.5341,0.5668
