name,postcode,lat,lon
Perching duck and Recurvebill,DL16 7QB,54.874715000000000,-1.695681000000000
Booted eagles and Snipe,NE15 9QF,54.990395752261900,-1.760447000000000
Tit-tyrant and Cloud rat,NE39 2DE,54.922709962143300,-1.769336674061940
Peafowl and Boto,NE5 1TR,55.002362000000000,-1.713130858876560
Perching duck and Parakeet,NE45 5AZ,54.965737612649500,-2.016556806505940
Goose and Prion,NE39 2EQ,54.934757912237000,-1.782533715104030
Shearwater and Lemming,NE39 2EL,54.935915846059900,-1.781935000000000
Hawk and Siskin,NE42 5QA,54.962510820594300,-1.850336602942290
Hawk and White ibis,NE20 0TE,55.041349370013000,-1.955904285130880
Parrotbill and Masked owl,NE40 3HT,54.971685204830000,-1.751138816205390
Fox and Lemming,NE21 6BE,54.954157090262200,-1.731885064130230
Chicken and Goose,NE20 0TD,55.034056846212400,-1.969727203050390
Bronzewing pigeon and Elephant,NE41 8BE,54.983131991828900,-1.828243442780230
Bronzewing pigeon and White ibis,NE40 3DY,54.970534630467600,-1.750974093224900
Triller and Tattler,NE21 4SY,54.959446482183400,-1.742750220636170
White ibis and American sparrow,NE15 8EA,54.977477442470100,-1.716481293788430
Ice seal and Badger,NE16 5TW,54.936875907075700,-1.697163332260040
Bronzewing pigeon and Vulture,NE39 2BS,54.928661911523100,-1.780694009522440
Moluccan boobook and Kangaroo,NE5 1JG,54.995749660541100,-1.714023638751480
Flameback and Elephant,NE20 9JT,55.025806347316000,-1.772437000000000
Francolin and Duck,NE15 9RA,54.996559036073500,-1.774196999014430
Grouse and Mink,NE15 8AQ,54.981840643780000,-1.707153563407580
Rat and Boto,DH9 9TS,54.886080685316700,-1.725571587862610
Petrel and Condor,NE5 1QD,55.003045181856300,-1.724743000000000
Jerboa and Thicketbird,NE21 5JS,54.953603343051500,-1.713651277116270
Masked owl and Myna,NE17 7BE,54.903067205095600,-1.811881977815930
Thrasher and Magpie,NE18 0QN,55.047306671051600,-1.885814182825220
Eagle and Fox,NE21 5DX,54.955726769229100,-1.718648640007210
Mamo and Solitaire,DH8 6QH,54.867834858710600,-1.826053202432470
Kangaroo and Wader,NE20 0JA,55.022680985831700,-1.783638356092260
Puffleg and Mockingbird,NE15 0BL,54.995148258670700,-1.799932505250900
Booted eagles and Linsang,NE5 2DF,54.990492142402900,-1.698869990672750
Shearwater and Goose,NE15 9RW,54.993760008400000,-1.734653760600000
Viscacha and Fulmarine petrel,NE44 6BB,54.917933000000000,-1.953761000000000
Diving bird and Old World warbler,DH9 9QL,54.897039056764700,-1.704275919632680
Tattler and Solitaire,NE40 4UB,54.965024915007500,-1.788368026210490
Goose and Crow,NE42 5DX,54.962305439821900,-1.830737270915270
Ibex and Partridge,NE16 6JB,54.905089463888500,-1.739026114331720
Chickadee and Parakeet,NE40 3RT,54.973096151291600,-1.755629185552430
Polecat and Old World vulture,NE15 8JW,54.992292848209200,-1.735163364384190
Linsang and Ground sloth,DH8 6RA,54.871333705330000,-1.822017896002010
Tahr and Jackal,NE43 7NJ,54.947197721204000,-1.915135275594300
Bronzewing pigeon and Elephant,DH9 9PT,54.890097587017400,-1.717718279984320
Warbler and Lemming,NE21 6LW,54.952087186156800,-1.722499392235360
Black jay and Vole,NE40 4PY,54.967642669591800,-1.789744000000000
Pitohui and Bronzewing pigeon,NE17 7DB,54.920122489641500,-1.811412506450870
Rabbit and Peafowl,NE40 3SR,54.978745954273400,-1.793061278499150
Grouse and Old World warbler,NE16 6LW,54.901406679138700,-1.715689994158180
Herring gull and Guillemot,NE39 2PN,54.927461612794400,-1.745731677832340
Skunk and American sparrow,NE45 5HY,54.980806734712800,-2.021219284520920
Cuscus and Argus,DH9 9RG,54.885939853306000,-1.726881943991740
Pheasant and Jackal,NE41 8DL,54.976208346955200,-1.818977000000000
Duck and Ice seal,DH8 0SH,54.869483348133800,-1.856679747161780
Mouse and Maya,NE15 7UD,54.982320965453500,-1.694180967574180
Quetzal and Grosbeak,NE40 4QE,54.956043000000000,-1.771220000000000
Armadillo and Linsang,NE42 6AR,54.969907825193700,-1.866991897001160
Moluccan boobook and Masked owl,NE40 3HA,54.968785140636900,-1.752359477848240
Tattler and Condor,NE42 5QJ,54.963935539622300,-1.854376438875340
Recurvebill and Tattler,DH8 6RX,54.881915672273000,-1.831868761926770
Mockingbird and Parrotbill,NE39 1PE,54.920588752250400,-1.755307470688610
Old World warbler and Kākāriki,NE21 5RB,54.955659500156500,-1.724598451010840
Chicken and Buzzard,NE5 4PS,55.010488216769700,-1.695968320395260
Coati and Chicken,NE16 5YX,54.939512604573400,-1.695051952791800
Solitaire and Thrasher,NE39 1PY,54.919343227712900,-1.743941896030430
Mamo and Dolphin,NE21 4HL,54.960804340092000,-1.730716419891470
Shearwater and Stilt,NE39 2LD,54.922459915876900,-1.751863645069420
Kangaroo and Polecat,NE5 1RU,54.996260681672000,-1.709721528084130
Piping shrike and Piping shrike,DH8 0TE,54.886504349662700,-1.847718000000000
Prion and Jay,NE43 7PX,54.939706792528700,-1.907721199241200
Linsang and Vulture,NE15 8DX,54.978052442591600,-1.716430375036180
Solitaire and Siskin,NE15 0JB,55.002758428553700,-1.842198000000000
Macaw and Myna,NE40 4DD,54.963842039583900,-1.790279658583430
Grackle and Shearwater,NE42 5ES,54.962163337339900,-1.838593495641470
Goose and Fish eagle,NE40 4NG,54.967118931853400,-1.788497607065230
Elephant and Macaw,NE42 6LN,54.956760466256200,-1.866519926985780
Chipmunk and Cuscus,NE39 2EP,54.936309780881200,-1.780995812085260
Meadowlark and Bronzewing pigeon,NE43 7QW,54.936777995228600,-1.908679955803790
Eagle and Chipmunk,NE15 8SH,54.976123977051000,-1.714116122540300
Diving bird and Dorcopsis,DH8 0JH,54.870331818486400,-1.859902222597270
Kestrel and Goose,DH9 9JL,54.884708283395600,-1.743179323376020
Tree warbler and Songlark,NE21 5RZ,54.968760052781300,-1.704374000000000
Kestrel and New World blackbird,NE15 0HF,55.007625904556200,-1.771992880634820
Philippine hawk-owl and Piping shrike,NE39 2BW,54.928977523565000,-1.781300878328630
Hawaiian honeycreeper and Flameback,NE15 0DZ,54.995507188255700,-1.788973734418030
Songlark and Stilt,NE43 7UP,54.984120813540500,-1.927089711537330
Capuchin and Vole,NE13 8DE,55.027181000000000,-1.712611000000000
Masked owl and Civet,DH8 6QW,54.884358994729700,-1.812748392358530
Tree warbler and River dolphin,NE18 0PX,55.027416204068200,-1.864002000000000
Condor and Rabbit,NE21 6QQ,54.951280708880100,-1.723504198761130
Grackle and Fish eagle,NE16 6DT,54.903681938042000,-1.720305678648380
Hawaiian honeycreeper and Jackal,NE5 1YR,55.006584895068700,-1.716964155752490
Macaw and Fulmarine petrel,NE15 8BL,54.980981199640200,-1.719987854957500
Recurvebill and Kestrel,NE13 8BN,55.030029995753700,-1.701968618833890
Puffleg and Buzzard,NE43 7UG,54.973276537763900,-1.930624202284890
Darwin's finches and Stilt,DH9 9UY,54.887312628891500,-1.699311969451500
Wader and Old World warbler,NE20 9HG,55.047020000000000,-1.752488000000000
Ice seal and Linsang,NE21 6LX,54.949505492472200,-1.721346209036800
Flameback and Guillemot,NE17 7HZ,54.918638266110300,-1.816521000000000
Dolphin and Dolphin,NE15 7XS,54.975222332446800,-1.705311338827830
Armadillo and Kite,NE39 1EL,54.914689904908100,-1.757885886574010
Mole and Triller,DH8 6PX,54.885106419282600,-1.825900982482480
Chipmunk and Chicken,NE40 3NS,54.969174931788200,-1.754028454355640
Perching duck and Quetzal,NE40 4RX,54.956244503635800,-1.768161101996020
Elephant and Rabbit,DH8 6TY,54.886207445048700,-1.810978369697670
Viscacha and Meadowlark,DH8 9LU,54.866204198793900,-1.946933196404630
Recurvebill and Scimitar babbler,NE5 5NB,54.995838530114000,-1.698704946399960
Cloud rat and Masked owl,NE43 7DE,54.959527265391600,-1.883079901045120
Black jay and Recurvebill,NE45 5EF,54.977609185418200,-2.009124970594660
Old World quail and Thicketbird,DH9 9QW,54.893868620003600,-1.712500078044330
Masked owl and Marsh harrier,NE41 8DZ,54.976336896355700,-1.814930312140980
Mockingbird and Pheasant,NE42 6HS,54.960374127661400,-1.859589707246600
Cuscus and Bunting,NE40 4QT,54.961813882526800,-1.776656191498360
Asiatic leopard and Treepie,NE15 9BU,54.995354461981300,-1.750929996777990
Diving bird and Dolphin,NE45 5JL,54.977671572292900,-2.014358873546530
Crow and Mouse,DH9 9XH,54.879940345334300,-1.697917332577520
Fish eagle and Grouse,NE39 2HH,54.935235127264200,-1.783061785838200
Rabbit and Piping shrike,NE45 5RY,54.943550329479800,-2.018530054069510
Mouse and Fish eagle,NE41 8AX,54.977706035468300,-1.823157654843260
Cloud rat and Asiatic leopard,NE5 2YU,54.992513380926700,-1.694994411891230
Guillemot and Grackle,NE42 6BS,54.968087630800700,-1.870715421561170
Masked owl and Tahr,NE40 3EZ,54.970394701312400,-1.748475634276570
Parakeet and Civet,NE17 7SA,54.902300054200000,-1.819105961100000
Booted eagles and Prion,NE43 7SN,54.922296011351100,-1.882111000000000
Hawk and Lemming,NE44 6AR,54.944357876995100,-1.974274303273440
Grosbeak and Wallaby,NE5 1NN,55.005468917943500,-1.712406756764930
Ibex and Magpie,NE17 7JS,54.916540247372200,-1.819509974080700
River dolphin and Fulmarine petrel,DH8 6RY,54.885792000000000,-1.833817000000000
Songlark and Scimitar babbler,NE42 5NR,54.944119622345400,-1.819839336051870
Fox and Cuscus,NE16 5TS,54.935697052181900,-1.696501066490190
Rat and Condor,NE43 7UN,54.985195584609700,-1.936807436846060
Prion and Mockingbird,NE5 1QH,55.003819051868700,-1.721689375726900
Linsang and Petrel,NE42 6JF,54.957961801773600,-1.863689000000000
Pheasant and Dolphin,NE40 3PF,54.975879091808600,-1.758736885031360
Kangaroo and Kākāriki,NE45 5AQ,54.975451046614300,-2.020747745242320
Viscacha and Civet,NE42 5EG,54.964475280755100,-1.833758141893520
Flameback and Pratincole,NE42 6DU,54.968438573322000,-1.899876788844400
Duck and Magpie,NE39 1QF,54.921133326677900,-1.740560576458960
Black cockatoo and Tree warbler,NE5 4QB,55.010084208020900,-1.699739702435160
Fish eagle and Black jay,NE5 2JW,54.992127911998000,-1.702640028988030
Cloud rat and Prion,NE20 9LJ,55.033024600645300,-1.769251772663500
Armadillo and Pitohui,DH9 0JX,54.875610935335500,-1.695128956325520
Ibex and Duck,DH8 9LQ,54.897961174577200,-1.902171846460160
River dolphin and Puffleg,NE21 4FR,54.971383826000000,-1.730333494200000
Capuchin and Treepie,NE21 4LS,54.971028966018400,-1.733866000000000
Fish eagle and Jackal,NE40 4HP,54.964499317549700,-1.791025925685060
Old World quail and Kākāriki,DH9 9EZ,54.882568000000000,-1.751278000000000
Ice seal and Buzzard,NE40 3LN,54.969332284935000,-1.765461595256160
Crow and Elephant,NE5 4NT,55.003794760956400,-1.696472278431170
Cuscus and Piping shrike,NE20 9PP,55.036608552174900,-1.763770566465740
Skunk and Bronzewing pigeon,DH9 0PB,54.873745062140400,-1.692867849084760
Minke whale and Siskin,NE15 9AZ,54.993616692840700,-1.753660331375040
Bronzewing pigeon and Kestrel,NE15 9HB,54.996698065134000,-1.753219438845660
Fox and Viscacha,NE43 7UF,54.972258230905100,-1.925752058438500
Parrotbill and Eagle,NE20 9JQ,55.028155986246400,-1.765525338258960
Ground sloth and Philippine hawk-owl,NE43 7NQ,54.946830052009700,-1.916244470613130
Ice seal and Towhee,NE20 9JL,55.026782605845800,-1.771039572269230
Chickadee and Tree warbler,NE41 8BB,54.981037580283500,-1.827799248236180
Stilt and Armadillo,NE21 4FP,54.972523000000000,-1.730654000000000
Tattler and Greenbul,NE5 5BX,54.987881883895100,-1.704468562175510
Nukupuʻu and Macaw,NE5 1JQ,54.997868568686400,-1.720980213622740
Parakeet and Black jay,NE40 3EY,54.970667136174400,-1.745521587306540
Tree warbler and Old World warbler,NE21 6DZ,54.956075419245600,-1.733824208980170
Songlark and Mamo,NE5 5PZ,54.997725637172500,-1.698706450432600
Siskin and Philippine hawk-owl,NE39 2WX,54.964670266541800,-1.707966000000000
Grosbeak and Songlark,DH9 9TW,54.886348052088800,-1.724587712568610
Vulture and Recurvebill,NE40 3QB,54.975945530747100,-1.765141885602070
Stilt and Kestrel,NE15 8QH,54.989856000000000,-1.759857607291370
Shearwater and Chipmunk,DH9 9UJ,54.879360434922900,-1.714535877056290
Viscacha and Cuscus,NE15 8QG,54.981788116586800,-1.727091714000510
Marmoset and Capuchin,NE42 6QE,54.959597376477000,-1.864043127219920
Mole and Rabbit,NE40 3LR,54.970012272495400,-1.763926816970740
Mockingbird and Fox,DH9 9DD,54.880928000000000,-1.732164000000000
Moluccan boobook and Black jay,NE40 3HD,54.967574296176900,-1.753491535453150
Bunting and Jackal,NE44 6AH,54.939104000000000,-1.998518000000000
Myna and Moluccan boobook,NE13 8AU,55.022775712720500,-1.697330043721150
Tattler and Nukupuʻu,NE16 6HR,54.906428341723400,-1.738549000000000
Fulmarine petrel and Piping shrike,DH9 0TA,54.869709439201400,-1.699770095063330
Kite and Mouse,NE40 3RR,54.973457858397300,-1.761297762743370
Jackal and Booted eagles,NE15 7TP,54.983038986068400,-1.693831748885380
New World blackbird and Chickadee,NE16 5XZ,54.941484251869100,-1.692929750171570
Crow and Scimitar babbler,NE16 5BD,54.923348661489800,-1.699636437457210
Crow and Jackal,NE43 7HY,54.920220000000000,-1.926768000000000
Eagle and Meadowlark,DH9 9LU,54.882388000000000,-1.717632000000000
Vulture and Argus,NE40 3QQ,54.976231000000000,-1.763670553841930
Tattler and Petrel,NE21 4AN,54.964563627039800,-1.716228549549050
Ibex and Old World vulture,DH8 9LR,54.879334000000000,-1.947056970083260
Towhee and Duck,NE15 8HL,54.985210224208200,-1.738632156209900
Hawaiian honeycreeper and Marmoset,NE5 1ND,55.005802446568100,-1.701632169075890
Prion and Scimitar babbler,NE21 6AB,54.955042136911900,-1.725789395535420
Tree warbler and Wallaby,DH9 9TY,54.871980327278000,-1.729251308792240
Zebra and Treepie,NE40 4NW,54.966605438315000,-1.792983037064990
Armadillo and Ice seal,NE16 5TU,54.934851307696400,-1.699706868177780
Cloud rat and Solitaire,NE39 1AL,54.931293637068800,-1.734908441944420
Ground sloth and American sparrow,NE39 2DZ,54.934165408644900,-1.782864649074470
Capuchin and Flameback,NE40 3BU,54.972542000000000,-1.766705000000000
Rabbit and Duck,NE17 7JN,54.917160066411200,-1.819351203115540
Marsh harrier and Skunk,NE15 9AT,54.991094738211900,-1.751003000000000
Jay and Ground sloth,NE20 9TX,55.046608115534000,-1.712644446373420
Stilt and Herring gull,NE39 2HF,54.932552762320200,-1.785619997882790
Scimitar babbler and Warbler,NE5 1PT,54.999577551758400,-1.725642369510370
Jackal and Asiatic leopard,NE18 0AZ,55.034637171211000,-1.819606146556870
Kite and Black cockatoo,NE5 2BR,54.987230000000000,-1.698412709667530
Myna and Philippine hawk-owl,NE16 5AX,54.935585902554400,-1.695175281951540
Darwin's finches and Parrotlet,DH9 9RX,54.884550062281000,-1.732315804494060
Lemming and Parakeet,DH9 6TA,54.867620422932900,-1.694488050403260
Cloud rat and Tahr,NE43 7JZ,54.946179669182200,-1.899853912005070
Bronzewing pigeon and Hawaiian honeycreeper,NE39 2DN,54.929631745598300,-1.780314220803670
Parakeet and Mockingbird,DH8 6JJ,54.866863465419400,-1.813343526583430
B and Tahr,NE15 9LW,54.994050000000000,-1.759876000000000
Marsh harrier and Masked owl,NE5 1BH,54.992823574284400,-1.716013000000000
Kangaroo and Black jay,NE42 5PB,54.949830000000000,-1.841328000000000
Cuscus and Marmoset,NE15 9NP,54.995795856908200,-1.755897808460610
Night heron and New World blackbird,NE15 8XJ,54.983010574077500,-1.727239686670840
Meadowlark and American sparrow,NE20 9PQ,55.041234414695800,-1.758172575440070
Tit-tyrant and Mockingbird,NE40 3RU,54.973300317441700,-1.754378195337310
Parrotbill and Prion,NE5 1BU,54.993942000000000,-1.717896000000000
Old World quail and Meadowlark,NE44 6DH,54.947206072788800,-1.972242978021870
Parrotbill and Minke whale,NE40 4SR,54.954529676407600,-1.778648365569650
Shearwater and Triller,NE21 4RW,54.957895119151700,-1.727721979721470
Masked owl and Badger,NE5 1JE,54.999132119063900,-1.719455154834350
Stilt and Prion,DH8 0TH,54.870832000000000,-1.842136121790390
Parrotlet and American sparrow,NE15 8EF,54.978726325920500,-1.716394382505120
Quetzal and Coati,NE41 8BW,54.979707060703500,-1.803665289529870
Philippine hawk-owl and Shearwater,NE43 7SD,54.919746000000000,-1.916534088975440
White ibis and Songlark,NE16 6EL,54.894545245367700,-1.733387764037280
Cloud rat and Darwin's finches,NE20 9AS,55.042159098485700,-1.776538560009660
Argus and Maya,DH8 6QD,54.877514644845600,-1.827086933190970
Wader and Kestrel,NE43 7SU,54.924251299876700,-1.861259973487230
Treepie and Dolphin,NE21 5PJ,54.956036311612500,-1.702032000000000
Buzzard and Recurvebill,NE42 6HU,54.959612446472600,-1.861466344853950
Condor and Kākāriki,NE21 5DJ,54.955034812504400,-1.722557176327750
Lemming and Skunk,NE5 5BU,54.988205419898200,-1.704481815002760
Rabbit and Parrotbill,NE15 0EB,54.995208256320200,-1.787599826273750
Snipe and Parakeet,NE21 6AY,54.953655690955600,-1.728656240781840
Crow and Logrunners,NE42 5HN,54.961384569197300,-1.847935726003760
Logrunners and Meadowlark,NE40 3HW,54.971666113903200,-1.750592189797330
Nukupuʻu and Rat,NE5 5JL,54.995497098818300,-1.695112476622260
Coati and Ice seal,NE40 4FG,54.962434000000000,-1.782287000000000
Herring gull and Chipmunk,NE41 8HP,54.975889928968400,-1.816479030134410
Armadillo and Darwin's finches,NE21 4NG,54.970579797202700,-1.734087677242640
Wader and Hawaiian honeycreeper,DH9 0DU,54.873322646676200,-1.696424036507210
Crow and Bronzewing pigeon,NE42 6PT,54.962690324673100,-1.865563243034090
Scimitar babbler and Duck,NE17 7HF,54.903649200905900,-1.822437016484680
Scimitar babbler and Siskin,NE16 6NX,54.911905191912400,-1.705399297528350
Hawaiian honeycreeper and Greenbul,NE19 2LD,55.032549000000000,-2.027192000000000
Snipe and Myna,NE15 9AE,54.991773925504500,-1.748967254538460
Linsang and Polecat,NE17 7AR,54.932067000000000,-1.806285000000000
Dolphin and River dolphin,NE17 7BJ,54.922192000000000,-1.812355000000000
Viscacha and Myna,NE40 3HH,54.972487644084400,-1.752446073042760
Eagle and Scimitar babbler,NE40 3PZ,54.976939875724800,-1.763526888261530
Chipmunk and Capuchin,NE5 1BF,55.001257303524400,-1.695131366044290
Capuchin and Scimitar babbler,DH9 9LT,54.882290115691200,-1.718443033123730
Puffleg and Mouse,NE5 1TU,55.001106556617200,-1.714501452122440
Old World quail and Snipe,NE21 6SD,54.944137974273500,-1.712454030289960
Old World vulture and Mole,NE16 9AZ,54.964633000000000,-1.707978000000000
Jerboa and Goose,NE17 7EN,54.914884311953100,-1.811951739388160
Fish eagle and Fulmarine petrel,NE20 9ET,55.031391384236200,-1.756557824650430
Boto and Guillemot,NE42 5QT,54.965779958958200,-1.848840671112010
Logrunners and Elephant,NE21 4NW,54.972463051148100,-1.744885381116950
White ibis and Diving bird,DH8 6TP,54.885893675015700,-1.811463065870540
Mouse and Night heron,DH8 0HY,54.868605580512100,-1.859160291571890
Chicken and Armadillo,NE5 5QS,55.000991041178200,-1.700088943392940
Bronzewing pigeon and Viscacha,NE15 8XF,54.981392399805600,-1.722969381434200
Nukupuʻu and Triller,NE21 6QS,54.949169624682100,-1.727796514321410
American sparrow and Night heron,NE43 7JR,54.944877635122600,-1.901043563459400
Argus and Chickadee,NE17 7PB,54.903276982967300,-1.819865517164820
Lemming and Old World vulture,NE5 5QA,54.998891151757400,-1.701261350428170
Booted eagles and River dolphin,NE40 4DY,54.961888747804000,-1.788384489833100
Old World warbler and Moluccan boobook,NE5 1YH,55.005015961733600,-1.714676958986670
Polecat and Peafowl,NE42 6EU,54.960043678772200,-1.853687735800450
Triller and Zebra,NE16 6NA,54.907051252842500,-1.723994251954730
Maya and Marmoset,NE21 6RB,54.952611000000000,-1.704118000000000
Solitaire and Goose,NE39 2NG,54.920255696421800,-1.763890000000000
Fulmarine petrel and Goose,NE45 5JN,54.978074524244800,-2.023420768321550
Bronzewing pigeon and Wallaby,NE42 5FQ,54.965298226841500,-1.844500460239630
Diving bird and Warbler,NE15 9TP,54.996576855007500,-1.742669000000000
Vulture and Old World vulture,NE5 1AA,54.991247315544600,-1.713914962842690
Viscacha and Wader,NE5 2BN,54.985803498673600,-1.696123490968670
Gull and Logrunners,NE21 5NH,54.967811000000000,-1.698743000000000
Fulmarine petrel and Kangaroo,NE42 5PQ,54.958735293541900,-1.849273091558900
Coati and Kite,NE42 6JA,54.958795993622100,-1.862609133704790
Egret and Ground sloth,DH8 6PR,54.886521479425200,-1.822450000000000
Boto and Parrotlet,NE42 5AS,54.959490302653500,-1.842305306239010
American sparrow and Peafowl,NE5 5AL,54.989665291247500,-1.713723037210590
Triller and Triller,NE42 6DN,54.968500845847800,-1.899111254560540
Vulture and Old World warbler,NE18 0QS,55.043653015048100,-1.911958758296370
Mamo and B,NE17 7EJ,54.914863724909600,-1.810267117471510
Parrotlet and Chicken,NE42 5AT,54.958541512132800,-1.845229234474360
Ice seal and Cloud rat,NE5 5AX,54.989830343170100,-1.707548670252820
Night heron and Asiatic leopard,NE21 5PE,54.956087478679700,-1.696722322723760
Polecat and Songlark,DH8 6JW,54.866997781496900,-1.813031291923780
Egret and Armadillo,DH9 9UL,54.879893211913200,-1.711820191530320
Puffleg and Vole,NE16 6LB,54.905446114292200,-1.741924595742630
Marsh harrier and Siskin,DH9 9DX,54.874594634546300,-1.763362122965480
Parakeet and Kite,NE15 8LS,54.982334604797700,-1.742838428875620
Peafowl and Jackal,NE45 5NJ,54.973898000000000,-2.015685000000000
Ground sloth and Cuscus,NE15 9SH,54.990346147654800,-1.724501884189260
Grackle and Buzzard,NE39 1DT,54.918284854496000,-1.753620970816590
Night heron and Ice seal,NE16 5SG,54.934799363994900,-1.693292778413150
Badger and Prion,NE5 5NE,54.997462716417100,-1.700881000000000
Triller and Fish eagle,NE43 7RQ,54.928944935534200,-1.912723652660090
Tree warbler and Vulture,NE5 2LW,54.994479000000000,-1.693651000000000
Piping shrike and Wallaby,DH8 0QX,54.871167484670500,-1.852248396147580
Goose and Chipmunk,NE5 1UB,55.001401362927600,-1.717610294293370
Dolphin and Bunting,NE39 1QL,54.924177943140100,-1.739745260398700
Diving bird and Zebra,NE15 8NH,54.982958623467300,-1.744725148427850
Bronzewing pigeon and Cloud rat,NE15 8LR,54.981622620447600,-1.741858591367270
Peafowl and Thicketbird,NE15 0BG,54.997071191225500,-1.794467690880870
Bunting and Marsh harrier,NE39 1DZ,54.918329410400200,-1.757910863430410
Tattler and Hawaiian honeycreeper,DH9 9DT,54.875576164999000,-1.764400512667560
Ice seal and Goose,NE42 5HZ,54.962507485407000,-1.840622417140490
Chicken and B,NE39 1DY,54.919288000000000,-1.756049364981340
Logrunners and B,DH8 9JD,54.893471562236100,-1.859822076587840
Solitaire and Rat,NE42 6BD,54.972048737710100,-1.860908119549180
Dolphin and Hawk,DH9 6TD,54.868497973789300,-1.693250491774160
Badger and Stint,NE40 4XL,54.966140266423300,-1.778850132455790
Philippine hawk-owl and Ground sloth,NE40 4ES,54.963740392131800,-1.793903604181420
Greenbul and New World blackbird,NE39 2DB,54.922301000000000,-1.771289000000000
Cloud rat and Petrel,NE45 5EL,54.979864971695100,-2.004906909063230
Black jay and Philippine hawk-owl,NE21 6LL,54.951867779418300,-1.724811714983500
Mole and New World blackbird,DH9 8UL,54.873732358523600,-1.745757958807630
Mouse and Lemming,NE42 5BH,54.957465457357200,-1.847044787238910
Bunting and Songlark,NE21 4JY,54.965818000000000,-1.718281000000000
Hawaiian honeycreeper and Ibex,NE20 9PN,55.037534779821900,-1.764109354421670
Mouse and Kite,DH9 9SB,54.884725039654700,-1.734247510825650
Eagle and Night heron,DH9 9TA,54.886512270320300,-1.725677775605740
Argus and Scimitar babbler,NE16 6DW,54.904557103539000,-1.721827956270480
Fish eagle and Vulture,NE20 9DR,55.033998337963800,-1.761595534747410
Skunk and Darwin's finches,NE45 5NB,54.975229000000000,-2.010030491418310
Old World quail and Jerboa,DH8 0HX,54.869396701566300,-1.859438009019920
Crow and Petrel,NE15 9JR,54.995009918692000,-1.767562798983040
Parrotbill and Greenbul,NE21 6NY,54.951667901656300,-1.716038279488130
Meadowlark and Duck,NE21 5TL,54.968928052605700,-1.700030881534930
Argus and Thrasher,NE21 4EQ,54.959220949397300,-1.729899326414900
Rabbit and Booted eagles,NE20 0RP,55.041456120363300,-1.953134000000000
Greenbul and Recurvebill,NE40 3HU,54.971670383593200,-1.752685413233130
Towhee and Warbler,NE39 1AE,54.928814000000000,-1.739044000000000
Cuscus and Herring gull,NE5 5PX,54.999896628719600,-1.700863080079450
Hawaiian honeycreeper and Peafowl,NE40 4BB,54.952982975782600,-1.793380863576650
Booted eagles and Kestrel,NE5 5QL,55.002342096444400,-1.701096000000000
Polecat and Bunting,NE15 0HU,55.009880971052200,-1.846282825936880
Shearwater and Siskin,DH8 0BP,54.868445157380300,-1.845449304454630
Flameback and Bunting,NE15 8AX,54.980429000000000,-1.710273000000000
Capuchin and Solitaire,DH9 9UF,54.875118244605300,-1.738222216217170
Triller and Diving bird,NE15 9XF,54.996534333332500,-1.727023004293280
Gull and Logrunners,NE15 9EL,54.995775970150000,-1.754944460695600
Minke whale and Thicketbird,DH8 0DS,54.870049935733300,-1.849603549265220
Vulture and Diving bird,NE15 9XJ,54.996213247694800,-1.728103707723540
Tit-tyrant and Parakeet,DH9 8NH,54.868576931419600,-1.726329209574590
Marsh harrier and Marmoset,NE42 6NB,54.962362522545200,-1.861722400512930
Herring gull and Stilt,NE21 5TR,54.965243410677500,-1.696294181755230
Quetzal and Wallaby,NE5 2JF,54.991052363013300,-1.700116105433810
Argus and Petrel,NE5 1BX,55.012057000000000,-1.721303000000000
Eagle and Hawk,NE45 5JX,54.980339995108200,-2.017890999011900
Eagle and Kākāriki,DH9 9SG,54.884399960304800,-1.737663309593680
Tree warbler and Triller,NE39 2AN,54.928000960721000,-1.782944624278600
Chicken and Macaw,DH8 0EU,54.871295810395600,-1.854335969352080
Viscacha and Fish eagle,NE21 4RD,54.955198800954200,-1.723539785808120
Hawaiian honeycreeper and Scimitar babbler,NE21 5GG,54.957947409178800,-1.715228861095960
Puffleg and Minke whale,NE16 6BE,54.916250885239200,-1.711357913701870
Ibex and Vole,NE15 6UG,54.973259304292200,-1.699983007462530
Zebra and Old World warbler,NE15 8BW,54.980763869044900,-1.715395671119100
Zebra and Rat,NE21 6JT,54.944819000000000,-1.756269000000000
Guillemot and Pheasant,NE40 4PU,54.970514525977200,-1.787808092844760
Piping shrike and Mole,DH8 0JD,54.870617957608000,-1.858670243354270
Fulmarine petrel and Pitohui,NE19 2LQ,55.046605000000000,-2.017874000000000
Masked owl and Jerboa,NE15 7QY,54.985284099343000,-1.696846233507190
Recurvebill and Thrasher,NE40 4DH,54.964385593120300,-1.787621698135110
Booted eagles and Ground sloth,NE40 4HQ,54.965497690547900,-1.791551791133590
Peafowl and Marsh harrier,NE15 0BJ,54.995987909466700,-1.796880347764260
Myna and Diving bird,NE43 7SQ,54.913299528727700,-1.900996000000000
Eagle and Marsh harrier,NE40 3DB,54.975246158806100,-1.752319764486460
Magpie and Cuscus,NE5 5EA,54.989103152685200,-1.704115780055750
Perching duck and Linsang,NE15 9NS,54.992429168277800,-1.753136000000000
White ibis and Pheasant,NE16 6ES,54.894189747434000,-1.735198697773700
Vole and Old World warbler,NE15 7JS,54.983630589022800,-1.711625188131180
Puffleg and Coati,NE15 0DX,54.995760851209300,-1.790160331332470
Recurvebill and Vulture,NE16 6QB,54.906904635812700,-1.730748405204430
Moluccan boobook and Grosbeak,NE39 1JD,54.919562376975100,-1.754346424927080
Greenbul and Zebra,NE21 6LA,54.941864000000000,-1.744049000000000
Quetzal and Linsang,NE42 6QB,54.959025363936400,-1.866855993558100
Kākāriki and Towhee,NE41 8EW,54.977810995655700,-1.821188617268750
Dorcopsis and Boto,NE20 0RL,55.040764465291900,-1.953933000000000
Puffleg and Ground sloth,NE21 4LA,54.969064262310200,-1.727380964935600
Marsh harrier and Logrunners,NE42 5BP,54.955282000000000,-1.833901000000000
Perching duck and Buzzard,NE39 1AD,54.929296782615600,-1.738182973558470
Tattler and Prion,NE15 9BA,54.990456809698700,-1.746490524624500
Greenbul and Greenbul,DH9 8BD,54.875973373073800,-1.703604060606540
Polecat and Zebra,DH8 6PW,54.883084917632700,-1.820017814761100
Crow and Treepie,NE20 0BZ,55.029334000000000,-1.797163000000000
Polecat and Eagle,NE39 1DL,54.916193024504000,-1.754600921389760
Philippine hawk-owl and Badger,NE20 9AT,55.038818571686900,-1.772926940338660
Parrotbill and Marsh harrier,NE18 0NA,55.042651723119200,-1.876438090603820
Black jay and Logrunners,NE16 6BN,54.907746909106200,-1.733721724230400
Grouse and Tree warbler,NE41 8DT,54.975353080298000,-1.818028119496750
Masked owl and Rat,NE15 9LQ,54.994759014979300,-1.758686276644900
Egret and Solitaire,NE20 9BX,55.039641000000000,-1.718922000000000
Elephant and Kestrel,NE15 8JU,54.982704210766300,-1.739164063257690
Flameback and Grouse,NE21 6SG,54.943295085025100,-1.717065072843390
B and Solitaire,NE16 6EW,54.894160066938400,-1.733951591114260
Asiatic leopard and Pratincole,NE40 4HN,54.966359397200600,-1.790985044108170
Gull and Logrunners,DH9 9JD,54.884006633657600,-1.747127378171930
Herring gull and Quetzal,NE15 8BJ,54.982347227421000,-1.719931000000000
Parrotlet and New World blackbird,NE17 7ES,54.911051492378400,-1.814777178897990
Capuchin and Petrel,NE16 6HL,54.906594476531400,-1.736848536166630
Badger and Thicketbird,NE40 3DU,54.971002000000000,-1.750847238998800
Armadillo and Tree warbler,NE15 9QN,54.991359348500000,-1.759972800400000
Grouse and Minke whale,NE44 6BJ,54.919745383297600,-1.980125000000000
Minke whale and Eagle,NE16 6AN,54.905292733946200,-1.745902444110910
Philippine hawk-owl and Meadowlark,NE42 5BX,54.954616000000000,-1.833685000000000
Vulture and Recurvebill,NE40 3EW,54.969240916660500,-1.746764600304070
Ground sloth and Tree warbler,NE15 7LQ,54.985606000000000,-1.710736000000000
Cloud rat and Vulture,NE41 8AR,54.976549753347700,-1.825193736272760
Logrunners and Gull,NE16 6HU,54.905568769148300,-1.740442223387890
New World blackbird and Thicketbird,NE44 6HH,54.948284629321100,-1.973178970832670
Elephant and Parakeet,DH9 7RR,54.869084534468100,-1.705134805342960
Thrasher and Petrel,NE43 7UZ,54.998740796558000,-1.926219185570980
Triller and Booted eagles,NE42 5BU,54.955012000000000,-1.833652000000000
Lemming and Fulmarine petrel,DH9 6PX,54.866165508907800,-1.698440902177370
Cuscus and Scimitar babbler,NE43 7UX,54.983123434122600,-1.913465928720480
Skunk and Black cockatoo,NE16 5UQ,54.938091012692100,-1.697950231238110
Prion and Argus,NE15 9LH,54.993033807871000,-1.763088000000000
Ice seal and Pratincole,NE17 7SG,54.902270983108600,-1.820181888620500
Myna and Greenbul,NE39 1NN,54.905126435949800,-1.766037271805780
Jackal and Mockingbird,DH8 0PU,54.894611998930600,-1.837475645809140
Black cockatoo and Solitaire,NE40 4LL,54.961117995304000,-1.789575439620560
Philippine hawk-owl and Jerboa,NE5 1SB,55.000942698394800,-1.706060979902820
Mouse and Condor,NE16 5YT,54.938954055548600,-1.694494265883650
New World blackbird and Treepie,NE5 1PU,55.000734530442700,-1.724649630357750
Tahr and Wader,NE42 6NR,54.965898117721300,-1.865302648425040
Boto and Elephant,NE15 0QD,55.009592604343400,-1.877274416188770
Tahr and Old World quail,DH9 9PN,54.887832048595800,-1.725138797340990
Minke whale and Marsh harrier,NE42 5HR,54.962603921598300,-1.845729030460770
Chipmunk and Prion,NE42 6HZ,54.959173167069900,-1.862186000000000
Towhee and Myna,DH9 7RN,54.867474598669700,-1.704570047272410
Masked owl and Dolphin,NE44 6DR,54.945957281916600,-1.973586397526620
White ibis and Maya,NE20 9EN,55.039918784949200,-1.747508684362310
Parrotlet and Kangaroo,NE21 6QU,54.949292455444300,-1.726468614220400
Nukupuʻu and Vulture,NE5 2PB,54.993850000000000,-1.708567843874380
Minke whale and Dorcopsis,NE21 5RP,54.953100007372700,-1.725459000000000
Hawk and Pitohui,NE40 4RP,54.955555562996300,-1.769742179409290
Eagle and Minke whale,NE15 9QU,54.996384282635200,-1.772040920691500
Songlark and Asiatic leopard,NE18 0LD,55.029444000000000,-1.887352691869950
Towhee and Meadowlark,NE21 6BJ,54.955104819713600,-1.729708296966450
Diving bird and Badger,NE40 3UD,54.968644466656200,-1.782194709194700
Chickadee and Jerboa,DH9 8RG,54.876255673156800,-1.694080000000000
Linsang and Egret,DH8 0RW,54.867342627511400,-1.855020172701180
Rabbit and Hawk,NE17 7AG,54.922339650095900,-1.815677135354070
Fish eagle and Tit-tyrant,DH9 9RQ,54.886022267705400,-1.727567264598060
Old World warbler and American sparrow,NE15 7LW,54.984277828614600,-1.704229369017450
Fish eagle and Stilt,NE40 4JR,54.948255000000000,-1.803209000000000
White ibis and Kangaroo,NE16 5UJ,54.938650280383600,-1.698804510004810
Kangaroo and Grosbeak,NE43 7UQ,54.981954191518100,-1.942093828840870
Old World quail and Bunting,NE16 6QA,54.906909604311700,-1.728939213685800
Siskin and White ibis,DH9 9XW,54.879727597864100,-1.695487551711700
Chipmunk and Fulmarine petrel,NE39 2LF,54.923371597286900,-1.758348701221530
Fish eagle and Jackal,DH8 0EW,54.874588967954800,-1.850350280001170
Egret and Darwin's finches,NE45 5PH,55.005134034664000,-2.005942015709230
Minke whale and Minke whale,NE42 5QL,54.965164958464800,-1.852966316024210
Prion and Stilt,NE40 4LP,54.957630000000000,-1.783144000000000
Bronzewing pigeon and Duck,NE39 1LB,54.920258871113200,-1.752157998379380
Nukupuʻu and Rat,NE15 8UE,54.982860439028700,-1.720474808383290
Kangaroo and Tattler,NE42 5NN,54.952240000000000,-1.829358206581910
Fish eagle and Shearwater,NE40 4NH,54.967372114038100,-1.789402214509810
Vulture and Kangaroo,NE5 1JZ,54.995256014573500,-1.714277233094000
Ground sloth and Egret,NE17 7PU,54.901295017379100,-1.828872083072590
Herring gull and Thicketbird,NE15 8UH,54.983139760285300,-1.720801009978610
Polecat and Buzzard,NE45 5LW,54.973853113130400,-2.006796406887050
Pratincole and New World blackbird,NE21 4PU,54.962386290528500,-1.715088172592630
Tit-tyrant and Vole,DH9 9AJ,54.876841988943100,-1.759172307334670
Peafowl and Siskin,NE5 5DT,54.990880908829300,-1.703493192639390
Pheasant and American sparrow,NE15 7SZ,54.985758807425500,-1.699842997565010
Maya and Buzzard,NE5 5HE,54.999561997754200,-1.692783758063260
Dorcopsis and Mockingbird,DH9 9DZ,54.873867080094800,-1.763537797768490
Vole and Greenbul,NE15 7XF,54.978257049506400,-1.704226713525930
Mole and Chickadee,NE21 6EH,54.953069656464100,-1.735951951365490
Chickadee and Partridge,NE21 6DH,54.953710790016100,-1.729186756508650
Black jay and Pratincole,NE40 4UT,54.965107000000000,-1.783479000000000
Pitohui and Viscacha,DH9 9XR,54.878757845245800,-1.714321937556200
Logrunners and Mink,NE5 1HT,54.999103015853500,-1.722441057603020
Darwin's finches and Stilt,NE41 8HT,54.972791044924900,-1.817383575961910
Recurvebill and Elephant,NE21 4DU,54.959104241135700,-1.721966975545430
Tree warbler and Petrel,NE17 7EX,54.914021590309700,-1.817836545508800
Tree warbler and Thrasher,NE5 1DU,54.993671786480600,-1.713585000000000
Bronzewing pigeon and Stilt,NE42 5AX,54.957531374510900,-1.842485000000000
Old World warbler and Mole,NE45 5LT,54.971516893732300,-1.998016906273530
Thrasher and Scimitar babbler,NE15 8XS,54.980824000000000,-1.721755000000000
Tit-tyrant and Dolphin,NE15 7LG,54.981544301559300,-1.710999497776550
Jerboa and Pheasant,NE16 6BG,54.920677000000000,-1.732872000000000
Treepie and Ice seal,NE5 5EE,54.989111106528600,-1.700021169322500
Prion and Mockingbird,NE5 1YA,55.004507502776300,-1.720058000000000
Diving bird and Cloud rat,NE20 9BP,55.044198672385600,-1.727794739267980
Black jay and Chickadee,DH8 6TL,54.885668122897300,-1.810887363112780
Zebra and Stilt,NE21 6BQ,54.954489164167500,-1.731695480352260
Partridge and Francolin,NE15 8QD,54.983807505439900,-1.764642890638190
Grouse and Chipmunk,NE16 6QN,54.904372011300800,-1.727396722640890
Treepie and Ice seal,NE40 4BG,54.951271257784700,-1.790844658218160
Rabbit and Buzzard,NE5 1SS,55.000043136315700,-1.709412864349050
Marmoset and Quetzal,NE13 8BP,55.028483000000000,-1.704655000000000
Peafowl and Chicken,DH8 5XG,54.866901180784800,-1.839799402756390
Tattler and Elephant,NE5 5QH,54.997675732121800,-1.700332488790560
Tit-tyrant and Boto,NE5 1AN,54.994174507103700,-1.716770083551230
Wader and Francolin,DH8 9JA,54.896136749051500,-1.856600888663300
Shearwater and Quetzal,DH8 0QE,54.890831996966000,-1.839922870083730
New World blackbird and Macaw,NE5 2BE,54.988081000000000,-1.693965000000000
Moluccan boobook and Tit-tyrant,NE20 0JS,55.027762941497900,-1.796860688044470
Parakeet and Fox,NE5 1AB,54.991281126828800,-1.713008246372540
Viscacha and White ibis,NE15 8RE,54.976849217707100,-1.709205260404710
Hawk and Boto,NE40 4TH,54.967553522928700,-1.780185668647430
Condor and Badger,NE39 1AQ,54.929103000000000,-1.735672000000000
Dolphin and Marmoset,NE40 4BE,54.952920575656200,-1.793677848882730
Myna and Argus,DH9 9QT,54.882380654097800,-1.692739885449880
Greenbul and Kākāriki,NE5 1PY,55.001141195900300,-1.725662975228390
Stint and Grackle,NE15 7RJ,54.982723111884100,-1.696881139446910
Coati and Booted eagles,NE5 5QG,55.001591000000000,-1.699115000000000
Jackal and Guillemot,NE18 0BQ,55.021508626796600,-1.838996813393560
Logrunners and Stint,NE17 7PE,54.901516252352100,-1.820434000000000
Tit-tyrant and Gull,DH8 0HB,54.872520817129800,-1.856746905652090
Flameback and Chipmunk,NE21 4NB,54.971897534003200,-1.740921136580390
Stint and Solitaire,NE5 1BB,54.992595848379500,-1.714171079242960
Tit-tyrant and Jay,NE45 5DD,54.974328493382800,-2.016044862051180
Old World vulture and Marmoset,NE40 3AT,54.971433920770600,-1.774369050308620
Ibex and Bunting,DH8 6TR,54.886672000000000,-1.808638000000000
