name,postcode,lat,lon
hognose snake and Gila monster,KW15 1AA,58.983311000000000,-2.960721000000000
deaf adder and blue tongue,KW15 1AP,58.980873133847700,-2.963697174533760
hognose snake and Egret,KW15 1BD,58.975657255897800,-2.967030333618650
gavial and Grackle,KW15 1EQ,58.975627365502800,-2.958976033665440
Prion and Goose,KW15 1GA,58.981288408510900,-2.954923323524110
thorn lizard and Towhee,KW15 1HQ,58.982802220122800,-2.959523000000000
snake and Crow,KW15 1HX,58.984523464262900,-2.955882800719220
Old World vulture and American sparrow,KW15 1JF,58.982141787181800,-2.957330381502390
Meadowlark and black snake,KW15 1LE,58.984504389841200,-2.959675155974010
Skunk and krait,KW15 1LN,58.987630250360200,-2.953532880050470
gopher snake and horned viper,KW15 1LW,58.987186927727900,-2.952755029563280
Masked owl and asp,KW15 1NE,58.983176340110400,-2.954662419196020
Philippine hawk-owl and boomslang,KW15 1PN,58.979266515859600,-2.951422977875630
Scimitar babbler and agama,KW15 1QA,58.976237373142300,-2.955427137549080
Old World warbler and dugite,KW15 1SB,58.968801495774500,-2.977029195326620
Songlark and death adder,KW15 1ST,58.949157000000000,-2.953305000000000
python and Ibex,KW15 1TQ,58.980533039525100,-2.962330743561820
dukite and Vulture,KW15 1TY,58.998700000000000,-3.011992000000000
Egret and loggerhead,KW15 1YF,58.972586000000000,-2.951239000000000
dugite and Kākāriki,KW16 3AT,58.961548140398100,-3.302021724339170
tree snake and Egret,KW16 3DH,58.957739846234000,-3.302034609818700
Mole and Grosbeak,KW16 3DS,58.956434051044600,-3.303271896265200
Maya and Flameback,KW16 3HH,58.992852467526300,-3.178802976200520
B and gopher snake,KW16 3HX,59.014794182394200,-3.302535585551880
Diving bird and Wader,KW16 3JB,59.043207720665100,-3.282190343721220
cobra de capello and leguaan,KW16 3LS,59.066669059521600,-3.331010655517320
Piping shrike and Myna,KW16 3LT,59.070740000000000,-3.315895000000000
diamond python and Hawaiian honeycreeper,KW16 3NJ,58.911968477879300,-3.330401753921110
Kite and Magpie,KW17 2HB,59.088715226255300,-3.045007574378170
Boto and Fulmarine petrel,KW17 2LY,59.124968433711000,-3.301667360779130
Scimitar babbler and mud turtle,KW17 2NZ,59.060491000000000,-3.074229000000000
