name,postcode,lat,lon
hognose snake and Gila monster,KW15 1AA,58.983311000000000,-2.960721000000000
deaf adder and blue tongue,KW15 1AP,58.980873133847700,-2.963697174533760
hognose snake and Egret,KW15 1BD,58.975657255897800,-2.967030333618650
gavial and Grackle,KW15 1EQ,58.975627365502800,-2.958976033665440
loggerhead and Philippine hawk-owl,KW15 1EY,58.975775187497600,-2.948665416627710
Prion and Goose,KW15 1GA,58.981288408510900,-2.954923323524110
thorn lizard and Towhee,KW15 1HQ,58.982802220122800,-2.959523000000000
snake and Crow,KW15 1HX,58.984523464262900,-2.955882800719220
Old World vulture and American sparrow,KW15 1JF,58.982141787181800,-2.957330381502390
Meadowlark and black snake,KW15 1LE,58.984504389841200,-2.959675155974010
Skunk and krait,KW15 1LN,58.987630250360200,-2.953532880050470
gopher snake and horned viper,KW15 1LW,58.987186927727900,-2.952755029563280
Masked owl and asp,KW15 1NE,58.983176340110400,-2.954662419196020
Philippine hawk-owl and boomslang,KW15 1PN,58.979266515859600,-2.951422977875630
Scimitar babbler and agama,KW15 1QA,58.976237373142300,-2.955427137549080
Old World warbler and dugite,KW15 1SB,58.968801495774500,-2.977029195326620
Songlark and death adder,KW15 1ST,58.949157000000000,-2.953305000000000
python and Ibex,KW15 1TQ,58.980533039525100,-2.962330743561820
dukite and Vulture,KW15 1TY,58.998700000000000,-3.011992000000000
galliwasp and Mole,KW15 1UF,58.995688584344100,-2.928484882090980
Egret and loggerhead,KW15 1YF,58.972586000000000,-2.951239000000000
fer-de-lance and galliwasp,KW15 1YR,58.988825543345700,-2.949755168335650
Kite and Magpie,KW17 2HB,59.088715226255300,-3.045007574378170
Scimitar babbler and mud turtle,KW17 2NZ,59.060491000000000,-3.074229000000000
galliwasp and Cloud rat,KW17 2RX,58.903262587945400,-2.903491188985710
