name,postcode,lat,lon
Cream Cafe Bistro,BT16 1DE,54.5891,-5.8245
sams grow,BT16 1QT,54.5974,-5.7817
st johns court,BT16 1RJ,54.5947,-5.8045
McDonald's Restaurant,BT16 1RQ,54.5946,-5.8078
The Village Kitchen,BT16 1XJ,54.5963,-5.7873
The Secret Garden at Dundonald Nurseries,BT16 1XS,54.5867,-5.8111
Blue Chicago,BT16 1XT,54.5871,-5.8157
Polly Browns Ltd T/A BINKYS,BT16 1XT,54.5871,-5.8157
SUGAR RAYS,BT16 1XT,54.5871,-5.8157
WOLFES DINER,BT16 1XT,54.5871,-5.8157
Wagamamas,BT16 1XT,54.5871,-5.8157
Carlito’s New York Italian,BT16 1YG,54.5893,-5.8229
Tale of Spice,BT16 1YG,54.5893,-5.8229
Little Thai Cafe & Bistro,BT16 2AA,54.5934,-5.8129
jannatbelfastltd,BT16 2AA,54.5934,-5.8129
Cafe Nosh,BT16 2AG,54.5924,-5.8095
Hashtag Shakes,BT16 2QP,54.5893,-5.7916
Knock Bistro,BT16 2QX,54.5958,-5.8190
Rubys Bar Dundonald,BT16 2RE,54.5947,-5.8158
The Cultra Inn,BT18 0AU,54.6515,-5.8049
Cultra catering ,BT18 0BB,54.6546,-5.8126
The Royal Belfast Golf Club,BT18 0BP,54.6573,-5.7949
The Culloden Hotel Estate & Spa,BT18 0EX,54.6521,-5.8023
TORGRANGE SUBWAY,BT18 0NE,54.6451,-5.8162
Brazilia bt18,BT18 9AB,54.6426,-5.8337
Tulsi indian restaurant ,BT18 9AB,54.6426,-5.8337
Coast,BT18 9AD,54.6422,-5.8331
Fontana Restaurant,BT18 9AE,54.6409,-5.8351
Little Wing Pizzeria,BT18 9AE,54.6409,-5.8351
Alexanders Holywood,BT18 9AQ,54.6413,-5.8354
Eightone,BT18 9AQ,54.6413,-5.8354
Homebird Cafe,BT18 9AQ,54.6413,-5.8354
Noble,BT18 9BU,54.6413,-5.8333
Camphill Community Holywood,BT18 9HX,54.6425,-5.8354
LemonGrass Asian Cuisine Restaurant,BT18 9HX,54.6425,-5.8354
The Ruddy Duck Fish House,BT18 9JE,54.6411,-5.8364
The Stokers Halt HOLYWOOD ,BT18 9JE,54.6411,-5.8364
Holywood golf club ,BT18 9LE,54.6313,-5.8301
Coffee Cure,BT19 1DL,54.6585,-5.7037
Carnalea catering ,BT19 1EZ,54.6645,-5.7057
Ground Espresso Bars Ltd,BT19 1FH,54.6457,-5.6827
The Old Inn,BT19 1JH,54.6588,-5.7284
Starbucks Bangor,BT19 1ND,54.6553,-5.6988
Subway ta Soul Feet Ltd,BT19 1ND,54.6553,-5.6988
Cafe Havana,BT19 1RS,54.6428,-5.6935
Grill'd,BT19 1RS,54.6428,-5.6935
Helen’s bay catering ,BT19 1TL,54.6672,-5.7385
Coq & Bull Brasserie,BT19 1UR,54.6372,-5.7172
Cottage kitchen ,BT19 6JR,54.6757,-5.6183
The Groomsport Inn,BT19 6JR,54.6757,-5.6183
The stables restaurant,BT19 6LG,54.6743,-5.6153
the stables,BT19 6LG,54.6743,-5.6153
Airtastic Bangor Limited,BT19 7AG,54.6452,-5.6752
McDonald's Restaurant Bangor,BT19 7HB,54.6475,-5.6565
Starbucks Bloomfield DT,BT19 7HB,54.6475,-5.6565
Subway,BT19 7HB,54.6475,-5.6565
Cafe b ,BT19 7HJ,54.6446,-5.6694
BLUE CHICAGO GRILL LTD,BT19 7HR,54.6465,-5.6591
Ground Espresso Bars Ltd,BT19 7JB,54.6442,-5.6608
The Pit Stop Cafe,BT19 7PG,54.6407,-5.6599
Primacy Food Village ,BT19 7PQ,54.6398,-5.6505
Gransha Subway,BT19 7TA,54.6368,-5.6728
Green chilli restaurant,BT20 3AA,54.6596,-5.6709
IMPERIAL BAR,BT20 3AF,54.6612,-5.6695
Sunflower Sandwich Bar LTD,BT20 3AF,54.6612,-5.6695
King Street Kitchen,BT20 3AH,54.6616,-5.6695
Viton (NI) LTD T/A BOKHARA RESTAURANT,BT20 3AH,54.6616,-5.6695
LiLi's Chinese Restaurant,BT20 3BB,54.6617,-5.6728
The Bearded Goat ,BT20 3BB,54.6617,-5.6728
Tuk Tuk Bangor,BT20 3BB,54.6617,-5.6728
Hilmount Bangor,BT20 3NN,54.6552,-5.6892
Bryansburn Bar and Grill,BT20 3RQ,54.6600,-5.6907
Princetown Guesthouse,BT20 3TA,54.6622,-5.6748
Shelleven House,BT20 3TA,54.6622,-5.6748
Bangla,BT20 4AF,54.6601,-5.6685
Bob & Berts Bangor,BT20 4AF,54.6601,-5.6685
THE HEATHERLEA,BT20 4AG,54.6605,-5.6686
The Ava Bar and Restaurant,BT20 4AG,54.6605,-5.6686
Coffee cure at the museum,BT20 4BT,54.6564,-5.6694
YAKS NEPALESE RESTAURANT,BT20 4JA,54.6578,-5.6722
Haus,BT20 4JB,54.6570,-5.6738
PORKY'S SMOKEHOUSE AND GRILL,BT20 4JB,54.6570,-5.6738
Tom's Dining Rooms,BT20 4JP,54.6608,-5.6668
Roka Coffee House,BT20 4LE,54.6607,-5.6644
The Yogurt Tree,BT20 4LF,54.6609,-5.6653
Cafe Uno Ltd,BT20 4RH,54.6600,-5.6556
teddys bar and grill,BT20 4SU,54.6595,-5.6653
Captain's Table,BT20 5AF,54.6615,-5.6677
Little Wing Pizzeria,BT20 5AF,54.6615,-5.6677
The Goats Toe,BT20 5AF,54.6615,-5.6677
Pickie Fun Park,BT20 5AG,54.6623,-5.6681
Subway ta Soul Feet Ltd,BT20 5AG,54.6623,-5.6681
The Red Berry,BT20 5AG,54.6623,-5.6681
Brazilia,BT20 5AW,54.6632,-5.6673
The Marina Coffee House and Eatry,BT20 5AW,54.6632,-5.6673
Wolseys Bar and Restaurant,BT20 5AY,54.6635,-5.6668
Donegans ,BT20 5BE,54.6636,-5.6648
Bebe Adrianos Mexicanos ,BT20 5BG,54.6637,-5.6662
The Rabbit Rooms,BT20 5ED,54.6639,-5.6670
The Guillemot ,BT20 5EY,54.6658,-5.6665
The Guillemot,BT20 5EY,54.6658,-5.6665
The Salty Dog Hotel and Bistro,BT20 5EY,54.6658,-5.6665
The Boat House Dining,BT20 5HA,54.6687,-5.6598
The Jamaica inn,BT20 5HA,54.6687,-5.6598
Cairn Bay Lodge,BT20 5HS,54.6656,-5.6539
Ballyholme bay catering ,BT20 5HY,54.6672,-5.6601
The Esplanade Bar and Restaurant,BT20 5LZ,54.6652,-5.6472
Bangor Curry House,BT20 5NF,54.6634,-5.6438
SUBURBAN COFFEE,BT20 5NG,54.6637,-5.6444
BAYLANDS COFFEE CO,BT20 5NS,54.6645,-5.6418
BAY OF BENGAL DONAGHADEE ,BT21 0AG,54.6420,-5.5354
Robins Nest,BT21 0AG,54.6420,-5.5354
Saints n Sinners,BT21 0AG,54.6420,-5.5354
The Stormy Cup,BT21 0AG,54.6420,-5.5354
Ther eatery,BT21 0AG,54.6420,-5.5354
Grace Neills,BT21 0AH,54.6418,-5.5366
Morellis Donaghadee,BT21 0AQ,54.6414,-5.5360
BULL AND CLAW DONAGHADEE,BT21 0DA,54.6428,-5.5385
Captain's Table,BT21 0HE,54.6427,-5.5339
Harbour and Company,BT21 0HE,54.6427,-5.5339
Pier 36,BT21 0HE,54.6427,-5.5339
The Lighthouse Bar & Grill,BT21 0HE,54.6427,-5.5339
Maxemoo Farmyard Cafe ,BT22 2BL,54.6086,-5.5287
Alchemy Coffee,BT22 2NE,54.5352,-5.5606
Wildfowler Inn,BT22 2NE,54.5352,-5.5606
Ballywalter Tea Room ,BT22 2PJ,54.5449,-5.4860
HARRISONS OF GREYABBEY ,BT22 2RB,54.5263,-5.5344
SAMUEL KELLY AND SON,BT22 2SG,54.4858,-5.5290
THE GOLDEN DINER,BT22 2SG,54.4858,-5.5290
Munch,BT22 2SP,54.4885,-5.5345
yer coddin me,BT22 2SP,54.4885,-5.5345
Old Schoolhouse coffee shop ,BT23 4AD,54.5945,-5.6996
Tuk Tuk Newtownards,BT23 4AE,54.5954,-5.7026
Cyreth Ltd T/A Strangford Arms Hotel,BT23 4AL,54.5951,-5.7075
LeWinters at the Strangford Arms,BT23 4AL,54.5951,-5.7075
The Gatelodge,BT23 4AS,54.5937,-5.7061
Wild Coco Cafe Barista,BT23 4BN,54.5937,-5.7081
del pieros,BT23 4BN,54.5937,-5.7081
Cafolla's at the Square,BT23 4DA,54.5934,-5.6966
Urban,BT23 4DA,54.5934,-5.6966
Little Wing Pizzeria,BT23 4DJ,54.5933,-5.6955
TLC Coffee House,BT23 4EA,54.5995,-5.7046
McDonald's Restaurant Newtownards,BT23 4EU,54.5930,-5.7095
Starbucks Ards SC,BT23 4EU,54.5930,-5.7095
Subway Ards,BT23 4EY,54.6008,-5.7015
JarrahFoodCompany ,BT23 4JA,54.5940,-5.6962
Del pieros,BT23 4JB,54.5938,-5.6967
Chef & Manager Restaurant,BT23 4JN,54.5930,-5.6969
Molly Browns,BT23 4JT,54.5921,-5.6967
CAFOLLAS,BT23 4LH,54.5939,-5.6983
Romas  Bar and Restaurant,BT23 4LH,54.5939,-5.6983
Eagle's nest on the hills,BT23 4SL,54.5738,-5.7204
McKee's Farm Shop Ltd,BT23 4TQ,54.6101,-5.7572
Relax Coffee Shop,BT23 4YH,54.5846,-5.7033
Comber Tandoori,BT23 5AP,54.5482,-5.7441
No 14 at the Georgian House,BT23 5DT,54.5507,-5.7453
P&E Catering T/A Sugarcane Cafe Bistro,BT23 5DU,54.5500,-5.7446
McBrides On The Square,BT23 5DX,54.5500,-5.7459
Frank & Honest Cafe,BT23 5DY,54.5512,-5.7474
LG'S TRADITIONAL FISH & CHIPS,BT23 5DY,54.5512,-5.7474
NHV Comber ltd,BT23 5DY,54.5512,-5.7474
North Down House,BT23 5EH,54.5519,-5.7542
The raj tandoori ,BT23 5EQ,54.5514,-5.7517
The Goose,BT23 5HJ,54.5497,-5.7480
The Poacher's Pocket,BT23 5NE,54.5146,-5.7184
La Mon Hotel & Country Club,BT23 5RF,54.5489,-5.8187
The Old Post Office,BT23 6AA,54.5046,-5.7125
The Auld House,BT23 6BB,54.5337,-5.8280
Urban Quarry Outlet,BT23 6BH,54.5261,-5.8141
Pot Belly Restaurant Ltd,BT23 6DJ,54.4950,-5.7723
Daft Eddy’s ,BT23 6QH,54.4864,-5.6449
Bull and Claw Newtownards,BT23 7DN,54.5938,-5.6945
Haptik,BT23 7DW,54.5934,-5.6944
Hickorys Smokehouse & Grill,BT23 7DY,54.5935,-5.6898
Bob & Berts Newtownards,BT23 7HS,54.5927,-5.6946
Knotts Bakery Ltd,BT23 7HS,54.5927,-5.6946
Mauds ice cream and coffee shop,BT23 7HZ,54.5929,-5.6940
The Parlour Bar,BT23 7JF,54.5923,-5.6927
Alexanders Ards,BT23 7NZ,54.5916,-5.6923
Green Gaze,BT23 7PA,54.5919,-5.6919
Clandeboye Bistro,BT23 7PN,54.6272,-5.6791
Hillmount Ards,BT23 8RP,54.5920,-5.6574
CLOUD 9,BT23 8SG,54.5859,-5.6843
Orchard Cafe at Castle Buildings,BT4 3SR,54.5991,-5.8286
Northern Ireland Civil Service Sports Club,BT4 3TA,54.6019,-5.8301
