name,postcode,lat,lon
Philippine hawk-owl and milk snake,CA10 2NL,54.611892951721400,-2.817640829156090
blue racer and New World blackbird,CA11 0NA,54.621639889078000,-2.879739437946940
Pitohui and Kite,CA11 0NN,54.534585227038200,-2.935850000000000
Quetzal and Cuscus,CA11 0QU,54.640387892375200,-2.890665107581950
terrapin and puff adder,CA11 0QZ,54.639106890947600,-2.892542871830940
horned toad and hognose snake,CA11 0ST,54.629275000000000,-2.980979000000000
Civet and indigo snake,CA11 0SU,54.620249822450100,-2.995397236713730
Stint and diamond snake,CA11 0UA,54.666988451632500,-2.876021614266800
loggerhead and Mole,CA11 0UG,54.667875146238800,-2.868954912607240
copperhead and anaconda,CA11 0XR,54.663549730320100,-2.988828209681000
garter snake and galliwasp,CA12 4DP,54.598616276257300,-3.133499015320860
massasauga and Flameback,CA12 4JW,54.603381843216500,-3.125550414237580
box turtle and cobra,CA12 4LQ,54.604450127929900,-3.120177000000000
Kangaroo and Booted eagles,CA12 4LY,54.602990056546000,-3.117521000000000
Solitaire and Jerboa,CA12 4NN,54.605897000000000,-3.134571521686560
cayman and massasauga,CA12 4NZ,54.603193451700500,-3.128409166537320
moloch and diamond python,CA12 4PT,54.625865974858300,-3.152518809395790
amethystine python and mountain devil,CA12 4PY,54.623866577661900,-3.162359564391370
diamondback turtle and Boto,CA12 4RG,54.682077261011900,-3.214572717171950
Komodo dragon and Petrel,CA12 4ST,54.619300164366900,-3.047239186451080
garter snake and agama,CA12 5AG,54.599446361105500,-3.135070019147540
Vulture and Fox,CA12 5BA,54.600358452676600,-3.136519534276440
Vulture and python,CA12 5BP,54.600105152182700,-3.135738494607850
Crow and Minke whale,CA12 5DT,54.601827067827600,-3.139950639966830
hoop snake and diamondback turtle,CA12 5EB,54.602224100231500,-3.140735758678160
galliwasp and Ground sloth,CA12 5ER,54.599352702338100,-3.140253004195520
Petrel and ringhals,CA12 5EX,54.599802439214000,-3.139259403690320
Minke whale and Wader,CA12 5FB,54.600406000000000,-3.137174000000000
pit viper and harlequin snake,CA12 5HD,54.601511000000000,-3.140084150543910
king cobra and Rabbit,CA12 5HZ,54.600576126655300,-3.136308880849130
Macaw and gavial,CA12 5LL,54.602841068018500,-3.136294570431500
Macaw and snapping turtle,CA12 5PZ,54.599010159903300,-3.134624464181760
turtle and Nukupu ªu,CA12 5QF,54.606494095774100,-3.146335845473100
Songlark and puff adder,CA12 5RN,54.602140369903700,-3.163690938440790
thorn lizard and Cloud rat,CA12 5RQ,54.602733171779100,-3.160921323377920
Snipe and giant tortoise,CA12 5RW,54.603656675038400,-3.163022068091380
