name,id,postcode,lat,lon
mud turtle and sand lizard,1502227,CA12 5HJ,54.600596584439900,-3.135086542989710
deaf adder and bicycle lizard,1501673,CA13 9PE,54.660716634557100,-3.359012163130910
Crow and Marsh harrier,1502718,CA12 4BD,54.599253521030600,-3.119105475235470
Perching duck and Siskin,1501923,CA13 9AW,54.660813605070300,-3.355170615927820
bushmaster and Black jay,1501592,CA13 9JD,54.664924128943000,-3.349245144601570
rat snake and diamond python,1502261,CA12 5LU,54.604058000000000,-3.144626000000000
Masked owl and Kangaroo,1502386,CA12 4JA,54.602067152635200,-3.125823746385480
Jerboa and mountain devil,1501663,CA13 9NS,54.662614137835900,-3.359711179899100
king snake and Recurvebill,1502246,CA12 5JU,54.602208999852100,-3.138521630185870
gaboon viper and diamond python,1502019,CA13 9BP,54.662816291983900,-3.348058984880950
Nukupuʻu and tree snake,1501802,CA13 9SQ,54.672576913758100,-3.280955508004110
Chickadee and Jay,1502289,CA12 5PJ,54.602765401966800,-3.142422809437980
Nukupuʻu and Ice seal,1502191,CA12 5ED,54.601722400770200,-3.140566926235090
whip snake and harlequin snake,1502198,CA12 5EN,54.599948646954700,-3.143768052839490
Buzzard and whip snake,1503352,CA11 0QA,54.544561233832700,-2.951630304044270
Viscacha and Gull,1502359,CA12 4EP,54.600603665933000,-3.130489226990680
death adder and constrictor,1501586,CA13 9HW,54.667241426618700,-3.355012533678660
Ice seal and Old World warbler,1502414,CA12 4LN,54.603391825603100,-3.113785223185500
constrictor and puff adder,1501340,CA13 9UZ,54.541204739277600,-3.276913315371480
glass snake and viper,1502369,CA12 4HE,54.601571419700600,-3.129834916994380
Tahr and Shearwater,1501667,CA13 9NX,54.662198084020900,-3.359945339668750
Ibex and Bunting,1501589,CA13 9HZ,54.664073045442500,-3.359449833225010
Armadillo and Grouse,1502423,CA12 5SR,54.596987000000000,-3.181829131480570
Pheasant and alligator,1502379,CA12 4HS,54.601174527458700,-3.131913731941000
Grosbeak and White ibis,1502173,CA12 5DF,54.599560360119500,-3.137397000000000
Warbler and ringhals,1501328,CA13 9UG,54.621347000000000,-3.303104000000000
sand lizard and python,1502192,CA12 5EE,54.601446432536300,-3.141240337967940
tortoise and glass snake,1502324,CA12 5SL,54.644376704678200,-3.218918475306470
Schneider python and soft-shelled turtle,1503355,CA11 0QE,54.544259330992900,-2.953555000000000
cobra and king snake,1502310,CA12 5RJ,54.601450318622700,-3.163485490917960
python and chameleon,1502297,CA12 5QB,54.608470830184500,-3.144779000000000
Quetzal and brown snake,1502024,CA13 9BW,54.663341666457700,-3.346882570339810
slowworm and amphisbaena,1502363,CA12 4EW,54.599763159531400,-3.131951969585530
Philippine hawk-owl and racer,1503479,CA11 0XS,54.698703099399300,-2.974026000000000
kabaragoya and hawksbill,1502257,CA12 5LL,54.602841068018500,-3.136294570431500
Old World warbler and blue racer,1501541,CA13 9DS,54.657799716946100,-3.356248432967100
Elephant and crocodile,1502179,CA12 5DP,54.600816329043200,-3.138482761895200
Guillemot and Bunting,1503362,CA11 0QP,54.546110502085500,-2.962549449889110
