name,postcode,lat,lon
Cloud rat and king cobra,CA17 4ES,54.503421000000000,-2.262081000000000
saltwater crocodile and black snake,DL11 7DU,54.487723429050800,-1.874702000000000
bearded dragon and sidewinder,DL12 0AW,54.612453310982800,-2.008436900776430
Minke whale and Viscacha,DL12 0DQ,54.605218593843400,-1.986669636011880
Buzzard and Ground sloth,DL12 0QT,54.629529625296600,-2.091435064584760
frilled lizard and Minke whale,DL12 0RJ,54.624682422840500,-2.083680165955670
tortoise and Bunting,DL12 0RQ,54.624062254223300,-2.083802791257730
Diving bird and Cloud rat,DL12 0ST,54.622636147125500,-2.079448000000000
Skunk and Moluccan boobook,DL12 0SU,54.622960349308200,-2.078658722884380
Kākāriki and amphisbaena,DL12 0TL,54.619462758192600,-2.066867000000000
thorny devil and Piping shrike,DL12 0UU,54.625694723760400,-2.088173879877040
rat snake and Ground sloth,DL12 0XA,54.632355055289100,-2.108775750256590
king snake and Greenbul,DL12 0XJ,54.655155947803600,-2.187993204454280
Recurvebill and kabaragoya,DL12 8AN,54.547277098342600,-1.926182979128050
sidewinder and slowworm,DL12 8AS,54.549217779367800,-1.925406518276270
swift and Parakeet,DL12 8AX,54.554284245688200,-1.922057663394540
Triller and Grouse,DL12 8BG,54.545173270177400,-1.924702808437300
adder and Wallaby,DL12 8JU,54.543308806972100,-1.918229679514010
saltwater crocodile and Fox,DL12 8LP,54.544492598801400,-1.914641155086110
Gull and Polecat,DL12 8NS,54.540849105881700,-1.922330482462260
puff adder and Guillemot,DL12 8NY,54.546839609443100,-1.916723167640960
Cloud rat and Marmoset,DL12 8PL,54.540958389883500,-1.924617803736370
Petrel and blue tongue,DL12 9AT,54.540880045797600,-1.928822045188620
Songlark and Kestrel,DL12 9DZ,54.593347189713500,-2.011883998358080
Dolphin and saltwater crocodile,DL12 9JQ,54.531212167089000,-2.014013454908270
diamondback and Duck,DL12 9PW,54.569540425518600,-1.981360376077250
Shearwater and fer-de-lance,DL12 9RS,54.525470074132600,-1.918481519691550
Jay and bandy-bandy,DL12 9RT,54.520747076046400,-1.924824837846050
Parakeet and bandy-bandy,DL12 9RX,54.516452522688000,-1.913123857691920
Cuscus and Capuchin,DL12 9UT,54.578034050177600,-2.047120774983130
Tit-tyrant and Armadillo,DL13 3QN,54.653656469303300,-1.894032030635470
Hawaiian honeycreeper and Chickadee,DL13 5LY,54.623023241582200,-1.868913510655630
wall lizard and lizard,DL13 5NG,54.635894271430700,-1.888996644087840
loggerhead and tortoise,DL13 5RW,54.631856023793700,-1.895390000000000
