name,postcode,lat,lon
turtle and Marsh harrier,BT81 7EH,54.673341000000000,-7.677042000000000
Linsang and krait,BT81 7EJ,54.675387000000000,-7.689024000000000
Pratincole and Old World warbler,BT81 7XG,54.695761000000000,-7.700049000000000
boa constrictor and death adder,BT81 7XZ,54.676528000000000,-7.707913000000000
habu and mud turtle,BT93 0AW,54.536471000000000,-7.634267000000000
iguana and Schneider python,BT93 0DL,54.530615000000000,-7.663159000000000
loggerhead and water snake,BT93 0HZ,54.530921000000000,-7.659309000000000
Stilt and Rat,BT93 0LG,54.553325000000000,-7.672475000000000
Philippine hawk-owl and mountain devil,BT93 1FD,54.562470000000000,-7.738547000000000
king snake and Coati,BT93 1FS,54.566642000000000,-7.690749000000000
Treepie and Fish eagle,BT93 1JX,54.585394000000000,-7.688937000000000
horned toad and Quetzal,BT93 1NS,54.515586000000000,-7.675556000000000
Old World warbler and rat snake,BT93 1TH,54.510669000000000,-7.684966000000000
Tahr and cayman,BT93 1TS,54.523520000000000,-7.723152000000000
thorn lizard and blindworm,BT93 2AR,54.485047000000000,-8.012396000000000
Towhee and Rabbit,BT93 2DH,54.515895000000000,-7.904923000000000
Thrasher and death adder,BT93 2DN,54.532774000000000,-7.874886000000000
Rabbit and fer-de-lance,BT93 8BG,54.551523000000000,-7.831619000000000
king snake and king snake,BT93 8BJ,54.558471000000000,-7.821946000000000
Ice seal and Eagle,BT94 1AU,54.488811000000000,-7.712879000000000
giant tortoise and Stint,BT94 1EU,54.477593000000000,-7.627882000000000
sand viper and Goose,BT94 1HR,54.503314000000000,-7.665265000000000
elapid and agamid,BT94 1JJ,54.502023000000000,-7.676142000000000
