name,id,postcode,lat,lon
Lemming and rock python,1191102,EX22 7RY,50.902633344250300,-4.401084682438580
Viscacha and Cuscus,1190720,EX23 9RD,50.880717483970400,-4.479217037411140
galliwasp and Mouse,1184836,EX39 6EL,50.963283803416500,-4.501528833463000
Crow and Thicketbird,1191061,EX22 7PT,50.881072932814500,-4.353059748570290
Hawk and asp,1184850,EX39 6HF,50.937249382194100,-4.519347182994130
Marmoset and iguana,1185195,EX39 6BA,50.994282787678800,-4.481462213194740
Prion and crocodile,1184834,EX39 6EH,50.967096309517200,-4.477961386243080
adder and Darwin's finches,1185127,EX39 5SN,50.974391902535500,-4.411324305382100
rat snake and brown snake,1185108,EX39 5SD,50.987925000000000,-4.438345000000000
Diving bird and Ibex,1185154,EX39 5TY,50.965454583301300,-4.377433519130330
Argus and Linsang,1190599,EX23 9PN,50.916224977798800,-4.480122814451500
American sparrow and lizard,1190248,EX23 9SU,50.911596812142000,-4.536427180116580
bandy-bandy and Wallaby,1185192,EX39 6AW,51.006154000000000,-4.464590000000000
Shearwater and rock python,1185061,EX39 5PT,50.967500950400000,-4.339023000000000
Logrunners and American sparrow,1185153,EX39 5TX,50.963231325548400,-4.375753346585680
sea snake and puff adder,1185191,EX39 6AU,51.016365671020100,-4.508278446389780
Darwin's finches and Badger,2652396,EX23 9FJ,50.880585000000000,-4.476867000000000
brown snake and constrictor,1190719,EX23 9RB,50.881156763500900,-4.477591170859050
Marsh harrier and Duck,1191065,EX22 7PY,50.892515870886200,-4.363164321677250
loggerhead and Mockingbird,1191078,EX22 7QT,50.908627537004500,-4.397381686570740
Grackle and pit viper,1185081,EX39 5QT,50.964836077958900,-4.375564642054880
Armadillo and massasauga,1190245,EX23 9SR,50.907181660910900,-4.549174740770300
lizard and rock snake,1190618,EX23 9QP,50.876398815333300,-4.492791229385460
