name,postcode,lat,lon
The Fleur de Lys Inn (The Inn at Cranborne),BH21 5PP,50.9186,-1.9231
The Restaurant at La Fosse,BH21 5PR,50.9195,-1.9225
curry spoon ltd TA Cinnamon Lounge,BH21 8LN,50.8812,-1.9308
OLD BEAMS IBSLEY,BH24 3PP,50.8852,-1.7881
Costa Coffee,BH31 6HF,50.8812,-1.8786
Costa Coffee,BH31 6HF,50.8813,-1.8786
The Swans,BH31 6UL,50.8761,-1.8738
Renoufs Verwood,BH31 7AA,50.8818,-1.8785
Spice of India ,BH31 7AB,50.8806,-1.8713
Altrullo Ltd,BH31 7AJ,50.8795,-1.8685
The Hollow,BH31 7AQ,50.8811,-1.8770
CRANE VALLEY GOLF CLUB,BH31 7LH,50.8806,-1.9049
 The White Hart,SO40 2NP,50.9220,-1.5832
Bartley Lodge ,SO40 2NR,50.9168,-1.5774
Forest Lodge,SO43 7AS,50.8764,-1.5785
Waterloo Arms,SO43 7AS,50.8764,-1.5785
THE SWAN INN,SO43 7DT,50.8757,-1.5872
The Trusty Servant,SO43 7FY,50.8964,-1.5959
Furzey Gardens Tea Rooms,SO43 7GL,50.9012,-1.6133
Sir Walter Tyrrell Ltd,SO43 7HD,50.9195,-1.6200
The Rockingham Arms,SO51 6DE,50.9589,-1.5885
Gilberts Nursery Tea Room,SO51 6DT,50.9947,-1.5787
The Shoe Inn,SO51 6EE,50.9732,-1.6042
Hatchet Inn (L & L) Ltd,SO51 6FP,51.0018,-1.5954
ARMAN'S COFFEE HOUSE,SP1 1BD,51.0695,-1.7978
Qudos,SP1 1BN,51.0711,-1.7960
ELIF2017 Jenny's Restaurant Cafe,SP1 1BT,51.0697,-1.7973
Nuggs1268 Limited,SP1 1DA,51.0698,-1.7961
The Pheasant,SP1 1DT,51.0707,-1.7940
Tinga ,SP1 1DU,51.0706,-1.7938
GREAT WALL CHINESE RESTAURANT,SP1 1DX,51.0700,-1.7933
Subway,SP1 1EL,51.0694,-1.7936
Costa Coffee,SP1 1EP,51.0689,-1.7953
Pickup,SP1 1EP,51.0688,-1.7957
REEVE THE BAKER LTD,SP1 1EP,51.0689,-1.7954
STONES KITCHEN CAFE,SP1 1EP,51.0689,-1.7954
ALLIUM SALISBURY,SP1 1EU,51.0689,-1.7955
Mauls Wine and Cheese Bar,SP1 1EX,51.0688,-1.7945
Well Natural,SP1 1EY,51.0692,-1.7939
McDonald's,SP1 1HB,51.0698,-1.7936
McDonald's,SP1 1HB,51.0698,-1.7937
Haunch of Venison,SP1 1TB,51.0690,-1.7964
HENDERSON'S ARTISAN BAKERY LTD,SP1 1TH,51.0692,-1.7961
Dinghams,SP1 1TL,51.0695,-1.7969
Pret A Manger,SP1 2AA,51.0682,-1.7957
Costa Coffee,SP1 2AG,51.0679,-1.7955
The Cathedral Hotel,SP1 2AJ,51.0688,-1.7936
RED LION HOTEL,SP1 2AN,51.0683,-1.7931
The Huntsman Tavern,SP1 2BQ,51.0672,-1.7914
The Swedish Den Limited,SP1 2DD,51.0675,-1.7941
Bell and Crown,SP1 2DH,51.0670,-1.7934
Noodle Camp ,SP1 2DH,51.0673,-1.7935
The Antelope Cafe,SP1 2DH,51.0673,-1.7935
Salisbury Museum Cafe,SP1 2EN,51.0645,-1.8008
The Riflemans Table,SP1 2EX,51.0662,-1.7997
McDonald's,SP1 2FF,51.0615,-1.7735
McDonald's,SP1 2FF,51.0615,-1.7739
Thyme,SP1 2FF,51.0614,-1.7740
Carwardines,SP1 2LX,51.0688,-1.7976
The Kings Head Inn Salisbury (Wetherspoon),SP1 2ND,51.0685,-1.7980
The Boston Tea Party Group Limited,SP1 2NJ,51.0677,-1.7973
Wafflemeister ,SP1 2NJ,51.0676,-1.7973
Lotus 8 Ltd,SP1 2PH,51.0671,-1.7961
The New Inn,SP1 2PH,51.0671,-1.7961
The Wig and Quill,SP1 2PH,51.0671,-1.7959
Cafe Diwali,SP1 2QD,51.0676,-1.7986
The Old Ale and Coffee House ,SP1 2QD,51.0676,-1.7986
Chapter Hospitality Ltd,SP1 2SB,51.0663,-1.7934
Mercure Salisbury,SP1 2SD,51.0667,-1.7934
Table Table Hampton Inn,SP1 3GU,51.0893,-1.7713
George and dragon,SP1 3SP,51.0717,-1.7965
The Avon Brewery,SP1 3SP,51.0717,-1.7965
Milford Hall Hotel,SP1 3TE,51.0749,-1.7968
GRILLADO,SP1 3TS,51.0716,-1.7961
Salisbury Arts Centre,SP1 3UT,51.0714,-1.7937
Salisbury Health & Fitness Club,SP1 3YU,51.0877,-1.7719
Herbs & Wild,SP2 0BH,51.0800,-1.8600
Nole Sourdough Pizza,SP2 0BH,51.0800,-1.8600
Pembroke Arms Hotel,SP2 0BH,51.0800,-1.8600
Cafe Blend,SP2 0HA,51.0805,-1.8635
The Greyhound Public House Limited,SP2 0HT,51.0799,-1.8632
Coffee Darling,SP2 0HX,51.0797,-1.8636
The Duke of York,SP2 7AS,51.0733,-1.8040
G&s operation ltd,SP2 7DT,51.0713,-1.8047
Britz Fish and Chips,SP2 7JY,51.0749,-1.8206
BAROUSHKA ,SP2 7QY,51.0705,-1.8016
FISHERTON MILL GALLERY CAFE ,SP2 7QY,51.0704,-1.8017
Anokaa restaurant,SP2 7RB,51.0698,-1.8004
Pizza Hut,SP2 7RB,51.0696,-1.8001
Thai Orchid,SP2 7RB,51.0696,-1.8001
Everest Brasserie,SP2 7RP,51.0717,-1.8050
Caboose Salisbury,SP2 7RR,51.0704,-1.8040
The shah jahan,SP2 7RR,51.0704,-1.8040
Costa Coffee,SP2 7RS,51.0706,-1.8070
Lalahan Restaurant,SP2 7SP,51.0704,-1.8030
Fisherton Warehouse Cafe Limited,SP2 7ST,51.0702,-1.8022
Hedgerows Cafe at SDH,SP2 8BJ,51.0439,-1.7898
Springs Restaurant at SDH,SP2 8BJ,51.0439,-1.7898
THE COFFEE HOUSE,SP2 8BJ,51.0439,-1.7898
Old Mill Hotel,SP2 8EU,51.0638,-1.8085
Rose and Crown Hotel           ,SP2 8JQ,51.0600,-1.7976
The Rivers Edge Bar & Restaurant,SP2 8JQ,51.0600,-1.7976
Salisbury & South Wilts Golf Club,SP2 8PR,51.0637,-1.8384
Victoria & Albert,SP2 8PU,51.0673,-1.8443
The Barford Inn,SP3 4AB,51.0823,-1.9196
The Wyndham Arms,SP3 5EG,51.0829,-1.9753
The Penruddocke Arms,SP3 5EL,51.0815,-1.9559
Silver Plough,SP5 1DU,51.0805,-1.6989
The lord Nelson Arms ,SP5 1QS,51.0957,-1.6618
Green Hill Farm Caravan Park Ltd,SP5 2AZ,50.9688,-1.6195
Les Mirabelles ,SP5 2BN,50.9579,-1.6372
The Lamb Inn,SP5 2BP,50.9539,-1.6413
the cuckoo pub company ,SP5 2DU,50.9780,-1.6569
Royal Jaipur,SP5 2ED,50.9784,-1.6314
The Landford Poacher,SP5 2EE,50.9804,-1.6366
The Kings Head,SP5 2JT,50.9909,-1.7145
parish lantern,SP5 2SA,51.0122,-1.6488
The Shed Cafe at Courtens Garden Centre,SP5 2SD,51.0129,-1.6436
The Kings Head,SP5 2SG,51.0111,-1.6527
 The Bull Hotel,SP5 3HL,50.9923,-1.7578
The Borough Cafe,SP5 3LY,50.9931,-1.7498
The Goat at Downton Limited,SP5 3LY,50.9931,-1.7498
The Wooden Spoon,SP5 3PG,50.9929,-1.7430
The White Hart,SP5 4AA,51.0320,-1.9036
Britford Farm Shop,SP5 4DY,51.0547,-1.7777
The Radnor Arms,SP5 4HS,51.0343,-1.7761
the yew tree inn ltd,SP5 4JE,51.0336,-1.7930
The Queens Head,SP5 5EN,51.0298,-1.9464
The George ,SP6 1AH,50.9272,-1.7884
The dolls house quintessential tea room ,SP6 1AH,50.9276,-1.7895
The Crown Inn,SP6 1AX,50.9272,-1.7912
The Ship Inn,SP6 1AX,50.9272,-1.7912
La Lambretta,SP6 1JF,50.9268,-1.7934
The Horse & Groom,SP6 2AS,50.9576,-1.7582
The Bat & Ball,SP6 2EA,50.9605,-1.7753
Foresters Frogham,SP6 2JA,50.9150,-1.7527
Aubrey's Forest Kitchen,SP6 2JZ,50.9303,-1.7600
Woodside Inn,SP6 2JZ,50.9303,-1.7600
Woodside Suite,SP6 2JZ,50.9303,-1.7600
The Fighting Cocks,SP6 2LL,50.9344,-1.7495
The Royal Oak,SP6 2PB,50.9065,-1.7726
The Potting Shed ,SP6 2QB,50.9080,-1.7601
The Churchill Arms,SP6 3AA,50.9117,-1.8410
Sticky Bun Tea Rooms,SP6 3BE,50.9183,-1.8239
Pitch 25 cafe,SP6 3EG,50.9194,-1.8328
The Compasses Inn,SP6 3HQ,50.9453,-1.8504
The Rose and Thistle,SP6 3NL,50.9648,-1.8403
The Cartwheel Inn,SP6 3PZ,50.9684,-1.8168
