name,postcode,lat,lon
Riverside Tearooms,BN18 9LP,50.89725200000000,-0.54248400000000
The Sportsman Inn,BN18 9NR,50.91138458251950,-0.52206498384476
Shahanaz,GU27 1HN,51.08785100000000,-0.72774900000000
The Lion's Den,GU27 1HS,51.08807600000000,-0.72947100000000
new good earth LTD,GU27 1HS,51.08807600000000,-0.72947100000000
Haslemere & District Community Centre,GU27 1LD,51.08768500000000,-0.73069500000000
The prince of wales,GU27 1QH,51.08683200000000,-0.76104500000000
Oliver's,GU27 2AD,51.08861923217770,-0.71013700962067
Real English Drinks House,GU27 2AF,51.08858871459960,-0.70972299575806
Heidi Haslemere,GU27 2HG,51.0880,-0.7096
Pizza Express,GU27 2JZ,51.08881500000000,-0.70911700000000
Costa Coffee,GU27 2LA,51.08921000000000,-0.70817800000000
Hemingways of Haslemere,GU27 2LA,51.08921000000000,-0.70817800000000
The Station House,GU27 2PD,51.08865700000000,-0.71837400000000
LYTHE HILL HOTEL,GU27 3BQ,51.08415900000000,-0.68103500000000
The Red Lion,GU27 3HY,51.04928300000000,-0.71722100000000
MYSTIQUE MASALA ,GU28 0AB,50.98687400000000,-0.60883600000000
basmati indian restaurant,GU28 0AH,50.98624300000000,-0.61015200000000
THE ANGEL INN,GU28 0BG,50.98609600000000,-0.60689400000000
The Wellldiggers Arms,GU28 0HG,50.97962600000000,-0.58557700000000
Black Horse Inn,GU28 0HL,50.98005100000000,-0.59476600000000
Badgers  Tavern,GU28 0JF,50.96371700000000,-0.61941100000000
The Cricketers Arms,GU28 0LB,50.94525300000000,-0.63527500000000
White Horse Graffham,GU28 0NT,50.95144400000000,-0.68103500000000
The Three Moles,GU28 0PN,50.97791500000000,-0.66958800000000
The Foresters Arms ,GU28 0QA,50.95059200000000,-0.67807000000000
Woodfire,GU28 0QJ,50.95511940000000,-0.65693700000000
The Halfway Bridge Inn ,GU28 9BP,50.98962600000000,-0.67538000000000
The Noah's Ark Inn,GU28 9ET,51.03550300000000,-0.66471600000000
Lickfold Inn,GU28 9EY,51.02901500000000,-0.68101700000000
The Stag Inn,GU28 9JP,51.02755100000000,-0.59325900000000
THE STONEMASONS INN PETWORTH,GU28 9NL,50.99331300000000,-0.60954200000000
WHITE HORSE,GU29 0AL,50.99661000000000,-0.72437400000000
The Royal Oak ,GU29 0EP,50.97407200000000,-0.73987600000000
The Three Horseshoes,GU29 0JY,50.97050200000000,-0.83885700000000
HAMILTON ARMS - NAVA THAI,GU29 0NZ,50.99324500000000,-0.77808600000000
The Wheatsheaf Inn,GU29 9BX,50.98586200000000,-0.73908600000000
Costa Coffee,GU29 9DH,50.98766700000000,-0.73885200000000
Pizza Express,GU29 9DH,50.98766700000000,-0.73885200000000
Faustino's,GU29 9DJ,50.98785800000000,-0.73823400000000
The Olive & Vine,GU29 9DJ,50.98785800000000,-0.73823400000000
Lime and spice,GU29 9DU,50.98966800000000,-0.73768700000000
Half Moon,GU29 9LL,50.98908200000000,-0.75088200000000
The Spread Eagle Hotel & Spa,GU29 9NH,50.98530100000000,-0.73800500000000
LA PIAZZETTA,GU29 9NQ,50.98555300000000,-0.73878100000000
The Greyhound,GU29 9QH,50.96953900000000,-0.74488300000000
The lazy lizard,GU30 7AB,51.07759790000000,-0.80311630000000
Shanklys limited ,GU30 7DW,51.07147100000000,-0.80223400000000
Liphook Golf Club,GU30 7EH,51.06035500000000,-0.80921300000000
BRAMSHOTT PLACE MANAGEMENT LIMITED,GU30 7GN,51.0828,-0.7957
Champneys Forest Mere,GU30 7JG,51.06006100000000,-0.83002600000000
Rising Sun,GU30 7NA,51.03059900000000,-0.80046400000000
The Deers Hut,GU30 7PD,51.07796500000000,-0.82459300000000
OLD THORNS ,GU30 7PE,51.07500200000000,-0.83040700000000
Starbucks,GU30 7TT,51.08430200000000,-0.81895000000000
The Tea Barn at Durleighmarsh,GU31 5AX,51.00700100000000,-0.88295900000000
Aylings Garden Centre Ltd,GU31 5ES,50.99476000000000,-0.80274200000000
The White Hart,GU31 5QB,50.96946200000000,-0.88347500000000
The Temple Inn,GU33 7BP,51.05402300000000,-0.88563800000000
The Flying Bull,GU33 7JB,51.04400300000000,-0.85478100000000
The Jolly Drover,GU33 7QL,51.03051400000000,-0.87697500000000
The Mulberry Inn,GU8 4SS,51.08788370000000,-0.64547020000000
The Partridge Inn,PO18 0EY,50.91046600000000,-0.75332900000000
The Fox Goes Free,PO18 0HU,50.90925700000000,-0.73865400000000
The Star and Garter ,PO18 0JG,50.90967900000000,-0.71474600000000
Compass Group At Great Ballard School,PO18 0LR,50.87528200000000,-0.66669800000000
The George,PO18 0LT,50.87784957885740,-0.66638398170471
THE DEAN INN,PO18 0QX,50.9054,-0.7818
West Dean Limited,PO18 0QZ,50.90644500000000,-0.77525400000000
The White Horse,PO18 9HX,50.92653500000000,-0.82253600000000
Cricketers arms,RH14 0DG,51.02571700000000,-0.50424900000000
The Bat and Ball Country Pub & Haywards Restaurant,RH14 0EH,51.03211200000000,-0.48959700000000
The Foresters Arms,RH14 0ND,51.03220500000000,-0.55096100000000
Sir Roger Tichborne,RH14 0QS,51.09027700000000,-0.52056000000000
The Onslow Arms,RH14 0RD,51.07154300000000,-0.51753200000000
so india  pulborough,RH20 1BG,50.96990700000000,-0.49859400000000
Pulborough Garden Centre,RH20 1DS,50.95543600000000,-0.53173700000000
The Swan,RH20 1EL,50.95815800000000,-0.56256300000000
Fittleworth Stores,RH20 1JB,50.96148600000000,-0.56119300000000
The Labouring Man,RH20 1LF,50.94081500000000,-0.54045300000000
The Squire & Horse,RH20 1NS,50.90757200000000,-0.56769200000000
WHITE HORSE INN SUTTON,RH20 1PS,50.92935900000000,-0.60759300000000
Little Bean Cafe Pulborough limited,RH20 2BW,50.95758056640630,-0.50075697898865
The White Horse Inn,RH20 2DY,50.95470200000000,-0.48545900000000
The West Sussex Golf Club Limited,RH20 2EN,50.93925900000000,-0.47774800000000
