name,postcode,lat,lon
The Fountain Ashurst,BN44 3AP,50.91162872314453,-0.45754450559616
Springwells,BN44 3GG,50.88744300000000,-0.32674100000000
THE KINGS HEAD,BN44 3HZ,50.88238400000000,-0.30584000000000
The Star Inn,BN44 3RD,50.88943400000000,-0.33013800000000
The cobblestone tea house ,BN44 3RD,50.88959100000000,-0.33036100000000
Truffles Bakery and Confectioners Ltd,BN44 3RD,50.88943400000000,-0.33013900000000
Truffles Bakery,BN44 3RD,50.88943400000000,-0.33013900000000
The Rising Sun,BN44 3TN,50.87788772583010,-0.30087101459503
subway,BN44 3TQ,50.88108500000000,-0.30062600000000
The Castle Inn Hotel,BN44 3WE,50.88279300000000,-0.31229300000000
The Old Tollgate Restaurant Limited,BN44 3WE,50.88279300000000,-0.31229300000000
Steyning Tearooms,BN44 3YE,50.88819100000000,-0.32870500000000
The White Horse (Steyning) Ltd,BN44 3YE,50.8881,-0.3289
The Royal Oak Poynings,BN45 7AQ,50.89363100000000,-0.20681900000000
Rushfields Plant Centre Ltd,BN45 7AY,50.90358100000000,-0.20416000000000
The Bull Inn,BN5 9AD,50.94912200000000,-0.27996700000000
Oakbush Limited t/a The Royal Oak,BN5 9AY,50.96902100000000,-0.24173100000000
The Wheatsheaf Pub,BN5 9BD,50.94924300000000,-0.24155200000000
Truffles Bakery and Confectioners Ltd,BN5 9DA,50.93051500000000,-0.27264200000000
The George,BN5 9DB,50.93027400000000,-0.27213800000000
Relish,BN5 9DD,50.92923900000000,-0.27209100000000
relish ,BN5 9DD,50.92923900000000,-0.27209100000000
Henfield Haven CIO,BN5 9DT,50.9283,-0.2740
Christina's,BN5 9HN,50.93159100000000,-0.27244500000000
Goodness Henfield,BN5 9HN,50.9316,-0.2725
The White Hart,BN5 9HP,50.93167500000000,-0.27202900000000
Tottington Manor,BN5 9LJ,50.89101300000000,-0.27296600000000
The Shepherd and Dog Pub,BN5 9LU,50.88894900000000,-0.22710300000000
THE FOX PUB,BN5 9XE,50.90154500000000,-0.27485200000000
Fuel Coffee House,BN5 9XH,50.88456050000000,-0.28414130000000
golding barn cafe,BN5 9XH,50.88370800000000,-0.28196500000000
Sunam Tandoori (UK) Ltd,BN6 8AD,50.92454910278320,-0.14290800690651
Costa Coffee,BN6 8AR,50.92404600000000,-0.14070800000000
The Thatched Inn,BN6 8DH,50.92764700000000,-0.13189800000000
the purple carrot ,BN6 8HN,50.92471313476560,-0.14470799267292
Bake Out Hassocks Ltd,BN6 8QA,50.92350600000000,-0.13959100000000
THE GREEN WELLY,BN6 8SY,50.92164600000000,-0.11495100000000
The Bull,BN6 8TA,50.92170300000000,-0.11463600000000
Notcutts Garden Pride,BN6 8TN,50.93824200000000,-0.10518500000000
Ridgeview Estate Winery,BN6 8TP,50.9434,-0.1075
The Nutmeg Tree,BN6 8TS,50.92103000000000,-0.11580100000000
The white horse,BN6 8TS,50.92103000000000,-0.11580100000000
Country Club & Leisure Ltd t/a Wickwoods,BN6 9DY,50.91973400000000,-0.22300200000000
The Ginger Fox,BN6 9EA,50.91341200000000,-0.21479300000000
Singing Hills Golf Course Ltd,BN6 9EB,50.92066700000000,-0.20872500000000
The Sportsman Pub,BN6 9LQ,50.96680700000000,-0.17192900000000
South Downs Nurseries,BN6 9LY,50.92250500000000,-0.15351800000000
NUPUR RESTAURANT LIMITED,BN6 9PX,50.93240300000000,-0.17510000000000
The Fig Tree,BN6 9PX,50.93240400000000,-0.17510000000000
Morleys Bistro,BN6 9RG,50.93360400000000,-0.17882400000000
The New Inn,BN6 9RQ,50.93292840000000,-0.17679080000000
the white horse inn ,BN6 9SP,50.93431854248050,-0.18309499323368
Smith & Western,RH10 5PQ,51.09511600000000,-0.17965500000000
Tilgate Walled Garden Cafe,RH10 5PQ,51.0951,-0.1796
Cottesmore Hotel Golf Country Club,RH11 9AT,51.08585900000000,-0.22329800000000
BaxterStorey At Bard,RH11 9BP,51.09295900000000,-0.19366400000000
Burger King,RH11 9YA,51.08332600000000,-0.19995100000000
Costa Coffee,RH11 9YA,51.08332600000000,-0.19995100000000
The REC,RH12 1AU,51.0616,-0.3248
Deep Blue Restaurants,RH12 1DW,51.06244900000000,-0.32870300000000
Ask Italian,RH12 1EE,51.06245700000000,-0.32734700000000
The Red Deer,RH12 1EE,51.06245803833010,-0.32734701037407
Everyman Cinema,RH12 1EH,51.06231430000000,-0.32635260000000
Miller & Carter,RH12 1EH,51.06254070000000,-0.32645300000000
Starbucks Coffee,RH12 1EH,51.06219100952150,-0.32695698738098
The M Bar,RH12 1EH,51.06219100000000,-0.32695700000000
Chococo Horsham,RH12 1EQ,51.0628,-0.3283
Prezzo Restaurant,RH12 1EQ,51.06282100000000,-0.32827500000000
Buenos Aires Argentine Steakhouse ,RH12 1EU,51.06177800000000,-0.32828400000000
Cafe Number4,RH12 1EU,51.06177800000000,-0.32828400000000
Giggling Squid,RH12 1HH,51.06178600000000,-0.32694300000000
Izmir Bar Grill,RH12 1HH,51.06177139282230,-0.32690501213074
Nando's,RH12 1HH,51.06172900000000,-0.32674500000000
Pizza Express,RH12 1HH,51.06178600000000,-0.32694300000000
Beeches Buffet,RH12 1HJ,51.06168600000000,-0.32624700000000
Brewhouse and Kitchen Horsham,RH12 1HL,51.06168300000000,-0.32731700000000
Wagamama,RH12 1HL,51.06168300000000,-0.32731700000000
Nadz Coffee,RH12 1HQ,51.0633,-0.3297
Real Eating Company Ltd,RH12 1HQ,51.06329560000000,-0.32912030000000
Zeytin restaurant,RH12 1JE,51.06101900000000,-0.32678500000000
The Comodor ,RH12 1NR,51.06204800000000,-0.32898800000000
Costa Coffee,RH12 1PB,51.06274400000000,-0.33106100000000
Pret A Manger,RH12 1PB,51.06274400000000,-0.33106100000000
Caffe Nero,RH12 1PP,51.06313800000000,-0.33097600000000
Wimpy restaurant ,RH12 1PP,51.06313800000000,-0.33097600000000
Esquires Coffee House Horsham,RH12 1PQ,51.06221008300780,-0.33119899034500
D&D coffee and more limited ,RH12 1PT,51.06335300000000,-0.33089600000000
LA PIAZZETTA,RH12 1QA,51.06358100000000,-0.33301500000000
KFC,RH12 1QN,51.06453400000000,-0.33486400000000
King Arms  Horsham,RH12 1QN,51.06453400000000,-0.33486400000000
Lemongrass,RH12 1QN,51.06453400000000,-0.33486400000000
Mangobean Coffee Wonderland,RH12 1QR,51.06384300000000,-0.33250500000000
The Olive Branch,RH12 1QR,51.06384400000000,-0.33250600000000
China Brasserie,RH12 1RJ,51.06431800000000,-0.32414000000000
The Cafe,RH12 2NW,51.06875400000000,-0.31934100000000
RAJKUMAR,RH12 2PG,51.0650,-0.3307
Smith & Western,RH12 2QR,51.07468100000000,-0.32943200000000
The Milk Churn,RH12 3DH,51.0968,-0.4535
Kings Head,RH12 3EB,51.09755000000000,-0.44416300000000
The Fox Inn,RH12 3JP,51.08626600000000,-0.46261900000000
The Sussex Oak,RH12 3QW,51.09018800000000,-0.34802300000000
The Greets Inn,RH12 3QY,51.08887800000000,-0.35329600000000
Compass Group at Warnham Church of England Primary School,RH12 3RQ,51.09153100000000,-0.35137400000000
Rookwood Golf Course,RH12 3RR,51.07867600000000,-0.34470700000000
The Holmbush Inn,RH12 4SH,51.09362100000000,-0.26283000000000
The Frog And Nightgown Pub LLP,RH12 4SS,51.09232711791990,-0.28000101447105
The Dragon,RH12 4SY,51.08116100000000,-0.24563600000000
the boars head,RH13 0AD,51.05393218994140,-0.34011000394821
Horsham Golf,RH13 0AX,51.04708200000000,-0.33703100000000
Bax Castle Public House,RH13 0LA,51.04050200000000,-0.35695100000000
Caputos Pizza Limited,RH13 0LA,51.04051589965820,-0.35689899325371
Sumners Ponds Ltd t/as Cafe by the Lake,RH13 0PR,51.02927780151370,-0.39766401052475
The Queens Head,RH13 0PS,51.03189100000000,-0.39477900000000
Random Hall Hotel,RH13 0QX,51.07262300000000,-0.41542300000000
ENSIGN LEISURE LIMITED,RH13 0RE,51.06161400000000,-0.42262100000000
The Red Lyon,RH13 0RR,51.07221400000000,-0.40651600000000
Pizza Hut,RH13 5AF,51.06059000000000,-0.32384600000000
The White Horse Inn(Maplehurst)Ltd.,RH13 6LL,51.00941000000000,-0.30013300000000
Benguela Cove Investments Limited,RH13 6PG,51.05271000000000,-0.27486200000000
Clocktower and Courtyard Cafe,RH13 6PP,51.01666641235350,-0.26151499152183
Resturant Interlude,RH13 6PP,51.01666641235350,-0.26151499152183
South Lodge Hotel & Spa,RH13 6PS,51.01466900000000,-0.26204600000000
Crabtree Inn,RH13 6PT,51.01388200000000,-0.26236100000000
Hillier Garden Centre Horsham,RH13 6QA,51.05356300000000,-0.30674900000000
COWFOLD COTTAGE INDIAN FOOD LIMITED,RH13 8BW,50.99002500000000,-0.27282700000000
The Little Bean Cafe Limited,RH13 8DA,50.99048900000000,-0.27443400000000
the windmill inn,RH13 8EJ,50.97964700000000,-0.30161900000000
The George And Dragon Pub,RH13 8GE,50.99922600000000,-0.37640900000000
The Partridge,RH13 8JS,50.96044700000000,-0.30845600000000
The Green Man ,RH13 8JT,50.96639100000000,-0.31027700000000
McDonalds Restaurant,RH13 8LW,50.99176300000000,-0.34123200000000
McDonald’s Restaurant,RH13 8LW,50.99176300000000,-0.34123200000000
The Orchard Restaurant,RH13 8LY,50.9901,-0.3110
Camelia Botnar Homes & Gardens,RH13 8NA,50.98585128784180,-0.30333000421524
The Crown Inn ,RH13 8NH,50.96302600000000,-0.35685200000000
Old Barn Garden Centre,RH13 8NR,50.95879200000000,-0.35947900000000
The Countryman,RH13 8PZ,50.98057100000000,-0.37999500000000
Hen & Chicken Public House,RH13 9BH,51.03629800000000,-0.34892700000000
The Tipsy Fox,RH13 9HG,51.0219,-0.3538
The Lintot,RH13 9LA,51.02486200000000,-0.35043200000000
RSPCA,RH13 9RS,51.03636700000000,-0.34366200000000
THE GREAT BRITISH DINER LTD,RH14 9AE,51.0388,-0.4418
1010 restaurant ,RH14 9JH,50.99846810000000,-0.47160050000000
1010 restaurant at The Blacksmiths Arms,RH14 9JH,50.99846810000000,-0.47160050000000
Truffles Bakery and Confectioners Ltd,RH14 9JL,51.02447200000000,-0.45074600000000
Truffles Bakery,RH14 9JL,51.02447200000000,-0.45074600000000
Kerala Spice House Limited,RH14 9NY,51.0230,-0.4519
THE KINGS HEAD INN,RH14 9NY,51.02343000000000,-0.45155000000000
WHISPERS OF BILLINGSHURST,RH14 9NY,51.02343100000000,-0.45155100000000
CURRY VILLAGE,RH14 9PB,51.02442800000000,-0.45151800000000
Little Bean Cafe Billingshurst Limited,RH14 9PP,51.02358300000000,-0.45086100000000
Cinnamon Contemporary Indian Cuisine ,RH14 9QP,51.02266500000000,-0.45143400000000
The Six Bells,RH14 9QS,51.02163800000000,-0.45266600000000
Flavour ,RH15 0AD,50.95360800000000,-0.12668600000000
The Watermill Inn,RH15 0QF,50.96470200000000,-0.11973100000000
Masalaclub,RH15 8DR,50.95579900000000,-0.12817800000000
Superfood Goddess,RH15 8DX,50.9562,-0.1292
Buon Appetito Brother ltd,RH15 8LH,50.95817947387700,-0.13908000290394
On the Park,RH15 8LH,50.95819500000000,-0.13911700000000
Taza Indian Cuisine,RH15 8LH,50.9582,-0.1391
The Oak Barn Restaurant,RH15 8RE,50.97183200000000,-0.14385700000000
India Garden Tandoori Restaurant ,RH15 9AA,50.95715800000000,-0.13669600000000
Ismet Turen Ltd TA McDonalds Brighton,RH15 9AR,50.95393500000000,-0.13362100000000
McDonalds,RH15 9AR,50.95393500000000,-0.13362100000000
Caffe Nero,RH15 9BB,50.95520100000000,-0.13013900000000
Bangkokbrasserie ,RH15 9BQ,50.9562,-0.1320
Lynne’s Cafe,RH15 9BQ,50.95619201660160,-0.13202099502087
ASK Italian,RH15 9DE,50.95432700000000,-0.12893500000000
spiral,RH15 9DE,50.95432700000000,-0.12893500000000
Lemongrass,RH15 9DS,50.95459400000000,-0.12989200000000
Home Coffee House,RH15 9LR,50.9546,-0.1450
KFC,RH15 9ND,50.9525,-0.1455
Burgess Hill KFC,RH15 9NP,50.95511245727540,-0.13125300407410
COSTA COFFEE - BURGESS HILL ,RH15 9NP,50.9551,-0.1312
Costa Coffee,RH15 9NP,50.95507400000000,-0.13119800000000
BaxterStorey At Flowserve,RH15 9TJ,50.95345900000000,-0.14663900000000
BaxterStorey At CAE UK PLc,RH15 9TW,50.95291900000000,-0.15632800000000
BaxterStorey At Roche Diagnostics Ltd.,RH15 9UF,50.94998000000000,-0.15129100000000
COSTA COFFEE - HAYWARDS HEATH 2,RH16 1AE,51.0061,-0.1030
Starbucks Coffee Company,RH16 1DG,51.00642700000000,-0.10672600000000
Costa Coffee,RH16 1DR,51.00611114501950,-0.10326199978590
Curry Inn,RH16 1EA,51.00613700000000,-0.10377400000000
BaxterStorey At Flowserve,RH16 1TL,51.00769300000000,-0.10771600000000
Tamasha Spice,RH16 2HH,51.01115036010740,-0.08137299865484
Limes Thai Kitchen,RH16 2HN,51.01319900000000,-0.08136000000000
That's Amore,RH16 2HP,51.01403808593750,-0.08006100356579
The Bent Arms,RH16 2HP,51.01405000000000,-0.08005600000000
The Snowdrop Inn,RH16 2QE,50.99630355834960,-0.07339199632406
ORANGE SQUARE BAR,RH16 3AL,51.00042100000000,-0.10567400000000
Pizza Express,RH16 3AL,51.00042100000000,-0.10567400000000
Savannah Cafe Bar ,RH16 3AL,51.00042100000000,-0.10567400000000
Lemongrass ,RH16 3AS,51.00073400000000,-0.10616000000000
Pizza Hut,RH16 3AS,51.00073400000000,-0.10616000000000
The Bay Tree,RH16 3TH,50.99747900000000,-0.10230200000000
Tory's Cafe in the Park,RH16 4HT,50.9963,-0.1036
COSTA COFFEE - HAYWARDS HEATH 1,RH16 4LA,50.99669700000000,-0.10179300000000
Costa Coffee,RH16 4LA,50.99669700000000,-0.10179300000000
istanbul meze bar,RH16 4LL,50.99768200000000,-0.10319200000000
Caffe Nero,RH16 4LQ,50.99639900000000,-0.10226100000000
Flinders Coffee Ltd,RH16 4LR,50.99744796752930,-0.10377199947834
Haywards Heath KFC,RH16 4LR,50.99744900000000,-0.10377200000000
KFC,RH16 4LR,50.99744900000000,-0.10377200000000
MJ BAlti House Limited,RH16 4LR,50.99744900000000,-0.10377200000000
Zizzi,RH16 4LU,50.99919600000000,-0.10610900000000
NIZAM INDIAN RESTAURANT LIMITED,RH16 4LY,50.99891500000000,-0.10657600000000
The Swan,RH17 5AA,51.0036,-0.1445
Wheatsheaf Inn,RH17 5DW,51.00602200000000,-0.13292800000000
Haywards Heath Rugby Football Club,RH17 5HX,51.01527400000000,-0.14976500000000
Cuckfield Golf Centre,RH17 5HY,51.01723600000000,-0.15727200000000
cuckfield pantry and tearoom,RH17 5JU,51.00636400000000,-0.14259300000000
The Talbot,RH17 5JX,51.00601000000000,-0.14236500000000
Ockenden Manor Hotel & Spa,RH17 5LD,51.00637500000000,-0.14383300000000
Spice Village,RH17 5LD,51.00637500000000,-0.14383300000000
Cuckfield Cornerhouse Cafe,RH17 5LG,51.0058,-0.1428
the castle inn shanghai brasserie,RH17 5LZ,50.97310400000000,-0.19744900000000
Michael Maxwell T/A Maxwell's at Hickstead,RH17 5NU,50.9654,-0.1958
Hickstead Burger King,RH17 5NZ,50.96841800000000,-0.19043800000000
Starbucks Coffee Company,RH17 5NZ,50.96841812133790,-0.19043800234795
The Eight Bells,RH17 5QW,50.98923100000000,-0.20460500000000
The Bolney Stage,RH17 5RL,51.00053700000000,-0.19828200000000
The Half Moon Warninglid,RH17 5TR,51.01949600000000,-0.21954800000000
The Jolly Tanners,RH17 6EF,51.04083700000000,-0.18502200000000
Balcombe Club,RH17 6HP,51.05860100000000,-0.13215500000000
The Half Moon Inn,RH17 6PA,51.06058200000000,-0.13287500000000
The Cowdray Arms,RH17 6QD,51.08667373657230,-0.13362400233746
The Ardingly Cafe,RH17 6SZ,51.04846380000000,-0.07849420000000
Kew Wakehurst Seeds,RH17 6TN,51.0670,-0.0894
Kew Wakehurst Stables,RH17 6TN,51.0670,-0.0894
The Ardingly Inn,RH17 6UA,51.04878100000000,-0.07944700000000
The Cock Inn,RH17 7RH,50.96344900000000,-0.07378300000000
THE BIRCH HOTEL,RH17 7SF,50.99230575561520,-0.08719500154257
The Queens Head,RH20 2JN,50.95563500000000,-0.44970400000000
abm catering at Ibstock Brick - Laybrook,RH20 2LW,50.95571000000000,-0.41107300000000
ROUNDABOUT HOTEL,RH20 2PF,50.9385,-0.4598
The Roundabout Hotel,RH20 2PF,50.9385,-0.4598
Squire's Garden Centre Washington,RH20 3BP,50.91922400000000,-0.40245700000000
Jungle Tearoom,RH20 3DE,50.92605700000000,-0.38732400000000
The White Lion Inn,RH20 3EP,50.94465300000000,-0.42476000000000
GREENBELL TRADING LIMITED,RH20 3JT,50.93497300000000,-0.39013300000000
The frankland arm,RH20 4AL,50.90561100000000,-0.40521300000000
Halcyon Days,RH20 4DR,50.91782420000000,-0.45330150000000
The Moon Pub,RH20 4DR,50.91787000000000,-0.45279500000000
Joanna's Boutique Tearoom,RH20 4DU,50.91753800000000,-0.45290500000000
Cottage tandoori,RH20 4DZ,50.91803400000000,-0.45637500000000
Golden Willow Restaurant ,RH20 4HJ,50.91965300000000,-0.46386200000000
The Old Forge Restaurant,RH20 4LA,50.91724014282230,-0.45474401116371
Costa Coffee,RH20 4NQ,50.91817474365230,-0.45197400450706
