name,postcode,lat,lon
gopher snake and diamondback terrapin,CT18 7HL,51.099145254658300,1.210081267945600
harlequin snake and blindworm,CT19 5AE,51.084910577986100,1.177347199813180
kabaragoya and Hawk,CT19 5SE,51.088252198618100,1.180818489135020
Mink and Buzzard,CT19 5SQ,51.084935968168700,1.179719665886420
anole and dugite,CT19 6DG,51.085318257342000,1.191428260762450
thorny devil and Jerboa,CT19 6EB,51.087594777992900,1.186457715085000
Gull and frilled lizard,CT19 6HL,51.091722428259200,1.183527819995310
rock python and brown snake,CT19 6HR,51.093326069782200,1.184095120812960
terrapin and Jerboa,CT19 6LT,51.092843544615400,1.187275839599930
Grosbeak and Marmoset,CT19 6NG,51.087581197820500,1.187285155500190
mud turtle and Ground sloth,CT19 6NQ,51.091368000000000,1.198844000000000
Partridge and copperhead,CT19 6PS,51.095002634036200,1.202066154045740
deaf adder and Night heron,CT20 1BA,51.078991830409000,1.176355947246210
Greenbul and Bronzewing pigeon,CT20 1EW,51.081905446453600,1.176384283304770
flying dragon and rat snake,CT20 1EZ,51.080595558797800,1.181685000000000
monitor and Scimitar babbler,CT20 1JB,51.084052084120100,1.181458445259000
blue racer and River dolphin,CT20 1JJ,51.082295793846900,1.180880886301870
Duck and dugite,CT20 1PA,51.083278635751200,1.186403685994570
Vole and horned toad,CT20 1QR,51.081410357844700,1.185975335515600
boa and Maya,CT20 1QU,51.082529911064300,1.186039000000000
mamba and cycling lizard,CT20 1RP,51.078306683227600,1.180378628801970
Hawaiian honeycreeper and box turtle,CT20 1RX,51.078826098146100,1.179471818691330
Black jay and Komodo dragon,CT20 1SZ,51.078843000000000,1.180150416648940
viper and water snake,CT20 2AD,51.078500285956700,1.175908154535940
Jerboa and loggerhead,CT20 2TN,51.078580566113600,1.177144000000000
bandy-bandy and Meadowlark,CT20 9FW,51.078580566113600,1.177144000000000
Cloud rat and Gull,CT20 9HW,51.078616000000000,1.177176000000000
Black cockatoo and snake,CT20 9JD,51.078616000000000,1.177176000000000
Viscacha and Badger,CT20 9JN,51.078616000000000,1.177176000000000
Rabbit and fer-de-lance,CT20 9JY,51.078616000000000,1.177176000000000
Shearwater and Fulmarine petrel,CT20 9UB,51.078586000000000,1.177288000000000
