name,postcode,lat,lon
The Rock Inn,PL27 6FD,50.5451,-4.9245
The Taproom,PL27 6FD,50.5451,-4.9245
The Brasserie at The St Enodoc Hotel,PL27 6LA,50.5459,-4.9154
Rock Sailing & Waterski Club,PL27 6LB,50.5442,-4.9173
St Enodoc Golf Club,PL27 6LD,50.5445,-4.9207
The Mariners,PL27 6LD,50.5445,-4.9207
The Pityme Inn,PL27 6PQ,50.5531,-4.8930
Surfside Polzeath Limited,PL27 6TB,50.5735,-4.9171
Tubestation,PL27 6TB,50.5735,-4.9171
Oystercatcher,PL27 6TG,50.5709,-4.9166
Strong Adolfos,PL27 7LR,50.5060,-4.8836
The Old Mill House Bistro,PL27 7QT,50.5122,-4.9413
Cafe Rojanos,PL28 8AE,50.5418,-4.9388
The Old Ship Hotel Ltd,PL28 8AE,50.5418,-4.9388
Greens of Padstow,PL28 8AF,50.5431,-4.9367
Shipwrights,PL28 8AF,50.5431,-4.9367
Embers,PL28 8AL,50.5413,-4.9391
London Inn,PL28 8AN,50.5410,-4.9394
THE GOLDEN LION,PL28 8AN,50.5410,-4.9394
No 6 Padstow Ltd,PL28 8AP,50.5413,-4.9399
RICK STEIN'S CAFE,PL28 8AP,50.5413,-4.9399
Old Custom House ,PL28 8BL,50.5399,-4.9362
RICK STEIN COOKERY SCHOOL,PL28 8BL,50.5399,-4.9362
STEINS FISH & CHIPS,PL28 8BL,50.5399,-4.9362
The Basement,PL28 8BS,50.5411,-4.9388
Harbour Inn,PL28 8BU,50.5410,-4.9380
THE SEAFOOD RESTAURANT,PL28 8BY,50.5407,-4.9370
Padstow Harbour Hotel,PL28 8DB,50.5399,-4.9372
ST PETROCS BISTRO,PL28 8EA,50.5401,-4.9386
Trevose Golf & Country Club,PL28 8JB,50.5320,-5.0101
YHA Treyarnon Bay,PL28 8JR,50.5262,-5.0209
Treviskerâ€™s Kitchen & Dining,PL28 8LD,50.5189,-4.9521
THE CORNISH ARMS,PL28 8ND,50.5290,-4.9840
The Farmers Arms,PL28 8NP,50.5237,-4.9959
The Venue Bar,PL28 8QA,50.5110,-4.9814
Well Parc Hotel,PL28 8QN,50.5418,-4.9748
Harlyn Sands T/as Unionworld Ltd,PL28 8SQ,50.5384,-5.0029
