name,id,postcode,lat,lon
Condor and tokay,544395,PL32 9XZ,50.645189929930200,-4.606639604214810
iguana and Stilt,546247,PL28 8DY,50.540846727920800,-4.938639958926920
Jerboa and Viscacha,545410,PL30 3PW,50.549108707810100,-4.713284671872530
Prion and Marmoset,546400,PL28 8RB,50.544647248283800,-4.978784271317890
puff adder and Zebra,544338,PL32 9TD,50.623364083976200,-4.680145298096450
Warbler and Skunk,544286,PL35 0EL,50.675462444271800,-4.686737216269930
giant tortoise and Logrunners,544062,PL34 0BB,50.668529486837500,-4.727668779280310
Cuscus and fer-de-lance,546682,PL27 7BH,50.511604002688200,-4.832362920320540
anole and Mamo,545373,PL30 3LT,50.594254245727200,-4.739381011430240
smooth snake and Jay,546323,PL28 8NE,50.530728000000000,-4.990185000000000
garter snake and sand viper,545926,PL28 8TD,50.511943904948300,-4.979347835897020
Bunting and flying lizard,1803190,PL33 9BG,50.621816340600000,-4.726279161800000
Fox and Bronzewing pigeon,547004,PL27 6PX,50.558696000000000,-4.903093000000000
Logrunners and sidewinder,546459,PL27 7QT,50.512225559040300,-4.941272000000000
kabaragoya and rock python,544147,PL34 0DT,50.657060000000000,-4.750443725094890
Ice seal and Night heron,546374,PL28 8PR,50.513592987555300,-4.998835414803710
Dorcopsis and Peafowl,544041,PL33 9ZX,50.625187005040200,-4.729061118454270
Argus and Thicketbird,544174,PL34 0HJ,50.649660677151400,-4.699218000000000
agamid and tokay,545200,PL30 4QQ,50.529274547240200,-4.712146048946930
hognose snake and Old World warbler,544378,PL32 9XB,50.625500000000000,-4.670241000000000
Schneider python and Flameback,544169,PL34 0EY,50.645559857578900,-4.749721683487020
thorny devil and B,545339,PL30 3HZ,50.578154325782100,-4.770880109104530
ringhals and Magpie,546226,PL28 8BX,50.540760666472500,-4.937657000000000
boa and water snake,546127,PL28 8AX,50.540893246273600,-4.941070722714820
Warbler and Thicketbird,546981,PL27 6NT,50.552782000000000,-4.892451000000000
Recurvebill and Linsang,546334,PL27 7NE,50.514520669120900,-4.839280931564100
jew lizard and swift,544411,PL33 9AA,50.626178355927400,-4.728595348154880
anaconda and Skunk,544130,PL34 0BU,50.660860386701900,-4.748181835543290
harlequin snake and gopher snake,546681,PL27 7BG,50.512709817020900,-4.832386822453430
bearded lizard and agamid,544511,PL33 9DP,50.630516000000000,-4.725099000000000
Ground sloth and Francolin,544166,PL34 0EU,50.643531919102000,-4.731553142950980
Rabbit and anole,1803107,PL27 7FA,50.510363206300000,-4.922541252400000
lizard and Badger,544210,PL35 0BT,50.693733000000000,-4.654914000000000
rock python and Magpie,546271,PL28 8FE,50.525953799957800,-4.990052151664070
boomslang and Warbler,546067,PL29 3TN,50.573353000000000,-4.846138000000000
Cuscus and Warbler,544225,PL32 9QB,50.613880534359400,-4.687692195546620
constrictor and Vole,544499,PL33 9BY,50.630038979308500,-4.724675460019410
Myna and Stilt,545090,PL30 4HY,50.500249283091100,-4.648852945581160
Parakeet and Stilt,546527,PL27 6RE,50.556563813821500,-4.855448000997720
fer-de-lance and Maya,2332656,PL32 9WA,50.675949000000000,-4.612130000000000
Black jay and chuckwalla,546845,PL27 6DZ,50.519518314684300,-4.829831776756200
Zebra and blindworm,545293,PL30 3EL,50.555213515639700,-4.793607506886710
River dolphin and smooth snake,2589223,PL27 9BY,50.515663000000000,-4.836427000000000
gavial and blue racer,546875,PL27 6HQ,50.520867928013000,-4.824635683140270
racer and Macaw,546346,PL27 7NW,50.516151000000000,-4.837051000000000
Viscacha and Buzzard,546740,PL27 6AR,50.514711686563200,-4.822560974638460
rattlesnake and Marsh harrier,544053,PL34 0AR,50.663501753455600,-4.742208379559210
Rat and Fox,545246,PL30 3BA,50.525876000000000,-4.763356000000000
Myna and Triller,546697,PL27 7DD,50.516378235248600,-4.836881243592660
horned viper and Goose,545047,PL30 4DF,50.560470109360000,-4.691079000000000
brown snake and Snipe,546242,PL28 8DS,50.536540858876300,-4.938527425067330
Black cockatoo and Francolin,545137,PL30 4LB,50.535133075166900,-4.662563791554160
flying lizard and Grosbeak,544195,PL35 0AU,50.685459401017800,-4.691716000000000
Snipe and Condor,2630122,PL27 9DD,50.515663000000000,-4.836427000000000
Stilt and Mole,544037,PL33 9EZ,50.603115858961700,-4.732037550616950
Fulmarine petrel and Bronzewing pigeon,544370,PL32 9UU,50.621192000000000,-4.699081000000000
Ice seal and amethystine python,546634,PL27 6TQ,50.571310000000000,-4.916313000000000
Thicketbird and Schneider python,544269,PL32 9SG,50.659164732823000,-4.649411730452360
brown snake and flying lizard,545355,PL30 3JW,50.581402916940800,-4.735074749694280
Ground sloth and Black cockatoo,546331,PL27 7NA,50.515938119511600,-4.836854841423590
rat snake and Siskin,544294,PL35 0HD,50.690457871593600,-4.693843000000000
mamba and worm lizard,546750,PL27 6BD,50.516644489455300,-4.825201668927110
Fulmarine petrel and Old World vulture,546335,PL27 7NF,50.515781399919600,-4.837748337728890
Coati and Pratincole,546243,PL28 8DT,50.539034008728900,-4.940249240548920
Asiatic leopard and Triller,545094,PL30 4JD,50.528403000000000,-4.683831000000000
bearded dragon and amphisbaena,544515,PL33 9DT,50.618806082188000,-4.736877658669700
dukite and Linsang,544265,PL32 9SB,50.600890841776600,-4.703670934844540
Towhee and Scimitar babbler,2656881,PL27 7GF,50.515504000000000,-4.842922000000000
Meadowlark and Peafowl,544274,PL35 0DW,50.682770990921500,-4.700745000000000
thorn lizard and Puffleg,544348,PL32 9TS,50.627455586639100,-4.674325792539590
Bronzewing pigeon and Old World vulture,546614,PL28 8AF,50.543108040164800,-4.936719657874090
Songlark and milk snake,547011,PL27 6QH,50.558321081621700,-4.873586222404320
garter snake and sidewinder,545277,PL30 3DR,50.551577000000000,-4.764075203493700
bearded lizard and giant tortoise,546047,PL29 3SJ,50.593914765865200,-4.813195863034820
slowworm and box turtle,546987,PL27 6PA,50.556860367789700,-4.884271008774650
green turtle and indigo snake,545287,PL30 3ED,50.545541356849100,-4.779441265072180
chuckwalla and Boto,544388,PL32 9XR,50.652626997494100,-4.628712513407390
frilled lizard and Pratincole,546316,PL28 8LU,50.534342865200400,-4.939364581578560
Macaw and rock snake,546339,PL27 7NL,50.515499700209800,-4.839339711039990
mud turtle and glass snake,545186,PL30 4PX,50.507757349043300,-4.712590765205230
snake and garter snake,1803143,PL30 3FA,50.526020881900000,-4.761756496800000
mud turtle and caiman,546764,PL27 7ES,50.518527315090200,-4.850159399226790
Fox and Snipe,546804,PL27 7JS,50.511362597829600,-4.853649232587410
Chipmunk and fer-de-lance,544377,PL32 9XA,50.624199195045800,-4.674338895324090
Chickadee and Parrotlet,546300,PL28 8JU,50.520331000000000,-5.003072000000000
