name,postcode,lat,lon
turtle and glass snake,DT7 3EW,50.724739137321600,-2.945314000000000
bearded dragon and alligator,DT7 3XX,50.713867501759900,-2.990505165354830
Fulmarine petrel and constrictor,EX10 0PS,50.709380000000000,-3.210500000000000
Mole and Ice seal,EX10 0SQ,50.721343442326700,-3.218886865976160
sand viper and Stilt,EX12 2AH,50.706949698907000,-3.072061085301060
garter snake and Recurvebill,EX12 2AS,50.708349000000000,-3.071629094572600
Scimitar babbler and thorny devil,EX12 2DH,50.714133912076500,-3.068273141086890
python and pit viper,EX12 2EF,50.716491208563800,-3.074021119296110
hawksbill and snake,EX12 2ES,50.712519947651100,-3.076550663482170
B and Parrotlet,EX12 2EU,50.715520283577200,-3.074962130526050
rattlesnake and Grouse,EX12 2EX,50.713918562434400,-3.075067126220630
leathery turtle and leathery turtle,EX12 2FH,50.706496000000000,-3.064525000000000
death adder and indigo snake,EX12 2SJ,50.715421774903300,-3.070030529355740
Jerboa and carpet snake,EX12 2TL,50.716145893256300,-3.070500302582410
gecko and Chicken,EX12 2TR,50.718134359915800,-3.074299502171330
Puffleg and Jay,EX12 2TU,50.717870954285900,-3.076531632349450
blue racer and Old World vulture,EX12 2TY,50.703002000000000,-3.077097000000000
Chickadee and worm lizard,EX12 2UL,50.705424232199000,-3.077549381139910
Zebra and saltwater crocodile,EX12 3AJ,50.693634793440600,-3.093915093332960
jew lizard and worm lizard,EX12 3BT,50.705955351200300,-3.133430523440280
python and Bronzewing pigeon,EX12 3BU,50.699075173947000,-3.132556626886060
Civet and Recurvebill,EX12 3BW,50.704245943082800,-3.159106568265450
Thicketbird and black snake,EX12 3DN,50.694814493966600,-3.127710843770350
python and asp,EX12 3DW,50.692777465991500,-3.128185832597230
black snake and caiman,EX12 3HA,50.697421978793500,-3.094753664797660
Pitohui and perentie,EX12 3JX,50.699751000000000,-3.095880474797560
Nukupu ªu and Thicketbird,EX12 3LF,50.699851905241300,-3.097429877827120
Diving bird and amethystine python,EX12 3LH,50.700242938976400,-3.099832087838180
River dolphin and Chickadee,EX12 4AD,50.705652414281700,-3.054569945885520
Tahr and cobra de capello,EX12 4AJ,50.714411241228400,-3.051622024716470
thorny devil and Shearwater,EX12 4AZ,50.712530178871700,-3.041778506225120
Moluccan boobook and boomslang,EX12 4BT,50.713702164357500,-3.050303000000000
