name,postcode,lat,lon
Mamo and harlequin snake,BH5 1AG,50.723402400000000,-1.842229846000000
Perching duck and Black cockatoo,BH5 1AU,50.723965660000000,-1.846520525000000
habu and Capuchin,BH5 1BD,50.722177000000000,-1.845776000000000
Capuchin and goanna,BH5 1ED,50.723752900000000,-1.842072836000000
sand viper and Pitohui,BH5 1FB,50.723424012732700,-1.841663321600520
indigo snake and Goose,BH5 1HU,50.724405340000000,-1.839123906000000
Old World vulture and Polecat,BH5 1JG,50.723493070000000,-1.836237009000000
Meadowlark and green turtle,BH6 3DE,50.721994850000000,-1.803560577000000
Skunk and Greenbul,BH6 3PA,50.722478420000000,-1.807737659000000
Ibex and soft-shelled turtle,BH6 3PW,50.722544770000000,-1.809947000000000
Moluccan boobook and fer-de-lance,BH6 3PZ,50.723631000000000,-1.812990302000000
tortoise and horned viper,BH6 4AP,50.721513940000000,-1.795630000000000
Petrel and Duck,BH6 4AU,50.721777000000000,-1.791278529000000
fer-de-lance and Marsh harrier,BH6 4AW,50.723417790000000,-1.794332095000000
Logrunners and Rabbit,BH6 4DW,50.721520890000000,-1.784664901000000
Black jay and cobra de capello,PO39 0AD,50.685072000000000,-1.534129000000000
Black jay and Hawaiian honeycreeper,PO39 0AE,50.685067144363300,-1.535572465643450
Kestrel and copperhead,PO39 0BF,50.685038487187600,-1.537412929910240
leguaan and Nukupu ªu,PO39 0BU,50.681826254090700,-1.539227931404590
Moluccan boobook and Egret,PO40 9AE,50.682874779024300,-1.527087183020250
sea snake and king snake,PO40 9AP,50.682562760312700,-1.523339374257860
sand viper and blindworm,PO40 9BQ,50.684074555414500,-1.514859400931510
Tahr and Meadowlark,PO40 9DW,50.684007412227200,-1.518186503879870
skink and Meadowlark,PO40 9ED,50.685113832412600,-1.529669000000000
Marsh harrier and Marsh harrier,PO40 9EJ,50.682466228412100,-1.528351035058110
Crow and Ground sloth,PO40 9FR,50.684310419422500,-1.528516573579660
boa constrictor and agamid,PO40 9HG,50.677996632427500,-1.526088847734160
elapid and adder,PO40 9HR,50.679855350645700,-1.521003118493190
Old World quail and Thrasher,PO40 9HS,50.680157194526700,-1.520051744326040
Treepie and swift,PO40 9JP,50.684131370798100,-1.524286029710150
constrictor and Linsang,PO40 9LT,50.685756403204500,-1.530285678802880
Siskin and rock python,PO40 9SB,50.690694767979100,-1.535106384107360
Logrunners and viper,PO40 9SU,50.694771515193600,-1.529133835661280
Fish eagle and bearded lizard,PO40 9TA,50.677751717644400,-1.503955928133610
Masked owl and Macaw,PO40 9TS,50.675237238218300,-1.509034790037000
Night heron and Pratincole,PO40 9UF,50.675782000000000,-1.486937000000000
slowworm and Komodo dragon,PO41 0LB,50.703728000000000,-1.494435000000000
water snake and Thicketbird,PO41 0NP,50.705816033811700,-1.499241638515560
Myna and Viscacha,PO41 0QP,50.703525595763400,-1.495697493255320
dugite and bicycle lizard,PO41 0SD,50.706020020411900,-1.513118000000000
Meadowlark and Argus,PO41 0UF,50.669008727148800,-1.441842642612850
mamba and Stilt,PO41 0XB,50.708230627760300,-1.477717642822270
racer and Lemming,SO41 0QX,50.724578156442600,-1.582599000000000
racer and snake,SO41 0QY,50.724205537304100,-1.583736319117860
B and amethystine python,SO41 0SD,50.724635876046000,-1.598763854671770
turtle and Chickadee,SO41 0SY,50.722606682834800,-1.591896235461720
cayman and Goose,SO41 0UQ,50.722549017024700,-1.580705183378270
