name,postcode,lat,lon
indigo snake and perentie,TD10 6UL,55.686461021759900,-2.369891101535540
death adder and dugite,TD10 6XN,55.708781628940100,-2.462260811976200
bandy-bandy and glass snake,TD10 6XR,55.729170320654500,-2.522449965425880
puff adder and Chipmunk,TD10 6YJ,55.714024204209900,-2.436570199817720
Eagle and Songlark,TD11 3AU,55.777822512732100,-2.348182388848030
worm lizard and goanna,TD11 3BJ,55.776499060774400,-2.345938747980320
rattlesnake and bandy-bandy,TD11 3BX,55.777538894679400,-2.343604478730130
Bunting and Petrel,TD11 3DY,55.780877297721700,-2.341832266401690
jew lizard and gaboon viper,TD11 3EZ,55.775232893773600,-2.335964309038040
Guillemot and sand lizard,TD11 3NF,55.737603694307500,-2.220911504824630
Ground sloth and Duck,TD11 3PW,55.791417505586600,-2.325004073968230
Thrasher and Mockingbird,TD11 3RD,55.702143000000000,-2.347445000000000
Cloud rat and perentie,TD11 3UB,55.798171608501200,-2.215704000000000
Mole and Grosbeak,TD11 3UY,55.799553000000000,-2.217323750195600
sand lizard and Kestrel,TD11 3WW,55.799210857023400,-2.212599230647320
Darwin's finches and Magpie,TD11 3XB,55.801068713070100,-2.213773834960520
Pitohui and alligator,TD12 4DR,55.655552792840300,-2.257017207221230
whip snake and caiman,TD12 4HB,55.684923713842700,-2.235484659411670
Warbler and Vulture,TD12 4HT,55.657570000000000,-2.259112000000000
caiman and Mockingbird,TD12 4LJ,55.649028374690000,-2.257404000000000
Parrotlet and Coati,TD12 4LP,55.659930799041400,-2.272638144796590
bull snake and perentie,TD12 4TF,55.621568683278100,-2.142436455082080
moloch and ringhals,TD12 4UZ,55.686047521507000,-2.199657938628430
monitor and Pratincole,TD12 4XB,55.683674846152600,-2.163671417857610
king snake and pit viper,TD15 1SU,55.710808927818400,-2.183455737628690
frilled lizard and Asiatic leopard,TD15 1TR,55.777022030322700,-2.148711074622270
galliwasp and Marmoset,TD15 2LE,55.719462115511400,-2.164060052491690
Warbler and White ibis,TD5 7JL,55.600472435643100,-2.435386979210940
Piping shrike and coral snake,TD5 7LX,55.607419031329100,-2.432590945819640
Stint and blindworm,TD5 7ND,55.607820081452500,-2.436055728479250
diamond python and Goose,TD5 7NF,55.607668169646300,-2.438339779817060
harlequin snake and dugite,TD5 7NY,55.606702786347300,-2.482455411195860
saltwater crocodile and White ibis,TD5 7SW,55.606807210173700,-2.422520837734920
Jay and Kākāriki,TD5 7TQ,55.609557488869700,-2.424899765455480
blind snake and Piping shrike,TD5 7UE,55.607464146512400,-2.424829501688900
