name,postcode,lat,lon
Gila monster and amethystine python,TD11 3JG,55.720874911878900,-2.261314754427360
Masked owl and king cobra,TD11 3JX,55.787476369430000,-2.217765559264380
Dolphin and Macaw,TD12 4BG,55.650002708623000,-2.251339801505330
Black jay and snapping turtle,TD12 4DR,55.655552792840300,-2.257017207221230
Zebra and Kangaroo,TD12 4DX,55.652223656020700,-2.259204239696780
Diving bird and Goose,TD12 4EH,55.657172072195500,-2.256090133902310
Booted eagles and Bronzewing pigeon,TD12 4FG,55.655594000000000,-2.262364000000000
Mockingbird and Marsh harrier,TD12 4HB,55.684923713842700,-2.235484659411670
cobra de capello and Philippine hawk-owl,TD12 4NJ,55.650609684099400,-2.261847270715420
thorn lizard and krait,TD12 4SG,55.644832000000000,-2.164145000000000
Warbler and Gila monster,TD12 4SJ,55.634123036079200,-2.155586148666080
agama and Towhee,TD12 4TA,55.637039456222800,-2.135996000000000
Bronzewing pigeon and tortoise,TD12 4TR,55.637610407554000,-2.092377178491550
puff adder and Logrunners,TD12 4UF,55.648674676464100,-2.222523364525700
tuatara and hoop snake,TD15 1AL,55.768603320020900,-2.005903294599920
Marmoset and pit viper,TD15 1BZ,55.771361744860700,-2.005409606548800
Wallaby and taipan,TD15 1HJ,55.767959948487500,-2.004612447209280
bearded dragon and Egret,TD15 1LY,55.774264004476000,-2.002508830316170
tuatara and Treepie,TD15 1ND,55.774659190689100,-2.006494060132690
Condor and Flameback,TD15 1NP,55.776249010067100,-2.012982507735580
Moluccan boobook and smooth snake,TD15 1QQ,55.781379657496600,-2.010879699033450
Francolin and Prion,TD15 1SW,55.786743561781800,-2.012332292034080
Francolin and ringhals,TD15 1TG,55.769160493575200,-2.104897821321510
Perching duck and green turtle,TD15 1TU,55.789741000000000,-2.015500000000000
gecko and horned viper,TD15 1UL,55.793404311476900,-2.130624226253380
ringhals and massasauga,TD15 2AS,55.759393520473500,-2.008435000000000
Rat and amphisbaena,TD15 2DY,55.757244971163600,-2.018457261887290
frilled lizard and Herring gull,TD15 2EW,55.756230303967800,-2.013613055670240
Magpie and Egret,TD15 2GR,55.649636000000000,-1.975911000000000
Crow and saltwater crocodile,TD15 2GZ,55.763499735296200,-2.007496114927800
Piping shrike and Francolin,TD15 2ND,55.749392067003600,-2.018294196902440
perentie and Black jay,TD15 2QA,55.632001088274600,-2.083406016147060
slowworm and Scimitar babbler,TD15 2UU,55.764047000000000,-2.019098000000000
