name,postcode,lat,lon
Bristol Trader,SA61 1BE,51.799274799163400,-4.966249766495790
Cafe Rio ,SA61 1BG,51.801493033268600,-4.967802616157750
Eddie Rocks,SA61 1BG,51.801493033268600,-4.967802616157750
The glen,SA61 1XA,51.794035794319100,-4.978161781910020
mcdonalds,SA61 1XJ,51.788699000000000,-4.978695000000000
Block and Barrel ,SA61 2AA,51.802038946206800,-4.968621861955240
Coffee Cave,SA61 2DA,51.801679832529300,-4.969817000000000
Old bridge cafe,SA61 2EZ,51.803983516063900,-4.968546604427670
The Bull Inn,SA61 2PP,51.806510848348000,-4.965695063945530
The Ocean Cafe Bar and Restaurant ,SA62 3JG,51.781698092836900,-5.102139696003420
Sunshine Italian,SA62 3JN,51.782087198333200,-5.102050403354610
Sand & Stone kitchen,SA62 3JR,51.779720000000000,-5.101830000000000
Halfway Cafe,SA62 3NX,51.769729586584500,-4.991796082662870
The Vine Inn,SA62 3NY,51.762220044997300,-4.993545801771130
Cornerhouse Cafe,SA62 3UN,51.772894000000000,-5.108248000000000
The Masons ,SA62 3XH,51.790206535218900,-5.009134429343480
PICTON CASTLE RESTAURANT,SA62 4AS,51.785726000000000,-4.885573000000000
Vincent Davies & Son Ltd,SA62 4BT,51.822151000000000,-4.966447000000000
Pelcomb inn.  Haverfordwest,SA62 6AA,51.821726000000000,-5.019146000000000
Ye Olde Inn,SA62 6HY,51.838660450564800,-4.992432435701740
MUNCHIES,SA63 4QR,51.845840191595000,-4.903039530950300
Lawrenny Arms,SA68 0PR,51.718652000000000,-4.878952000000000
the royal george,SA71 4NT,51.676784737135500,-4.918474000000000
The Globe Hotel Angle Ltd,SA71 5AT,51.684550747349500,-5.090598301534370
Paternoster Farm ,SA71 5RX,51.660669580171500,-4.984341170131600
Cheeky chimps,SA72 4RS,51.692456000000000,-4.925089039641870
The Brewery Inn Cosheston Ltd,SA72 4UD,51.696223169790100,-4.885777265382190
mcdonalds,SA72 6BP,51.693645546704600,-4.932444129863850
Cwtch coffee,SA72 6BT,51.693808377960600,-4.940674756780160
Horse and jockey inn,SA73 1AP,51.729636147949200,-5.016496000000000
Huntsman inn  ,SA73 1JH,51.736083815078300,-4.968031466034100
The Jolly Sailor Burton Ltd,SA73 1NX,51.708208905501900,-4.922616003182860
The Alumchine Restaurant Ltd,SA73 1PX,51.705532000000000,-4.946647000000000
The Bar Restaurant,SA73 1PY,51.708441343261900,-4.944782000000000
Honeyborough Tearooms,SA73 1SE,51.718698000000000,-4.953498000000000
Foam,SA73 3AA,51.711836271876500,-5.037992696561260
MARTHA'S VINEYARD,SA73 3AA,51.711836271876500,-5.037992696561260
The Lounge Bar & Restaurant,SA73 3AJ,51.711565033944300,-5.036889000000000
Leo's (Pembrokeshire) Ltd,SA73 3AY,51.711364122343500,-5.036055000000000
The Harbourmaster,SA73 3AZ,51.711218953173200,-5.035084680331460
