name,id,postcode,lat,lon
New World blackbird and Solitaire,398224,SA9 2DN,51.749524000000000,-3.797630000000000
lizard and Coati,418277,SA11 2HR,51.644689914335800,-3.816431244725270
Macaw and Songlark,413361,SA18 3ED,51.790016000000000,-3.987960000000000
Shearwater and Stilt,419743,SA1 6PD,51.629349297810400,-3.956290225688430
galliwasp and moloch,398288,SA9 1EB,51.774487920212400,-3.773139505613630
Grosbeak and Old World warbler,418015,SA11 4NB,51.709868340141900,-3.691785000000000
soft-shelled turtle and Warbler,397846,SA9 2HD,51.757900009791900,-3.786631393264550
jew lizard and Fish eagle,403794,SA6 7DY,51.665191657537200,-3.937401738212760
Fish eagle and Mole,420713,SA1 2BL,51.630605318585600,-3.941302455982470
Lemming and sand lizard,419058,SA10 7DQ,51.687921097589600,-3.829402903876540
Francolin and ringhals,400695,SA7 9NF,51.664459116986300,-3.868873054134980
Thicketbird and chameleon,404603,SA5 5DY,51.647258227833000,-3.979061435734570
ringhals and Parrotbill,419249,SA10 6JA,51.640445898432100,-3.860615760485320
Grackle and ringhals,417978,SA11 4EF,51.705636951649400,-3.697574322087250
Mamo and Peafowl,418966,SA10 8LU,51.691956854612500,-3.779778987572510
Fish eagle and Logrunners,403901,SA6 6FD,51.669069215928400,-3.955731045831380
Grackle and Old World vulture,418127,SA11 3HG,51.665991439162300,-3.798398094740490
Scimitar babbler and Elephant,417947,SA11 4BD,51.701583705876100,-3.712907144489960
White ibis and Black cockatoo,413795,SA18 1TR,51.800829087400600,-3.879962030833330
Egret and Coati,403541,SA6 6NU,51.685453738529900,-3.939988461979730
Nukupuʻu and green turtle,413520,SA18 2HJ,51.793615584112300,-3.970643926943840
Dorcopsis and brown snake,418141,SA11 3HZ,51.674769610225600,-3.772856859144930
Eagle and Marsh harrier,2615468,SA4 5BU,51.666349000000000,-4.016962000000000
leathery turtle and hoop snake,404471,SA5 7NP,51.710223000000000,-3.957173000000000
Scimitar babbler and gavial,400554,SA7 9DL,51.653863396708100,-3.911489051517320
box turtle and agamid,403676,SA6 6TD,51.684038115049900,-3.928210156112420
Triller and Fulmarine petrel,407794,SA4 4UA,51.669319000000000,-4.048825317999240
Parakeet and Wader,407684,SA4 4FQ,51.673356844856400,-4.039859679221050
Eagle and rat snake,420123,SA1 6FP,51.629735759333700,-3.946568145294120
Viscacha and Francolin,397893,SA9 2NL,51.762555000000000,-3.793476436063080
python and White ibis,404863,SA5 4HX,51.644990889846000,-3.995599281470820
Old World quail and Kestrel,418048,SA11 3BX,51.656754706634400,-3.780220772526520
Boto and Tree warbler,403227,SA6 8RX,51.662117404925500,-3.914309059380710
Bronzewing pigeon and harlequin snake,398599,SA8 4PA,51.724284167660200,-3.846160734848930
horned viper and Recurvebill,418243,SA11 2ED,51.651768510684000,-3.813996587830660
sea snake and elapid,417995,SA11 4HT,51.711557000000000,-3.698664000000000
thorn lizard and Duck,419078,SA10 7EQ,51.683599901466500,-3.820462247167240
horned viper and tokay,1473264,CF34 0PU,51.635231545252200,-3.654554717540400
elapid and Peafowl,419086,SA10 7EZ,51.674793978839000,-3.803143674685150
crocodile and anole,420335,SA1 2JE,51.642484561187600,-3.938023224937900
Linsang and Hawk,400694,SA7 9NE,51.663426561468000,-3.867644858398420
Tattler and iguana,403758,SA6 5ST,51.705162690201400,-3.902752998718980
Mouse and Black cockatoo,419866,SA1 6SE,51.631889257418000,-3.976976115169200
pit viper and Booted eagles,404194,SA6 5LT,51.698544000000000,-3.891801226634930
Parrotbill and Grouse,400238,SA7 9QR,51.659929000000000,-3.895088978037210
Viscacha and swift,419034,SA10 7BE,51.663529869264400,-3.812283033467040
flying dragon and Bronzewing pigeon,404268,SA5 9AX,51.655608607585300,-3.949180447570980
Thrasher and monitor,398009,SA9 2WF,51.806541523485200,-3.823875143251870
Pratincole and Greenbul,413130,SA18 3TD,51.792200100447400,-4.008575109397190
rat snake and Scimitar babbler,404585,SA5 5BZ,51.637404975133100,-3.984239543184890
Snipe and Pitohui,407723,SA4 8DL,51.697220963705400,-4.036345758212060
python and boa,404433,SA5 7JG,51.659716971884800,-3.950874953842240
Marmoset and diamondback turtle,397675,SA99 1DT,51.669995471871500,-3.945445126802950
bandy-bandy and Jerboa,400243,SA7 9QX,51.658812476965100,-3.899653609410110
agamid and wall lizard,398483,SA8 4JB,51.721772374463300,-3.852631523527910
Thicketbird and harlequin snake,416402,SA13 3RA,51.645808981809500,-3.638332584827390
Towhee and Minke whale,411940,SA2 0XB,51.628519320528900,-3.972567165755790
Masked owl and Ground sloth,417983,SA11 4ER,51.690456484524700,-3.736446019785510
Komodo dragon and Grosbeak,417885,SA11 3YQ,51.656115310832700,-3.779096963000760
bicycle lizard and boa,400235,SA7 9QN,51.658837356706500,-3.894218335975010
Pheasant and Myna,404684,SA5 5LP,51.656190329112300,-3.973031481536760
diamondback and Cloud rat,404630,SA5 5EG,51.647252264348500,-3.975678764106400
Moluccan boobook and sand viper,419750,SA1 6PN,51.627557515812000,-3.969866913523290
crocodile and Chickadee,404852,SA5 4EX,51.646132619002200,-3.994030536948960
Old World warbler and Condor,419124,SA10 7LE,51.664375389819400,-3.834845319518000
iguana and mountain devil,403727,SA6 5PX,51.702293580646700,-3.875396051094040
Hawk and hognose snake,398012,SA9 2WJ,51.807658773757400,-3.823151451265240
sidewinder and death adder,416422,SA13 3SN,51.644195093227800,-3.641858777812400
galliwasp and Vole,400242,SA7 9QW,51.657378213157400,-3.897150241755700
Marsh harrier and cayman,404370,SA5 7EJ,51.647211224614700,-3.955035647088070
Pratincole and massasauga,418733,SA10 9LN,51.772247000000000,-3.659432000000000
swift and milk snake,1808210,SA18 2GE,51.803854999000000,-3.989947453100000
Herring gull and galliwasp,413761,SA18 1RG,51.778269941553400,-3.878139665184700
Schneider python and Black cockatoo,420429,SA1 2PJ,51.644921290552800,-3.943475121962800
Pratincole and copperhead,413755,SA18 1PY,51.782521000000000,-3.878949980691850
gopher snake and thorn lizard,404500,SA5 8AP,51.639540377798700,-3.958289768020130
cobra de capello and Hawk,417883,SA11 3YN,51.655476560367700,-3.777929839796630
Dolphin and Capuchin,1473276,CF34 0RL,51.633004098418600,-3.655008276475410
sidewinder and thorny devil,413489,SA18 2EF,51.803434958155700,-3.994642391368060
Thrasher and Asiatic leopard,419831,SA1 6QH,51.631054724745100,-3.969382683562750
giant tortoise and gavial,1808091,SA11 1GA,51.651788864100000,-3.800308244300000
dugite and anaconda,418456,SA11 1JG,51.651673578544900,-3.793841373546110
Peafowl and gavial,418638,SA10 8TE,51.729401440727100,-3.752781053282690
Warbler and Marmoset,398157,SA8 4TU,51.751083000000000,-3.838677000000000
Philippine hawk-owl and agamid,398052,SA9 1SG,51.782570875982200,-3.748593152433000
indigo snake and Cloud rat,403723,SA6 7BP,51.659964549325200,-3.927722714824950
Skunk and Stilt,404013,SA6 6LJ,51.676986849386700,-3.928286605609220
Towhee and Booted eagles,407265,SA4 8JY,51.710541103074600,-4.024770637978040
Jay and milk snake,413291,SA18 2YF,51.810183870754200,-3.927034000000000
agama and Flameback,1808358,SA5 9DL,51.654617028700000,-3.944367653800000
cobra and puff adder,404523,SA5 8BY,51.643674643300600,-3.970782409512700
tuatara and massasauga,404281,SA5 9BR,51.654980442286000,-3.947476458192700
Chickadee and taipan,403771,SA6 5TN,51.727044000000000,-3.895389000000000
lizard and Cloud rat,397894,SA9 2NN,51.762353057976600,-3.794762875099220
Thrasher and Mamo,419902,SA1 6UP,51.629428823741800,-3.952884000000000
Herring gull and box turtle,400565,SA7 9EB,51.672724883344300,-3.877775270755420
Gila monster and tortoise,420567,SA1 1QF,51.628836000000000,-3.942926773509210
Kite and diamondback turtle,417864,SA11 3US,51.654184484321400,-3.787810938734490
king cobra and elapid,407475,SA4 6BA,51.665354841581000,-4.044951774546950
krait and Old World quail,403881,SA6 6EB,51.675269757662800,-3.928806655169190
cobra and box turtle,407388,SA4 8SY,51.714696845199800,-4.042476000000000
Myna and hoop snake,404552,SA5 4TW,51.640115063090100,-4.008363514363490
Myna and black snake,418848,SA10 7UN,51.683447000000000,-3.816478214085820
Badger and Darwin's finches,403905,SA6 6GJ,51.669515793827400,-3.918858328601210
slowworm and sand viper,403673,SA6 6SZ,51.686361905824300,-3.924692145638080
massasauga and habu,398481,SA8 4HX,51.721154679289100,-3.853026131560080
whip snake and cayman,413165,SA18 3YF,51.818022909893900,-4.003484616490740
Jackal and sea snake,403691,SA6 6TX,51.684436236939700,-3.929702659910090
Rabbit and amphisbaena,404246,SA5 8QN,51.638925697395100,-3.950921634530760
Magpie and blind snake,398313,SA9 1GB,51.817692531435300,-3.674550856740390
Cloud rat and boa,418563,SA11 1TX,51.655218190311800,-3.798434105407440
Siskin and leathery turtle,397655,SA99 1BR,51.669995471871500,-3.945445126802950
bushmaster and black snake,403884,SA6 6EF,51.667654716836000,-3.953732304947690
racer and Stilt,398414,SA9 1LA,51.778863772429000,-3.759711000000000
amethystine python and monitor,413806,SA18 1UT,51.791586686598000,-3.865192879942200
Marsh harrier and Masked owl,398709,SA8 3AW,51.713310203416000,-3.849810278265140
adder and Old World quail,407775,SA4 4PH,51.671147081377300,-4.034539410133340
Treepie and Kākāriki,419275,SA10 6LN,51.660415098101900,-3.844835284125900
coral snake and dugite,412168,SA2 0GE,51.629475828153300,-3.983575536226540
Guillemot and Argus,398337,SA8 3HH,51.714706132060400,-3.827270227692530
sand viper and horned viper,404548,SA5 4TN,51.639544108950000,-4.010722919679490
caiman and Thicketbird,419189,SA10 7RD,51.673253205436600,-3.822563744834910
Boto and Fox,407273,SA4 8LL,51.711713915939700,-4.038068040747550
Meadowlark and viper,418461,SA11 1JP,51.652278571339600,-3.797204602650590
Black jay and Fulmarine petrel,413312,SA18 3AR,51.793306652608100,-3.994818874180530
perentie and blue racer,411703,SA2 9HJ,51.625276671950500,-3.997869009643150
Meadowlark and cayman,404631,SA5 5EH,51.646382104470800,-3.974484564762430
Mamo and mud turtle,407520,SA4 9BZ,51.670052171221900,-3.996700888790760
Tahr and hoop snake,418919,SA10 8EF,51.675450333689900,-3.807826967482490
tortoise and Chicken,418765,SA11 1AA,51.656602000000000,-3.806166000000000
Fulmarine petrel and milk snake,419166,SA10 7PH,51.675404986160300,-3.813682837946100
Shearwater and tokay,416045,SA14 7TR,51.826433228288900,-4.038382370297620
blindworm and diamondback turtle,404319,SA5 9HB,51.646144056282400,-3.947285556586200
Zebra and constrictor,419313,SA10 6PR,51.667756587746600,-3.839435966582020
Peafowl and Guillemot,407425,SA4 4XF,51.668377580527500,-4.045912256981270
Ibex and diamond python,408119,SA4 3DF,51.646462103155600,-4.036642636110040
death adder and Jerboa,418369,SA11 2QA,51.654770078435300,-3.777078149047150
Parakeet and galliwasp,397871,SA9 2JX,51.767665990156700,-3.775915578456230
Nukupuʻu and water snake,420176,SA1 6FW,51.630582252283500,-3.948121579792200
Jerboa and gavial,403357,SA6 7NS,51.662084901276000,-3.948533050568090
Mamo and Grackle,413779,SA18 1SN,51.808313000000000,-3.865753000000000
Grosbeak and amethystine python,418455,SA11 1JF,51.651174290045800,-3.793561454852090
constrictor and Stint,418247,SA11 2EH,51.648895963308100,-3.817163159566860
kabaragoya and Francolin,404222,SA6 5PL,51.700458768691800,-3.884408278516680
Grosbeak and White ibis,404853,SA5 4HA,51.646992738162500,-3.993157643918660
Asiatic leopard and Viscacha,404541,SA5 4TD,51.639244660255200,-4.012978676272880
gavial and Boto,403764,SA6 5TB,51.709543000000000,-3.918301441919000
bandy-bandy and Kangaroo,420173,SA1 6FS,51.630174753152000,-3.946124567543410
Rat and ringhals,400366,SA7 9TR,51.658843461386300,-3.883779720248390
gopher snake and tiger snake,404534,SA5 4SS,51.640332000000000,-4.015166000000000
Vole and cayman,413146,SA18 3TY,51.793670488079400,-4.027159058214480
Viscacha and cycling lizard,413720,SA18 1NT,51.800280126539000,-3.916734617361490
soft-shelled turtle and blue racer,413801,SA18 1UF,51.801698042526300,-3.894168551200020
rattlesnake and elapid,419977,SA1 6YS,51.625082598694700,-3.944100639566710
agamid and Linsang,413679,SA18 1JD,51.802398367064200,-3.929066073156750
frilled lizard and Kestrel,403754,SA6 5SN,51.689719000000000,-3.914114000000000
Mole and Partridge,413149,SA18 3UB,51.784686000000000,-4.015244000000000
Ground sloth and crocodile,398718,SA8 3BP,51.713823071749300,-3.842926289320010
diamond python and iguana,419883,SA1 6TF,51.631508575134800,-3.954605842124310
mud turtle and Mink,404217,SA6 5PB,51.700891808055800,-3.878145573599910
hognose snake and Mockingbird,407411,SA4 9AS,51.669028331022500,-3.998738341795170
water snake and Ibex,400709,SA7 9PD,51.664470380552500,-3.876060152734530
sand viper and Masked owl,413273,SA18 2UA,51.831679000369600,-3.954685000000000
Schneider python and Civet,419122,SA10 7LB,51.667739852145900,-3.833607503778780
Magpie and Partridge,404580,SA5 5BR,51.638223382120000,-3.981572774401170
blue racer and Parrotbill,404328,SA5 7AX,51.646221154851000,-3.963709036635100
River dolphin and pit viper,420644,SA1 1TE,51.647957289239200,-3.924033081925520
Boto and Ice seal,404411,SA5 9JJ,51.643247671026400,-3.948418868775100
brown snake and bearded lizard,413427,SA18 1YY,51.795040367398500,-3.917672508710030
swift and black snake,415997,SA14 7PS,51.796992926937200,-4.048177569551900
Chipmunk and Old World vulture,408030,SA4 0UL,51.716152320936500,-4.048111918369370
Marsh harrier and Stint,419589,SA10 6BB,51.658844007956700,-3.838366485090230
slowworm and Rabbit,400566,SA7 9ED,51.672559022021400,-3.876900651940700
giant tortoise and water snake,419217,SA10 7SP,51.672753913638000,-3.813576904175840
frilled lizard and anaconda,413151,SA18 3UF,51.812919988520600,-4.006899670510140
green turtle and Asiatic leopard,419265,SA10 6JX,51.644703000000000,-3.846770000000000
Parrotlet and flying lizard,413463,SA18 2BX,51.807394822632300,-3.913859736337400
puff adder and puff adder,413264,SA18 2TN,51.824080417400500,-3.999980500862040
skink and python,403975,SA6 5AL,51.687464908382500,-3.907797564695810
diamond snake and Siskin,404190,SA5 8PD,51.636685294475000,-3.950998873638470
Night heron and bushmaster,417925,SA11 3YT,51.653288587883000,-3.778118865197670
American sparrow and adder,403964,SA5 9PQ,51.640577365162300,-3.949475025798440
agama and Ibex,408057,SA4 0XW,51.744921713768500,-4.047964684677200
frilled lizard and Treepie,404287,SA5 9DA,51.652657853741400,-3.947087743823330
pit viper and whip snake,403955,SA5 9PD,51.640872304990900,-3.951207546807590
caiman and cayman,418476,SA11 1LT,51.661652284383300,-3.806916096144210
Kite and slowworm,404238,SA5 8PZ,51.639996337168500,-3.954132673885020
boomslang and massasauga,419737,SA1 6NQ,51.625862457314100,-3.961543704620200
Eagle and Minke whale,403326,SA6 7JF,51.667214440376800,-3.943417087835370
Chickadee and Vole,413594,SA18 2NT,51.790272190706600,-3.986564661531230
blue tongue and Old World quail,400713,SA7 9PJ,51.666536604587800,-3.874497016802350
fer-de-lance and sea snake,418039,SA11 3BJ,51.656295938960500,-3.781417199608510
puff adder and cobra,398087,SA9 1UF,51.795829613977300,-3.700627000000000
Kestrel and gopher snake,413802,SA18 1UG,51.799329577187100,-3.885439854084150
boa constrictor and cerastes,403681,SA6 6TJ,51.682137391677400,-3.914676226725650
brown snake and mountain devil,418963,SA10 8LR,51.688999307892400,-3.779127645612400
Mink and Bunting,419273,SA10 6LH,51.659993668802400,-3.845902554505430
frilled lizard and taipan,403429,SA6 7PF,51.658427946466400,-3.948896628479730
mamba and Eagle,420794,SA1 2DB,51.633712960215500,-3.944787671919990
Petrel and copperhead,413610,SA18 2PP,51.780475143393900,-3.976696394047930
carpet snake and bearded dragon,398410,SA9 1JW,51.770574123857100,-3.774163000000000
Booted eagles and coral snake,407054,SA4 9EX,51.692576459757800,-4.015445000000000
Pitohui and Parakeet,400571,SA7 9EP,51.684886418403000,-3.880350000000000
mountain devil and sea snake,400432,SA7 0HL,51.677146204216400,-3.892131000000000
blind snake and whip snake,404565,SA5 5AN,51.642888287576600,-3.974766333593910
rattlesnake and anaconda,413468,SA18 2DD,51.795799598697600,-3.995755556797520
coral snake and Myna,404278,SA5 9BL,51.656444000000000,-3.947698000000000
Stilt and water snake,407044,SA4 9EJ,51.686252204226900,-4.011707467027860
Old World warbler and slowworm,398216,SA9 2DB,51.755773334928300,-3.795776951585060
milk snake and caiman,411785,SA2 7TS,51.627783589588000,-4.041874159703230
Gila monster and Bronzewing pigeon,397660,SA99 1BX,51.669995471871500,-3.945445126802950
agamid and Bunting,410531,SA3 4WX,51.647984000000000,-3.923586000000000
Booted eagles and Lemming,418972,SA10 8ND,51.688138000000000,-3.780266000000000
Buzzard and Towhee,404343,SA5 7BU,51.651184105459300,-3.959456691376120
Peafowl and worm lizard,404079,SA6 5HD,51.697656000000000,-3.894957000000000
Nukupuʻu and Rat,416380,SA13 3NA,51.660422943747400,-3.645915427517150
Parrotbill and Mouse,403335,SA6 7JZ,51.662438834538700,-3.945627415018150
Vole and Minke whale,398229,SA80 8AF,51.647957289239200,-3.924033081925520
whip snake and Ibex,413286,SA18 2UY,51.812566409224100,-4.000210424531300
Logrunners and American sparrow,404832,SA5 4BX,51.648941000000000,-3.998201000000000
Darwin's finches and Jay,398612,SA8 4PT,51.725933338160400,-3.858477689555770
alligator and Fish eagle,419008,SA10 8RD,51.729344044900600,-3.747580329216790
cerastes and Recurvebill,419152,SA10 7NL,51.660815313473400,-3.831910916243790
gaboon viper and viper,398517,SA8 4NA,51.727503435933500,-3.858701385521290
goanna and anole,407400,SA4 9AD,51.669328951784500,-4.009048406521670
Boto and amethystine python,419575,SA10 6AJ,51.653870387552400,-3.844728466850080
water snake and grass snake,1808145,SA14 7RD,51.791341754400000,-4.046790975100000
snapping turtle and Bunting,418482,SA11 1NE,51.659844837573500,-3.806916468292190
Cuscus and thorny devil,408022,SA4 4AY,51.662480765370400,-4.040614540976230
racer and blue racer,419594,SA10 6BJ,51.656287730300100,-3.843684521429080
Francolin and rat snake,419631,SA1 7FJ,51.640038871817300,-3.928727210617240
cerastes and Chickadee,403917,SA6 6HP,51.670834413733400,-3.921256939271650
Crow and green turtle,398242,SA9 1AP,51.768989000000000,-3.767547000000000
Fish eagle and galliwasp,419717,SA1 8DN,51.625990536019600,-3.933231290500970
gaboon viper and boa,398058,SA9 1SS,51.791428343600100,-3.738872543984210
sand viper and Tahr,413091,SA18 3RQ,51.783005787774000,-4.043759738922210
Flameback and American sparrow,413330,SA18 3BE,51.794505325764600,-3.991478354036150
loggerhead and Treepie,398617,SA8 4QE,51.732864000000000,-3.833549000000000
B and cobra,411717,SA2 9JD,51.627531885240700,-3.999037308375300
bearded lizard and anaconda,403748,SA6 5RU,51.714907015382500,-3.921735052838840
cobra and king cobra,400358,SA7 9TD,51.655852940996800,-3.879607631875540
crocodile and Bronzewing pigeon,407278,SA4 8LS,51.714370188399700,-4.034235473033680
Kestrel and River dolphin,404439,SA5 7JQ,51.673857332688300,-3.958179158623450
Hawk and bandy-bandy,407753,SA4 4LS,51.677976024054000,-4.041065379799130
Tahr and Booted eagles,413601,SA18 2PB,51.786638000000000,-3.966381000000000
gavial and Fox,419419,SA10 7AE,51.668286750245700,-3.808785337461030
rock snake and blindworm,398409,SA9 1JT,51.778939712581500,-3.756324271107800
Dolphin and Chickadee,397849,SA9 2HS,51.765944750152900,-3.785065097441910
Old World quail and Snipe,419697,SA1 8BB,51.625707446514500,-3.933493761516170
gavial and Civet,403862,SA6 6DB,51.670419144293900,-3.951884445582880
bicycle lizard and Kite,398235,SA9 1AE,51.766710538560900,-3.775472278413460
Komodo dragon and racer,398063,SA9 1SY,51.795962063137500,-3.734493419382760
Kite and Cuscus,413654,SA18 1EX,51.803219000000000,-3.930116000000000
cycling lizard and amphisbaena,1473282,CF34 0RU,51.627626015514600,-3.660793938501650
Gila monster and Mole,419055,SA10 7DJ,51.690350802300400,-3.830441325675580
Tahr and thorn lizard,403694,SA6 7AA,51.666951089941100,-3.926660043988750
Kestrel and Snipe,397740,SA9 2EN,51.761800187464600,-3.783829243875730
constrictor and Vole,419134,SA10 6EN,51.641464148527800,-3.863607000000000
Peafowl and habu,404865,SA5 4LH,51.648866069587700,-3.995104572441580
monitor and cayman,413494,SA18 2EN,51.802036657734800,-3.990664498418630
Masked owl and taipan,418351,SA11 2PA,51.636915225785300,-3.818519387925040
Asiatic leopard and Partridge,404170,SA5 8LA,51.635633845482000,-3.961748643419910
skink and Diving bird,413632,SA18 1DP,51.809609517665300,-3.834168003937070
Philippine hawk-owl and alligator,413748,SA18 1PN,51.787375061243200,-3.874443647054550
American sparrow and Triller,404026,SA6 5BD,51.690584000000000,-3.902952000000000
Towhee and Thrasher,419532,SA1 7DX,51.649141967160200,-3.905985309839610
diamondback and king cobra,407299,SA4 8NW,51.714698640265600,-4.028763671156150
bandy-bandy and Argus,416355,SA13 3HB,51.648098679615400,-3.683686456748630
puff adder and Kite,420220,SA1 6LN,51.629710569452700,-3.974988520532560
Piping shrike and Parakeet,403757,SA6 5SS,51.693409046952800,-3.906123168724560
Linsang and Komodo dragon,404085,SA6 5HL,51.699265698532700,-3.892057353421870
amphisbaena and viper,407523,SA4 9DD,51.670245087288700,-4.013311901290230
Badger and Darwin's finches,413780,SA18 1SP,51.806383654795000,-3.874492559773310
Gila monster and iguana,404336,SA5 7BH,51.648381000000000,-3.965238887400470
rat snake and Masked owl,398113,SA9 1XU,51.805322000000000,-3.714996000000000
black snake and blue tongue,398494,SA8 4JR,51.724311421376800,-3.852995973268330
king cobra and chameleon,1808468,SA8 3BE,51.723925000000000,-3.835851000000000
chuckwalla and taipan,404282,SA5 9BS,51.654494358515500,-3.946419000000000
Night heron and Meadowlark,403651,SA6 6RR,51.678045483828500,-3.916904671178370
horned toad and Guillemot,413712,SA18 1NE,51.802457439364700,-3.900045589919150
python and Grackle,420403,SA1 5BP,51.626286167840100,-3.941710000000000
massasauga and snake,404608,SA5 8DE,51.641308162463800,-3.969798144648920
Coati and cobra de capello,420824,SA1 2HG,51.631603745123900,-3.938021666026360
Petrel and Argus,403494,SA6 8EB,51.666903683278500,-3.922247000000000
Rat and asp,419879,SA1 6TA,51.630264086104500,-3.954277793253540
deaf adder and sand lizard,404707,SA5 5PP,51.657390162679800,-3.979213792373140
Dorcopsis and harlequin snake,403327,SA6 7JG,51.669198165537700,-3.942547544593440
sand lizard and glass snake,404873,SA5 4NH,51.644777156420100,-4.011807300022260
Mockingbird and dukite,407472,SA4 6AW,51.661016554545300,-4.046722843774650
flying dragon and Mouse,400365,SA7 9TP,51.656965002976200,-3.882039170467860
saltwater crocodile and Perching duck,413615,SA18 2PU,51.781441215582400,-3.986451000000000
Komodo dragon and moloch,398187,SA9 2AL,51.765917958528500,-3.790962400777680
garter snake and Vole,400456,SA7 9AP,51.660532385657200,-3.898395348617570
snapping turtle and Armadillo,404620,SA5 8DY,51.639656090151500,-3.963743272270740
smooth snake and Jackal,404092,SA6 5HW,51.704202897524000,-3.897603833844190
garter snake and tortoise,418183,SA11 3NS,51.656056118385600,-3.793624120888990
Tattler and Old World vulture,407735,SA4 4JN,51.677792819601900,-4.047830000000000
boa and adder,418256,SA11 2EU,51.641860784960300,-3.815046310387620
black snake and Asiatic leopard,413600,SA18 2PA,51.788074811173600,-3.969126368148940
racer and agamid,407801,SA4 4UP,51.667753678960200,-4.043657000000000
flying dragon and terrapin,400439,SA7 0NE,51.669367074408700,-3.897578941693800
Night heron and Mamo,404332,SA5 7BB,51.644857125516300,-3.962464855232760
Dorcopsis and Coati,416399,SA13 3PQ,51.646284599849400,-3.637757128237610
Goose and Diving bird,403769,SA6 5TJ,51.722093877625400,-3.910587373776140
agamid and Polecat,404301,SA5 9DY,51.645681653501000,-3.944259265940060
gecko and Nukupuʻu,413368,SA18 3EN,51.791200157421900,-3.986460443515820
Logrunners and Mole,418191,SA11 3PB,51.653567166952900,-3.791733239016360
Towhee and New World blackbird,405024,SA5 4SD,51.641501969108100,-4.019250108450380
indigo snake and blindworm,419651,SA1 7HX,51.644653919437700,-3.904929801621020
Stilt and Triller,419305,SA10 6PD,51.664862655224300,-3.837612427887580
Crow and smooth snake,397925,SA9 1LS,51.787705062184100,-3.758854203374290
terrapin and Parrotbill,419871,SA1 6SR,51.626981716688000,-3.955364793989300
Mockingbird and Viscacha,413065,SA18 3QF,51.778189532459400,-4.019100592399270
Logrunners and sea snake,404582,SA5 5BU,51.636250356593100,-3.981790221915880
Chickadee and worm lizard,418049,SA11 3BY,51.663927746237200,-3.799863543705090
python and Scimitar babbler,408035,SA4 0US,51.716013202538500,-4.049900757569790
gavial and Mouse,404292,SA5 9DG,51.652972999493700,-3.942720931593260
fer-de-lance and mountain devil,2664267,SA4 5DH,51.666349000000000,-4.016962000000000
Stilt and Mouse,420823,SA1 2HF,51.631268000000000,-3.938296000000000
gecko and Fulmarine petrel,419241,SA10 6HP,51.659481569497900,-3.849595000000000
Ground sloth and Snipe,411796,SA2 7UJ,51.625134214578200,-4.040642685353240
fer-de-lance and frilled lizard,417019,SA12 9TW,51.637064680532600,-3.747107830440350
Duck and Partridge,403783,SA6 7DB,51.659266980265100,-3.926941261011330
Towhee and leguaan,404274,SA5 9BE,51.656220400833800,-3.956189705731430
sea snake and terrapin,397841,SA9 2GW,51.801234372575500,-3.822254033432250
black snake and boa constrictor,419901,SA1 6UN,51.629456677061700,-3.950919802797790
New World blackbird and Quetzal,398141,SA8 4SJ,51.730983968212200,-3.862073526794140
moloch and Jay,407133,SA4 9WE,51.669213349822400,-4.014220620035250
Ice seal and Fox,397541,SA9 2YS,51.797238000000000,-3.810969000000000
Vulture and diamondback terrapin,413413,SA18 3LD,51.781934000000000,-4.026821000000000
Gila monster and Thrasher,419174,SA10 7PU,51.668872256993700,-3.818034990265760
Komodo dragon and viper,400915,SA7 0AQ,51.673962000000000,-3.900996000000000
smooth snake and gavial,419653,SA1 7HZ,51.643690405106200,-3.907780101035300
loggerhead and wall lizard,416002,SA14 7PZ,51.794828576421200,-4.044918013795250
Perching duck and Cloud rat,408014,SA4 4AL,51.663814581791800,-4.040963693967680
Rat and B,404514,SA5 8BJ,51.636792282660600,-3.955916934275580
king snake and Eagle,397743,SA9 2ES,51.762017818395000,-3.784301537240290
habu and water snake,397960,SA9 1QL,51.781145048649800,-3.751350446483120
cerastes and blue tongue,398457,SA8 4EB,51.719883679280700,-3.851511908871960
milk snake and slowworm,419895,SA1 6UB,51.627467175335300,-3.953753003553720
flying lizard and moloch,419995,SA1 7AW,51.639708454087900,-3.919810602835210
tree snake and sand viper,400618,SA7 9HX,51.691395440410000,-3.875365009929490
Scimitar babbler and Hawaiian honeycreeper,404804,SA5 4AX,51.645653214449700,-3.987302714422410
American sparrow and Badger,397756,SA9 2FN,51.796371793024200,-3.820375692314790
sea snake and Pratincole,400431,SA7 0HJ,51.674753127199900,-3.887000008031720
smooth snake and Old World vulture,416413,SA13 3RS,51.642965310179400,-3.642349095348930
Puffleg and Pitohui,1808094,SA11 1TG,51.654344433800000,-3.800192687500000
Treepie and indigo snake,413569,SA18 2LN,51.793397955780700,-3.988369738049400
bull snake and Masked owl,419053,SA10 7DG,51.662967574523200,-3.825360853018050
Rabbit and copperhead,1808484,SA9 2DP,51.749147279500000,-3.799715830500000
amphisbaena and skink,417740,SA11 5PD,51.734628644983900,-3.641804209049630
Rabbit and Komodo dragon,397971,SA9 2RJ,51.783583915427300,-3.816381208437770
Dolphin and cobra,418659,SA10 9BH,51.769735000000000,-3.705544000000000
adder and amphisbaena,404449,SA5 7LD,51.672418899540500,-3.979073625119700
frilled lizard and Dolphin,413373,SA18 3EX,51.788545378617800,-3.990302245985110
Skunk and gecko,418702,SA10 9GA,51.767697000000000,-3.711525000000000
puff adder and monitor,398621,SA8 4QN,51.741782847280500,-3.820236903159460
Booted eagles and crocodile,404276,SA5 9BH,51.656723935603300,-3.955112608283550
Perching duck and Tree warbler,403351,SA6 7LW,51.664084477051800,-3.947794642971640
boa and American sparrow,418667,SA10 9BW,51.773246896005500,-3.701995112740220
monitor and constrictor,412173,SA2 0GL,51.629672730341500,-4.000056201936470
leguaan and Tit-tyrant,404298,SA5 9DT,51.652904887846800,-3.941402478542520
elapid and Eagle,403848,SA6 6BG,51.670692063015600,-3.956017900176280
Tattler and bushmaster,418577,SA11 1UT,51.653339950693100,-3.798359736852740
Parrotbill and snapping turtle,404273,SA5 9BD,51.657911176673200,-3.952937174785670
Philippine hawk-owl and galliwasp,419268,SA10 6LB,51.659273863534400,-3.848215544238740
White ibis and whip snake,398043,SA9 1RT,51.790458000000000,-3.742575412285170
box turtle and Triller,398338,SA8 3HJ,51.717524133437800,-3.825313661829170
anole and bull snake,397967,SA9 2RD,51.781725501633300,-3.810362611388340
carpet snake and deaf adder,407715,SA4 4HH,51.674897660261700,-4.045367282806870
Puffleg and Petrel,418023,SA11 4NW,51.710306515265100,-3.686777651109150
Dorcopsis and Prion,413243,SA18 2SG,51.774954424473800,-3.978267005333250
Minke whale and Tattler,418635,SA10 8SY,51.728914148840600,-3.751690650173520
