name,postcode,lat,lon
Malmaison Oxford,OX1 1AY,51.751356550665200,-1.262061066433740
Fernandos Cafe,OX1 1EP,51.751511000000000,-1.259190000000000
Ruchi's dosapark ltd,OX1 1HU,51.752509195846800,-1.268097697275430
The Jam Factory,OX1 1HU,51.752509195846800,-1.268097697275430
PARK CENTRAL LTD TRADING AS SUSHIMANIA,OX1 1JD,51.752620611584700,-1.265778031422920
The Castle Oxford Ltd,OX1 1LD,51.750668020655400,-1.262940000000000
ART CAFE,OX1 1LQ,51.751894039091200,-1.260313938211140
The Cow and Creek,OX1 1LT,51.751942543122600,-1.260878117585760
Sticks 'n' Sushi Oxford,OX1 1NZ,51.751067000000000,-1.260212000000000
Benito's,OX1 1PB,51.749337000000000,-1.262930000000000
KuPP,OX1 1PB,51.749337000000000,-1.262930000000000
Neds Noodle Bar ,OX1 1PB,51.749337000000000,-1.262930000000000
Ole & Steen Oxford,OX1 1PB,51.749337000000000,-1.262930000000000
Shoryu Ramen Ltd,OX1 1PB,51.749337000000000,-1.262930000000000
Tommi's Burger Joint Ltd,OX1 1PB,51.749337000000000,-1.262930000000000
Comptoir Oxford City,OX1 1PE,51.752312000000000,-1.263653000000000
Dirty Bones,OX1 1PG,51.749194000000000,-1.258214000000000
Mowgli Street Food - Oxford,OX1 1PG,51.749194000000000,-1.258214000000000
Pizza Pilgrims Oxford,OX1 1PG,51.749194000000000,-1.258214000000000
The Breakfast Club Oxford,OX1 1PG,51.749194000000000,-1.258214000000000
Victors Oxford,OX1 1PG,51.749194000000000,-1.258214000000000
ROYAL BLENHEIM,OX1 1PT,51.750099858452000,-1.259532027701480
Cafe Loco ,OX1 1RA,51.749049065765700,-1.256869381874150
Cinnamon Kitchen Oxford,OX1 1TR,51.747764925786300,-1.259975775697760
The Alchemist Oxford,OX1 1TR,51.747764925786300,-1.259975775697760
CHOZEN NOODLE OXFORD,OX1 2AE,51.753918684512600,-1.260570615272000
Thaikhun,OX1 2BJ,51.753840776668800,-1.261049959963800
Banana Tree,OX1 2BQ,51.753421695671700,-1.263041505153810
Glut,OX1 2BQ,51.753421695671700,-1.263041505153810
Gino's spaghetti house,OX1 2BU,51.754108954913800,-1.262233530081120
SHIN RAMEN ,OX1 2BU,51.754108954913800,-1.262233530081120
Organic Deli Cafe,OX1 2BY,51.754494000000000,-1.260373000000000
The White Rabbit,OX1 2BY,51.754494000000000,-1.260373000000000
Thirsty Meeples,OX1 2DF,51.754384654754100,-1.261750960662610
bbuona pizza bar,OX1 2DF,51.754384654754100,-1.261750960662610
Three Goats Heads,OX1 2DR,51.753353261470700,-1.259072000000000
Mission Burrito - Oxford,OX1 2DU,51.753533067921600,-1.259302058415760
Society Cafe ,OX1 2DU,51.753533067921600,-1.259302058415760
The Nosebag ,OX1 2DU,51.753533067921600,-1.259302058415760
Chutneys Indian Cuisine,OX1 2EB,51.753305520252300,-1.260290887686530
Bangkok House,OX1 2EP,51.753423464266100,-1.266199624552610
Paddyfields Restaurant,OX1 2EP,51.753423464266100,-1.266199624552610
Common Ground Cafe & Workspace,OX1 2HF,51.758112102904100,-1.262559502707220
Lussmanns Oxford,OX1 2HP,51.758673311549200,-1.261724513560020
Pierre Victoire Oxford,OX1 2HP,51.758673311549200,-1.261724513560020
The Oxford Wine Cafe (Jericho) Limited,OX1 2HU,51.758204458503300,-1.262949186915920
The Randolph Hotel,OX1 2LN,51.755010126199400,-1.259698037948980
Triple Two coffee,OX1 3AS,51.754059237192100,-1.257192820294480
The White Horse,OX1 3BB,51.754617000000000,-1.255691000000000
COLOMBIA COFFEE ROASTERS,OX1 3DU,51.752762709359100,-1.257055000000000
Donburi inn,OX1 3DX,51.752700000000000,-1.256841418571350
Pieminister Oxford,OX1 3DX,51.752700000000000,-1.256841418571350
BROWNS CAFE,OX1 3DY,51.752616208793900,-1.256665000000000
Starbucks ,OX1 3EX,51.752345287856800,-1.257727958399620
Wasabi Sushi & Bento,OX1 3EX,51.752345287856800,-1.257727958399620
itsu Oxford Cornmarket Street,OX1 3EZ,51.753719948064400,-1.258994774914870
The Plough at 38,OX1 3HA,51.753160356756600,-1.258656245713050
MCDONALD'S,OX1 3HB,51.752448385798700,-1.258392652997740
Swoon Gelato,OX1 4AH,51.752463746063000,-1.255132912657250
The Vaults & Garden Cafe,OX1 4AH,51.752463746063000,-1.255132912657250
THE GRAND CAFE,OX1 4BG,51.752452641115300,-1.250555324446150
Quod Restaurant,OX1 4BJ,51.752434005422000,-1.253279115715160
Bubbleology,OX1 4DF,51.752075049115600,-1.256225791660710
Chiang Mai Kitchen,OX1 4DH,51.752022939359500,-1.256516376853340
Paul UK Ltd - Oxford,OX1 4DN,51.751899547156300,-1.257024000000000
The Folly Restaurant,OX1 4JU,51.746115930388100,-1.256555379632400
Al Taif Restaurant ,OX1 5RS,51.709504732346000,-1.245475894244140
The FDL Pub Ltd,OX10 7HH,51.643669461485900,-1.165637850606670
White Hart ,OX10 7HN,51.645267307994200,-1.166533489130740
H Cafe,OX10 7LY,51.658325776661400,-1.175864323858400
The Wandering Kitchen at Wet n Wild,OX10 7PQ,51.655292000000000,-1.163656314159830
The Blue Boar,OX13 5ET,51.692671937579900,-1.437926997858610
Frosts Garden Centre - Millets Farm,OX13 5HB,51.672503000000000,-1.381923000000000
Rose Cottage Cafe,OX13 5HB,51.672503000000000,-1.381923000000000
The Farmhouse Kitchen Restaurant,OX13 5HB,51.672503000000000,-1.381923000000000
White Hart at Fyfield Ltd,OX13 5LW,51.686006500087500,-1.388711801876200
The Flowing Well,OX13 6RB,51.700935000000000,-1.285411000000000
MCDONALD'S,OX14 1AU,51.670996000000000,-1.300719000000000
The Barns Cafe Limited,OX14 1PL,51.681771919393000,-1.276529000000000
the spread eagle,OX14 1PL,51.681771919393000,-1.276529000000000
Hilton Garden Inn Abingdon Oxford,OX14 1TZ,51.668250472433200,-1.304925547517680
The Chequers at Burcot,OX14 3DP,51.659282353273200,-1.185388558892570
R&R,OX14 3HA,51.670662973054500,-1.281477121595650
COSTA COFFEE ABINGDON THAMESIDE,OX14 3HE,51.669035761500000,-1.280967990600000
PARASOL  RESTAURANT ,OX14 3HG,51.669846075620600,-1.281389000000000
Throwing Buns,OX14 3HG,51.669846075620600,-1.281389000000000
The Crown & Thistle,OX14 3HS,51.669595193012000,-1.280366117876840
Annie's at the Boathouse,OX14 3HX,51.668298000000000,-1.279779000000000
The Nags Head,OX14 3HX,51.668298000000000,-1.279779000000000
Tiffins tandoori,OX14 3QH,51.670964528398300,-1.283742663536040
COSTA COFFEE ABINGDON,OX14 3QY,51.670406755574100,-1.282218654662170
Oracle Pool and Snooker Limited,OX14 3RG,51.670489956650800,-1.285543239129720
Drayton Park Golf Club,OX14 4LA,51.638614900100100,-1.314106504078760
Mezzehhouse Lebanese Restautant ,OX14 5AR,51.670515884734000,-1.283894341409220
Chaba Thai Restaurant,OX14 5AX,51.669916162745000,-1.282862656781910
The Grapes,OX14 5AX,51.669916162745000,-1.282862656781910
Hugomango's Thai,OX14 5BZ,51.669813354673500,-1.286652855836000
Prince of India,OX14 5BZ,51.669813354673500,-1.286652855836000
The Brewery Tap,OX14 5BZ,51.669813354673500,-1.286652855836000
The Kings Head & Bell,OX14 5EA,51.669450758933600,-1.281742115389100
Bampton Garden Plants Cafe,OX18 2AA,51.723874811649500,-1.537752408324610
Aston Pottery Limited,OX18 2BT,51.724037000000000,-1.512922000000000
The Chequers,OX18 3PR,51.765116299624300,-1.565819858596250
THE ONE,OX2 0AB,51.752683799035200,-1.271484000000000
The Porterhouse grill & rooms,OX2 0AL,51.751359076096800,-1.271114935432890
Holly Bush,OX2 0BD,51.751150361063800,-1.273711321015280
The Punter Pub,OX2 0BE,51.750106316568000,-1.273539744376260
CURRYDOR LIMITED,OX2 0BN,51.752228457966600,-1.276489934474900
spring greens cafe,OX2 0ES,51.748165204557300,-1.273701239122040
MCDONALD'S,OX2 0JR,51.752943734000500,-1.293572873637770
The Perch,OX2 0NG,51.765147518797300,-1.289542452670640
Opera Cafe,OX2 6AA,51.758065786287200,-1.263777282950870
Brasserie Blanc Oxford,OX2 6AG,51.760849159384300,-1.267470267365540
Jamal’s Saffron,OX2 6AJ,51.760592102343700,-1.266619562369500
Mortons Ltd,OX2 6AJ,51.760592102343700,-1.266619562369500
THE JERICHO CAFE ,OX2 6AJ,51.760592102343700,-1.266619562369500
The Standard Tandoori,OX2 6AJ,51.760592102343700,-1.266619562369500
The Rickety Press,OX2 6DE,51.760184957957600,-1.267654881049340
Yangtze Limited,OX2 6EA,51.761401538731200,-1.268098867909930
Mamma Mia Jericho,OX2 6EB,51.761199962651400,-1.267493571096800
THE VICTORIA,OX2 6EB,51.761199962651400,-1.267493571096800
Will's Deli ,OX2 6HA,51.759148069935800,-1.261197000000000
Fusion House,OX2 6HT,51.760199300045600,-1.261322918116740
CONCEPT CUISINE ENTERPRISES LIMITED,OX2 6LX,51.764655000000000,-1.261832367101390
Jee Saheb,OX2 6LX,51.764655000000000,-1.261832367101390
Rose & Crown,OX2 6LX,51.764655000000000,-1.261832367101390
Gee's Restaurant & Bar,OX2 6PE,51.764207796258800,-1.261069146424640
Cherwell Boathouse limited,OX2 6ST,51.769649161871800,-1.254212506819630
The Anchor,OX2 6TT,51.768268454938900,-1.269161676385980
BARAKAH OXFORD LIMITED,OX2 7AR,51.775891746121200,-1.264632367815570
Spice Lounge,OX2 7AR,51.775891746121200,-1.264632367815570
Xian Restaurant ,OX2 7AR,51.775891746121200,-1.264632367815570
Joe's Restaurants Ltd,OX2 7DX,51.777734394554700,-1.264544446718850
Two One Five,OX2 7HQ,51.776765979446700,-1.264966027697650
COLOMBIA COFFEE ROASTERS,OX2 7HT,51.778903000000000,-1.265801000000000
NEW DANCING DRAGON BAR & RESTAURANT,OX2 7JF,51.780047044968600,-1.266289799119130
Mamma Mia,OX2 7JL,51.778460280915800,-1.267040273225450
POMPETTE,OX2 7JL,51.778460280915800,-1.267040273225450
The Plough,OX2 8AH,51.784143199822500,-1.281691406086460
North Oxford Golf Club,OX2 8EZ,51.795195105618300,-1.273192718937120
JACOBS INN,OX2 8PG,51.782958457219000,-1.293916149703510
White Hart of Wytham,OX2 8QA,51.774145000000000,-1.311530127803280
The Seacourt Bridge,OX2 9JU,51.751160420069800,-1.300583018899870
BEAR AND RAGGED STAFF,OX2 9QH,51.732794889886000,-1.338486207251550
The Vine Inn,OX2 9QN,51.733564065696000,-1.331408489845310
Searcys at Blenheim Palace,OX20 1PP,51.847435664354800,-1.358612186856690
WOODSTOCK ARMS,OX20 1SX,51.847506291076300,-1.355083542839060
The Blenheim Buttery,OX20 1SY,51.847231962230300,-1.355885894237890
The Star Inn,OX20 1TA,51.847717521176300,-1.355893483243220
The Crown Inn,OX20 1TE,51.847234113500900,-1.354637405596970
The Punchbowl Inn,OX20 1TR,51.846892783118400,-1.353059949134110
Daba Indian Cuisine,OX20 1TT,51.848266969714800,-1.354433914961480
The Old Court Hotel,OX28 1DA,51.790300884321000,-1.481559022315090
The Three Pigeons,OX28 1DG,51.792566362695500,-1.479459657146430
Cambodian cuisine LTD,OX28 3JH,51.787047732565200,-1.473825611310250
The griffin,OX28 3JH,51.787047732565200,-1.473825611310250
The Cogges Kitchen,OX28 3LA,51.784422000000000,-1.477466000000000
THE FLEECE,OX28 4AZ,51.782437364425300,-1.484446854279320
Oxford Witney Hotel,OX28 4EX,51.773847299314100,-1.489689000000000
MCDONALD'S,OX28 4JF,51.778934000000000,-1.493213000000000
Ue Coffee Roasters at The Old Smithy,OX28 6AG,51.784580760892800,-1.485248749568840
The Angel,OX28 6AL,51.783458829927300,-1.485696403482160
The Blue Boar,OX28 6BH,51.784196571420800,-1.485803991850140
The-COTSWOLD LTD trading as Shaan Restaurant ,OX28 6BL,51.783840869808500,-1.486706817718310
The Three Horseshoes Witney,OX28 6BS,51.783821601102500,-1.488475610537990
Hollybush Witney,OX28 6BT,51.783570177503400,-1.488550934704220
Red Lion Smokehouse,OX28 6DB,51.783598690988200,-1.486840032665720
The Windrush inn,OX28 6DJ,51.790752280705000,-1.496473044186630
Coffeesmith,OX28 6FG,51.784332233388200,-1.483932379185820
No12,OX28 6FG,51.784332233388200,-1.483932379185820
IL GUSTO WITNEY,OX28 6HJ,51.787343086482800,-1.483666076768400
Curry Paradise,OX28 6HP,51.786952455103500,-1.484801340664830
Delice,OX28 6HP,51.786952455103500,-1.484801340664830
Huffkins 35 High St Witney,OX28 6HP,51.786952455103500,-1.484801340664830
Eden Café,OX28 6ZJ,51.786349000000000,-1.484170000000000
The White Hart,OX29 0RA,51.796365750810300,-1.543493732909690
THE HORSE AND RADISH,OX29 0RZ,51.796958134128800,-1.550230576769830
Witney Lakes Resort Limited,OX29 0SY,51.791346000000000,-1.522144000000000
The Talbot Inn,OX29 4BT,51.775576000000000,-1.361124000000000
The Chequers Inn,OX29 4DG,51.792793849662400,-1.343423378318960
Lyall & Co Cafe,OX29 4HA,51.780526394729700,-1.374114478947360
The Queens Head Eynsham,OX29 4HH,51.781626451428900,-1.371330551794800
Bayleaf Oxford Limited,OX29 4HT,51.780314631048600,-1.374871171333210
The Swan Hotel,OX29 4PE,51.780536560094400,-1.376027747438980
The Evenlode,OX29 4PS,51.786386859377200,-1.385718310837900
Worton Kitchen Garden,OX29 4SU,51.799281000000000,-1.329654000000000
The Red Lion at Northmoor Ltd,OX29 5SX,51.723742000000000,-1.391707000000000
Artist Residence Oxford,OX29 6XN,51.772897798398500,-1.431757407561610
Ue Coffee Roasters Roastery & Cafe,OX29 7HA,51.791102656200000,-1.519159998100000
MR RICHARD HARRY TURNER T/A THE MAYBUSH,OX29 7QD,51.710137776583800,-1.416768250432560
the black horse,OX29 7RH,51.724182810663600,-1.427894524951710
The Bell Inn ,OX29 7UP,51.766089908645700,-1.482039142111570
The Bell Inn,OX29 7UP,51.766089908645700,-1.482039142111570
THJ limited T/A the Oxfordshire Yeoman,OX29 8AQ,51.810809000000000,-1.399935000000000
The George & Dragon,OX29 8JX,51.825202533446000,-1.385916202098640
The Churchill Court Hotel,OX29 8LA,51.825455847009800,-1.372027000000000
The Lamb Inn Crawley ,OX29 9TW,51.806291000000000,-1.507337000000000
Witney Rugby Football Club Limited,OX29 9UH,51.804924260751800,-1.486540040406240
The Bird in Hand,OX29 9XP,51.824778126235900,-1.501549597801110
The Up In Arms,OX3 0EN,51.759785857766500,-1.236017437605950
Mediterranean Fish Bar,OX3 0LY,51.767775611009200,-1.231346756172370
Oxford City Football Club,OX3 0NQ,51.770582257435700,-1.230183178877830
The Red Lion,OX3 0PH,51.771897049708700,-1.236015931554880
Il botanico ,OX3 7BW,51.759354477534000,-1.210191098409520
COSTA COFFEE,OX3 7LJ,51.750330527862500,-1.214708728260530
subway,OX3 7RD,51.759550434595600,-1.213940310874380
MCDONALD'S,OX3 8DJ,51.762409906655600,-1.193895000000000
The Six Bells,OX3 8JN,51.759462477319100,-1.196931872110480
Rios Piri Piri,OX3 9AA,51.759849221346200,-1.212906404101320
Starbucks,OX3 9AA,51.759849221346200,-1.212906404101320
M&S SIMPLY FOOD,OX3 9DU,51.763869339830500,-1.219806351612970
Acropolis Greek Taverna,OX3 9ED,51.760427265919900,-1.209420000000000
The Black Boy Oxford Ltd,OX3 9HT,51.763242916495600,-1.210818794162670
THE TALKHOUSE (DUVAL INNS) LTD,OX33 1EX,51.777260000000000,-1.162539000000000
madras spice,OX33 1RP,51.738365597093300,-1.173106095307030
THE QUEENS HEAD ,OX33 1RU,51.739598674738500,-1.173286350004910
The Coconut Tree,OX4 1AH,51.750825983629200,-1.239471397422870
MOYA,OX4 1AR,51.750071893842900,-1.242439174406270
Shiraz,OX4 1HP,51.749607290661200,-1.242724000000000
TICK TOCK CAFE,OX4 1HP,51.749607290661200,-1.242724000000000
BIG SOCIETY,OX4 1HR,51.749035040926000,-1.240732000000000
Costa Coffee,OX4 1HU,51.748189659027000,-1.237199000000000
Oxford greek taverna,OX4 1JB,51.748721222578600,-1.240737995503900
RICK'S Diner,OX4 1JB,51.748721222578600,-1.240737995503900
Atomic Burger ,OX4 1JE,51.748250637664800,-1.239064000000000
Temple Lounge Oxford,OX4 1JS,51.748266550853300,-1.241339512686820
Oxford Blue,OX4 1JU,51.747392068126000,-1.239586986385050
The Rusty Bicycle,OX4 1RB,51.742329609051800,-1.235370381100390
Bannister’s Cafe,OX4 1SJ,51.740934276009300,-1.236494630507690
the magdalen arms,OX4 1SJ,51.740934276009300,-1.236494630507690
Café Orient,OX4 1UE,51.747066359546900,-1.235291000000000
Le Kesh,OX4 1UE,51.747066359546900,-1.235291000000000
The Library Pub,OX4 1UE,51.747066359546900,-1.235291000000000
Pepe's piri piri,OX4 1UH,51.746033185923100,-1.232483383168740
Happy Friday Kitchen ,OX4 1UR,51.745129326322300,-1.230383988824410
Red star noodle bar,OX4 1UT,51.747416697878800,-1.235067247523190
subway,OX4 1UT,51.747416697878800,-1.235067247523190
Yeti Nepalese Restaurant,OX4 1XG,51.745707262959200,-1.230765252098570
The Prince Of Wales,OX4 2QW,51.738539936471400,-1.202241138263220
Everest Nepalese ,OX4 3AZ,51.740979607593400,-1.231033790179100
Costa Coffee,OX4 3JP,51.733420000000000,-1.217507000000000
Boswells Cafe,OX4 3UZ,51.731712873478200,-1.216176000000000
The Rowing Club Bar & Café,OX4 4BL,51.735538636712700,-1.239134224726050
Prince of Wales ,OX4 4EF,51.730317667972800,-1.236818255645470
AZIZ AT THE TREE LTD,OX4 4EY,51.730513108555200,-1.232311804862070
Tree Hotel Bar,OX4 4EY,51.730513108555200,-1.232311804862070
Cafe Spice,OX4 4HX,51.727505230888600,-1.224732487168090
Polish Kitchen,OX4 4HX,51.727505230888600,-1.224732487168090
OXY ORIENTAL LTD,OX4 4XP,51.717066000000000,-1.210957000000000
Partyman World Oxford,OX4 4XP,51.717066000000000,-1.210957000000000
The Ridge Bar and Grill,OX4 4XP,51.717066000000000,-1.210957000000000
BLUE ELEPHANT OXFORD LIMITED,OX4 4YP,51.710779000000000,-1.225583000000000
The Blue Elephant Restaurant,OX4 4YP,51.710779000000000,-1.225583000000000
BMW MINI Plant,OX4 6NL,51.734944998683800,-1.195874827301510
The Mole Inn,OX44 9NG,51.702476496411000,-1.180141879228130
Notcutts Oxford,OX44 9PY,51.674674032865500,-1.194281341740090
The Highwayman Hotel (Kidlington) LTD,OX5 1BF,51.831363873897800,-1.300952587633230
Gurkha Village Restaurant & Bar ,OX5 1EA,51.816832000000000,-1.282421720997630
The Jolly Boatman,OX5 1JU,51.837130340778400,-1.306044731609090
The Boat Inn,OX5 1JY,51.839230000000000,-1.303632000000000
Annie's at Thrupp Limited,OX5 1JZ,51.840038000000000,-1.300281000000000
YARNTON HOME AND GARDEN,OX5 1PA,51.815098876688500,-1.309720000000000
The Red Lion,OX5 1QD,51.804601993726400,-1.311881000000000
Begbrook Science Park,OX5 1RN,51.822586671668400,-1.316076000000000
The Royal Sun,OX5 1RZ,51.821138333330200,-1.318898335853280
Tiffins Tandoori,OX5 2DN,51.823550069639800,-1.287158000000000
The Bell Inn,OX5 2QD,51.835313315007700,-1.269936000000000
Charlbury Garden Centre,OX7 3AS,51.836621414561400,-1.499924023964470
The Plough Inn,OX7 3BY,51.842659177759800,-1.478243732175570
The Horse and Jockey,SN7 8NN,51.634691000000000,-1.510816000000000
Mollie's Motel & Diner Buckland,SN7 8PY,51.679026414173100,-1.487819791155810
The Lamb at Buckland,SN7 8QN,51.677837186285500,-1.506171826557600
The Trout at Tadpole Bridge,SN7 8RF,51.701125634307600,-1.517263011474240
