name,postcode,lat,lon
box turtle and Vole,KW12 6XJ,58.480141755848000,-3.550637884199260
Zebra and caiman,KW14 7AH,58.592839510809000,-3.523243000000000
gaboon viper and Old World warbler,KW14 7AX,58.571160396234000,-3.548522622770440
Mamo and iguana,KW14 7DP,58.590814341127100,-3.529743757800060
Cloud rat and Cloud rat,KW14 7DR,58.587916000000000,-3.533230000000000
Condor and terrapin,KW14 7DZ,58.590414556697700,-3.539154206630550
chameleon and Diving bird,KW14 7HT,58.593479143438300,-3.528483664571490
Songlark and copperhead,KW14 7HY,58.594537136170000,-3.524864906658510
saltwater crocodile and Old World vulture,KW14 7HZ,58.595200467895000,-3.524222727510500
Moluccan boobook and New World blackbird,KW14 7LP,58.594638345238400,-3.532216384093690
Philippine hawk-owl and tokay,KW14 7PS,58.595279150562000,-3.540228275722390
Polecat and agamid,KW14 7QE,58.593833923857000,-3.536396641456340
Snipe and boa constrictor,KW14 7QX,58.582371000000000,-3.535688000000000
Ice seal and sand viper,KW14 7QY,58.552584246191400,-3.689641673129980
Booted eagles and Kākāriki,KW14 7RQ,58.556920568576600,-3.789956813496640
Prion and perentie,KW14 7XR,58.597284837802000,-3.530232827549740
New World blackbird and Snipe,KW14 7XW,58.596475072357500,-3.549828000000000
kabaragoya and Mamo,KW14 7XY,58.596152524321100,-3.660545508062130
dugite and Coati,KW14 8BS,58.596536264213500,-3.516847360299450
leathery turtle and Zebra,KW14 8DB,58.594357297534000,-3.516529330606050
garter snake and Grosbeak,KW14 8DF,58.592810000000000,-3.505984000000000
Wader and Tattler,KW14 8JX,58.592096674987700,-3.509637000000000
Dolphin and horned toad,KW14 8QH,58.584916613543300,-3.522622912442450
Fulmarine petrel and tuatara,KW14 8QL,58.586436000000000,-3.523152301690710
Bronzewing pigeon and massasauga,KW14 8QP,58.586817423685100,-3.521398124064760
