name,postcode,lat,lon
green turtle and Coati,EH46 7HJ,55.727972262446100,-3.434246836120110
Chickadee and moloch,ML11 7AY,55.679372001658100,-3.771006391575190
thorny devil and anole,ML11 7ER,55.673424304731400,-3.760909933711210
horned viper and Myna,ML11 7JB,55.680542730043500,-3.765222079657410
Duck and Darwin's finches,ML11 7WD,55.670328648927000,-3.762331000000000
Minke whale and Quetzal,ML11 8HF,55.699623345002400,-3.629916425080990
glass snake and king snake,ML11 8LR,55.707504280382700,-3.646765227486260
Maya and Moluccan boobook,ML11 8LZ,55.695357237156900,-3.569739287025460
Triller and loggerhead,ML11 8PU,55.695109072304400,-3.687994060147530
Kestrel and Diving bird,ML11 8SN,55.664575909018400,-3.668046072621140
flying dragon and Thicketbird,ML11 8SP,55.666194772772300,-3.649929000000000
Argus and Black cockatoo,ML11 8SY,55.697792103456800,-3.616171924876340
Prion and Ground sloth,ML11 9BT,55.666534157072300,-3.774448934846680
thorny devil and Pheasant,ML11 9BX,55.664328262753500,-3.772870507158970
deaf adder and Jay,ML11 9FH,55.667522032749600,-3.764524364113170
thorny devil and Piping shrike,ML11 9FL,55.668017943873500,-3.765659700419890
Vulture and Capuchin,ML11 9FP,55.668716685780100,-3.766438497998670
constrictor and soft-shelled turtle,ML12 6AB,55.623929618780400,-3.523716053307600
racer and leathery turtle,ML12 6BG,55.622689410298200,-3.525891283200680
Night heron and Snipe,ML12 6BH,55.624418000000000,-3.520622000000000
indigo snake and horned toad,ML12 6DP,55.625554518574800,-3.520952069522230
ringhals and Logrunners,ML12 6DU,55.625178000000000,-3.528155289528320
smooth snake and Goose,ML12 6DY,55.624741367907100,-3.529463000000000
Rabbit and habu,ML12 6ED,55.625542928267400,-3.523526000000000
water snake and king snake,ML12 6FW,55.612296178520400,-3.409174354197840
diamond snake and flying dragon,ML12 6HU,55.572609000000000,-3.686969000000000
Mockingbird and New World blackbird,ML12 6NG,55.620987615729600,-3.699702633415210
Black jay and blue racer,ML12 6QH,55.585667572709700,-3.401540382596820
Cuscus and Prion,ML12 6WQ,55.627599688800000,-3.528957454900000
tree snake and snapping turtle,ML8 4QS,55.703690007753900,-3.767889055282100
