name,postcode,lat,lon
Carrigans East Kilbride Ltd,G75 0QZ,55.7483,-4.1454
Di Maggio's Restaurant (EK),G75 0YA,55.7497,-4.1709
Pacinis Restaurant & Take Away,G75 8TT,55.7452,-4.2063
KANTIPUR,G75 9JL,55.7486,-4.1840
The Wishing Well Tearoom ,G76 0AU,55.7374,-4.2795
ian's kitchen ltd,G76 0JQ,55.7439,-4.2763
Eglinton Arms Hotel,G76 0LG,55.7403,-4.2735
Lamlash House,KA16 9AS,55.6067,-4.3265
The Crown Hotel ,KA16 9DJ,55.6080,-4.3216
Loudoun hill restaurant and pizzeria ,KA17 0LY,55.6091,-4.2227
HK Fenwick Ltd,KA3 6AU,55.6524,-4.4501
Laird's Table,KA3 6BS,55.6362,-4.4546
Kings Arms Fenwick ,KA3 6DX,55.6614,-4.4440
The Wee Train,KA4 8HP,55.5999,-4.3796
Aroma coffee shop,KA4 8HQ,55.6005,-4.3793
Aroma Coffee Shop at Cowans Law,KA4 8PP,55.6431,-4.3947
strathaven gift shop & tea room,ML10 6AF,55.6768,-4.0658
Tudor coffee house,ML10 6AH,55.6762,-4.0653
Amici,ML10 6AL,55.6759,-4.0656
Taal Fine Indian Cuisine ,ML10 6AN,55.6765,-4.0636
Alexander Taylor ,ML10 6AW,55.6772,-4.0647
The Waterside Bar & Restaurant,ML10 6AW,55.6772,-4.0647
The Old Smiddy,ML10 6LT,55.6776,-4.0666
13 Barn Street,ML10 6LU,55.6785,-4.0660
STRATHAVEN GOLF CLUB,ML10 6NL,55.6857,-4.0697
The Heron Farm Shop and Kitchen,ML10 6QP,55.6638,-4.1493
The Rissco Collection  t/a Strathaven Hotel,ML10 6SZ,55.6831,-4.0552
