name,postcode,lat,lon
Vole and cycling lizard,NE71 6XQ,55.566753004734700,-2.139447000000000
indigo snake and perentie,TD10 6UL,55.686461021759900,-2.369891101535540
death adder and dugite,TD10 6XN,55.708781628940100,-2.462260811976200
bandy-bandy and glass snake,TD10 6XR,55.729170320654500,-2.522449965425880
puff adder and Chipmunk,TD10 6YJ,55.714024204209900,-2.436570199817720
Guillemot and sand lizard,TD11 3NF,55.737603694307500,-2.220911504824630
Thrasher and Mockingbird,TD11 3RD,55.702143000000000,-2.347445000000000
Pitohui and alligator,TD12 4DR,55.655552792840300,-2.257017207221230
whip snake and caiman,TD12 4HB,55.684923713842700,-2.235484659411670
Warbler and Vulture,TD12 4HT,55.657570000000000,-2.259112000000000
caiman and Mockingbird,TD12 4LJ,55.649028374690000,-2.257404000000000
Parrotlet and Coati,TD12 4LP,55.659930799041400,-2.272638144796590
chameleon and Black jay,TD12 4QG,55.599538000000000,-2.163162000000000
agama and Marmoset,TD12 4QH,55.596246827742500,-2.183919818774250
Mamo and Egret,TD12 4QW,55.579654000000000,-2.257219000000000
bull snake and perentie,TD12 4TF,55.621568683278100,-2.142436455082080
moloch and ringhals,TD12 4UZ,55.686047521507000,-2.199657938628430
monitor and Pratincole,TD12 4XB,55.683674846152600,-2.163671417857610
king snake and pit viper,TD15 1SU,55.710808927818400,-2.183455737628690
galliwasp and Marmoset,TD15 2LE,55.719462115511400,-2.164060052491690
Flameback and leathery turtle,TD5 7AN,55.599363356595300,-2.426265412620840
Warbler and White ibis,TD5 7JL,55.600472435643100,-2.435386979210940
Piping shrike and coral snake,TD5 7LX,55.607419031329100,-2.432590945819640
Stint and blindworm,TD5 7ND,55.607820081452500,-2.436055728479250
diamond python and Goose,TD5 7NF,55.607668169646300,-2.438339779817060
harlequin snake and dugite,TD5 7NY,55.606702786347300,-2.482455411195860
Thicketbird and Magpie,TD5 7SQ,55.598349675877500,-2.428365047243610
saltwater crocodile and White ibis,TD5 7SW,55.606807210173700,-2.422520837734920
Jay and Kākāriki,TD5 7TQ,55.609557488869700,-2.424899765455480
blind snake and Piping shrike,TD5 7UE,55.607464146512400,-2.424829501688900
Crow and River dolphin,TD5 8DL,55.590661000000000,-2.430328000000000
Fish eagle and Recurvebill,TD5 8EB,55.538918000000000,-2.444340000000000
Capuchin and gecko,TD5 8ET,55.596175519146100,-2.423104731883680
Booted eagles and Minke whale,TD5 8LG,55.528142000000000,-2.461929000000000
Black jay and Marmoset,TD5 8LR,55.592525615458800,-2.448881152893530
ringhals and Meadowlark,TD5 8NN,55.571121560221900,-2.515321735499000
Lemming and puff adder,TD5 8PJ,55.546440030626500,-2.275496546199620
death adder and Stint,TD5 8SD,55.543156174379800,-2.289006968718770
crocodile and gecko,TD8 6TS,55.539515000000000,-2.512293000000000
