name,postcode,lat,lon
Marmoset and python,TD1 1DP,55.616135000000000,-2.807601000000000
Grackle and dugite,TD1 1SN,55.619161137596000,-2.811713000000000
American sparrow and amphisbaena,TD1 1SU,55.617834648940200,-2.810001935942320
Chipmunk and king cobra,TD1 1SW,55.618254185951000,-2.810423413159950
Fox and Condor,TD1 2AL,55.612368922011800,-2.795283792631940
Piping shrike and Old World warbler,TD1 2JL,55.622585717892900,-2.808988365404410
Parrotbill and Petrel,TD1 2LE,55.613026135418200,-2.782517143857170
anole and Fox,TD1 2LP,55.612313000000000,-2.773200000000000
soft-shelled turtle and hognose snake,TD1 2UB,55.612534372066100,-2.796096794338780
Skunk and Crow,TD1 3BN,55.612361063614700,-2.800633664874200
terrapin and tuatara,TD1 3BY,55.603759814050700,-2.784268983045610
kabaragoya and Chipmunk,TD1 3EN,55.609500925801500,-2.789971340225090
whip snake and chameleon,TD1 3JP,55.612168900717900,-2.806646522711180
Zebra and Chipmunk,TD1 3JW,55.611962352950200,-2.805261129051940
Komodo dragon and Bunting,TD1 3RG,55.607056147002800,-2.767445599223590
death adder and dugite,TD10 6XN,55.708781628940100,-2.462260811976200
bandy-bandy and glass snake,TD10 6XR,55.729170320654500,-2.522449965425880
puff adder and Chipmunk,TD10 6YJ,55.714024204209900,-2.436570199817720
thorny devil and diamondback terrapin,TD2 6PB,55.723963018961500,-2.756348308068990
soft-shelled turtle and pit viper,TD2 6QD,55.722425908802300,-2.759359315104340
Scimitar babbler and Logrunners,TD2 6XZ,55.719273000000000,-2.748749000000000
hawksbill and Scimitar babbler,TD3 6LG,55.644926486318900,-2.560635166537200
Armadillo and Buzzard,TD3 6LP,55.681789317222000,-2.563468564807390
hawksbill and Elephant,TD4 6DS,55.639049716220300,-2.678139628706970
mud turtle and soft-shelled turtle,TD4 6DY,55.639591424897900,-2.677672400729100
Wallaby and whip snake,TD4 6DZ,55.639378103781300,-2.678876070526140
amphisbaena and Old World quail,TD4 6EL,55.640045950758100,-2.678347483582170
Flameback and leathery turtle,TD5 7AN,55.599363356595300,-2.426265412620840
Warbler and White ibis,TD5 7JL,55.600472435643100,-2.435386979210940
Piping shrike and coral snake,TD5 7LX,55.607419031329100,-2.432590945819640
Stint and blindworm,TD5 7ND,55.607820081452500,-2.436055728479250
diamond python and Goose,TD5 7NF,55.607668169646300,-2.438339779817060
harlequin snake and dugite,TD5 7NY,55.606702786347300,-2.482455411195860
soft-shelled turtle and Francolin,TD5 7PF,55.606387000000000,-2.551101000000000
Thicketbird and Magpie,TD5 7SQ,55.598349675877500,-2.428365047243610
saltwater crocodile and White ibis,TD5 7SW,55.606807210173700,-2.422520837734920
Jay and Kākāriki,TD5 7TQ,55.609557488869700,-2.424899765455480
blind snake and Piping shrike,TD5 7UE,55.607464146512400,-2.424829501688900
Crow and River dolphin,TD5 8DL,55.590661000000000,-2.430328000000000
Fish eagle and Recurvebill,TD5 8EB,55.538918000000000,-2.444340000000000
Capuchin and gecko,TD5 8ET,55.596175519146100,-2.423104731883680
Booted eagles and Minke whale,TD5 8LG,55.528142000000000,-2.461929000000000
Black jay and Marmoset,TD5 8LR,55.592525615458800,-2.448881152893530
ringhals and Meadowlark,TD5 8NN,55.571121560221900,-2.515321735499000
gavial and Gull,TD6 0AB,55.570721829701200,-2.646972964558340
massasauga and Bronzewing pigeon,TD6 0AY,55.572567181113300,-2.642927495345320
New World blackbird and king cobra,TD6 0BW,55.572114865036400,-2.638352703333630
agamid and python,TD6 0EQ,55.566454225980800,-2.636580050312930
Goose and Old World vulture,TD6 0HB,55.568063251464300,-2.651845042876110
bearded lizard and Kestrel,TD6 0PL,55.575342222050300,-2.668396985311080
massasauga and Macaw,TD6 0PS,55.575996747543400,-2.675212316493300
frill-necked lizard and leathery turtle,TD6 0QA,55.574716551506500,-2.675983347194480
Pratincole and Linsang,TD6 0RL,55.563688738902200,-2.615066809224080
Hawaiian honeycreeper and Parrotlet,TD6 0RQ,55.579918928556300,-2.647742880642950
Dolphin and snapping turtle,TD6 6SG,55.577567589093400,-2.673875214372980
anole and New World blackbird,TD6 6SN,55.577567589093400,-2.673875214372980
hawksbill and tuatara,TD6 6SR,55.577567589093400,-2.673875214372980
Goose and Tahr,TD6 6TA,55.577567589093400,-2.673875214372980
adder and Duck,TD6 6TG,55.577567589093400,-2.673875214372980
Grackle and Pratincole,TD6 9AE,55.601377293909100,-2.742639465165730
habu and Wader,TD6 9AQ,55.600878556087700,-2.744867816473150
cycling lizard and Tree warbler,TD6 9BZ,55.602375263534500,-2.701980000000000
River dolphin and soft-shelled turtle,TD6 9HP,55.589688000000000,-2.727584000000000
Guillemot and diamondback,TD6 9HR,55.590311322713900,-2.726944733986470
milk snake and kabaragoya,TD6 9PG,55.597182657374200,-2.719771970070810
carpet snake and American sparrow,TD6 9PX,55.597984612092200,-2.719088000000000
Old World vulture and giant tortoise,TD6 9QF,55.591408097557000,-2.726853946622960
Jerboa and Pratincole,TD6 9QQ,55.591377190971000,-2.727519784865100
Capuchin and gecko,TD6 9RH,55.593601834597200,-2.726640625387820
anole and Kite,TD6 9RP,55.600196519729800,-2.695783463523580
black snake and Linsang,TD6 9RQ,55.598656730099200,-2.701088455440700
Kangaroo and Rat,TD6 9RU,55.598523458120500,-2.722494386945430
Snipe and tuatara,TD6 9SL,55.601366992718400,-2.732402512603610
brown snake and amethystine python,TD7 4QD,55.537514411238900,-2.753318939022000
crocodile and gecko,TD8 6TS,55.539515000000000,-2.512293000000000
