name,postcode,lat,lon
constrictor and diamondback,NE66 5NH,55.528386029153000,-1.908332175997440
gopher snake and bearded lizard,NE66 5PA,55.547476000000000,-1.914691000000000
lizard and glass snake,NE71 6AR,55.585243266536100,-2.004954421015990
Duck and moloch,NE71 6EL,55.539441622225100,-1.970389000000000
Grackle and flying dragon,NE71 6HL,55.591461331731400,-2.080844580547870
dugite and soft-shelled turtle,NE71 6HX,55.597317195099200,-2.107484573628600
gavial and Fox,NE71 6LD,55.545976502039700,-2.015567479302780
Pheasant and River dolphin,NE71 6LH,55.545536392068000,-2.014172681206900
Black cockatoo and Tattler,NE71 6NF,55.545518567525900,-2.012873141810800
B and Cuscus,NE71 6NL,55.547451000000000,-2.011970000000000
Gila monster and hawksbill,NE71 6PE,55.544845000000000,-2.016169000000000
Hawaiian honeycreeper and gecko,NE71 6TN,55.579321000000000,-2.156575277411240
diamondback terrapin and Tattler,NE71 6TP,55.528237000000000,-2.177947000000000
Gull and soft-shelled turtle,NE71 6XB,55.568080192949100,-2.133647959530420
Gila monster and amethystine python,TD11 3JG,55.720874911878900,-2.261314754427360
Dolphin and Macaw,TD12 4BG,55.650002708623000,-2.251339801505330
Black jay and snapping turtle,TD12 4DR,55.655552792840300,-2.257017207221230
Zebra and Kangaroo,TD12 4DX,55.652223656020700,-2.259204239696780
Diving bird and Goose,TD12 4EH,55.657172072195500,-2.256090133902310
Booted eagles and Bronzewing pigeon,TD12 4FG,55.655594000000000,-2.262364000000000
Mockingbird and Marsh harrier,TD12 4HB,55.684923713842700,-2.235484659411670
cobra de capello and Philippine hawk-owl,TD12 4NJ,55.650609684099400,-2.261847270715420
thorn lizard and krait,TD12 4SG,55.644832000000000,-2.164145000000000
Warbler and Gila monster,TD12 4SJ,55.634123036079200,-2.155586148666080
agama and Towhee,TD12 4TA,55.637039456222800,-2.135996000000000
Bronzewing pigeon and tortoise,TD12 4TR,55.637610407554000,-2.092377178491550
puff adder and Logrunners,TD12 4UF,55.648674676464100,-2.222523364525700
Magpie and Egret,TD15 2GR,55.649636000000000,-1.975911000000000
Piping shrike and Francolin,TD15 2ND,55.749392067003600,-2.018294196902440
perentie and Black jay,TD15 2QA,55.632001088274600,-2.083406016147060
