name,postcode,lat,lon
cycling lizard and boa,NE67 5EY,55.526349000000000,-1.728074000000000
Warbler and Tahr,NE68 7RE,55.581671186910500,-1.653218000000000
Myna and Vulture,NE68 7RX,55.580621166260400,-1.650292379101550
Snipe and Nukupu ªu,NE68 7UA,55.576791840850200,-1.665853968702820
Old World warbler and Songlark,NE68 7UG,55.577443297195800,-1.664214766724580
Vole and Towhee,NE69 7AJ,55.608537905025600,-1.753634284492960
Tit-tyrant and Logrunners,NE69 7AN,55.606380781099000,-1.719807509786500
cobra de capello and rock snake,NE69 7AS,55.587372162437200,-1.691845000000000
king cobra and rock snake,NE69 7BA,55.603997177244400,-1.699746906917590
Shearwater and Tit-tyrant,NE70 7DR,55.588037567312400,-1.811813080262420
Skunk and death adder,NE70 7EL,55.625812000000000,-1.817778000000000
galliwasp and milk snake,NE70 7HN,55.580344000000000,-1.810422000000000
Mamo and Marsh harrier,NE70 7HQ,55.570236717800000,-1.840521878000000
water snake and tree snake,NE70 7HR,55.570678164715500,-1.806187050690880
tree snake and Pratincole,NE70 7LB,55.613786487684300,-1.841599416561270
Old World warbler and black snake,NE70 7NE,55.598899622695000,-1.829138000000000
Grackle and anaconda,NE70 7NF,55.598690370609200,-1.827615712039440
Perching duck and Zebra,NE70 7PE,55.621828113177600,-1.848585454683950
New World blackbird and Pitohui,NE70 7PT,55.594904000000000,-1.832120000000000
Wallaby and Cuscus,NE70 7QH,55.604249789238700,-1.846050103921190
Piping shrike and sand lizard,TD15 2SL,55.670791842095900,-1.800526131611880
