name,id,postcode,lat,lon
Cuscus and Songlark,208509,TD15 2UJ,55.619038273350100,-1.935796053856760
horned viper and Gila monster,727398,NE66 5NF,55.530729231253100,-1.918259689874880
Meadowlark and glass snake,726447,NE70 7HL,55.551682559270400,-1.784295795284710
bicycle lizard and leathery turtle,726879,NE69 7AP,55.593866305193000,-1.724688588289240
massasauga and adder,726566,NE70 7QB,55.597870014784800,-1.832157860450340
frilled lizard and thorny devil,726532,NE70 7LX,55.599191000000000,-1.825740071148840
garter snake and Old World vulture,726550,NE70 7NX,55.595630862321100,-1.830834476475010
Chicken and cerastes,726843,NE68 7UZ,55.563277034197200,-1.665556359331640
swift and Boto,208346,TD15 2PF,55.655052463501000,-1.922658107056080
leguaan and anole,727089,NE67 5DE,55.536092529045700,-1.706221456235000
sand lizard and Zebra,727321,NE68 7TX,55.575712592353900,-1.668797265800470
fer-de-lance and terrapin,727061,NE67 5AN,55.559150025806200,-1.633170868207670
loggerhead and tortoise,726914,NE70 7DA,55.594313624127000,-1.826968428695170
Viscacha and boa,208401,TD15 2SE,55.673227476976900,-1.800927145352070
Tree warbler and massasauga,726527,NE70 7LN,55.619349932820800,-1.829351152062290
rattlesnake and asp,727410,NE66 5PT,55.548768066876100,-1.912770230708730
agama and Kākāriki,727068,NE67 5AY,55.556344080750700,-1.638380733544300
Diving bird and Quetzal,727176,NE67 5LD,55.548978930521700,-1.726222510396860
Songlark and deaf adder,727066,NE67 5AW,55.557150548783900,-1.634600376808750
Minke whale and Old World quail,726889,NE69 7BA,55.603997177244400,-1.699746906917590
asp and Treepie,726473,NE70 7JW,55.562663000000000,-1.755253000000000
Jay and Vole,726855,NE68 7XW,55.579375572333400,-1.651477207806890
Lemming and Condor,727408,NE66 5PR,55.548177000000000,-1.914181594700390
bandy-bandy and Treepie,726853,NE68 7XS,55.577906027283400,-1.649745492618730
anole and swift,208420,TD15 2TF,55.695311579236800,-1.987278807432620
Goose and Goose,208389,TD15 2RN,55.694450965772700,-1.956369534980460
Vole and blue tongue,208414,TD15 2SY,55.724620000000000,-1.975058000000000
slowworm and Cuscus,726430,NE70 7EG,55.606166000000000,-1.803504000000000
