name,postcode,lat,lon
River dolphin and crocodile,BT78 4DN,54.751309000000000,-7.304102000000000
Capuchin and krait,BT78 4DT,54.726140000000000,-7.288530000000000
indigo snake and Ibex,BT78 5NR,54.633667000000000,-7.348033000000000
saltwater crocodile and Viscacha,BT79 0PE,54.637315000000000,-7.173189000000000
Scimitar babbler and Wader,BT79 7NQ,54.629787000000000,-7.238917000000000
Viscacha and agamid,BT79 7QA,54.645511000000000,-7.169380000000000
python and Guillemot,BT79 7RL,54.716905000000000,-7.176876000000000
Fish eagle and lizard,BT79 7TD,54.661679000000000,-7.301309000000000
Kite and horned viper,BT79 7TY,54.669344000000000,-7.286736000000000
Mamo and iguana,BT79 7TZ,54.678176000000000,-7.282037000000000
anaconda and gavial,BT79 7WL,54.658324000000000,-7.279133000000000
krait and dugite,BT79 8AA,54.768513000000000,-7.248713000000000
Grosbeak and bull snake,BT79 8JL,54.719437000000000,-6.965727000000000
Linsang and Philippine hawk-owl,BT79 8JZ,54.742910000000000,-7.288500000000000
frill-necked lizard and Warbler,BT79 8NB,54.716998000000000,-7.236275000000000
Argus and Peafowl,BT79 8PL,54.722348000000000,-7.238471000000000
wall lizard and bicycle lizard,BT79 8PU,54.716558000000000,-7.228802000000000
harlequin snake and indigo snake,BT79 8PW,54.723577000000000,-7.257118000000000
copperhead and saltwater crocodile,BT79 9BF,54.626551000000000,-7.112898000000000
Nukupu ªu and grass snake,BT79 9BN,54.648042000000000,-7.025570000000000
hoop snake and leguaan,BT80 9JL,54.653539000000000,-6.945151000000000
Pitohui and leathery turtle,BT82 0RG,54.828813000000000,-7.238039000000000
