name,id,postcode,lat,lon
Maya and Shearwater,1319316,DG6 4HA,54.842193647818800,-4.041416524838890
Wader and diamond snake,1319113,DG6 4XL,54.803027000000000,-4.053444000000000
Komodo dragon and Schneider python,1319043,DG6 4QZ,54.799783538395300,-3.958189060286880
Grosbeak and bandy-bandy,1319046,DG6 4RD,54.810122638683200,-4.024827724772560
chuckwalla and tiger snake,1319065,DG6 4SP,54.831729488942600,-4.159396519534570
galliwasp and Fish eagle,1319262,DG6 4BA,54.834655511550600,-4.050830462710090
New World blackbird and gavial,1319399,DG6 4JE,54.836737320779900,-4.053162917775110
Elephant and Mole,1319416,DG6 4LA,54.836714385906600,-4.053987091548330
ringhals and Myna,1319254,DG6 4AR,54.831855603345700,-4.053755859232210
coral snake and blindworm,1319050,DG6 4RR,54.842473840922000,-4.049856543202860
Grouse and Black cockatoo,1319109,DG6 4XF,54.817189000000000,-4.030146000000000
frilled lizard and Francolin,1319412,DG6 4JW,54.835459783407100,-4.054826529340680
Tree warbler and Vulture,1318928,DG6 4LS,54.847153100101200,-4.035357000000000
Treepie and Snipe,1319294,DG6 4DW,54.838302787163800,-4.048819680108150
Old World warbler and Chipmunk,1319084,DG6 4TS,54.783296000000000,-4.120935000000000
horned toad and sand viper,1318654,DG7 2EU,54.845015491680800,-4.279279753337360
Duck and moloch,1319277,DG6 4BW,54.831784070812800,-4.050544699152770
indigo snake and racer,1319056,DG6 4SA,54.844218083791000,-4.059383644477470
Gull and Asiatic leopard,1319408,DG6 4JR,54.834661035037600,-4.054754793674920
Buzzard and Bronzewing pigeon,1319112,DG6 4XJ,54.789910799886200,-4.054583671104750
