name,postcode,lat,lon
Bronzewing pigeon and bearded dragon,CA9 3BD,54.818596388870200,-2.455114755509510
Perching duck and rattlesnake,CA9 3DA,54.803813607028200,-2.430478053170160
Hawaiian honeycreeper and Ice seal,CA9 3EJ,54.777331087728400,-2.437767735215570
Peafowl and elapid,CA9 3NR,54.786820360115100,-2.343030789845130
Asiatic leopard and carpet snake,CA9 3PW,54.789969000000000,-2.342326000000000
Black jay and amethystine python,CA9 3RP,54.809598501903200,-2.443624524776670
Crow and Fox,CA9 3SR,54.810465745573900,-2.437425942819770
Cuscus and Armadillo,CA9 3UJ,54.791624000000000,-2.441857000000000
Pratincole and skink,DL12 0UD,54.649268815301400,-2.134748079052990
Condor and B,DL12 0XH,54.652903781378800,-2.179893000000000
swift and python,DL13 1DY,54.749234295417600,-2.221395701866190
bicycle lizard and asp,DL13 1ED,54.746275361088100,-2.212680285885190
chameleon and hoop snake,DL13 1JN,54.737263152149500,-2.144824989229760
loggerhead and Fulmarine petrel,DL13 1LT,54.737875401150900,-2.164986616334450
Prion and Warbler,DL13 1NE,54.735743877759600,-2.166235899398790
flying lizard and Chipmunk,DL13 1QQ,54.736847703231800,-2.179876438825270
Elephant and dugite,DL13 1RF,54.741016000000000,-2.187677000000000
Capuchin and bearded lizard,DL13 1RG,54.744303012097800,-2.182100000000000
smooth snake and worm lizard,DL13 1RX,54.737353925390100,-2.144064296889980
skink and Tattler,NE47 8AB,54.820969841735400,-2.312832269424010
Myna and White ibis,NE47 9UD,54.832376951761400,-2.231222557840190
