name,postcode,lat,lon
ravello ltd,DH7 0ES,54.82152500000000,-1.74299000000000
Kings Head,DH7 0EX,54.82084300000000,-1.74341500000000
Crinninons,DH7 0LA,54.82237900000000,-1.74326500000000
Luna Lanchester Ltd,DH7 0LA,54.8224,-1.7432
Lanchester Garden Centre,DH7 0SS,54.80620300000000,-1.73854500000000
THE ROYAL OAK  CORNSAY COLLIERY LTD,DH7 9BN,54.78422400000000,-1.73539000000000
The Quebec Tearoom,DH7 9DF,54.78792100000000,-1.72093500000000
KFC,DH8 5SB,54.84795200000000,-1.83504800000000
The Travellers Rest,DH8 7JU,54.84949600000000,-1.82739500000000
The Pavilion Pub and Restaurant Ltd,DH8 7TE,54.84798049926760,-1.78994798660278
pauline thompson t/as The Old Mill,DH8 9EL,54.8277,-1.8165
Knitsley Grange Farm Shop Ltd,DH8 9EW,54.83114800000000,-1.81059900000000
Punch Bowl Inn,DH8 9NL,54.84512300000000,-1.97483700000000
The Lord Crewe Arms,DH8 9SP,54.84809600000000,-2.05457100000000
Forresters Hotel & Restaurant,DL12 0QH,54.62564400000000,-2.08394700000000
Durham Dales Centre,DL13 2FJ,54.74822235107422,-2.00734925270081
THE CROSS KEYS,DL13 2HW,54.74364471435547,-2.07597470283508
Heather View Leisure Park,DL13 2PS,54.73976800000000,-2.00226900000000
Bay Horse Hotel,DL13 3EX,54.73579900000000,-1.87931500000000
Bradley Burn Farm Shop & Cafe,DL13 3JH,54.72372400000000,-1.83646800000000
cross keys hamsterley bishop auckland,DL13 3PX,54.67492500000000,-1.82182400000000
Bua Boutique Hotel,DL13 4DL,54.74337400000000,-1.81444100000000
Witton Castle Country Park Limited,DL14 0DE,54.66876602172850,-1.76319599151611
The 68 Cafe,DL14 0JF,54.6489,-1.7599
The Dairy Barn,DL15 8AN,54.68646621704100,-1.73138797283173
Duke of York,DL15 8DG,54.70596900000000,-1.78543600000000
Cafe J's,DL15 9AZ,54.71570200000000,-1.74424900000000
Viva restaurant ,DL15 9BG,54.71483100000000,-1.74428600000000
Blue Stone Tea Shop,DL15 9HP,54.71461400000000,-1.74799700000000
The Butchers Tap ,DL15 9HS,54.71565400000000,-1.74699700000000
The Crook Hotel,DL15 9HU,54.71702100000000,-1.74731500000000
The green ,DL15 9TA,54.73020300000000,-1.75105300000000
