name,postcode,lat,lon
The Belmont,DH1 1BJ,54.78590700000000,-1.53101000000000
Infinite Air Cafe,DH1 1GG,54.78839492797850,-1.54247295856476
Lickety Split,DH1 1GG,54.78839492797850,-1.54247295856476
La Piazza Durham Ltd,DH1 1LJ,54.77916930000000,-1.56271940000000
the claypath delicatessen ltd,DH1 1QS,54.77871300000000,-1.57098700000000
BISTRO ITALIANO,DH1 1QT,54.77831000000000,-1.57145700000000
The Capital,DH1 1QT,54.77831000000000,-1.57145700000000
Ajiwai,DH1 1RG,54.77796810000000,-1.57342530000000
The Drunken Duck ,DH1 1RG,54.77780600000000,-1.57387200000000
Tia's Mexican,DH1 1RG,54.77780600000000,-1.57387200000000
Ramside Golf Club,DH1 1TD,54.79517364501953,-1.51500749588013
Ramside Hall Hotel,DH1 1TD,54.79517364501953,-1.51500749588013
SPA at Ramside,DH1 1TD,54.79517364501953,-1.51500749588013
Chapter Two,DH1 1TH,54.78948300000000,-1.53781100000000
The Coffee House ,DH1 1WA,54.77799700000000,-1.57461600000000
Apollo Bingo Durham,DH1 2EP,54.77636500000000,-1.54330800000000
SUBWAY,DH1 2HN,54.78234100341800,-1.53859198093414
The Queens Head,DH1 2JR,54.77866300000000,-1.55472500000000
Treats2go,DH1 2LH,54.77904200000000,-1.55501600000000
The Rose Tree Inn,DH1 2LY,54.76175100000000,-1.55248600000000
Poplar Tree Garden Centre,DH1 2NG,54.75986500000000,-1.55281800000000
The Seven Stars,DH1 2NU,54.76030200000000,-1.54689200000000
Betty Bee's Coffee Shop,DH1 2PF,54.75501080000000,-1.54246970000000
The Avenue,DH1 2PT,54.75364300000000,-1.53986600000000
Cafe Pausa at Dunelm,DH1 2RP,54.78082656860350,-1.53700196743011
KFC,DH1 2RP,54.78079986572270,-1.53699302673340
Pizza Hut Restaurant,DH1 2RP,54.78079986572270,-1.53699302673340
KFC,DH1 2RS,54.7801,-1.5348
Zest Kitchen,DH1 2RS,54.7801,-1.5348
The Three Horseshoes,DH1 2SR,54.75692000000000,-1.48530400000000
Leazes Ltd,DH1 3AA,54.7763,-1.5743
NE Hospitality Ltd,DH1 3AA,54.7763,-1.5743
The Boat Club,DH1 3AF,54.77633900000000,-1.57321900000000
Tango,DH1 3AG,54.77568200000000,-1.57276000000000
Tealicious Tearoom Limited,DH1 3AG,54.77568200000000,-1.57276000000000
Zaps Burrito Bar,DH1 3AG,54.77559970000000,-1.57227170000000
Dunelm Food Store,DH1 3AL,54.77359900000000,-1.57104000000000
Dunelm House,DH1 3AN,54.77334213256840,-1.57185995578766
The Rabbit Hole,DH1 3AT,54.77098700000000,-1.56911000000000
Court Inn,DH1 3AW,54.77396500000000,-1.57007300000000
Barrio Comida Limited,DH1 3DG,54.77259445190430,-1.57122194766998
Whitechurch Durham,DH1 3DN,54.76941000000000,-1.57324500000000
Lebaneat North Bailey,DH1 3ET,54.77485300000000,-1.57483600000000
shaheen’s indian,DH1 3ET,54.77485300000000,-1.57483600000000
Hotel Indigo Durham - Marco Pierre White Steakhouse Bar & Grill,DH1 3HL,54.7750,-1.5701
Dunelm Club,DH1 3HN,54.77516400000000,-1.56897200000000
Zen UK Limited,DH1 3JS,54.77437700000000,-1.57005300000000
Durham Amateur Rowing Club,DH1 3JU,54.77356300000000,-1.56319100000000
Durham City Rugby Supporters Club,DH1 3JU,54.7736,-1.5629
Fat Hippo Durham,DH1 3NU,54.77584900000000,-1.57453000000000
Flat White Durham Limited,DH1 3NU,54.7759,-1.5746
The cellar door,DH1 3NU,54.77584838867190,-1.57453000545502
Zizzi,DH1 3NU,54.77584900000000,-1.57453000000000
hatters,DH1 3NU,54.7759,-1.5746
Amaani at the Pumphouse,DH1 3PJ,54.76293700000000,-1.55721300000000
Costa Coffee,DH1 3UJ,54.77717900000000,-1.57433000000000
TJ Hughes Durham,DH1 3UJ,54.7770,-1.5741
AB travel inn ,DH1 3UL,54.7767,-1.5744
Patisserie Valerie,DH1 3UL,54.77681900000000,-1.57444200000000
Adventure Valley,DH1 5SG,54.80936800000000,-1.53952900000000
Radisson Blu Hotel Durham,DH1 5TA,54.7824,-1.5728
The Sticky Wicket,DH3 3QR,54.84897232055660,-1.56222200393677
EVOLUTION FITNESS,DH4 4AL,54.84305572509770,-1.47078597545624
Costa Coffee - Houghton le Spring,DH4 4AR,54.84487620000000,-1.47172350000000
HOUGHTON INDIAN LIMITED,DH4 4AR,54.84489300000000,-1.47166500000000
Scugnizzi ltd T/a vesuvio ristorante italiano,DH4 4AR,54.8449,-1.4717
The Nutmeg Tree,DH4 4GB,54.84501300000000,-1.47230200000000
K9 Coffee House,DH4 6LR,54.84080470000000,-1.49486830000000
The Italian Farmhouse ,DH4 6PA,54.81493100000000,-1.50316300000000
The Chilton Country Pub and Hotel,DH4 6PY,54.83609600000000,-1.51048400000000
Three Horseshoes,DH4 6QQ,54.82093200000000,-1.51832500000000
Tasty ,DH5 0JS,54.80781940000000,-1.43452480000000
Chinchilla ,DH5 0QB,54.80740630000000,-1.43650640000000
The burn,DH5 8JN,54.83480072021480,-1.46553897857666
The copt Hill country inn,DH5 8LU,54.83896960000000,-1.45084310000000
Zucca Italian Kitchen and Bar,DH5 9DY,54.82429920000000,-1.44788240000000
Angelo's Trattoria,DH5 9QT,54.8268,-1.4787
The Star of Siam,DH5 9QT,54.8268,-1.4787
Haswells Homer Hill Farm Shop Ltd,DH5 9RG,54.80709900000000,-1.50439400000000
The Farmers Arms,DH6 1LL,54.76240921020508,-1.46838831901550
THE BLUE HOUSE RESTAURANT AND PUB,DH6 2AP,54.77097200000000,-1.40589800000000
JABIR INDIAN SPICE LTD,DH6 2EW,54.7724,-1.4244
Shotton Community Hub,DH6 2PQ,54.75784301757810,-1.38750195503235
Horns Garden Centre,DH6 2PX,54.7552,-1.3917
Seventeen Cafe Bar Bistro,DH6 4DD,54.71576500000000,-1.50356800000000
Italian farmhouse ,DH6 4HX,54.72334800000000,-1.51198300000000
Pub & Kitchen Cassop,DH6 4RJ,54.73927400000000,-1.46542900000000
Coach and horses ,DH6 5JU,54.71485500000000,-1.57121100000000
The Poachers,DH6 5LQ,54.70926100000000,-1.53617700000000
Bowburn Hall Hotel,DH6 5NH,54.74082100000000,-1.51941500000000
The Old Mill,DH6 5NX,54.71011300000000,-1.53086000000000
KFC,DL17 8LD,54.69020400000000,-1.55864100000000
Cafe Alice,DL17 8NR,54.68739100000000,-1.56343400000000
KFC,DL17 8RU,54.70435400000000,-1.56756500000000
McDonalds,DL17 8RU,54.70435400000000,-1.56756500000000
Starbucks Coffee,DL17 8RU,54.70435400000000,-1.56756500000000
The Cross Keys,DL17 9AR,54.67758400000000,-1.48709800000000
The Aviator Bistro Ltd,DL17 9DY,54.68961600000000,-1.47230200000000
Bengal Lounge Woodham Ltd,DL5 4UE,54.6334,-1.5664
THE HUNTSMAN (NA) LIMITED,DL5 4UE,54.63346300000000,-1.56644300000000
THE RANCH SEAHAM LTD,SR7 0HP,54.8420,-1.3661
Seaton Lane Inn,SR7 0LP,54.84410095214840,-1.38159096240997
Fun Shack Seaham,SR7 0PU,54.84779500000000,-1.37125600000000
Seaham Hall Management Company Ltd,SR7 7AG,54.84829711914060,-1.34883701801300
Martino's Seaham,SR7 7DA,54.83834030000000,-1.33423370000000
Costa Coffee,SR7 7DR,54.83635600000000,-1.33123300000000
Nicey Icey,SR7 7EE,54.83635700000000,-1.33123400000000
Pancake Kitchen,SR7 7EE,54.83847300000000,-1.32727500000000
ASHOKA INDIAN RESTAURANT LIMITED,SR7 7EU,54.8390,-1.3322
Clean Bean Restaurant & Bar,SR7 7EU,54.83966150000000,-1.33260810000000
Flanders,SR7 7EU,54.83896800000000,-1.33224900000000
Gills fry fry Seaham,SR7 7EU,54.8390,-1.3322
Humbles,SR7 7EU,54.83911200000000,-1.33224700000000
Lickety split creamery,SR7 7EU,54.83911200000000,-1.33224700000000
PORT OF CALL SEAHAM,SR7 7EU,54.83896636962890,-1.33224904537201
The Lamp Room,SR7 7EU,54.83911200000000,-1.33224700000000
Valentes,SR7 7HF,54.83726800000000,-1.33364700000000
sambuca seaham ltd,SR7 7HN,54.83671188354490,-1.33199095726013
Caruso's,SR7 7HQ,54.83683800000000,-1.33376400000000
Playdates baby lounge ,SR7 7HQ,54.83675140000000,-1.33455560000000
coffee & co,SR7 7HQ,54.83683800000000,-1.33376400000000
Paws for 5 ,SR7 7SA,54.83771500000000,-1.33801500000000
Sagar Seaham Limited,SR7 7XR,54.84499100000000,-1.33911100000000
The Mallard,SR7 8EP,54.83312800000000,-1.36603500000000
The Stapylton Arms,SR7 8SD,54.80185900000000,-1.34815200000000
Codrophenia Fish and Chips,SR7 9HU,54.81537100000000,-1.37474700000000
KFC,SR7 9HU,54.81537000000000,-1.37474600000000
McDonald's Restaurants,SR7 9HU,54.81537100000000,-1.37474700000000
McDonalds,SR7 9HU,54.81537100000000,-1.37474700000000
Pizza Express,SR7 9HU,54.81537000000000,-1.37474600000000
Starbucks Coffee,SR7 9HU,54.81537100000000,-1.37474700000000
Costa Coffee - Peterlee,SR8 1AL,54.75921800000000,-1.33342200000000
Costa Coffee,SR8 1AL,54.75921800000000,-1.33342200000000
CAFE EDEN,SR8 1AX,54.75961200000000,-1.33313600000000
Club 3000 Bingo Peterlee,SR8 1BJ,54.7585,-1.3324
Subway Restaurant ,SR8 1BS,54.76021600000000,-1.33516100000000
SAMBUCA ITALIAN LTD,SR8 1BT,54.76012200000000,-1.33611100000000
Chimes Cafe,SR8 1BU,54.75962448120120,-1.33545100688934
PETERLEE LODGE HOTEL,SR8 1BU,54.75962500000000,-1.33545100000000
Luciano Bar and Bistro ,SR8 1QB,54.74825800000000,-1.34228600000000
Martinos peterlee ,SR8 2DP,54.7687,-1.3474
Bee Happy Play Cafe ,SR8 2LS,54.75697780000000,-1.37030900000000
The Royal George,SR8 2ND,54.75160700000000,-1.36023900000000
Charltons,SR8 2RB,54.76686300000000,-1.36125800000000
The Play Place ,SR8 2RD,54.76773100000000,-1.36408800000000
spread from the med taverna,SR8 2RR,54.75298690795900,-1.36644399166107
The Half Moon,SR8 3AZ,54.78091900000000,-1.35814400000000
East Durham Garden Centre,SR8 3BZ,54.79304200000000,-1.37023800000000
Whistle Stop Bakehouse ,SR8 4LG,54.76526000000000,-1.31296300000000
Sizzlers cafe,SR8 4SB,54.76358900000000,-1.31319300000000
The Haven Cafe,SR8 4TQ,54.77078400000000,-1.31736100000000
McDonalds,SR8 5HA,54.76077100000000,-1.33137600000000
The Pickled Parson,TS21 2AB,54.65317916870120,-1.45073497295380
The Corner House,TS21 2AU,54.6537,-1.4509
Julia and Sofias,TS21 2AY,54.65356063842770,-1.45196998119354
The Herd & Herb,TS21 2AZ,54.65407440000000,-1.45181830000000
Hardwick Hall Hotel,TS21 2EH,54.66351699829102,-1.46811389923096
Le raaj indian limited,TS21 2JX,54.64796300000000,-1.44029800000000
Aubergine cafe,TS21 3AR,54.65369500000000,-1.44990600000000
The Dun Cow Inn,TS21 3AT,54.65379700000000,-1.44841700000000
The Impeccable Pig,TS21 3AT,54.65379714965820,-1.44841694831848
The blue bells ,TS22 5PQ,54.63268800000000,-1.28074600000000
Costa Coffee,TS22 5PZ,54.62861600000000,-1.30685500000000
KFC,TS22 5PZ,54.6285,-1.3057
McDonalds,TS22 5PZ,54.62861700000000,-1.30685600000000
WOLVISTON DP LTD,TS22 5PZ,54.6285,-1.3057
The Stables (Wynyard) LTD,TS22 5QQ,54.63585100000000,-1.35226600000000
Dunelm & Pausa Coffee Shop,TS24 0RN,54.69291700000000,-1.21113900000000
Rosies ,TS24 0UG,54.69189000000000,-1.19853000000000
Thai Village ,TS24 0UG,54.69189000000000,-1.19853000000000
Biancos deli,TS24 0UH,54.69208870000000,-1.19832200000000
Casa del Mar,TS24 0UH,54.69208870000000,-1.19832200000000
Kilimanjaro Hartlepool,TS24 0UH,54.69208870000000,-1.19832200000000
Lock Gates,TS24 0UH,54.69208870000000,-1.19832200000000
Wallis & Co,TS24 0UH,54.69208870000000,-1.19832200000000
Black Olive Hartlepool Ltd,TS24 0UJ,54.6926,-1.1983
Grace ( hartlepool) limited,TS24 0UJ,54.6926,-1.1983
JF Pub Group Ltd,TS24 0UJ,54.6926,-1.1983
Mama marina,TS24 0UJ,54.6926,-1.1983
Portofino Restaurant ,TS24 0XF,54.6886,-1.2030
KFC,TS24 0XR,54.69052700000000,-1.21118500000000
McDonald's Restaurants,TS24 0XR,54.69052700000000,-1.21118500000000
McDonalds Restaurant,TS24 0XR,54.69052700000000,-1.21118500000000
Nandos,TS24 0XR,54.69052600000000,-1.21118400000000
Pizza Hut Restaurant,TS24 0XR,54.69052700000000,-1.21118500000000
KFC,TS24 0XS,54.6875,-1.2062
Mecca Bingo,TS24 0XS,54.68728400000000,-1.20735400000000
Portals Place,TS24 0YB,54.69024500000000,-1.19848400000000
HDI (T/A Sambuca Hartlepool) Ltd,TS24 7DH,54.6862,-1.2067
Big Bamboo Lounge & Prep,TS24 7HD,54.68511200000000,-1.20914900000000
Starbucks,TS24 7LD,54.68020800000000,-1.21092000000000
McDonald's Restaurants,TS24 7RR,54.6836,-1.2131
Galleries ,TS24 7RS,54.68428200000000,-1.21411300000000
McDonalds Restaurant,TS24 7RT,54.68428200000000,-1.21411300000000
Kwicksnax,TS24 7RX,54.68405400000000,-1.21500200000000
TJ Hughes Hartlepool,TS24 7RZ,54.6847,-1.2138
DAISY AND BEAS,TS24 7SA,54.68325805664060,-1.21537399291992
LilyAnne’s Coffee Bar,TS24 7SE,54.68512725830080,-1.21584999561310
Fish Face,TS25 1BS,54.66002200000000,-1.18763900000000
Fizzy Izzy's,TS25 1BS,54.66002200000000,-1.18763900000000
Larry's Lanes,TS25 1BS,54.66002200000000,-1.18763900000000
MATTEOS ,TS25 1BS,54.66002200000000,-1.18763900000000
Youngs Fisheries,TS25 1BS,54.66002200000000,-1.18763900000000
the marine hotel,TS25 1BS,54.66002200000000,-1.18763900000000
Seaton Carew Golf Club,TS25 1DE,54.6572,-1.1861
mayfair centre,TS25 1DE,54.64969635009770,-1.19123697280884
Jump 360 Hartlepool,TS25 1NN,54.66140800000000,-1.20838400000000
McDonald's Restaurants,TS25 1PN,54.67821500000000,-1.20715900000000
McDonalds Restaurant,TS25 1PN,54.67821500000000,-1.20715900000000
Ange&Cheryl's place,TS25 1PX,54.67556400000000,-1.20849700000000
Burger King,TS25 1XJ,54.66574370000000,-1.21000330000000
Starbucks,TS25 1XJ,54.66740036010740,-1.20823705196381
Surfside,TS25 1XN,54.66949900000000,-1.19097000000000
The Hope and Anchor,TS25 2EN,54.64347400000000,-1.23975500000000
Fens Hotel,TS25 2LT,54.65403600000000,-1.23294000000000
welcome cafe,TS25 4HZ,54.6698,-1.2412
The Greenside,TS25 5BQ,54.6706,-1.2183
The Place in the Park,TS26 0BQ,54.68324100000000,-1.23981900000000
the golden lion,TS26 0EN,54.68960100000000,-1.24500600000000
Marco Polo restaurant hartlepool,TS26 8AD,54.68581008911130,-1.21696901321411
Masons Cafe,TS26 8PQ,54.6881,-1.2194
LOAVES&FISHES1960 CO LTD MARY LAMBERT,TS26 9DD,54.68320000000000,-1.21646000000000
Tea at Hart,TS26 9DE,54.68436000000000,-1.21650100000000
Habibi,TS26 9DQ,54.68508130000000,-1.21660810000000
King Johns Tavern,TS26 9HD,54.68461100000000,-1.21779900000000
The Raby Arms,TS27 3AJ,54.70764100000000,-1.27063600000000
White Hart Inn,TS27 3AW,54.70707800000000,-1.27255500000000
The Spotted Cow,TS27 3EF,54.68383000000000,-1.29401900000000
OK Diner Elwick,TS27 3HH,54.65522700000000,-1.30840300000000
Dalton Lodge Ltd,TS27 3HN,54.6689,-1.2990
Parkdean Resorts Ltd,TS27 4BN,54.73309500000000,-1.25924600000000
Hardwicke Hall Manor Hotel  Bar & Restaurant,TS27 4PA,54.74564700000000,-1.30133300000000
The Castle Eden Inn,TS27 4SD,54.72949100000000,-1.34024500000000
prickly pear at the old brewery limited,TS27 4SU,54.73684100000000,-1.35671300000000
Cinnamon Spice Club,TS29 6JQ,54.69572448730470,-1.43341994285584
