name,id,postcode,lat,lon
Tree warbler and cerastes,155567,TR7 2JT,50.405629236052000,-5.066310000000000
habu and Elephant,155167,TR8 5RR,50.401315390126200,-5.109623654471270
Songlark and chameleon,155877,TR7 1SJ,50.411161348787700,-5.098331210005450
krait and Jackal,156199,TR7 1HE,50.418232637048000,-5.088163038365930
Hawaiian honeycreeper and cobra,155571,TR7 2JY,50.409207158375200,-5.071978870377370
gecko and Komodo dragon,2632741,TR8 4GH,50.413726000000000,-5.040810000000000
frilled lizard and iguana,155865,TR7 1RS,50.412172507328400,-5.076520754677940
dugite and whip snake,155753,TR7 1NA,50.413607687730300,-5.091930592740280
cayman and New World blackbird,155483,TR7 3NE,50.423319469419400,-5.056347704049410
flying lizard and Grackle,156051,TR7 1AD,50.413906252093100,-5.077970561225170
Pitohui and sand lizard,155828,TR7 1PW,50.410531835259000,-5.106412584498320
Jay and leathery turtle,155090,TR8 5PL,50.387577736866400,-5.102941330693460
tree snake and Condor,155330,TR7 3DD,50.421274448031000,-5.058173102697830
python and Pheasant,155510,TR7 9AZ,50.414429200000000,-5.079679700000042
lizard and Nukupu ªu,155879,TR7 1SP,50.414785093765500,-5.077394041639210
dukite and snapping turtle,155740,TR7 1LJ,50.414932862551000,-5.088441035368310
gopher snake and Bunting,1767384,TR7 2PD,50.418783985307800,-5.068052086414260
garter snake and dugite,156091,TR7 1DT,50.414159145435000,-5.084040545059430
Chipmunk and Gila monster,155062,TR8 5LZ,50.368689349257300,-5.053269625209810
saltwater crocodile and blue racer,155637,TR7 2LT,50.412291035126100,-5.078499292762830
python and saltwater crocodile,155365,TR7 3HB,50.421029653527200,-5.042134214881580
chuckwalla and Puffleg,155694,TR7 2RS,50.418742196857200,-5.068583528525330
hawksbill and Old World quail,156017,TR7 2EA,50.408329233593500,-5.080677541820890
rattlesnake and Petrel,155701,TR7 2SA,50.417372283839700,-5.066636505967760
Bunting and python,155741,TR7 1LL,50.412647161213600,-5.084406850581170
Night heron and Old World vulture,2613269,TR8 4GT,50.413257000000000,-5.043962000000000
River dolphin and Songlark,155636,TR7 2LS,50.412179641488200,-5.079308562159270
Old World quail and Herring gull,155047,TR8 5LF,50.366859291257500,-5.056499310462850
cobra de capello and Pheasant,155029,TR8 5JH,50.377519000000000,-5.024226000000000
frill-necked lizard and Fulmarine petrel,155662,TR7 2PR,50.416328588877900,-5.073411000000000
mud turtle and glass snake,156090,TR7 1DS,50.414675946792300,-5.084904748812480
king cobra and taipan,156092,TR7 1DU,50.414832995630300,-5.083732380702080
diamondback and worm lizard,156208,TR7 1HS,50.422995521232900,-5.097470671534490
gavial and tree snake,155493,TR7 3RU,50.424433852404100,-5.053307580622810
coral snake and fer-de-lance,155849,TR7 1QX,50.408150000000000,-5.089492858118980
whip snake and hoop snake,1767389,TR7 3FB,50.408838945565000,-5.056288794566910
goanna and Capuchin,155667,TR7 2QB,50.413649659260200,-5.069985812228160
Bunting and Pitohui,154941,TR8 5HL,50.385820000000000,-5.122623000000000
tiger snake and skink,155789,TR7 2TW,50.407717057522300,-5.067772194611420
amethystine python and chameleon,155472,TR7 3LR,50.420663768166400,-5.055740145182580
bicycle lizard and carpet snake,155445,TR7 3JG,50.417578407502600,-5.046826523209310
alligator and caiman,156115,TR7 1FG,50.414354097343900,-5.084151761853060
pit viper and Thrasher,156221,TR7 1JH,50.413287000000000,-5.086494856436250
bearded lizard and Black jay,155533,TR7 2EY,50.407135907068100,-5.080022000000000
king cobra and tree snake,155653,TR7 2NR,50.414689734031400,-5.073178464142870
python and black snake,154932,TR8 5GS,50.382343665470500,-5.043018801165410
sea snake and Mink,155349,TR7 3EE,50.417183138475800,-5.038902880355260
boa and swift,2632740,TR8 4GG,50.413705000000000,-5.039880000000000
dukite and alligator,156078,TR7 1BY,50.413860918295100,-5.080360881329450
Jay and leathery turtle,155706,TR7 2SJ,50.402802155065600,-5.064147037585750
lizard and indigo snake,155635,TR7 2LR,50.411858354418500,-5.077513962880050
snake and iguana,155268,TR8 4NP,50.407050348292200,-5.057228455805500
hognose snake and Ice seal,1767373,TR7 1GL,50.409961457259100,-5.091736163621010
indigo snake and frilled lizard,156218,TR7 1JE,50.413662500665500,-5.082755331498020
Tree warbler and Black jay,155661,TR7 2PQ,50.417386379865000,-5.071213099905320
blindworm and anaconda,156057,TR7 1AS,50.413017264163200,-5.078250769282820
bushmaster and massasauga,155034,TR8 5JQ,50.379620244418400,-5.033644077850360
Grosbeak and Francolin,155798,TR7 3AJ,50.421275798058700,-5.060172571857410
Piping shrike and Greenbul,155645,TR7 2NF,50.414954395148200,-5.076095736905240
Linsang and Armadillo,155061,TR8 5LY,50.376087630985200,-5.048497000000000
Badger and Ground sloth,155441,TR7 3JB,50.418824305735500,-5.049398579657520
constrictor and slowworm,155920,TR7 2BG,50.412551348901800,-5.080557432761510
Wader and Maya,2632731,TR7 1US,50.412206000000000,-5.101415000000000
Dolphin and Tree warbler,155592,TR8 4BN,50.466888331237800,-5.029744558500860
Stilt and tokay,2659586,TR8 4RL,50.413906000000000,-5.045284000000000
bearded lizard and Partridge,155586,TR8 4BD,50.465386874692800,-5.025223260817930
tiger snake and Boto,155075,TR8 5NR,50.358352075674300,-5.071068556604570
Stilt and Peafowl,155433,TR7 3HR,50.419039756765000,-5.042893636588350
blue racer and Goose,155168,TR8 5RS,50.400351908318900,-5.109659068134460
Siskin and Rabbit,2580395,TR8 4WH,50.400259000000000,-5.031500000000000
bicycle lizard and Vole,155059,TR8 5LW,50.361415793342400,-5.043521343248830
