name,postcode,lat,lon
Hubbox Plymouth,PL1 1DA,50.370909674616900,-4.139295993434390
SPUDULIKE PLYMOUTH,PL1 1EA,50.372522000000000,-4.137765000000000
Starbucks Drakes Circus,PL1 1EA,50.372522000000000,-4.137765000000000
YUMMY CHINESE CUISINE LIMITED,PL1 1ET,50.371033876633500,-4.146111000000000
Oggy oggy,PL1 1HZ,50.373099654094900,-4.142966770308850
ORIGINAL PASTY HOUSE,PL1 1LA,50.371785906135000,-4.142021556437650
The Americano,PL1 1LP,50.372647762281600,-4.141132170712900
Lanterns Restaurant ,PL1 1LR,50.372545153199600,-4.143771542746870
Subway Cornwall Street,PL1 1NJ,50.372493032647700,-4.146596012562910
Power Plant Cafe,PL1 1NS,50.372199068717900,-4.143516856373510
Expresso sandwich bar ,PL1 1NX,50.372134868728300,-4.145046902479950
jakes ltd,PL1 1NX,50.372134868728300,-4.145046902479950
Aleppo Foods Ltd,PL1 1PE,50.371434981849900,-4.147392055396700
The Grecian Taverna Restaurant ,PL1 1PE,50.371434981849900,-4.147392055396700
Cornwall Street Fish Bar,PL1 1PG,50.372227645105900,-4.147329407791890
Tasties Cafe,PL1 1PR,50.372063478026800,-4.146478174530140
Kawaffle,PL1 1PS,50.372063478026800,-4.146478174530140
Leandra Restaurant,PL1 1QA,50.372093781380700,-4.147759336028790
POSITANO RESTAURANT,PL1 1QX,50.373544384042600,-4.141285060427530
TOOT RESTAURANT,PL1 1QX,50.373544384042600,-4.141285060427530
Taco Bell ,PL1 1QZ,50.371173593341500,-4.139617261534080
Moments Cafe,PL1 1RJ,50.371229000000000,-4.144036000000000
samphire brasserie,PL1 1SD,50.373136822648700,-4.144853017262290
The Treasury Cafe-bar-restaurant,PL1 2AD,50.369520000000000,-4.140597000000000
1620 Pub&Eatery ,PL1 2AG,50.368449641196300,-4.138566571468240
Arribas ,PL1 2AG,50.368449641196300,-4.138566571468240
Eastern Eye   ,PL1 2AG,50.368449641196300,-4.138566571468240
Plymouth Barbican Steakhouse ,PL1 2AG,50.368449641196300,-4.138566571468240
Plymouth Barbican Steakhouse,PL1 2AG,50.368449641196300,-4.138566571468240
Yukisan,PL1 2AG,50.368449641196300,-4.138566571468240
Bengal flavour ,PL1 2DA,50.368791261739200,-4.137597547410090
Kuku Sushi & Robata,PL1 2EU,50.368729834217200,-4.141912021912020
Fletcher's Restaurant,PL1 2EX,50.368714297345800,-4.142755081519600
Crowne Plaza Plymouth,PL1 2HJ,50.367169215225300,-4.141672986186200
Rockets and Rascals,PL1 2JL,50.368193117381200,-4.136375348918420
The Blues Bar and Grill,PL1 2JL,50.368193117381200,-4.136375348918420
Bar Rakuda,PL1 2JZ,50.367637829899400,-4.135506000000000
Rust & Royal,PL1 2JZ,50.367637829899400,-4.135506000000000
The Bottling Plant,PL1 2LA,50.367815042530900,-4.137370855926220
Meze Grill ,PL1 2LD,50.367625697782300,-4.135927988839340
Barbican Pasta Bar,PL1 2LE,50.367278351199000,-4.135251464015080
Harbourside Fish and Chips,PL1 2LE,50.367278351199000,-4.135251464015080
Quay 33 Restaurant,PL1 2LE,50.367278351199000,-4.135251464015080
The Village Restaurant,PL1 2LE,50.367278351199000,-4.135251464015080
Barbican Kitchen,PL1 2LQ,50.367761064657600,-4.137860612765500
Monty's Coffee Shop,PL1 2LS,50.367008013022800,-4.134674000000000
Platters seafood restaurant ,PL1 2LS,50.367008013022800,-4.134674000000000
THE CROWN AND ANCHOR ,PL1 2LS,50.367008013022800,-4.134674000000000
Himalayan Spice,PL1 2NA,50.366818983473100,-4.135287087517290
Kapadokya Restaurant ,PL1 2NA,50.366818983473100,-4.135287087517290
B Bar Sw Ltd,PL1 2NJ,50.366299545834200,-4.135165332166170
Duttons Cafe,PL1 2NU,50.363475916144600,-4.134152725085360
Boathouse Cafe,PL1 2NX,50.364342000000000,-4.134079000000000
The Corinthian ,PL1 2NY,50.363111867783100,-4.136343965534020
Valentis cafe/bar,PL1 2PA,50.365424665762300,-4.140188258170560
DUNYA RESTAURANTS LTD,PL1 2SH,50.370377739222100,-4.146683342231400
Lorenzo's Spanish Restaurant and Tapas Bar,PL1 2SW,50.369198000000000,-4.145857000000000
SIZZ ALL,PL1 2SW,50.369198000000000,-4.145857000000000
By the Park Cafe,PL1 3BT,50.364095000000000,-4.147979443012220
Maritimo Trading Ltd,PL1 3DE,50.364274865517200,-4.144987682686750
OCEAN VIEW (SW) LTD,PL1 3DE,50.364274865517200,-4.144987682686750
Wet wok Chinese restaurant limited,PL1 3DE,50.364274865517200,-4.144987682686750
The Waterfront Pub and Dining,PL1 3DQ,50.362682124844500,-4.148923205826930
THE DOCK CAFE BAR & RESTAURANT,PL1 3EF,50.367788261801900,-4.154413267658810
new continental hotel,PL1 3LD,50.368574251994000,-4.148880074128330
Salumi Bar & Eatery,PL1 3LH,50.367677099157100,-4.151063000000000
PEDRO RIO T/a ' A TASKINHA',PL1 3LU,50.369536194915800,-4.150850162458410
Knead Pizza,PL1 3PE,50.368455525750100,-4.160138852648270
Hook & Line,PL1 3QQ,50.361622025096000,-4.166124000000000
Artillery Tower restaurant,PL1 3QR,50.362770479359800,-4.160654004701960
BISTROT PIERRE - PLYMOUTH,PL1 3RP,50.361899000000000,-4.164073000000000
Le Vignoble Plymouth,PL1 3RP,50.361899000000000,-4.164073000000000
The Edgcumbe Arms,PL10 1HX,50.360585473483400,-4.176049201371200
ORIGINAL PASTY HOUSE,PL19 0AE,50.550011973282000,-4.144350000000000
Dukes Coffee House,PL19 0AL,50.550266000000000,-4.143694000000000
Poppy's Cafe,PL19 0AL,50.550266000000000,-4.143694000000000
Lemon Grove Cafe,PL19 0BA,50.550597923186000,-4.144132293324620
Robertson's Restaurant,PL19 0BD,50.550660720866100,-4.144629230259530
black sheep brew,PL19 0BD,50.550660720866100,-4.144629230259530
The EastGate Cafe and Brasserie,PL19 0BW,50.551003414487500,-4.142626072938370
Taylors,PL19 0DD,50.550096305559100,-4.145972921459790
The Union Inn,PL19 0DS,50.550233871802500,-4.146964000000000
Karen's Restaurant,PL19 0HE,50.551515234125400,-4.142183422602900
Cafe Liaison,PL19 8AA,50.549663241965200,-4.145557990697970
Church Lane,PL19 8AA,50.549663241965200,-4.145557990697970
The Ganges Restaurant,PL19 8AD,50.549660526573800,-4.146193108865440
A&S HOQUE LTD,PL19 8AJ,50.549524848560900,-4.147697404818400
the cornish arms ,PL19 8AN,50.549207193880000,-4.147852361994760
BEDFORD HOTEL,PL19 8BB,50.549285766615800,-4.144566820544860
The Kitchen cafe,PL19 8BD,50.548779720661300,-4.146647167945910
Market Inn,PL19 9BB,50.544643725872700,-4.144624337063920
The Whitchurch Inn Ltd,PL19 9ED,50.534035597770700,-4.128676537024140
The Big Breakfast,PL2 1AL,50.378804892691300,-4.175743785933030
PLYMOUTH ARGYLE FOOTBALL CLUB,PL2 3DQ,50.387392298123300,-4.151700421893120
Yelverton Golf Club Limited,PL20 6BN,50.481094178443900,-4.096074560349890
Knightstone Tea Rooms ,PL20 6BT,50.488076426988200,-4.096919336513130
Scarlets Kitchen,PL20 6DT,50.491557106115900,-4.085413577312660
Walkhampton Inn,PL20 6JY,50.513064000000000,-4.064681000000000
The Royal Oak,PL20 6PJ,50.486446000000000,-4.058347000000000
The Old Police Station Cafe,PL20 6QF,50.544689301971400,-3.992413000000000
The Plume of Feathers Inn,PL20 6QQ,50.543945575519600,-3.990517312142350
The Forest Inn Dartmoor Ltd,PL20 6SD,50.538681000000000,-3.900947000000000
The Dartmoor Inn,PL20 6ST,50.558480000000000,-4.051177000000000
TWO BRIDGES HOTEL,PL20 6SW,50.563371963820000,-3.956600063133290
Fortescue Garden Trust Cafe,PL20 7LQ,50.493382822249300,-4.124690910537030
Drake Manor Inn,PL20 7NA,50.494890993322900,-4.130369000000000
The London Inn,PL20 7ST,50.509056387459200,-4.099104217243770
THE SPORTSMANN  INN & IVYBRIDGE HOTEL,PL21 0BQ,50.390439143066500,-3.917450335272800
the Sportsmans inn & Ivybridge hotel ltd.,PL21 0BQ,50.390439143066500,-3.917450335272800
Horse and groom,PL21 0EL,50.397510793300900,-3.877071151673930
The Ship Inn,PL21 0NS,50.386848855994700,-3.861091284376420
CALIFORNIA INN,PL21 0SG,50.363120645255700,-3.821454143648210
The Watermark,PL21 0SZ,50.389655609214800,-3.919149145533540
Ermington Store and More,PL21 9NJ,50.362684695489300,-3.915178380847840
The First and Last Bistro,PL21 9NJ,50.362684695489300,-3.915178380847840
Rochelles River Cafe,PL21 9PS,50.388666414616400,-3.921317906900690
Stoke Bar and Grill,PL3 4DF,50.380522000000000,-4.166693000000000
The Stoke Cafe,PL3 4DL,50.380548623595900,-4.166174180868890
Sage the Cafe,PL3 4JN,50.385515235750100,-4.137899494142890
The Penguin Pub,PL3 5AA,50.382778646258300,-4.124286339604160
Creme de la Creme catering ,PL3 6FG,50.387875742100000,-4.110066673400000
Domino's Pizza,PL4 0AH,50.371816000000000,-4.133149000000000
Cafe Kiss,PL4 0BW,50.371383245653400,-4.133593480922800
Fuel Catering ,PL4 0DN,50.368978524776300,-4.134259036721260
The Marina Bar,PL4 0DN,50.368978524776300,-4.134259036721260
Bonnie's Brunch,PL4 0EG,50.369327132918600,-4.124065078417890
The Boston Tea Party Group Limited,PL4 0EX,50.368638996381300,-4.135115681120040
The Plymouth Stable,PL4 0EY,50.368677524921900,-4.134976784649210
Supha's Street Food Emporium,PL4 0HX,50.369005214260100,-4.130704000000000
ROCKFISH PLYMOUTH,PL4 0LB,50.366705259042200,-4.132414000000000
Waypoint Bar and Bistro Ltd,PL4 0LP,50.365012537571600,-4.127851797082770
Royal Western Yacht Club of England Ltd,PL4 0TW,50.364611415077200,-4.129127501833860
Starbucks ,PL4 6JH,50.382445205086700,-4.133653925092130
Subway Mutley Plain,PL4 6LF,50.383273723957300,-4.134577335798730
The Hyde Park,PL4 6LG,50.384181921654500,-4.134589989841420
The Caffeine Club,PL4 8AX,50.374153480915000,-4.137022892530540
Air,PL4 8LH,50.375275353234600,-4.136665446052140
Prime Cafe Bar,PL4 9AD,50.372454000000000,-4.135118000000000
Domino's Pizza,PL5 1TE,50.401933271512800,-4.185612486987240
HONEY'S COFFEE,PL5 1TE,50.401933271512800,-4.185612486987240
The Square Table Cafe,PL5 1TE,50.401933271512800,-4.185612486987240
West Park Chippy,PL5 2HG,50.412611794659900,-4.168199695825590
The Climbing Hangar Plymouth,PL5 3LX,50.403905093254300,-4.165858000000000
Brookside Social Club,PL5 3PQ,50.409299268863900,-4.156732370384280
porkies cafe,PL5 4DE,50.418238223466500,-4.149522625066690
HANDS2GETHER,PL6 5DS,50.415395965216200,-4.134178000000000
Plymouth Garden Centre,PL6 5NU,50.404936868293400,-4.118085793816010
The Prince Maurice,PL6 5RJ,50.400345606447700,-4.114855586031770
Future Inns Plymouth,PL6 5ZD,50.412475000000000,-4.124038000000000
The lockdown bar & grill ,PL6 6QW,50.429463675751200,-4.124038205442500
The Lopes Arms,PL6 7BD,50.442816193451700,-4.108438846591400
Becton Dickinson UK Ltd,PL6 7BP,50.441864000000000,-4.115368000000000
Plessey Semiconductors Ltd,PL6 7BQ,50.447467582135300,-4.110843056595750
The Dartmoor Diner ,PL6 7BQ,50.447467582135300,-4.110843056595750
Rittal CSM Limited,PL6 7EZ,50.445798570028100,-4.119529929384890
Hive Cafe,PL6 7FB,50.422515000000000,-4.098132000000000
Al's Catering Ltd,PL6 7PP,50.418172067606500,-4.096490523652230
Domino's Pizza,PL6 7RF,50.435383849133300,-4.109601247735690
The Woolwell Centre Cafe,PL6 7TR,50.435397302804300,-4.101405911751530
Costa Coffee,PL6 8DH,50.416718539531700,-4.113684510195770
Derriford Centre for Health & Wellbeing,PL6 8DH,50.416718539531700,-4.113684510195770
Fresh From Warrens,PL6 8DH,50.416718539531700,-4.113684510195770
Goodness at Greens,PL6 8DH,50.416718539531700,-4.113684510195770
Hotel ibis Plymouth,PL6 8LR,50.395411000000000,-4.094289397955000
The Windmill Plymouth Ltd,PL6 8QB,50.401264760366500,-4.094885794419450
The Brook Inn,PL7 1NJ,50.382479964344700,-4.046160965553060
JASMINS CAFE,PL7 2AA,50.387863889958100,-4.051471374452500
SHAPLA BALTI  Cuisine ,PL7 2AA,50.387863889958100,-4.051471374452500
W & H JONES CATERING LIMITED,PL7 2AA,50.387863889958100,-4.051471374452500
Mollieâ€™s Coffee shop,PL7 2AW,50.388028805970500,-4.052829042965880
The George Inn,PL7 2HJ,50.387502340932100,-4.049204000000000
Domino's Pizza,PL7 2XS,50.387257997837500,-4.024251000000000
Boringdon Hall Hotel,PL7 4DP,50.400936042193300,-4.054329620564230
Boringdon Park Golf Club,PL7 4QG,50.398051010789500,-4.067403651359750
The Treby Arms,PL7 5DD,50.403651812466900,-3.998620240066120
Dartmoor Zoological Park,PL7 5DG,50.409414783297700,-3.993514477273660
Elfordleigh Ltd,PL7 5EB,50.410595000000000,-4.049849000000000
The Moorland Hotel,PL7 5HP,50.439339823655200,-4.038571105258920
Foxhound Inn,PL8 2AH,50.351113853730800,-4.035576299232750
Otter Garden Centre,PL8 2BH,50.353052637250400,-4.049112609661110
The Morley Bar & Eatery,PL9 7HP,50.367275328832200,-4.105833218198670
The Elburton inn,PL9 8HX,50.360884591625700,-4.064480314901160
The Plymstock Inn,PL9 9BD,50.358988719025500,-4.086035867285500
The Boringdon Arms,PL9 9TQ,50.358460288064400,-4.117253027310880
The Bridge at Mount Batten,PL9 9XH,50.357975964825200,-4.122236000000000
Station House Hotel and Cafe Bar,TQ10 9BE,50.426872198590000,-3.833924187887210
The Turtley Corn Mill,TQ10 9ES,50.412866407883500,-3.836339008839210
Glazebrook House Hotel,TQ10 9JE,50.416679559949000,-3.846016202005900
CHURCH HOUSE INN,TQ10 9LD,50.440381000000000,-3.776057000000000
The Avon Inn,TQ10 9NB,50.410715485936000,-3.809457812360340
TIKKA'S TEA ROOMS & BISTRO,TQ11 0AA,50.481234455916900,-3.777531643400260
The Abbey Inn,TQ11 0EA,50.490207000000000,-3.777220000000000
Northgate House Hotel,TQ11 0EE,50.492920000000000,-3.775700000000000
The Grange Restaurant,TQ11 0EE,50.492920000000000,-3.775700000000000
The Tradesmans Arms,TQ11 0JB,50.502104215047100,-3.829195000000000
Pennywell Farm ,TQ11 0LT,50.466667288895600,-3.783805353738720
River Dart Country Park Ltd,TQ13 7NP,50.516521335337200,-3.788707000000000
The Rugglestone Inn Ltd,TQ13 7TF,50.570302760237800,-3.806570436699650
