name,postcode,lat,lon
Ice seal and cayman,DT5 1AA,50.560542724397600,-2.445478380523530
Kākāriki and Ice seal,DT5 1AE,50.560566728067400,-2.446467000000000
horned toad and gaboon viper,DT5 1BE,50.568039475798700,-2.444010011111170
adder and Masked owl,DT5 1EH,50.562333071335100,-2.445283491860840
python and cobra,DT5 1EX,50.565020655228100,-2.440903629370520
American sparrow and Herring gull,DT5 1FX,50.558205000000000,-2.440244000000000
box turtle and Greenbul,DT5 1HL,50.545737866579700,-2.434217367168170
Francolin and Rabbit,DT5 1HT,50.539870068747200,-2.430550852271370
terrapin and Mole,DT5 1JD,50.546528895024800,-2.431895872324740
sea snake and Vulture,DT5 1JR,50.559345525589000,-2.443420043464910
Jay and galliwasp,DT5 2AQ,50.539825533095300,-2.451788589524530
sea snake and Solitaire,DT5 2BB,50.543502387472800,-2.440392353704740
Komodo dragon and New World blackbird,DT5 2BJ,50.543981554819800,-2.437334306310790
Linsang and Scimitar babbler,DT5 2BW,50.529134690456900,-2.446649681360570
Lemming and Gull,DT5 2DB,50.541615813395400,-2.444608450876200
Cuscus and diamond python,DT5 2DE,50.540440175553400,-2.446178000000000
Old World quail and Mamo,DT5 2DW,50.533937583042000,-2.448825663473940
cayman and smooth snake,DT5 2EG,50.531474466987000,-2.436752995723030
hawksbill and Goose,DT5 2FA,50.544341589903200,-2.436293572184680
Grosbeak and hoop snake,DT5 2HB,50.541136835351600,-2.447567489275230
Gull and blindworm,DT5 2HN,50.541429261801900,-2.446356609064500
bearded dragon and blue racer,DT5 2HX,50.541256134574500,-2.451604694764210
Shearwater and Kestrel,DT5 2JF,50.540194636846600,-2.449364881877390
thorn lizard and puff adder,DT5 2JL,50.533803454415300,-2.448626851036100
deaf adder and Parakeet,DT5 2LE,50.542346457874600,-2.441665817143890
cycling lizard and chameleon,DT5 2LN,50.550102898893900,-2.445210560292010
cayman and loggerhead,DT5 2NT,50.529271000000000,-2.451363000000000
White ibis and racer,DT5 9AT,50.550518000000000,-2.444590000000000
