name,postcode,lat,lon
Salty Dog,EX7 0JL,50.5630,-3.4754
The Smugglers Inn,EX7 0LA,50.5708,-3.4737
The Castle Inn ,EX7 0LF,50.5658,-3.4802
The Old Java Coffee House,TQ14 8AJ,50.5460,-3.4959
Costa Coffee,TQ14 8AL,50.5462,-3.4963
Jurassic Coast Coffee Ltd t/a Costa Coffee Ltd Teignmouth,TQ14 8AL,50.5462,-3.4967
The View Bar & Cafe,TQ14 8BD,50.5450,-3.4946
Riviera Tea Rooms,TQ14 8BQ,50.5450,-3.4962
The Ship Inn,TQ14 8BY,50.5444,-3.4982
Oystercatcher's Cafe,TQ14 8DD,50.5451,-3.4978
Ye Olde Jolly sailor,TQ14 8DE,50.5454,-3.4982
The Owl & The Pussycat Restaurant,TQ14 8EA,50.5464,-3.4979
Naz Indian cuisine ,TQ14 8EN,50.5462,-3.4976
Finley Browns Cafe,TQ14 8FN,50.5464,-3.4970
coasters,TQ14 8FP,50.5463,-3.4947
SUBWAY,TQ14 8HW,50.5465,-3.4955
The Jolie Brise Teignmouth (Wetherspoon),TQ14 8PE,50.5471,-3.4946
Tradewinds Restaurant (Teignmouth)ltd,TQ14 8PE,50.5472,-3.4943
East Cliff Cafe,TQ14 8SH,50.5484,-3.4909
REGENCY TEA ROOM & DELICATESSEN,TQ14 8SJ,50.5469,-3.4936
Seaview Diner ,TQ14 8SJ,50.5469,-3.4936
Finn McCools,TQ14 8SX,50.5469,-3.4928
Cliffden Hotel,TQ14 8TE,50.5509,-3.4921
Berry Head Hotel,TQ5 9AJ,50.4008,-3.4958
The Guardhouse Cafe,TQ5 9AW,50.3995,-3.4835
Landscove Holiday Park,TQ5 9EP,50.3938,-3.4972
