name,postcode,lat,lon
Salty Dog,EX7 0JL,50.5628,-3.4760
The Smugglers Inn,EX7 0LA,50.5708,-3.4737
The Castle Inn ,EX7 0LF,50.5657,-3.4802
Mama's Dessert Kitchen,TQ1 1BG,50.4633,-3.5257
Legends at Steps Restaurant ,TQ1 1BX,50.4625,-3.5253
Toccos,TQ1 1DB,50.4633,-3.5263
CHINA TANG RESTAURANT,TQ1 1DT,50.4617,-3.5209
EPHESUS RESTAURANT ,TQ1 1DT,50.4617,-3.5209
Smokey Joes,TQ1 1DT,50.4617,-3.5209
the shack,TQ1 1DT,50.4617,-3.5209
Griffin Bar - Yardley Manor Hotel,TQ1 1DW,50.4628,-3.5206
JUNJAOW THAI,TQ1 1DZ,50.4614,-3.5207
simla spice ,TQ1 1DZ,50.4614,-3.5207
BIANCO'S RESTAURANT,TQ1 1EB,50.4615,-3.5221
AMICI RESTAURANT,TQ1 1ED,50.4611,-3.5224
Daisy's,TQ1 1HN,50.4642,-3.5133
Tusker Lodge,TQ1 1HQ,50.4624,-3.5188
Ewings,TQ1 2AA,50.4616,-3.5244
Hole in the Wall,TQ1 2AU,50.4605,-3.5231
Burridges Tearooms,TQ1 2BB,50.4604,-3.5237
JACKS WATERFRONT,TQ1 2BB,50.4604,-3.5237
ROCKFISH TORQUAY,TQ1 2BB,50.4604,-3.5237
Salt and pepper,TQ1 2BB,50.4604,-3.5237
Saltwater Fish & Chips,TQ1 2BB,50.4604,-3.5237
Subway,TQ1 2BB,50.4604,-3.5237
Chandlers Chippy ,TQ1 2BD,50.4593,-3.5245
Below Decks,TQ1 2BG,50.4580,-3.5249
No 7 Fish Bistro,TQ1 2BH,50.4585,-3.5244
Royal Torbay Yacht Club,TQ1 2BH,50.4585,-3.5244
The Elephant Restaurant by Simon Hulstone,TQ1 2BH,50.4585,-3.5244
the headland hotel,TQ1 2EF,50.4566,-3.5134
Kents Cavern Limited,TQ1 2JF,50.4678,-3.5041
Me and Mrs Jones Deli,TQ1 2JG,50.4669,-3.5061
The Kents,TQ1 2JG,50.4669,-3.5061
the waddling duck bistro,TQ1 2JG,50.4669,-3.5061
Lincombe Hall Hotel,TQ1 2JX,50.4602,-3.5167
THE OSBORNE HOTEL,TQ1 2LL,50.4582,-3.5096
Meadfoot Bay Hotel,TQ1 2LQ,50.4590,-3.5135
OLD SKOOLS CAFE AND BAR LIMITED,TQ1 3AQ,50.4671,-3.5282
BRODYS GRILL,TQ1 3DW,50.4679,-3.5312
coopers coffee house,TQ1 3DW,50.4679,-3.5312
Domino's Pizza,TQ1 3HW,50.4775,-3.5266
Cliff Railway Cafe,TQ1 3LF,50.4805,-3.5178
The Babbacombe Hotel,TQ1 3LH,50.4798,-3.5155
Babbacombe Bay Cafe,TQ1 3LN,50.4793,-3.5140
The Buccaneer Inn,TQ1 3LN,50.4793,-3.5140
Hamiltons,TQ1 3LP,50.4785,-3.5131
The Babbacombe Inn,TQ1 3LP,50.4785,-3.5131
Royal Hotel and Carvery,TQ1 3LQ,50.4796,-3.5146
The Cary Arms Inn,TQ1 3LX,50.4782,-3.5094
Himalaya restaurant ,TQ1 3NT,50.4782,-3.5158
Labrows Bistro Bar,TQ1 3NT,50.4782,-3.5158
Margo's cafe,TQ1 3NT,50.4782,-3.5158
Trecarn Hotel,TQ1 3NW,50.4787,-3.5195
Anchorage Hotel,TQ1 3PT,50.4771,-3.5213
The Coffee Bean,TQ1 3SR,50.4780,-3.5146
Tubers Treats,TQ1 4EX,50.4791,-3.5377
Driftwood Cafe ,TQ1 4PU,50.4828,-3.5234
Silver Goose Cafe,TQ1 4PU,50.4828,-3.5234
L&S Catering,TQ1 4QF,50.4857,-3.5195
Orestone Manor Hotel and Restaurant ,TQ1 4SX,50.5018,-3.5196
Bamboo sandwich & coffee bar,TQ1 4TY,50.4817,-3.5234
McDonald's Restaurant Newton Abbot ,TQ12 1BN,50.5232,-3.5937
The Green Room NA Ltd,TQ12 1GJ,50.5287,-3.6078
The Clock Tower Coffee shop ,TQ12 1JJ,50.5295,-3.6128
Meat59 (Newton Abbot) Limited,TQ12 1JR,50.5292,-3.6126
Twelve Twenty,TQ12 1JR,50.5292,-3.6126
The Highweek Village Inn,TQ12 1QA,50.5368,-3.6276
Lemon Jelli Bistro LTD,TQ12 2AQ,50.5310,-3.6082
Naz,TQ12 2BG,50.5311,-3.6044
Domino's Pizza,TQ12 2BN,50.5310,-3.6021
RC AUSTIN LTD,TQ12 2DU,50.5295,-3.6119
Eastern Eye (Newton Abbot) Limited,TQ12 2EU,50.5307,-3.6023
Jackson Ltd,TQ12 2EW,50.5306,-3.6070
The Pharmacy coffee shop,TQ12 2EW,50.5306,-3.6070
The Pizza Cafe,TQ12 2EW,50.5306,-3.6070
Teign Cellars,TQ12 2JR,50.5291,-3.6088
The Country Table Cafe Limited,TQ12 2JW,50.5301,-3.6121
The Express Pasta Company,TQ12 2JW,50.5301,-3.6121
No Limits Community Cafe & Hub,TQ12 2QX,50.5311,-3.6097
the golden lion,TQ12 2RB,50.5305,-3.6122
the jolly farmer,TQ12 2RB,50.5305,-3.6122
Bouzayen (Newton Abbot) LLP ta the Owl & The Pussycat Coffee House,TQ12 2RJ,50.5307,-3.6126
The Bay Tree,TQ12 2RJ,50.5307,-3.6126
The Market Gate,TQ12 2RJ,50.5307,-3.6126
Yhe Cheeky Cherry Cafe,TQ12 2RJ,50.5307,-3.6126
Mr Biscuits,TQ12 2RX,50.5308,-3.6111
SUBWAY,TQ12 2RX,50.5308,-3.6111
The Other Cup,TQ12 2RX,50.5308,-3.6111
The Bell Inn,TQ12 3AX,50.5464,-3.5928
The Ten Tors Inn,TQ12 3NP,50.5608,-3.5979
Sandygate Inn,TQ12 3PU,50.5609,-3.6001
The Old Rydon Inn,TQ12 3QG,50.5542,-3.5931
Passage House Inn,TQ12 3QH,50.5429,-3.5885
iBounce Newton Abbot Ltd,TQ12 4SG,50.5236,-3.5754
The Barn Owl Inn,TQ12 5AN,50.5095,-3.5847
Hare & Hounds,TQ12 5HH,50.4926,-3.5759
Bickley Mill Inn,TQ12 5LN,50.4917,-3.6022
Court Farm Inn,TQ12 5NY,50.5075,-3.6140
The Oak Room Restaurant at Dainton Park,TQ12 5TN,50.4926,-3.6279
Two Mile Oak Inn ,TQ12 6DF,50.5006,-3.6269
Cafe Vanilla at Burnham Nurseries,TQ12 6PZ,50.5471,-3.6359
A W & A R GALE,TQ12 6QT,50.5513,-3.6232
The Bucket and Spade,TQ14 0BG,50.5351,-3.5032
The Clipper Cafe,TQ14 0DL,50.5405,-3.5049
The Old Java Coffee House,TQ14 8AJ,50.5460,-3.4959
Jurassic Coast Coffee Ltd t/a Costa Coffee Ltd Teignmouth,TQ14 8AL,50.5460,-3.4966
The Lemon Tree Cafe Bar,TQ14 8AU,50.5463,-3.4941
The View Bar & Cafe,TQ14 8BD,50.5450,-3.4946
Riviera Tea Rooms,TQ14 8BQ,50.5450,-3.4962
The Ship Inn,TQ14 8BY,50.5444,-3.4982
Oystercatcher's Cafe,TQ14 8DD,50.5455,-3.4976
Ye Olde Jolly sailor,TQ14 8DE,50.5454,-3.4981
The Owl & The Pussycat Restaurant,TQ14 8EA,50.5464,-3.4979
Finley Browns Cafe,TQ14 8FN,50.5464,-3.4970
SUBWAY,TQ14 8HW,50.5465,-3.4955
Tradewinds Restaurant (Teignmouth)ltd,TQ14 8PE,50.5472,-3.4943
Whistlestop cafe,TQ14 8PG,50.5483,-3.4947
East Cliff Cafe,TQ14 8SH,50.5484,-3.4909
REGENCY TEA ROOM & DELICATESSEN,TQ14 8SJ,50.5469,-3.4936
Seaview Diner ,TQ14 8SJ,50.5469,-3.4936
Finn McCools,TQ14 8SX,50.5469,-3.4928
Cliffden Hotel,TQ14 8TE,50.5498,-3.4927
Pow Wow Cafe Shop,TQ14 9AG,50.5478,-3.5135
Teignmouth Golf Club Limited,TQ14 9NY,50.5657,-3.5283
Otter Garden Centre,TQ14 9PN,50.5485,-3.5396
Old Walls Vineyard & Luxury Lodges,TQ14 9PQ,50.5560,-3.5354
Cockhaven Arms,TQ14 9RF,50.5510,-3.5413
The Purpletree Guest House,TQ2 5BZ,50.4722,-3.5430
THYME OUT TORBAY C.I.C.,TQ2 5DJ,50.4647,-3.5271
Kalipso artisan coffee & food,TQ2 5DW,50.4641,-3.5269
SUBWAY,TQ2 5DW,50.4641,-3.5269
Domino's Pizza,TQ2 5DZ,50.4622,-3.5260
Starbucks Torquay Fleetwalk,TQ2 5EB,50.4629,-3.5263
Offshore Bar & Restaurant,TQ2 5EG,50.4614,-3.5255
Shiraz,TQ2 5EG,50.4614,-3.5255
VAUGHANS BAR,TQ2 5EG,50.4614,-3.5255
Rock Garden,TQ2 5ES,50.4639,-3.5269
BISTROT PIERRE - TORQUAY,TQ2 5FB,50.4634,-3.5336
Jurassic Coast Coffee Ltd t/a Costa Coffee Abbey Sands,TQ2 5FB,50.4634,-3.5336
BELGRAVE SANDS HOTEL & SPA,TQ2 5HF,50.4642,-3.5359
Abbey Sands Hotel ,TQ2 5HG,50.4648,-3.5370
Riviera Hotel,TQ2 5HJ,50.4662,-3.5374
The Alberts Pub,TQ2 5HL,50.4660,-3.5385
Victoria Hotel Restaurant,TQ2 5HL,50.4660,-3.5385
Aztec Bistro,TQ2 5HS,50.4671,-3.5392
Derwent Hotel Restaurant,TQ2 5HS,50.4671,-3.5392
Carlton Hotel Restaurant,TQ2 5JJ,50.4666,-3.5400
Nethway Hotel,TQ2 5JR,50.4659,-3.5410
Aztec Games,TQ2 5JS,50.4656,-3.5407
Toorak Hotel Restaurant,TQ2 5JS,50.4656,-3.5407
Small World Restaurant and Tapas Bar,TQ2 5NF,50.4654,-3.5280
Meat59 Limited,TQ2 5NQ,50.4656,-3.5295
Green Leaf Cafe,TQ2 5PW,50.4659,-3.5287
McDonald's Restaurant Torquay ,TQ2 5PY,50.4672,-3.5306
SUBWAY,TQ2 5QW,50.4686,-3.5332
Applebys Torquay,TQ2 5TY,50.4642,-3.5337
Crofton House Hotel,TQ2 5TZ,50.4670,-3.5363
Raffles 2 ltd,TQ2 5UJ,50.4674,-3.5377
Chelston Manor,TQ2 6HW,50.4633,-3.5471
The Grand Hotel ,TQ2 6NT,50.4601,-3.5420
Livermead House Hotel,TQ2 6QJ,50.4575,-3.5441
Livermead Cliff Hotel,TQ2 6RQ,50.4545,-3.5457
Seven Dials Cafe,TQ2 6XA,50.4633,-3.5594
The Devon Dumpling,TQ2 7BY,50.4785,-3.5616
McDonald's Restaurant Torquay ,TQ2 7PY,50.4832,-3.5480
DAVANT BIKES LIMITED,TQ2 7QL,50.4847,-3.5479
Ye Olde Smokey House,TQ3 1NN,50.4540,-3.5929
The Church House Inn at Marldon,TQ3 1SL,50.4611,-3.5982
Otter Garden Centre,TQ3 1SY,50.4783,-3.5875
Four Seasons Cafe,TQ3 2EP,50.4471,-3.5593
Domino's Pizza,TQ3 2EU,50.4464,-3.5595
Bright Bean,TQ3 2EY,50.4463,-3.5602
The Happy Barista ,TQ3 2HP,50.4442,-3.5631
the boathouse,TQ3 2NJ,50.4411,-3.5592
Channel View Hotel,TQ3 2NU,50.4461,-3.5558
The London Fryer Limited,TQ3 2NY,50.4466,-3.5582
the old manor,TQ3 2QZ,50.4452,-3.5627
EAST IN THE WEST,TQ3 2SE,50.4385,-3.5679
Holmans Courtyard Cafe and Juice Bar,TQ3 3AD,50.4364,-3.5675
GAIA COFFEE,TQ3 3BN,50.4336,-3.5723
HAMMONDS CAFE,TQ3 3BW,50.4348,-3.5719
Lily’s tea rooms and restaurant,TQ3 3DU,50.4364,-3.5679
Cafe du palais,TQ3 3EQ,50.4357,-3.5696
Beyond Escapes (trading as 800 Club),TQ3 3FZ,50.4371,-3.5862
The Avenue Bistro,TQ3 3HA,50.4354,-3.5686
Siam Garden,TQ3 3HB,50.4350,-3.5693
caffe cosi ltd,TQ4 5AG,50.4339,-3.5659
 Karens Cafe,TQ4 5BP,50.4368,-3.5654
Dragon Pearl Chinese Restaurant,TQ4 5BP,50.4368,-3.5654
Torbay Leisure Centre,TQ4 5JR,50.4246,-3.5652
SUBWAY,TQ4 6AA,50.4356,-3.5634
Our Katie's Tea and Coffee House,TQ4 6AD,50.4356,-3.5627
Mediterraneo,TQ4 6AF,50.4351,-3.5635
chandlers,TQ4 6AF,50.4351,-3.5635
Shoreline,TQ4 6AG,50.4354,-3.5598
Caffe Tutto,TQ4 6AJ,50.4356,-3.5618
HENRYS BAR,TQ4 6AJ,50.4356,-3.5618
T&M Grand Central ltd,TQ4 6AJ,50.4356,-3.5618
FACTORY,TQ4 6AL,50.4350,-3.5616
queens hotel,TQ4 6AT,50.4335,-3.5627
Hyde Dendy,TQ4 6BD,50.4359,-3.5609
The Spinning Wheel Inn,TQ4 6BE,50.4363,-3.5609
the palace hotel paignton ltd,TQ4 6BJ,50.4385,-3.5610
Cantina Kitchen and Bar,TQ4 6BU,50.4281,-3.5626
TJ's Restaurant,TQ4 6DL,50.4311,-3.5571
Harbour Inn,TQ4 6DS,50.4323,-3.5584
THE CABIN CAFE/BAR,TQ4 6DT,50.4316,-3.5564
Harbour Light ,TQ4 6DU,50.4328,-3.5581
Squires of Churston,TQ4 6LE,50.4031,-3.5649
SPLASHDOWN QUAYWEST,TQ4 6LN,50.4244,-3.5605
Cattlemans Steakhouse,TQ4 7DE,50.4290,-3.5985
the noahs ark,TQ4 7HB,50.4289,-3.5877
The Jetty,TQ4 7JE,50.4132,-3.5680
HOBURNE DEVON BAY,TQ4 7JP,50.4202,-3.5677
McDonald's Restaurant Paignton,TQ4 7PE,50.4203,-3.5977
Blagdon Inn (Devon Hills ),TQ4 7PW,50.4290,-3.6045
Sunshine Cafe,TQ4 7QL,50.4227,-3.5915
Churston Golf Club,TQ5 0LA,50.3977,-3.5572
Lupton House,TQ5 0LD,50.3902,-3.5449
The Railway Inn,TQ5 0LL,50.3963,-3.5560
The Manor Inn Galmpton,TQ5 0NL,50.3960,-3.5649
Ella's Tea Rooms and Chocolate Emporium,TQ5 8AA,50.3944,-3.5145
The West Country Deli,TQ5 8AA,50.3944,-3.5145
Baltinight Indian restaurant ,TQ5 8AG,50.3952,-3.5132
The Blue Anchor,TQ5 8AH,50.3958,-3.5124
ROCKFISH BRIXHAM,TQ5 8AJ,50.3959,-3.5122
brixham yacht club,TQ5 8AR,50.3982,-3.5133
Brixham Fish Restaurant,TQ5 8AW,50.3973,-3.5131
Old Market House ,TQ5 8AW,50.3973,-3.5131
Quay 57 Restaurant Ltd,TQ5 8AW,50.3973,-3.5131
Shipmates ,TQ5 8AW,50.3973,-3.5131
The Bay Coffee Company,TQ5 8AW,50.3973,-3.5131
The Harbour Diner,TQ5 8AW,50.3973,-3.5131
beamers restaurant,TQ5 8AW,50.3973,-3.5131
The ChartRoom,TQ5 8DZ,50.3952,-3.5136
Simply Fish,TQ5 8EF,50.3958,-3.5127
Nick’s fish bar ,TQ5 8EH,50.3960,-3.5131
The Bullers Arms,TQ5 8EH,50.3960,-3.5131
Crafty Cwtch,TQ5 8EJ,50.3960,-3.5139
Noi's Oriental Kitchen,TQ5 8EJ,50.3960,-3.5139
Port espresso ,TQ5 8ER,50.3953,-3.5153
The Curious Kitchen,TQ5 8ER,50.3953,-3.5153
The Wine Loft,TQ5 8ER,50.3953,-3.5153
Miguel's,TQ5 8JL,50.3958,-3.5130
Bay Leisure,TQ5 8RB,50.4008,-3.5220
shoals restaurant on the lido,TQ5 9AF,50.3991,-3.5055
Berry Head Hotel,TQ5 9AJ,50.4008,-3.4957
The Guardhouse Cafe,TQ5 9AW,50.3988,-3.4880
The Larder,TQ5 9BZ,50.3930,-3.5157
Landscove Holiday Park,TQ5 9EP,50.3938,-3.4971
The Burton Brixham,TQ5 9HZ,50.3897,-3.5161
Chefs corner,TQ5 9QW,50.3833,-3.5116
Hennessey Cocktail Lounge,TQ5 9TF,50.3959,-3.5122
Ernie Lister Bar,TQ5 9TJ,50.3961,-3.5111
Quayside Hotel Restaurant,TQ5 9TJ,50.3961,-3.5111
Kendricks Restaurant,TQ6 9AB,50.3508,-3.5780
Skippers(Dartmouth)Ltd,TQ6 9AD,50.3507,-3.5784
Wheelhouse Restaurant & Takeaway,TQ6 9AD,50.3507,-3.5784
bula lifestyle ,TQ6 9AF,50.3502,-3.5786
ROCKFISH DARTMOUTH,TQ6 9BH,50.3508,-3.5776
The Crab and Bucket,TQ6 9BH,50.3508,-3.5776
The Floating Bridge ,TQ6 9PQ,50.3561,-3.5784
Royal Castle Hotel,TQ6 9PS,50.3513,-3.5785
Salcombe Dairy UK Ltd,TQ6 9PS,50.3513,-3.5785
Dartmouth Bakery t/a The Sloping Deck Restaurant,TQ6 9PZ,50.3519,-3.5791
The Market House,TQ6 9QE,50.3520,-3.5800
the dolphin,TQ6 9QE,50.3520,-3.5800
Singing kettle tea shoppe,TQ6 9QR,50.3507,-3.5791
Smith Street Deli,TQ6 9QR,50.3507,-3.5791
The Seven Stars,TQ6 9QR,50.3507,-3.5791
The Cherub Inn,TQ6 9RB,50.3505,-3.5786
Browns,TQ6 9RT,50.3512,-3.5809
DARTMOUTH & DISTRICT CONSERVATIVE CLUB,TQ6 9SA,50.3513,-3.5817
Dart to Mouth Deli,TQ6 9SE,50.3517,-3.5802
Old Market Cafe,TQ6 9SE,50.3517,-3.5802
The River Shack,TQ9 6RD,50.4015,-3.6232
Church House Inn,TQ9 6SD,50.4032,-3.6211
