name,id,postcode,lat,lon
Scimitar babbler and Treepie,970926,KW1 5EU,58.439996389525500,-3.088347902576440
amphisbaena and hognose snake,971618,KW1 4DQ,58.446684247640600,-3.097206426634700
glass snake and elapid,971408,KW1 5BN,58.432244857958500,-3.088365490627740
viper and box turtle,971049,KW1 5NG,58.434030304975600,-3.095973375681570
death adder and sand viper,971252,KW1 4NT,58.443146858084300,-3.089661487710070
Greenbul and taipan,971134,KW1 4HF,58.445101921163900,-3.090013183142580
Grosbeak and Tahr,971102,KW1 5TT,58.389775078536100,-3.132247827371940
gavial and Partridge,971298,KW1 4SA,58.476351936511400,-3.149452488956770
cobra de capello and blindworm,971084,KW1 5SS,58.441071165133000,-3.119985763182450
green turtle and Bunting,971616,KW1 4DN,58.449046644644400,-3.095086872460920
dugite and Buzzard,971057,KW1 5NS,58.441343590350800,-3.095738276267500
Wader and Night heron,971297,KW1 4RZ,58.454483343435600,-3.057435000000000
asp and black snake,971236,KW1 4LR,58.442767679380200,-3.089889593347830
Black cockatoo and tortoise,971041,KW1 5LW,58.440985718300600,-3.099769793514650
cerastes and deaf adder,2143264,KW1 5TJ,58.430080000000000,-3.085582000000000
dugite and cayman,971031,KW1 5LH,58.439525704727000,-3.098251131404680
Magpie and taipan,971085,KW1 5ST,58.442371038816600,-3.134570947959680
Gull and Marmoset,971145,KW1 4HU,58.445353628882700,-3.084692935419290
death adder and mud turtle,971075,KW1 5QW,58.435822353911300,-3.088047758287610
Ice seal and snapping turtle,971045,KW1 5NB,58.436112927739500,-3.099258090331180
