id,postcode,lat,lon
PPL,GREASBROUGH,53.4567,-1.3738
PPL,GREASBY,53.3730,-3.1233
PPL,GREASLEY,53.0204,-1.2719
ADM4,GREATABINGTON,52.1049,0.2257
PPL,GREATADDINGTON,52.3656,-0.5936
PPL,GREATALNE,52.2311,-1.8345
PPL,GREATALTCAR,53.5494,-3.0171
PPL,GREATAMWELL,51.7901,-0.0167
ADM4,GREATANDLITTLEBROUGHTON,54.4487,-1.1496
ADM4,GREATANDLITTLECHISHILL,52.0374,0.0653
ADM4,GREATANDLITTLEHAMPDEN,51.7126,-0.7755
ADM4,GREATANDLITTLEKIMBLECUMMARSH,51.7568,-0.8218
ADM4,GREATANDLITTLELEIGHS,51.8205,0.4980
ADM4,GREATANDLITTLEPLUMSTEAD,52.6476,1.3904
ADM3,GREATANDLITTLEPRESTON,53.7598,-1.3984
ADM4,GREATANDLITTLEWIGBOROUGH,51.7948,0.8475
PPL,GREATASBY,54.5145,-2.4910
PPL,GREATASHFIELD,52.2719,0.9240
ADM3,GREATAYCLIFFE,54.6133,-1.5660
PPL,GREATAYTON,54.4915,-1.1362
PPL,GREATBADDOW,51.7184,0.4995
PPL,GREATBARDFIELD,51.9481,0.4365
PPL,GREATBARFORD,52.1579,-0.3523
PPL,GREATBARR,52.5459,-1.9333
PPL,GREATBARRINGTON,51.8214,-1.6986
PPL,GREATBARROW,53.2107,-2.7947
PPL,GREATBARTON,52.2726,0.7668
ADM4,GREATBEALINGS,52.0927,1.2625
PPLA3,GREATBEDWYN,51.3795,-1.6015
PPL,GREATBENTLEY,51.8533,1.0638
PPL,GREATBILLING,52.2619,-0.8138
ADM3,GREATBILLINGTON,51.8953,-0.6381
PPL,GREATBIRCHAM,52.8627,0.6312
PPL,GREATBLAKENHAM,52.1139,1.0925
PPL,GREATBLENCOW,54.6832,-2.8439
PPL,GREATBOLAS,52.7891,-2.5223
PPL,GREATBOOKHAM,51.2792,-0.3742
ADM3,GREATBOUGHTON,53.1900,-2.8560
PPL,GREATBOWDEN,52.4924,-0.9048
ADM4,GREATBRADLEY,52.1551,0.4502
PPL,GREATBRAXTED,51.7953,0.6990
PPL,GREATBRICETT,52.1158,0.9782
PPL,GREATBRICKHILL,51.9662,-0.6875
PPL,GREATBRIDGEFORD,52.8406,-2.1732
PPL,GREATBRINGTON,52.2785,-1.0247
PPL,GREATBROMLEY,51.8833,1.0333
PPL,GREATBROUGHTON,54.4476,-1.1569
PPL,GREATBUDWORTH,53.2931,-2.5063
ADM3,GREATBURDON,54.5390,-1.5065
PPL,GREATBURSTEAD,51.6030,0.4448
ADM4,GREATBURSTEADANDSOUTHGREEN,51.6068,0.4388
ADM4,GREATBUSBY,54.4400,-1.2002
PPL,GREATCANFIELD,51.8382,0.3165
PPL,GREATCARLTON,53.3449,0.1191
ADM3,GREATCASTERTON,52.6842,-0.5269
PPL,GREATCHART,51.1455,0.8311
ADM4,GREATCHARTWITHSINGLETON,51.1384,0.8191
PPL,GREATCHATWELL,52.7270,-2.3076
PPL,GREATCHESTERFORD,52.0643,0.1972
PPL,GREATCHEVERELL,51.2878,-2.0269
PPL,GREATCHISHILL,52.0297,0.0719
PPL,GREATCLACTON,51.8046,1.1547
PPL,GREATCLIFTON,54.6517,-3.4897
PPLA3,GREATCOATES,53.5707,-0.1391
PPL,GREATCOMBERTON,52.0780,-2.0669
PPL,GREATCORBY,54.8817,-2.8245
PPL,GREATCORNARD,52.0307,0.7581
PPL,GREATCOWDEN,53.8655,-0.1348
ADM4,GREATCOXWELL,51.6461,-1.6113
PPL,GREATCREATON,52.3333,-0.9500
PPL,GREATCRESSINGHAM,52.5820,0.7318
PPL,GREATCROSBY,53.4905,-3.0308
PPL,GREATCUBLEY,52.9403,-1.7579
PPL,GREATDALBY,52.7229,-0.9003
ADM3,GREATDAWLEY,52.6642,-2.4614
ADM3,GREATDENHAM,52.1278,-0.5106
PPL,GREATDODDINGTON,52.2743,-0.7086
PPL,GREATDODFORD,52.3561,-2.1008
PPL,GREATDUNHAM,52.6957,0.7691
PPL,GREATDUNMOW,51.8723,0.3625
PPL,GREATEASTON,52.5281,-0.7504
PPL,GREATECCLESTON,53.8531,-2.8703
PPL,GREATEDSTON,54.2333,-0.9167
PPL,GREATELLINGHAM,52.5368,0.9741
PPL,GREATELM,51.2416,-2.3633
ADM2,GREATERLONDON,51.5000,-0.1667
ADM3,GREATERWILLINGTON,54.7194,-1.6845
PPL,GREATEVERDON,52.2000,-1.1333
PPL,GREATEVERSDEN,52.1629,-0.0086
ADM4,GREATFARINGDON,51.6684,-1.5931
PPL,GREATFINBOROUGH,52.1807,0.9430
PPL,GREATFORD,52.6946,-0.3948
PPL,GREATFRANSHAM,52.6852,0.8051
PPL,GREATGADDESDEN,51.7914,-0.5051
PPL,GREATGIDDING,52.4333,-0.3587
PPL,GREATGIVENDALE,53.9667,-0.7667
PPL,GREATGLEMHAM,52.2045,1.4245
PPL,GREATGLEN,52.5755,-1.0349
PPL,GREATGONERBY,52.9351,-0.6669
PPL,GREATGRANSDEN,52.1855,-0.1457
PPLA4,GREATHABTON,54.1784,-0.8417
PPL,GREATHALE,52.9715,-0.2901
PPL,GREATHALLINGBURY,51.8559,0.1981
PPLA3,GREATHAM,54.6418,-1.2381
PPL,GREATHAMPDEN,51.7116,-0.7670
PPLA3,GREATHANWOOD,52.6833,-2.8167
ADM4,GREATHARROWDEN,52.3272,-0.7146
PPL,GREATHARWOOD,53.7851,-2.4087
PPL,GREATHASELEY,51.7118,-1.0738
PPL,GREATHAYWOOD,52.8079,-2.0002
PPL,GREATHECK,53.6822,-1.1043
ADM4,GREATHENNY,52.0076,0.7217
ADM3,GREATHINTON,51.3305,-2.1427
PPL,GREATHOLLAND,51.8282,1.2096
PPL,GREATHOLLANDS,51.3986,-0.7712
PPL,GREATHORKESLEY,51.9382,0.8755
PPL,GREATHORMEAD,51.9509,0.0383
PPL,GREATHORWOOD,51.9735,-0.8809
PPLA3,GREATHOUGHTON,53.5535,-1.3495
ADM4,GREATHUCKLOW,53.2950,-1.7429
PPL,GREATKIMBLE,51.7474,-0.8095
PPL,GREATKINGSHILL,51.6746,-0.7250
PPL,GREATLANGTON,54.3625,-1.5479
PPL,GREATLEIGHS,51.8276,0.5064
PPL,GREATLIMBER,53.5623,-0.2913
PPL,GREATLINFORD,52.0656,-0.7591
PPL,GREATLIVERMERE,52.3063,0.7668
PPL,GREATLONGSTONE,53.2417,-1.7017
PPL,GREATLUMLEY,54.8353,-1.5404
PPL,GREATMALVERN,52.1116,-2.3251
PPL,GREATMAPLESTEAD,51.9789,0.6298
ADM4,GREATMARLOW,51.5861,-0.8048
PPL,GREATMARTON,53.8118,-3.0226
PPL,GREATMASSINGHAM,52.7754,0.6637
ADM4,GREATMELTON,52.6140,1.1507
PPL,GREATMEOLS,53.4057,-3.1534
PPL,GREATMILTON,51.7203,-1.0895
PPL,GREATMISSENDEN,51.7042,-0.7080
PPL,GREATMITTON,53.8461,-2.4351
PPL,GREATMONGEHAM,51.2134,1.3577
ADM4,GREATMOULTON,52.4694,1.1956
PPLA4,GREATMUNDEN,51.8997,-0.0394
PPL,GREATMUSGRAVE,54.5142,-2.3600
PPLA3,GREATNESS,52.7638,-2.8915
ADM4,GREATNOTLEY,51.8599,0.5239
PPL,GREATOAKLEY,51.9031,1.1881
PPL,GREATOFFLEY,51.9275,-0.3357
PPL,GREATORMSIDE,54.5500,-2.4636
PPL,GREATORTON,54.8765,-3.0482
PPL,GREATOUSEBURN,54.0500,-1.3167
PPL,GREATOXENDON,52.4429,-0.9185
PPL,GREATPACKINGTON,52.4500,-1.6500
PPL,GREATPALGRAVE,52.6667,0.7333
PPL,GREATPARNDON,51.7536,0.0736
PPL,GREATPAXTON,52.2606,-0.2282
PPL,GREATPLUMSTEAD,52.6377,1.3991
PPL,GREATPONTON,52.8633,-0.6278
ADM4,GREATRIBSTONWITHWALSHFORD,53.9831,-1.3821
PPL,GREATRISSINGTON,51.8539,-1.7112
PPL,GREATROLLRIGHT,51.9759,-1.5286
PPL,GREATROWSLEY,53.1833,-1.6167
PPL,GREATRYBURGH,52.8082,0.9010
PPL,GREATSALING,51.9023,0.4720
PPL,GREATSALKELD,54.7217,-2.7017
PPL,GREATSAMPFORD,51.9922,0.3914
PPL,GREATSANKEY,53.3923,-2.6399
PPL,GREATSAXHAM,52.2394,0.6194
PPL,GREATSHEFFORD,51.4747,-1.4496
PPL,GREATSHELFORD,52.1503,0.1362
PPL,GREATSINGLETON,53.8333,-2.9333
PPL,GREATSMEATON,54.4339,-1.4652
PPL,GREATSNORING,52.8729,0.8924
PPL,GREATSOMERFORD,51.5435,-2.0521
PPL,GREATSTAINTON,54.5919,-1.4790
PPL,GREATSTAUGHTON,52.2676,-0.3412
ADM4,GREATSTEEPING,53.1590,0.1557
PPL,GREATSTONAR,51.2867,1.3473
PPL,GREATSTONE,50.9615,0.9620
PPL,GREATSTRETTON,52.6000,-1.0167
PPL,GREATSTRICKLAND,54.6000,-2.6833
PPL,GREATSTUKELEY,52.3566,-0.2107
PPL,GREATSTURTON,53.2733,-0.1793
PPL,GREATSWINBURN,55.0667,-2.1000
PPL,GREATTEW,51.9609,-1.4260
PPL,GREATTEY,51.8993,0.7490
ADM4,GREATTHURLOW,52.1259,0.4587
ADM4,GREATTIMBLE,53.9754,-1.7568
PPL,GREATTORRINGTON,50.9531,-4.1440
PPL,GREATTOTHAM,51.7857,0.7110
PPL,GREATURSWICK,54.1591,-3.1217
PPL,GREATWAKERING,51.5524,0.8038
PPL,GREATWALDINGFIELD,52.0555,0.7744
PPL,GREATWALSINGHAM,52.9002,0.8840
PPL,GREATWALTHAM,51.7938,0.4567
ADM3,GREATWARFORD,53.2989,-2.2861
PPL,GREATWARLEYSTREET,51.5929,0.2843
PPL,GREATWASHBOURNE,52.0079,-2.0196
PPL,GREATWELNETHAM,52.2074,0.7501
PPL,GREATWENHAM,52.0037,1.0159
ADM4,GREATWHELNETHAM,52.2003,0.7499
PPL,GREATWIGBOROUGH,51.8030,0.8384
PPL,GREATWILBRAHAM,52.1935,0.2670
PPL,GREATWISHFORD,51.1190,-1.8884
ADM4,GREATWITCHINGHAM,52.7356,1.1064
PPL,GREATWITCOMBE,51.8313,-2.1316
PPL,GREATWITLEY,52.2932,-2.3649
PPL,GREATWOLFORD,52.0090,-1.6384
PPL,GREATWORTH,52.0767,-1.1962
PPL,GREATWRATTING,52.1066,0.4623
PPL,GREATWYMONDLEY,51.9433,-0.2357
PPL,GREATWYRLEY,52.6628,-2.0111
PPL,GREATYARMOUTH,52.6083,1.7305
ADM3,GREATYARMOUTHDISTRICT,52.6340,1.6469
PPL,GREATYELDHAM,52.0135,0.5654
