name,id,postcode,lat,lon
bearded lizard and flying lizard,1585294,AB42 1SU,57.507455070000000,-1.787536000000000
New World blackbird and diamondback terrapin,1585372,AB42 0RR,57.439686000000000,-1.912331000000000
White ibis and taipan,1585471,AB41 9BL,57.364394750000000,-2.070701995000000
caiman and Fox,1585034,AB42 1EY,57.513716020000000,-1.798733760000000
massasauga and Warbler,1585258,AB42 0LZ,57.417712190000000,-1.859958602000000
Coati and Viscacha,1585087,AB42 2XX,57.501114000000000,-1.793480000000000
Treepie and Piping shrike,1585334,AB42 0PT,57.456176930000000,-1.853129019000000
Shearwater and Grosbeak,1585408,AB42 0TP,57.413071000000000,-1.975116000000000
thorny devil and Masked owl,1585655,AB41 8HJ,57.387087000000000,-2.023392000000000
Bunting and Old World vulture,1583652,AB42 4LP,57.525786000000000,-2.047739000000000
Marmoset and chameleon,1583432,AB42 5DG,57.503363000000000,-2.055119000000000
Black cockatoo and fer-de-lance,1583757,AB42 4UA,57.532867670000000,-1.937810000000000
Myna and puff adder,1585673,AB41 8JS,57.377285140000000,-1.978615000000000
asp and copperhead,1585514,AB42 1DX,57.503118090000000,-1.778133671000000
Night heron and Polecat,1585796,AB41 8RE,57.359456290000000,-1.999502243000000
caiman and wall lizard,1585747,AB41 8NG,57.340964000000000,-2.036616000000000
White ibis and copperhead,1585020,AB42 2XR,57.502652800000000,-1.795156884000000
Treepie and diamondback terrapin,1584779,AB42 3LE,57.499266430000000,-1.888512242000000
mamba and moloch,1585811,AB41 8SD,57.361464180000000,-1.942054920000000
alligator and Tit-tyrant,1586107,AB41 8BL,57.372145130000000,-2.073411000000000
Komodo dragon and Piping shrike,1748905,AB42 5BW,57.502793577594700,-2.049678388478000
Kestrel and Snipe,1583658,AB42 4LW,57.517759350000000,-2.039114906000000
diamondback terrapin and Snipe,1585617,AB41 9JW,57.367472670000000,-2.059436047000000
Mockingbird and habu,1585064,AB42 1HN,57.513589600000000,-1.792625000000000
Fox and Fulmarine petrel,1585296,AB42 1SX,57.507399460000000,-1.786652402000000
thorn lizard and snake,1585032,AB42 1EW,57.512599830000000,-1.797254381000000
grass snake and glass snake,1585098,AB42 2YL,57.500993910000000,-1.802608075000000
soft-shelled turtle and Quetzal,1585196,AB42 1QQ,57.508944670000000,-1.786776912000000
Badger and Snipe,1585028,AB42 1ER,57.511386840000000,-1.791519519000000
snake and garter snake,1585528,AB41 9DB,57.373002290000000,-2.094745654000000
python and bearded lizard,1583438,AB42 5DQ,57.503098230000000,-2.044221971000000
hognose snake and Thrasher,1748735,AB42 3GQ,57.503587000000000,-1.819131000000000
habu and Night heron,1585375,AB42 0RU,57.441357000000000,-1.889754180000000
sand viper and loggerhead,2580504,AB41 9JZ,57.368706000000000,-2.071409000000000
Philippine hawk-owl and Black cockatoo,1585209,AB42 1RF,57.508451120000000,-1.798262000000000
Kākāriki and sidewinder,1584690,AB42 3FB,57.473390820000000,-1.786216802000000
Stint and snapping turtle,1585093,AB42 2YE,57.498775690000000,-1.797230813000000
Piping shrike and worm lizard,1584861,AB42 2AG,57.505336810000000,-1.794073843000000
Lemming and Wader,1583672,AB42 4NR,57.544678000000000,-2.043036000000000
flying lizard and sand lizard,1583801,AB42 4YG,57.475625000000000,-1.926351000000000
coral snake and Hawaiian honeycreeper,1585635,AB41 8EF,57.416415130000000,-2.067473099000000
mountain devil and Ground sloth,1585612,AB41 9JF,57.366754170000000,-2.059202131000000
Tahr and cobra de capello,1585904,AB41 8UP,57.485664890000000,-2.061480084000000
pit viper and wall lizard,1584634,AB42 3BD,57.470806210000000,-1.804304474000000
Stint and Wader,1585122,AB42 3AN,57.472990020000000,-1.793672031000000
Nukupuʻu and Stilt,1585880,AB41 8TF,57.467636160000000,-2.114062286000000
carpet snake and caiman,1585154,AB42 1NE,57.515076630000000,-1.790296652000000
Fox and whip snake,1586113,AB41 8BU,57.374772100000000,-2.066415248000000
Recurvebill and Schneider python,1585168,AB42 1NX,57.511725800000000,-1.784741123000000
garter snake and Snipe,1584954,AB42 2FX,57.496913390000000,-1.806834444000000
lizard and taipan,1585621,AB41 9LJ,57.363529000000000,-2.075388000000000
Tattler and Mouse,1583486,AB42 5GP,57.523765380000000,-2.009886240000000
milk snake and lizard,1584846,AB42 1ZE,57.508123480000000,-1.812733325000000
Boto and horned toad,1585409,AB42 0TQ,57.416961000000000,-1.975280000000000
Tit-tyrant and python,1584655,AB42 3DE,57.516490000000000,-1.834742000000000
Tree warbler and Grackle,1585411,AB42 0TS,57.431900350000000,-1.983496892000000
Stint and glass snake,1585804,AB41 8RS,57.346361930000000,-1.937226829000000
Chicken and Old World vulture,1584945,AB42 2FL,57.499920020000000,-1.811106734000000
horned toad and Moluccan boobook,1585552,AB41 9EH,57.366806080000000,-2.079102227000000
Night heron and Tahr,1585788,AB41 8QS,57.378325160000000,-2.055579000000000
Parrotlet and Capuchin,1583557,AB42 5PR,57.504193620000000,-2.094085015000000
flying lizard and boa constrictor,1584872,AB42 2AW,57.504687330000000,-1.804174000000000
bull snake and Old World vulture,1585362,AB42 0RD,57.433412150000000,-1.956848080000000
Pitohui and tortoise,1585529,AB41 9DD,57.372883780000000,-2.097023337000000
Badger and Stint,1585680,AB41 9NP,57.361717370000000,-2.071627693000000
blindworm and Tree warbler,1583644,AB42 4JY,57.540883420000000,-1.879949933000000
frill-necked lizard and chuckwalla,1583452,AB42 5EG,57.520639850000000,-1.996830000000000
Herring gull and taipan,1584910,AB42 4HB,57.548823020000000,-2.030761135000000
perentie and Pitohui,1584766,AB42 3JP,57.474836240000000,-1.847668610000000
thorn lizard and Treepie,1585307,AB42 1TN,57.506183820000000,-1.779667100000000
amethystine python and bicycle lizard,1585561,AB41 9EU,57.360742840000000,-2.092137540000000
Schneider python and Cloud rat,1585304,AB42 1TH,57.505661000000000,-1.778870141000000
terrapin and Herring gull,1585701,AB41 9RW,57.360236330000000,-2.083776000000000
Cloud rat and Parakeet,1585700,AB41 9RG,57.368598000000000,-2.054201000000000
bearded dragon and gecko,1585346,AB42 0QH,57.391339440000000,-1.868609910000000
sand lizard and chameleon,1585199,AB42 1QT,57.509617940000000,-1.791913460000000
viper and Myna,1584940,AB42 2FE,57.501101930000000,-1.808597746000000
Tit-tyrant and tortoise,1585164,AB42 1NS,57.514975550000000,-1.788928464000000
Triller and boa constrictor,1585726,AB41 8LA,57.389582660000000,-1.948215698000000
hawksbill and blue racer,1584912,AB42 4HF,57.548043780000000,-2.019700203000000
garter snake and mamba,1585226,AB41 9YF,57.369761270000000,-2.063496566000000
perentie and pit viper,1585051,AB42 1GW,57.509329170000000,-1.808104112000000
frill-necked lizard and Old World quail,1585653,AB41 8HG,57.391209900000000,-2.006405954000000
Piping shrike and Coati,1585503,AB42 1DH,57.504392820000000,-1.772836000000000
Perching duck and Partridge,1585626,AB41 8DU,57.391818560000000,-2.053137213000000
gaboon viper and bearded lizard,1585451,AB41 9AH,57.366289720000000,-2.071370639000000
Minke whale and Partridge,1585339,AB42 0PZ,57.420016010000000,-1.848112365000000
