name,id,postcode,lat,lon
New World blackbird and diamondback terrapin,1585372,AB42 0RR,57.439686000000000,-1.912331000000000
White ibis and taipan,1585471,AB41 9BL,57.364394750000000,-2.070701995000000
Darwin's finches and Prion,1585976,AB41 7PH,57.346458240000000,-2.171242349000000
massasauga and Warbler,1585258,AB42 0LZ,57.417712190000000,-1.859958602000000
Treepie and Piping shrike,1585334,AB42 0PT,57.456176930000000,-1.853129019000000
Shearwater and Grosbeak,1585408,AB42 0TP,57.413071000000000,-1.975116000000000
thorny devil and Masked owl,1585655,AB41 8HJ,57.387087000000000,-2.023392000000000
Bunting and Old World vulture,1583652,AB42 4LP,57.525786000000000,-2.047739000000000
Marmoset and chameleon,1583432,AB42 5DG,57.503363000000000,-2.055119000000000
Black cockatoo and fer-de-lance,1583757,AB42 4UA,57.532867670000000,-1.937810000000000
Myna and puff adder,1585673,AB41 8JS,57.377285140000000,-1.978615000000000
anaconda and B,1586309,AB41 7DP,57.434406850000000,-2.202066610000000
jew lizard and thorn lizard,1585885,AB41 8TN,57.444871330000000,-2.172019154000000
Night heron and Polecat,1585796,AB41 8RE,57.359456290000000,-1.999502243000000
caiman and wall lizard,1585747,AB41 8NG,57.340964000000000,-2.036616000000000
Treepie and diamondback terrapin,1584779,AB42 3LE,57.499266430000000,-1.888512242000000
Schneider python and mamba,1580387,AB53 6UL,57.545915910000000,-2.202199723000000
mamba and moloch,1585811,AB41 8SD,57.361464180000000,-1.942054920000000
alligator and Tit-tyrant,1586107,AB41 8BL,57.372145130000000,-2.073411000000000
Komodo dragon and Piping shrike,1748905,AB42 5BW,57.502793577594700,-2.049678388478000
Kestrel and Snipe,1583658,AB42 4LW,57.517759350000000,-2.039114906000000
diamondback terrapin and Snipe,1585617,AB41 9JW,57.367472670000000,-2.059436047000000
mud turtle and Argus,1585991,AB41 7QD,57.331935660000000,-2.169380890000000
snake and garter snake,1585528,AB41 9DB,57.373002290000000,-2.094745654000000
python and bearded lizard,1583438,AB42 5DQ,57.503098230000000,-2.044221971000000
habu and Night heron,1585375,AB42 0RU,57.441357000000000,-1.889754180000000
sand viper and loggerhead,2580504,AB41 9JZ,57.368706000000000,-2.071409000000000
Lemming and Wader,1583672,AB42 4NR,57.544678000000000,-2.043036000000000
flying lizard and sand lizard,1583801,AB42 4YG,57.475625000000000,-1.926351000000000
coral snake and Hawaiian honeycreeper,1585635,AB41 8EF,57.416415130000000,-2.067473099000000
Ibex and krait,1586192,AB41 6PU,57.341893320000000,-2.143941427000000
mountain devil and Ground sloth,1585612,AB41 9JF,57.366754170000000,-2.059202131000000
blindworm and coral snake,1586017,AB41 7TS,57.428662000000000,-2.157277000000000
Tahr and cobra de capello,1585904,AB41 8UP,57.485664890000000,-2.061480084000000
Kestrel and Argus,1586007,AB41 7RZ,57.326893030000000,-2.202006839000000
Nukupu ªu and Stilt,1585880,AB41 8TF,57.467636160000000,-2.114062286000000
dugite and Parrotlet,1585825,AB41 7EN,57.413094570000000,-2.194125510000000
Parakeet and brown snake,1585855,AB41 7HS,57.446336480000000,-2.237670407000000
Fox and whip snake,1586113,AB41 8BU,57.374772100000000,-2.066415248000000
Black jay and Hawaiian honeycreeper,1583563,AB42 5RF,57.490580990000000,-2.153167805000000
lizard and taipan,1585621,AB41 9LJ,57.363529000000000,-2.075388000000000
alligator and Old World warbler,1579932,AB53 6YS,57.525459080000000,-2.258355523000000
iguana and wall lizard,1585958,AB41 7NL,57.361700860000000,-2.233332492000000
Tattler and Mouse,1583486,AB42 5GP,57.523765380000000,-2.009886240000000
Boto and horned toad,1585409,AB42 0TQ,57.416961000000000,-1.975280000000000
puff adder and wall lizard,1585773,AB41 8PR,57.373720050000000,-2.126340786000000
Tree warbler and Grackle,1585411,AB42 0TS,57.431900350000000,-1.983496892000000
Stint and glass snake,1585804,AB41 8RS,57.346361930000000,-1.937226829000000
horned toad and Moluccan boobook,1585552,AB41 9EH,57.366806080000000,-2.079102227000000
Night heron and Tahr,1585788,AB41 8QS,57.378325160000000,-2.055579000000000
Parrotlet and Capuchin,1583557,AB42 5PR,57.504193620000000,-2.094085015000000
cayman and Tree warbler,1585842,AB41 7GU,57.370937150000000,-2.222284472000000
bull snake and Old World vulture,1585362,AB42 0RD,57.433412150000000,-1.956848080000000
Pitohui and tortoise,1585529,AB41 9DD,57.372883780000000,-2.097023337000000
New World blackbird and skink,1586301,AB41 7DD,57.494162000000000,-2.221432000000000
Zebra and Civet,1585435,AB41 8YJ,57.439934000000000,-2.163034000000000
Badger and Stint,1585680,AB41 9NP,57.361717370000000,-2.071627693000000
Puffleg and Grosbeak,1583665,AB42 4NG,57.520946410000000,-2.133378156000000
blindworm and Tree warbler,1583644,AB42 4JY,57.540883420000000,-1.879949933000000
frill-necked lizard and chuckwalla,1583452,AB42 5EG,57.520639850000000,-1.996830000000000
indigo snake and skink,1585835,AB41 7GG,57.338785700000000,-2.184828654000000
Herring gull and taipan,1584910,AB42 4HB,57.548823020000000,-2.030761135000000
Old World quail and gavial,1585972,AB41 7PD,57.344661780000000,-2.189942382000000
Maya and Snipe,1585884,AB41 8TL,57.458771080000000,-2.155367876000000
amethystine python and bicycle lizard,1585561,AB41 9EU,57.360742840000000,-2.092137540000000
terrapin and Herring gull,1585701,AB41 9RW,57.360236330000000,-2.083776000000000
Cloud rat and Parakeet,1585700,AB41 9RG,57.368598000000000,-2.054201000000000
Peafowl and agamid,1585949,AB41 7LZ,57.368348090000000,-2.223432592000000
bearded dragon and gecko,1585346,AB42 0QH,57.391339440000000,-1.868609910000000
Mockingbird and tokay,1586011,AB41 7TJ,57.411837190000000,-2.175659177000000
Triller and boa constrictor,1585726,AB41 8LA,57.389582660000000,-1.948215698000000
hawksbill and blue racer,1584912,AB42 4HF,57.548043780000000,-2.019700203000000
garter snake and mamba,1585226,AB41 9YF,57.369761270000000,-2.063496566000000
frill-necked lizard and Old World quail,1585653,AB41 8HG,57.391209900000000,-2.006405954000000
Mockingbird and tortoise,1585981,AB41 7PR,57.331923680000000,-2.158668000000000
Perching duck and Partridge,1585626,AB41 8DU,57.391818560000000,-2.053137213000000
gaboon viper and bearded lizard,1585451,AB41 9AH,57.366289720000000,-2.071370639000000
