name,postcode,lat,lon
bull snake and Snipe,AB54 4HE,57.340722100000000,-2.836416976000000
Mouse and Kangaroo,AB54 4SH,57.455399330000000,-2.780454222000000
Marmoset and Buzzard,AB54 4UA,57.498832610000000,-2.911562538000000
Elephant and Polecat,AB54 4UL,57.449876470000000,-2.799483000000000
Thrasher and Macaw,AB54 4XB,57.431085040000000,-2.939356407000000
boa constrictor and Fulmarine petrel,AB54 4XQ,57.452083750000000,-2.950643513000000
gopher snake and gaboon viper,AB54 6EW,57.445529320000000,-2.689173981000000
Greenbul and Goose,AB54 6JE,57.443310040000000,-2.774348941000000
Cuscus and Polecat,AB54 6JN,57.455279370000000,-2.754419908000000
Thicketbird and Guillemot,AB54 7LT,57.522130330000000,-2.757319478000000
Lemming and blind snake,AB54 8BN,57.447767500000000,-2.784207248000000
puff adder and Viscacha,AB54 8BZ,57.448331700000000,-2.788801522000000
anaconda and gavial,AB54 8EB,57.445418750000000,-2.779091967000000
taipan and Magpie,AB54 8EU,57.446992200000000,-2.783207598000000
Grosbeak and Guillemot,AB54 8FA,57.448614910000000,-2.779376559000000
Tahr and diamond python,AB54 8FL,57.441588900000000,-2.786823816000000
Coati and Diving bird,AB54 8RF,57.449151470000000,-2.797000665000000
Ice seal and Kangaroo,AB55 5DJ,57.541807000000000,-2.954015000000000
indigo snake and Tit-tyrant,AB55 5DN,57.542779690000000,-2.951400800000000
dugite and tokay,AB55 5EY,57.542124760000000,-2.947708493000000
Greenbul and Old World quail,AB55 5FA,57.540783500000000,-2.945685774000000
Recurvebill and snake,AB55 5FB,57.539187870000000,-2.966591613000000
Crow and milk snake,AB55 5GA,57.538070540000000,-2.949158000000000
jew lizard and Chicken,AB55 5GE,57.541072777937200,-2.949784000000000
cerastes and blue racer,AB55 5GS,57.543957000000000,-2.945350000000000
python and Wallaby,AB55 5HA,57.543781330000000,-2.949188000000000
Eagle and Shearwater,AB55 5HY,57.502843490000000,-3.003294624000000
Vulture and Elephant,AB55 5LA,57.535716000000000,-2.939977000000000
jew lizard and Tit-tyrant,AB55 5NU,57.529484000000000,-2.960907000000000
Masked owl and Mink,AB55 5PL,57.498367930000000,-2.979544839000000
constrictor and Marmoset,AB55 5PW,57.478414280000000,-2.984447167000000
elapid and Mouse,AB55 6LJ,57.545485960000000,-2.879213194000000
