name,postcode,lat,lon
thorny devil and python,IV3 8AU,57.364615332430200,-4.393038235578070
Thicketbird and Minke whale,IV3 8LA,57.403931000000000,-4.346241000000000
green turtle and Maya,IV4 7AH,57.473710151658300,-4.516528214991640
massasauga and caiman,IV4 7BH,57.458895366714800,-4.507789793243700
ringhals and Old World warbler,IV4 7DL,57.483894706508200,-4.461752414170510
Elephant and Hawk,IV4 7EE,57.485740330638700,-4.462494026244190
Scimitar babbler and crocodile,IV4 7ES,57.476969556481700,-4.465273185726860
gavial and Minke whale,IV5 7PG,57.467754173866600,-4.414454282943430
Rabbit and Jay,IV5 7PH,57.453955000000000,-4.430632000000000
thorny devil and death adder,IV5 7PY,57.451273204181900,-4.398498318479480
swift and Vulture,IV6 7AB,57.517043000000000,-4.461814000000000
horned toad and blind snake,IV6 7QB,57.518624213157000,-4.457547134482530
Grouse and Scimitar babbler,IV6 7QP,57.518091254673300,-4.462888061263010
flying dragon and loggerhead,IV6 7QR,57.517173283682400,-4.462959754604280
Rat and saltwater crocodile,IV6 7QZ,57.521087990563500,-4.432559872462360
Nukupu ªu and Herring gull,IV6 7RF,57.541589000000000,-4.415461000000000
Pheasant and White ibis,IV6 7RP,57.532649000000000,-4.410275000000000
box turtle and thorn lizard,IV6 7TH,57.520086180931500,-4.458279495914990
tortoise and copperhead,IV6 7XS,57.521388743962500,-4.464747230375600
