name,postcode,lat,lon
puff adder and puff adder,AB37 9AN,57.353989830000000,-3.355358386000000
Treepie and Egret,AB37 9BS,57.457023000000000,-3.394089000000000
Viscacha and king snake,AB37 9BX,57.353710200000000,-3.328505350000000
Mole and hognose snake,AB37 9DE,57.340860040000000,-3.333075571000000
habu and bicycle lizard,AB37 9DQ,57.361016140000000,-3.290301250000000
Badger and thorny devil,AB38 7QU,57.482437000000000,-3.307240000000000
Booted eagles and python,AB38 7RA,57.481678870000000,-3.283712749000000
Recurvebill and indigo snake,AB38 7RX,57.468042040000000,-3.360795896000000
Marsh harrier and milk snake,AB38 7RY,57.470356540000000,-3.356096548000000
Logrunners and death adder,AB38 7SD,57.467083210000000,-3.332817409000000
boomslang and Dolphin,AB38 9PP,57.468583170000000,-3.225715718000000
agama and Polecat,AB38 9SJ,57.482646000000000,-3.252723000000000
White ibis and racer,IV36 2QR,57.530589408519700,-3.603013146980780
loggerhead and Asiatic leopard,PH26 3EN,57.326886000000000,-3.612716000000000
gaboon viper and milk snake,PH26 3EZ,57.327844228987900,-3.617857415294820
mud turtle and Zebra,PH26 3HA,57.330549751120800,-3.619853444541160
goanna and Old World quail,PH26 3HR,57.336940872332700,-3.604168654635190
Condor and cayman,PH26 3HT,57.335468522458000,-3.602675696845620
cerastes and Cloud rat,PH26 3JA,57.331619246560600,-3.604401767088320
bearded dragon and lizard,PH26 3JH,57.332175824432400,-3.609359794693030
snapping turtle and blindworm,PH26 3JW,57.328775193220100,-3.608314105296330
