name,postcode,lat,lon
Cafe Beca,SA17 4AA,51.7201,-4.2420
Capers Restaurant,SA17 4LB,51.7377,-4.2389
Time for Tea,SA17 4UU,51.7374,-4.3081
Red Lion inn,SA17 5PP,51.7821,-4.2984
Pryd O Fwyd,SA17 5TE,51.7706,-4.3654
Time Coffee Bar,SA31 1BA,51.8565,-4.3060
Ginger Indian restaurant ,SA31 1BH,51.8570,-4.3047
Yr Hen Dderwen Carmarthen (Wetherspoon),SA31 1BH,51.8571,-4.3050
Costa Coffee,SA31 1GA,51.8589,-4.3092
DIABLOS INCORPORATED LIMITED,SA31 1JR,51.8564,-4.3051
Japanese Sun,SA31 1JT,51.8562,-4.3050
Ivy Bush Royal Hotel,SA31 1LG,51.8566,-4.3037
The Vaults,SA31 1PG,51.8562,-4.3064
Days Department Stores Limited,SA31 1PN,51.8567,-4.3072
The Warren,SA31 1PX,51.8570,-4.3099
Morganâ€™s Traditional Chippy,SA31 1PZ,51.8571,-4.3114
The Nurture Centre ,SA31 1QG,51.8578,-4.3071
New stags head,SA31 1QL,51.8571,-4.3082
Cinnamon,SA31 1QX,51.8573,-4.3096
The Mansel Arms ,SA31 1QX,51.8573,-4.3096
Laser station ,SA31 2BE,51.8532,-4.3061
Cranc Coffee Shop,SA31 2BL,51.8535,-4.2988
Hagans cafe and chipshop,SA31 2BS,51.8517,-4.3043
The Black Ox,SA31 2JB,51.8661,-4.2697
subway,SA31 2NF,51.8442,-4.3064
KFC,SA31 2NG,51.8481,-4.3114
McDonald's,SA31 2NG,51.8463,-4.3096
Sgiliau Play Centre,SA31 2NG,51.8451,-4.3105
mcdonalds,SA31 2NG,51.8459,-4.3094
Boars Head Hotel,SA31 3AE,51.8563,-4.3097
The Rose and Crown,SA31 3AE,51.8563,-4.3097
DAJM PROPERTIES LIMITED,SA31 3AL,51.8566,-4.3126
Waverley stores & Restaurant ,SA31 3AL,51.8566,-4.3125
The Falcon Hotel,SA31 3AP,51.8563,-4.3118
Towy Community church - Xcel Bowl,SA31 3BP,51.8486,-4.3219
Xcel Centre,SA31 3BP,51.8486,-4.3219
DEXTERS STEAKHOUSE AND GRILL LTD,SA31 3JP,51.8547,-4.3079
Karmen kafe,SA31 3JS,51.8554,-4.3063
Pantri Blakeman,SA31 3LE,51.8557,-4.3080
The White Mill Inn,SA32 7EN,51.8705,-4.2332
Food Tree,SA33 4AA,51.8199,-4.4957
Mols Bistro,SA33 4AA,51.8199,-4.4957
Elaichi Indian Ltd,SA33 4AB,51.8198,-4.4966
White Lion,SA33 4AT,51.8216,-4.5159
Corvus inn,SA33 4BG,51.8204,-4.4936
Llety Cynin,SA33 4JR,51.8290,-4.5045
Broadway Country House,SA33 4NU,51.7603,-4.4797
Lotus Restaurant,SA33 4NY,51.7426,-4.5586
Greenbridge inn,SA33 4PL,51.7530,-4.5779
Mansion House Llansteffan Ltd,SA33 5AJ,51.7968,-4.3653
Pantyrathro International Hostel,SA33 5AJ,51.7968,-4.3653
THE FOX & HOUNDS ,SA33 5ND,51.8357,-4.4341
Jabajak Vineyard Restaurant with Rooms,SA34 0ED,51.8584,-4.5716
