name,postcode,lat,lon
Hatch St Albans,AL1 1BZ,51.750363670000000,-0.340319842000000
PER TUTTI ST ALBANS,AL1 1BZ,51.750363670000000,-0.340319842000000
The Bishop's Cave,AL1 1EZ,51.750045030000000,-0.340041782000000
The Gin Cave,AL1 1EZ,51.750045030000000,-0.340041782000000
CHILLI BAR N RESTAURANT ,AL1 1NG,51.750299280000000,-0.337975000000000
The White Lion,AL1 1RN,51.748341670000000,-0.337858827000000
Smoky Boys St Albans,AL1 2PG,51.738778790000000,-0.344553459000000
St Albans Museum  Gallery cafe,AL1 3DH,51.752596000000000,-0.339088262000000
BURSTON ROSE AND GARDEN CENTRE LTD,AL2 2DS,51.720507810000000,-0.359350872000000
Rami Tandoori,AL2 3DA,51.727726740000000,-0.359234328000000
Valentina's Italian,AL2 3DA,51.727726740000000,-0.359234328000000
SARR HOTEL NOKE LTD ,AL2 3DS,51.721663760000000,-0.364868529000000
The Hollybush,AL2 3NN,51.734366000000000,-0.384699000000000
THE GATE,AL2 3PW,51.706903510000000,-0.356818194000000
SUSHI SA LTD TRADING AS SUSHIMANIA,AL3 4DD,51.751837800000000,-0.341032000000000
Mad Squirrel Tap,AL3 4EB,51.750982580000000,-0.341485112000000
ABIGAILS TEAROOMS,AL3 4ED,51.750790000000000,-0.340464000000000
Alloro,AL3 4ED,51.750790000000000,-0.340464000000000
Havin Turkish Kitchen,AL3 4ED,51.750790000000000,-0.340464000000000
Starbucks St Albans - High Street,AL3 4ED,51.750790000000000,-0.340464000000000
Dylans Craft Beer Co Ltd,AL3 4ER,51.751387010000000,-0.342107743000000
George Street Canteen,AL3 4ER,51.751387010000000,-0.342107743000000
MUST ST A LIMITED,AL3 4ER,51.751387010000000,-0.342107743000000
Locanda Bagutta,AL3 4ES,51.751702380000000,-0.342154145000000
Loft Stalbans,AL3 4ES,51.751702380000000,-0.342154145000000
Thai Square St.Albans,AL3 4ES,51.751702380000000,-0.342154145000000
Lussmanns St Albans,AL3 4EW,51.750710000000000,-0.340568000000000
The Portland arms ,AL3 4RA,51.754643570000000,-0.347320235000000
The Lower Red Lion,AL3 4RX,51.752127000000000,-0.347909665000000
St Michaels Manor Limited,AL3 4RY,51.753951970000000,-0.350576352000000
The Six Bells St. Albans Ltd.,AL3 4SH,51.753714720000000,-0.354178051000000
The Waffle House,AL3 4SJ,51.753233520000000,-0.355774732000000
Saute Restaurant Limited,AL3 5BG,51.755376490000000,-0.338078681000000
Street Cafe,AL3 5BJ,51.755243500000000,-0.337576460000000
Craft & Cleaver ,AL3 5BU,51.755585630000000,-0.337607363000000
Bootifull Boot Ltd,AL3 5DG,51.751685410000000,-0.339677405000000
CrepeAffaire St Albans,AL3 5DL,51.752311240000000,-0.339540000000000
Little Marrakech,AL3 5DL,51.752311240000000,-0.339540000000000
Bellaccino’s ,AL3 5DU,51.751632930000000,-0.340418191000000
The Snug Bar St Albans,AL3 5DU,51.751632930000000,-0.340418191000000
Cross Street Cafe,AL3 5EE,51.752531040000000,-0.340341808000000
Tabure,AL3 5EG,51.753096630000000,-0.340277611000000
INFUSE MODERN INDIAN BISTRO,AL3 5EX,51.753107230000000,-0.339118186000000
WADDINGTON ROAD COFFEE & KITCHEN,AL3 5EX,51.753107230000000,-0.339118186000000
Aubrey Park Hotel ,AL3 7AF,51.787466750000000,-0.414106208000000
The HollyBush,AL3 7DU,51.792644510000000,-0.404687769000000
Indian Nights,AL3 7LN,51.798881000000000,-0.395746898000000
THE ENCHANTED TEA ROOMS LTD,AL3 7LW,51.799390650000000,-0.395745000000000
The Cricketers Of Redbourn,AL3 7ND,51.795267260000000,-0.400505833000000
Rose Garden Tea Rooms Ltd,AL3 7PS,51.812730780000000,-0.408562803000000
Redbourn Golf Club,AL3 7QA,51.812030240000000,-0.391440500000000
SAFFRON,AL3 8HQ,51.827006470000000,-0.441218561000000
Pavillion Markyate Ltd,AL3 8PB,51.837563690000000,-0.462466665000000
The Swan (Markyate) Ltd,AL3 8PB,51.837563690000000,-0.462466665000000
Martinas Catering,AL5 1BL,51.801597950000000,-0.349142665000000
The Engineer,AL5 1DJ,51.805421110000000,-0.346058545000000
PLOUGH AND HARROW,AL5 1PR,51.807620760000000,-0.345180234000000
MILAN CAFE UK LTD,AL5 1PU,51.807159770000000,-0.343093851000000
SARAKH ROAD SIDE INDIAN,AL5 1PX,51.806985510000000,-0.340938962000000
Seb's Kitchen Limited,AL5 1QQ,51.806795990000000,-0.343440809000000
Harpenden Golf Club,AL5 2AX,51.799189750000000,-0.365995742000000
Lussmanns Harpenden,AL5 2HU,51.813737110000000,-0.356213928000000
THE WHITE HORSE,AL5 2JP,51.804109500000000,-0.356404593000000
Rothamsted Restaurant,AL5 2JQ,51.809566410000000,-0.356322147000000
BREW & CRU ,AL5 2SL,51.818025520000000,-0.357450710000000
Zaza Harpenden,AL5 2SL,51.818025520000000,-0.357450710000000
Bangkok Lounge Harpenden,AL5 2SP,51.817818130000000,-0.358053108000000
OKKA CAFE EATERY,AL5 2SP,51.817818130000000,-0.358053108000000
Old Cock Inn,AL5 2SP,51.817818130000000,-0.358053108000000
Tahini,AL5 2SP,51.817818130000000,-0.358053108000000
Chef Peking ,AL5 2TP,51.816602940000000,-0.358605069000000
Tay Tar Thai (Harpenden) Ltd,AL5 4EF,51.815530030000000,-0.354538305000000
silver palate,AL5 4HU,51.815526000000000,-0.354809888000000
The Red Cow,AL5 4ND,51.830209020000000,-0.348430520000000
Spicerack,AL5 4SA,51.814519810000000,-0.354313964000000
Graffiti Restaurant ,AL5 4SE,51.815113830000000,-0.353712011000000
Bar Azita Ltd,AL5 4SW,51.814922520000000,-0.353039000000000
PASTA CIBO,AL5 4SW,51.814922520000000,-0.353039000000000
Bistro Gautier at The Amble Inn,AL5 4UL,51.822369150000000,-0.340199770000000
Opuz Kitchen,HP1 1BA,51.751917000000000,-0.472678000000000
BANANA LEAF,HP1 1BB,51.751923173492000,-0.471895787856185
Creams Cafe Hemel Hempstead,HP1 1BB,51.751923173492000,-0.471895787856185
Tiki's,HP1 1BH,51.750132000000000,-0.473111551267960
CAPPUCCIO  ITALIAN DELICATESSEN LIMITED,HP1 1BJ,51.748890019523500,-0.472954000000000
VEGAN SPARTAN LTD,HP1 1BL,51.748716947586100,-0.472335000000000
Starbucks Hemel Hempstead,HP1 1BT,51.747706815965900,-0.473341806524975
Jennys Restaurant,HP1 1BZ,51.749631728552600,-0.473524000000000
BRUNCH CAFE,HP1 1DX,51.749156363387500,-0.471670000000000
Muffin Break,HP1 1DX,51.749156363387500,-0.471670000000000
Starburger ,HP1 1DX,51.749156363387500,-0.471670000000000
alfrescos hemel hempstead ltd,HP1 1DX,51.749156363387500,-0.471670000000000
Bengal spice,HP1 1EA,51.751368647252400,-0.473508091773308
Riverside Fish And Chips ,HP1 1EF,51.751310393997800,-0.473176850912523
KFC ,HP1 1EZ,51.753121430708500,-0.472637000000000
KFC HEMEL HEMPSTEAD,HP1 1EZ,51.753121430708500,-0.472637000000000
Peri peri original ,HP1 1EZ,51.753121430708500,-0.472637000000000
Boxmoor Steakhouse,HP1 1JR,51.744812649480500,-0.476206014593589
fat roosters,HP1 1LA,51.756704958243200,-0.472560000000000
fishery wharf cafe,HP1 1NA,51.744930544409100,-0.490918912707624
The Steam Coach,HP1 1NP,51.745803248650600,-0.480926000000000
Boxmoor Social Club,HP1 1PY,51.745703000000000,-0.488677000000000
SA Catering LTD,HP1 1QQ,51.746273933459000,-0.487701820004701
Sitar Restaurant,HP1 1QQ,51.746273933459000,-0.487701820004701
The Three Horseshoes,HP1 2RZ,51.746853827726300,-0.514133328558218
McDonald's 517,HP1 2SB,51.741637273764700,-0.529758870181346
Hive Coffee Shop,HP1 3AA,51.758536363412100,-0.471791000000000
OLDE KINGS ARMS,HP1 3AF,51.759577123173800,-0.472043136472045
Saffron,HP1 3AF,51.759577123173800,-0.472043136472045
The Cochin,HP1 3AF,51.759577123173800,-0.472043136472045
Hemel Thai Express Ltd,HP1 3AQ,51.760390782200500,-0.473073446271788
Hillier Garden Centre Hemel Hempstead,HP1 3BA,51.774298217777900,-0.483967822452167
Red Lion,HP1 3BD,51.779071439141900,-0.489446813182744
Hemel Hempstead Garden Centre,HP1 3BY,51.789817113490600,-0.509923592213438
The Alford Arms,HP1 3DD,51.779070000000000,-0.528948000000000
YUGEN,HP1 3JH,51.761257989780200,-0.489389288553281
Fan Fan Pizza,HP16 0AL,51.702820511110600,-0.706440233244714
Cross Keys ,HP16 0AU,51.703331000000000,-0.707757000000000
New Akash,HP16 0AU,51.703331000000000,-0.707757000000000
Sukhothai ,HP16 0AU,51.703331000000000,-0.707757000000000
The Stamp,HP16 0AU,51.703331000000000,-0.707757000000000
Missenden Abbey Limited,HP16 0BD,51.700495076785600,-0.702671833480463
Wild Kite Bottle Shop Ltd,HP16 9AZ,51.704311950381800,-0.708785549877367
Cock and Rabbit Inn,HP16 9LZ,51.730330000000000,-0.699385000000000
Windmill cafe,HP2 4ES,51.756089193463900,-0.452180929011394
Trattoria La Vigna Ltd,HP2 4GZ,51.758626000000000,-0.438031000000000
Nicolae Banu,HP2 4HE,51.756269790797400,-0.448146872229112
McDonald's 549,HP2 4JS,51.747623000000000,-0.457178000000000
Windmill sandwich bar,HP2 4SE,51.759730711398400,-0.439102000000000
pure foods of london,HP2 4SE,51.759730711398400,-0.439102000000000
McDonald's 1552,HP2 4SN,51.757651000000000,-0.436300955143350
Holiday Inn Hemel Hempstead,HP2 4UA,51.755439946471600,-0.428326019727681
CAFE DECORUM,HP2 7BN,51.760426318558000,-0.440846253067016
Deshi Spice,HP2 7BN,51.760426318558000,-0.440846253067016
Alibaran Ltd ,HP2 7QH,51.780367965050100,-0.435940472815568
The Rose and Crown,HP22 4PD,51.863083258347200,-0.737632883208629
The oak ,HP22 5EU,51.804035270754400,-0.726693498938832
China Water,HP22 5HS,51.798821576902800,-0.717718575473132
Coffee at 108,HP22 5HS,51.798821576902800,-0.717718575473132
Wendover Woods Cafe,HP22 5NF,51.789690302034500,-0.714802204705747
Chiltern Forest Golf Club Limited,HP22 5NQ,51.782675868559400,-0.709782640275793
Istanbul Wendover Ltd t/a Istanbul Meze and Grill Bar,HP22 6DU,51.762289949152500,-0.742605000000000
Lady Grey Tea Room ,HP22 6DU,51.762289949152500,-0.742605000000000
CRUMBS CAFE ,HP22 6EA,51.762569844130100,-0.742901237853681
Rumsey's Handmade Chocolates,HP22 6EA,51.762569844130100,-0.742901237853681
King and Queen,HP22 6EF,51.760540047661500,-0.743957394692048
Tres Corazones Limited,HP22 6EJ,51.761401554414100,-0.745483921701410
Whitewaters Deli Cafe,HP22 6EP,51.762542095676200,-0.743669998091046
The George&Dragon,HP22 6JQ,51.763888112261500,-0.741734344607623
BARLOW CLOSE LIMITED T/A SPICE GARDEN INDIAN CUISINE,HP22 6NU,51.764620472333200,-0.737917333496422
SPICE GARDEN,HP22 6NU,51.764620472333200,-0.737917333496422
Tamarind,HP23 4AB,51.793236879761000,-0.663529909925704
Black Goo Ltd,HP23 4AF,51.793326670656900,-0.664310274502198
THE ANGLERS RETREAT,HP23 4LJ,51.818235559552700,-0.667679779312606
The Half Moon,HP23 4PD,51.819122702438600,-0.689822765214621
Tracy's Cafe,HP23 4QR,51.837820778442600,-0.678989312523751
The Espresso Lounge,HP23 5AG,51.794265274550300,-0.659874349869400
The Grand Colonial Ltd T/A Olive Limes ,HP23 5AG,51.794265274550300,-0.659874349869400
The Black Horse Tring,HP23 5AZ,51.795218000000000,-0.662945610620831
The Robin Hood,HP23 5ED,51.795234000000000,-0.658729000000000
Tring Garden Centre,HP23 5HF,51.808179081322000,-0.656375000000000
Craydawn Pendley  Manor,HP23 5QY,51.798145000000000,-0.632017000000000
The Greyhound Inn,HP23 5RT,51.803213375937000,-0.602073424336302
The Akeman,HP23 6AA,51.792864000000000,-0.662294000000000
The King's Arms,HP23 6BE,51.791726604824300,-0.665140529920761
Champneys Tring,HP23 6HY,51.769174000000000,-0.627371000000000
Shendish Manor Hotel ,HP3 0AA,51.728819482212000,-0.470922901273986
POLATS CAFE LTD,HP3 0HJ,51.722748643464100,-0.532166879049689
The Bell,HP3 0HP,51.722025861815700,-0.530452959271196
Zeera,HP3 0HP,51.722025861815700,-0.530452959271196
Bricklayers Arms,HP3 0PH,51.701193612674100,-0.529159857156257
The Plough,HP3 8PR,51.751492840211900,-0.437792840822121
EVEREST1 LIMITED,HP3 9BZ,51.741645966450900,-0.473314344762785
Lawn Lane Peri Peri Restaurant Ltd,HP3 9HL,51.744904341836300,-0.471495268964407
Toraabs Karahi House,HP3 9HL,51.744904341836300,-0.471495268964407
flaming house,HP3 9HL,51.744904341836300,-0.471495268964407
Harrys grill and kebab ,HP3 9HS,51.742000269026100,-0.468754368923788
Hemel Snowcentre Limited,HP3 9NH,51.744315836089900,-0.459478149306982
Bull Rodizio,HP3 9SD,51.738903393587900,-0.471234295815815
Raja Restaurant,HP3 9SD,51.738903393587900,-0.471234295815815
The Burger Box,HP3 9SD,51.738903393587900,-0.471234295815815
McDonald's 1253,HP3 9SE,51.738446000000000,-0.471264000000000
Shell Apsley,HP3 9SR,51.736334000000000,-0.467056093394338
Epson,HP3 9TD,51.729331000000000,-0.455615000000000
The Red Lion,HP3 9TD,51.729331000000000,-0.455615000000000
Mario's Espresso Bar & Gelateria,HP4 1AG,51.761142083700300,-0.566292780373055
PER TUTTI BERKHAMSTED,HP4 1AG,51.761142083700300,-0.566292780373055
The Lamb Berkhamsted LTD,HP4 1AJ,51.762310954045100,-0.570718843420948
Verandah,HP4 1AL,51.762695843918900,-0.572054320989182
WAMIMICHI LIMITED,HP4 1AL,51.762695843918900,-0.572054320989182
Wamimichi Noodle Bar,HP4 1AL,51.762695843918900,-0.572054320989182
The Highwayman,HP4 1AQ,51.761507811394800,-0.567527360973230
The Olive Tree,HP4 1AQ,51.761507811394800,-0.567527360973230
FAT BUDDHA ,HP4 1HU,51.763261911874100,-0.572589000000000
THE RED LION DAGNALL,HP4 1QZ,51.837511523215300,-0.565105000000000
Here Cafe (Berkhamsted) Ltd,HP4 2AB,51.761419959890000,-0.564748011882831
Zaza Berkhamsted,HP4 2AB,51.761419959890000,-0.564748011882831
Rosannas Sicilian Resturant,HP4 2AE,51.761009683811400,-0.565021842778814
Make Believe Ideas Ltd,HP4 2AZ,51.760604000000000,-0.562600000000000
The Bull At Berkhamsted,HP4 2BS,51.757898544394000,-0.556209640399198
The Gatsby,HP4 2DG,51.759006646509000,-0.560781958996241
Fred & Ginger Coffee,HP4 2DJ,51.759325363996200,-0.561958000000000
Old Mill,HP4 2NB,51.756928231333100,-0.552618375945642
Berkhamsted Golf Club Limited,HP4 2QB,51.770029573851400,-0.547547097086032
Cedar Village Store and Coffee Shop,HP4 2QY,51.770370453573500,-0.527245722350393
Bel Caffe,HP4 3AT,51.760003955495900,-0.562923722768496
Black Goo (Berkhamsted),HP4 3AT,51.760003955495900,-0.562923722768496
Copper House Bars Ltd,HP4 3BA,51.760703000000000,-0.564765966162910
Tabure,HP4 3HB,51.760185033825000,-0.564497369448358
Thai Cottage,HP4 3HH,51.759702073559700,-0.563237590172218
The Kings Arms,HP4 3HL,51.759820867858000,-0.563393207007081
Poppins Cafe Restaurant/Chesham,HP5 1BG,51.704387470878400,-0.612849255196030
Wotnot Vintage Cafe Ltd,HP5 1BG,51.704387470878400,-0.612849255196030
COSTA COFFEE CHESHAM,HP5 1BW,51.705279659758300,-0.612257552933973
FILO FILO LTD,HP5 1BX,51.706075877483700,-0.611914797018100
The General's Arms,HP5 1BX,51.706075877483700,-0.611914797018100
THE JUNCTION (CHESHAM) LIMITED,HP5 1EB,51.706812764077500,-0.611877772357991
The Tavern Chesham,HP5 1EG,51.706410000000000,-0.612715000000000
Periperi Chesham ltd,HP5 1ES,51.703714000000000,-0.613589900044117
The Crown Public House,HP5 1UY,51.707345755436300,-0.569354463574694
The Griffin Public House & Restaurant,HP5 2NN,51.711693000000000,-0.613871000000000
The Full Moon,HP5 2UH,51.752481000000000,-0.643277000000000
The Blue Ball,HP5 2UX,51.732724463915800,-0.644013901340116
The Golden Eagle Pub,HP5 3PW,51.738509537174500,-0.587053491926785
The White Hart,HP5 3RL,51.726253298845900,-0.554481409877254
oodles chinese,LU1 1BT,51.885215000000000,-0.428642000000000
Shahi nan kabab,LU1 1DD,51.885699366392900,-0.429351951022753
CAFE 1,LU1 1DQ,51.884540561574100,-0.429435931383354
Man ho restaurant ,LU1 1EH,51.884397208427200,-0.426781937557108
Tiagos,LU1 1HE,51.886217086199100,-0.427721009835609
subway,LU1 1SE,51.882668668759500,-0.419911732772370
German Doner Kebab (GDK),LU1 2AL,51.878908436776900,-0.416440554704085
Subway George Street,LU1 2AQ,51.878470000000000,-0.415884960753967
HONG BUFFET,LU1 2AZ,51.879033000000000,-0.415550000000000
NLQ ltd t/a deserts rose ,LU1 2EP,51.880647487671200,-0.415321000000000
The Engine,LU1 2EP,51.880647487671200,-0.415321000000000
George II,LU1 2EY,51.881237527613500,-0.413978000000000
BEDFORDSHIRE COFFEE LTD T/A MUFFIN BREAK ,LU1 2LJ,51.879416547367900,-0.412776069795796
Chopstix Luton,LU1 2LJ,51.879416547367900,-0.412776069795796
Frankster's,LU1 2LJ,51.879416547367900,-0.412776069795796
Nucrema,LU1 2LJ,51.879416547367900,-0.412776069795796
Cookies and Cream,LU1 2NB,51.881718000000000,-0.417984000000000
Subway Galaxy Luton,LU1 2NF,51.881282881215800,-0.417156220122610
Villa Ada Restaurant,LU1 2NQ,51.880502850661700,-0.412650640298884
Tastys Chicken Limited,LU1 2QB,51.880368696553100,-0.418045521180985
G's Gourmet Burgers,LU1 2QH,51.878815000000000,-0.418086000000000
Papa J's Indian Tapas Restaurant ,LU1 2QH,51.878815000000000,-0.418086000000000
STEAKOUT LUTON,LU1 2QH,51.878815000000000,-0.418086000000000
Downtown ,LU1 2QP,51.880583000000000,-0.418488000000000
Treatz Luton Dessert Parlour,LU1 2QX,51.879475026952200,-0.418454627849343
Charcoal House,LU1 2SE,51.877744000000000,-0.416017000000000
Gospoda Ltd,LU1 2SE,51.877744000000000,-0.416017000000000
PEPES PIRI PIRI,LU1 2SE,51.877744000000000,-0.416017000000000
Table 21 Karahi House,LU1 2SE,51.877744000000000,-0.416017000000000
Debenhams Restaurant Luton,LU1 2SZ,51.878759000000000,-0.413927092837011
Asian Town cafe ,LU1 2TA,51.879596000000000,-0.411280987618314
Go coffee,LU1 2TJ,51.879550000000000,-0.415285000000000
BURGER KING-The Mall Luton,LU1 2TL,51.880114122285300,-0.416499892678701
Greenfields Restaurant,LU1 2TW,51.879191000000000,-0.412639000000000
Robbys Teashop,LU1 2TW,51.879191000000000,-0.412639000000000
Lime House Cafe,LU1 2TY,51.879137000000000,-0.415968000000000
O'Sheas,LU1 3AL,51.873659179334900,-0.417249597787009
grill 33 limited,LU1 3BW,51.876685000000000,-0.410931584557266
La Dolce Vita (Luton) Limited,LU1 3ET,51.877345690497100,-0.412019000000000
The Chequers,LU1 3EZ,51.875507795742000,-0.408976845312153
QUALITY FOOD LUTON LIMITED,LU1 3HG,51.875688479824200,-0.408374851713551
Wamimichi Noodle Bar,LU1 3HG,51.875688479824200,-0.408374851713551
Luton Hoo Hotel Golf & Spa,LU1 3TQ,51.848694996565900,-0.401719514286209
313 Burger,LU1 3UA,51.874448696608900,-0.418456656147793
Frog & Rhubarb,LU1 4BJ,51.855551501351100,-0.432144354050943
The Rising Sun Pub,LU1 4BP,51.853828000000000,-0.431623000000000
The Plough ,LU1 4LU,51.859424377055500,-0.438036336086666
CAFE SHIMLA,LU1 5AA,51.877908063128900,-0.419613732791247
Jill Jenkins Court,LU1 5QY,51.876323749762700,-0.438336983204720
Vault Lounge (Taste of Africa) ,LU2 0BW,51.884287535240500,-0.412589976913709
Waffles N Jerk,LU2 0BW,51.884287535240500,-0.412589976913709
TJ’s Peri Peri Grill and Pizza Ltd ,LU2 0DQ,51.885155334538300,-0.410932015953562
Hampton by Hilton London Luton Airport,LU2 0FP,51.873678157200000,-0.395938519100000
Victoria Kitchen,LU2 0NP,51.883985000000000,-0.415419000000000
CJ's Cafe ,LU2 7SF,51.908235425129600,-0.411627000000000
Old Skool Pantry Limited,LU2 7SW,51.891510409243800,-0.402148321799009
Wigmore Fish Chips & All Day Dining ,LU2 8DW,51.895763000000000,-0.380406000000000
The White Horse,LU2 8PS,51.894889000000000,-0.349795000000000
KING WILLIAM,LU2 8QE,51.901670204969800,-0.367367453516367
Courtyard by Marriott Luton Airport,LU2 9LF,51.876294848044800,-0.383598681705780
Holiday Inn Luton Airport,LU2 9LF,51.876294848044800,-0.383598681705780
I'AMME UK LIMITED,LU2 9LU,51.879813000000000,-0.377153000000000
The Smithfield ,LU2 9LY,51.877840757998600,-0.376366427222852
Wasabi Sushi & Bento,LU2 9LY,51.877840757998600,-0.376366427222852
Ace Sandwich Bar LTD,LU2 9PA,51.880128000000000,-0.381776000000000
The Bright Star ,LU2 9QP,51.857605000000000,-0.343057000000000
Buffalo grill,LU2 9XG,51.888339770362100,-0.371570573848368
Grill Hut Peri Peri,LU3 1AN,51.891219233599700,-0.429275775806896
DESSERT ISLAND UK LTD,LU3 1AR,51.894662878111700,-0.431960630159302
Flava,LU3 1AW,51.892636204764300,-0.430345385765192
Azure Restaurant,LU3 1BT,51.884399541291500,-0.419574971468928
Amor Dessert Lounge,LU3 1PB,51.898797415416100,-0.436569517934622
uk periperi,LU3 1PB,51.898797415416100,-0.436569517934622
Ashiyana Indian,LU3 2DQ,51.913356701685300,-0.430626202388194
Arianaz Restaurant and Wine Bar,LU3 2QQ,51.904526000000000,-0.453567000000000
Dildar Restaurant,LU3 3BH,51.916151560600700,-0.470121769741107
INDIAN OCEAN ,LU3 3BH,51.916151560600700,-0.470121769741107
MR FISH AND GRILL ,LU3 3BH,51.916151560600700,-0.470121769741107
SKF,LU3 3BL,51.919072698360300,-0.473497806343841
THE COFFEE HOUSE,LU4 0DZ,51.895405000000000,-0.476044000000000
Subway,LU4 8DA,51.890591161754700,-0.444948619958143
Orbital Trampoline Park (Luton) Limited,LU4 8EZ,51.890146389834500,-0.455385000000000
Arabella lounge,LU4 8FG,51.886391137563400,-0.429981716840908
Coffeepot ,LU4 8FG,51.886391137563400,-0.429981716840908
CAFE LUTON ,LU4 8HX,51.888347271110400,-0.431829000000000
Alankar,LU4 8JL,51.887018000000000,-0.433781000000000
pepes piri piri,LU4 8JS,51.889399659929800,-0.439845561196187
The Coffee Tree,LU4 9ND,51.901013000000000,-0.470985000000000
Chiltern Hotel Ltd,LU4 9RU,51.892803965896700,-0.451833391581205
GObowling,LU5 4JD,51.890684554810200,-0.521252613703741
CURRY GARDEN (DUNSTABLE) LTD T/A CURRY GARDEN FINEST INDIAN CUISINE,LU5 4NP,51.892782632567900,-0.498062420875493
CURRY GARDEN,LU5 4NP,51.892782632567900,-0.498062420875493
Kazmicks Restaurant,LU5 4RH,51.887133293792900,-0.520569968558948
The Old Palace Lodge Hotel ,LU5 4RT,51.887286000000000,-0.517566603350755
Chez Jerome ,LU5 4RU,51.886117885669400,-0.519905846221085
Coconut Garden,LU6 1AU,51.893842802691200,-0.531481831678051
Cafe Latte,LU6 1HX,51.886624178925100,-0.522272229790260
IVORY PALMS SUITE LIMITED ,LU6 1HX,51.886624178925100,-0.522272229790260
Subway Dunstable,LU6 1HX,51.886624178925100,-0.522272229790260
The Old Sugar Loaf,LU6 1LA,51.886914758904300,-0.521783188595634
KHAM LTD T/A ROYMAI THAI RESTAURANT,LU6 1LN,51.890731731216400,-0.527165544686546
CAFEMASALA ,LU6 1RB,51.872388000000000,-0.580432527187415
The Old Farm Inn,LU6 1RE,51.879320606493900,-0.563466632553291
White Lion Pub ,LU6 1RS,51.901866790084400,-0.545523100682761
The Way Coffee House,LU6 1SX,51.885769000000000,-0.522082000000000
Costa Coffee Dunstable,LU6 1TD,51.886828758680200,-0.521379152054416
The Cross Keys ,LU6 2DA,51.886818406010500,-0.578179562422350
The White Horse,LU6 2DG,51.878632000000000,-0.593489000000000
The Swan,LU6 2EY,51.869552250560800,-0.606539374928632
OLD HUNTERS LODGE (WHIPSNADE) LIMITED,LU6 2LN,51.852374870306000,-0.533746697637912
The Farmers Boy,LU6 2PJ,51.852950860138800,-0.508042598223170
Zeera ,LU6 2PX,51.879591763501400,-0.542377495747533
Jaccs coffee,LU6 3AH,51.883236660082900,-0.522455956285090
Holiday Inn Express Dunstable,LU6 3DX,51.875617000000000,-0.504983000000000
Priory House Tearooms,LU6 3RZ,51.885351724572100,-0.519640000000000
Sugar 'n' Spice,LU6 3RZ,51.885351724572100,-0.519640000000000
Peri Peri Original Dunstable ,LU6 3SF,51.884203012412700,-0.517789269579085
The White Swan,LU6 3SF,51.884203012412700,-0.517789269579085
The Queens Head,LU7 0NS,51.895669691731500,-0.720297474227355
AR DOVE LTD,LU7 0PB,51.893638065450500,-0.718683938952408
the old swan,LU7 0RQ,51.845461258318700,-0.661287108841017
Aylesbury Vale Golf Club,LU7 0UJ,51.914811550147200,-0.746971111391443
Red naga,LU7 1AU,51.920226235958400,-0.661376564365004
Costa Coffee Leighton Buzzard,LU7 1DN,51.916250689182100,-0.663632157265688
Sorelli Cafe,LU7 1DN,51.916250689182100,-0.663632157265688
Kayra Mediterranean Restaurant ,LU7 1EA,51.915780000000000,-0.663224000000000
Shan Shui Chinese Restaurant,LU7 1EA,51.915780000000000,-0.663224000000000
Subway Leighton Buzzard,LU7 1EA,51.915780000000000,-0.663224000000000
The Pantry,LU7 1EA,51.915780000000000,-0.663224000000000
The lime tree,LU7 1EN,51.918110226556100,-0.660319872387032
Espresso-Head,LU7 1HJ,51.917333062082100,-0.657361000000000
The oliver and hare,LU7 1HJ,51.917333062082100,-0.657361000000000
Latte Dah,LU7 1JH,51.916572554849700,-0.660307475023828
Mevan Ocakbasi & Bar,LU7 1RT,51.915762113224400,-0.660200736097135
The Ship,LU7 2NN,51.913534755978400,-0.675518477371840
The Stag,LU7 3AB,51.924243150797800,-0.659599236154222
Subway Grovebury Retail Park,LU7 4EG,51.911314000000000,-0.635970000000000
Costa Coffee Grovebury Retail Park,LU7 4UX,51.902311239833600,-0.666560434324977
HUFSA AZIZ LIMITED T/A HALDI RESTAURANT,LU7 9AS,51.834718784144100,-0.635669750863599
Bury Farm Equestrian Club,LU7 9BT,51.879108000000000,-0.643959000000000
New Bury Park Events Ltd,LU7 9BT,51.879108000000000,-0.643959000000000
The Village Swan,LU7 9DP,51.852408864196300,-0.616738830144164
The King's Head,LU7 9EB,51.837607884107000,-0.632040871443424
Rose & Crown,LU7 9EQ,51.837240686957300,-0.629076526289680
CuriosiTEA Rooms,LU7 9EX,51.835816111849500,-0.632603155903305
MCDONALD'S,LU7 9HH,51.902264072412100,-0.651212000000000
Mead Open Farm,LU7 9JH,51.893965000000000,-0.623340000000000
CURRY GARDEN EGGINGTON LIMITED,LU7 9PD,51.916642126240000,-0.611988685213456
THE ANCHOR PUB,LU7 9PU,51.909368866549900,-0.575185127555972
Tilsworth Golf Centre Ltd,LU7 9PU,51.909368866549900,-0.575185127555972
Cod & Waffle ,LU7 9SP,51.904282000000000,-0.651603000000000
Kl tandoori ltd,WD4 8AB,51.713283024166000,-0.449763310795625
Oscars Pizza Company Limited,WD4 8AB,51.713283024166000,-0.449763310795625
Cinnamon Lounge,WD4 8BH,51.713462572324300,-0.450423026420691
LANGLEY SPICE LIMITED,WD4 8BH,51.713462572324300,-0.450423026420691
The Windmill Public House,WD4 9BU,51.701765000000000,-0.495380000000000
Fred & Ginger Coffee,WD4 9HT,51.711934465819000,-0.449780466878348
Chipperfield Garden Centre,WD4 9LH,51.712071330554600,-0.504041097861800
The Boot Pub,WD4 9LN,51.711295529238600,-0.500451000000000
Forest of India Ltd,WD5 0AA,51.707235439935000,-0.416348950903831
THE NOOR MAHAL ABBOTS LTD,WD5 0AR,51.706410889007200,-0.417217171350585
AROMA KITCHEN,WD5 0BT,51.700907203624300,-0.403878691763929
The Royal Oak pub ,WD5 0ET,51.703547000000000,-0.419430000000000
Woodlands Cafe,WD5 0GU,51.704570671339600,-0.404676081440720
