name,postcode,lat,lon
cobra and Argus,LL35 0DY,52.546226607833500,-4.047852125073670
Prion and puff adder,LL35 0EL,52.544487000000000,-4.045092309788530
New World blackbird and Fox,LL35 0LB,52.546478103076300,-4.045268051338000
bearded lizard and tokay,LL35 0LR,52.545037874577100,-4.039004000000000
terrapin and Prion,LL35 0LS,52.545124318661100,-4.038789574244670
Warbler and wall lizard,LL35 0NA,52.546155000000000,-4.036463000000000
carpet snake and milk snake,LL35 0PF,52.550578877536700,-4.046786310077210
thorny devil and black snake,LL35 0PW,52.546787250118500,-4.048187959610810
sand viper and moloch,LL35 0RF,52.556187000000000,-3.988453000000000
snake and Fox,LL35 0RN,52.555342000000000,-3.992205000000000
Fulmarine petrel and hognose snake,LL35 0SE,52.552616961589000,-4.069700781630260
massasauga and Cuscus,LL35 0SG,52.554094000000000,-4.044295000000000
king cobra and River dolphin,LL35 0TB,52.547587000000000,-4.043986000000000
saltwater crocodile and Kangaroo,LL36 0AY,52.584047507275900,-4.097973860731180
Tattler and Gull,LL36 0BS,52.582633000000000,-4.093109000000000
Songlark and crocodile,LL36 0BT,52.584793000000000,-4.094445044529580
mud turtle and racer,LL36 0DF,52.582986302448200,-4.099000730465690
Mamo and water snake,LL36 0DY,52.580420143250200,-4.088531124866440
blindworm and Zebra,LL36 6AJ,52.588301000000000,-4.081075000000000
Masked owl and garter snake,LL36 9AA,52.587158897972100,-4.087272035797980
kabaragoya and Wader,LL36 9BU,52.587725777551800,-4.086737998793960
Thrasher and viper,LL36 9DA,52.587414803046000,-4.084995993022590
Linsang and flying dragon,LL36 9EA,52.586547937744700,-4.085205792160750
perentie and Masked owl,LL36 9HN,52.581644422471000,-4.075157128075640
krait and viper,LL36 9HP,52.586514000000000,-4.072760625395960
Jay and chuckwalla,LL36 9NT,52.607358236715200,-4.056168617127690
Chipmunk and Meadowlark,LL36 9RL,52.637065871529500,-3.981774257878950
Old World vulture and cayman,LL36 9YS,52.645992865618600,-3.959147484537060
Minke whale and American sparrow,LL37 2QR,52.675492885545400,-4.073760745087410
tortoise and alligator,LL38 2LX,52.698608918638600,-4.056238171875910
Buzzard and Pitohui,LL38 2NJ,52.691359145989300,-4.048099039678480
blind snake and gaboon viper,LL38 2PJ,52.697227143393700,-4.052961693325030
flying lizard and taipan,LL39 1YS,52.718955000000000,-3.998560000000000
glass snake and boa,LL42 1BA,52.722037620078400,-4.052735198170410
Scimitar babbler and cayman,LL42 1BL,52.720921010060200,-4.051276020633790
Puffleg and Elephant,LL42 1BQ,52.736513960297000,-4.070791120482880
Dorcopsis and king snake,LL42 1BS,52.720553697516800,-4.051199548549310
Rat and Zebra,LL42 1DP,52.722079231621200,-4.053966218580680
Jackal and fer-de-lance,LL42 1DQ,52.721896715921600,-4.044761903821280
terrapin and blind snake,LL42 1DT,52.722482491149800,-4.042526000000000
copperhead and viper,LL42 1DU,52.720971379681800,-4.053040494355620
Armadillo and viper,LL42 1LB,52.727243406394900,-4.063613212343740
Tattler and monitor,LL42 1LP,52.722388035219000,-4.055343081846660
Kākāriki and Rat,LL42 1LY,52.722071801160000,-4.057504986779130
Maya and gavial,LL42 1SU,52.720608144626100,-4.044690000000000
Towhee and Mouse,LL42 1TH,52.744396629620400,-4.002376370409040
perentie and Shearwater,LL42 1YP,52.733132281464000,-4.065180048714920
Recurvebill and Warbler,LL42 1YY,52.736872142652400,-4.069845253930970
milk snake and copperhead,SY20 9DR,52.586035387194800,-3.921028401843100
Guillemot and Siskin,SY20 9JT,52.585519794683600,-3.922880571474580
