name,postcode,lat,lon
Seabreeze,LL35 0EA,52.54402410000000,-4.04778750000000
Coast Deli & Dining,LL35 0EE,52.54407400000000,-4.04438310000000
The Britannia Inn,LL35 0EF,52.54439926147460,-4.04335117340088
Victorian Slipway,LL36 0DG,52.5822,-4.0986
DEJA VU COFFEE SHOP,LL36 9AD,52.58595130000000,-4.09249240000000
The Dysynni Wine Bar,LL36 9AD,52.5862,-4.0909
Gwesty Minffordd Hotel ,LL36 9AJ,52.68013000488280,-3.88834309577942
Tyn Y Cornel Hotel ,LL36 9AJ,52.68013000488280,-3.88834309577942
DIne India,LL36 9BS,52.58723570000000,-4.08645670000000
Salt Marsh Kitchen,LL36 9BS,52.58742370000000,-4.08599320000000
kayleigh shelley ,LL36 9DF,52.5877,-4.0850
Kings Cafe,LL36 9EY,52.58371370000000,-4.08885790000000
dolgoch guest house,LL36 9UW,52.62252426147460,-3.99529290199280
SUNBEACH HOLIDAY PARK,LL37 2QQ,52.6578,-4.0968
TAFARN Y GADER TAPAS LTD,LL40 1AA,52.74312591552730,-3.88454604148865
Torrent Walk Hotel,LL40 1AA,52.74312591552730,-3.88454604148865
Royal Ship Hotel,LL40 1AR,52.74320602416990,-3.88564610481262
Gwyndy,LL40 1AU,52.74367120000000,-3.88529570000000
Y Sospan,LL40 1AW,52.74297714233400,-3.88594698905945
T.H.Coffee Shop,LL40 1BB,52.74323272705080,-3.88512897491455
The Gatehouse Steakhouse,LL40 1DL,52.74394226074220,-3.88584089279175
Yr hen efail,LL40 1DL,52.74394226074220,-3.88584089279175
Y Meirionnydd,LL40 1ES,52.74239349365230,-3.88427805900574
The George III,LL40 1YD,52.74671936035160,-3.93766903877258
DOLGELLAU STARBUCKS,LL40 2AB,52.74701309204100,-3.86106801033020
Cross Foxes Dolgellau Ltd,LL40 2SG,52.72673797607420,-3.82629108428955
Royal Hotel Barmouth,LL42 1AB,52.72333908081050,-4.05644702911377
Bendi-gedig ltd,LL42 1AD,52.72330093383790,-4.05604505538940
The Bay Restaurant at Hendre Coed Isaf Caravan Park,LL42 1AJ,52.73958969116210,-4.07172918319702
Tal y Don Hotel,LL42 1DL,52.72224426269530,-4.05430698394775
The Bank Restaurant,LL42 1DW,52.72166824340820,-4.05388021469116
The Barmouth Bar And Grill,LL42 1EG,52.72025299072270,-4.05187416076660
Myrddins,LL42 1EH,52.72009277343750,-4.05127382278442
isis pizzeria,LL42 1ET,52.71948242187500,-4.05179309844971
Bistro Bermo,LL42 1EW,52.72023773193360,-4.05237722396851
Min-y-Mor Hotel,LL42 1HW,52.72531890869140,-4.06312894821167
The White Lion Hotel,SY20 8DN,52.58979100000000,-3.85350400000000
Number Twenty One,SY20 8EB,52.59075600000000,-3.85159600000000
Black Lion Inn,SY20 8TN,52.57489013671875,-3.88667035102844
