name,postcode,lat,lon
horned toad and cycling lizard,LL35 0HE,52.544681411948600,-4.046216866217550
Kite and gecko,LL35 0LA,52.546768835902700,-4.044573627144220
Peafowl and Wallaby,LL35 0NF,52.545051376987800,-4.041455632446580
bicycle lizard and iguana,LL35 0RN,52.555342000000000,-3.992205000000000
elapid and Tit-tyrant,LL36 9PU,52.607327823033900,-4.044425645075540
green turtle and gopher snake,LL36 9RW,52.610212716887600,-4.044500989527210
racer and Bronzewing pigeon,LL36 9UG,52.643910000000000,-4.027433000000000
diamondback terrapin and Condor,LL36 9UP,52.629503537415800,-3.990933752270460
snapping turtle and Black cockatoo,LL36 9YN,52.644337044231200,-3.956516257095370
Fish eagle and giant tortoise,LL36 9YT,52.645800527173000,-3.959360615007510
blind snake and Duck,LL38 2NJ,52.691359145989300,-4.048099039678480
gecko and skink,LL38 2RJ,52.696244868111200,-4.041120582550430
Pheasant and alligator,LL39 1YR,52.718122616191200,-4.003571016674310
dukite and Schneider python,LL39 1YS,52.718955000000000,-3.998560000000000
caiman and tiger snake,LL40 1AU,52.743843000000000,-3.885358593258170
Flameback and Condor,LL40 1DG,52.743291493498700,-3.886102380253360
brown snake and glass snake,LL40 1HG,52.741728466944300,-3.883753469128090
alligator and Shearwater,LL40 1RP,52.741200248762100,-3.887004600774610
pit viper and Tit-tyrant,LL40 1TG,52.739878000000000,-3.923448000000000
Vole and Civet,LL40 1YJ,52.746712970259800,-3.937647024712550
Jackal and python,LL40 2RF,52.742666000000000,-3.830249615924960
Prion and Buzzard,LL40 2YQ,52.746315149367500,-3.887625687109370
python and Lemming,LL40 2YW,52.745781725998400,-3.887247049314690
Elephant and Civet,LL42 1LX,52.720588023014200,-4.046092571430490
Guillemot and Herring gull,LL42 1SU,52.720608144626100,-4.044690000000000
Magpie and fer-de-lance,SY19 7DS,52.611630000000000,-3.660969000000000
sand lizard and Jerboa,SY20 8BA,52.591292641043300,-3.854084634068310
iguana and caiman,SY20 8DY,52.590614966200200,-3.849125122732060
hognose snake and garter snake,SY20 8HR,52.592115931328000,-3.841083091394560
Ground sloth and Mockingbird,SY20 8JB,52.593151851794100,-3.839221976568640
Minke whale and Capuchin,SY20 8JD,52.591416941464000,-3.849587036581940
Civet and adder,SY20 8NB,52.627952284133400,-3.800846121518260
pit viper and Greenbul,SY20 8ND,52.538131548848500,-3.941349315126690
Condor and black snake,SY20 8NQ,52.592350122096600,-3.822461120770850
Myna and hognose snake,SY20 8NW,52.606537578598300,-3.791253850051440
Badger and Grouse,SY20 8PA,52.588695415914800,-3.841914000702730
Lemming and thorny devil,SY20 8SY,52.542889678863300,-3.937400578203150
indigo snake and terrapin,SY20 9AB,52.666033509065700,-3.708239451252610
tokay and Recurvebill,SY20 9AU,52.629963676703000,-3.854034959730870
Jackal and anole,SY20 9BP,52.662889532694000,-3.857986841260530
Jerboa and Stint,SY20 9EF,52.708906000000000,-3.665438000000000
Ibex and Marmoset,SY20 9HD,52.641486242333400,-3.842180821230680
frilled lizard and cobra de capello,SY20 9JF,52.722671970851000,-3.686464581728410
Petrel and Kestrel,SY20 9JP,52.600877793538300,-3.855759432371700
Crow and Thrasher,SY20 9JZ,52.582694816994600,-3.937325670722900
Schneider python and Old World vulture,SY20 9LW,52.713376933465300,-3.690162336001400
sidewinder and Nukupu ªu,SY20 9NG,52.682721393429400,-3.705665687599670
Old World quail and skink,SY20 9NQ,52.691778238789400,-3.696045612596660
Chicken and bandy-bandy,SY20 9RE,52.652935341248200,-3.845412068302860
brown snake and Ground sloth,SY20 9RL,52.656846291969100,-3.838479811285410
anaconda and hawksbill,SY20 9SR,52.654239934061200,-3.842465754505470
White ibis and Magpie,SY20 9SY,52.654348163382100,-3.841287537326950
blue racer and mud turtle,SY20 9TG,52.651908000000000,-3.838686000000000
