name,postcode,lat,lon
midland leisure ltd trading as the new hen and chickens,B70 0RT,52.537774620000000,-2.011780721000000
the Dovecote pub & carvery,B70 0SD,52.540606290000000,-2.013108489000000
Big Johns West Brom,B70 9RL,52.525352000000000,-2.007090000000000
Harry's Diner,B71 1AN,52.531913650000000,-1.993072210000000
McDonald's,B71 1RG,52.530393990000000,-1.988252150000000
The Red Lion,B71 1RH,52.531328930000000,-1.988237165000000
Greedy Pig 2,B71 2BW,52.537109690000000,-1.991390699000000
Subway,B71 4DL,52.530897340000000,-1.987500222000000
Hallam Restaurant Sandwell Hospital,B71 4HJ,52.527355370000000,-1.987884444000000
The caves bar &grill,DY1 3SB,52.527927756765300,-2.096460036002140
CROWN,DY3 1RJ,52.544283699517300,-2.122168000000000
Delightful Desserts,DY3 1RP,52.541766055591900,-2.122455975656610
Subway,DY3 1RP,52.541766055591900,-2.122455975656610
Spices,DY3 1SA,52.540491122497200,-2.120874776417580
Lime ,DY3 1SR,52.538676628014300,-2.119439640480070
Upper Gornal McDonald's,DY3 1UX,52.527802250104400,-2.116182000000000
Seven Stars,DY3 3LT,52.539134375532800,-2.128700044145150
The Summerhouse Sedgley Ltd,DY3 4AN,52.540723234175900,-2.146176834895510
The Staffordshire Golf Club,DY3 4PU,52.527506832957100,-2.231403783669510
the kings arms,DY4 0HP,52.535001000000000,-2.038257339795880
Alis kitchen,DY4 7EL,52.530218475573700,-2.035025034965150
Balti nites,DY4 7EL,52.530218475573700,-2.035025034965150
A&S Restaurants LTD T/A McDonalds,DY4 7HJ,52.530785599300100,-2.032490000000000
Mughal Massala ,DY4 8DB,52.528502160258100,-2.072699905495580
Bangla Cottage,DY4 8EZ,52.529350310174900,-2.067483138499180
The fountain inn ,DY4 8HE,52.528773506076600,-2.069973379787670
Mad O'Rourkes Pie Factory,DY4 9AB,52.530630916226300,-2.075636898323630
The Barge & Barrel ,DY4 9AU,52.530329000000000,-2.071833000000000
Halfpenny Green Wine Estate,DY7 5EP,52.531070904358300,-2.251426356928900
Littleton Arms,ST19 5AL,52.724847584847800,-2.116839419399560
Bridgehouse restaurant,ST19 5AS,52.726340523213600,-2.116162299307650
Corner spice limited ,ST19 5AY,52.726126576209600,-2.114310870623910
Honeypots Cafe,ST19 5RE,52.739516000000000,-2.101564000000000
Cabin cafe,ST19 5RP,52.736266405049100,-2.050475000000000
THE BOAT INN,ST19 5RP,52.736266405049100,-2.050475000000000
Pillaton Tea Room,ST19 5RZ,52.716605000000000,-2.085922000000000
The Bridge Inn,ST19 9BD,52.677189537012300,-2.177840347591440
Staffordshire Grill at The Lion Hotel,ST19 9BS,52.676476387282000,-2.173784962942240
Lazy Days,ST19 9DX,52.677672743537400,-2.173286841092270
The Three Stirrups ,ST19 9DZ,52.678816859826300,-2.171620006260040
The Hartley Arms,ST19 9NF,52.712829063888200,-2.218292000000000
Bradford Arms,ST19 9QT,52.694188435990600,-2.234297000000000
Cafe India ,ST19 9QT,52.694188435990600,-2.234297000000000
The Red House,TF10 9EW,52.745195075705500,-2.399607116079760
The TEA Rooms  Norwood House ,TF10 9LQ,52.748766675210000,-2.359626000000000
Nans Cafe Bar,TF11 8AF,52.666313419949800,-2.374000667170490
Haughton Hall Limited,TF11 8HG,52.670658941357500,-2.378562982428670
Weston Park Enterprises Ltd,TF11 8LE,52.692951224234500,-2.287970000000000
The Bell Shifnal,TF11 9AA,52.664973940267600,-2.374004010559260
Odfellows Wine Bar,TF11 9AU,52.665928000000000,-2.368364000000000
Christopher's,TF11 9AZ,52.665669161524200,-2.373048827011450
Latimer's of Shifnal,TF11 9AZ,52.665669161524200,-2.373048827011450
Number 5 Coffee House,TF11 9BA,52.664439463355900,-2.372240000000000
park house hotel,TF11 9BA,52.664439463355900,-2.372240000000000
Pie & Smokehouse (Shropshire) Ltd,TF11 9DN,52.611010413691400,-2.352838896471970
McDonald's,WS1 4SB,52.566409000000000,-1.992256000000000
Park Inn by Radisson Birmingham Walsall,WS1 4SE,52.564375757056200,-1.989320000000000
Buttylicious,WS10 0DX,52.556231402346700,-2.000782569474310
Akropolis Savor,WS10 0ED,52.550990249315000,-1.995326000000000
D's Soulfood Kitchen,WS10 0ED,52.550990249315000,-1.995326000000000
Le bakery ,WS10 0ED,52.550990249315000,-1.995326000000000
The Village Inn,WS10 0QB,52.554073660091800,-2.006342846294020
PARKHILL CAFE,WS10 0TJ,52.557840538625100,-1.996298563931180
island cafe and takeaway ltd,WS10 7AQ,52.551788870962800,-2.018907897246480
seven Bar,WS10 7AQ,52.551788870962800,-2.018907897246480
The Vintage Tea Room and Cafe,WS10 7HB,52.552678444147200,-2.021356521579480
Lamp restaurant ,WS10 7HQ,52.553388698176700,-2.021047148978670
spices restaurany & takeaway wednesbury ltd,WS10 7PA,52.552337000000000,-2.026430000000000
MAC'S DINER LTD,WS10 8BQ,52.570821000000000,-2.023180000000000
Herberts Tavern,WS10 8QU,52.568313991117300,-2.045235628990790
churchills bar and restaurant,WS10 9BZ,52.553219000000000,-2.019159000000000
Gurkha 1816,WS10 9QW,52.561454316985000,-2.006373457792030
Jamaica Blue Next (Wednesbury) ,WS10 9QY,52.566795000000000,-2.007791000000000
Smashburger,WS10 9QY,52.566795000000000,-2.007791000000000
Eastern Memories,WS11 0BB,52.675746246064300,-2.030143223463940
OK Diner Cannock,WS11 0BN,52.673580442646600,-2.027391000000000
Shabab restaurant & takeaway ltd,WS11 0DR,52.688001000000000,-2.025403000000000
Aydan spice ltd,WS11 0JB,52.680477000000000,-2.026906890609790
Subway Cannock,WS11 1AH,52.687594139209700,-2.031911917884450
the white hart,WS11 1AP,52.687531311529500,-2.031542026565560
Bar Sport Sports Grill,WS11 1BJ,52.689562555419000,-2.032934000000000
The Loft 89 Ltd,WS11 1BS,52.688502473594000,-2.030477554566050
hannahs,WS11 1DD,52.689041867234500,-2.030418756109180
Saleem Bagh,WS11 1EA,52.690256124074900,-2.027771351238630
PADMA ,WS11 1GR,52.688672887898100,-2.031942299189520
The Liquor Tank Ltd.,WS11 1GR,52.688672887898100,-2.031942299189520
Shoal Hill Tavern ,WS11 1RF,52.692604381594200,-2.049567000000000
EGO at Tumbledown Farm,WS11 1RU,52.682498804886500,-2.069539291315460
Roadking (Hollies) Truckstop,WS11 1SB,52.685676300200400,-2.077089000000000
Truckers rest ,WS11 1SF,52.681629744830900,-2.064360771069180
Longford McDonald's Restaurant,WS11 1TD,52.678122713259600,-2.047835000000000
Holy Smoke Bar & Grill Ltd,WS11 1UE,52.690353978152500,-2.032047000000000
Indulge ,WS11 5DB,52.702888920308600,-2.014711930535810
Dilshad Restaurant,WS11 5DZ,52.702412368880100,-2.015496105742230
Hednesford McDonald's Restaurant,WS11 7GF,52.693847000000000,-2.008850000000000
Bellas Coffee House,WS12 1AD,52.709101688980500,-1.999690941751630
Jaipur balti lounge ltd ,WS12 1AD,52.709101688980500,-1.999690941751630
Jaipur lounge ltd,WS12 1AD,52.709101688980500,-1.999690941751630
Subway,WS12 1AD,52.709101688980500,-1.999690941751630
The Shiny Fork,WS12 1AG,52.709281479286600,-1.999069292843080
HEN HOUSE,WS12 1AR,52.707582444706100,-1.999957353854740
HEN HOUSE SPORTS BAR,WS12 1AY,52.708121812671400,-1.998284869835530
spice of hednesford,WS12 1AY,52.708121812671400,-1.998284869835530
Costa Coffee,WS12 1BT,52.709444000000000,-1.997574000000000
Hednesford Bingo,WS12 1DU,52.708896000000000,-1.996686554217260
KFC,WS12 1LT,52.699887208456800,-2.005166204654860
Olive Grove ,WS12 2DN,52.700464000000000,-1.997071638360930
Panshi,WS12 3XP,52.691949490417100,-1.999602187675490
The Winding Wheel ,WS12 3XP,52.691949490417100,-1.999602187675490
Blue Ginger ,WS12 4NU,52.708852170679900,-2.039890499078010
The Barns,WS12 4PB,52.713280851238500,-2.048420813549720
Springslade Lodge Limited,WS12 4PT,52.739286567361400,-2.022322611023600
Hungry Pigs Cafe,WS2 0DU,52.585256949842000,-2.024486770807550
BB's Coffee Shop c/o Boundary Mill Stores,WS2 0LE,52.581672000000000,-2.017873000000000
TJX Europe,WS2 7PT,52.600344298003600,-1.994686000000000
Subway,WS2 8DH,52.585872000000000,-1.989610000000000
parkbrook bar and grill ltd,WS2 8RJ,52.587488788334700,-2.006908753693570
The Alma Inn ,WS2 8SP,52.591291631279100,-2.003499000000000
McDonald's,WS2 8XD,52.596642000000000,-2.000695000000000
king George v,WS2 9BZ,52.569859990307700,-2.000384531118750
Pepes Piri Piri,WS2 9HE,52.576945000000000,-2.001432000000000
heavenly desserts walsall ltd,WS2 9HE,52.576945000000000,-2.001432000000000
PREMIER DINER,WS2 9NT,52.581539000000000,-1.991161000000000
olive Restaurant and Sweet,WS2 9QL,52.573455872594600,-1.996400630640210
MAC'S DINER LTD,WS2 9QN,52.573493000000000,-1.997183000000000
Zeera Authentic Eastern cuisine ,WS3 2HR,52.616130261050000,-2.005525000000000
The Gulshan balti,WS3 2JE,52.616905000000000,-2.005141000000000
Penguin cafe,WS3 2XA,52.604803070569500,-1.991983241103090
The Vintage Tea Room,WS3 2XD,52.606288000000000,-1.993120000000000
Subway,WS3 3HE,52.615141503090600,-2.003014152011040
Ashoca,WS3 3JT,52.614666000000000,-2.004092000000000
Mirchi catering ltd,WS3 3UB,52.629623257124000,-2.013194705247120
one man and his dog ,WS3 3UB,52.629623257124000,-2.013194705247120
NEW IVY HOUSE,WS6 6AZ,52.636284935487800,-2.010315329447720
The New Masons Bar And Grill,WS6 6AZ,52.636284935487800,-2.010315329447720
Olde Wyrley hall,WS6 6LL,52.664960726631300,-2.020495146107470
Jessicas Catering and Vending Solutions Ltd,WS6 6NQ,52.664206771818500,-2.012052023891850
the star inn,WS6 6NQ,52.664206771818500,-2.012052023891850
The Royal Oak,WS6 6PE,52.666409214339600,-2.012318803130680
colliers arms,WS6 7AE,52.660120203871900,-2.037110686569320
the malt at landywood,WS6 7AR,52.649902175790300,-2.024612000000000
THE MARY ROSE,WS6 7AY,52.656102497677400,-2.034874997821270
Village Lodge,WS6 7ED,52.662351525188500,-2.030577486085000
Britannia Hotel ,WV1 1DD,52.586462220034900,-2.123525000000000
Baguette about it,WV1 1DG,52.586306219848900,-2.126698301745140
Zuri Coffee,WV1 1EQ,52.586795000000000,-2.124456000000000
Dilshad Indian Restaurant LTD,WV1 1HA,52.586092771236300,-2.124528018432670
Duke of York ,WV1 1HD,52.585957191647300,-2.125339000000000
Apna Dera Ltd,WV1 1HP,52.587270057897400,-2.124885603079070
Jivan’s Balti House,WV1 1HP,52.587270057897400,-2.124885603079070
Cafe 1896 Limited ,WV1 1JY,52.591003000000000,-2.123715000000000
2 Sisters Coffee Lounge ,WV1 1ST,52.585974135078300,-2.126195515863930
Falafilo coffeehouse ,WV1 1ST,52.585974135078300,-2.126195515863930
Alice's Tea Room,WV1 1TQ,52.585712000000000,-2.128335000000000
SUBWAY,WV1 1TQ,52.585712000000000,-2.128335000000000
Top Nosh,WV1 1TQ,52.585712000000000,-2.128335000000000
THE NEW VICTORIA LTD,WV1 2BA,52.588036033993600,-2.093743579773110
Fresh Bakes Cafe,WV1 2HW,52.583488473670700,-2.102825000000000
subway,WV1 3AE,52.584842381197000,-2.125395000000000
China Cooking,WV1 3EN,52.585505240985700,-2.127522515836260
McDonald’s Dudley St,WV1 3ER,52.584860000000000,-2.126841191229450
Subway Wulfrun Centre,WV1 3HG,52.583421000000000,-2.127487000000000
Oceans Fryer Ltd,WV1 3HH,52.583239721632500,-2.127353000000000
Little Dessert Shop Ltd,WV1 3JW,52.585814025974300,-2.124468000000000
The Queens,WV1 3JW,52.585814025974300,-2.124468000000000
Central Cafe,WV1 3NN,52.584489300725600,-2.128066000000000
Lindy Lou's coffee shop ltd,WV1 3NP,52.584739234312900,-2.129247112376670
Nutmeg,WV1 3NU,52.584496848884300,-2.128936456837730
Delhi 2 Bombay,WV1 4EP,52.585797042087800,-2.139773781124440
Rosso E Nero Restaurant,WV1 4HW,52.585368000000000,-2.131064000000000
MARIGOLD INDIAN RESTAURANT UK LIMITED ,WV1 4LP,52.583836909532600,-2.132801000000000
THE NEW SPICE RESTAURANT LIMITED,WV1 4LR,52.583927515783100,-2.131635663254510
Rocco Italian,WV1 4LY,52.585382671041000,-2.132702708187120
Heavenly Desserts,WV1 4ND,52.585319028405300,-2.133337168820670
Hamiltons Restaurant at A Park View Hotel,WV1 4PP,52.586956617585800,-2.139866036614050
Annabels Bar Cafe,WV1 4QL,52.588359000000000,-2.133036000000000
THE COFFEE HOUSE,WV10 0QP,52.599722000000000,-2.095555000000000
SUBWAY,WV10 6AN,52.618962579291200,-2.129924144471180
McDonald’s Stafford Road,WV10 6JF,52.601801609965100,-2.129474608018540
Tastebuds (Wolverhampton) Limited,WV10 6JH,52.603614713706400,-2.132034401145330
ming moon restaurant wolverhampton,WV10 6RR,52.619114753859200,-2.130515425540020
The Dog and Partridge,WV10 7DW,52.676640096966600,-2.092099690134400
Northycote Farm Tearoom ,WV10 7JF,52.626529510203600,-2.105763000000000
The Elms,WV10 7JR,52.653482243076300,-2.080387635540700
THE WHEATSHEAF INN,WV10 7LU,52.660434148846700,-2.060500280794780
Hollybush Coffee Shop LTD,WV10 7LX,52.652511000000000,-2.051590000000000
Three Hammers Bar & Bistro,WV10 7PP,52.650683000000000,-2.126752000000000
K-Tea's Tearoom & Cakes,WV10 8EB,52.622439034732500,-2.115059197172590
McDonald’s Fallings Park,WV10 8PN,52.611718497299500,-2.100558146799730
SUBWAY,WV10 8PN,52.611718497299500,-2.100558146799730
Mcbellas,WV10 9EZ,52.618969063822400,-2.123882951025740
THE DINER LTD,WV10 9QY,52.604935491171600,-2.105961680273250
Hungry hemmings cafe ,WV10 9UL,52.616674310545300,-2.117392465807950
McDonald’s Wednesfield,WV11 1BP,52.596911656231200,-2.090278445155190
Subway,WV11 1BP,52.596911656231200,-2.090278445155190
Qmin Restaurant ,WV11 1JP,52.610292106808800,-2.085344070743460
the castle inn,WV11 1NW,52.606358106671000,-2.080330575756510
The Village Inns Fisherman Limited,WV11 1PB,52.599599494861800,-2.090416864196050
Masala lounge ,WV11 1TW,52.602771373137800,-2.080058218177320
Little Dessert Shop Ltd,WV11 1UJ,52.597891777547100,-2.089970430234250
The cabin cafe,WV11 1XU,52.599265000000000,-2.081794000000000
The Baburchi Restaurant ,WV11 1YD,52.614049639237800,-2.085602472744550
The 1911 Café Ltd,WV11 2RF,52.631938550542200,-2.056944336783320
BST MIDLANDS LTD,WV11 2RH,52.635588059414000,-2.034636915401060
Evies kitchen ,WV11 3DD,52.607890329678800,-2.074278935940520
the navigation inn,WV11 3SU,52.596102545455300,-2.062551874572450
The Homestead,WV12 4DA,52.596142297541900,-2.030029031124240
Chilli Peppers,WV12 5BB,52.610999560649600,-2.039092000000000
TAMARIS INDIAN RESTAURANT ,WV12 5BE,52.612798637193400,-2.036080884630530
The Milestone,WV12 5DT,52.615124557932000,-2.043275502936840
The Noah's Ark Inn,WV13 1JB,52.588381457720400,-2.039057042268080
Clove (Willenhall) LTD,WV13 2EB,52.585862669998400,-2.043733565646960
YE OLDE TOLL HOUSE,WV13 2ER,52.584925693541600,-2.048913119307870
McDonald’s Willenhall,WV13 2RB,52.585279474733900,-2.040544961035920
Spice Lounge,WV13 3LH,52.583728106702100,-2.070503954248550
B J's tasty bites ,WV13 3RG,52.587860000000000,-2.077787908929340
Subway Bilston High St,WV14 0EH,52.564566000000000,-2.079118000000000
Bilston McDonald's,WV14 0EZ,52.563522000000000,-2.081698000000000
Purple Flamez,WV14 0LH,52.557856000000000,-2.071406575378240
Britsh Car Auction Wolverhampton Catering,WV14 0QL,52.562242000000000,-2.086313000000000
The Grapes ,WV14 6JG,52.578314227404700,-2.073934000000000
Shan (Midlands) Ltd,WV14 7DW,52.561744846724100,-2.060408000000000
The Golden Cue Snooker Club Limited ,WV14 7LH,52.571386000000000,-2.071650000000000
Fiery Grill & Curry,WV14 8NG,52.555967519456100,-2.053423588122950
triangle bar and grill ,WV14 8PA,52.557109470360900,-2.070121870268160
Chutney Indian Cuisine,WV14 9DP,52.540978870558400,-2.088365000000000
Coseley McDonald's,WV14 9JH,52.543467954456000,-2.089224741688780
subway,WV14 9JL,52.542118939583500,-2.089929752633710
Horse and Jockey,WV14 9SB,52.547570778536400,-2.106737427106830
The Old Vicarage Hotel & Restaurant,WV15 5JZ,52.559788334961300,-2.361101006569070
The dog inn,WV15 5LF,52.558486194350300,-2.357682956727560
The Wheel at Worfield,WV15 5NR,52.553332345180100,-2.349543977972320
K Teas Cakes,WV2 1BA,52.582532663547300,-2.124665492350520
THE BUILDERS ARMS,WV2 1EY,52.575892000000000,-2.122786853624420
Subedi Kitchen LTD at Red Lion Bilston Road,WV2 2HU,52.576347278776000,-2.106704174336240
COFFEE EXPRESS,WV2 2JN,52.575944035319000,-2.105257082887810
The Village Cafe,WV2 2LR,52.569935575164200,-2.098618021239390
SA Food and Grill,WV2 2PD,52.572454427809800,-2.096557979685010
THE ANGEL INN,WV2 2PD,52.572454427809800,-2.096557979685010
VEGGIE SUPREME PIZZA LTD,WV2 3AJ,52.574105780522400,-2.127873019502280
UPPER CRUST CAFE WOLVES LTD,WV2 3BY,52.576498983428600,-2.126094470263960
Lakshmi Sweet Centre LTD,WV2 3DR,52.571332000000000,-2.124634117407370
Dosa Hut,WV2 3JY,52.568160000000000,-2.124034000000000
ORO,WV2 3JY,52.568160000000000,-2.124034000000000
Jack’s Cafe bar ltd,WV2 4DU,52.578737000000000,-2.127709000000000
Kaz Bar Wolves Limited ,WV2 4HJ,52.576842462808800,-2.132603087557670
Desi yew tree,WV2 4HN,52.578121198152400,-2.130762000000000
MEAT AND EAT,WV2 4LD,52.582697241630000,-2.130584000000000
KFC,WV2 4NJ,52.574261979053600,-2.132816000000000
BRUFORD ARMS GRILL LTD,WV3 0AY,52.575810150997700,-2.146544562018140
McDonald’s Penn Rd,WV3 0LH,52.577621192269300,-2.135586313781510
KPS Bar & Grill,WV3 0LU,52.576799561165000,-2.138845000000000
kps bar and grill,WV3 0LU,52.576799561165000,-2.138845000000000
New Merridale,WV3 0RA,52.580897000000000,-2.133899000000000
Plazacafe,WV3 0RX,52.583541365741600,-2.131265534632410
Subway,WV3 0TT,52.585357656445900,-2.138961000000000
Bella Restaurant Limited,WV3 0TY,52.585778643180200,-2.140127951273930
ISO SUSHI WOK & GRILL,WV3 0TY,52.585778643180200,-2.140127951273930
Fat Daddies Smokeshack Ltd,WV3 0UN,52.582102000000000,-2.148218000000000
Kaptin korma,WV3 7HT,52.576616156254700,-2.155859000000000
balti palace ,WV3 7JP,52.571485333192000,-2.167393316050570
Ghale's Coffee Lounge,WV3 8AY,52.580362417426900,-2.170791940509650
The Firs,WV3 8HG,52.577830088078500,-2.186778532329430
Canalside Bar and Grill ,WV3 8JU,52.578633009756000,-2.196137978186950
Northern Lights Coffee Shop,WV3 9RX,52.584841346155300,-2.142295000000000
Penn Tandoori Ltd,WV4 4AD,52.566280827119400,-2.146630766133040
The Roebuck Pub,WV4 4DE,52.561012971151900,-2.153560994836240
CARIBBA RESTAURANT,WV4 4DF,52.560643755848600,-2.154046489636610
Penny's Cafe,WV4 4HU,52.556830548780600,-2.168178000000000
The Springhill,WV4 4LB,52.557580190445500,-2.172163580161490
Evoke Coffee,WV4 4LP,52.566011804162700,-2.166487270252420
5 Spice Cuisine Ltd,WV4 4PP,52.568311689055100,-2.167558257545220
Indigo Restaurant,WV4 4QL,52.565877000000000,-2.167607592341780
The Greyhound,WV4 4UN,52.562852698833500,-2.198029486768900
Ramada Resort Park Hall Wolverhampton,WV4 5AJ,52.560789744075500,-2.129649000000000
Beacon Centre for the Blind,WV4 6AZ,52.556753000000000,-2.122409000000000
Indian Street Food,WV4 6BH,52.564136586130000,-2.109447893205390
PARKFIELD CENTRAL GRILL LTD,WV4 6HQ,52.566095651898300,-2.110219933274190
Saturn Coffee Company,WV4 6JX,52.563648597599700,-2.102247651396730
The Three Crowns ,WV4 6RB,52.551619392051300,-2.112985705833310
The Red Lion Wombourne Limited,WV5 0JJ,52.535320973556700,-2.178430440305590
Woodman restaurant limited,WV5 7DG,52.548838000000000,-2.282320000000000
The Bell Inn ,WV5 7JB,52.545964000000000,-2.217330000000000
ROUND OAK INN,WV5 8BU,52.535752196221800,-2.201018102894550
Wombourne Tandoori Restaurant,WV5 9DN,52.534602325664600,-2.183941171371390
Fresh Coffee Shop,WV5 9EJ,52.537224426616300,-2.185824538111470
The new inn,WV5 9EY,52.537454899432600,-2.187889579008280
Farmer & Friends,WV5 9JB,52.535336910697500,-2.185595419106550
Wolverhampton Lawn Tennis & Squash Club,WV6 0LH,52.594806250937100,-2.160529000000000
Pegasus ,WV6 0QQ,52.596646984930200,-2.140398900469370
Kebab House,WV6 0QW,52.594145004537200,-2.142752863108090
Lychgate Coffee Shop,WV6 7BQ,52.588655344169300,-2.265867192188200
The Crown ,WV6 7BQ,52.588655344169300,-2.265867192188200
THE FOX AT SHIPLEY,WV6 7EH,52.561212000000000,-2.265052000000000
Bridgnorth Garden Centre,WV6 7EJ,52.561244271542900,-2.266335586035560
Farmer & Friends,WV6 7EZ,52.566569000000000,-2.244651000000000
Perton Golf Club,WV6 7HL,52.589977272234200,-2.217223055039420
The Dartmouth Arms,WV6 7HU,52.603173000000000,-2.314282000000000
The Red Cow (Ackleton) Ltd,WV6 7JH,52.587359272650100,-2.337047332727060
Fiume Restaurant LTD,WV6 8AB,52.586650471331200,-2.174093103254200
Fieldhouse Inn,WV6 8DP,52.587865000000000,-2.191604000000000
vanilla,WV6 8EJ,52.590594231011200,-2.182050000000000
The Mount Hotel Country Manor,WV6 8HL,52.587926651941900,-2.186142541729960
Monsoon ,WV6 8QQ,52.598084270449300,-2.168853000000000
Gluttons For Nourishment (Tettenhall) Limited,WV6 8QS,52.597878746015900,-2.167863144432790
Seats at Robinsons,WV6 8QT,52.597653309989300,-2.168349477866560
Abbey Len Catering Ltd,WV6 9BQ,52.603924246210900,-2.171090435039460
The South Staffordshire Golf Club Ltd,WV6 9BQ,52.603924246210900,-2.171090435039460
THE SUMMER HOUSE,WV7 3AT,52.620428272728500,-2.260476324295610
The Horns of Boningale,WV7 3DA,52.621628197659100,-2.270587241244180
Albrighton Garden Centre,WV7 3EE,52.644247679587500,-2.289067993473460
Latte da coffee shop ,WV7 3JA,52.633969356458500,-2.275258711381530
Twelve Thirty Two ,WV7 3JA,52.633969356458500,-2.275258711381530
aroma curryhouse ltd,WV7 3JA,52.633969356458500,-2.275258711381530
Al Sorriso,WV7 3JT,52.635642000000000,-2.279480000000000
Shrewsbury Arms,WV7 3LA,52.636137445571300,-2.282380000000000
Medicine Bakery & Kitchen,WV8 1BX,52.629928473232000,-2.201627242699470
Jungle Boogie Ltd,WV8 1EA,52.631533000000000,-2.199936364832470
The Codsall Hive,WV8 1EA,52.631533000000000,-2.199936364832470
Snakabyte,WV8 1EU,52.628552220683300,-2.179829362880620
the kitchen bilbrook,WV8 1EZ,52.627212936698500,-2.179705677249350
Costa Coffee,WV8 1PE,52.624584000000000,-2.188647000000000
Codsall Spice,WV8 1PF,52.625428000000000,-2.189493000000000
THE BENTLANDS,WV8 2BP,52.621661985013400,-2.193804567849660
Codsall Station,WV8 2EH,52.626854883859600,-2.201096030719500
The Greenhouse Kitchen,WV8 2HJ,52.616273337043700,-2.196099597543190
The Harrows Inn,WV9 5AW,52.667082000000000,-2.133158325338550
The Oasis Cafe Pendeford LTD,WV9 5NJ,52.623566230754300,-2.144636182566220
