name,postcode,lat,lon
Posh Fish & Chips,PE1 1DD,52.570462440725000,-0.245811042911419
Phoenix Coffee & Vape Lounge,PE1 1DH,52.571363053309900,-0.243487844603131
The Chalkboard Tea Room and Bistro,PE1 1EF,52.568557384396200,-0.238612582450504
Double Bubble Tea Ltd,PE1 1EL,52.569698544160900,-0.242801807652907
Fratelli Tavola Calda,PE1 1EL,52.569698544160900,-0.242801807652907
RICO'S COFFEE SHOP,PE1 1EL,52.569698544160900,-0.242801807652907
2020 WORLD BUFFET,PE1 1FJ,52.575653000000000,-0.238018000000000
Charters cafe bar,PE1 1FP,52.568084879096100,-0.242186000000000
EAST RESTAURANT,PE1 1FP,52.568084879096100,-0.242186000000000
Turkish Kitchen,PE1 1FW,52.575217652138500,-0.237873404671084
Middletons Steakhouse & Grill Peterborough,PE1 1HJ,52.571780582976500,-0.241936469333120
bewiched coffee,PE1 1HJ,52.571780582976500,-0.241936469333120
kaspas desserts,PE1 1HJ,52.571780582976500,-0.241936469333120
The Pizza Parlour and Music Cafe,PE1 1LR,52.572797847948100,-0.245053769955448
XOXO Grill and Steak House,PE1 1LT,52.572917939488600,-0.245607000000000
Heavenly Desserts Peterborough,PE1 1LZ,52.572972919832600,-0.245946957830424
Players sports lounge ,PE1 1LZ,52.572972919832600,-0.245946957830424
The Ladz ,PE1 1LZ,52.572972919832600,-0.245946957830424
Embe Soul Food Restaurant,PE1 1NA,52.572665000000000,-0.245685031831524
CM Restaurants (Holdings) Ltd,PE1 1NH,52.573366386338900,-0.243788000000000
Ori Caffe,PE1 1NL,52.574693808650400,-0.245287000000000
Queens Head,PE1 1PA,52.572885080605400,-0.244873202865464
Wimpy,PE1 1PX,52.574018860489100,-0.242511017048359
THE BANYAN TREE,PE1 1QA,52.575146585963300,-0.245196103944628
THE GREAT NORTHERN HOTEL ,PE1 1QL,52.574523893225700,-0.249899107498685
The Bull Hotel,PE1 1RB,52.574601390865300,-0.242668000000000
Forty Two,PE1 1RS,52.575017000000000,-0.241837000000000
GURKHA DURBAAR LTD,PE1 1RS,52.575017000000000,-0.241837000000000
Flame Bar & Restaurant,PE1 1SQ,52.576741000000000,-0.240454000000000
Nicolas Greek Taverna Ltd,PE1 1SQ,52.576741000000000,-0.240454000000000
Smokin Burgers and Shakes,PE1 1SQ,52.576741000000000,-0.240454000000000
The Bombay Brasserie,PE1 1SQ,52.576741000000000,-0.240454000000000
Parrotts Fish Parlour,PE1 1TB,52.574202000000000,-0.240851000000000
My peri peri,PE1 1TE,52.574315181197800,-0.240445000000000
MD Coffee,PE1 1UQ,52.574880819700000,-0.239303715800000
Bean Around BE.AR.,PE1 1XH,52.572280253630800,-0.242728000000000
Starbucks,PE1 1YD,52.572881000000000,-0.242781844018310
Chopstix Peterborough High Street,PE1 1YJ,52.573048864082400,-0.241974279980441
The Solstice Events & Entertainments venue,PE1 1YN,52.576084000000000,-0.239831000000000
Tap & Tandoor,PE1 1YR,52.573086739323000,-0.243920697782395
THE BREWERY TAP,PE1 2AA,52.575872736383400,-0.247616000000000
CM Restaurants (Holdings) Ltd,PE1 2AF,52.581178000000000,-0.252320000000000
Desi Restaurant ,PE1 2ND,52.587987000000000,-0.247595344280742
Pizza Pazza,PE1 2ND,52.587987000000000,-0.247595344280742
chicken palace global ltd,PE1 2ND,52.587987000000000,-0.247595344280742
PRIME CATERING (PETERBOROUGH) LTD,PE1 2PB,52.591338913510900,-0.253082366611294
Roti food bar,PE1 2PB,52.591338913510900,-0.253082366611294
Taj Mahal,PE1 2RH,52.576146651895300,-0.244123104234307
Inn Gusto,PE1 2RS,52.576642000000000,-0.243483000000000
Tavan,PE1 2SH,52.580404000000000,-0.243156000000000
Grill & Krispy,PE1 2SY,52.574535000000000,-0.243258000000000
The Fat Pizza (Peterborough),PE1 2SY,52.574535000000000,-0.243258000000000
BERNELIU UZEIGA,PE1 2TD,52.575325053620300,-0.242680148945645
Farooj Restaurant,PE1 2TD,52.575325053620300,-0.242680148945645
chicken palace peterborough ltd,PE1 2TD,52.575325053620300,-0.242680148945645
KFC Peterborough - Paston Parkway,PE1 4BF,52.599717551700000,-0.210769243200000
Newark Hotel,PE1 4BH,52.582667908381500,-0.229220277486300
ibrahimi ,PE1 4JP,52.592412404681300,-0.227424000000000
INFLATA NATION,PE1 4YZ,52.600142000000000,-0.215684000000000
Rider Motorcycles Ltd - Riders Cafe,PE1 5BJ,52.569461000000000,-0.223762000000000
The Hub,PE1 5DD,52.574902000000000,-0.236499000000000
subway,PE1 5UX,52.577578912591500,-0.219020531680407
The DeliChef Cafe,PE1 5WS,52.580469029538200,-0.206254000000000
CM Restaurants (Holdings) Ltd,PE1 5XL,52.576983597959300,-0.215310776200835
The Horseshoe,PE10 0EL,52.736350284141800,-0.367874858897161
The Six Bells,PE10 0JH,52.735802625529600,-0.441450059876784
The Windmill,PE2 5EQ,52.550924954298700,-0.297051000000000
ido4you ,PE2 5ST,52.540350656106600,-0.300583979361816
starbucks,PE2 5TD,52.543199000000000,-0.302229000000000
Ferry Meadow Cafe,PE2 5UU,52.557870425570200,-0.302223064028300
Lakeside Kitchen & Bar,PE2 5UU,52.557870425570200,-0.302223064028300
Notcutts Peterborough,PE2 5UU,52.557870425570200,-0.302223064028300
Cast Iron,PE2 6GB,52.549940122649900,-0.324918370827885
Gaze and Graze,PE2 6WA,52.540027766839400,-0.320798243671802
Orton Hall Hotel & Spa,PE2 7DN,52.553476000000000,-0.277391000000000
The Ramblewood,PE2 7DN,52.553476000000000,-0.277391000000000
PAPA LUIGI,PE2 8AN,52.564868000000000,-0.241880134891181
KFC Peterborough - London Road,PE2 8AR,52.565334183584500,-0.242548375987545
Sweet Olives at The Queensgate Hotel,PE2 8AX,52.562750509953200,-0.241722175330261
bewiched coffee,PE2 8TY,52.566320000000000,-0.237346000000000
Baan Thai Restaurant,PE2 9PB,52.565820667979300,-0.247709000000000
Golden fish bar,PE3 6BB,52.577710787411600,-0.258715898477104
ferraris cafe,PE3 6EX,52.578315609021100,-0.257658816333845
Dragonfly Peterborough,PE3 6GA,52.571243595384600,-0.264653331560513
Holiday Inn Peterborough West,PE3 6SG,52.564487078689300,-0.287039000000000
Flip Out Peterborough,PE3 8AY,52.604715000000000,-0.276164000000000
Subway Bretton Court,PE3 8DU,52.590496000000000,-0.282751989084835
The Fayre Spot Bar & Restaurant,PE3 8DX,52.589616000000000,-0.283370000000000
Safari Adventure Play,PE3 8SB,52.607339000000000,-0.281673000000000
Pierogarnia,PE3 9RE,52.579844825073800,-0.273671047712398
Mancetter Square Cafe,PE4 6BX,52.606827000000000,-0.275460000000000
Honey Bees,PE4 6EU,52.603976919818600,-0.258973819852004
RUMBLES FISH BAR ,PE4 6LG,52.609826000000000,-0.276983000000000
 THE CHERRY HOUSE RESTAURANT,PE4 6QF,52.614095366467900,-0.270891290126898
MCDONALDS,PE4 6WS,52.599914180195200,-0.267019985506366
Watering Can,PE4 7AD,52.616067579448300,-0.247253052237616
The Old Copper Kettle Tea Shop,PE6 0EF,52.677310216925100,-0.169746524119637
Ye Olde Abbey,PE6 0EN,52.676011872820900,-0.167182628275134
Dog in a Doublet,PE6 0FH,52.577553000000000,-0.121790000000000
The 19th Hole Thorney Lakes Ltd,PE6 0TJ,52.638938000000000,-0.080544000000000
Golden Pheasant,PE6 7DA,52.643329936786900,-0.314952343973694
The Blue Bell,PE6 7ED,52.633934000000000,-0.344174000000000
MCDONALDS,PE6 7JR,52.637720000000000,-0.297906000000000
The Blue Bell Glinton,PE6 7LS,52.638354039508400,-0.293315119864118
Ruddy Duck,PE6 7NF,52.641915426033800,-0.275381183496160
MCDONALDS,PE6 7TN,52.612433953547800,-0.186839716902633
House of Feasts,PE6 7TP,52.617281070047100,-0.186905329874748
Casa Mattoni ltd,PE6 7YB,52.605781473743900,-0.199268705566942
Chester's Restaurant,PE6 8AL,52.676532795102700,-0.318763273615288
Tonino's Pizzeria,PE6 8AN,52.676399000000000,-0.318038181322119
Lilliâ€™s Tearoom ltd,PE6 8DL,52.675230000000000,-0.315538593867450
Deeping Stage,PE6 8EA,52.675497641256900,-0.316776592665044
Linfords Traditional Fish & Chips Ltd,PE6 8EA,52.675497641256900,-0.316776592665044
The Square,PE6 8EA,52.675497641256900,-0.316776592665044
Ironhorse Ranch House,PE6 8EB,52.674454730067300,-0.314730000000000
The River Restaurant,PE6 8EB,52.674454730067300,-0.314730000000000
Godsey Lane Coffee ,PE6 8ED,52.674572485703000,-0.313528000000000
Oasis cafe,PE6 8FD,52.688952564100000,-0.309423518200000
Cinnamon ,PE6 8FG,52.675689570900000,-0.315615551500000
Maharanis Restaurant ,PE6 8HA,52.672261993310400,-0.303754000000000
Taj mahal,PE6 8HT,52.675637035614600,-0.312037962156007
THE SPICE MERCHANT ,PE6 8PX,52.672982395422700,-0.294288028864930
The Goat,PE6 8SA,52.680999000000000,-0.277851000000000
The Pack Horse,PE6 9BL,52.657483991522900,-0.300657707296734
The Waggon and Horses,PE6 9LW,52.698256195719600,-0.339313355159188
Oasis Restaurant,PE6 9NY,52.716873988680200,-0.364412050212502
Black Horse Baston,PE6 9PB,52.714181061225900,-0.347857788043052
The Ivy Leaf Club Whittlesey 2019 Limited,PE7 1AP,52.558806261654100,-0.128138939934015
Mandarin,PE7 1BA,52.556374316837300,-0.129184000000000
Rar rars,PE7 1BW,52.557573460863900,-0.126937489739250
The Straw Bear Pub,PE7 1XL,52.562411000000000,-0.111609000000000
Coloplast Operations at the Gateway,PE7 3FU,52.551806000000000,-0.228192000000000
Chopstix Peterborough Extra,PE7 3UQ,52.531581540593000,-0.320705000000000
EL MEXICANA,PE7 3UQ,52.531581540593000,-0.320705000000000
FRESH,PE7 3UQ,52.531581540593000,-0.320705000000000
KFC PETERBOROUGH SERVICE,PE7 3UQ,52.531581540593000,-0.320705000000000
MCDONALDS,PE7 3UQ,52.531581540593000,-0.320705000000000
Subxpress,PE7 8BE,52.540158000000000,-0.262488000000000
KFC Peterborough - Ashborough Road,PE7 8BT,52.540429346301000,-0.256743000000000
MCDONALDS,PE7 8BT,52.540429346301000,-0.256743000000000
Maharani's Hampton,PE7 8DS,52.538482000000000,-0.272035000000000
Four chimneys restaurant ltd,PE7 8FH,52.532692000000000,-0.276951000000000
Gurkha Lounge Hampton ,PE7 8NJ,52.532801378452800,-0.275798000000000
The Falcon Inn,PE8 5HZ,52.526736000000000,-0.440656191398838
The Coffee Stop,PE8 6AB,52.609841478599200,-0.445276335647066
Subway Wittering,PE8 6HA,52.598363931023400,-0.421748337028828
Origin8 Cafe  Sacrewell Farm,PE8 6HJ,52.594901000000000,-0.417473000000000
SNS Paper Mills Ltd,PE8 6JB,52.578323773628500,-0.414688000000000
Stibbington Diner,PE8 6LR,52.568503000000000,-0.390064000000000
The Sibson Inn Hotel,PE8 6ND,52.565701000000000,-0.388957000000000
Debs cafe,PE8 6PB,52.574991000000000,-0.462211000000000
Queens Head Inn,PE8 6QB,52.555137334731500,-0.425851774256158
The Crown Inn (Elton) Ltd,PE8 6RQ,52.533798168658900,-0.400224000000000
The Black Nag Pub Company Ltd,PE8 6RU,52.528653648661300,-0.395456000000000
MCDONALDS,PE9 1TX,52.657682000000000,-0.465322505661021
The White Hart,PE9 3BH,52.624983000000000,-0.385495000000000
BURGHLEY HOUSE,PE9 3JY,52.642481630294200,-0.452469875506129
The Green Dragon,PE9 4HJ,52.685839431382100,-0.467418786635743
Lakeside bar and restuarant,PE9 4RJ,52.670095344860100,-0.379425642472144
The Whistlestop Inn,PE9 4RN,52.664268940866200,-0.380705884604009
The Bertie Arms Ltd,PE9 4SZ,52.656492795884300,-0.428171655450855
