name,postcode,lat,lon
The Olde Windmill Inn ,IP25 6NN,52.5829,0.7234
THE SWAN,IP26 5BW,52.5720,0.6950
KFC,PE30 4HX,52.7412,0.4116
KFC Kings Lynn - Hardwick Estate,PE30 4HZ,52.7412,0.4098
Atalian Servest Food Co.,PE30 4LS,52.7461,0.4211
Costa Coffee Ltd,PE30 4NA,52.7399,0.4130
Dobbies Garden Centres Ltd,PE30 4NA,52.7399,0.4130
Frankie and Benny's,PE30 4NA,52.7399,0.4130
Pizza Hut Restaurant,PE30 4NA,52.7385,0.4131
Dragonfly Kings Lynn,PE30 4NB,52.7336,0.4118
Subway,PE30 4WP,52.7371,0.4144
CM Restaurants (Holdings) Ltd,PE30 4YN,52.7397,0.4073
McDonalds Restaurants Ltd,PE30 4YN,52.7397,0.4073
Pizza Hut,PE30 5QH,52.7471,0.4026
Darwin Norfolk Woods Limited,PE32 1HU,52.6973,0.5733
Carpenters Arms,PE32 1NP,52.7164,0.5110
The Crown Inn  Gayton,PE32 1PA,52.7437,0.5573
Middletons Steakhouse & Grill Kings Lynn,PE32 1RH,52.7176,0.4503
The Ostrichinn,PE32 2AE,52.7033,0.6876
KINGS ARMS SHOULDHAM,PE33 0BY,52.6517,0.4776
The Angel at Watlington,PE33 0HA,52.6743,0.3916
The Foldgate Inn,PE33 9HH,52.6193,0.4627
Waterfall Elior,PE33 9LT,52.6573,0.5399
Bedingfeld Arms,PE33 9PS,52.5833,0.5720
Baxterstorey Catering,PE33 9QG,52.5508,0.4503
Church Farm - Stow Bardolph,PE34 3HT,52.6251,0.4039
McDonalds West Lynn,PE34 3LJ,52.7496,0.3828
CM Restaurants (Holdings) Ltd,PE34 3LW,52.7437,0.3873
The Heron,PE34 3PP,52.6367,0.3788
Jacks restaurant at woodlakes,PE34 3PX,52.6407,0.3852
The Chequers,PE34 3QG,52.6191,0.3935
Aimes Ltd t/a Costa Coffee Swaffham,PE37 7AB,52.6482,0.6879
The Market Cross Cafe Bar,PE37 7AB,52.6482,0.6879
Costa Coffee,PE37 7AG,52.6268,0.6864
Margarets Tea & Play Ltd,PE37 7AQ,52.6478,0.6888
East Garden Chinese Restaurant,PE37 7DD,52.6457,0.6893
Shellys,PE37 7DD,52.6457,0.6893
The White Hart Swaffham,PE37 7DG,52.6461,0.6887
Rasputin Russian Restaurant,PE37 7LQ,52.6475,0.6872
McDonalds Restaurant,PE37 7TZ,52.6501,0.6832
Swaffham Golf Club,PE37 8AE,52.6341,0.6771
The Downham Country Garden store limted,PE38 0AD,52.5990,0.3973
The old white bell,PE38 0NA,52.5262,0.3877
My Canteen,PE38 9DA,52.6023,0.3780
SUBWAY,PE38 9DB,52.6027,0.3777
ERTAN CATERING LTD,PE38 9DF,52.6028,0.3779
Castle Hotel DM LTD,PE38 9HF,52.6035,0.3785
GIARDINI DI NAXUS,PE38 9HF,52.6035,0.3785
Downham tandoori restaurant ,PE38 9HH,52.6035,0.3780
TITASH INDIAN RESTAURANT,PE38 9HH,52.6035,0.3780
