name,postcode,lat,lon
the chequers inn,IP24 1PX,52.5345,0.8310
cafe contrast,IP25 6AH,52.5714,0.8215
Hare & Barrell T A Watton By Verve,IP25 6LB,52.5709,0.8123
The Olde Windmill Inn ,IP25 6NN,52.5829,0.7236
Waggon and Horses,IP25 6QD,52.5567,0.8688
Broom hall hotel,IP25 7EX,52.5770,0.8065
The Old Bell,IP25 7HD,52.5809,0.8095
King's Cafe',IP25 7NA,52.6340,0.9085
THE SWAN,IP26 5BW,52.5720,0.6950
The Crown,NR17 1LE,52.5343,0.9766
COCO'S,NR19 1BX,52.6802,0.9424
OKARA CTG LIMITED Trading As Bombay Tandoori,NR19 1BX,52.6802,0.9424
Dereham Leisure Centre,NR19 1DF,52.6789,0.9475
Aimes Ltd t/a Costa Coffee Dereham,NR19 1EA,52.6808,0.9417
Railway tavern,NR19 1HB,52.6749,0.9475
Ranis indian dining & bar,NR19 1RP,52.6549,0.9717
Tall Orders,NR19 2AP,52.6819,0.9409
Flour and Bean,NR19 2AW,52.6814,0.9404
Subway,NR19 2AW,52.6814,0.9404
The George hotel ,NR19 2AZ,52.6827,0.9380
spice fusion,NR19 2BP,52.6825,0.9420
Thai Dereham,NR19 2DJ,52.6817,0.9398
The White Horse at Longham,NR19 2RD,52.7029,0.8699
The Lodge,NR20 3DJ,52.6841,1.0257
The Swan,NR20 3QB,52.6587,1.0347
Hamptons at the barn limited,NR20 4AA,52.7413,1.0235
Bawdeswell Garden Centre,NR20 4RZ,52.7450,1.0326
THE RAILWAY ARMS NORTH ELMHAM LTD,NR20 5HH,52.7430,0.9542
Kings Head Hotel,NR20 5JB,52.7477,0.9392
The White Hart,NR9 4AF,52.5795,0.9845
Melsop Farm Park ,NR9 4NT,52.5637,0.9278
The Ostrichinn,PE32 2AE,52.7032,0.6875
The Ploughshare,PE32 2NF,52.7062,0.8164
Aimes Ltd t/a Costa Coffee Swaffham,PE37 7AB,52.6482,0.6879
The Market Cross Cafe Bar,PE37 7AB,52.6482,0.6879
Margarets Tea & Play Ltd,PE37 7AQ,52.6478,0.6888
East Garden Chinese Restaurant,PE37 7DD,52.6461,0.6892
Shellys,PE37 7DD,52.6461,0.6892
The White Hart Swaffham,PE37 7DG,52.6460,0.6888
Swaffham Golf Club,PE37 8AE,52.6347,0.6758
