name,postcode,lat,lon
Myna and Viscacha,GL15 5NU,51.733191130376100,-2.525555541735790
Armadillo and Nukupuʻu,GL11 4QA,51.673556239278600,-2.345039118326640
Scimitar babbler and Moluccan boobook,GL15 4RB,51.756223447019700,-2.538152018501450
Jackal and Jackal,GL16 8NE,51.786511069441100,-2.632716730413970
Jerboa and Mamo,BS35 2HS,51.603918826608400,-2.508206818903200
Old World quail and Booted eagles,GL10 2AY,51.740439560639700,-2.289211619115280
Night heron and Coati,GL15 5PB,51.726443608452500,-2.526476247850210
Myna and Elephant,GL12 8RR,51.626147254921300,-2.365178170190130
Black jay and Masked owl,GL11 5TE,51.680413798060000,-2.310798000000000
Armadillo and Towhee,GL9 1AY,51.583942313556600,-2.325322658905700
Chickadee and Duck,GL15 4EU,51.740265569511500,-2.521886667861280
Minke whale and Fish eagle,GL2 7AD,51.728044139096000,-2.362524370705260
Chipmunk and Night heron,GL15 5LP,51.732858637291300,-2.527520991555640
Grackle and Parakeet,GL11 4JT,51.679227927835300,-2.354685697039850
Crow and Snipe,GL15 5UA,51.727894423955900,-2.525754700361070
Dolphin and Dorcopsis,GL14 1EA,51.785765798304500,-2.460248000000000
Parakeet and Rabbit,GL11 5AS,51.704896636339300,-2.314063290965170
Zebra and Ice seal,BS35 2BJ,51.606460000000000,-2.525534000000000
Egret and White ibis,GL11 5DX,51.718052437831800,-2.339298247505990
Boto and Tattler,GL12 8JP,51.634431580092900,-2.375517819022920
Solitaire and Viscacha,GL12 8PE,51.581440945452200,-2.434179517955170
Bunting and Fish eagle,GL14 1BS,51.805042898906700,-2.448769409108480
Civet and Fox,GL14 2UF,51.783097287266600,-2.486763637346860
Meadowlark and Guillemot,GL11 5PA,51.697150593653000,-2.356605547628560
Scimitar babbler and Bronzewing pigeon,GL16 8EX,51.796930000000000,-2.623118000000000
Rabbit and Eagle,GL10 3SF,51.746327536602400,-2.317522835588580
Songlark and Quetzal,GL12 8RA,51.627607664827500,-2.366981000000000
Kestrel and Black jay,GL16 7RZ,51.793197763221300,-2.602433722881440
Masked owl and Grackle,BS35 2FJ,51.606122957836600,-2.524274111681900
Wader and Herring gull,GL12 7DP,51.640763000000000,-2.358142000000000
Mouse and Rat,BS35 4HL,51.570371176519100,-2.602050000000000
Old World warbler and Boto,GL15 6LQ,51.753706205247500,-2.574179954992780
Triller and Bunting,GL11 6LB,51.694451481666800,-2.377302315585050
Thrasher and Diving bird,GL16 9SP,51.792044303845400,-2.618512463921110
Vole and Bunting,BS35 1LP,51.617424692382800,-2.516258290869290
Myna and American sparrow,GL11 6NG,51.696083402938400,-2.373076654769120
Peafowl and Greenbul,BS35 1UP,51.614156519620000,-2.511079700990910
Quetzal and Capuchin,BS35 3UG,51.619792415878600,-2.501046557970420
Goose and Diving bird,GL15 5BT,51.725105105205400,-2.518121520987520
Macaw and Wallaby,GL9 1DA,51.595208000000000,-2.338814000000000
Fulmarine petrel and B,BS35 1SJ,51.618427694098800,-2.521354000000000
Recurvebill and Tit-tyrant,BS35 2PX,51.601446277398200,-2.512323013490680
Ground sloth and Wallaby,GL15 4PP,51.744719387558300,-2.558350804566880
Towhee and Jerboa,GL12 8BZ,51.636478878969800,-2.461956848908620
Coati and Armadillo,BS35 3RS,51.579598790618100,-2.538068221087150
Recurvebill and Elephant,GL15 4LP,51.739808000000000,-2.492916000000000
Black cockatoo and Eagle,GL10 3US,51.703541000000000,-2.290725000000000
Mouse and Gull,GL12 7RN,51.593914269949900,-2.298052368042500
Francolin and Boto,GL15 6HD,51.747177648542200,-2.576211924787490
Triller and Gull,GL12 8JN,51.634436000000000,-2.360318000000000
Kite and Hawaiian honeycreeper,BS35 3SJ,51.574009737672200,-2.547006318881990
Kestrel and White ibis,GL15 5SX,51.740748319946800,-2.524528088814160
Fulmarine petrel and Solitaire,GL15 5ER,51.713766408002400,-2.530381717707920
Myna and Chicken,GL13 9JS,51.656546794929800,-2.435924000000000
Perching duck and B,GL14 3AG,51.805371804107100,-2.505973000000000
Vole and Mamo,GL2 7EH,51.759481985148500,-2.372469165673960
Civet and Magpie,GL11 5HN,51.701226994773600,-2.346465183837710
Rat and Pheasant,GL16 7AB,51.810041750786300,-2.620746074441410
Buzzard and Vulture,GL15 5NN,51.731757000000000,-2.522802000000000
Darwin's finches and Parakeet,BS35 1UN,51.612804481000500,-2.511844375128630
Kangaroo and Kestrel,GL15 6DJ,51.718535254665000,-2.571794454165910
Mink and Chicken,GL10 3RT,51.753289000000000,-2.313834000000000
Marmoset and Crow,GL13 9UA,51.719927475768600,-2.479715223890680
B and Solitaire,GL15 5LD,51.727276412964200,-2.531220372000750
Rat and Duck,BS35 1BG,51.621851000000000,-2.524571000000000
Marmoset and Bronzewing pigeon,GL16 8LG,51.768209878180800,-2.623403476834330
Viscacha and Booted eagles,GL15 5QU,51.721999333476600,-2.518983560467470
Puffleg and Tattler,GL11 4DD,51.689785828293000,-2.356923757642680
Siskin and Gull,GL12 7BQ,51.635945667991200,-2.351139997510140
Chicken and Kangaroo,GL15 4JD,51.768161226121900,-2.557959020246330
Bronzewing pigeon and Egret,GL12 7AA,51.636982475970000,-2.353315000000000
Thicketbird and Thicketbird,GL12 7AH,51.636856551068800,-2.356189925166380
Skunk and Elephant,GL11 5LL,51.706815000000000,-2.366001000000000
Argus and Darwin's finches,GL12 7BD,51.636063426637800,-2.353842923592440
Elephant and Towhee,BS35 3SG,51.579611000000000,-2.539670000000000
Recurvebill and Kestrel,GL12 8DT,51.619952000000000,-2.467047000000000
Kite and Eagle,GL15 6QX,51.730466905995200,-2.631426796736430
Dolphin and Piping shrike,GL12 8SF,51.625211777085300,-2.365300667332000
Duck and Masked owl,GL16 9BP,51.792723000000000,-2.617248000000000
Egret and Vole,GL15 4NG,51.749743649710000,-2.511349030621130
Old World quail and Perching duck,GL15 4HA,51.768190193817800,-2.555640733221210
Bunting and Logrunners,GL15 6HY,51.713630836462700,-2.555811081292940
Logrunners and Grouse,BS35 2HD,51.607940225277000,-2.513883506322230
Buzzard and Lemming,GL11 5RE,51.698206443416900,-2.367017114188870
Philippine hawk-owl and Magpie,GL16 8QW,51.808850954907200,-2.623195491882010
Partridge and Petrel,GL14 3PA,51.807244504183400,-2.478698530357840
Pratincole and Kangaroo,BS37 7QL,51.565114970272400,-2.418673783854820
Kite and Kite,GL12 8HW,51.622558000000000,-2.439469958251960
Magpie and Cuscus,GL10 3UB,51.701732000000000,-2.290050000000000
Condor and Solitaire,GL2 7NS,51.771335544546400,-2.329219915031690
Linsang and Skunk,GL11 5JY,51.701623645772900,-2.366842198266250
Condor and Snipe,GL12 7ES,51.637752919219700,-2.351139515035900
Parakeet and Songlark,GL11 5DF,51.713426000000000,-2.363550000000000
Bunting and Petrel,GL13 9RU,51.709658188276100,-2.462108948464940
Puffleg and Partridge,GL16 7HJ,51.792013614943000,-2.601910466971450
Pratincole and Kangaroo,GL2 7NU,51.771481108399400,-2.324757000000000
Recurvebill and Treepie,GL2 7EP,51.770536532912400,-2.365314120371860
Dorcopsis and Pratincole,BS35 4AB,51.592843951775800,-2.579438587401440
Mole and Grackle,GL16 8RE,51.788233391278100,-2.613110560027770
Lemming and Zebra,BS35 4BZ,51.583020920118600,-2.578505358719170
Chipmunk and Maya,GL11 6LQ,51.695106709811400,-2.374848193041470
Linsang and Piping shrike,GL15 5TJ,51.719803575425800,-2.535432140371470
Chicken and Egret,GL15 6XW,51.752325442315800,-2.567831855965470
Kestrel and Bunting,GL15 5FJ,51.729045542729100,-2.526897737377400
Skunk and Grackle,GL12 8NY,51.582861069953200,-2.396221344094870
River dolphin and Ice seal,GL16 7LU,51.776374385500600,-2.592005677214420
Bronzewing pigeon and Polecat,GL11 4AZ,51.674884532306800,-2.348896013418310
Night heron and Partridge,GL2 7NH,51.796166662597700,-2.303314658748800
Crow and Magpie,GL16 8ND,51.786855124080800,-2.629952844522060
Dorcopsis and Gull,BS35 1LT,51.617348655290600,-2.513094320846190
Jay and Shearwater,GL10 3GW,51.755166000000000,-2.291896000000000
Diving bird and Mole,GL12 8FB,51.587559000000000,-2.398107000000000
Masked owl and Civet,GL12 7JN,51.637589370532000,-2.348696240317730
Old World vulture and Piping shrike,GL15 5GL,51.719174000000000,-2.519675000000000
Treepie and Linsang,GL15 6JT,51.753389754445100,-2.572698286659090
Masked owl and Elephant,GL11 5DZ,51.717347989319200,-2.337266447690460
River dolphin and Chickadee,GL14 1BH,51.805256538492400,-2.446973115934230
Black cockatoo and Jay,GL12 8UF,51.628773359973900,-2.398152827391030
Triller and Chipmunk,GL11 4DP,51.689931003186500,-2.362364278199320
Crow and Mole,GL16 8PN,51.786243920196300,-2.611851302326520
Rat and Rabbit,GL15 4QY,51.757099750449800,-2.539205573747620
B and Bronzewing pigeon,GL11 5JT,51.698891839266300,-2.363463217517010
Kangaroo and Maya,GL11 5AW,51.697623752881300,-2.313694586419070
Siskin and Ground sloth,BS35 3LW,51.589408542573400,-2.530144109736570
Hawaiian honeycreeper and Mamo,GL12 8TU,51.627159307894600,-2.402140362293400
Polecat and Old World quail,GL15 6ER,51.744022038725500,-2.570624464251350
Pratincole and Magpie,GL16 7EL,51.806517116097300,-2.552443000000000
Dorcopsis and Chicken,BS35 1EB,51.613487067305300,-2.518163291231930
Fox and Grouse,GL13 9BY,51.690800873333000,-2.462799263221690
Magpie and Viscacha,GL15 4TS,51.758900956566700,-2.534619681836010
Hawk and Parakeet,GL13 9SH,51.720350709340100,-2.457006575231850
Linsang and Vole,GL12 8NR,51.590701802172500,-2.398801270275980
Macaw and Warbler,BS35 1AQ,51.621919000000000,-2.525381000000000
Perching duck and Elephant,GL10 3GD,51.745421875088500,-2.328278477729470
Grouse and Flameback,GL15 5HE,51.725807000000000,-2.532448000000000
Egret and Treepie,GL10 3BB,51.741260644584900,-2.319326604488970
Tattler and Duck,BS32 4PG,51.586966201153300,-2.564136115791290
Chicken and Chipmunk,BS35 2EA,51.605978731179600,-2.520315942816150
Jay and Scimitar babbler,BS35 2JF,51.609354551312400,-2.519531000000000
Greenbul and Skunk,BS35 4EB,51.581368965538000,-2.574342378823070
B and Shearwater,GL13 9FH,51.695100000000000,-2.454582000000000
Warbler and New World blackbird,BS35 4AQ,51.595793962909700,-2.571940234328570
Petrel and Bronzewing pigeon,GL10 3NT,51.729951698428000,-2.287262327402360
Peafowl and Warbler,GL15 6QR,51.755730526448500,-2.602644714125840
Pitohui and Thrasher,GL14 3DR,51.804651993968700,-2.505211876223940
B and Cuscus,GL2 7PD,51.762631925997800,-2.338792170543420
Egret and Logrunners,GL12 8PT,51.613653025442000,-2.470216988246270
Shearwater and Dolphin,GL14 1DH,51.808021732844900,-2.452729657638380
Minke whale and Rat,GL15 4RS,51.760445909970600,-2.525336000000000
Parrotlet and New World blackbird,GL2 7PQ,51.772557493818800,-2.329518669316900
Ibex and Mouse,GL15 4JP,51.775650000000000,-2.556573000000000
Zebra and Kite,GL13 9AP,51.695297952145300,-2.460139606594680
White ibis and Mouse,BS35 3RW,51.588170202319100,-2.533565020420850
Asiatic leopard and Dorcopsis,GL14 3AD,51.809529094870600,-2.504294612597100
Goose and Egret,GL11 6HB,51.694455852976600,-2.373121134896760
Thicketbird and Pratincole,GL16 7BW,51.798234102717300,-2.598658054255150
Myna and Marmoset,GL11 4NU,51.676911974951100,-2.344487000000000
Skunk and Jerboa,BS35 2AP,51.606628074253900,-2.525926094012530
Wallaby and Siskin,GL11 4EY,51.687546378937100,-2.362996180509170
River dolphin and Stint,GL15 6HQ,51.746800766797100,-2.574222724645200
Mockingbird and Fox,GL12 7AE,51.637627439075200,-2.353999601819860
New World blackbird and B,GL16 8RU,51.788930109688800,-2.613989902843620
Scimitar babbler and Snipe,GL12 8AH,51.613958854066800,-2.440050174134960
Stint and Stint,GL15 5GD,51.719174000000000,-2.519675000000000
Logrunners and Herring gull,GL15 6PZ,51.707826000000000,-2.568432000000000
Jackal and Boto,BS35 1LY,51.617132642608900,-2.511084259404920
Parakeet and Moluccan boobook,GL12 8HJ,51.630949806208100,-2.426157053461760
Black jay and Boto,BS35 1AR,51.620973000000000,-2.527696000000000
Gull and Guillemot,BS35 9DE,51.603385289900000,-2.522409129800000
American sparrow and American sparrow,GL15 5PL,51.726339993975900,-2.523507028247840
Old World vulture and Maya,GL11 4LP,51.681652539389700,-2.358638805821830
Magpie and Thrasher,GL12 7AL,51.636976929829300,-2.357997065808480
Fox and Capuchin,GL12 8BD,51.583250109593000,-2.448023164400060
New World blackbird and Tit-tyrant,GL15 6UL,51.715935304165800,-2.624812000000000
Egret and Minke whale,BS35 2JX,51.602071000000000,-2.517817000000000
Boto and Songlark,BS35 3QH,51.580604088899200,-2.534515452161560
American sparrow and Dolphin,BS35 4EJ,51.579545857449000,-2.577566464264520
Vole and Thicketbird,GL11 6HY,51.695893707341500,-2.381741628622940
Tree warbler and Tattler,GL15 5PF,51.725448943728400,-2.525726318293760
Quetzal and Dorcopsis,GL2 7DP,51.721746849915800,-2.375083076283080
Ground sloth and Mole,GL15 5DG,51.724498282248200,-2.533171218115240
Ice seal and Lemming,GL15 4NN,51.756617000000000,-2.516816000000000
Mouse and Maya,BS35 2XH,51.602404290341100,-2.507469000000000
Wallaby and Wader,BS35 9TB,51.610962582608000,-2.527781380841560
Boto and Cloud rat,GL13 9UY,51.719595096050100,-2.481839668947090
Grackle and Rabbit,GL2 7HJ,51.774693914375800,-2.361275032660040
Marmoset and Diving bird,GL2 7PG,51.758612000000000,-2.336256000000000
Shearwater and Meadowlark,GL15 5RS,51.725142569955400,-2.529877875027050
Ibex and Minke whale,GL13 9BL,51.692373547153300,-2.458417266950030
American sparrow and Maya,BS32 4PD,51.582917173152600,-2.564735414672880
Flameback and Old World vulture,BS35 2HL,51.605198966551800,-2.511571094217880
Parrotlet and Pratincole,GL11 4ED,51.683055534133800,-2.358519720209740
Argus and Perching duck,BS35 1JW,51.615667967305000,-2.519069153734100
Fish eagle and Songlark,BS35 3TW,51.598009924321900,-2.500200332003820
Civet and Marmoset,GL13 9BZ,51.692428791922700,-2.462671202464760
Cuscus and Crow,BS35 3UE,51.615128152168800,-2.500518562304470
Kākāriki and Badger,GL14 1BW,51.805440870097500,-2.448149716466520
Logrunners and Stint,GL16 7HR,51.788240387228400,-2.599555042195190
Thicketbird and Greenbul,GL2 7DW,51.718406071234100,-2.376662199520940
Partridge and Darwin's finches,GL16 7LF,51.777527000000000,-2.602529000000000
Booted eagles and Fox,GL15 6DR,51.713583289811100,-2.571341177006040
Argus and Darwin's finches,GL11 5SU,51.683790718230400,-2.305195051977070
Vole and Stint,GL11 5PN,51.701100659368500,-2.361527478213130
Crow and Herring gull,GL16 7HD,51.796971809822100,-2.599351868808450
Mole and Kangaroo,GL9 1BQ,51.587148945971900,-2.329719005858700
Grackle and Maya,GL16 7LP,51.779721000000000,-2.600689000000000
Kākāriki and Asiatic leopard,GL11 4NZ,51.676010000000000,-2.342816000000000
Crow and Mamo,GL12 7EJ,51.639108000000000,-2.346425000000000
Polecat and Vole,GL11 5UX,51.698380504347800,-2.368856102530120
Fulmarine petrel and Herring gull,GL11 6BL,51.695938940636000,-2.392564340229380
White ibis and Siskin,GL11 4PF,51.679623000000000,-2.349149000000000
Stint and New World blackbird,GL16 7LT,51.783324131582100,-2.597416856603170
Lemming and Boto,GL10 3PA,51.729589694852600,-2.291864372973230
Treepie and Quetzal,GL12 7SB,51.631306656711600,-2.347954537485780
Ibex and Masked owl,GL14 3YA,51.802487590350700,-2.508813293866640
Black jay and Kestrel,GL12 7DX,51.643013319618100,-2.362799178000110
Dolphin and Vole,GL16 8PL,51.784998000000000,-2.609674000000000
Piping shrike and Moluccan boobook,BS35 2DE,51.605392035347000,-2.516757087169980
Masked owl and Peafowl,GL2 7DY,51.766849721078500,-2.368341940894410
Jerboa and Grosbeak,GL12 7LP,51.631984239892300,-2.346861678770400
B and Duck,GL13 9HU,51.737736774757400,-2.448420590534510
Dolphin and Buzzard,BS35 1QA,51.628715000000000,-2.567731000000000
Darwin's finches and Treepie,GL12 7AZ,51.639531555330300,-2.360574914404140
Chickadee and Jerboa,GL12 7QX,51.608297085179000,-2.364241000000000
Shearwater and Myna,GL9 1AS,51.579477961547200,-2.317165922862880
Jackal and Argus,GL13 9FL,51.695607000000000,-2.453560000000000
Black jay and Thrasher,GL11 4EH,51.687628000000000,-2.360335000000000
American sparrow and Tree warbler,GL11 5JN,51.705175627532600,-2.369562606740430
Treepie and Hawk,GL15 4DU,51.763482083160700,-2.477163039341170
Prion and Partridge,GL12 8TR,51.625474624052300,-2.397835015232430
Tit-tyrant and Towhee,BS37 7LR,51.565388861902900,-2.442047880889070
Moluccan boobook and Bunting,GL15 6PG,51.702838847137500,-2.593085400946230
Old World warbler and Kangaroo,GL12 8PS,51.606753000000000,-2.469245731826820
Minke whale and Black cockatoo,BS35 3PF,51.589287627967000,-2.534992700060850
Piping shrike and Peafowl,GL11 5DL,51.711086279593200,-2.360406000000000
Gull and Shearwater,GL15 4SN,51.761854563424700,-2.519585521939280
Dorcopsis and Goose,GL15 5AJ,51.728452136219800,-2.521663673872160
Warbler and Warbler,GL15 4TB,51.760832264847800,-2.531049191419420
Parrotbill and Old World warbler,BS35 3JZ,51.606291000000000,-2.546932000000000
Goose and Myna,BS35 1LQ,51.626865090730900,-2.510211307636630
Parrotbill and Gull,GL15 4TT,51.755403122035800,-2.534679769122920
Viscacha and Puffleg,BS35 3NS,51.572884726077000,-2.547238107658420
Guillemot and Parakeet,GL11 6HQ,51.695358354567400,-2.369207688812960
Kestrel and Mamo,GL16 7QT,51.810062295735400,-2.613406832251260
Elephant and Ibex,GL15 6EB,51.713187413360600,-2.556413548876850
Wader and Recurvebill,GL11 4FH,51.685166000000000,-2.351722000000000
Boto and Viscacha,GL2 7EQ,51.760064317680700,-2.370286146112070
Old World vulture and Parrotbill,GL15 4LA,51.766368000000000,-2.562820000000000
Jay and Magpie,GL13 9PY,51.678043984338900,-2.436535078763740
Crow and Prion,GL15 5JA,51.725257850499400,-2.540100538637310
Duck and Chicken,GL12 7PY,51.648494584372400,-2.303859334436820
Logrunners and Warbler,GL15 6EY,51.744149459359100,-2.584936110162580
B and Perching duck,BS32 4JD,51.566689741998500,-2.552963500072220
Perching duck and Pheasant,GL11 6EE,51.667995000000000,-2.364980000000000
Badger and Zebra,GL15 5LQ,51.730786016736900,-2.532535733899710
Skunk and Night heron,GL2 7NP,51.773507009821200,-2.327569017903320
Bunting and Magpie,GL13 9NL,51.714113129167000,-2.472329730886600
Cuscus and Pitohui,BS35 2LN,51.608903454393400,-2.515670596999210
Maya and Mouse,GL16 9SB,51.792044303845400,-2.618512463921110
Warbler and Fish eagle,GL15 4TG,51.764943641266800,-2.528518150342430
Snipe and Chipmunk,GL11 5RQ,51.696448807788100,-2.368406331802370
Prion and Cloud rat,GL12 8LJ,51.619099156668800,-2.408482169785800
Black jay and Civet,GL12 7QY,51.605223599437800,-2.347697218597490
Pratincole and Kangaroo,BS35 1QB,51.629234619063100,-2.566032978194060
Kite and Minke whale,GL11 4AE,51.681455073927600,-2.355570934208210
Logrunners and Gull,GL11 5HB,51.683266869702700,-2.348049234112870
Chicken and Fish eagle,GL13 9UW,51.724310818746500,-2.469670857082760
Pratincole and Night heron,BS35 3HZ,51.593454835485400,-2.534074476979950
Duck and Kite,GL14 1BU,51.804588705056900,-2.449983160240250
Kangaroo and Chicken,BS37 7QH,51.570417000000000,-2.444362000000000
Vulture and Dolphin,GL11 6EA,51.665613489025000,-2.369804293809690
Skunk and American sparrow,BS35 3BA,51.594120513149400,-2.524034797609750
Guillemot and Parrotbill,GL13 9RN,51.705443217709700,-2.459330881055190
Stilt and Night heron,GL15 6QL,51.699803013577900,-2.589963974188720
Diving bird and Hawaiian honeycreeper,GL15 5AZ,51.725729933826400,-2.521183509798960
Wallaby and Polecat,GL12 8AS,51.604425099579400,-2.438427389720730
Puffleg and Bronzewing pigeon,NP16 7LS,51.685182000000000,-2.617358000000000
Parrotlet and Capuchin,GL15 5FL,51.728900000000000,-2.517138000000000
Crow and Jay,GL12 8QE,51.590452000000000,-2.480197000000000
Vulture and Diving bird,GL10 3GT,51.756556000000000,-2.307697000000000
Mink and Herring gull,GL13 9AS,51.696067875802800,-2.460986588058120
Perching duck and Gull,BS35 2XZ,51.603388967754200,-2.522394419019830
Fulmarine petrel and Moluccan boobook,GL11 6ED,51.666898398742400,-2.361414028097150
Chicken and Siskin,GL2 7AQ,51.797814000000000,-2.424974000000000
Diving bird and Grackle,GL2 7ET,51.767896064318700,-2.367263612579590
Old World vulture and Thicketbird,GL12 7QE,51.638501000000000,-2.332562000000000
Elephant and Piping shrike,GL15 5PR,51.722371000000000,-2.524707616033120
Egret and Puffleg,GL15 5GE,51.722427000000000,-2.536057000000000
Old World vulture and Flameback,GL13 9HD,51.698869237859700,-2.408621692895050
Lemming and Lemming,GL12 8NZ,51.580763182667000,-2.399724435837950
Jay and Boto,GL11 5DW,51.716699000000000,-2.356340000000000
Shearwater and Francolin,GL15 4RF,51.755091731108000,-2.547627758803880
New World blackbird and Gull,GL15 5AD,51.727792101602000,-2.524508354179990
Stint and Magpie,GL12 8FA,51.586246000000000,-2.398240000000000
Kangaroo and Pitohui,GL11 5NP,51.699718407807000,-2.360749568630750
Bunting and Pheasant,GL16 8DR,51.795072388430000,-2.620583932836320
American sparrow and Night heron,BS37 7QG,51.571496000000000,-2.441761000000000
Cuscus and Night heron,GL13 9AR,51.696146633961400,-2.461537189992680
Zebra and Tahr,GL13 9DU,51.636168000000000,-2.502831000000000
Egret and Polecat,GL11 6DU,51.661018928038700,-2.375477470324950
Asiatic leopard and Wader,GL12 8SP,51.631507000000000,-2.393120000000000
Ice seal and Armadillo,GL15 4PS,51.742762155392100,-2.552040875462830
Masked owl and Buzzard,BS35 3SZ,51.579625000000000,-2.504111000000000
Peafowl and Eagle,GL11 4LD,51.679380965126400,-2.351635186525890
Philippine hawk-owl and Parakeet,GL12 8SW,51.624419738703800,-2.396034528839800
Minke whale and Argus,GL12 7NP,51.639999000000000,-2.345955000000000
Black jay and Armadillo,GL15 5GB,51.719686000000000,-2.519956000000000
Viscacha and Duck,GL15 5SU,51.742483398573700,-2.524577157358850
Old World warbler and Ground sloth,GL16 7BG,51.797260836899600,-2.599094686767840
Peafowl and Capuchin,BS35 3QN,51.579933837146900,-2.537351000000000
Herring gull and Chickadee,BS37 7ND,51.573887122700900,-2.451134427240210
Goose and Pitohui,GL15 5SN,51.734933273339200,-2.530035867923730
Snipe and Minke whale,GL9 1BG,51.571157307255400,-2.325058174937900
Macaw and Asiatic leopard,GL10 3BH,51.745033000000000,-2.324394000000000
Pitohui and Lemming,GL2 7NZ,51.767401930253100,-2.321105203372900
Elephant and Peafowl,GL16 7LR,51.780477958786700,-2.598393933253050
Tattler and Rat,GL16 9SZ,51.792044303845400,-2.618512463921110
Capuchin and Greenbul,GL11 5BL,51.689609000000000,-2.298334000000000
American sparrow and Shearwater,GL15 6TW,51.738191153650200,-2.634619156834420
Recurvebill and Macaw,GL16 7LE,51.778525401971900,-2.605702494867300
Chipmunk and Herring gull,GL11 5HE,51.688105941285100,-2.338366000000000
Mink and Zebra,GL16 8BB,51.795395640501900,-2.613816739799820
Towhee and Rabbit,GL16 8HU,51.791257168257400,-2.619444124250490
Wader and Tahr,GL16 8LN,51.760202000000000,-2.593446000000000
Stint and Darwin's finches,GL12 7EW,51.637428072140300,-2.351527146804260
Argus and Stint,BS35 3JN,51.592412783358000,-2.535837818338990
White ibis and Cloud rat,GL12 7BL,51.638606362553000,-2.360278569806550
Tahr and Greenbul,GL13 9HX,51.737772043654200,-2.453286804493960
Wader and Tree warbler,BS35 3TH,51.579403000000000,-2.494988000000000
Ice seal and Jackal,BS35 1AZ,51.613306000000000,-2.512601000000000
Tahr and Asiatic leopard,GL11 5EP,51.711515422720400,-2.333170507060790
Triller and Mamo,GL11 5BH,51.690732707356200,-2.308337642670490
Coati and Tree warbler,BS35 1DJ,51.612032000000000,-2.522176000000000
American sparrow and Ground sloth,GL15 5PN,51.725281021447800,-2.523060457060940
New World blackbird and Lemming,GL10 3QP,51.744097137938400,-2.289944695351300
Fulmarine petrel and Mole,GL10 3TW,51.723172442093700,-2.308500537857510
Petrel and Piping shrike,GL11 5DR,51.722236504166700,-2.350462196746470
Black jay and Rat,GL15 5GH,51.719174000000000,-2.519675000000000
Civet and Ground sloth,GL2 7BL,51.731443370383500,-2.379420415753010
Elephant and Francolin,GL16 8HD,51.792716231252500,-2.617260209672640
Rabbit and Recurvebill,BS35 1FL,51.620785000000000,-2.519417000000000
Shearwater and Recurvebill,GL15 4DY,51.760563718861100,-2.478624000000000
Songlark and Hawk,GL12 8PD,51.580515000000000,-2.422279000000000
Flameback and Fulmarine petrel,GL10 3PB,51.729651407110400,-2.292357059653970
Piping shrike and Magpie,GL11 5HP,51.704310154464300,-2.349773670970090
Mink and Kākāriki,GL11 4DE,51.689334649899800,-2.357455457545100
Diving bird and Mole,GL15 5AP,51.726623927625700,-2.522337574265910
Parrotlet and Maya,GL14 1AP,51.802000654347200,-2.449623826280330
Peafowl and Masked owl,GL15 5NX,51.733533226706700,-2.523126000000000
Macaw and Kangaroo,GL2 7EA,51.765704377173500,-2.369448392129220
American sparrow and Grosbeak,GL2 7LH,51.790406928563000,-2.362372052761440
Greenbul and Vole,GL9 1BA,51.581025852363800,-2.316657161970000
Jay and Mink,GL11 5QB,51.689431000000000,-2.361709000000000
Mamo and Coati,BS35 1BT,51.613698000000000,-2.507435000000000
Skunk and Snipe,GL12 8SN,51.629191138721400,-2.398445724220450
Wallaby and Piping shrike,GL14 1HG,51.807149607111700,-2.455056053607890
Minke whale and Rat,GL16 8PF,51.784873762811400,-2.609063849107210
Gull and Guillemot,GL10 3AZ,51.741684179336400,-2.322269629304920
Old World vulture and Chipmunk,GL12 8BY,51.636299628373500,-2.461810532716670
Lemming and Recurvebill,GL10 3DN,51.772788478453400,-2.289635920557840
Fish eagle and Maya,BS35 2XG,51.602338460614800,-2.511856583528640
Coati and Stilt,BS35 3UB,51.612503330818100,-2.498251188991090
Partridge and Old World vulture,BS35 2EW,51.606688313063800,-2.512309842465810
Logrunners and Guillemot,GL12 8SX,51.627767342391900,-2.397855081858970
Marsh harrier and B,GL15 6DD,51.715605754498100,-2.554576002489650
Polecat and Coati,GL11 4LF,51.679098728480300,-2.352804499966150
Chickadee and Fox,GL15 6ET,51.748891189546900,-2.584258629245180
Fish eagle and Jerboa,GL16 9TB,51.792044303845400,-2.618512463921110
Pitohui and Fox,GL10 3LN,51.729818059822300,-2.290417931319700
Thrasher and Hawk,GL12 7LB,51.632968701555300,-2.345366570309010
Grouse and Viscacha,GL11 5UP,51.700262432275700,-2.368379000000000
Vole and Bunting,BS35 2BP,51.605047024284500,-2.521575964551860
Cloud rat and Prion,GL16 8GA,51.797145000000000,-2.623425000000000
Ibex and Hawaiian honeycreeper,GL16 8RL,51.790429892790100,-2.616040092724600
Skunk and Goose,GL11 5JR,51.698992541388200,-2.365779116370850
B and Kangaroo,GL15 4QR,51.749397000000000,-2.556279000000000
Hawaiian honeycreeper and Mink,BS35 2BH,51.608069273462700,-2.525350695618860
Viscacha and Warbler,GL11 6LL,51.696576693289700,-2.376278264478880
Chipmunk and Siskin,GL16 8JD,51.772462417337700,-2.606273475022370
Hawk and Chickadee,BS35 1EA,51.615245901811900,-2.516912367807400
Stilt and Argus,BS35 1TQ,51.614388619549400,-2.513523086424180
Diving bird and American sparrow,GL12 7HG,51.638346595000200,-2.348037351642680
Grosbeak and Recurvebill,GL12 8BA,51.597607000000000,-2.441956000000000
Jerboa and Flameback,GL15 6AJ,51.722527504667400,-2.602347751494670
Mamo and Fulmarine petrel,GL11 4JB,51.682204404188700,-2.351570289266270
Grackle and Fish eagle,GL15 5BZ,51.727605878134700,-2.521089579241290
Grosbeak and Old World quail,BS35 3NH,51.590953253227400,-2.534507048480770
Masked owl and Booted eagles,GL16 8EB,51.798532053573100,-2.622647127109180
Chipmunk and Peafowl,GL14 1DT,51.799608026057900,-2.454559540907560
Condor and Vulture,GL15 5PZ,51.720879613495000,-2.522648000000000
Pheasant and Lemming,GL15 5PA,51.727524183225000,-2.526112365681830
Macaw and Francolin,BS35 2YN,51.606615923394700,-2.508280266720560
Diving bird and Jackal,GL12 8NL,51.595841305439700,-2.397200544562850
Partridge and Lemming,BS35 4EE,51.581996463195500,-2.572892637742750
Guillemot and Mink,GL12 7RP,51.606559783557800,-2.336574260181180
Kite and Myna,GL11 4LB,51.679342441829100,-2.352488208096530
Macaw and Stint,GL11 5FD,51.700777000000000,-2.362985000000000
Macaw and Crow,GL16 9BG,51.792721733652900,-2.617260613924670
Treepie and Logrunners,BS35 2LJ,51.607985808082100,-2.515790159172430
Greenbul and Pratincole,GL15 5HJ,51.726356213913100,-2.531904531387610
Zebra and Kākāriki,BS35 3LR,51.588339794099600,-2.529871848171700
Parrotlet and Diving bird,GL11 5UN,51.702800555035100,-2.370006300039060
Skunk and Maya,GL12 8HF,51.638646574916100,-2.428570158031410
Lemming and Grouse,GL15 4TU,51.756137885205900,-2.533254172867990
Solitaire and Guillemot,GL15 5LS,51.728036914434500,-2.526060406215520
Argus and Flameback,GL11 4DL,51.690772733046100,-2.360562666706220
Condor and Vulture,GL10 3SW,51.752912034100400,-2.295897000000000
Warbler and Partridge,GL14 3AN,51.803543259238600,-2.507955014362040
Stilt and Stilt,GL16 7QA,51.798485506874700,-2.612684110171180
Mole and Dolphin,GL12 8NW,51.593374805731000,-2.400686905114050
Tahr and American sparrow,BS35 1TE,51.615223764226100,-2.513763599724550
Argus and Coati,BS35 1SN,51.618243638096100,-2.522189503418030
Vole and Wader,GL14 1EN,51.777508170595900,-2.433073958187010
Black cockatoo and Capuchin,GL15 6PU,51.696316000000000,-2.620331000000000
Wader and Duck,GL11 5EF,51.712604727331700,-2.332686412606020
Petrel and Ground sloth,GL16 8PZ,51.780020164618100,-2.607012604449880
Vulture and Black jay,BS35 3SX,51.589869096156100,-2.521676304321160
Moluccan boobook and Petrel,GL2 7PN,51.778175775013700,-2.348605561613810
Wader and Gull,GL16 8QQ,51.805631741153900,-2.618161852237940
Lemming and Kākāriki,BS35 1SX,51.619703289681600,-2.519476318404870
Black jay and Myna,BS35 1RX,51.631789001600200,-2.556456851608740
American sparrow and Mouse,GL16 7JN,51.791326221192300,-2.597421131709700
Treepie and Philippine hawk-owl,GL13 9HZ,51.723937000000000,-2.462139000000000
Kite and Parrotbill,BS35 3RQ,51.588093838252700,-2.536508690421770
Egret and Vulture,GL11 5UL,51.705695000000000,-2.367628000000000
Parakeet and Tit-tyrant,BS35 1PW,51.627888195275400,-2.559934118447760
Grouse and Chipmunk,BS35 2BA,51.606537701301400,-2.524712000000000
Vulture and Viscacha,GL11 6AJ,51.690889687171500,-2.383247446344120
Tattler and Old World quail,GL15 5LT,51.729760078502500,-2.530757206821160
Marmoset and Magpie,GL15 4EN,51.711158328657300,-2.518439691949070
Maya and Minke whale,GL10 3RR,51.754112258307400,-2.304539250096570
