name,postcode,lat,lon
6 Burgerz,BB1 1BB,53.742856000000000,-2.479324625000000
STEAKOUT,BB1 1BB,53.742856000000000,-2.479324625000000
Wright's Bites,BB1 2AL,53.747701440000000,-2.446139153000000
FLIP OUT BLACKBURN,BB1 2EE,53.730682000000000,-2.452583000000000
McDonald's,BB1 3HR,53.753950920000000,-2.445401611000000
The red lion,BB1 3HY,53.751346000000000,-2.445178311000000
spice lounge ,BB1 4AD,53.781207820000000,-2.446464333000000
Checks & Greys,BB1 5AA,53.747014030000000,-2.482054304000000
Exchange Coffee Company Blackburn Market,BB1 5AF,53.748287000000000,-2.483236000000000
KFC,BB1 5AF,53.748287000000000,-2.483236000000000
The Pepper Pot ,BB1 5AF,53.748287000000000,-2.483236000000000
Wellbread,BB1 5AF,53.748287000000000,-2.483236000000000
Zakros Greek Cuisine & Thai noodle bar,BB1 5AF,53.748287000000000,-2.483236000000000
Haute Dolci,BB1 5AL,53.747878430000000,-2.481669943000000
TCK DELI MARKET LTD,BB1 5DP,53.752196000000000,-2.469890000000000
Naafiah GrillHouse ,BB1 6DS,53.752589520000000,-2.481344725000000
Sliders pizza and grill,BB1 6LR,53.757919810000000,-2.469939089000000
Roberto's Bar & Bistro,BB1 7AR,53.750549780000000,-2.485658537000000
 McDonald's,BB1 7DJ,53.749064000000000,-2.484318780000000
WAHEED'S BUFFET,BB1 7EG,53.751829350000000,-2.484854378000000
Griller bb ltd,BB1 7LG,53.752941010000000,-2.481106095000000
RHODE ISLAND COFFEE LTD,BB1 7NQ,53.748463000000000,-2.481737000000000
Chickanos,BB1 8AE,53.752216010000000,-2.487027490000000
The clove,BB1 8DU,53.759458250000000,-2.487566364000000
Foxs Sandwich Deli,BB1 8DW,53.758453070000000,-2.489254000000000
EGO at the Knowles Arms,BB1 8QW,53.771171100000000,-2.485016661000000
Tiggis,BB1 9EX,53.795113730000000,-2.507123147000000
The Bonny Inn Limited,BB1 9HQ,53.791233800000000,-2.489118963000000
Wilpshire Golf Club,BB1 9LF,53.788517110000000,-2.474030254000000
LAHORE QILA LTD,BB1 9TL,53.760905440000000,-2.471823003000000
Mad Hatters Cupcakes & Tea Room,BB2 1AG,53.749680490000000,-2.485026761000000
muffins tea shop ,BB2 1AG,53.749680490000000,-2.485026761000000
Heavenly Desserts Blackburn Ltd,BB2 1AN,53.750357840000000,-2.486444890000000
The Tawa & Grill Hut,BB2 1EH,53.749810840000000,-2.492731864000000
Roomali,BB2 1JD,53.748235756562900,-2.485677635327680
The Refreshment Bar,BB2 1JU,53.748405000000000,-2.485057000000000
Witton Inn,BB2 1XQ,53.741581950000000,-2.506796495000000
Taste Of India ,BB2 2AD,53.745870000000000,-2.482857323000000
Crust,BB2 2BH,53.746283400000000,-2.482697958000000
THIRA RESTAURANT,BB2 2BY,53.746813000000000,-2.483007000000000
Exchange Coffee Company Blackburn Shop,BB2 2DG,53.747294420000000,-2.483846827000000
OBSERVATORY HOTEL,BB2 3HG,53.735485130000000,-2.470022181000000
COSTA COFFEE,BB2 3HH,53.735560000000000,-2.462716000000000
Brunch Cafe and Takeaway,BB2 4DT,53.734075530000000,-2.502840631000000
Revolution cafe ltd,BB2 4DT,53.734075530000000,-2.502840631000000
  McDonald's,BB2 4LQ,53.728610690000000,-2.492271000000000
The Butlers Arms,BB2 5JH,53.732560470000000,-2.543113523000000
Kaspas Blackburn,BB2 6AE,53.751427730000000,-2.488337000000000
THE NILE ,BB2 6BS,53.749470350000000,-2.501008000000000
The Clog & Billycock,BB2 6QB,53.749868050000000,-2.529870650000000
TGC AT THE WOODLANDS RESTAURANT,BB2 7AA,53.753222350000000,-2.511321000000000
Traders Arms,BB2 7EW,53.773930600000000,-2.525485260000000
Hawkshaw Farm Visitor Centre,BB2 7JA,53.787228190000000,-2.524528321000000
The Millstone,BB2 7JR,53.773556000000000,-2.529077000000000
feildens arms,BB2 7PR,53.775894010000000,-2.546692705000000
The White Bull Oswaldtwistle,BB5 3QW,53.737364870000000,-2.405764530000000
Britannia,BB5 3RJ,53.729640770000000,-2.414801000000000
The Duckworth hall inn ,BB5 3RQ,53.734849590000000,-2.423537116000000
Yummies Breakfast Ltd,BB5 4LZ,53.750301430000000,-2.410408000000000
westend fish and chips,BB5 4LZ,53.750301430000000,-2.410408000000000
the stanhill pub & kitchen,BB5 4PS,53.744799000000000,-2.415964888000000
Clayton street chippy,BB6 7AQ,53.785347470000000,-2.404512606000000
Alis chicken village ,BB6 7DD,53.785724000000000,-2.407703000000000
The Green Olive deli and bistro ,BB6 7QQ,53.785998850000000,-2.405915212000000
Black Bull Inn,BB6 8AW,53.817540320000000,-2.455265340000000
The Avenue Hotel Ltd,BB6 8AY,53.824068000000000,-2.452632000000000
THE INN AT WHITEWELL,BB7 3AT,53.917176310000000,-2.520446997000000
The Red Pump Inn,BB7 3DA,53.883936170000000,-2.464186661000000
The Parkersarms,BB7 3DY,53.949428840000000,-2.462354233000000
Waddington Arms,BB7 3HP,53.890214320000000,-2.413802277000000
The Higher Buck Inn,BB7 3HZ,53.890848550000000,-2.414934495000000
Edisford Bridge Hotel,BB7 3LJ,53.867928000000000,-2.420760000000000
The Eagle ,BB7 9AQ,53.834616000000000,-2.403134000000000
Loom Loft Ltd,BB7 9FL,53.827134000000000,-2.404399000000000
Sheridan Hotels Ltd t/as Foxfields Country Hotel,BB7 9HY,53.813429000000000,-2.429858000000000
Blueberries Cafe,BB7 9JW,53.827341400000000,-2.419638849000000
Mitton Hall,BB7 9PQ,53.842110430000000,-2.431792916000000
Shireburn Arms,BB7 9QJ,53.837062060000000,-2.476143810000000
Flavours Cookery School,BB7 9SE,53.825322820000000,-2.410777049000000
FORUM BAR & KITCHEN,BB7 9SP,53.821347000000000,-2.406794072000000
The Dog Inn,BB7 9SP,53.821347000000000,-2.406794072000000
Tastebuds (Whalley) Limited,BB7 9TH,53.822088900000000,-2.407631324000000
1260 Craft & Crust,PR1 0AD,53.750279483861000,-2.728490000000000
No 15 Cafe,PR1 0AR,53.750893608724700,-2.729759183067720
Costa Coffee - Penwortham,PR1 0DQ,53.749881033115000,-2.732198325383440
Lime Bar Lounge,PR1 0DQ,53.749881033115000,-2.732198325383440
SUBWAY,PR1 0DQ,53.749881033115000,-2.732198325383440
THE SIR TOM FINNEY,PR1 0NL,53.741754583096000,-2.742594507768200
Andreas Fish and Chips,PR1 0QB,53.748750364597000,-2.734712000000000
The Cow Shed,PR1 0QB,53.748750364597000,-2.734712000000000
Booths,PR1 0XW,53.736010558520100,-2.730986924823800
The Stanley Arms,PR1 1DA,53.758897389184700,-2.697347391669960
Level,PR1 1HT,53.759643000000000,-2.697511000000000
house of gelato,PR1 1NA,53.769928000000000,-2.704782000000000
mastersons,PR1 1NA,53.769928000000000,-2.704782000000000
FORUM BAR & KITCHEN,PR1 2AA,53.757450558414600,-2.701919165743900
Kimji Korean,PR1 2AA,53.757450558414600,-2.701919165743900
The Cafe Bar,PR1 2AA,53.757450558414600,-2.701919165743900
Cafune - South American Cafe,PR1 2AR,53.758964129063200,-2.699775383869200
Shahzaad Tandoori Restaurant ,PR1 2AT,53.760635543549100,-2.704444786485710
Town House Coffee and Brew Bar,PR1 2AT,53.760635543549100,-2.704444786485710
Subway,PR1 2AU,53.759478569441800,-2.700951892654730
tinos restaurant,PR1 2BB,53.760168826330300,-2.704148000000000
tinos restaurant,PR1 2BB,53.760168826330300,-2.704148000000000
Cool Panda,PR1 2ED,53.761777532044000,-2.705889798116680
AZUMA RESTAURANT,PR1 2EE,53.760943073911000,-2.704116222623350
Grillaz ,PR1 2EE,53.760943073911000,-2.704116222623350
Plau,PR1 2EE,53.760943073911000,-2.704116222623350
McDonald's Restaurants Ltd,PR1 2EJ,53.759783340470300,-2.701093484766450
BISTROT PIERRE - PRESTON,PR1 2NJ,53.757750430958300,-2.704669000000000
Moka cafe bar and restaurant,PR1 2NJ,53.757750430958300,-2.704669000000000
1842 Restaurant & Bar,PR1 2NL,53.758316000000000,-2.703192000000000
Raffles coffee house,PR1 2NQ,53.758925370585500,-2.701792086845000
The Harris Cafe,PR1 2PP,53.759127000000000,-2.698354797649570
King Dumpling ,PR1 2QJ,53.761278125278200,-2.699085763039870
BALUGA BAR & CLUB,PR1 2QY,53.758703267454700,-2.698269419162010
Heavenly Desserts,PR1 2QY,53.758703267454700,-2.698269419162010
ICEBURG,PR1 2QY,53.758703267454700,-2.698269419162010
Olive Tree Brasserie ,PR1 2QY,53.758703267454700,-2.698269419162010
Olive Tree Brasserie ,PR1 2QY,53.758703267454700,-2.698269419162010
Rise.,PR1 2QY,53.758703267454700,-2.698269419162010
Subway,PR1 2QY,53.758703267454700,-2.698269419162010
smashed preston limited,PR1 2QY,53.758703267454700,-2.698269419162010
Baba’s biryani ,PR1 2RQ,53.762145058453500,-2.703971000000000
street food preston ltd,PR1 2RQ,53.762145058453500,-2.703971000000000
the new york pizza co preston,PR1 2RQ,53.762145058453500,-2.703971000000000
the new york pizza co preston,PR1 2RQ,53.762145058453500,-2.703971000000000
A&R Fast Food Ltd/TA German Doner kebab,PR1 2UT,53.758922616612200,-2.703794220553700
KASPAS NORTH WEST LTD,PR1 2UT,53.758922616612200,-2.703794220553700
Subway,PR1 2XQ,53.763848192968600,-2.709718000000000
Legacy Preston International Hotel,PR1 2YF,53.759891000000000,-2.707484013525160
Angelos,PR1 3BN,53.757556420340700,-2.697643687433210
Stratos,PR1 3BN,53.757556420340700,-2.697643687433210
Authentic Cuisine (Preston) Ltd,PR1 3BQ,53.759263321081000,-2.695760000000000
Ravenous,PR1 3NR,53.757106404644900,-2.699289470039820
Thai Orchid,PR1 3NS,53.757087102174800,-2.699516659722510
Clares kitchen & Vintage Tea Room ,PR1 3NT,53.757481482875700,-2.699705225646050
Wings and Beer Co,PR1 3NT,53.757481482875700,-2.699705225646050
Paluca's Limited ,PR1 3NU,53.757272736612500,-2.700050605592410
We Dont Give a Fork,PR1 3NU,53.757272736612500,-2.700050605592410
NAAFIAH PRESTON LTD,PR1 3YH,53.758372306568200,-2.693349552653290
Taste of Turkey  restaurant,PR1 3YH,53.758372306568200,-2.693349552653290
Manjaros,PR1 4BA,53.757344495297500,-2.683050000000000
Traian Ltd/ Steakhouse Saloon,PR1 4DT,53.761669000000000,-2.681269000000000
chicos preston limited,PR1 4HL,53.757262290232000,-2.691010648143380
Flipout Preston,PR1 4LQ,53.760734723536700,-2.682649065782790
The Destination ,PR1 4LQ,53.760734723536700,-2.682649065782790
new hall lane cafe,PR1 4ST,53.763677173459800,-2.674125919072090
top cafe,PR1 5EB,53.766388683942400,-2.679418430963290
Rosemary on the Park,PR1 6AU,53.774999331724500,-2.695915000000000
Fiza Foods Ltd,PR1 6PZ,53.765208307359100,-2.692491316268690
Marco & Carl ,PR1 6PZ,53.765208307359100,-2.692491316268690
Goffys,PR1 6QY,53.773415000000000,-2.678394000000000
KFC - DEEPDALE,PR1 6QY,53.773415000000000,-2.678394000000000
McDonald's Restaurants Ltd,PR1 6QY,53.773415000000000,-2.678394000000000
Ultimate Cafe Preston,PR1 6QY,53.773415000000000,-2.678394000000000
Naafiah,PR1 6XH,53.769909390301300,-2.686196482221370
RK Dining,PR1 7EN,53.769637003182700,-2.711331853442260
THEATRE STREET BAR & GRILL,PR1 8BQ,53.757022456665500,-2.704414636614290
MOKA ON THE BALCONY,PR1 8HJ,53.756766000000000,-2.705426000000000
McDonald's Restaurants Ltd,PR1 8HJ,53.756766000000000,-2.705426000000000
Starbucks Fishergate,PR1 8HL,53.756773000000000,-2.705748025474300
Origin Juice and Brew Bar,PR1 8JB,53.755778292321200,-2.711249000000000
The Continental,PR1 8JP,53.750623246233800,-2.708917711580760
Pavilion Cafe,PR1 8JT,53.753084762042700,-2.703029294711940
Ristorante Salvatore's,PR1 9XD,53.749396553078200,-2.732053416447940
Tap and Vine,PR1 9XD,53.749396553078200,-2.732053416447940
Lyn's Lunch Box,PR2 1UL,53.769279850792400,-2.755020572910510
Lillybetts,PR2 1XL,53.767304895507800,-2.763147180373860
Tang Restaurant,PR2 2NH,53.764819307334500,-2.718865813806880
MAHARANI SOUTH INDIAN RESTAURANT LTD,PR2 2NN,53.763775536300900,-2.723535445513150
gusto italia ashton,PR2 2NN,53.763775536300900,-2.723535445513150
McDonald's Restaurants Ltd,PR2 2TX,53.762162824941200,-2.740499000000000
The Beach Hut Cafe Bar,PR2 2YP,53.761341000000000,-2.744047000000000
Plungington Hotel,PR2 3AR,53.776663387550700,-2.717763270385600
Giddy Kids,PR2 5BE,53.787260202603600,-2.632492000000000
Clip n Climb Preston Limited,PR2 5BW,53.786429000000000,-2.647808000000000
The Plough,PR2 5JR,53.805324611881800,-2.623317898169230
The Plough,PR2 5JR,53.805324611881800,-2.623317898169230
Marinos Restaurant Ltd,PR2 8AH,53.778597045235200,-2.690010627733510
Subway,PR2 9BQ,53.797649000000000,-2.694936000000000
Booths,PR2 9HD,53.792348358512600,-2.705553082957070
McDonald's Restaurants Ltd,PR2 9NP,53.791147029515500,-2.684873420494140
Costa Coffee - Fulwood Village,PR2 9RX,53.791844828766900,-2.713180124272180
Sai Surbhi,PR2 9UP,53.792539961856700,-2.714178631107920
The ginger bistro ,PR2 9UP,53.792539961856700,-2.714178631107920
Barton Grange Garden Centre,PR3 0BT,53.859792681559300,-2.746082550327500
The Flowerbowl,PR3 0BT,53.859792681559300,-2.746082550327500
The Horns Inn,PR3 0HR,53.881248551549400,-2.782563506328140
BRIDGE 64 CAFE BAR LIMITED,PR3 0JJ,53.907710000000000,-2.788047303328130
Auction Eats ,PR3 0PH,53.876002467048100,-2.759605000000000
The White Bull Bilsborrow,PR3 0RE,53.853375132624600,-2.746089981700940
Guy's Lodge,PR3 0RS,53.850537510122200,-2.761407896625880
Guys Eating Establishments Ltd,PR3 0RS,53.850537510122200,-2.761407896625880
Owd Nells Tavern,PR3 0RS,53.850537510122200,-2.761407896625880
Old Holly Farm,PR3 1AA,53.936305155911000,-2.780440635257750
STEPPING STONES,PR3 1AJ,53.930066888826900,-2.772038000000000
 Daisy Clough Nurseries and Tearoom,PR3 1AN,53.937331000000000,-2.770619000000000
The Priory,PR3 1AU,53.932625602951000,-2.759962381774630
the barn scorton,PR3 1AU,53.932625602951000,-2.759962381774630
apple store cafe,PR3 1BA,53.934129137205800,-2.750987862230330
Garstang Fish and Chips,PR3 1EA,53.901517214840600,-2.774160602704780
Pipers Restaurant ,PR3 1EA,53.901517214840600,-2.774160602704780
Booths,PR3 1EF,53.901099926251500,-2.775690000000000
The Wheatsheaf,PR3 1EL,53.900861310893600,-2.775518224954330
Bella's Coffee House,PR3 1LL,53.900651224828800,-2.774646827344520
Pantry Cafe ,PR3 1LN,53.900432393506600,-2.775129795947270
Farmers Arms Garstang Ltd,PR3 1PA,53.899097432245800,-2.777250933269700
Crofters Hotel and Tavern,PR3 1PH,53.911797000000000,-2.778918000000000
THE GREAT SEASON CHINESE RESTAURANT ,PR3 1PH,53.911797000000000,-2.778918000000000
Cafe Mila,PR3 1YA,53.900045855171800,-2.775137857821430
Cobblers Bar and Bistro,PR3 1ZA,53.900115000000000,-2.774197705719560
Royal Oak Hotel,PR3 1ZA,53.900115000000000,-2.774197705719560
THE STAGS HEAD,PR3 2AU,53.822522412744000,-2.667733281761040
The Green Man,PR3 2LP,53.852023000000000,-2.689880000000000
The Alston Arms,PR3 2NA,53.835438454555000,-2.608584777098200
ferraris country house ltd,PR3 2TB,53.849358375488400,-2.598374341715850
The Corporation Arms,PR3 2YJ,53.830692473891700,-2.581470898973240
Francos,PR3 3BD,53.819357929045800,-2.606984573392460
The Potting Shed ,PR3 3BE,53.818394046119800,-2.605633970242250
The Bridge Cafe,PR3 3FE,53.829915520086000,-2.607653843050710
CROMWELLS,PR3 3JA,53.830558445872700,-2.601357722082710
Tayah’s Cafe,PR3 3JJ,53.831406683037100,-2.602479047595420
Old Station cafe,PR3 3JP,53.832241483532100,-2.604207000000000
The Forrest Arms,PR3 3NP,53.832821681943900,-2.607057751565250
The Dog Inn,PR3 3RR,53.829361589260000,-2.599851621720820
Top Chippy,PR3 3RR,53.829361589260000,-2.599851621720820
Ribinns Ltd ta The White Bull Hotel,PR3 3XP,53.811731462394800,-2.532275941528800
Black Bull,PR3 3YE,53.812900252507900,-2.534219552152750
Potters Barn ,PR3 3YE,53.812900252507900,-2.534219552152750
Angels Restaurant,PR3 3ZA,53.826210925115400,-2.563801041286710
Ribchester Arms,PR3 3ZP,53.813807000000000,-2.530689727677020
The Pickled Goose,PR3 5AA,53.833141000000000,-2.737887401813390
Walled Garden Restaurant,PR3 5AA,53.833141000000000,-2.737887401813390
Barton bangla brasserie limited,PR3 5AB,53.838988000000000,-2.739996231695440
Planks Kitchen,PR3 5AB,53.838988000000000,-2.739996231695440
Billy Bob's Parlour,PR3 5AD,53.846972677431300,-2.743665707265190
Italian Orchard,PR3 5DB,53.813304892039100,-2.712283945298410
Bella Maria 2020 LTD,PR3 5DL,53.810580236543200,-2.724493392072000
Preston Grasshoppers RFC Ltd,PR4 0AP,53.797224510651000,-2.733250764159860
Bartle Hall Hotel,PR4 0HA,53.791488250416100,-2.781893117826830
The Saddle Inn,PR4 0RS,53.787095037395600,-2.780339000000000
Ashton & Lea Golf Club Ltd,PR4 0XA,53.770676000000000,-2.768913000000000
Stickyweeds Coffee Shop,PR4 4AB,53.726361188009000,-2.752114151107660
Booths,PR4 5AU,53.726237156077500,-2.789987000000000
The Golden Ball,PR4 5AU,53.726237156077500,-2.789987000000000
Happy Bunnies,PR4 5EB,53.726400909824600,-2.778259621002890
The Ram’s Head,PR4 5HA,53.727754843974500,-2.780148929949060
Romano's,PR4 5NB,53.727055000000000,-2.782940000000000
Mad Hatters Tea Shop ,PR4 5PD,53.729060644522100,-2.782522502885280
Boars Head,PR5 0RX,53.734724191054100,-2.587436591252130
Subway Tickled Trout Services,PR5 0UJ,53.764231000000000,-2.637242000000000
Bukhara Samlesbury,PR5 0UP,53.768637964841800,-2.580460000000000
SAMLESBURY HALL LIMITED ,PR5 0UP,53.768637964841800,-2.580460000000000
Samlesbury Hall Limited,PR5 0UP,53.768637964841800,-2.580460000000000
Nabs Head Hotel,PR5 0UQ,53.761547683616800,-2.575751804836910
New Hall Tavern ,PR5 0XA,53.757164101216300,-2.621982423499730
The Yew Tree,PR5 4AU,53.749066054819200,-2.673467294388580
McDonald's Restaurants Ltd,PR5 4AW,53.748817516371800,-2.679119000000000
SUBWAY,PR5 4AW,53.748817516371800,-2.679119000000000
Starbucks Capitol Retail Park,PR5 4AW,53.748817516371800,-2.679119000000000
RAEES,PR5 4HT,53.743853694899400,-2.647228497106330
Pinocchios ,PR5 4JA,53.746932671807400,-2.672432360818670
KFC - LOSTOCK HALL,PR5 5RY,53.727018532924400,-2.693833749289870
The Hunters,PR5 5UL,53.740150406604100,-2.682876270826840
Walton Arms ,PR5 6GD,53.735467105287600,-2.662137859838140
Valley Coffee,PR5 6GS,53.733913328270300,-2.659779000000000
Tiny Tea Cups Play Cafe Ltd,PR5 6LF,53.729645825200000,-2.659272872700000
The Beam and Brycg,PR5 6QL,53.734652701235100,-2.663125566205330
Withy Arms,PR5 6QP,53.732389792884300,-2.662741294043610
The Greedy Goose Cafe ,PR5 6TP,53.729261294929800,-2.661221812569910
THE HOSPITAL INN,PR5 6YP,53.726806113815500,-2.639964292690570
