name,postcode,lat,lon
The Beehive Thorner,LS14 3BU,53.8563,-1.4298
The Post Box Deli,LS14 3BU,53.8563,-1.4298
The Arium,LS14 3FB,53.8392,-1.4327
tina's tea room,LS15 4EF,53.8310,-1.3842
Langlands,LS15 4NF,53.8388,-1.4264
Franco's at Thorpe Park,LS15 8GB,53.7986,-1.4281
Gino D'acampo My Restaurant ,LS15 8ZB,53.7968,-1.4265
Thorpe Park Hotel & Spa,LS15 8ZB,53.7968,-1.4265
KFC COLTON MILL 02023,LS15 9JH,53.7919,-1.4319
Ronnies Limited t/a McDonalds 1294,LS15 9JH,53.7919,-1.4319
Subway Colton Mill,LS15 9JH,53.7919,-1.4319
The Adventure Park,LS22 4AN,53.9401,-1.4285
The Bay Horse,LS22 4DZ,53.9465,-1.3935
Windmill Inn Linton,LS22 4HT,53.9150,-1.4078
CROMWELLS BAR & KITCHEN,LS22 5BL,53.9081,-1.4133
BENGAL BRASSERIE (YORKSHIRE) LIMITED,LS22 6JA,53.9281,-1.3844
New Inns,LS22 6LL,53.9288,-1.3877
The Black Bull,LS22 6LN,53.9286,-1.3865
Bar Three,LS22 6LQ,53.9279,-1.3871
Costa Coffee Wetherby,LS22 6LQ,53.9279,-1.3871
BENGAL LOUNGE (WETHERBY) LTD,LS22 6LR,53.9280,-1.3859
The Red Lion,LS22 6LR,53.9280,-1.3859
Sant Angelo Restaurant,LS22 6LT,53.9277,-1.3855
The Cottage Coffee Shop,LS22 6LT,53.9277,-1.3855
Wetherby Whaler,LS22 6NE,53.9279,-1.3866
Pomfrets of Wetherby,LS22 6NG,53.9282,-1.3860
The Gourmet Cafe,LS22 6NG,53.9282,-1.3860
Spice 4U,LS22 6NN,53.9289,-1.3852
The Swan and Talbot,LS22 6NN,53.9289,-1.3852
Don’t tell the duke ,LS22 6NQ,53.9289,-1.3866
Mango Vegetarian cafe and Restaurant,LS22 6NQ,53.9289,-1.3866
The Mews,LS22 6NQ,53.9289,-1.3866
the wetherby,LS22 7DN,53.9366,-1.3783
Stew & Oyster,LS23 6BH,53.9068,-1.3511
La Casita Boston Spa ,LS23 6BW,53.9053,-1.3478
Restaurant L'Aquila ,LS23 6BW,53.9053,-1.3478
southbank,LS23 6BW,53.9053,-1.3478
The Albion,LS23 6HU,53.8946,-1.3480
Bowcliffe Hall ,LS23 6LP,53.8746,-1.3546
Fox & Hounds,LS23 7DQ,53.9253,-1.3248
Aagrah Tadcaster ,LS24 8EG,53.8995,-1.2003
The Rythre Arms,LS24 9EE,53.8465,-1.1619
ROAST COFFEE SHOP,LS24 9HJ,53.8758,-1.2719
Hazlewood Castle Hotel,LS24 9NJ,53.8583,-1.3252
Crooked Billet ,LS24 9QN,53.8245,-1.2966
The White Horse,LS24 9RF,53.8258,-1.2119
21 The High Street,LS24 9SA,53.8824,-1.2641
Costa Coffee Garforth,LS25 1AA,53.7949,-1.3880
Saffron Garforth ,LS25 1AF,53.7953,-1.3885
Subway Garforth,LS25 1AF,53.7953,-1.3885
450 Degrees - Pizza,LS25 1DS,53.7929,-1.3886
LA BELLA VITA (LEEDS) LTD,LS25 1DS,53.7929,-1.3886
The Topiary Coffee Shop,LS25 2AQ,53.7822,-1.3705
Freshly Made Sandwich Bar & Cafe,LS25 2EA,53.7967,-1.3753
Aagrah Garforth,LS25 2HF,53.7984,-1.3686
The Arabian Horse,LS25 3AA,53.8303,-1.3424
The Queen o’ t’ owd Thatch,LS25 5AQ,53.7779,-1.2556
Cumin Lounge,LS25 5AS,53.7775,-1.2481
China Palace Restaurant,LS25 5DP,53.7734,-1.2487
The Crown Inn,LS25 5DU,53.7624,-1.2359
Cross Keys Inn,LS25 5HE,53.7534,-1.2308
Lumby Garden Centre,LS25 5LE,53.7624,-1.2840
The Chequers Inn,LS25 5LP,53.7619,-1.3117
Best Western Plus Milford Hotel ,LS25 5LQ,53.7780,-1.3078
Squires Cafe Bar,LS25 5LX,53.7829,-1.2887
The Oddfellows Arms,LS25 6BA,53.7957,-1.2512
Elmet Kitchen (Sherburn) LTD,LS25 6BG,53.7957,-1.2513
THOR'S BARS LIMITED,LS25 6NS,53.7952,-1.2201
Tasty Bites,LS25 7AB,53.7665,-1.3690
Pit stop cafe ltd,LS25 7BF,53.7713,-1.3501
Sylhety Balti,LS25 7LT,53.7671,-1.3708
Cazs Cafe,LS26 8DT,53.7663,-1.4212
MD’s cafe ,LS26 8XT,53.7623,-1.4138
The Boundary House,LS26 9EE,53.7349,-1.4100
rivers MEET,LS26 9EP,53.7400,-1.4162
Flavours Castleford Ltd,WF10 1AD,53.7260,-1.3506
Blue cup cafe,WF10 1AG,53.7268,-1.3514
Judys cafe,WF10 1AG,53.7268,-1.3514
Cafe vida ,WF10 1AX,53.7265,-1.3494
Revs Coffee House,WF10 1AY,53.7269,-1.3496
Tartan Coffee Lounge Ltd,WF10 1DG,53.7257,-1.3524
Plan Bee,WF10 1DX,53.7255,-1.3546
Ritz Bingo Castleford,WF10 1EG,53.7254,-1.3564
Queen's Mill Tea Rooms,WF10 1JL,53.7278,-1.3513
Chefs cafe,WF10 1QR,53.7250,-1.3791
WHITE HORSE,WF10 2AB,53.7531,-1.3437
Samuel Valentine - The Urban Food Hall,WF10 2BP,53.7437,-1.3653
Victoria Hotel,WF10 2BZ,53.7440,-1.3687
Faye's Sandwich Bar ,WF10 2SE,53.7297,-1.3441
Bake n sarnie,WF10 3SG,53.7270,-1.3112
THAAL (KNOTTINGLEY) LIMITED,WF11 9EE,53.7274,-1.2675
THE THREE HORSESHOES,WF11 9JA,53.7434,-1.2851
Hallo mallow,YO10 4DL,53.9473,-1.0776
The Saddle Inn,YO10 4PJ,53.9370,-1.0728
Mister C's Fulford ltd,YO10 4PN,53.9346,-1.0711
The Plough Inn ,YO10 4PX,53.9351,-1.0718
Deramore Arms,YO10 5EA,53.9447,-1.0443
The Blacksmiths Arms,YO19 4PN,53.9024,-1.0910
Waterfront Cafe York Marina,YO19 4RW,53.9075,-1.0875
Bagel Nash York Designer Outlet,YO19 4TA,53.9222,-1.0775
McDonalds Designer Outlet,YO19 4TA,53.9222,-1.0775
Starbucks McArthur Glen,YO19 4TA,53.9222,-1.0775
Subway,YO19 4TA,53.9222,-1.0775
The Fishermans fourth wife ltd,YO19 4TA,53.9222,-1.0775
Sangthai Restaurant,YO19 6EX,53.8810,-1.0465
The White Swan,YO19 6HA,53.8896,-1.0456
The Fat Abbot at The Parsonage Hotel & Spa,YO19 6LF,53.8792,-1.0457
Dairyman’s Tearooms,YO19 6PG,53.8337,-1.0624
Burro Restaurant,YO19 6TJ,53.8301,-1.0653
Lyngarth House,YO19 6UQ,53.8775,-1.0443
Rowntree Park Reading Cafe,YO23 1JU,53.9489,-1.0838
village spice,YO23 1LF,53.9458,-1.0857
The Winning Post,YO23 1NZ,53.9470,-1.0861
Middlethorpe Hall and Spa,YO23 2GB,53.9306,-1.0900
Marcia Inn,YO23 2RA,53.9216,-1.0971
The Ebor Inn,YO23 2RB,53.9212,-1.0968
McDonalds Bilbrough A64,YO23 3PP,53.9064,-1.1846
The Royal Oak,YO23 3ST,53.9138,-1.1418
The Tickled Trout,YO26 7NN,53.9440,-1.2749
The Castle Inn,YO8 3SH,53.8293,-1.1242
THE BLACK SWAN,YO8 3UU,53.8136,-1.1023
The 'new' Little Coffee House,YO8 4AR,53.7810,-1.0755
Caramba steakhouse,YO8 4AT,53.7798,-1.0760
Micklegate Tea Room,YO8 4EA,53.7854,-1.0681
Mister C's Ltd,YO8 4EA,53.7854,-1.0681
Abbey cafe,YO8 4EQ,53.7852,-1.0675
Little Miss Muffins Tea Room,YO8 4HE,53.7836,-1.0717
THE OLIVE BRANCH,YO8 4HE,53.7836,-1.0717
Regency Selby,YO8 4JS,53.7832,-1.0695
The Hub Cafe,YO8 4JS,53.7832,-1.0695
C E Wetherell & Sons Ltd,YO8 4PD,53.7835,-1.0680
The Capri Restaurant Ltd,YO8 4PF,53.7843,-1.0680
No 1 The Crescent,YO8 4PU,53.7838,-1.0659
JINNAH RESTAURANT (SELBY) LLP,YO8 4PW,53.7827,-1.0671
Lola's Garden,YO8 4PW,53.7827,-1.0671
Selby Garden Centre The Garden Gate,YO8 5HG,53.7965,-1.0314
Black Dog Inn,YO8 8HX,53.7274,-1.0291
The Wheatsheaf Inn,YO8 8LJ,53.7511,-1.0994
McDonald's,YO8 8LY,53.7729,-1.0649
The Wishingwell,YO8 8LZ,53.7667,-1.0666
Selby Superbowl ,YO8 8NA,53.7741,-1.0648
Selby Livestock Auction Mart LTd,YO8 8NB,53.7708,-1.0642
Jug Inn,YO8 8QQ,53.7285,-1.1191
Selby Bowling Club,YO8 9AX,53.7714,-1.0814
The Fox Inn,YO8 9LX,53.7744,-1.1266
