name,postcode,lat,lon
Stilt and Siskin,AB34 4YB,57.141766000000000,-2.934805000000000
Siskin and Kangaroo,AB36 8UR,57.200302530000000,-3.078259167000000
Gull and Viscacha,AB52 6NR,57.328908140000000,-2.673452703000000
Hawk and Stint,AB33 8TB,57.222001920000000,-2.942663197000000
Egret and Solitaire,AB31 4RZ,57.128890530000000,-2.689754050000000
Pratincole and Condor,AB54 4LA,57.261189760000000,-2.910673540000000
Parakeet and Chickadee,AB33 8JE,57.181979620000000,-2.701462661000000
Cuscus and Marsh harrier,AB36 8XB,57.193552700000000,-3.035963920000000
Badger and Kangaroo,AB34 5AU,57.102520000000000,-2.685583000000000
Linsang and Recurvebill,AB34 5BE,57.083906770000000,-2.711389722000000
Piping shrike and Towhee,AB51 7QB,57.156707990000000,-2.556718466000000
Rabbit and Piping shrike,AB33 8RE,57.212029000000000,-2.935588000000000
Night heron and White ibis,AB54 4GJ,57.333628030000000,-2.836023154000000
B and Philippine hawk-owl,AB33 8LX,57.163256260000000,-2.739400720000000
Boto and Grouse,AB33 8SB,57.213116560000000,-2.840282543000000
Goose and Solitaire,AB52 6JB,57.341549750000000,-2.615070222000000
Pratincole and Songlark,AB51 7QD,57.163185030000000,-2.562718384000000
Minke whale and Thrasher,AB33 8BF,57.234806810000000,-2.702001861000000
Tattler and Badger,AB54 4LP,57.310921930000000,-2.880295622000000
White ibis and Pratincole,AB54 4PA,57.326989790000000,-2.795814777000000
Dolphin and Tahr,AB33 8EA,57.199915000000000,-2.629263000000000
Snipe and Grosbeak,AB52 6XY,57.355095520000000,-2.701056384000000
Parrotlet and Mouse,AB52 6SQ,57.354317660000000,-2.518657505000000
Polecat and Puffleg,AB52 6HN,57.344988660000000,-2.613549271000000
Grouse and Songlark,AB33 8JL,57.174556710000000,-2.705159049000000
Ground sloth and Stint,AB31 4NQ,57.111627700000000,-2.582971013000000
Towhee and Darwin's finches,AB33 8HU,57.205671000000000,-2.669717000000000
Old World quail and Boto,AB34 5LU,57.103964300000000,-2.918946202000000
Towhee and Stilt,AB52 6JF,57.342124620000000,-2.611391496000000
B and Condor,AB31 4FF,57.104619000000000,-2.620763000000000
Coati and Stint,AB54 4PE,57.320336000000000,-2.769919000000000
Night heron and Rat,AB33 8PJ,57.255355850000000,-2.874527560000000
Moluccan boobook and Parrotlet,AB51 7JN,57.263422700000000,-2.577608951000000
Parrotlet and Darwin's finches,AB52 6RS,57.324874860000000,-2.532955620000000
Capuchin and Diving bird,AB54 4GH,57.333378480000000,-2.834373041000000
Moluccan boobook and Diving bird,AB52 6JZ,57.344756000000000,-2.615052890000000
New World blackbird and Badger,AB36 8YS,57.180497590000000,-3.098525537000000
Ice seal and Ground sloth,AB34 4XP,57.147835990000000,-2.930429609000000
Minke whale and Quetzal,AB34 4TN,57.144496250000000,-2.784240697000000
Bunting and Thrasher,AB31 4QW,57.131049110000000,-2.689282096000000
Elephant and Wader,AB36 8UN,57.201949350000000,-3.057865544000000
Greenbul and Warbler,AB33 8EF,57.248886000000000,-2.703765000000000
Logrunners and Condor,AB31 4QA,57.123750000000000,-2.695010000000000
Masked owl and Marmoset,AB54 4JH,57.294162920000000,-2.873324434000000
Meadowlark and Myna,AB54 4NQ,57.356260750000000,-2.764735891000000
Skunk and Scimitar babbler,AB31 4JG,57.104773930000000,-2.620303008000000
Grosbeak and Philippine hawk-owl,AB52 6SZ,57.347381693433900,-2.608022991472490
Partridge and Cloud rat,AB31 4FL,57.128047000000000,-2.689623000000000
Bunting and Mockingbird,AB51 7JB,57.261273200000000,-2.550155828000000
Night heron and Booted eagles,AB52 6QG,57.323091000000000,-2.596163000000000
Flameback and Argus,AB33 8HB,57.232559530000000,-2.645340223000000
Stint and Vole,AB33 8JG,57.165140000000000,-2.718174000000000
Ibex and Elephant,AB36 8XS,57.193551000000000,-3.090242000000000
Wader and Argus,AB33 8DB,57.274245430000000,-2.696682839000000
Grosbeak and Old World vulture,AB33 8QH,57.240174000000000,-2.728083000000000
Condor and Vole,AB54 4AB,57.316421000000000,-2.914531000000000
Macaw and Kangaroo,AB52 6NY,57.331105000000000,-2.692411000000000
Boto and Treepie,AB51 7SR,57.204637860000000,-2.575564727000000
Fulmarine petrel and Cloud rat,AB33 8PX,57.231811200000000,-2.701149824000000
Grouse and Wader,AB52 6PZ,57.310239000000000,-2.626980000000000
Thicketbird and Old World vulture,AB34 5PX,57.133089000000000,-2.980635388000000
Shearwater and Flameback,AB51 7RA,57.184782000000000,-2.564254000000000
Ice seal and Darwin's finches,AB33 8HE,57.237827260000000,-2.672055880000000
Jackal and Solitaire,AB31 4BN,57.082472780000000,-2.683348653000000
American sparrow and Masked owl,AB52 6RU,57.326041000000000,-2.547852000000000
Dorcopsis and Rabbit,AB33 8TZ,57.231986020000000,-2.703372000000000
Kite and Goose,AB54 4PJ,57.316719660000000,-2.752425190000000
Nukupu ªu and Parrotbill,AB36 8YX,57.181785580000000,-3.071119006000000
Fulmarine petrel and Piping shrike,AB33 8JJ,57.173518410000000,-2.693198441000000
Parrotlet and Marsh harrier,AB52 6NS,57.318401000000000,-2.667698000000000
Chicken and Goose,AB33 8PW,57.234848860000000,-2.710501019000000
Dorcopsis and Black cockatoo,AB33 8JR,57.178022070000000,-2.751704000000000
Warbler and Bunting,AB31 4QR,57.120730000000000,-2.739312000000000
Guillemot and Black cockatoo,AB51 7RP,57.181167770000000,-2.544746227000000
Marmoset and Siskin,AB52 6SD,57.352129000000000,-2.537140000000000
Chicken and Siskin,AB33 8PL,57.262019310000000,-2.870955340000000
Masked owl and Hawk,AB51 7PQ,57.158977000000000,-2.526334000000000
Mamo and Polecat,AB31 4GP,57.105597520000000,-2.622693949000000
Puffleg and Tit-tyrant,AB52 6LG,57.344404910000000,-2.617194871000000
Badger and Old World vulture,AB31 4HX,57.097864000000000,-2.626080000000000
Egret and Chicken,AB33 8QS,57.241282510000000,-2.893182505000000
Parrotbill and Maya,AB52 6TF,57.352848160000000,-2.602512477000000
Gull and Magpie,AB33 8DD,57.286483740000000,-2.708941303000000
Crow and Elephant,AB33 8UF,57.232536670000000,-2.691820964000000
Capuchin and Linsang,AB51 7PN,57.174418000000000,-2.522404185000000
Hawk and Lemming,AB33 8TT,57.231513000000000,-2.704672403000000
Ibex and Masked owl,AB33 8NG,57.233531630000000,-2.706731896000000
Kangaroo and Asiatic leopard,AB31 4QS,57.122188000000000,-2.724989000000000
Stilt and Maya,AB36 8XJ,57.190900000000000,-3.022056000000000
American sparrow and Cuscus,AB54 4JR,57.279150580000000,-2.870928726000000
Night heron and Kite,AB51 7PX,57.160281670000000,-2.534370729000000
Flameback and Hawaiian honeycreeper,AB31 4DH,57.085704960000000,-2.568638690000000
Grouse and Asiatic leopard,AB33 8DW,57.232500980000000,-2.703101017000000
Mole and Mink,AB54 4JJ,57.289181850000000,-2.872658912000000
Darwin's finches and Tattler,AB34 5ED,57.086200350000000,-2.671817989000000
Gull and Chicken,AB51 7RX,57.188215000000000,-2.562137383000000
Grouse and Guillemot,AB33 8AH,57.235203580000000,-2.704941612000000
Elephant and Triller,AB36 8UB,57.248350110000000,-3.072602203000000
Meadowlark and Scimitar babbler,AB31 4TG,57.130309110000000,-2.689896072000000
Greenbul and Cloud rat,AB33 8HR,57.205665640000000,-2.719278000000000
Booted eagles and Peafowl,AB34 5BL,57.084660000000000,-2.727285478000000
Greenbul and Jerboa,AB33 8EP,57.206674370000000,-2.649738447000000
Petrel and Towhee,AB33 8FH,57.228981210000000,-2.694735780000000
Songlark and Dorcopsis,AB34 5JP,57.083116000000000,-2.786492000000000
Songlark and Jackal,AB54 4JQ,57.284423350000000,-2.873574753000000
Myna and Booted eagles,AB31 4HH,57.104212430000000,-2.624833203000000
Siskin and Crow,AB51 5HZ,57.309378160000000,-2.514355000000000
Solitaire and Egret,AB51 5HX,57.294733670000000,-2.501026673000000
Marmoset and Armadillo,AB52 6LJ,57.343947810000000,-2.601253000000000
Goose and Macaw,AB33 8LU,57.162843990000000,-2.752834509000000
Booted eagles and Warbler,AB34 5PS,57.123926000000000,-2.947866000000000
American sparrow and Marmoset,AB33 8DA,57.269742000000000,-2.682437000000000
Crow and Cuscus,AB31 4LR,57.106494040000000,-2.610278041000000
Duck and Armadillo,AB33 8PU,57.248847300000000,-2.745688307000000
Asiatic leopard and Dorcopsis,AB31 4LA,57.126025590000000,-2.642263018000000
Polecat and Piping shrike,AB33 8NW,57.240224740000000,-2.720843744000000
Argus and Thrasher,AB52 6YD,57.354503900000000,-2.702441170000000
