name,postcode,lat,lon
Myna and Rabbit,AB35 5QA,57.047540340000000,-3.039344816000000
Stilt and Siskin,AB34 4YB,57.141766000000000,-2.934805000000000
Fulmarine petrel and Marmoset,AB35 5RT,57.047675980000000,-3.042480411000000
Flameback and Greenbul,AB35 5QR,57.047028960000000,-3.041423857000000
Grackle and Grouse,AB35 5NX,57.059954000000000,-3.035240000000000
Kangaroo and Guillemot,AB35 5XG,57.003704000000000,-3.397007000000000
Armadillo and Grouse,AB35 5TP,57.034323000000000,-3.250794000000000
Cuscus and Pheasant,AB35 5TA,57.037572000000000,-3.193144000000000
Grackle and Eagle,AB35 5UZ,57.050417570000000,-3.035798643000000
Old World quail and Boto,AB34 5LU,57.103964300000000,-2.918946202000000
Dorcopsis and Marsh harrier,PH10 7QG,56.823669635763500,-3.490561047396550
Ice seal and Ground sloth,AB34 4XP,57.147835990000000,-2.930429609000000
Hawk and Fish eagle,AB35 5ZP,57.005147130000000,-3.400502729000000
Skunk and Goose,AB34 5JY,57.077417640000000,-2.892537000000000
Magpie and Grouse,AB35 5PQ,57.049347910000000,-3.036955700000000
Vole and Boto,AB35 5SQ,57.041569400000000,-3.058262445000000
Thicketbird and Old World vulture,AB34 5PX,57.133089000000000,-2.980635388000000
Cuscus and Mockingbird,AB35 5TB,57.034385540000000,-3.218944672000000
Herring gull and Towhee,AB35 5RX,57.053990820000000,-3.039327238000000
Thrasher and Petrel,AB35 5XS,56.978666600000000,-3.388747656000000
Pheasant and Kestrel,AB35 5XQ,57.005903100000000,-3.348022585000000
Chicken and Duck,AB35 5GJ,57.050240340000000,-3.037672919000000
Rat and Jerboa,AB35 5TQ,57.030293110000000,-3.283248223000000
Night heron and Mink,AB35 5SB,57.065172000000000,-3.011225975000000
Old World warbler and Herring gull,AB35 5YQ,57.004483290000000,-3.395587684000000
Jay and Myna,AB34 5LL,57.075771700000000,-2.893159457000000
Eagle and B,AB34 5NX,57.053656480000000,-2.951399446000000
Booted eagles and Warbler,AB34 5PS,57.123926000000000,-2.947866000000000
Partridge and Peafowl,AB35 5QF,57.048978570000000,-3.037077274000000
