name,postcode,lat,lon
Crow and Capuchin,AB45 2SH,57.660437470000000,-2.746675200000000
Tit-tyrant and Lemming,AB45 3AQ,57.634091370000000,-2.601855834000000
Warbler and Darwin's finches,AB53 4EN,57.537335230000000,-2.463129000000000
Siskin and Parakeet,AB53 5TN,57.557509670000000,-2.360491140000000
Jerboa and Condor,AB56 5XR,57.661904380000000,-2.807629121000000
Vole and Herring gull,AB44 1TT,57.670609870000000,-2.497434419000000
Cloud rat and Recurvebill,AB45 2NL,57.677588680000000,-2.585675322000000
Chicken and Goose,AB53 4NS,57.578581000000000,-2.484439000000000
Solitaire and Grackle,AB45 2PQ,57.683223370000000,-2.698426783000000
Parrotbill and Grosbeak,AB53 5PN,57.557297660000000,-2.435459000000000
Scimitar babbler and Rat,AB53 5YW,57.543673240000000,-2.325373136000000
Solitaire and Black jay,AB53 4DG,57.536173190000000,-2.448317128000000
Parrotlet and Egret,AB56 4WD,57.690021360000000,-2.818603919000000
Chipmunk and Coati,AB54 6BX,57.507482000000000,-2.640024000000000
Vole and Night heron,AB45 2JA,57.593535000000000,-2.683156000000000
Wader and Bronzewing pigeon,AB54 6DA,57.492829670000000,-2.649142761000000
Grosbeak and Francolin,AB56 4DP,57.680755210000000,-2.915202000000000
Grosbeak and Quetzal,AB45 3TB,57.649930270000000,-2.539556804000000
Fox and Marsh harrier,AB53 5XG,57.574491270000000,-2.300351561000000
Rabbit and Jay,AB53 5XF,57.574335000000000,-2.297712049000000
B and Mouse,AB43 6NG,57.589678510000000,-2.196387782000000
Marmoset and Minke whale,AB53 6YR,57.534541080000000,-2.266653545000000
Asiatic leopard and Herring gull,AB54 7RT,57.538846000000000,-2.652951000000000
Flameback and Masked owl,AB45 3DF,57.668942000000000,-2.332144000000000
Cuscus and Fox,AB53 4WB,57.545503370000000,-2.471252734000000
Piping shrike and Shearwater,AB53 8FG,57.535430000000000,-2.442529000000000
Warbler and Zebra,AB45 3YA,57.585521620000000,-2.571132456000000
Condor and Eagle,AB44 1PQ,57.664398810000000,-2.489304034000000
River dolphin and Moluccan boobook,AB53 6UY,57.540975980000000,-2.251867257000000
Old World vulture and Skunk,AB45 3DS,57.608327170000000,-2.569398302000000
Darwin's finches and Black jay,AB45 3UB,57.613574450000000,-2.540423667000000
Grouse and Bunting,AB53 4SP,57.539852000000000,-2.474036000000000
Puffleg and Greenbul,AB53 4SD,57.537970000000000,-2.465426000000000
Black cockatoo and Fulmarine petrel,AB45 1HS,57.667856470000000,-2.523110674000000
Grackle and Flameback,AB56 4AY,57.669376250000000,-2.922175542000000
B and Francolin,AB45 2EB,57.643156200000000,-2.625608670000000
Bronzewing pigeon and Civet,AB56 4PT,57.698854450000000,-2.901415802000000
Diving bird and Grosbeak,AB53 8BY,57.495621860000000,-2.469141387000000
Eagle and Herring gull,AB45 3PL,57.589516680000000,-2.449374931000000
Eagle and Warbler,AB45 2NP,57.677953560000000,-2.580567139000000
American sparrow and Coati,AB45 2SF,57.661493350000000,-2.745842137000000
Philippine hawk-owl and Asiatic leopard,AB56 4RN,57.689870210000000,-2.815581316000000
Buzzard and Vole,AB45 3XB,57.593090420000000,-2.547580529000000
Boto and Wallaby,AB53 8ED,57.512320740000000,-2.407014053000000
Moluccan boobook and Hawaiian honeycreeper,AB45 2UL,57.673616510000000,-2.744883992000000
Darwin's finches and Rat,AB53 5QH,57.604460000000000,-2.337814000000000
Crow and White ibis,AB53 5UZ,57.547856117719300,-2.317207405306920
Herring gull and Chipmunk,AB45 3PP,57.606530600000000,-2.441418571000000
Shearwater and Moluccan boobook,AB56 4QW,57.695874000000000,-2.907294651000000
Booted eagles and Kestrel,AB56 4UG,57.688474420000000,-2.817512350000000
Parrotlet and Argus,AB45 2AT,57.615857000000000,-2.689503789000000
Eagle and Goose,AB56 4NX,57.700750410000000,-2.860020143000000
Goose and Grouse,AB45 2RA,57.681184520000000,-2.688560872000000
Ground sloth and Grackle,AB45 2HX,57.590306050000000,-2.672189236000000
Wader and Grackle,AB45 2TB,57.677856210000000,-2.669366000000000
Partridge and Skunk,AB55 6UJ,57.604847000000000,-2.916792000000000
Kangaroo and Capuchin,AB45 2BP,57.622630000000000,-2.723297000000000
Meadowlark and Moluccan boobook,AB54 7SG,57.560957340000000,-2.625451493000000
Buzzard and Treepie,AB55 6LJ,57.545485960000000,-2.879213194000000
Chicken and Civet,AB53 6SU,57.515376430000000,-2.195904397000000
Ground sloth and Condor,AB45 3UR,57.617095520000000,-2.531972373000000
Marsh harrier and Chicken,AB53 4EE,57.535876270000000,-2.460923499000000
Kākāriki and Eagle,AB53 6SX,57.516631830000000,-2.197279964000000
American sparrow and Siskin,AB56 4DT,57.683193440000000,-2.888029844000000
Shearwater and Viscacha,AB53 4EL,57.537717110000000,-2.463535690000000
Triller and Guillemot,AB53 4JJ,57.553400230000000,-2.542539714000000
Capuchin and Coati,AB53 5QJ,57.609176140000000,-2.331196830000000
Kākāriki and Condor,AB53 4EX,57.542980730000000,-2.468447080000000
Parakeet and Jay,AB45 1LA,57.669551500000000,-2.532355013000000
Zebra and Rat,AB56 4TZ,57.693276810000000,-2.813846196000000
Vole and Mouse,AB54 7TT,57.552600830000000,-2.617589000000000
Pratincole and Viscacha,AB56 4RE,57.695951830000000,-2.910369326000000
Pratincole and Eagle,AB44 1TA,57.670306280000000,-2.483063682000000
Darwin's finches and Herring gull,AB45 3TP,57.656188580000000,-2.548480861000000
Francolin and Elephant,AB53 8BT,57.505954770000000,-2.473179110000000
Argus and Moluccan boobook,AB45 2PR,57.682543060000000,-2.696367787000000
Fulmarine petrel and Recurvebill,AB45 2RB,57.680428010000000,-2.687272100000000
Fish eagle and Coati,AB45 2AG,57.682226000000000,-2.690544000000000
Mink and Chicken,AB45 1JA,57.668983000000000,-2.524384000000000
Piping shrike and Black jay,AB45 2BR,57.605008440000000,-2.724587081000000
Stilt and Warbler,AB45 2LX,57.675228080000000,-2.577472114000000
Philippine hawk-owl and Grosbeak,AB43 7LL,57.667112850000000,-2.152621767000000
Peafowl and Herring gull,AB45 3WR,57.673395010000000,-2.336510312000000
Pheasant and Tattler,AB53 5XX,57.561674000000000,-2.263743000000000
Darwin's finches and Darwin's finches,AB53 6UR,57.554861000000000,-2.193281000000000
Ground sloth and Warbler,AB45 2AJ,57.634057510000000,-2.652147301000000
Chickadee and Dolphin,AB45 2RQ,57.682021580000000,-2.686597953000000
Bronzewing pigeon and Old World quail,AB54 7TB,57.561069380000000,-2.626406098000000
Tahr and Grackle,AB53 4WN,57.544011610000000,-2.476363000000000
Minke whale and Songlark,AB45 2PD,57.684216750000000,-2.692559455000000
Capuchin and Warbler,AB45 2AW,57.663670000000000,-2.590867000000000
American sparrow and Partridge,AB53 6TR,57.519253760000000,-2.198045000000000
Ice seal and Boto,AB53 4AS,57.539952000000000,-2.466453848000000
Hawaiian honeycreeper and Partridge,AB45 1JS,57.668746600000000,-2.529376140000000
Mink and Mockingbird,AB44 1PN,57.664662040000000,-2.490916655000000
Ice seal and Badger,AB54 7UG,57.564199170000000,-2.623818864000000
Black jay and Darwin's finches,AB45 2QH,57.682132910000000,-2.694179881000000
Pratincole and Capuchin,AB53 5RW,57.593825860000000,-2.399292681000000
Pratincole and Kangaroo,AB45 3PB,57.595630470000000,-2.474828873000000
Old World warbler and Petrel,AB45 1GL,57.665585000000000,-2.520564000000000
Snipe and Jay,AB45 2PS,57.682180120000000,-2.698658253000000
Herring gull and Goose,AB45 2LT,57.676737260000000,-2.577445818000000
Zebra and Partridge,AB53 6UD,57.547470670000000,-2.228071002000000
Dorcopsis and Rabbit,AB53 4NX,57.558002130000000,-2.467754268000000
River dolphin and Diving bird,AB53 4EZ,57.541148120000000,-2.468490373000000
Treepie and Prion,AB43 6NU,57.573171810000000,-2.169565244000000
Ice seal and Triller,AB45 2SN,57.662848770000000,-2.746004050000000
Marmoset and Chipmunk,AB53 4UB,57.545071070000000,-2.473953561000000
Mole and Eagle,AB45 3UX,57.599105000000000,-2.540127382000000
Nukupuʻu and Vole,AB53 5RD,57.575753170000000,-2.442400058000000
Prion and Ibex,AB56 4RQ,57.692983640000000,-2.820297896000000
Quetzal and Pratincole,AB45 3AL,57.643190160000000,-2.584735747000000
Chickadee and Diving bird,AB54 7SY,57.559483320000000,-2.630908000000000
Minke whale and Night heron,AB45 1HP,57.666626000000000,-2.520760833000000
Partridge and Siskin,AB56 4JX,57.701424000000000,-2.865204000000000
Guillemot and Guillemot,AB43 6NF,57.592972120000000,-2.198262362000000
B and Triller,AB45 1FL,57.666486140000000,-2.535042301000000
Minke whale and Jay,AB44 1QU,57.663583550000000,-2.491069685000000
Shearwater and Old World quail,AB54 7SJ,57.564759150000000,-2.619549294000000
Logrunners and Mockingbird,AB54 7RB,57.577792000000000,-2.693997000000000
Kestrel and Partridge,AB54 7NG,57.516836490000000,-2.760798884000000
Ibex and Kite,AB42 4QY,57.556978080000000,-2.161518502000000
Fish eagle and Buzzard,AB54 7QF,57.586576970000000,-2.657067494000000
Night heron and Buzzard,AB45 1EL,57.667642970000000,-2.533366319000000
Maya and Minke whale,AB45 2QU,57.674598550000000,-2.693817877000000
Egret and New World blackbird,AB53 8JA,57.508157170000000,-2.348588579000000
Polecat and Boto,AB56 5UN,57.622875180000000,-2.851347715000000
Viscacha and Greenbul,AB56 4RL,57.691579220000000,-2.819393896000000
Gull and Kākāriki,AB45 2SU,57.661291210000000,-2.746224000000000
Stint and Siskin,AB44 1QP,57.671062990000000,-2.494373000000000
Flameback and Siskin,AB53 4BR,57.539393050000000,-2.454704056000000
Herring gull and Armadillo,AB53 4SW,57.538594210000000,-2.466837373000000
Grosbeak and Mink,AB54 7LE,57.523391770000000,-2.756677765000000
Piping shrike and Ice seal,AB45 2SB,57.667120580000000,-2.710806410000000
Black cockatoo and Badger,AB53 4HG,57.498163000000000,-2.557670000000000
Hawk and Duck,AB45 3LR,57.636192840000000,-2.482593630000000
New World blackbird and Macaw,AB56 4DZ,57.676040030000000,-2.904957294000000
Zebra and Kangaroo,AB45 2YQ,57.649142390000000,-2.668736587000000
Flameback and Wallaby,AB56 4WB,57.693399420000000,-2.832284609000000
Philippine hawk-owl and Cuscus,AB44 1XF,57.667292240000000,-2.498227097000000
Mockingbird and Skunk,AB45 2XA,57.628720420000000,-2.746576629000000
Dolphin and Flameback,AB53 4FB,57.538366000000000,-2.462776000000000
Myna and Eagle,AB45 1AN,57.663965430000000,-2.523507179000000
Puffleg and Tit-tyrant,AB45 3YX,57.671968100000000,-2.336027680000000
Piping shrike and Diving bird,AB45 1BL,57.662654630000000,-2.527678365000000
Kangaroo and Vulture,AB54 7NJ,57.526639270000000,-2.739211974000000
Linsang and Lemming,AB53 4LP,57.548973350000000,-2.560685721000000
Mamo and Parakeet,AB54 7TF,57.563463730000000,-2.618106525000000
Tahr and Rat,AB45 2LB,57.674839340000000,-2.603034098000000
Maya and Chickadee,AB45 2LA,57.674357920000000,-2.594676734000000
Treepie and Chipmunk,AB44 1XR,57.666532430000000,-2.494998356000000
Boto and Bunting,AB45 1FW,57.664217832173700,-2.526293459636830
Quetzal and Rat,AB45 3JS,57.662481340000000,-2.510815063000000
Mouse and Philippine hawk-owl,AB53 4DR,57.536192600000000,-2.452943863000000
Old World warbler and Boto,AB44 1LR,57.669506680000000,-2.492423802000000
Dolphin and Zebra,AB45 3SB,57.652234010000000,-2.383346536000000
Tit-tyrant and Cuscus,AB53 4PL,57.540557490000000,-2.460565019000000
Fulmarine petrel and Cuscus,AB45 3YR,57.672217860000000,-2.336683809000000
Myna and Chicken,AB53 8JJ,57.519110000000000,-2.323702000000000
Condor and Pratincole,AB45 3PT,57.610236880000000,-2.404911940000000
Piping shrike and Badger,AB45 3ZP,57.671008260000000,-2.338918965000000
Solitaire and Armadillo,AB45 2PG,57.682593000000000,-2.701953000000000
Cloud rat and White ibis,AB45 2SY,57.661835290000000,-2.748782199000000
Triller and Petrel,AB56 4SN,57.692061430000000,-2.823984174000000
Old World warbler and Ice seal,AB53 4EW,57.538665180000000,-2.459739380000000
Petrel and Solitaire,AB56 4TP,57.660699060000000,-2.797982196000000
Thicketbird and Magpie,AB54 7PL,57.559770800000000,-2.664305986000000
Mink and Mole,AB45 3NJ,57.604486000000000,-2.470292000000000
Old World vulture and Dorcopsis,AB54 7SP,57.563212620000000,-2.625323027000000
Stilt and Civet,AB53 8HX,57.533562000000000,-2.337692000000000
Vulture and Argus,AB45 2BW,57.627261321842200,-2.724745954726180
Maya and Thicketbird,AB53 5TL,57.554217910000000,-2.380277052000000
Solitaire and Masked owl,AB56 4PR,57.700822600000000,-2.900021754000000
Polecat and Black jay,AB56 4PD,57.691396020000000,-2.871391000000000
Viscacha and Condor,AB45 1JD,57.669218740000000,-2.526013591000000
Ibex and Mamo,AB54 7LW,57.525391090000000,-2.777991966000000
Meadowlark and Marsh harrier,AB54 7SD,57.560540530000000,-2.633383260000000
Gull and Flameback,AB45 2EA,57.646044150000000,-2.619208555000000
Pheasant and Capuchin,AB54 7QA,57.602328830000000,-2.629558712000000
Gull and New World blackbird,AB44 1QR,57.671763450000000,-2.494164384000000
Kākāriki and Fox,AB45 2YB,57.655704960000000,-2.700930861000000
Puffleg and Cuscus,AB53 4NZ,57.543218800000000,-2.464791658000000
Fulmarine petrel and Cloud rat,AB53 5SS,57.603490000000000,-2.361637000000000
Rat and Jackal,AB53 6SS,57.509138600000000,-2.192649831000000
Petrel and Viscacha,AB53 4GQ,57.531735000000000,-2.618471000000000
Goose and Ground sloth,AB54 7NA,57.516855920000000,-2.739397965000000
Logrunners and Cloud rat,AB54 4SU,57.531005530000000,-2.830132889000000
Piping shrike and Vulture,AB53 5YH,57.543360800000000,-2.324618610000000
Parrotbill and Perching duck,AB45 2PA,57.683909920000000,-2.691178433000000
Argus and Crow,AB53 4BX,57.538071000000000,-2.450096030000000
Perching duck and Asiatic leopard,AB53 5TH,57.562399000000000,-2.349909000000000
Jerboa and Warbler,AB56 4QA,57.697824580000000,-2.907262213000000
Solitaire and River dolphin,AB44 1NN,57.667637390000000,-2.492666657000000
Old World warbler and Armadillo,AB56 4AX,57.665842660000000,-2.918934503000000
Mole and Recurvebill,AB53 4LX,57.563874280000000,-2.546623554000000
Coati and Booted eagles,AB43 6NX,57.579739000000000,-2.154612091000000
Gull and Bronzewing pigeon,AB45 1HR,57.668708710000000,-2.523526000000000
Linsang and Partridge,AB53 5PG,57.570472550000000,-2.418362600000000
Masked owl and Black jay,AB44 1RG,57.658468000000000,-2.485236000000000
Logrunners and Duck,AB45 1SE,57.660602110000000,-2.526609469000000
Treepie and American sparrow,AB53 8JD,57.500884800000000,-2.337389689000000
Mole and Polecat,AB45 3XJ,57.587267000000000,-2.526937000000000
Linsang and Recurvebill,AB43 6HP,57.669988000000000,-2.174465000000000
Eagle and B,AB53 6XQ,57.494887980000000,-2.246678034000000
New World blackbird and Lemming,AB53 8DT,57.524124060000000,-2.425996076000000
White ibis and Mole,AB53 4AD,57.538005770000000,-2.460749956000000
Skunk and Prion,AB45 1EE,57.664532550000000,-2.533957568000000
Elephant and Puffleg,AB45 2JN,57.680829630000000,-2.572312601000000
Goose and Diving bird,AB56 4RA,57.692401700000000,-2.819999575000000
Chipmunk and Meadowlark,AB54 7XB,57.511242880000000,-2.619042211000000
Chipmunk and Cuscus,AB45 3QN,57.658084120000000,-2.489319530000000
American sparrow and Goose,AB53 8EH,57.507119920000000,-2.420674339000000
Armadillo and Wader,AB53 4FE,57.541533000000000,-2.463818000000000
Bunting and Moluccan boobook,AB56 5TX,57.641301900000000,-2.812648972000000
Petrel and Tahr,AB43 6AG,57.588574100000000,-2.196114208000000
