name,postcode,lat,lon
diamond python and dugite,SY23 3JN,52.371484152448700,-3.844407259806040
Eagle and monitor,SY23 4AB,52.356536000000000,-3.800574348892520
tree snake and frill-necked lizard,SY23 4SH,52.315210301864900,-3.967330400833920
gecko and Mink,SY23 4TT,52.261895129148700,-4.033871979970460
Schneider python and Marmoset,SY25 6AY,52.295169245355400,-3.869888839178050
White ibis and Warbler,SY25 6DJ,52.335774741253700,-3.851037670529210
flying dragon and snake,SY25 6DN,52.336431141268700,-3.851035731743910
Rat and Towhee,SY25 6DS,52.341228000000000,-3.863978000000000
gavial and mud turtle,SY25 6ER,52.279067000000000,-3.856765000000000
boa constrictor and Ice seal,SY25 6HS,52.220165018471700,-3.934401823263110
Cuscus and thorn lizard,SY25 6HY,52.223597241204600,-3.935107401029930
dugite and American sparrow,SY25 6HZ,52.223167495633900,-3.935542584993550
Gull and carpet snake,SY25 6LQ,52.241916000000000,-3.953569000000000
Viscacha and hognose snake,SY25 6NJ,52.217535000000000,-3.921537000000000
rat snake and cerastes,SY25 6NW,52.210283293851900,-3.813263409955290
Towhee and gavial,SY25 6PX,52.201313504164700,-4.008933140676360
constrictor and constrictor,SY25 6PY,52.195197730662100,-4.025835323198880
leguaan and tree snake,SY25 6SL,52.203773583723400,-4.046802194019680
Vole and Polecat,SY25 6SZ,52.216687113360700,-3.991035377578760
Viscacha and deaf adder,SY25 6TS,52.220117638956600,-4.018800343240480
dugite and sand lizard,SY25 6TW,52.218817148107800,-4.021757152770530
