name,postcode,lat,lon
sand lizard and Argus,SA48 7SQ,52.198990979386600,-4.182162060200620
giant tortoise and Chipmunk,SA48 8DB,52.214354361944000,-4.177996643735970
Vole and Mouse,SA48 8PH,52.176640318018800,-4.108828405688830
swift and frilled lizard,SA48 8PN,52.179216027611900,-4.123635838617020
Ground sloth and Cloud rat,SA48 8PY,52.160664663777800,-4.128176648839400
moloch and flying lizard,SA48 8QF,52.200109443795500,-4.090125409165450
cayman and Gila monster,SA48 8QQ,52.209420249795600,-4.081751138984630
Scimitar babbler and smooth snake,SA48 8QY,52.190361718713500,-4.129858504040740
diamond python and dugite,SY23 3JN,52.371484152448700,-3.844407259806040
Eagle and monitor,SY23 4AB,52.356536000000000,-3.800574348892520
Goose and agamid,SY23 4DB,52.374549000000000,-4.080534000000000
caiman and Marsh harrier,SY23 4DD,52.372188000000000,-4.080838365220120
Buzzard and bicycle lizard,SY23 4EU,52.348236487502900,-4.066817886838350
tree snake and frill-necked lizard,SY23 4SH,52.315210301864900,-3.967330400833920
gecko and Mink,SY23 4TT,52.261895129148700,-4.033871979970460
Grackle and Fish eagle,SY23 5AJ,52.248266377799700,-4.176832000000000
garter snake and Badger,SY23 5AL,52.310241066239300,-4.134348882409530
Piping shrike and Eagle,SY23 5BB,52.301126144300800,-4.128718161426950
grass snake and diamond python,SY23 5BL,52.281940000000000,-4.176751000000000
Civet and soft-shelled turtle,SY23 5DL,52.306485654054900,-4.144099125448400
Philippine hawk-owl and Philippine hawk-owl,SY23 5LP,52.277182988060600,-4.180813106061490
garter snake and rattlesnake,SY23 5NA,52.257622422696600,-4.138238625176770
Schneider python and Marmoset,SY25 6AY,52.295169245355400,-3.869888839178050
White ibis and Warbler,SY25 6DJ,52.335774741253700,-3.851037670529210
flying dragon and snake,SY25 6DN,52.336431141268700,-3.851035731743910
Rat and Towhee,SY25 6DS,52.341228000000000,-3.863978000000000
gavial and mud turtle,SY25 6ER,52.279067000000000,-3.856765000000000
boa constrictor and Ice seal,SY25 6HS,52.220165018471700,-3.934401823263110
Cuscus and thorn lizard,SY25 6HY,52.223597241204600,-3.935107401029930
dugite and American sparrow,SY25 6HZ,52.223167495633900,-3.935542584993550
Gull and carpet snake,SY25 6LQ,52.241916000000000,-3.953569000000000
Viscacha and hognose snake,SY25 6NJ,52.217535000000000,-3.921537000000000
rat snake and cerastes,SY25 6NW,52.210283293851900,-3.813263409955290
Towhee and gavial,SY25 6PX,52.201313504164700,-4.008933140676360
constrictor and constrictor,SY25 6PY,52.195197730662100,-4.025835323198880
leguaan and tree snake,SY25 6SL,52.203773583723400,-4.046802194019680
Vole and Polecat,SY25 6SZ,52.216687113360700,-3.991035377578760
Viscacha and deaf adder,SY25 6TS,52.220117638956600,-4.018800343240480
dugite and sand lizard,SY25 6TW,52.218817148107800,-4.021757152770530
