name,postcode,lat,lon
black snake and swift,SA44 6LY,52.166666507833500,-4.354976873301480
Nukupu ªu and tortoise,SA44 6NR,52.195021709741900,-4.350344872769040
soft-shelled turtle and Capuchin,SA45 9QA,52.213583514331800,-4.359713141133610
Snipe and Logrunners,SA45 9QB,52.214194632801800,-4.359730905712270
Treepie and Marsh harrier,SA45 9QT,52.209746744663000,-4.354166978071950
Old World warbler and Fox,SA45 9RW,52.186434611022300,-4.381243940796200
Hawaiian honeycreeper and Snipe,SA45 9SG,52.207808471504600,-4.341301000000000
sand lizard and Peafowl,SA45 9SP,52.206814471590300,-4.331573886364590
snapping turtle and horned viper,SA45 9SS,52.199468696043900,-4.326520904479780
horned viper and Warbler,SA45 9TT,52.204417046200000,-4.371053759400000
Thicketbird and Diving bird,SA45 9TY,52.212587751779800,-4.369014426804110
River dolphin and Diving bird,SA46 0DD,52.240669486787800,-4.258103646246760
Gull and coral snake,SA46 0ED,52.233790967683900,-4.256201971657780
Mockingbird and Marmoset,SA46 0EF,52.222225217174800,-4.238367736536180
Jerboa and Wader,SA46 0HE,52.218245329071900,-4.277637554844770
Minke whale and Petrel,SA46 0HH,52.211256310851300,-4.281934767504150
Tree warbler and Ice seal,SA46 0HL,52.205588370428200,-4.294597197975220
sand lizard and Ground sloth,SA46 0HP,52.224237945406300,-4.254970715694600
cobra and Tahr,SA46 0LD,52.230382000000000,-4.220751000000000
Tree warbler and terrapin,SA46 0LU,52.251093326849800,-4.231528842940970
elapid and Coati,SA47 0NL,52.193174470428800,-4.311413651656770
Flameback and rat snake,SA47 0PN,52.166090710024500,-4.307362000000000
Kestrel and Buzzard,SA47 0PS,52.195374759973400,-4.304665057840870
Polecat and alligator,SA47 0QR,52.169358030509400,-4.283986467696880
frilled lizard and Greenbul,SA47 0QT,52.183605214816700,-4.284731391165920
Diving bird and Vole,SA48 7QP,52.156212348161500,-4.228020991554620
thorny devil and boa constrictor,SA48 7RW,52.168694111719600,-4.274139760118700
Crow and Logrunners,SA48 8DD,52.215845000000000,-4.195153000000000
Herring gull and tiger snake,SA48 9ZZ,52.239718000000000,-4.266975000000000
