name,id,postcode,lat,lon
Tit-tyrant and diamondback terrapin,925709,LD7 1HJ,52.342013171051400,-3.039114615528450
Jay and python,925172,LD8 2UN,52.219431501325700,-3.099986002351780
Logrunners and hognose snake,1052041,HR3 6NE,52.158800735529000,-2.974934919426020
loggerhead and Linsang,925394,LD8 2AW,52.272867646918100,-3.005766282655800
Nukupuʻu and Mole,925601,LD7 1DR,52.343851908329700,-3.046732330419460
moloch and Capuchin,1051142,HR5 3BN,52.203688220860600,-3.027235784332620
Tattler and Diving bird,927317,LD1 5PA,52.215082040800600,-3.338200970536080
Lemming and Stilt,926927,LD1 5UB,52.264748187033000,-3.293830244136680
Snipe and amphisbaena,925504,LD8 2EH,52.295351828459800,-3.021628228631620
whip snake and moloch,926937,LD1 5US,52.266576088048400,-3.295583000000000
giant tortoise and Duck,1051180,HR5 3EP,52.189288638081100,-3.098671194006230
Petrel and Stilt,1051216,HR5 3HX,52.209422665058100,-2.976613750843430
Hawk and Old World warbler,1051157,HR5 3DJ,52.203488745884300,-3.028460365428600
iguana and Capuchin,1050834,HR5 3QB,52.152545430462200,-3.094550539657150
Maya and giant tortoise,925390,LD8 2AR,52.272216938728200,-3.004051486581640
Wallaby and River dolphin,925723,LD7 1LE,52.338532686049700,-3.040265930799850
hawksbill and Goose,925147,LD8 2SQ,52.255373212778500,-3.079896021311770
cerastes and Darwin's finches,925332,LD7 1SU,52.341220216013400,-3.182697324604030
rock python and B,927224,LD1 6SY,52.330662413926100,-3.259490330328740
brown snake and Logrunners,927319,LD1 5PD,52.245612351827300,-3.351086517483470
Komodo dragon and Masked owl,1051219,HR5 3JA,52.211605988051700,-2.969008000000000
king cobra and Mouse,1051299,HR5 3NG,52.207167656847000,-3.039550356613170
Rabbit and Logrunners,2654105,LD8 2LJ,52.255984000000000,-2.991144000000000
Skunk and Songlark,925506,LD8 2EN,52.298668000000000,-3.024036000000000
boa and Cloud rat,925615,LD7 1EP,52.346139497937400,-3.053363110168760
Vole and cycling lizard,1052026,HR3 6LL,52.162731014506500,-2.996292496380800
iguana and Gila monster,1050829,HR5 3PW,52.182606550632500,-3.134955377272830
blind snake and Treepie,925250,LD7 1NU,52.305086914141400,-3.121864271345340
cobra de capello and Ice seal,927397,LD1 5SE,52.169250993889600,-3.237277007183850
habu and Mamo,925176,LD8 2YT,52.269998371217100,-3.002068000000000
flying dragon and diamondback terrapin,927413,LD1 5TD,52.286008000000000,-3.249154917875180
blindworm and Bunting,925140,LD8 2SF,52.254952178851600,-3.077761526011790
Peafowl and adder,2589723,LD1 6SQ,52.318237000000000,-3.311972000000000
boa and Snipe,925227,LD7 1LN,52.325833015690800,-3.047950312919380
Partridge and skink,925031,LD8 2LD,52.265726723707100,-2.996504768063140
Grouse and Jerboa,1050930,HR5 3RB,52.206751344126900,-3.018907000000000
thorn lizard and cerastes,925265,LD7 1PT,52.360289000000000,-3.104833000000000
Nukupuʻu and massasauga,223294,SY7 0AS,52.365730000000000,-2.969440000000000
Francolin and Kite,925614,LD7 1EN,52.345261550471200,-3.050993449517760
anole and slowworm,926930,LD1 5UF,52.257054183228900,-3.260392293789100
hoop snake and mountain devil,925616,LD7 1ER,52.344601869937400,-3.054398172806130
Towhee and viper,926825,LD1 6UG,52.368050000000000,-3.254106000000000
Argus and Pheasant,1050947,HR5 3RZ,52.219519872713100,-3.013841053433350
Recurvebill and Ground sloth,925400,LD8 2BG,52.275744512718400,-3.009993979522130
amethystine python and Flameback,925510,LD8 2ET,52.280606000000000,-3.014649000000000
chameleon and chuckwalla,927423,LD1 5TU,52.273154459885100,-3.310959262425020
Towhee and Ground sloth,925032,LD8 2LE,52.256408099032200,-3.018081150469000
