id,postcode,lat,lon
ADM4,LITTLEABINGTON,52.1303,0.2387
PPL,LITTLEADDINGTON,52.3518,-0.5931
PPL,LITTLEALTCAR,53.5511,-3.0483
PPL,LITTLEAMWELL,51.7833,-0.0333
PPL,LITTLEANN,51.1911,-1.5223
PPL,LITTLEAYTON,54.4849,-1.1235
PPL,LITTLEBADDOW,51.7375,0.5762
PPL,LITTLEBADMINTON,51.5568,-2.2862
ADM4,LITTLEBARDFIELD,51.9472,0.4047
PPLA3,LITTLEBARFORD,52.1990,-0.2729
PPL,LITTLEBARNINGHAM,52.8547,1.1718
PPL,LITTLEBARRINGTON,51.8127,-1.7022
ADM4,LITTLEBEALINGS,52.0805,1.2575
PPL,LITTLEBEDWYN,51.3918,-1.5824
PPL,LITTLEBENTLEY,51.8901,1.0755
PPL,LITTLEBERKHAMSTEAD,51.7550,-0.1300
ADM4,LITTLEBERKHAMSTED,51.7585,-0.1250
ADM3,LITTLEBIRCH,51.9738,-2.6999
PPL,LITTLEBLAKENHAM,52.0965,1.0704
PPL,LITTLEBLENCOW,54.6871,-2.8500
ADM3,LITTLEBOLLINGTON,53.3751,-2.4041
PPL,LITTLEBOOKHAM,51.2806,-0.3907
PPL,LITTLEBOROUGH,53.6441,-2.0958
PPL,LITTLEBOURNE,51.2745,1.1669
ADM4,LITTLEBRADLEY,52.1440,0.4714
ADM4,LITTLEBRAXTED,51.7933,0.6711
PPL,LITTLEBREDY,50.7000,-2.5833
PPL,LITTLEBRICKHILL,51.9830,-0.6770
PPL,LITTLEBRIDGEFORD,52.8448,-2.1809
PPL,LITTLEBROMLEY,51.9167,1.0458
PPL,LITTLEBUDWORTH,53.1843,-2.6012
PPL,LITTLEBURSTEAD,51.6047,0.4077
PPL,LITTLEBURY,52.0345,0.2096
ADM4,LITTLEBUSBY,54.4402,-1.2170
PPL,LITTLEBYTHAM,52.7504,-0.4985
PPL,LITTLECANFIELD,51.8631,0.3116
PPL,LITTLECARLTON,53.3474,0.1012
ADM3,LITTLECASTERTON,52.6754,-0.4979
PPL,LITTLECAWTHORPE,53.3349,0.0370
PPL,LITTLECHALFONT,51.6683,-0.5704
PPL,LITTLECHART,51.1793,0.7794
PPL,LITTLECHESTERFORD,52.0539,0.2105
PPL,LITTLECHEVERELL,51.2810,-2.0133
PPL,LITTLECLACTON,51.8256,1.1421
ADM4,LITTLECLIFTON,54.6393,-3.4694
PPL,LITTLECOATES,53.5609,-0.1191
PPL,LITTLECOMBERTON,52.0859,-2.0497
PPL,LITTLECOMMON,50.8465,0.4339
PPL,LITTLECOMPTON,51.9703,-1.6201
PPL,LITTLECORNARD,52.0172,0.7674
PPL,LITTLECOTE,51.9135,-0.7969
PPL,LITTLECOWARNE,52.1548,-2.5794
ADM4,LITTLECOXWELL,51.6346,-1.5906
PPL,LITTLECREICH,57.8667,-4.2833
ADM4,LITTLECRESSINGHAM,52.5591,0.7676
PPL,LITTLEDALBY,52.7195,-0.8485
PPL,LITTLEDEAN,51.8180,-2.4786
PPL,LITTLEDEWCHURCH,51.9829,-2.6802
PPL,LITTLEDODFORD,52.3333,-2.1000
PPL,LITTLEDRIFFIELD,54.0022,-0.4661
PPL,LITTLEDUNHAM,52.6807,0.7617
PPL,LITTLEDUNMOW,51.8610,0.4148
PPL,LITTLEEASTON,51.8928,0.3347
PPL,LITTLEEATON,52.9703,-1.4595
PPL,LITTLEECCLESTON,53.8517,-2.8925
ADM4,LITTLEECCLESTONWITHLARBRECK,53.8539,-2.9060
ADM4,LITTLEELLINGHAM,52.5538,0.9508
PPL,LITTLEEVERSDEN,52.1598,0.0036
PPL,LITTLEFARINGDON,51.7114,-1.6756
ADM4,LITTLEFENTON,53.8088,-1.2084
PPL,LITTLEFERRY,57.9341,-4.0183
ADM4,LITTLEFINBOROUGH,52.1596,0.9543
PPL,LITTLEFORTER,56.7722,-3.3347
PPL,LITTLEFRIETH,51.6080,-0.8613
PPL,LITTLEGADDESDEN,51.8101,-0.5619
PPLS,LITTLEGERMANY,53.7955,-1.7459
ADM4,LITTLEGIDDING,52.4260,-0.3347
PPL,LITTLEGLEMHAM,52.1667,1.4333
PPL,LITTLEGLENSHEE,56.4895,-3.6565
ADM4,LITTLEGRANSDEN,52.1701,-0.1312
PPL,LITTLEGRIMSBY,53.4039,-0.0055
PPL,LITTLEGRUINARD,57.8500,-5.4667
PPL,LITTLEHABTON,54.1841,-0.8609
PPL,LITTLEHADHAM,51.8844,0.0905
PPLX,LITTLEHALE,52.6230,0.8670
PPL,LITTLEHALLINGBURY,51.8332,0.1815
PPL,LITTLEHAM,50.9833,-4.2333
PPL,LITTLEHAMPDEN,51.7251,-0.7565
PPL,LITTLEHAMPTON,50.8114,-0.5408
PPL,LITTLEHARESFIELD,51.7807,-2.2873
PPL,LITTLEHARROWDEN,52.3332,-0.7257
PPL,LITTLEHASELEY,51.7009,-1.0744
PPL,LITTLEHAUTBOIS,52.7500,1.3333
PPL,LITTLEHAVEN,51.7750,-5.1053
ADM4,LITTLEHEMPSTON,50.4543,-3.6707
ADM4,LITTLEHENNY,52.0106,0.7089
ADM3,LITTLEHEREFORD,52.3125,-2.6537
PPL,LITTLEHINTON,51.5333,-1.6667
ADM4,LITTLEHOOLE,53.7095,-2.7897
ADM4,LITTLEHORKESLEY,51.9483,0.8461
PPL,LITTLEHORMEAD,51.9417,0.0392
PPL,LITTLEHORSTED,50.9462,0.0917
PPL,LITTLEHORWOOD,51.9686,-0.8491
PPLA3,LITTLEHOUGHTON,53.5458,-1.3600
PPL,LITTLEHUCKLOW,53.3039,-1.7566
PPL,LITTLEHULTON,53.5333,-2.4167
PPLX,LITTLEILFORD,51.5538,0.0569
PPL,LITTLEKIMBLE,51.7554,-0.8085
PPL,LITTLEKINGSHILL,51.6827,-0.7031
PPL,LITTLELANGDALE,54.4213,-3.0550
PPL,LITTLELANGFORD,51.1275,-1.9303
PPL,LITTLELANGTON,54.3536,-1.5264
ADM4,LITTLELAVER,51.7648,0.2359
ADM4,LITTLELAWFORD,52.3896,-1.3097
ADM3,LITTLELEIGH,53.2851,-2.5803
PPL,LITTLELEVER,53.5635,-2.3780
PPL,LITTLELINFORD,52.0900,-0.7705
ADM4,LITTLELIVERMERE,52.3265,0.7476
PPL,LITTLELONDON,50.9575,0.2330
ADM4,LITTLELONGSTONE,53.2467,-1.7297
ADM3,LITTLELUMLEY,54.8461,-1.5173
PPL,LITTLEMALVERN,52.0620,-2.3374
ADM4,LITTLEMAPLESTEAD,51.9719,0.6554
PPL,LITTLEMARCLE,52.0271,-2.4826
PPL,LITTLEMARLOW,51.5840,-0.7405
PPL,LITTLEMASSINGHAM,52.7856,0.6589
PPL,LITTLEMELTON,52.6162,1.1975
PPL,LITTLEMILL,51.7200,-2.9853
PPL,LITTLEMILTON,51.7028,-1.1050
PPL,LITTLEMISSENDEN,51.6819,-0.6682
ADM4,LITTLEMITTON,53.8433,-2.4265
PPL,LITTLEMOOR,50.6460,-2.4470
PPL,LITTLEMORE,51.7212,-1.2240
PPL,LITTLEMUNDEN,51.8667,-0.0500
PPL,LITTLENESS,52.7713,-2.8796
PPL,LITTLENEWCASTLE,51.9225,-4.9384
PPL,LITTLEOAKLEY,52.4607,-0.6897
PPL,LITTLEOUSEBURN,54.0403,-1.3198
PPL,LITTLEOVER,52.9057,-1.5068
PPL,LITTLEPACKINGTON,52.4500,-1.6833
PPL,LITTLEPARNDON,51.7702,0.0866
PPL,LITTLEPAXTON,52.2505,-0.2580
PPL,LITTLEPETHERICK,50.5123,-4.9420
PPL,LITTLEPLUMPTON,53.7867,-2.9422
PPL,LITTLEPLUMSTEAD,52.6582,1.4192
ADM4,LITTLEPONTONANDSTROXTON,52.8768,-0.6354
PPL,LITTLEPORT,52.4578,0.3060
PPL,LITTLERAVELEY,52.4029,-0.1550
PPL,LITTLERIBSTON,53.9742,-1.4130
PPL,LITTLERISSINGTON,51.8762,-1.7231
PPL,LITTLEROLLRIGHT,51.9679,-1.5723
PPL,LITTLERYBURGH,52.8167,0.9167
PPL,LITTLESALKELD,54.7186,-2.6765
ADM4,LITTLESAMPFORD,51.9815,0.3848
PPL,LITTLESAXHAM,52.2423,0.6344
ADM4,LITTLESHELFORD,52.1364,0.1265
PPL,LITTLESINGLETON,53.8477,-2.9510
PPL,LITTLESINNS,50.2538,-5.2356
PPL,LITTLESMEATON,54.4167,-1.4667
PPL,LITTLESNORING,52.8521,0.9047
ADM3,LITTLESODBURY,51.5459,-2.3446
PPL,LITTLESOMBORNE,51.0945,-1.4517
PPL,LITTLESOMERFORD,51.5580,-2.0474
ADM3,LITTLESTAINTON,54.5754,-1.4745
ADM3,LITTLESTANNEY,53.2630,-2.8704
PPL,LITTLESTAUGHTON,52.2507,-0.3822
PPL,LITTLESTEEPING,53.1397,0.1428
PPLX,LITTLESTOKE,51.5255,-2.5572
PPL,LITTLESTONE,50.9844,0.9597
PPLX,LITTLESTREET,52.4277,0.2493
PPL,LITTLESTRETTON,52.5833,-1.0000
PPL,LITTLESTRICKLAND,54.5674,-2.6741
PPL,LITTLESTUKELEY,52.3646,-0.2263
PPL,LITTLESUTTON,53.2833,-2.9500
PPL,LITTLETEW,51.9539,-1.4415
PPL,LITTLETHETFORD,52.3632,0.2482
PPL,LITTLETHORPE,54.1168,-1.5065
ADM4,LITTLETHURLOW,52.1315,0.4457
PPLX,LITTLETHURROCK,51.4764,0.3375
ADM4,LITTLETIMBLE,53.9722,-1.7104
PPL,LITTLETON,53.1954,-2.8378
ADM4,LITTLETONANDHARESTOCK,51.0949,-1.3473
PPL,LITTLETONUPONSEVERN,51.6069,-2.5850
PPL,LITTLETORBOLL,57.9584,-4.1055
PPL,LITTLETORRINGTON,50.9311,-4.1483
PPL,LITTLETOTHAM,51.7746,0.7372
PPL,LITTLETREVISCOE,50.3657,-4.8929
PPLX,LITTLEVENICE,51.5236,-0.1808
PPL,LITTLEWAKERING,51.5611,0.7879
PPL,LITTLEWALDEN,52.0509,0.2534
PPL,LITTLEWALDINGFIELD,52.0717,0.8038
PPL,LITTLEWALSINGHAM,52.8950,0.8738
PPL,LITTLEWALTHAM,51.7875,0.4786
ADM3,LITTLEWARFORD,53.2877,-2.2868
PPL,LITTLEWARLEY,51.5903,0.3166
PPL,LITTLEWASHBOURNE,52.0000,-2.0167
PPL,LITTLEWEIGHTON,53.7902,-0.5068
PPL,LITTLEWELNETHAM,52.2060,0.7661
PPL,LITTLEWENHAM,52.0113,1.0292
ADM3,LITTLEWENLOCK,52.6647,-2.5249
ADM4,LITTLEWHELNETHAM,52.2029,0.7630
PPL,LITTLEWIGBOROUGH,51.8041,0.8683
PPL,LITTLEWILBRAHAM,52.2037,0.2570
ADM4,LITTLEWITCHINGHAM,52.7411,1.1385
PPL,LITTLEWITCOMBE,51.8406,-2.1303
PPL,LITTLEWITLEY,52.2699,-2.3161
PPL,LITTLEWITTENHAM,51.6359,-1.1864
ADM4,LITTLEWOLFORD,52.0150,-1.6101
PPL,LITTLEWORTH,52.1479,-2.1749
ADM4,LITTLEWRATTING,52.0961,0.4629
PPL,LITTLEWYMONDLEY,51.9327,-0.2355
ADM4,LITTLEYELDHAM,52.0264,0.5935
PPL,LITTON,54.1500,-2.1333
PPL,LITTONCHENEY,50.7139,-2.6383
