name,postcode,lat,lon
Lochranza Distillery,KA27 8HJ,55.6990,-5.2791
Ambience ,PA20 0AJ,55.83772659301760,-5.05509805679321
Ghillie's bistro,PA20 0AP,55.83777200000000,-5.05650700000000
Victoria Hotel,PA20 0AP,55.83777200000000,-5.05650700000000
The Dairy,PA20 0HU,55.83736100000000,-5.05784800000000
R&B Rockabilly Diner,PA20 0LF,55.85706800000000,-5.06283400000000
CaleDonia Bistro ,PA20 0LL,55.86008600000000,-5.08054200000000
Ettrick Bay Tearoom,PA20 0QX,55.8496,-5.1580
The Esplanade Hotel,PA20 9AR,55.83707600000000,-5.05413600000000
Harry Haw's,PA20 9AS,55.83683600000000,-5.05403700000000
Lizâ€™s Diner,PA20 9DA,55.83717600000000,-5.05369600000000
Helmis bakery ,PA20 9DL,55.83791730000000,-5.05083780000000
The Glenburn Hotel Limited,PA20 9JP,55.84089600000000,-5.04363600000000
Kingarth hotel,PA20 9LU,55.76254600000000,-5.03588200000000
Secret Coast Hotel Ltd,PA21 2AF,55.89049500000000,-5.24059100000000
Anchor Hotel & Barge,PA29 6UB,55.86325800000000,-5.41353800000000
The Anchorage Bistro,PA29 6UD,55.8640,-5.4116
islay frigate hotel,PA29 6UD,55.86378600000000,-5.41200200000000
Skipness Seafood Cabin,PA29 6XU,55.76884100000000,-5.34147900000000
