name,postcode,lat,lon
smooth snake and flying lizard,LD1 5BY,52.250704587002900,-3.374928866970220
thorn lizard and Condor,LD1 5LD,52.239919192180400,-3.373833843088960
terrapin and sand viper,LD1 5LT,52.235522896605600,-3.380741881063010
rock python and Eagle,LD1 5LY,52.235703241718100,-3.378389765110760
Viscacha and Jackal,LD1 5NQ,52.232079821565400,-3.381469667045630
Mockingbird and Ice seal,LD1 5PH,52.225711435479900,-3.387069743318980
hoop snake and Gila monster,LD1 6AP,52.242022376711100,-3.384663821333650
Darwin's finches and harlequin snake,LD1 6AU,52.238639997589100,-3.381877000000000
Elephant and Peafowl,LD1 6EW,52.280400000000000,-3.442209000000000
bearded dragon and galliwasp,LD1 6NS,52.262627005323900,-3.502501732797250
galliwasp and Capuchin,LD1 6PB,52.269296489733400,-3.445043597987620
king snake and Cuscus,LD1 6PL,52.328516832224000,-3.395963240738980
sand lizard and anaconda,LD1 6YR,52.391689289331800,-3.389608946141590
tokay and Fulmarine petrel,LD1 9AQ,52.241666000000000,-3.378464000000000
kabaragoya and king cobra,LD2 9AP,52.241666000000000,-3.378464000000000
anaconda and gopher snake,LD6 5HY,52.277375719430700,-3.561134940837380
Duck and Macaw,LD6 5NA,52.366193618010200,-3.480472621276400
grass snake and king snake,LD6 5NB,52.379605861390700,-3.448731358126920
Piping shrike and Magpie,SY18 6BY,52.447489055340300,-3.538200795318370
kabaragoya and whip snake,SY18 6DX,52.444636360578600,-3.541161836022590
Kākāriki and perentie,SY18 6EJ,52.447191474642700,-3.541030327525410
cerastes and Nukupuʻu,SY18 6JW,52.394772749857900,-3.505605691035520
diamondback turtle and Hawaiian honeycreeper,SY18 6QD,52.408464000000000,-3.536563000000000
Greenbul and Vole,SY18 6RW,52.405964847645100,-3.602806426522050
frilled lizard and galliwasp,SY18 6SY,52.429568872720400,-3.702918199742610
