name,postcode,lat,lon
boa constrictor and Logrunners,SA46 0AD,52.242905216473100,-4.258275793215760
Wallaby and Cloud rat,SA46 0AW,52.241190000000000,-4.255391000000000
Towhee and Magpie,SA46 0BR,52.239735000000000,-4.266083000000000
dugite and tree snake,SA46 0DE,52.226573688522300,-4.271489241597880
goanna and Boto,SA46 0JL,52.243373251606800,-4.254490960263200
horned viper and Wader,SA46 0LN,52.251630305343100,-4.229284876120480
Pratincole and Moluccan boobook,SA48 8RN,52.228100054412600,-4.177673849148900
rock snake and Mink,SA48 8RT,52.229258982680100,-4.136421006763730
Dolphin and Dolphin,SY23 1BB,52.410464922869700,-4.084871457355040
Pheasant and Grouse,SY23 1DT,52.414216531492300,-4.087298280362420
Kite and krait,SY23 1ED,52.414567000000000,-4.071022000000000
swift and Kākāriki,SY23 1ER,52.416066677156900,-4.071577517067280
Chickadee and constrictor,SY23 1JL,52.412188462633700,-4.087070147820700
puff adder and Maya,SY23 1NZ,52.415394991166100,-4.081148416098500
Grosbeak and whip snake,SY23 1QB,52.412688055550100,-4.085607000000000
hognose snake and hawksbill,SY23 1QD,52.412005000000000,-4.085312000000000
Gila monster and Snipe,SY23 1QG,52.413141322167800,-4.084027246921640
milk snake and tree snake,SY23 1QQ,52.412787228313000,-4.084731052545350
death adder and Civet,SY23 1SD,52.398748052714100,-4.069060802202130
Parakeet and Komodo dragon,SY23 1SS,52.402458380500800,-4.072321611739060
Asiatic leopard and ringhals,SY23 1TE,52.400227704585500,-4.075511000000000
loggerhead and Marmoset,SY23 2BJ,52.415385534741300,-4.084236031434650
bearded dragon and king snake,SY23 2DL,52.417472921910300,-4.079055139230100
Wallaby and Tahr,SY23 2EW,52.418869016884800,-4.079429668286000
jew lizard and Badger,SY23 2JB,52.420001000000000,-4.081101000000000
Boto and Marmoset,SY23 2LN,52.415014915712700,-4.086894847317460
Perching duck and Black cockatoo,SY23 2ND,52.415355640662300,-4.083381728763470
Treepie and Darwin's finches,SY23 2NF,52.415936000000000,-4.081615000000000
blind snake and gopher snake,SY23 3AT,52.411869736523000,-4.053942020509500
Old World warbler and Solitaire,SY23 3BA,52.416134458432000,-4.054302022016390
caiman and Minke whale,SY23 3BB,52.417129456434500,-4.054995329796720
Black cockatoo and fer-de-lance,SY23 3DA,52.415661295309500,-4.066485247746830
Tahr and Treepie,SY23 3DG,52.424628692838700,-4.058594690590250
elapid and horned viper,SY23 3DR,52.447029183597400,-4.067203162546210
bandy-bandy and Maya,SY23 3FB,52.417103886890400,-4.066743000000000
Zebra and bearded dragon,SY23 3FP,52.422302128297900,-4.059942895513470
Guillemot and black snake,SY23 3QU,52.408059844995300,-4.061542611963620
iguana and Bunting,SY23 3RG,52.407348519316300,-4.060568484484330
Chickadee and loggerhead,SY23 3RY,52.400449979646500,-4.057071726438010
Lemming and Chickadee,SY23 3TJ,52.406601620433900,-4.064209183713490
swift and crocodile,SY23 3UJ,52.405493508190400,-4.057042413578840
Solitaire and Fox,SY23 3UU,52.418062661823400,-4.064391680547490
caiman and B,SY23 4UE,52.379624745460600,-4.073573427271880
Grackle and fer-de-lance,SY23 5AY,52.307191638488700,-4.131429659513710
Quetzal and boa constrictor,SY23 5BE,52.305203000000000,-4.087812000000000
mamba and Guillemot,SY23 5DG,52.306165824313600,-4.144875789693980
Jerboa and tiger snake,SY23 5DH,52.304943000000000,-4.147428000000000
turtle and Myna,SY23 5LG,52.268874195405100,-4.127128225485970
B and Thicketbird,SY23 5LJ,52.271283785525100,-4.131127830390040
Vole and Asiatic leopard,SY23 5ND,52.257895000000000,-4.134676000000000
snapping turtle and Old World warbler,SY23 5NP,52.242413000000000,-4.085302000000000
massasauga and Mole,SY23 5PH,52.247615077627700,-4.176564133815160
cayman and Parrotbill,SY25 6RB,52.254112749457800,-4.063654021025220
