name,postcode,lat,lon
blind snake and Partridge,HR5 3JQ,52.226124496699300,-2.961637031168160
diamondback and White ibis,HR5 3RT,52.237958987175600,-2.973359434292420
viper and terrapin,LD1 5TG,52.294265196542500,-3.263941397868470
adder and Grouse,LD1 5TW,52.297803876218600,-3.237983391472530
death adder and tuatara,LD1 6RB,52.273812521386000,-3.338049542380720
bearded dragon and Darwin's finches,LD1 6TY,52.388786000000000,-3.305261219553780
Coati and Old World warbler,LD1 6UA,52.383411000000000,-3.324567000000000
Armadillo and Ibex,LD1 6YB,52.403858000000000,-3.332324000000000
asp and thorny devil,LD1 6YL,52.396941000000000,-3.344575535438200
water snake and chuckwalla,LD7 1DN,52.342623173473400,-3.051459314937720
iguana and Logrunners,LD7 1NS,52.310023854089200,-3.118908761911500
black snake and Badger,LD7 1NY,52.304174473084300,-3.142946189339260
Petrel and Viscacha,LD7 1PS,52.362384425471100,-3.105619175448060
Boto and Jerboa,LD7 1RH,52.380300307304000,-3.171180158474390
garter snake and Buzzard,LD7 1RW,52.380850000000000,-3.132423000000000
Polecat and grass snake,LD7 1SS,52.335779478938600,-3.157425230453270
Tahr and loggerhead,LD7 1SU,52.341220216013400,-3.182697324604030
Cuscus and Wader,LD8 2AY,52.270190201379100,-3.000268643614610
leathery turtle and rock snake,LD8 2BS,52.275145954647800,-3.005334198425220
loggerhead and Polecat,LD8 2BT,52.275162933987900,-3.005451836272420
gecko and dukite,LD8 2DP,52.273278613959100,-3.008179183612630
mountain devil and tuatara,LD8 2ED,52.285266112236200,-3.046069039379730
carpet snake and Linsang,LD8 2EN,52.298668000000000,-3.024036000000000
boomslang and frill-necked lizard,LD8 2EW,52.304737765707200,-3.025804271460020
kabaragoya and snapping turtle,LD8 2HA,52.312117000000000,-3.015721000000000
Treepie and Logrunners,LD8 2LN,52.275864000000000,-3.002478000000000
coral snake and hognose snake,LD8 2LP,52.275113674234500,-2.988932655737130
Viscacha and Goose,LD8 2NB,52.323522000000000,-2.968091000000000
rattlesnake and Badger,LD8 2NR,52.279337000000000,-3.069651212922050
Pheasant and death adder,LD8 2PG,52.261196317175500,-3.116917094205610
Wallaby and Snipe,LD8 2RG,52.226588000000000,-3.097235000000000
Flameback and Cuscus,LD8 2ST,52.240031000000000,-3.151798000000000
indigo snake and racer,LD8 2SZ,52.240120000000000,-3.152928000000000
massasauga and moloch,SY7 0HT,52.426138693267600,-2.981059383160780
gavial and fer-de-lance,SY7 0JE,52.413983781364500,-3.020339745239270
agama and asp,SY7 0QH,52.409674000000000,-2.975122000000000
