name,postcode,lat,lon
The Stagg Inn,HR5 3RL,52.2312,-2.9826
The Bateman Arms,HR6 9LX,52.2518,-2.8799
The Lakeside,HR6 9NQ,52.2528,-2.8907
Meg's T/A The Hotspur Cafe,HR6 9NR,52.2434,-2.8805
Mortimers Cross Inn ,HR6 9PD,52.2676,-2.8445
The Corners Inn,HR6 9RY,52.2492,-2.8151
The Riverside Inn,HR6 9ST,52.2825,-2.8442
The Horse and Jockey Inn,LD7 1AE,52.3441,-3.0483
Tower House Gallery,LD7 1AT,52.3442,-3.0507
JD's Cafe,LD7 1BL,52.3441,-3.0489
LITTLE BLACK SHEEP CAFE,LD7 1BL,52.3441,-3.0489
the clock tower tea shop,LD7 1BS,52.3444,-3.0496
The Hat Shop Restaurant,LD8 2BA,52.2740,-3.0071
Wild Thyme Italian,LD8 2BA,52.2740,-3.0071
Royal Oak,LD8 2BB,52.2752,-3.0086
Powell 46 limited ,LD8 2BE,52.2739,-3.0075
The Coffee House,LD8 2BE,52.2739,-3.0075
The Workhouse Gallery Cafe,LD8 2UF,52.2704,-3.0072
Baron at Bucknell,SY7 0AH,52.3608,-2.9525
The Lion ,SY7 0JZ,52.3597,-2.8756
LLB Parks Limited,SY7 0QD,52.3913,-2.9119
The White Horse Inn,SY7 8JA,52.4213,-3.0300
THE MALTINGS CAFE,SY7 8JB,52.4215,-3.0275
The Sun Inn,SY7 8JB,52.4215,-3.0275
Raza's pizza and curry house,SY7 9NE,52.4402,-2.8344
Subway Craven Arms,SY7 9PY,52.4421,-2.8353
Grow Cook learn,SY7 9RS,52.4372,-2.8327
