name,postcode,lat,lon
Costa Coffee,B27 6BH,52.4466,-1.8227
MY SHOP 6 LTD,B27 6BP,52.4464,-1.8185
Porto Douro Restaurants Ltd,B27 6BP,52.4464,-1.8185
Moghul Indian Cuisine ,B27 6BT,52.4456,-1.8168
Bombay Brasserie,B27 6DN,52.4478,-1.8215
Great Western ,B27 6EB,52.4499,-1.8194
Pasta Di Piazza,B27 6QT,52.4475,-1.8262
Subway,B27 6RA,52.4464,-1.8217
Mujahid Hussain ,B27 6RG,52.4458,-1.8185
hawam Tawa & Grill,B27 6RG,52.4458,-1.8185
THE WOODHOUSE CAFE LIMITED,B27 7RR,52.4436,-1.8344
blue ocean cafe restaurant,B27 7RR,52.4436,-1.8344
Acocks Green Bowl,B27 7UH,52.4457,-1.8260
The Westley Hotel,B27 7UJ,52.4454,-1.8271
Pops Grill,B28 0HT,52.4247,-1.8474
Alfresco fusion ,B28 0LG,52.4239,-1.8482
HALL GREEN H G CLUB LTD,B28 0LS,52.4207,-1.8472
Alborz ,B28 8AD,52.4399,-1.8482
KARAK CHAII,B28 8AE,52.4389,-1.8477
Marrakech Restaurant ,B28 8AE,52.4389,-1.8477
Bun and Steak,B28 8AF,52.4380,-1.8472
Burgere ,B28 8AF,52.4380,-1.8472
Chopan Kabab,B28 8AS,52.4395,-1.8490
KFC,B28 8HP,52.4374,-1.8442
Summer House Bar and Grill,B28 8ST,52.4425,-1.8449
Lambs Lunches,B28 9JA,52.4211,-1.8358
Sky By The Water,B40 1PU,52.4476,-1.7175
Vietnamese Street Kitchen,B40 1PU,52.4476,-1.7175
Wrapchic,B40 1PU,52.4476,-1.7175
GREAT ALNE PARK MANAGEMENT LIMITED,B49 6HS,52.2351,-1.8269
Akamba Venue,B90 1PH,52.3901,-1.8469
Coffee Cloud,B90 1UA,52.3850,-1.8368
Costa Coffee,B90 1UB,52.3851,-1.8365
Janaki Indian Cuisine,B90 1UB,52.3851,-1.8365
Mortons Bar & Grill Ltd,B90 1UB,52.3851,-1.8365
Essentials Delivery Pop Up Fundraiser,B90 1UD,52.3827,-1.8352
The Two Mugs,B90 2EH,52.4113,-1.8355
Divine restaurant ,B90 2NG,52.4046,-1.8432
Bora Coffee Co,B90 3AH,52.4119,-1.8265
Pepe's Piri Piri,B90 3AH,52.4119,-1.8265
Ruchie,B90 3AH,52.4119,-1.8265
The Nook & Cranny Cafe,B90 3AL,52.4109,-1.8261
COSTA COFFEE,B90 3AQ,52.4124,-1.8277
Fiesta del Asado Solihull,B90 3AX,52.4138,-1.8272
Red Lion ,B90 3AX,52.4138,-1.8272
Shapla(Shirley)limited,B90 3AX,52.4138,-1.8272
The coffee roaster ,B90 3AY,52.4145,-1.8281
Oasis Tandoori Restaurant,B90 3BB,52.4145,-1.8288
IceGem Gelato,B90 3BD,52.4138,-1.8284
Kairos Coffee,B90 3BD,52.4138,-1.8284
Darjeeling Indian Cuisine,B90 3DN,52.4068,-1.8246
Dhanmondi Ltd (TA Karma Restaurant),B90 3DN,52.4068,-1.8246
INDICO,B90 3GG,52.4131,-1.8290
JAQK'S,B90 3GG,52.4131,-1.8290
PERIOS,B90 3GG,52.4131,-1.8290
Café Shirley ,B90 4AA,52.4043,-1.8220
Laura Ashley - The Tea Room Solihull,B90 4EB,52.3914,-1.8070
The Finest Catch,B90 4ED,52.3888,-1.8045
The Farm ,B90 4EH,52.3913,-1.7848
McDonald's,B90 4EL,52.3835,-1.7932
Notcutts Solihull,B90 4EN,52.3844,-1.7893
BL Shirley Limited,B90 4JA,52.3783,-1.8153
Subway,B90 4LD,52.4004,-1.8171
Munch,B90 4LH,52.3988,-1.8054
Ginger Blue Contemporary Restaurant ,B90 4PX,52.3968,-1.8118
brew twenty three,B90 4RZ,52.4004,-1.8061
Gymshark,B90 8AJ,52.3689,-1.7997
Virgin Active Solihull,B90 8AT,52.3727,-1.8005
THE ST JOHNS HOTEL SOLIHULL LIMITED,B91 1AT,52.4168,-1.7805
MIDLAND FOOD BAKERY SOLIHULL LTD,B91 1BQ,52.4292,-1.7978
No1 Dove House Parade,B91 1BQ,52.4292,-1.7978
The Dovehouse Raj Limited,B91 1BQ,52.4292,-1.7978
Olton golf club,B91 1JH,52.4271,-1.7944
Flash Climbing Centre Limited,B91 2JY,52.4266,-1.7745
YOLO SOLIHULL LTD ta The Flying Elephant,B91 2LP,52.4228,-1.7736
longfellows Restaurant ,B91 2TJ,52.4207,-1.7370
Spice Club,B91 3DA,52.4151,-1.7768
The Beech House Solihull,B91 3DA,52.4151,-1.7768
The Royal British Legion (Solihull) Club Ltd,B91 3DH,52.4153,-1.7729
Esabellas,B91 3DX,52.4148,-1.7772
Tap & Tandoor,B91 3DX,52.4148,-1.7772
The Delhi,B91 3DX,52.4148,-1.7772
THEOBROMA,B91 3GS,52.4124,-1.7782
YAKINORI SOLIHULL LTD,B91 3HT,52.4117,-1.7788
Crowne Plaza Solihull,B91 3QD,52.4106,-1.7805
The Boston Tea Party Group Limited,B91 3QE,52.4137,-1.7811
Asha's Restaurant & Cocktail Bar,B91 3QW,52.4115,-1.7789
Jamaya,B91 3QW,52.4115,-1.7789
Big Bitez,B91 3RX,52.4146,-1.7819
Indian Brewery Solihull Ltd,B91 3RX,52.4146,-1.7819
Jade Wok Restaurant,B91 3RX,52.4146,-1.7819
Panchuli Indian Restaurant,B91 3ST,52.4122,-1.7763
McDonald's,B91 3TB,52.4133,-1.7794
the beeches restaurant and bar,B92 0AH,52.4242,-1.7018
Arden Hotel,B92 0EH,52.4452,-1.7213
The Malt Shovel,B92 0JP,52.4066,-1.7104
Bulls Head,B92 0JU,52.4005,-1.6967
The Lake at Barston Restaurant,B92 0LB,52.4127,-1.6862
Rosebourne,B92 0LP,52.4086,-1.6680
Platform Three Restaurant,B92 7AR,52.4380,-1.8057
Rajasthan Restaurant     ,B92 7AR,52.4380,-1.8057
Harvey's Golf Limited,B92 7DJ,52.4249,-1.8124
McDonald's,B92 7HX,52.4416,-1.8113
Changes Coffee,B92 7QW,52.4486,-1.7942
Rajnagar International Restaurant,B92 7QW,52.4486,-1.7942
Paprika lounge,B92 8JL,52.4438,-1.7850
Pavarotti Italian Restaurant ,B92 8JN,52.4450,-1.7849
Planet Play,B92 8JN,52.4450,-1.7849
Spicewoods,B92 8JN,52.4450,-1.7849
AGRABAD SOLIHULL LIMITED,B92 8LW,52.4477,-1.7770
THE DAMSON PUBLIC HOUSE,B92 9NG,52.4314,-1.7667
The Orange Tree,B93 0BN,52.3562,-1.6994
Oktogon,B93 0HT,52.3870,-1.7348
Bella venezia,B93 0JU,52.3894,-1.7354
Bilash,B93 0JU,52.3894,-1.7354
DORIDGE LIMITED,B93 0JU,52.3894,-1.7354
JARDIN DES VIOLETTES LTD,B93 0LF,52.3900,-1.7366
Viola,B93 0LF,52.3900,-1.7366
ellora,B93 0LL,52.3900,-1.7354
ELDERBERRY BLACKS LIMITED,B93 0LY,52.3877,-1.7341
Knowle Indian Brasserie ,B93 0LY,52.3877,-1.7341
Poplar Road Restaurants Limited,B93 8HE,52.3737,-1.7542
Minhs Restaurant ,B93 8HH,52.3733,-1.7541
Espresso Station,B93 8JA,52.3728,-1.7530
The Forest Hotel,B93 8JA,52.3728,-1.7530
The Railway Inn,B93 8QA,52.3667,-1.7605
Hogarths Hotel Ltd,B93 8QE,52.3817,-1.7743
Copt Heath Golf Club,B93 9LN,52.3991,-1.7460
The Silhillians ,B93 9LW,52.4008,-1.7469
Espresso Farm,B94 5AE,52.3343,-1.8203
The Bell Inn,B94 5AL,52.3325,-1.8366
The Warwickshire lad ,B94 5DP,52.3437,-1.8404
Ladbrook Park Golf Club Ltd,B94 5ED,52.3436,-1.8470
Ambleside Bistro and Garden Centre Limited ,B94 5LR,52.3715,-1.8416
Nuthurst Grange Country House Hotel,B94 5NL,52.3428,-1.7773
Hockley House,B94 5NW,52.3393,-1.7745
Bulls Head,B94 6BU,52.3670,-1.8193
La Stalla,B94 6DL,52.3698,-1.8104
The Stables,B94 6DL,52.3698,-1.8104
The Punchbowl Lapworth,B94 6HR,52.3460,-1.7313
The Boot in Lapworth ,B94 6JU,52.3390,-1.7360
Navigation Inn Lapworth,B94 6NA,52.3362,-1.7216
MIDLAND FOOD BAKERY  LTD,B94 6RP,52.3644,-1.8053
Curry republic,B95 5AA,52.2958,-1.7783
La dolce piazza ltd,B95 5AN,52.2948,-1.7792
The Bluebell,B95 5AT,52.2942,-1.7789
The Butchers' Social Ltd,B95 5AT,52.2942,-1.7789
Arden Tandoori Restaurant,B95 5AU,52.2927,-1.7796
The Nags Head,B95 5BA,52.2909,-1.7800
Naya Restaurant ,B95 5BS,52.2912,-1.7804
Dolce Caffe,B95 5BY,52.2925,-1.7805
THE WHITE SWAN,B95 5BY,52.2925,-1.7805
Fleur De Lys,B95 5HJ,52.3092,-1.7273
The Winged Spur,B95 5PA,52.3042,-1.8227
The Bulls Head,B95 6BD,52.2686,-1.7793
The Cowshed Cafe,B95 6BY,52.2662,-1.7719
Navigation inn,B95 6BZ,52.2645,-1.7685
The View at Hill Farm Marina - Hill Farm Leisure Limited,B95 6DE,52.2562,-1.7653
The King's Head,B95 6HY,52.2383,-1.7985
Chatime ,CV1 1DL,52.4072,-1.5135
The Cat Lounge,CV1 1DL,52.4072,-1.5135
Bean & Brunch,CV1 1DN,52.4076,-1.5142
The Litten Tree,CV1 1EX,52.4052,-1.5137
The Lazy Monkey Bar & Kitchen,CV1 1EY,52.4045,-1.5151
CRAZY GATE,CV1 1FD,52.4091,-1.5109
HAUTE DOLCI,CV1 1FJ,52.4098,-1.5097
Pepes Piri Piri,CV1 1FJ,52.4098,-1.5097
Sovranos Caffe,CV1 1FX,52.4088,-1.5126
ALATURKA DONER,CV1 1FY,52.4091,-1.5132
Bagel Brunch,CV1 1FY,52.4091,-1.5132
Nine Dragon Ltd/treading name-Alley food&mood,CV1 1FY,52.4091,-1.5132
Restaurant du Liban,CV1 1FY,52.4091,-1.5132
Fork & Knife Foods Ltd T/A Steakout Coventry,CV1 1GF,52.4102,-1.5114
Franzos,CV1 1GF,52.4102,-1.5114
Rodizio Rico,CV1 1GF,52.4102,-1.5114
Belgrade Theatre Cafe,CV1 1GS,52.4098,-1.5141
Cafe Morso,CV1 1GX,52.4095,-1.5144
Heavenly desserts ,CV1 1GX,52.4095,-1.5144
McDonald's Restaurant,CV1 1HF,52.4093,-1.5108
KFC CROSS CHEAPING,CV1 1HG,52.4095,-1.5102
Wali Leisure & Retail Limited,CV1 1HG,52.4095,-1.5102
Subway,CV1 1HL,52.4101,-1.5106
Z&K Quality Food Ltd/TA German Doner Kebab,CV1 1HN,52.4100,-1.5112
SXG COVENTRY ,CV1 1JA,52.4104,-1.5080
Sprinkles Gelato - Coventry,CV1 1JA,52.4104,-1.5080
Esquires Coffee,CV1 1JD,52.4108,-1.5102
Bean & Leaf Coffee House,CV1 1LB,52.4068,-1.5110
China Red,CV1 1LB,52.4068,-1.5110
Fratelli Coventry,CV1 1LB,52.4068,-1.5110
MH fmaily ltd,CV1 1LF,52.4068,-1.5117
nicely noodle bar,CV1 1LF,52.4068,-1.5117
NOODLE BAR,CV1 1LH,52.4062,-1.5131
The Yard Coventry limited,CV1 1LH,52.4062,-1.5131
BISTROT PIERRE - COVENTRY,CV1 1LL,52.4078,-1.5098
treading name-T4,CV1 1NF,52.4078,-1.5112
The Town Crier,CV1 1PB,52.4080,-1.5159
Chopstix Coventry,CV1 1QX,52.4092,-1.5122
KFC WEST ORCHARDS,CV1 1QX,52.4092,-1.5122
McDonald's Restaurant,CV1 1QX,52.4092,-1.5122
The Coffee Hub at CBGC ,CV1 2DS,52.4060,-1.5037
THAI DUSIT,CV1 2JP,52.4033,-1.5001
Glamorous Coventry ,CV1 2LW,52.4042,-1.5040
Kahawa Cafe LTD,CV1 2PL,52.4053,-1.5120
my dhabba ,CV1 3AX,52.4091,-1.5177
Selminas Resturant and Bar,CV1 3BA,52.4083,-1.5169
The Green Dragon,CV1 3BA,52.4083,-1.5169
The Old Windmill,CV1 3BA,52.4083,-1.5169
Tastes Vietnam ,CV1 3BB,52.4085,-1.5178
Turmeric Gold,CV1 3BB,52.4085,-1.5178
Ramada Hotel & Suites by Wyndham Coventry City Centre,CV1 3GG,52.4053,-1.5215
Akbars,CV1 3GJ,52.4046,-1.5216
Arco Bar & Ristorante,CV1 3GJ,52.4046,-1.5216
Shimlaspice ,CV1 3GJ,52.4046,-1.5216
Blue orchid,CV1 3GR,52.4051,-1.5208
aqua food & mood,CV1 3GR,52.4051,-1.5208
Pickles Indian and Grill Cuisine Ltd,CV1 3HE,52.4084,-1.5291
The railway bar and grill,CV1 3HF,52.4083,-1.5263
Market Cafe,CV1 3HT,52.4070,-1.5143
Teezers Ltd,CV1 3JZ,52.4052,-1.5192
Artisan Bar and Grill,CV1 4AJ,52.4105,-1.5163
Royal Voluntary Service,CV1 4FS,52.4151,-1.5042
Taksim Restaurant ,CV1 4FT,52.4176,-1.5004
Dumpling King,CV1 5DW,52.4077,-1.4968
Sweet spot,CV1 5DW,52.4077,-1.4968
SHAWARMA KING,CV1 5DY,52.4075,-1.4967
Slovianka Polish & Ukrainian Cuisine,CV1 5DZ,52.4081,-1.4945
TANG CHINESE Restaurant ,CV1 5EA,52.4079,-1.4945
LEAVE IT TO ESMIE,CV1 5ED,52.4075,-1.4939
Creams Cafe Coventry,CV1 5FZ,52.4137,-1.5047
zeenat kebabish,CV1 5HT,52.4182,-1.4984
HADRAMUD RESTAURANT LTD,CV1 5PW,52.4093,-1.5001
Finger Licking Kitchen,CV1 5QJ,52.4104,-1.5028
Basement Browns - Coventry,CV1 5RE,52.4074,-1.5089
Chi Bar,CV1 5RE,52.4074,-1.5089
Subway,CV1 5RE,52.4074,-1.5089
Playwrights Bar & Bistro,CV1 5RF,52.4076,-1.5085
The Golden Cross,CV1 5RF,52.4076,-1.5085
Britannia Hotel Coventry,CV1 5RP,52.4095,-1.5072
COVENTRY XIONGQI LTD,CV1 5SQ,52.4096,-1.5078
DODO Pizza,CV1 5SQ,52.4096,-1.5078
Jinseon Korean BBQ Restaurant ,CV1 5SQ,52.4096,-1.5078
SHIN JAPANESE KITCHEN & BAR,CV1 5SQ,52.4096,-1.5078
MURCO WALSGRAVE SUBWAY ,CV2 2QN,52.4301,-1.4392
McLean Restaurants Ltd,CV2 2RZ,52.4309,-1.4385
Premiere Classe Coventry,CV2 2SD,52.4312,-1.4393
the rose & woodbine,CV2 3FW,52.4178,-1.4807
Antalya Restaurant Ltd,CV2 4AX,52.4112,-1.4803
Bombay Joe's,CV2 4BA,52.4114,-1.4814
Foodworx ltd,CV2 4BA,52.4114,-1.4814
Get stuffed cafe,CV2 4BA,52.4114,-1.4814
Dhaka Dynasty Tandoori Restaurant ,CV2 4BL,52.4111,-1.4735
KFC WALSGRAVE ROAD,CV2 4BL,52.4111,-1.4735
BALL HILL DINER ,CV2 4ED,52.4106,-1.4830
Simmer Down Restaurant,CV2 4ED,52.4106,-1.4830
Sri Sai Subs Ltd,CV2 4ED,52.4106,-1.4830
Ms J Westwood TA Sawasdee Thai,CV2 4JZ,52.4127,-1.4770
The Millpool,CV2 5FR,52.4064,-1.4599
B'S Batches ,CV3 1AT,52.4033,-1.4866
PIZZA HOT LTD,CV3 1BA,52.4025,-1.4870
Biggin Hall Public house,CV3 1HG,52.4070,-1.4715
McDonald's Restaurant,CV3 2EA,52.3978,-1.4424
Subway Willenhall Lane,CV3 2EA,52.3978,-1.4424
Munchbox cafe,CV3 4DL,52.3810,-1.4714
Laura Ashley - The Tea Room The Iliffe ,CV3 4EQ,52.3833,-1.4729
Ibis Coventry South,CV3 4LF,52.3837,-1.4914
Subway ,CV3 5HW,52.3940,-1.5074
The Festival Public House,CV3 5QJ,52.3789,-1.5031
Indigo Indian Cuisine,CV3 6AU,52.3978,-1.5162
The New Inn,CV31 1DW,52.2857,-1.5188
Eleven ,CV31 1EH,52.2848,-1.5320
The Town House,CV31 1ET,52.2855,-1.5305
The Bowling Green,CV31 1HP,52.2859,-1.5286
SYDNI Cafe The SYDNI Centre,CV31 1PT,52.2811,-1.5147
The White Lion,CV31 1TE,52.2777,-1.4967
The Shire Grill,CV31 1YJ,52.2766,-1.5109
Procaffeinate,CV31 2DN,52.2825,-1.5315
Plough & Harrow,CV31 2HX,52.2676,-1.5252
Cafè 81,CV31 2QY,52.2690,-1.5208
King Baba Indian Cuisine,CV31 3AE,52.2849,-1.5330
Temperance,CV31 3AF,52.2853,-1.5326
millennium balti ,CV31 3AG,52.2846,-1.5321
The Urban Fox,CV31 3BE,52.2778,-1.5335
the windmill inn,CV31 3DD,52.2729,-1.5343
The Heathcote Inn,CV31 3DG,52.2681,-1.5349
CARLS KITCHEN AT QUEENSWAY LTD,CV31 3JZ,52.2808,-1.5435
The Waterside Inn,CV31 3JZ,52.2808,-1.5435
MCDONALD'S,CV31 3LZ,52.2783,-1.5417
Il Piccolinos Ltd.,CV31 3NE,52.2858,-1.5341
Costa Coffee,CV31 3NT,52.2839,-1.5424
The Moorings at Myton ,CV31 3NY,52.2831,-1.5505
Gallone’s ,CV32 4AG,52.2890,-1.5358
Cellar Club,CV32 4DG,52.2933,-1.5358
MCDONALD'S,CV32 4DN,52.2922,-1.5363
NEWBOLD COMYN ARMS ,CV32 4EU,52.2905,-1.5264
Gusto Italian,CV32 4NP,52.2899,-1.5338
Rosie's Tearoom Ltd,CV32 4NP,52.2899,-1.5338
Savis Cafe,CV32 4NR,52.2904,-1.5333
Rustic Food,CV32 4NX,52.2907,-1.5330
The Regent Cafe,CV32 4NX,52.2907,-1.5330
The Royal Pug,CV32 4NX,52.2907,-1.5330
THE ANGEL HOTEL,CV32 4NZ,52.2908,-1.5322
CAFE LEAMINGTON SPA LTD,CV32 4QG,52.2919,-1.5345
The Steamhouse,CV32 4QG,52.2919,-1.5345
BISTROT PIERRE - LEAMINGTON SPA,CV32 4QN,52.2914,-1.5334
LIBERTINE BURGER (LEAMINGTON SPA) ,CV32 4QP,52.2919,-1.5333
LIBERTINE BURGER (LEAMINGTON SPA) LTD,CV32 4QP,52.2919,-1.5333
Leif tearooms & Piano bar,CV32 4QP,52.2919,-1.5333
Leif tearooms & piano bar ,CV32 4QP,52.2919,-1.5333
Warwick Street Kitchen,CV32 4QP,52.2919,-1.5333
HAYASHI RESTAURANT,CV32 4QZ,52.2923,-1.5323
FAT BIRDS CAFE LIMITED,CV32 4RJ,52.2923,-1.5333
Oscars French Bistro,CV32 4RL,52.2924,-1.5335
been bar restaurant,CV32 4RN,52.2932,-1.5334
Basement Browns - Leamington Spa,CV32 4RR,52.2922,-1.5343
Lotus Moon Thai Cuisine,CV32 4RT,52.2927,-1.5351
Coffee Break,CV32 4XT,52.2911,-1.5346
THE FAT PUG,CV32 5BZ,52.2917,-1.5477
REGENT RICCO LIMITED,CV32 5DX,52.2904,-1.5362
BEDFORD STREET BAR,CV32 5DY,52.2907,-1.5369
Sabai Sabai restaurant ,CV32 5EE,52.2904,-1.5373
KAYAL RESTAURANT,CV32 5EG,52.2901,-1.5370
PAPRIKA CLUB,CV32 5EH,52.2901,-1.5385
Tartine Bistro and Wine Bar,CV32 5EH,52.2901,-1.5385
Murphy's Bar,CV32 5EJ,52.2904,-1.5384
Elma Grill Ltd,CV32 5EL,52.2893,-1.5379
HART AND CO,CV32 5EL,52.2893,-1.5379
Thai Elephant Restaurant,CV32 5HQ,52.2900,-1.5395
Havana club 2019 LTD,CV32 5JS,52.2917,-1.5376
The Neighbourhood,CV32 5JS,52.2917,-1.5376
STAR AND GARTER,CV32 5LL,52.2917,-1.5420
Memsaab Leamington Spa LTD,CV32 5PZ,52.2934,-1.5375
Whittle's,CV32 5SE,52.2964,-1.5383
mfg cubbington subway,CV32 7HY,52.3115,-1.5102
Hollies Tea and Cake Room  Ltd,CV32 7NB,52.3110,-1.5018
The Stag at Offchurch,CV33 9AQ,52.2900,-1.4732
The Red Lion at Hunningham ,CV33 9DY,52.3127,-1.4522
J & C Ellis Ta Hilltop Farm Shop & Cafe,CV33 9EL,52.3012,-1.4499
The Crown Inn,CV33 9HE,52.2372,-1.4521
The Shakespeare Inn,CV33 9HR,52.2367,-1.4580
The White Hart Ufton,CV33 9PJ,52.2563,-1.4460
MALLORY COURT HOTEL,CV33 9QB,52.2540,-1.5282
Leopard Inn,CV33 9RN,52.2505,-1.5404
Dough & Brew,CV34 4BL,52.2809,-1.5901
saffron gold restaurant,CV34 4DH,52.2812,-1.5914
The Globe,CV34 4DP,52.2821,-1.5921
Jack’s Shack Warwick,CV34 4EH,52.2817,-1.5869
aqua food & mood,CV34 4EW,52.2815,-1.5864
WARWICK SPICE,CV34 4HS,52.2827,-1.5833
Happy Puccia ltd,CV34 4HU,52.2831,-1.5821
The Roebuck Inn,CV34 4HU,52.2831,-1.5821
CHOPSTICKS,CV34 4JA,52.2829,-1.5835
Il Piccolinos Ltd.,CV34 4JA,52.2829,-1.5835
New Bowling Green,CV34 4JD,52.2825,-1.5823
Le Bel Ami,CV34 4NE,52.2837,-1.5812
Subway,CV34 4NE,52.2837,-1.5812
panache balti restaurant,CV34 4NE,52.2837,-1.5812
Pastelaria Portuguese,CV34 4NU,52.2850,-1.5773
The Black Pug,CV34 4NU,52.2850,-1.5773
The Apple Tree Tearooms,CV34 4RA,52.2821,-1.5890
The Old Coffee Tavern,CV34 4RA,52.2821,-1.5890
The Tuckery,CV34 4SA,52.2819,-1.5901
Tilted Wig,CV34 4SA,52.2819,-1.5901
ROSE AND CROWN,CV34 4SH,52.2819,-1.5916
The Kings Head,CV34 4TD,52.2841,-1.5920
The Cape of Good Hope,CV34 5DP,52.2914,-1.5954
MCDONALD'S,CV34 5QJ,52.2869,-1.5664
The Rivercross ,CV34 5QT,52.2889,-1.5608
AUSTIN HEATH MANAGEMENT LTD,CV34 6AF,52.2685,-1.5489
The Chip Shed Warwick,CV34 6AN,52.2790,-1.5921
Vivaanta Indian Restaurant ,CV34 6AN,52.2790,-1.5921
Racehorse Pub,CV34 6AS,52.2753,-1.5946
Leif tearooms warwick,CV34 6AW,52.2776,-1.5931
The Old Fourpenny Shop Hotel ,CV34 6HJ,52.2787,-1.5932
Jumpin Warwick,CV34 6NW,52.2761,-1.5420
Hilton Warwick,CV34 6RE,52.2615,-1.6102
SUBWAY,CV34 6RH,52.2767,-1.5470
The Durham Ox,CV35 7AY,52.3014,-1.6904
Tom o the wood ,CV35 7DH,52.3256,-1.7161
The Falcon at Hatton,CV35 7HA,52.3092,-1.6611
Hatton Arms,CV35 7JJ,52.3010,-1.6460
The Warwickshire Golf & Country Club,CV35 7QT,52.3075,-1.5813
Anchor inn,CV35 7QX,52.3171,-1.5770
The Granville,CV35 8DS,52.2403,-1.6065
The New Inn,CV35 8JA,52.2664,-1.6686
The Crown Inn,CV35 8LJ,52.2832,-1.7172
Red Lion Inn,CV35 8PE,52.2794,-1.7010
Snorty's Restaurant,CV35 8XA,52.2936,-1.6556
The Spinning Jenny Restaurant,CV35 8XA,52.2936,-1.6556
The Snitterfield Arms,CV37 0JH,52.2378,-1.6912
Stratford Manor,CV37 0PY,52.2267,-1.6633
The Farm Stratford Ltd,CV37 0QA,52.2280,-1.6938
Everyday Fresh Cafe,CV4 7BX,52.3882,-1.5465
Subway,CV4 7EH,52.3878,-1.5549
Hickory's Smokehouse,CV4 8AP,52.3883,-1.6005
McDonald's Restaurant,CV4 9BJ,52.4015,-1.5550
RUPALi RESTAURANT,CV4 9DU,52.4036,-1.5633
wing wah coventry,CV4 9EL,52.4056,-1.5596
The Auction House,CV4 9HS,52.3989,-1.5956
Coventry Hearsall Golf Club,CV5 6DF,52.3940,-1.5317
Millsy's Cafe Bar Bistro Ltd,CV5 6EG,52.3995,-1.5315
Allys Balti House Ltd ,CV5 6EJ,52.3987,-1.5331
BOMBAY PALACE,CV5 6EJ,52.3987,-1.5331
Cafe Bravo,CV5 6EJ,52.3987,-1.5331
Emily's Cafe,CV5 6EJ,52.3987,-1.5331
Street Restaurant,CV5 6EJ,52.3987,-1.5331
Subway,CV5 6EL,52.3982,-1.5332
SAGE,CV5 6EP,52.3989,-1.5319
The Cottage,CV5 6ET,52.3992,-1.5339
O'Tool's Café,CV5 6GD,52.4019,-1.5302
Richards kitchen Ltd,CV5 6NF,52.4002,-1.5292
Myrtles Coffee,CV5 6NG,52.4008,-1.5284
The Royal Bengal,CV5 6NG,52.4008,-1.5284
KFC TILE HILL,CV5 6UA,52.4028,-1.5573
Oodles Noodles,CV5 6UA,52.4028,-1.5573
Subway Tile Hill,CV5 6UA,52.4028,-1.5573
Love A Latte,CV5 7JT,52.4124,-1.5705
Cones,CV5 8AU,52.4080,-1.5559
McDonald's Restaurant,CV5 8BW,52.4113,-1.5284
New Spires,CV5 8HJ,52.4141,-1.5474
The Jacobean Hotel,CV5 8HX,52.4196,-1.5521
The Windmill Village Hotel and Golf Club Ltd,CV5 9AL,52.4282,-1.5812
PRINCE HOTELS LTD ,CV5 9BA,52.4284,-1.5770
The good honest food company ,CV5 9BN,52.4237,-1.5676
Rainbow Inn,CV5 9GT,52.4232,-1.5609
Shefs food services ltd ,CV5 9GT,52.4232,-1.5609
Britannia Coventry Hill Hotel,CV5 9PH,52.4261,-1.5730
Kausshik Limited,CV6 1AU,52.4174,-1.5327
Dosa village,CV6 1DY,52.4168,-1.5259
Lions Inn Indian Cuisine Ltd,CV6 1EJ,52.4203,-1.5331
the old hotel(coventry) kalia empire,CV6 2EJ,52.4375,-1.5336
Livermore &Co Ltd,CV6 2FR,52.4431,-1.5338
FoodWhitehall's Ltd,CV6 2HT,52.4433,-1.5222
The Ocean Indian Cuisine,CV6 3ET,52.4313,-1.5164
Subway,CV6 3EX,52.4316,-1.5177
The Pilot,CV6 4AU,52.4350,-1.5191
BD Coventry Limited,CV6 4BY,52.4390,-1.5076
Masala jacks restaurant ,CV6 4BY,52.4390,-1.5076
Hollybush 2017 ltd,CV6 4DD,52.4410,-1.5083
Asiana Restaurant ,CV6 4DG,52.4449,-1.5100
EASTERN DINER LTD,CV6 5AN,52.4287,-1.4989
Nima’s Limited ,CV6 5AU,52.4289,-1.4994
3 FIVE 1 RESTAURANT,CV6 5DS,52.4201,-1.4971
The New Horseshoe Bar & Grill,CV6 5HN,52.4381,-1.4931
Aachi Restaurant,CV6 5HP,52.4339,-1.4951
McDonald's Restaurant,CV6 5QE,52.4298,-1.4877
Subway,CV6 5QG,52.4294,-1.4893
Burger King,CV6 6AS,52.4444,-1.4925
Subway,CV6 6AS,52.4444,-1.4925
Royal Punjab Dhabba,CV6 6ER,52.4402,-1.4918
CHENNAI DOSA,CV6 6GS,52.4406,-1.4907
Weavers Bar & Grill,CV6 7HA,52.4332,-1.4808
KFC COURTHOUSE GREEN,CV6 7NS,52.4279,-1.4844
BENGAL BRASSERIE (BALSALL COMMON) LIMITED,CV7 7DL,52.3907,-1.6490
Metro Bar and Grill  Ltd (White Horse),CV7 7DT,52.3870,-1.6467
Masala Club,CV7 7EG,52.3928,-1.6465
The Brickmakers Arms,CV7 7EG,52.3928,-1.6465
la Delicia,CV7 7EG,52.3928,-1.6465
mckees brasserie,CV7 7EL,52.3933,-1.6507
CAFE TAMARINDS,CV7 7ER,52.3934,-1.6520
Costa Coffee,CV7 7FE,52.3921,-1.6495
The Barn at Berryfields,CV7 7LB,52.4301,-1.6411
The Strawberry Bank,CV7 7NF,52.4361,-1.6467
The Manor at Meriden limited,CV7 7NH,52.4350,-1.6379
Meriden Bistro ,CV7 7PT,52.4342,-1.6434
Hogans Bar and bistro(coventry ltd),CV7 8NJ,52.4436,-1.5399
Holiday Inn Kenilworth ,CV8 1ED,52.3439,-1.5810
EGO Mediterranean Restaurant Kenilworth,CV8 1EF,52.3432,-1.5794
Thai Sarocha,CV8 1HD,52.3424,-1.5787
coffee on the corner,CV8 1HE,52.3416,-1.5783
The King's Table,CV8 1HH,52.3406,-1.5773
indian edge restaurant,CV8 1HH,52.3406,-1.5773
COSTA COFFEE,CV8 1HN,52.3413,-1.5774
indian ark,CV8 1HP,52.3398,-1.5760
Peacock & Grand Hotels Limited,CV8 1HY,52.3384,-1.5744
Arden's Kenilworth,CV8 1JB,52.3423,-1.5776
Rocking horse coffee shop,CV8 1JB,52.3423,-1.5776
Pomeroys Bistro Bar,CV8 1JD,52.3430,-1.5775
Thai Kitchen,CV8 1JD,52.3430,-1.5775
Virgins & Castle,CV8 1LY,52.3496,-1.5829
Deli on the Hill Limited,CV8 1NB,52.3489,-1.5891
Harringtons on the Hill,CV8 1NB,52.3489,-1.5891
The Clarendon Arms,CV8 1NB,52.3489,-1.5891
Time for tea kenilworth ,CV8 1NB,52.3489,-1.5891
Ciao Bella,CV8 1QJ,52.3442,-1.5798
Gatebrook Restaurants Ltd,CV8 1QJ,52.3442,-1.5798
Le Raj Kenilworth Ltd,CV8 1QJ,52.3442,-1.5798
Lil Greens,CV8 1QJ,52.3442,-1.5798
THE ALMANACK,CV8 1QJ,52.3442,-1.5798
The Tiltyard Pub,CV8 2DE,52.3473,-1.5580
Kenilworth Golf Club Ltd,CV8 2EA,52.3507,-1.5483
The 3A Pub Company Limited,CV8 2EZ,52.3509,-1.5789
Chesford Grange Hotel,CV8 2LD,52.3263,-1.5581
FARMERS FAYRE,CV8 2LZ,52.3399,-1.5273
The Oak,CV8 3AU,52.3669,-1.4914
Smiths Nurseries (Baginton) Limited,CV8 3BA,52.3606,-1.4945
Citrus Hotel Coventry,CV8 3DY,52.3743,-1.4601
