name,postcode,lat,lon
Golden Ball Hotel,CB23 4LY,52.2594,-0.0277
Chopstix Cambridge Extra,CB23 4WU,52.2689,-0.0088
EL MEXICANA,CB23 4WU,52.2689,-0.0088
McDonald's Cambridge Services,CB23 4WU,52.2689,-0.0088
Three Horseshoes,CB23 8AB,52.2259,0.0431
Fox Inn,CB23 8DY,52.2532,0.0216
BAR HILL SPORTS AND SOCIAL CLUB,CB23 8SU,52.2489,0.0159
Domino Printing Sciences,CB23 8TU,52.2581,0.0182
The White Horse,CB24 3AB,52.2609,0.0632
The Olive Tree Cafe,CB24 3BD,52.2571,0.0640
black bull ,CB24 3BS,52.2818,0.0450
Herbies American Diner,CB24 4RE,52.2711,-0.0057
The Three Tuns,CB24 4SJ,52.2969,-0.0380
Willingham Auctions Cafe Limited,CB24 5ES,52.3124,0.0565
THE BREWERS INN,CB24 6AD,52.2425,0.1666
Alva Inns t/as White House PH,CB24 6AJ,52.2428,0.1607
Lion and Lamb,CB24 6DF,52.2441,0.1627
The Black Horse,CB24 8QE,52.2925,0.0872
Curry Palace,CB24 8QP,52.2872,0.1258
Rose & Crown,CB24 9JB,52.2516,0.1091
THE INDIAN OCEAN,CB24 9JE,52.2532,0.1047
The Boot,CB24 9LG,52.2519,0.1066
The Railway Vue,CB24 9NP,52.2455,0.1100
The Anchor,CB25 0BA,52.2825,0.3248
The Five Bells,CB25 0HD,52.2727,0.3274
The Dyke's End,CB25 0JD,52.2717,0.2953
Scotsdales Cafe Horningsea,CB25 9JG,52.2393,0.1851
The Crown & Punchbowl,CB25 9JG,52.2393,0.1851
The Plough and Fleece,CB25 9JG,52.2393,0.1851
Old Crown,CB3 0QD,52.2411,0.0810
Girton Golf Club (Cambridge) Limited,CB3 0QE,52.2433,0.0796
St John's Innovation Centre Ltd The Square,CB4 0WS,52.2349,0.1534
Thoroughbreads,CB4 0WY,52.2315,0.1514
Arbuckles,CB6 2FE,52.3906,0.1220
The Village Inn,CB6 2HQ,52.3869,0.2056
KFC ELY - LEISURE VILLAGE,CB6 2SH,52.4107,0.2491
MCDONALDS,CB6 2SH,52.4107,0.2491
Little Downham Anchor,CB6 2ST,52.4330,0.2408
Costa Coffee,CB6 2WH,52.4088,0.2556
Red lion ( stretham ) ltd,CB6 3LD,52.3484,0.2188
The lazy otter ,CB6 3LU,52.3340,0.2013
Apex Coffee Ltd,CB6 3NX,52.3868,0.2282
Twenty Pence Garden Centre,CB6 3RN,52.3481,0.1746
The Cherry Tree Haddenham,CB6 3UE,52.3537,0.1496
THE THREE KINGS,CB6 3XD,52.3612,0.1497
11a,CB7 4AA,52.3984,0.2677
Daybreaks Cafe,CB7 4AF,52.3983,0.2673
Le Spice,CB7 4AF,52.3983,0.2673
The Royal Standard,CB7 4AF,52.3983,0.2673
Peacocks Tearoom,CB7 4AU,52.3967,0.2703
Riverside Bar & Kitchen,CB7 4BB,52.3957,0.2683
The Cutter Inn,CB7 4BN,52.3937,0.2672
The Old Fire Engine House,CB7 4ER,52.3997,0.2611
Eat Thai Restaurant ,CB7 4ES,52.4000,0.2611
Poets House Hotel,CB7 4EY,52.3989,0.2587
The Prince Albert,CB7 4JF,52.3972,0.2604
Juliaâ€™s Tea Rooms Limited ,CB7 4JU,52.3992,0.2644
The Almonry Restaurant Ely,CB7 4JU,52.3992,0.2644
Siam Seasons LTD,CB7 4LZ,52.4000,0.2645
Sylhet,CB7 4LZ,52.4000,0.2645
Lemon Tree Deli Cafe,CB7 4NP,52.3990,0.2668
Tea For Two,CB7 4NY,52.3991,0.2658
Costa Coffee,CB7 4PB,52.3997,0.2656
The Cherry Tree,CB7 5AH,52.3261,0.3472
Gloof,CB7 5DS,52.3349,0.3368
The Red Lion Soham,CB7 5HA,52.3324,0.3382
The Old Hall,CB7 5TR,52.3728,0.2925
The Maids Head,CB7 5XR,52.3118,0.3018
St Ives (Hunts) Golf Club,PE27 4AD,52.3379,-0.0451
Costa Coffee,PE27 4AE,52.3300,-0.0598
Eric's Fish & Chips,PE27 4AE,52.3300,-0.0598
McDonald's Restaurant,PE27 4AE,52.3300,-0.0598
Subway St Ives,PE27 4AE,52.3300,-0.0598
The Queens Head,PE27 4SA,52.3302,-0.0336
Pike & Eel,PE27 4TW,52.3232,-0.0058
pike and eel,PE27 4TW,52.3232,-0.0058
The Barn Restaurant,PE28 3DE,52.3901,-0.0395
Lakeside Lodge Golf & Country Club,PE28 3DF,52.3956,-0.0327
Rookery Waters,PE28 3DF,52.3956,-0.0327
Chelsea Tea Room,PE28 3DQ,52.3776,0.0083
wildfrostcafe somersham ,PE28 3EE,52.3824,-0.0015
The Windmill,PE28 3ET,52.3770,-0.0250
Hollies Tea Room Limited,PE28 3HW,52.3967,0.0021
green man colne,PE28 3LZ,52.3638,0.0169
