name,postcode,lat,lon
Dorcopsis and moloch,AB30 1TP,56.910780960000000,-2.494523737000000
White ibis and thorn lizard,AB30 1UD,56.932011000000000,-2.441124000000000
Darwin's finches and water snake,AB30 1XT,56.901851670000000,-2.449256115000000
Masked owl and sand lizard,AB31 4BE,57.062735780000000,-2.647946275000000
Prion and mountain devil,AB31 4DL,57.093548620000000,-2.583249000000000
chameleon and Duck,AB31 4DS,57.096926000000000,-2.574372000000000
Armadillo and Ibex,AB31 4EA,57.077295970000000,-2.614433639000000
Hawk and B,AB31 4EB,57.087798150000000,-2.523262259000000
rat snake and cycling lizard,AB31 4EJ,57.061837660000000,-2.496498519000000
Guillemot and Gila monster,AB31 4EZ,57.056891610000000,-2.500075967000000
boa constrictor and mamba,AB31 4FJ,57.062189150000000,-2.500724337000000
perentie and carpet snake,AB31 4HT,57.089154000000000,-2.619893586000000
Petrel and Thrasher,AB31 5NN,57.063011000000000,-2.476529000000000
sea snake and Komodo dragon,AB31 5PB,57.051910580000000,-2.503388247000000
River dolphin and Tahr,AB31 5PG,57.059315680000000,-2.470299222000000
king cobra and Siskin,AB31 5RD,57.091189910000000,-2.474613743000000
crocodile and Puffleg,AB31 5RJ,57.082139340000000,-2.496621371000000
garter snake and python,AB31 5UA,57.052893710000000,-2.506863332000000
sand viper and Grackle,AB31 5UU,57.053238960000000,-2.496927705000000
Vole and Maya,AB31 5YL,57.051891390000000,-2.487810425000000
Hawaiian honeycreeper and Guillemot,AB31 5YX,57.054104210000000,-2.484740243000000
python and agama,AB31 5ZF,57.055649060000000,-2.482485336000000
River dolphin and Guillemot,AB31 5ZG,57.058144300000000,-2.489969821000000
cobra de capello and Jay,AB31 6JQ,57.042833000000000,-2.434873000000000
Tattler and Grouse,AB31 6NE,57.011309240000000,-2.689337295000000
leathery turtle and Civet,AB34 5AQ,57.089632340000000,-2.683381375000000
Masked owl and blue tongue,AB34 5DQ,57.050759000000000,-2.687052000000000
Grosbeak and Wallaby,AB34 5EN,57.068303050000000,-2.780702892000000
Hawk and massasauga,AB34 5GF,57.077804690000000,-2.765148796000000
Black cockatoo and frill-necked lizard,AB34 5HW,57.072054190000000,-2.795609360000000
Coati and asp,AB34 5JB,57.070459000000000,-2.795047000000000
Snipe and blue racer,AB34 5JG,57.076592690000000,-2.776703683000000
tuatara and Fulmarine petrel,AB34 5JJ,57.078219240000000,-2.812039688000000
