name,postcode,lat,lon
Bronzewing pigeon and Greenbul,AB12 3BZ,57.095209260000000,-2.090848944000000
Francolin and Ice seal,AB12 3GD,57.098793080000000,-2.078198585000000
wall lizard and Minke whale,AB12 3RX,57.099164590000000,-2.086946979000000
Fish eagle and sidewinder,AB12 3TD,57.094995100000000,-2.088851547000000
Mouse and rat snake,AB12 4AB,57.070764844100000,-2.135466992000000
cayman and Skunk,AB12 4BG,57.061138960000000,-2.145143077000000
garter snake and dugite,AB12 4BH,57.060224130000000,-2.143886439000000
perentie and Bunting,AB12 4NU,57.054350302300000,-2.145561898100000
worm lizard and Linsang,AB12 4PF,57.067667440000000,-2.130920419000000
American sparrow and Boto,AB12 4PX,57.063025000000000,-2.129139733000000
sand viper and diamondback terrapin,AB12 4QL,57.059412000000000,-2.131139000000000
Myna and constrictor,AB12 4QT,57.050888000000000,-2.129757000000000
turtle and Armadillo,AB12 4QU,57.067449800000000,-2.124108928000000
Moluccan boobook and jew lizard,AB12 4RD,57.073214000000000,-2.126949000000000
Argus and Siskin,AB12 4RT,57.081963480000000,-2.143739782000000
boa constrictor and Darwin's finches,AB12 4SX,57.057334090000000,-2.141666066000000
diamond python and Hawk,AB12 4TY,57.054368540000000,-2.142643857000000
Petrel and Thicketbird,AB12 4WT,57.075595827200000,-2.128787874300000
White ibis and Parakeet,AB12 4XW,57.072106822300000,-2.140452754300000
chuckwalla and asp,AB12 5FA,57.061959000000000,-2.237465000000000
taipan and Ice seal,AB12 5YB,57.081086970000000,-2.182190695000000
deaf adder and Bunting,AB39 2AG,56.965721750000000,-2.207084770000000
Capuchin and Gull,AB39 2AH,56.965720000000000,-2.208070163000000
Jerboa and Cloud rat,AB39 2AW,56.966030950000000,-2.210211238000000
terrapin and American sparrow,AB39 2EG,56.971108780000000,-2.224401854000000
Guillemot and Tree warbler,AB39 2FP,56.963989000000000,-2.211859666000000
Black jay and diamond snake,AB39 2FS,56.965496170000000,-2.223315544000000
bearded lizard and B,AB39 2HE,56.963085000000000,-2.214996000000000
smooth snake and Herring gull,AB39 2HR,56.963515180000000,-2.215739003000000
anaconda and glass snake,AB39 2JL,56.961623960000000,-2.207933552000000
hawksbill and Tit-tyrant,AB39 2LD,56.960504000000000,-2.206151396000000
Grouse and worm lizard,AB39 2RG,56.971182880000000,-2.202032576000000
python and bearded dragon,AB39 2SB,56.964170930000000,-2.215759242000000
Dorcopsis and racer,AB39 2TY,56.896354770000000,-2.226382467000000
Viscacha and Fulmarine petrel,AB39 2WH,56.967759560000000,-2.238131243000000
New World blackbird and cobra de capello,AB39 2WU,56.970313750000000,-2.236585001000000
coral snake and Stint,AB39 2XD,56.963848390000000,-2.230262000000000
moloch and skink,AB39 3LB,56.973139930000000,-2.213623411000000
Greenbul and Jackal,AB39 3NF,57.029625000000000,-2.160572000000000
diamond python and Shearwater,AB39 3NT,57.044468760000000,-2.184153642000000
horned viper and Magpie,AB39 3PG,57.030131380000000,-2.150771527000000
sand lizard and black snake,AB39 3PL,57.025434260000000,-2.189577598000000
American sparrow and rat snake,AB39 3QU,57.055657690000000,-2.220065395000000
horned toad and diamondback,AB39 3SS,56.975348000000000,-2.239232000000000
Diving bird and agama,AB39 3WL,56.956719450000000,-2.218248198000000
tiger snake and Chickadee,AB39 8AD,57.031655770260100,-2.175918836372300
