name,postcode,lat,lon
Mink and Solitaire,EH42 1AB,56.003837000000000,-2.519638339060950
bandy-bandy and Chipmunk,EH42 1AW,56.002612168322200,-2.524067000000000
River dolphin and cerastes,EH42 1BD,56.002531680762100,-2.528491048480020
Herring gull and massasauga,EH42 1BJ,56.001622283120200,-2.533112562516500
Wallaby and Grouse,EH42 1DB,56.002263976620200,-2.519604211843950
Thrasher and boa,EH42 1DT,55.999083518228700,-2.523810344034510
tiger snake and Kākāriki,EH42 1DX,55.999890969633400,-2.519844928407460
Gull and Tahr,EH42 1FE,55.988729000000000,-2.524872000000000
Prion and Tahr,EH42 1FQ,55.990219000000000,-2.528200000000000
Solitaire and Cloud rat,EH42 1FS,55.991067000000000,-2.529366000000000
Solitaire and boa constrictor,EH42 1HL,56.003807857750400,-2.513531542426270
crocodile and Hawaiian honeycreeper,EH42 1JN,56.002422379983700,-2.520392037984360
River dolphin and milk snake,EH42 1JS,55.997588616789700,-2.518242807097180
Scimitar babbler and blue racer,EH42 1JU,55.999499019993100,-2.514757053970790
grass snake and Ground sloth,EH42 1LQ,55.997969621067000,-2.506559971731640
Wader and Viscacha,EH42 1LY,55.996609233741700,-2.511800754351990
Schneider python and wall lizard,EH42 1PJ,55.996611853054900,-2.536538602117460
flying lizard and frilled lizard,EH42 1PQ,55.997305103307700,-2.534143323204680
Goose and bicycle lizard,EH42 1YF,55.996212794959600,-2.507723358699160
dugite and Tree warbler,EH42 1ZP,55.991490000000000,-2.531279000000000
