name,postcode,lat,lon
Ice seal and boomslang,EH31 2AB,56.035278107999200,-2.830730461272620
krait and jew lizard,EH31 2AT,56.035973000000000,-2.831628000000000
dugite and Piping shrike,EH31 2DH,56.037973000000000,-2.825492000000000
Cuscus and Logrunners,EH31 2DL,56.038455583232200,-2.828535692445440
Petrel and python,EH31 2DN,56.037025625689800,-2.827397636133820
Grouse and Marsh harrier,EH31 2DQ,56.039224260368800,-2.827797802751740
kabaragoya and python,EH31 2ER,56.037206000000000,-2.822623000000000
Pitohui and Warbler,EH31 2HJ,56.034507094587300,-2.822432939274650
fer-de-lance and green turtle,EH32 0NJ,55.976946000000000,-2.898866000000000
monitor and monitor,EH32 0PS,55.976523288973100,-2.891420659317010
goanna and Tit-tyrant,EH32 0RN,56.007378499075700,-2.859736073442350
harlequin snake and Shearwater,EH32 0RW,56.007914862684700,-2.861415876938910
Kangaroo and glass snake,EH32 0RZ,56.009725582305000,-2.856246000000000
terrapin and Fish eagle,EH32 0SA,56.010430887240000,-2.858809502962810
black snake and Old World warbler,EH32 0SD,56.009976564520800,-2.859537179637520
Guillemot and Dorcopsis,EH39 4AE,56.057913125867700,-2.723596000000000
Grouse and sidewinder,EH39 4AU,56.057056000000000,-2.728632191528230
Gull and Piping shrike,EH39 4AZ,56.057466312814500,-2.732162852448920
king cobra and Dolphin,EH39 4BB,56.059626534718000,-2.726952619619010
Polecat and agama,EH39 4BH,56.057286158602300,-2.739770784190200
Fish eagle and box turtle,EH39 4BS,56.057508982310500,-2.727988639073660
amphisbaena and Linsang,EH39 4BT,56.057691595540000,-2.727494287290200
Francolin and jew lizard,EH39 4DT,56.052475232768000,-2.719175554854770
Marsh harrier and Herring gull,EH39 4DX,56.053749068607500,-2.717978996443940
bandy-bandy and Jerboa,EH39 4EL,56.053645770176700,-2.710992650803170
harlequin snake and loggerhead,EH39 4EN,56.053366418659100,-2.709574579150140
Ibex and viper,EH39 4EW,56.054201091416300,-2.709734417105990
dukite and blue tongue,EH39 4HS,56.059383557329800,-2.717810733800580
loggerhead and Mouse,EH39 4HT,56.059465000000000,-2.717879970213420
Thrasher and moloch,EH39 4JJ,56.058682902167000,-2.720864839035190
whip snake and iguana,EH39 4JR,56.059481422069800,-2.716431514651020
Lemming and Goose,EH39 4NA,56.059041597872500,-2.740703676311400
blue tongue and Cuscus,EH39 4NW,56.058982880389600,-2.735499628454830
gopher snake and snapping turtle,EH39 4PQ,56.057205885120700,-2.721463523315200
mamba and monitor,EH39 4PU,56.055471994341300,-2.716806749231930
Diving bird and Pheasant,EH39 4QB,56.055498028051400,-2.710753773387320
king snake and Ground sloth,EH39 4QQ,56.056064002702000,-2.726195119019730
Marmoset and Cloud rat,EH39 4QZ,56.051830257921100,-2.720383759939570
Tattler and rattlesnake,EH39 5AH,56.024504238697400,-2.768393000000000
River dolphin and diamond python,EH39 5AL,56.026572944054700,-2.803411271341540
taipan and Quetzal,EH39 5AN,56.026083263564000,-2.781596000000000
saltwater crocodile and mountain devil,EH39 5EG,56.047227708603500,-2.778443852028900
Eagle and snapping turtle,EH39 5ES,56.045032886864300,-2.780261751151780
blind snake and bushmaster,EH39 5FJ,56.049504000000000,-2.725724000000000
flying dragon and Dorcopsis,EH39 5JQ,56.040691511992200,-2.724558011697160
diamond snake and sand lizard,EH39 5LN,56.008685000000000,-2.763700000000000
galliwasp and death adder,EH39 5PB,56.027410954375800,-2.701396537641410
Peafowl and tiger snake,KY1 4LB,56.156821282764600,-3.068630751704390
anaconda and Duck,KY1 4QQ,56.165806903972600,-3.059169921323770
agama and Mouse,KY1 4RA,56.159580000000000,-3.067612000000000
Boto and hawksbill,KY1 4SX,56.140963383272800,-3.085040152983550
anole and habu,KY8 1BS,56.170355789907000,-3.031255735539730
Condor and flying dragon,KY8 1DD,56.178921881738600,-3.032999693532210
cobra de capello and Grouse,KY8 1DJ,56.174027000000000,-3.038119000000000
constrictor and hawksbill,KY8 1ED,56.179005485417800,-3.036964745094680
Masked owl and boomslang,KY8 2BZ,56.188709644442400,-3.040126866778560
water snake and Fulmarine petrel,KY8 2EW,56.184651211872000,-3.034442540481540
Lemming and ringhals,KY8 2EY,56.190426378554500,-3.024994173425750
Black jay and blue tongue,KY8 2FB,56.192981000000000,-3.022681000000000
diamondback turtle and blind snake,KY8 2HL,56.190221692547700,-3.026922352820100
cobra and python,KY8 2HW,56.188971722954000,-3.027050089550400
smooth snake and Tit-tyrant,KY8 2JA,56.191077728184600,-3.032021138829800
grass snake and Polecat,KY8 3DD,56.183134611174000,-3.024509774156240
Grackle and amphisbaena,KY8 3EF,56.186101572581200,-3.008088000000000
gaboon viper and chameleon,KY8 3EP,56.186001360251500,-3.009022000000000
boomslang and Chipmunk,KY8 3HD,56.185056625067500,-3.011510704452780
Vole and Greenbul,KY8 3LS,56.185670066759400,-3.017778192249050
bushmaster and puff adder,KY8 3NB,56.185984523351500,-3.015595305274540
Partridge and skink,KY8 4BB,56.198128170528500,-3.017173367465310
blue racer and carpet snake,KY8 4BX,56.199661037782500,-3.001096372776020
Songlark and Night heron,KY8 4DA,56.199811424854200,-2.999166176660100
king snake and Booted eagles,KY8 4EY,56.198012024508600,-2.995009587224700
Peafowl and Buzzard,KY8 4FB,56.197269254536000,-3.025434560560760
dukite and Pheasant,KY8 4FN,56.197222969960000,-3.033733763949020
alligator and whip snake,KY8 4FZ,56.197888000000000,-3.020329000000000
Parrotlet and sidewinder,KY8 4JH,56.198961491054000,-2.992020248131820
flying lizard and Skunk,KY8 4LU,56.194740701495600,-2.998454177752180
deaf adder and cycling lizard,KY8 4RZ,56.199929488118500,-2.996783832333430
amethystine python and gavial,KY8 5DL,56.194115950773300,-3.058435155684710
Stilt and Capuchin,KY8 5FG,56.192311911608700,-3.051891296824240
Booted eagles and boa constrictor,KY8 5RH,56.198389476829700,-3.045095072223760
diamondback terrapin and Fulmarine petrel,KY9 1AG,56.188892226513900,-2.834612000000000
ringhals and bandy-bandy,KY9 1DZ,56.191831045561300,-2.818528970662350
