name,postcode,lat,lon
Devon & Cornwall,PL10 1AA,50.34754790000000,-4.21760390000000
The View Restaurant ,PL10 1JY,50.33830000000000,-4.23190200000000
The Canteen at maker Ltd,PL10 1LA,50.3414,-4.2003
Halfway House Inn,PL10 1NA,50.33389500000000,-4.20156600000000
The Devonport Inn,PL10 1NF,50.33399250000000,-4.20053850000000
The Rising Sun ,PL10 1NH,50.33427000000000,-4.20127500000000
CROSS KEYS INN,PL10 1PF,50.33113900000000,-4.20222600000000
The Bay,PL10 1PG,50.33054490000000,-4.20162990000000
Hannafore Point Hotel,PL13 2DG,50.34955800000000,-4.45166800000000
Talland Bay Hotel,PL13 2JB,50.34049900000000,-4.49525000000000
Seaview Holiday Village,PL13 2JE,50.34603800000000,-4.51242200000000
Chefs Corner,PL13 2JQ,50.33993000000000,-4.51076400000000
Tencreek Holiday Park,PL13 2JR,50.34630700000000,-4.48738800000000
Habour Green House ,PL13 2QR,50.33154100000000,-4.52020100000000
Nelsons Restaurant,PL13 2QT,50.33136500000000,-4.51960200000000
THE THREE PILCHARDS,PL13 2QZ,50.33106700000000,-4.51756200000000
The Museum Tearoom,PL13 2RB,50.3317,-4.5174
House on the Props ,PL13 2RE,50.33155059814450,-4.51850080490112
Coffee Cake Create,PL13 2RG,50.3321,-4.5211
Crumplehorn Inn,PL13 2RJ,50.33621978759770,-4.52394819259644
Bean and Scone,PL13 2RQ,50.33285700000000,-4.52216800000000
POLPERRO SEAFOOD & SANDWICH BAR,PL13 2RQ,50.3328,-4.5222
