name,postcode,lat,lon
Masked owl and grass snake,PL10 1AD,50.346388006345400,-4.221911784521330
black snake and Kite,PL10 1AE,50.346651845788600,-4.220813657418270
snapping turtle and viper,PL10 1AW,50.346715663522700,-4.217471239728630
Mouse and kabaragoya,PL10 1BZ,50.346545030413300,-4.223577752080800
Argus and American sparrow,PL10 1DF,50.348257655168100,-4.215378354799440
Argus and green turtle,PL10 1DG,50.348530420368900,-4.213715000000000
rock python and B,PL10 1JF,50.343715823278800,-4.171511016269540
constrictor and Thicketbird,PL10 1NX,50.336938860382200,-4.205168813874580
Tree warbler and Francolin,PL10 1NZ,50.335907069738000,-4.204558899856980
Gila monster and Marmoset,PL10 1PL,50.332312475107500,-4.202017678310940
bearded dragon and Diving bird,PL8 1EU,50.309374252833600,-4.059902525169660
Meadowlark and chuckwalla,PL8 2BD,50.348715000000000,-4.051925607580130
sand lizard and Gila monster,PL9 0AW,50.328882267972100,-4.098655210740860
skink and Dolphin,PL9 0BD,50.323633720154500,-4.111335231438650
Condor and fer-de-lance,PL9 0DQ,50.338777657490300,-4.073007716790740
rock snake and amethystine python,PL9 0DU,50.323767503616200,-4.109416404618840
Snipe and Petrel,PL9 0EE,50.316016699349600,-4.066735574410480
Fox and Treepie,PL9 9LU,50.343981029348900,-4.087823669626220
Thrasher and gecko,PL9 9NH,50.349067139278500,-4.096579255965450
thorny devil and Gull,PL9 9RY,50.348100087849500,-4.085839674641350
