name,postcode,lat,lon
pit viper and Prion,PL10 1AG,50.347377985603200,-4.217642666041150
blue racer and Jackal,PL10 1JJ,50.346690000000000,-4.244163000000000
rock python and Mockingbird,PL10 1JN,50.346906000000000,-4.252101000000000
tortoise and Mole,PL10 1LP,50.330214924020000,-4.201639652413610
Pitohui and Greenbul,PL21 0TF,50.341306838046000,-3.919462028479400
New World blackbird and cycling lizard,PL8 1AP,50.316094559011200,-4.036341328452670
thorny devil and caiman,PL8 1DG,50.316205000000000,-4.052050775680230
Armadillo and Wallaby,PL8 1HA,50.322824457316400,-4.031079693145830
puff adder and viper,PL8 1HY,50.323199328746200,-4.030730402916610
Masked owl and Snipe,PL8 1LJ,50.340331780412000,-3.947797597020060
rock snake and Diving bird,PL8 1LP,50.335399540047100,-3.948537338773550
Old World quail and thorn lizard,PL8 1LY,50.335511307807200,-3.947235027666980
Rabbit and Dolphin,PL8 2BP,50.349395027985000,-4.038707720403530
pit viper and Thicketbird,PL8 2DJ,50.342688360863700,-4.032882875917010
Chicken and blind snake,PL8 2NA,50.345275000000000,-3.996336000000000
Rat and Tree warbler,PL8 2NQ,50.327902579458900,-4.011119882324390
snapping turtle and goanna,PL8 2NW,50.345414265444100,-4.025802000000000
black snake and Recurvebill,PL8 2PL,50.348422948000000,-4.006646068300000
Kite and terrapin,PL9 0AW,50.328882267972100,-4.098655210740860
loggerhead and asp,PL9 0DE,50.349218626830400,-4.070566805864070
diamondback turtle and Recurvebill,PL9 9NE,50.343400237348400,-4.093111016183080
boa constrictor and king snake,TQ7 4EY,50.318399953380800,-3.930240517658780
rat snake and Fox,TQ7 4EZ,50.323028868113100,-3.934755116853670
grass snake and constrictor,TQ7 4LU,50.316019378980400,-3.913203713347640
python and Armadillo,TQ7 4PZ,50.312298738648600,-3.916298873221710
