name,postcode,lat,lon
giant tortoise and Parakeet,PL21 0QJ,50.348661847176000,-3.887190102691510
Warbler and Pratincole,PL21 0SS,50.337473837129700,-3.875476093407420
king snake and cerastes,PL21 9NZ,50.346331993118100,-3.929939384579390
lizard and Grouse,PL8 1AJ,50.314420418720500,-4.037435634746490
Eagle and tuatara,PL8 1AQ,50.315391332593700,-4.038488516765000
Herring gull and Pitohui,PL8 1AU,50.317164084869700,-4.036233000000000
Francolin and gopher snake,PL8 1BL,50.314251703831500,-4.048567218542130
python and Buzzard,PL8 1BU,50.320099000000000,-4.034462000000000
Komodo dragon and Solitaire,PL8 1DR,50.315584375916700,-4.039606000000000
Treepie and flying dragon,PL8 1HG,50.309299986476300,-3.998871000000000
flying lizard and harlequin snake,PL8 1JH,50.328050247625700,-3.949669775537400
Bronzewing pigeon and Stilt,PL8 1JY,50.319291000000000,-3.970467000000000
bicycle lizard and Rat,PL8 1LW,50.335587000000000,-3.948194000000000
Thicketbird and Ground sloth,PL8 1LY,50.335511307807200,-3.947235027666980
king snake and wall lizard,PL8 2HF,50.346773221381900,-4.003792831194770
Viscacha and Polecat,PL8 2HL,50.348397722158400,-3.999292893112480
rock snake and Zebra,PL8 2HT,50.336319000000000,-4.004478606141320
Partridge and mountain devil,PL8 2HW,50.343735860899000,-3.995794142642390
iguana and hoop snake,PL8 2HY,50.320805915012200,-3.995999339076690
perentie and Dorcopsis,PL8 2NZ,50.349041920426300,-4.039353256826680
Perching duck and Cuscus,TQ7 1AJ,50.287368235517500,-3.777568446965550
Tit-tyrant and Black cockatoo,TQ7 1EG,50.284790000000000,-3.779164829112420
sand lizard and Meadowlark,TQ7 1PG,50.284762709219200,-3.777387129914020
gaboon viper and whip snake,TQ7 1SP,50.277269000000000,-3.772280000000000
cayman and Minke whale,TQ7 1UE,50.280312000000000,-3.778601420747780
Condor and carpet snake,TQ7 2AQ,50.269850202129600,-3.751937343396140
New World blackbird and Komodo dragon,TQ7 2BS,50.270874607496000,-3.749013943102670
garter snake and blue racer,TQ7 2DA,50.212493404408800,-3.708530170119510
blue racer and Triller,TQ7 2DS,50.301285034510000,-3.740692000000000
tokay and mamba,TQ7 2EN,50.250730237980100,-3.657435942147170
Elephant and pit viper,TQ7 2FB,50.272168077930700,-3.695018737062460
Mamo and grass snake,TQ7 2JX,50.273130830818900,-3.690772093910160
Skunk and skink,TQ7 2LX,50.271984884465000,-3.691026198218670
blind snake and terrapin,TQ7 2NQ,50.228510589968600,-3.674036926330360
tree snake and American sparrow,TQ7 2NU,50.269665000000000,-3.720483000000000
water snake and Jerboa,TQ7 2PF,50.270994656556700,-3.718061091302650
Egret and Triller,TQ7 2QW,50.289219792833500,-3.653368254858940
iguana and Mamo,TQ7 2RP,50.248071704539300,-3.717853611690410
chameleon and hoop snake,TQ7 2RS,50.248365827391200,-3.724105998745980
green turtle and Komodo dragon,TQ7 2RY,50.257428000000000,-3.718976000000000
dugite and Mink,TQ7 2SP,50.268363546519000,-3.680105000000000
box turtle and Black jay,TQ7 3AP,50.279061232541200,-3.866806718257140
Tahr and milk snake,TQ7 3AZ,50.272856076769800,-3.781392360090980
Linsang and Skunk,TQ7 3BR,50.268230000000000,-3.857486000000000
rat snake and carpet snake,TQ7 3BS,50.243290582384700,-3.816264739376160
boa and gopher snake,TQ7 3HL,50.243792929017200,-3.855694518193290
bearded lizard and tokay,TQ7 3HN,50.242759538422800,-3.857323361111010
boa and Elephant,TQ7 3HT,50.240343035036000,-3.852068451415520
worm lizard and Fox,TQ7 3PZ,50.279741889413900,-3.793327273223150
snapping turtle and cycling lizard,TQ7 3QR,50.296662764939500,-3.807653421840300
rat snake and black snake,TQ7 3TE,50.269203278712700,-3.858408347211880
puff adder and amethystine python,TQ7 4AS,50.283587152815000,-3.895029991703940
Rat and Chipmunk,TQ7 4BG,50.280475217532100,-3.898331217898430
soft-shelled turtle and Rabbit,TQ7 4DA,50.312979686157800,-3.797695907183960
Philippine hawk-owl and Linsang,TQ7 4EA,50.349591000000000,-3.806697000000000
Crow and gopher snake,TQ7 4EW,50.302116000000000,-3.872369000000000
anaconda and bushmaster,TQ7 4JH,50.312425425544400,-3.836595140341240
Towhee and turtle,TQ7 4LL,50.313981681276700,-3.836009004088020
tokay and box turtle,TQ7 4PN,50.315795543162600,-3.914418000000000
brown snake and amphisbaena,TQ7 4PS,50.316124108146000,-3.910117633289870
cycling lizard and Prion,TQ7 4QA,50.312720221339700,-3.916919789945720
taipan and Dolphin,TQ7 4QG,50.326916000000000,-3.802142000000000
Pratincole and Mockingbird,TQ7 4RJ,50.323598000000000,-3.799782000000000
Tit-tyrant and Boto,TQ7 4RS,50.321335655254600,-3.799991984972970
Buzzard and horned toad,TQ7 4RT,50.326213000000000,-3.789442000000000
anaconda and alligator,TQ7 4SJ,50.323600910066900,-3.798911529042280
Thrasher and Cuscus,TQ8 8DY,50.240079822686500,-3.771489056537150
tokay and Linsang,TQ8 8JQ,50.235484786984300,-3.768472075699090
blindworm and snake,TQ8 8JZ,50.234780480930500,-3.769834250107460
Linsang and B,TQ8 8NL,50.244091107924900,-3.775621000245980
thorny devil and Linsang,TQ9 7AL,50.329211448700100,-3.669424582370650
grass snake and king cobra,TQ9 7AU,50.344917000000000,-3.682419943428990
galliwasp and Coati,TQ9 7FA,50.320384000000000,-3.764766000000000
amphisbaena and Tahr,TQ9 7QE,50.327742301492700,-3.740156404869210
python and Minke whale,TQ9 7QJ,50.326612686662800,-3.749500271996490
