name,postcode,lat,lon
white hart hotel,EX22 6EB,50.8101,-4.3529
Molesworth Arms,EX22 6SU,50.8011,-4.3963
Woodman Restaurant & Bar at Hedley Wood Holiday Park,EX22 7ED,50.7844,-4.4638
the rydon inn,EX22 7HU,50.8128,-4.3646
The Bradworthy Inn ,EX22 7TD,50.9008,-4.3844
Black Rock Cafe,EX23 0AG,50.7876,-4.5564
 The Break Bar,EX23 0AW,50.7972,-4.5563
Bay view inn,EX23 0AW,50.7972,-4.5563
The Old Wainhouse inn,EX23 0BA,50.7302,-4.5779
Widemouth Manor ,EX23 0DE,50.7817,-4.5510
Cornish Coasts Farmshop & Cafe,EX23 0EE,50.7497,-4.5547
THE WEIR BISTRO & WILDLIFE CENTRE,EX23 0JD,50.8052,-4.5370
The Cabin Cafe,EX23 0JG,50.7411,-4.6312
Elements,EX23 0LZ,50.8070,-4.5552
Subway ,EX23 8AF,50.8267,-4.5263
THE SURFIN' FROG,EX23 8AY,50.8307,-4.5443
CLOUD NINE CAFE,EX23 8BH,50.8298,-4.5437
Nineteen bar and restaurant ,EX23 8DA,50.8324,-4.5454
Atlantic House Hotel,EX23 8HJ,50.8315,-4.5487
the deck,EX23 8HJ,50.8315,-4.5487
Lifeâ€™s a Beach,EX23 8HN,50.8319,-4.5493
Costa Coffee,EX23 8JL,50.8301,-4.5448
Wei-Cheng Chinese Buffet and TakeAway,EX23 8JL,50.8301,-4.5448
Wroe's (Bude) Limited,EX23 8JN,50.8298,-4.5452
The Cornish Pie Company,EX23 8JS,50.8308,-4.5450
TEMPLE CORNWALL,EX23 8JZ,50.8297,-4.5454
the rec tea room ,EX23 8LA,50.8293,-4.5461
The Lock Gates Tea Room ,EX23 8LG,50.8280,-4.5475
Rosie's Kitchen Limited ,EX23 8NE,50.8368,-4.5527
Chicken and Rum Shack,EX23 8NF,50.8362,-4.5506
La Bocca outdoors Ltd,EX23 8QU,50.8286,-4.5443
La Bocca,EX23 8QU,50.8286,-4.5443
The Globe Hotel,EX23 8QU,50.8286,-4.5443
The Shack,EX23 8RA,50.8272,-4.5441
The Brendon Arms,EX23 8SD,50.8269,-4.5480
The Falcon Hotel,EX23 8SD,50.8269,-4.5480
Riverlife Cafe,EX23 8TF,50.8227,-4.5427
The Bank At Bude,EX23 8TF,50.8227,-4.5427
The King's Arms,EX23 9BX,50.8298,-4.5146
Bude Holiday Resort,EX23 9EE,50.8432,-4.5473
The Preston Gate Inn,EX23 9ET,50.8404,-4.5223
Darwin (Sandymouth) limited,EX23 9HW,50.8683,-4.5346
Sandymouth tea Rooms,EX23 9HW,50.8683,-4.5346
Willow Valley Holiday Park,EX23 9LB,50.8434,-4.5091
Homeleigh Bude Restaurant,EX23 9NR,50.8244,-4.5039
RED POST INN,EX23 9NW,50.8200,-4.4660
Little Pig Farm Shop & Cafe,EX23 9PZ,50.8584,-4.4999
The New Inn Kilkhampton,EX23 9QN,50.8766,-4.4834
The Fryers Tearoom ,EX23 9QQ,50.8756,-4.4839
The London inn,EX23 9QR,50.8744,-4.4850
The Bush Inn (Morwenstow) Ltd,EX23 9SR,50.9072,-4.5492
Moorhead Country Holidays,EX39 5RG,50.9471,-4.3772
The West Country Inn,EX39 6HB,50.9474,-4.4636
