name,postcode,lat,lon
Jonesy's Cafe,EX19 8EZ,50.8659,-3.9707
The Kings Arms,EX19 8HQ,50.8561,-3.9450
The Globe Inn,EX19 8LR,50.9168,-4.0596
The New Inn,EX19 8SY,50.9356,-4.0280
The fountain inn,EX20 1AP,50.7395,-4.0011
Coffee at Grants,EX20 1AW,50.7398,-4.0035
J Street Diner,EX20 1DH,50.7384,-4.0024
Rajpoot,EX20 1DL,50.7395,-4.0015
The Allotment Club,EX20 1DL,50.7395,-4.0015
Okehampton Golf Club,EX20 1EF,50.7325,-4.0025
Castle Ham Lodge ,EX20 1FA,50.7339,-4.0050
OCRA pavilion in the park,EX20 1GE,50.7355,-3.9962
The White Hart Hotel Okehampton (Wetherspoon),EX20 1HD,50.7388,-4.0034
The London inn ,EX20 1HH,50.7387,-4.0048
Toast Coffee House,EX20 1HN,50.7399,-4.0039
Victorian Pantry Tearooms,EX20 1HQ,50.7387,-4.0038
Whitehouse Restaurant,EX20 1QJ,50.7386,-3.9567
The Kings Arms,EX20 2JP,50.7270,-3.9154
The Monastery Restaurant,EX20 2JT,50.7259,-3.9126
The Oxenham Arms Hotel South Zeal Devon,EX20 2JT,50.7259,-3.9126
the new inn,EX20 2TB,50.7917,-3.9397
The Crossways Inn,EX20 3AH,50.7651,-4.0224
The Bull and Dragon,EX20 3EP,50.8579,-4.0647
One Market Street Cafe,EX20 3JN,50.8218,-4.0724
THE GEORGE IN HATHERLEIGH LTD,EX20 3JN,50.8218,-4.0724
The Tally Ho,EX20 3JN,50.8218,-4.0724
Made-Well Community Interest Company ,EX20 3QA,50.8320,-4.0752
Kingslakes Holidays Limited,EX21 5JS,50.8073,-4.2140
The Junction Inn,EX21 5XR,50.7788,-4.2077
Blackberry Farm Shop,EX22 7NP,50.8765,-4.3080
The Bickford Arms,EX22 7XY,50.8132,-4.2575
The Union Inn,EX38 8LH,50.9124,-4.2357
Yarde Orchard Cafe & Bunkhouse,EX38 8QA,50.9097,-4.1483
