name,postcode,lat,lon
bournemouth pizza company ltd,BH1 3RJ,50.725791740000000,-1.861504000000000
Fresh & Tasty ,BH10 7AS,50.768366050000000,-1.899650895000000
tiki bar kinson ,BH10 7AS,50.768366050000000,-1.899650895000000
Spice of India,BH10 7AZ,50.768599230000000,-1.898814000000000
Costa Coffee,BH10 7BB,50.768745000000000,-1.899749000000000
Pelhams Park Leisure Centre,BH10 7LF,50.772252090000000,-1.901103293000000
Knighton Heath Golf Club LTD,BH11 8NX,50.756007730000000,-1.934154623000000
The Den Kitchen LTD,BH11 8NX,50.756007730000000,-1.934154623000000
Subway,BH11 8PN,50.746766160000000,-1.911234392000000
The Bear Cross,BH11 9LU,50.769685930000000,-1.920394420000000
Piatto Pieno ,BH12 1AW,50.725896870000000,-1.914801409000000
Subway,BH12 3LY,50.740783000000000,-1.948844000000000
The Cafe,BH12 3ND,50.744708600000000,-1.942929406000000
McDonald's Alder Road Poole,BH12 4AX,50.737615820000000,-1.916920037000000
Days Restaurant,BH12 4NY,50.746430150000000,-1.951729163000000
LEMUR LANDINGS LTD,BH12 4NY,50.746430150000000,-1.951729163000000
SPLASHDOWN,BH12 4NY,50.746430150000000,-1.951729163000000
McDonald's Tower Park Poole,BH12 4QY,50.744183050000000,-1.954381808000000
Naked Coffee,BH12 5BB,50.742977730000000,-1.897168125000000
Crossroads Cafe,BH12 5BU,50.746424590000000,-1.911433467000000
Curry Walla ,BH14 0AA,50.729114360000000,-1.940922180000000
bamboo leaf restaurant,BH14 0AR,50.728817560000000,-1.940837542000000
Alghero Ristorante,BH14 0AS,50.728853900000000,-1.941588419000000
OMSHREE GANESH LTD,BH14 0AT,50.728881470000000,-1.942778527000000
The Victoria Cross,BH14 0AT,50.728881470000000,-1.942778527000000
Filippo's Restaurant,BH14 9BY,50.728479540000000,-1.931274000000000
7 Flavours Ltd T/A Roosters Piri Piri Poole,BH14 9DF,50.728877910000000,-1.935906877000000
Boheme,BH14 9DZ,50.728636560000000,-1.938613347000000
Crusty Bread Artisan Bakery,BH14 9DZ,50.728636560000000,-1.938613347000000
Tatnam Tandoori,BH15 2HG,50.725161200000000,-1.976968582000000
Rob's Filling Station,BH15 3AH,50.728265070000000,-1.985893027000000
McDonald's Fleetsbridge Poole,BH15 3TE,50.734533520000000,-1.992026818000000
Hamworthy ,BH16 5BN,50.730091000000000,-2.019968000000000
Costa Coffee,BH16 5NJ,50.738497000000000,-2.030770000000000
The Chequers,BH16 6BJ,50.760176550000000,-2.085014848000000
rose and crown,BH16 6DT,50.754848670000000,-2.078271471000000
Farmer Palmer's Farm Park Ltd,BH16 6EU,50.732864210000000,-2.087331564000000
BULBURY WOODS GOLF CLUB,BH16 6HR,50.742876660000000,-2.104711661000000
Subway Creekmore,BH17 7FR,50.736521020000000,-1.994336310000000
Subway,BH17 7LG,50.742626450000000,-1.986951732000000
The Acorn,BH17 7XZ,50.741835720000000,-2.004043703000000
Lounge One,BH17 8SA,50.742037320000000,-1.964531268000000
The Pilot,BH17 8SA,50.742037320000000,-1.964531268000000
Costa Coffee,BH18 8AG,50.762051110000000,-1.994957000000000
The Goods Yard,BH18 8AX,50.762833480000000,-1.994971000000000
MOON LIGHT INDIAN RESTAURANT LTD,BH18 8AZ,50.763885560000000,-1.993950000000000
Tiien Thai Restaurant Broadstone,BH18 8AZ,50.763885560000000,-1.993950000000000
Healthy Habits Cafe,BH18 8DH,50.760000800000000,-1.994688000000000
The 29029 ltd,BH18 8DN,50.761160880000000,-1.995765465000000
cafe gardenia,BH18 8DN,50.761160880000000,-1.995765465000000
Broadstone Golf Club,BH18 8DQ,50.768741580000000,-1.994105717000000
The Club at Meyrick Park,BH2 6LH,50.725051690000000,-1.883649246000000
Anglo-Continental Educational Group Ltd,BH2 6NA,50.730068570000000,-1.873987947000000
Cock and Bottle,BH20 7DL,50.752822510000000,-2.123091295000000
The Drax Arms,BH20 7HH,50.753629260000000,-2.217178476000000
The Royal Oak Hotel,BH20 7HQ,50.752855380000000,-2.217458403000000
Allendale Cafe Ltd ,BH21 1AS,50.801114010000000,-1.984778874000000
LE PETIT PRINCE PATISSERIE ,BH21 1DS,50.798596280000000,-1.986226999000000
The Thirsty Bird,BH21 1DS,50.798596280000000,-1.986226999000000
Cloisters ,BH21 1DX,50.798344490000000,-1.986283829000000
THE RISING SUN,BH21 1DX,50.798344490000000,-1.986283829000000
Deans Court Cafe,BH21 1EE,50.797822990000000,-1.986894114000000
Piccolo Mondo Pizzeria,BH21 1HS,50.799001020000000,-1.986964739000000
The Dancing Moose Bar & Cook House,BH21 1HS,50.799001020000000,-1.986964739000000
mango and sorrel,BH21 1HT,50.798857170000000,-1.987248568000000
Aroma wimborne ,BH21 1JA,50.800270000000000,-1.987575000000000
Cafe on The Square (Wimborne) Ltd,BH21 1JA,50.800270000000000,-1.987575000000000
CANTINA ,BH21 1JH,50.799756550000000,-1.988454460000000
the short and sweet company ,BH21 1JQ,50.800179040000000,-1.986893469000000
4Q PUB COMPANY LIMITED,BH21 1JS,50.799972530000000,-1.990199759000000
Number 9 on the green bakery,BH21 1LB,50.799504730000000,-1.988113968000000
Number 9 on the green limited,BH21 1LB,50.799504730000000,-1.988113968000000
The Cricketers Arms,BH21 1LD,50.798587020000000,-1.984112777000000
Costa Coffee,BH21 1LP,50.800601760000000,-1.987688000000000
Green's Kitchen,BH21 1LT,50.801350000000000,-1.988709000000000
Renoufs Wimborne,BH21 1LT,50.801350000000000,-1.988709000000000
the wimborne pig ltd,BH21 1NF,50.801087430000000,-1.988298048000000
Wimborne Garden Centre,BH21 2DN,50.804385880000000,-1.930808762000000
THE HAMWORTHY CLUB LTD,BH21 3AP,50.776794320000000,-1.943103291000000
Cobham Sports & Social Club,BH21 3DA,50.782714800000000,-1.981706681000000
THE DORSET SOLDIER,BH21 3JZ,50.766970000000000,-2.019871000000000
BH Live Active Corfe Mullen,BH21 3LE,50.775315000000000,-2.016768000000000
RISARO At The Coventry Arms,BH21 3RH,50.786397120000000,-2.037214048000000
Pamphill Parlour,BH21 4ED,50.807921370000000,-2.014623008000000
THE STOCKS INN Ltd,BH21 4HT,50.821687560000000,-1.976453198000000
Honeybrook Adventure Farm Ltd,BH21 4JD,50.834081460000000,-1.995219677000000
Witchampton & Crichel Social Club,BH21 5AP,50.858135120000000,-2.017196340000000
The Drovers Inn,BH21 5ET,50.895068330000000,-1.999351000000000
The Fleur de Lys Inn (The Inn at Cranborne),BH21 5PP,50.918648180000000,-1.923086146000000
The Restaurant at La Fosse,BH21 5PR,50.919502030000000,-1.922444565000000
Hillier Garden Centre Three Legged Cross,BH21 6RD,50.848933000000000,-1.881623000000000
The Horns Inn,BH21 7AA,50.808965000000000,-1.979035000000000
The Barley Mow,BH21 7AH,50.820404840000000,-1.956352000000000
Stewarts Broomhill,BH21 7DF,50.826834850000000,-1.957226564000000
The Old Inn-Holt,BH21 7DJ,50.835406000000000,-1.958113000000000
THE CROSS KEYS INN,BH21 7JZ,50.841154950000000,-1.915132041000000
The Old Thatch,BH21 7NW,50.805252120000000,-1.921256644000000
curry spoon ltd TA Cinnamon Lounge,BH21 8LN,50.881217620000000,-1.930752333000000
Remedy Oak ,BH21 8ND,50.872470860000000,-1.935796239000000
Elephant and castle ,BH22 0JB,50.824181340000000,-1.888074489000000
Ozill penn ltd,BH22 0JJ,50.823959000000000,-1.888727835000000
Ferndown Golf Club,BH22 8BU,50.799186000000000,-1.881834000000000
Ferndown golf club,BH22 8BU,50.799186000000000,-1.881834000000000
The Pear at Parley,BH22 8SS,50.781656830000000,-1.889381458000000
DUDSBURY GOLF CLUB,BH22 8ST,50.785572000000000,-1.903260000000000
The Kings Arms,BH22 9AA,50.778751300000000,-1.909202543000000
The White Hart,BH22 9AB,50.782745000000000,-1.908358000000000
The Bridge House Hotel,BH22 9AN,50.777635290000000,-1.908013318000000
Chianti restaurant,BH22 9AU,50.800695250000000,-1.890613731000000
McDonald's ,BH22 9BB,50.811540880000000,-1.873414504000000
Haskins Garden Centre Ferndown,BH22 9DG,50.785711490000000,-1.909118175000000
Costa Coffee,BH22 9HU,50.803285560000000,-1.891104377000000
Cinnamon Ferndown,BH22 9HZ,50.802216000000000,-1.890227405000000
Hungry One,BH22 9HZ,50.802216000000000,-1.890227405000000
The Forest Inn,BH22 9PH,50.820945620000000,-1.899737290000000
Chef de China,BH22 9QE,50.816126480000000,-1.900741213000000
Premier Bar and Catering Ltd,BH23 6BL,50.782352640000000,-1.859095873000000
seasons restaurant,BH24 2ET,50.850550050000000,-1.850310970000000
Oakdene Forest Park,BH24 2RZ,50.811453000000000,-1.858369489000000
West Hants Lawn Tennis Company (Bournemouth) Ltd,BH3 7EF,50.737958440000000,-1.885969746000000
Costa Coffee,BH31 6HF,50.881220120000000,-1.878599287000000
The Swans,BH31 6UL,50.876107380000000,-1.873836987000000
Renoufs Verwood,BH31 7AA,50.881840060000000,-1.878085950000000
Spice of India ,BH31 7AB,50.880609770000000,-1.871252062000000
Altrullo Ltd,BH31 7AJ,50.879482650000000,-1.868497648000000
The Hollow,BH31 7AQ,50.881092500000000,-1.876950739000000
CRANE VALLEY GOLF CLUB,BH31 7LH,50.880601467360100,-1.904897615959920
Premier Bar and Catering Ltd,BH8 0AA,50.755802200000000,-1.855588802000000
Sambal Tumis,BH8 8AS,50.727795750000000,-1.860222697000000
kori restaurant,BH8 8AS,50.727795750000000,-1.860222697000000
Bournemouth Steak House,BH8 8AT,50.728585610000000,-1.858973542000000
PAPRIKA Restaurant,BH8 8BE,50.731204370000000,-1.853213053000000
Pamir BBQ express Ltd,BH8 8BZ,50.731151710000000,-1.854247558000000
McDonald's,BH8 8DL,50.726497700000000,-1.865227731000000
The Tipsy Cow Bar ,BH8 8UE,50.735143250000000,-1.868391279000000
creams cafe,BH8 8UE,50.735143250000000,-1.868391279000000
Subway ,BH8 8UH,50.735959860000000,-1.866872752000000
29 spices,BH8 8UR,50.734792330000000,-1.868208049000000
Simsim,BH8 8UR,50.734792330000000,-1.868208049000000
Mimis food Limited,BH8 8UT,50.735752240000000,-1.866178988000000
Nippon Inn,BH8 8UT,50.735752240000000,-1.866178988000000
Pamir BBQ express Ltd,BH8 8UT,50.735752240000000,-1.866178988000000
Anatolia Take Away,BH8 8UU,50.736156040000000,-1.865426800000000
Wonderful Kitchen & Lounge,BH8 9QJ,50.739634480000000,-1.863943003000000
bates restaurant,BH8 9RX,50.741924430000000,-1.861243643000000
Maru Korean & Japanese Restaurant,BH9 1AJ,50.737326110000000,-1.866160000000000
Winton Park Cafe,BH9 1BX,50.738883040000000,-1.867374651000000
Bellaggio Pizzeria,BH9 2AA,50.739489470000000,-1.879291229000000
Roosters Piri Piri Winton,BH9 2AJ,50.742860870000000,-1.878474744000000
Binnies cafe,BH9 2AU,50.749459990000000,-1.877068589000000
Riff Raff Cafe limited,BH9 2AW,50.744901750000000,-1.878044276000000
Pamir BBQ express Ltd,BH9 2DT,50.751680960000000,-1.876864331000000
Naan,BH9 2DX,50.751060780000000,-1.877163631000000
Ristorante Barolo,BH9 2ER,50.745513650000000,-1.878425372000000
Leaves and Beans,BH9 2EX,50.744506710000000,-1.878654743000000
Chicken & Blues Winton,BH9 2HB,50.742582830000000,-1.879184087000000
Forno Pizza,BH9 2HB,50.742582830000000,-1.879184087000000
Tastebuds,BH9 2HB,50.742582830000000,-1.879184087000000
Wistmans cafe ltd,BH9 2HN,50.739625000000000,-1.879914432000000
The Fox Caf√©,BH9 2SW,50.752802980000000,-1.883637324000000
Kingfisher Barn Visitor Centre,BH9 3NZ,50.762956330000000,-1.867391822000000
THE MILTON ARMS,DT11 0HW,50.800370012644200,-2.232592795201010
Old Ox Inn,DT11 0SF,50.898392919061500,-2.247727670157880
The Willows Tearoom,DT11 0SG,50.895436629611200,-2.242394115359460
REEVE THE BAKER LTD,DT11 7AH,50.856084867463200,-2.165827847429160
Scruples Coffee House,DT11 7AL,50.855347084018100,-2.166109359995290
Subway Blandford,DT11 7AR,50.856634494494800,-2.165062619297500
The Yellow Bicycle Cafe,DT11 7AR,50.856634494494800,-2.165062619297500
Costa Coffee,DT11 7AU,50.856624715911400,-2.165616659341150
The Gorge Cafe,DT11 7DX,50.855845523782100,-2.163383426906690
Black cactus,DT11 7EB,50.855699463481200,-2.164931452612450
The Greyhound,DT11 7EB,50.855699463481200,-2.164931452612450
Nelsons Cheese & Ale House,DT11 7PY,50.858559996996000,-2.164273800304810
The Museum,DT11 8DE,50.936129569139500,-2.060687741419890
The Baker Arms,DT11 8ED,50.913605000000000,-2.237026000000000
The Saxon Inn,DT11 8HD,50.918724793606400,-2.243425677319740
Communications cafe ,DT11 8RH,50.868293519336000,-2.125101057679710
Rendez Vous,DT11 8RH,50.868293519336000,-2.125101057679710
THE LANGTON ARMS,DT11 8RX,50.877865648140100,-2.079387722706020
The Anvil Hotel,DT11 8UQ,50.883326590725900,-2.135191511169180
The Botany Bay Inne,DT11 9ET,50.774257874337800,-2.148774670227830
Clubhouse 1896,DT11 9HN,50.860278000000000,-2.129328000000000
The Scented Botanist Keyneston Mill,DT11 9HZ,50.838381254774900,-2.127407000000000
The Stour Inn,DT11 9LH,50.852307380385700,-2.166283220588540
The Charlton Inn,DT11 9NH,50.834266064493300,-2.140800555781700
The Compasses Inn,SP6 3HQ,50.945267114196400,-1.850150000000000
