name,postcode,lat,lon
bournemouth pizza company ltd,BH1 3RJ,50.7258,-1.8615
Subway ,BH1 4AH,50.7260,-1.8412
CAPPUCCINOS,BH1 4AP,50.7269,-1.8373
Costa Coffee,BH1 4AP,50.7269,-1.8373
Dirty Vegans,BH1 4AP,50.7269,-1.8373
McDonald's,BH1 4BH,50.7267,-1.8399
Boscanova,BH1 4BP,50.7273,-1.8376
TARIK CATERING LIMITED,BH1 4BP,50.7273,-1.8376
KINGS PARK CAFE,BH1 4NN,50.7334,-1.8386
The Garden Cafe,BH1 4SX,50.7273,-1.8395
Fresh & Tasty ,BH10 7AS,50.7684,-1.8997
tiki bar kinson ,BH10 7AS,50.7684,-1.8997
Spice of India,BH10 7AZ,50.7686,-1.8988
Costa Coffee,BH10 7BB,50.7687,-1.8997
Pelhams Park Leisure Centre,BH10 7LF,50.7723,-1.9011
Knighton Heath Golf Club LTD,BH11 8NX,50.7560,-1.9342
The Den Kitchen LTD,BH11 8NX,50.7560,-1.9342
Subway,BH11 8PN,50.7468,-1.9112
The Bear Cross,BH11 9LU,50.7697,-1.9204
Piatto Pieno ,BH12 1AW,50.7259,-1.9148
Subway,BH12 3LY,50.7408,-1.9488
The Cafe,BH12 3ND,50.7447,-1.9429
McDonald's Alder Road Poole,BH12 4AX,50.7376,-1.9169
Days Restaurant,BH12 4NY,50.7464,-1.9517
LEMUR LANDINGS LTD,BH12 4NY,50.7464,-1.9517
SPLASHDOWN,BH12 4NY,50.7464,-1.9517
McDonald's Tower Park Poole,BH12 4QY,50.7442,-1.9544
Naked Coffee,BH12 5BB,50.7430,-1.8972
Crossroads Cafe,BH12 5BU,50.7464,-1.9114
Curry Walla ,BH14 0AA,50.7291,-1.9409
bamboo leaf restaurant,BH14 0AR,50.7288,-1.9408
Alghero Ristorante,BH14 0AS,50.7289,-1.9416
OMSHREE GANESH LTD,BH14 0AT,50.7289,-1.9428
The Victoria Cross,BH14 0AT,50.7289,-1.9428
Drgnfly ,BH14 0EF,50.7250,-1.9495
Filippo's Restaurant,BH14 9BY,50.7285,-1.9313
7 Flavours Ltd T/A Roosters Piri Piri Poole,BH14 9DF,50.7289,-1.9359
Boheme,BH14 9DZ,50.7286,-1.9386
Crusty Bread Artisan Bakery,BH14 9DZ,50.7286,-1.9386
Tatnam Tandoori,BH15 2HG,50.7252,-1.9770
Rob's Filling Station,BH15 3AH,50.7283,-1.9859
Subway,BH17 7LG,50.7426,-1.9870
Lounge One,BH17 8SA,50.7420,-1.9645
The Pilot,BH17 8SA,50.7420,-1.9645
The Club at Meyrick Park,BH2 6LH,50.7251,-1.8836
Anglo-Continental Educational Group Ltd,BH2 6NA,50.7301,-1.8740
Allendale Cafe Ltd ,BH21 1AS,50.8011,-1.9848
LE PETIT PRINCE PATISSERIE ,BH21 1DS,50.7986,-1.9862
The Thirsty Bird,BH21 1DS,50.7986,-1.9862
Cloisters ,BH21 1DX,50.7983,-1.9863
THE RISING SUN,BH21 1DX,50.7983,-1.9863
Deans Court Cafe,BH21 1EE,50.7978,-1.9869
Piccolo Mondo Pizzeria,BH21 1HS,50.7990,-1.9870
The Dancing Moose Bar & Cook House,BH21 1HS,50.7990,-1.9870
mango and sorrel,BH21 1HT,50.7989,-1.9872
the short and sweet company ,BH21 1JQ,50.8002,-1.9869
The Cricketers Arms,BH21 1LD,50.7986,-1.9841
Wimborne Garden Centre,BH21 2DN,50.8044,-1.9308
THE HAMWORTHY CLUB LTD,BH21 3AP,50.7768,-1.9431
Cobham Sports & Social Club,BH21 3DA,50.7827,-1.9817
THE STOCKS INN Ltd,BH21 4HT,50.8217,-1.9765
The Fleur de Lys Inn (The Inn at Cranborne),BH21 5PP,50.9186,-1.9231
The Restaurant at La Fosse,BH21 5PR,50.9195,-1.9224
Hillier Garden Centre Three Legged Cross,BH21 6RD,50.8489,-1.8816
The Horns Inn,BH21 7AA,50.8090,-1.9790
The Barley Mow,BH21 7AH,50.8204,-1.9564
Stewarts Broomhill,BH21 7DF,50.8268,-1.9572
The Old Inn-Holt,BH21 7DJ,50.8354,-1.9581
THE CROSS KEYS INN,BH21 7JZ,50.8412,-1.9151
The Old Thatch,BH21 7NW,50.8053,-1.9213
curry spoon ltd TA Cinnamon Lounge,BH21 8LN,50.8812,-1.9308
Remedy Oak ,BH21 8ND,50.8725,-1.9358
Elephant and castle ,BH22 0JB,50.8242,-1.8881
Ozill penn ltd,BH22 0JJ,50.8240,-1.8887
Ferndown Golf Club,BH22 8BU,50.7992,-1.8818
Ferndown golf club,BH22 8BU,50.7992,-1.8818
The Pear at Parley,BH22 8SS,50.7817,-1.8894
DUDSBURY GOLF CLUB,BH22 8ST,50.7856,-1.9033
The Kings Arms,BH22 9AA,50.7788,-1.9092
The White Hart,BH22 9AB,50.7827,-1.9084
The Bridge House Hotel,BH22 9AN,50.7776,-1.9080
Chianti restaurant,BH22 9AU,50.8007,-1.8906
McDonald's ,BH22 9BB,50.8115,-1.8734
Haskins Garden Centre Ferndown,BH22 9DG,50.7857,-1.9091
Costa Coffee,BH22 9HU,50.8033,-1.8911
Cinnamon Ferndown,BH22 9HZ,50.8022,-1.8902
Hungry One,BH22 9HZ,50.8022,-1.8902
The Forest Inn,BH22 9PH,50.8209,-1.8997
Chef de China,BH22 9QE,50.8161,-1.9007
The Clay Studio,BH23 1AE,50.7353,-1.7789
Coast Coffee ,BH23 1BN,50.7342,-1.7765
THE SHIP INN,BH23 1BN,50.7342,-1.7765
The Boathouse,BH23 1BU,50.7319,-1.7758
James and White Christchurch ,BH23 1BW,50.7334,-1.7754
LOCH & QUAY RESTAURANT,BH23 1BW,50.7334,-1.7754
No 10 The Snug,BH23 1BW,50.7334,-1.7754
PINOCCHIO CHRISTCHURCH LTD,BH23 1BW,50.7334,-1.7754
Soho,BH23 1BW,50.7334,-1.7754
Splinters Restaurant,BH23 1BW,50.7334,-1.7754
Cuckoos Coffee Bar,BH23 1DF,50.7355,-1.7783
Kings Arms,BH23 1DT,50.7340,-1.7749
La Mamma Limited,BH23 1DY,50.7345,-1.7719
Colettes coffee and beauty rooms ,BH23 1EB,50.7350,-1.7706
The Smugglers Run - Grass and Grill,BH23 1EH,50.7355,-1.7656
The Rising Sun (Poole) Ltd,BH23 1EJ,50.7358,-1.7615
Sidmouth Harbour Hotel,BH23 1ES,50.7360,-1.7638
Captain's Club Hotel & Spa,BH23 1HU,50.7304,-1.7804
Thomas Tripp,BH23 1HX,50.7325,-1.7779
Captain Cod Christchurch Ltd,BH23 1JP,50.7336,-1.7865
Homelands Hall Lunch Club,BH23 1NA,50.7354,-1.7905
Costa Coffee,BH23 1QB,50.7352,-1.7769
The Coffee Pot and Kitchen,BH23 1QL,50.7370,-1.7807
Charcoal Chicken Company ,BH23 2AP,50.7410,-1.7947
Water Lily Cafe ,BH23 2AW,50.7403,-1.7930
subway,BH23 2AW,50.7403,-1.7930
MUMS CAFE,BH23 2LQ,50.7496,-1.7940
The Nelson Tavern,BH23 3NJ,50.7283,-1.7457
Christchurch Harbour Hotel,BH23 3NT,50.7283,-1.7452
Jetty Mudeford,BH23 3NT,50.7283,-1.7452
McDonald's,BH23 3PX,50.7384,-1.7498
The Noisy Lobster,BH23 4AN,50.7293,-1.7343
HOBURNE PARK,BH23 4HP,50.7415,-1.7319
East Christchurch Sports And Social Club Ltd,BH23 4JD,50.7397,-1.7385
Stewarts Christchurch,BH23 4SA,50.7453,-1.7395
The Oaks,BH23 5EA,50.7398,-1.7084
The Coffee Garden ,BH23 5EB,50.7410,-1.7014
Two bees by the sea,BH23 5EG,50.7417,-1.6982
CLIFFHANGER CAFE LTD,BH23 5JA,50.7418,-1.6962
Greystone Hall Lunch Club,BH23 5JL,50.7400,-1.6951
The Paddle,BH23 5JN,50.7420,-1.6969
Amberwood Inn Ltd Trading as The Amberwood,BH23 5RQ,50.7512,-1.7002
Snowtrax,BH23 6AW,50.7939,-1.8186
ADVENTURE WONDERLAND,BH23 6BA,50.7745,-1.8450
Premier Bar and Catering Ltd,BH23 6BL,50.7824,-1.8591
Cribbys Deli ,BH23 6NW,50.7849,-1.8491
The Navigator,BH23 6SE,50.7787,-1.8304
RISARO at The Lamb Inn,BH23 7AN,50.7651,-1.7690
The Woolpack Inn,BH23 7AX,50.7723,-1.7794
The New Queen,BH23 7BG,50.7842,-1.7919
Tyrrells Ford Hotel,BH23 7BQ,50.7908,-1.7953
The Oak Inn,BH23 7NW,50.7488,-1.7639
Bransgore Churches Coffee Shop,BH23 8AQ,50.7824,-1.7360
The Carpenters Arms,BH23 8BA,50.7766,-1.7432
The Robin's Nest,BH23 8DB,50.7853,-1.7271
three tuns inn,BH23 8JH,50.7779,-1.7306
Luna Coffee ,BH24 1AB,50.8459,-1.7919
Curry Garden Restaurant,BH24 1AF,50.8462,-1.7918
Nava Coffee,BH24 1AF,50.8462,-1.7918
REEVE THE BAKER LTD,BH24 1AF,50.8462,-1.7918
The New Forest Pantry,BH24 1AF,50.8462,-1.7918
Framptons,BH24 1AG,50.8465,-1.7928
Cafe Velo Ltd,BH24 1AL,50.8473,-1.7940
Lovitaly ,BH24 1AN,50.8465,-1.7945
The Boston Tea Party Group Limited,BH24 1AT,50.8473,-1.7933
Indian Tree ,BH24 1AW,50.8469,-1.7944
The Star Inn,BH24 1AW,50.8469,-1.7944
indian Tree,BH24 1AW,50.8469,-1.7944
Masala,BH24 1AY,50.8468,-1.7926
India Cottage,BH24 1DG,50.8457,-1.7898
The cellar,BH24 1DG,50.8457,-1.7898
The Amarone In Ringwood Ltd,BH24 1DN,50.8454,-1.7903
V & G (RINGWOOD) LTD,BH24 1DZ,50.8468,-1.7961
The Inn On The Furlong,BH24 1EY,50.8468,-1.7918
Aroma,BH24 1HB,50.8467,-1.7910
The Crown Tap,BH24 1HY,50.8464,-1.7906
Lamb Inn ,BH24 1NW,50.8424,-1.7868
The London Tavern,BH24 1TY,50.8546,-1.7676
Avon Heath Cafe,BH24 2DH,50.8252,-1.8295
seasons restaurant,BH24 2ET,50.8506,-1.8503
Oakdene Forest Park,BH24 2RZ,50.8115,-1.8584
The Elm Tree,BH24 3DY,50.8432,-1.7658
McDonald's,BH24 3HN,50.8537,-1.7301
OLD BEAMS IBSLEY,BH24 3PP,50.8852,-1.7881
THE BURLEY INN,BH24 4AB,50.8266,-1.7023
The Old Farmhouse Tea Rooms & Restaurant,BH24 4AB,50.8266,-1.7023
Moorhill House Hotel,BH24 4AG,50.8222,-1.7021
Burley Manor,BH24 4BS,50.8280,-1.7030
The Cider Pantry,BH24 4ED,50.8235,-1.7049
The Old Station Tea Rooms,BH24 4HY,50.8026,-1.6758
Barton On Sea Golf Club,BH25 5PP,50.7397,-1.6430
HOBURNE BASHLEY,BH25 5QR,50.7727,-1.6502
The Potting Shed at Redcliffe Garden Centre,BH25 5RY,50.7729,-1.6584
THE RISING SUN,BH25 5SF,50.7815,-1.6579
Subway New Milton,BH25 6HY,50.7539,-1.6551
Forest edge cafe and Teahouse ,BH25 6JG,50.7517,-1.6541
The Naked Quench New Forest,BH25 6JG,50.7517,-1.6541
The Walker Arms,BH25 6JJ,50.7511,-1.6537
Walker Arms,BH25 6JJ,50.7511,-1.6537
Costa Coffee,BH25 6JX,50.7545,-1.6562
New Milton Conservative Club Ltd,BH25 6JX,50.7545,-1.6562
The Garden Cafe,BH25 6JX,50.7545,-1.6562
POPPINS NEW MILTON,BH25 6LQ,50.7526,-1.6551
Bradbeers Restaurant New Milton,BH25 6LW,50.7517,-1.6547
Wheatsheaf Inn,BH25 6QJ,50.7478,-1.6636
Chewton Glen Hotel,BH25 6QS,50.7455,-1.6815
Pebble Beach,BH25 7DZ,50.7359,-1.6634
Petit Pebbles Deli Ltd,BH25 7EA,50.7359,-1.6644
THE CLIFF HOUSE,BH25 7QL,50.7369,-1.6717
HOBURNE NAISH,BH25 7RE,50.7403,-1.6874
West Hants Lawn Tennis Company (Bournemouth) Ltd,BH3 7EF,50.7380,-1.8860
Costa Coffee,BH31 6HF,50.8812,-1.8786
The Swans,BH31 6UL,50.8761,-1.8738
Renoufs Verwood,BH31 7AA,50.8818,-1.8781
Spice of India ,BH31 7AB,50.8806,-1.8713
Altrullo Ltd,BH31 7AJ,50.8795,-1.8685
The Hollow,BH31 7AQ,50.8811,-1.8770
CRANE VALLEY GOLF CLUB,BH31 7LH,50.8806,-1.9049
Lunch In Out,BH5 1DH,50.7256,-1.8406
Rosies Meditarranean cafe,BH5 1EU,50.7253,-1.8417
Brewhouse and Kitchen Southbourne,BH5 2BW,50.7280,-1.8185
Tiien Thai Southbourne,BH5 2HD,50.7295,-1.8230
Renoufs Southbourne,BH5 2HJ,50.7271,-1.8189
Makla ,BH5 2HL,50.7268,-1.8185
Velo Domestique,BH5 2JB,50.7270,-1.8182
Mocha Turtle,BH6 3AA,50.7283,-1.7915
Tuckton Tea Gardens,BH6 3BA,50.7293,-1.7904
Beccafico ,BH6 3JZ,50.7288,-1.7941
Flat white,BH6 3JZ,50.7288,-1.7941
Jubilatte Cafe,BH6 3QJ,50.7254,-1.8084
Baffi Napoletani Pizza,BH6 3QU,50.7260,-1.8148
Terroir Tapas Ltd,BH6 3QX,50.7260,-1.8137
Bake house,BH6 3QZ,50.7266,-1.8171
Seasoned Spirits Ltd,BH6 3QZ,50.7266,-1.8171
The Larder House,BH6 3QZ,50.7266,-1.8171
Costa Coffee,BH6 3RA,50.7265,-1.8160
Quaff and Tipple,BH6 3RA,50.7265,-1.8160
Dickys,BH6 3RB,50.7264,-1.8147
Harrys Coffee House,BH6 3RB,50.7264,-1.8147
the bell inn,BH7 6AX,50.7304,-1.8255
Darcys Bar & Kitchen,BH7 6BQ,50.7343,-1.8172
CAFE CULTURA UK LIMITED,BH7 6BT,50.7277,-1.8361
Thai Smile Restaurant ,BH7 6BT,50.7277,-1.8361
SHARK TAIL SUSHI,BH7 6DE,50.7293,-1.8302
Mokobo,BH7 6DL,50.7308,-1.8258
Costa Coffee,BH7 6DY,50.7360,-1.8149
Littledown Centre,BH7 7DX,50.7450,-1.8252
PLAYGOLF MANAGEMENT LIMITED,BH7 7ES,50.7508,-1.8149
Premier Bar and Catering Ltd,BH8 0AA,50.7558,-1.8556
C u latte cafe,BH8 0DL,50.7595,-1.8388
Sambal Tumis,BH8 8AS,50.7278,-1.8602
kori restaurant,BH8 8AS,50.7278,-1.8602
Bournemouth Steak House,BH8 8AT,50.7286,-1.8590
PAPRIKA Restaurant,BH8 8BE,50.7312,-1.8532
Pamir BBQ express Ltd,BH8 8BZ,50.7312,-1.8542
McDonald's,BH8 8DL,50.7265,-1.8652
The Tipsy Cow Bar ,BH8 8UE,50.7351,-1.8684
creams cafe,BH8 8UE,50.7351,-1.8684
Subway ,BH8 8UH,50.7360,-1.8669
29 spices,BH8 8UR,50.7348,-1.8682
Simsim,BH8 8UR,50.7348,-1.8682
Mimis food Limited,BH8 8UT,50.7358,-1.8662
Nippon Inn,BH8 8UT,50.7358,-1.8662
Pamir BBQ express Ltd,BH8 8UT,50.7358,-1.8662
Anatolia Take Away,BH8 8UU,50.7362,-1.8654
Wonderful Kitchen & Lounge,BH8 9QJ,50.7396,-1.8639
bates restaurant,BH8 9RX,50.7419,-1.8612
subway,BH8 9UA,50.7509,-1.8431
McDonald's,BH8 9UP,50.7513,-1.8443
Maru Korean & Japanese Restaurant,BH9 1AJ,50.7373,-1.8662
Winton Park Cafe,BH9 1BX,50.7389,-1.8674
Bellaggio Pizzeria,BH9 2AA,50.7395,-1.8793
Roosters Piri Piri Winton,BH9 2AJ,50.7429,-1.8785
Binnies cafe,BH9 2AU,50.7495,-1.8771
Riff Raff Cafe limited,BH9 2AW,50.7449,-1.8780
Pamir BBQ express Ltd,BH9 2DT,50.7517,-1.8769
Naan,BH9 2DX,50.7511,-1.8772
Ristorante Barolo,BH9 2ER,50.7455,-1.8784
Leaves and Beans,BH9 2EX,50.7445,-1.8787
Chicken & Blues Winton,BH9 2HB,50.7426,-1.8792
Forno Pizza,BH9 2HB,50.7426,-1.8792
Tastebuds,BH9 2HB,50.7426,-1.8792
Wistmans cafe ltd,BH9 2HN,50.7396,-1.8799
The Fox Caf√©,BH9 2SW,50.7528,-1.8836
Kingfisher Barn Visitor Centre,BH9 3NZ,50.7630,-1.8674
 The White Hart,SO40 2NP,50.9220,-1.5832
Bartley Lodge ,SO40 2NR,50.9175,-1.5779
Camellias Restaurant,SO41 0BF,50.7451,-1.5992
Crown Inn,SO41 0JJ,50.7455,-1.5885
The Royal Oak,SO41 0LA,50.7417,-1.6142
Shorefield Country Park,SO41 0LH,50.7352,-1.6174
Pollys Pantry Tearoom,SO41 0QD,50.7255,-1.5900
the Lazy Lion,SO41 0QD,50.7255,-1.5900
The Smuglers Inn,SO41 0QE,50.7250,-1.5873
Verveine,SO41 0QE,50.7250,-1.5873
saltwater,SO41 0QE,50.7250,-1.5873
Britannia Thai,SO41 0QF,50.7257,-1.5904
Ray's Italian Kitchen,SO41 0QF,50.7257,-1.5904
Cedar Tree South Lawn Hotel,SO41 0RF,50.7350,-1.5900
Red Lion Boldre,SO41 0TW,50.7360,-1.5839
The Hare & Hounds,SO41 6AL,50.7867,-1.6004
The Silver Hind,SO41 6BA,50.7845,-1.6082
The Mill at Gordleton,SO41 6DJ,50.7655,-1.5858
The Plough Inn,SO41 6FQ,50.7726,-1.6372
Rhinefield House Hotel,SO42 7QB,50.8346,-1.6254
LFH (New Park Manor) Ltd,SO42 7QH,50.8388,-1.5813
Commoners Wine Bar,SO42 7RA,50.8193,-1.5778
The Terrace,SO42 7RA,50.8193,-1.5778
Buttery Restaurants Ltd,SO42 7RB,50.8191,-1.5780
DYNASTY INDIAN CUISINE LTD,SO42 7RB,50.8191,-1.5780
The Cloud Hotel ,SO42 7TD,50.8236,-1.5781
Forest Park Hotel,SO42 7ZG,50.8225,-1.5858
Enzee Lyndhurst Ltd,SO43 7AA,50.8732,-1.5764
Forest Lodge,SO43 7AS,50.8766,-1.5787
Waterloo Arms,SO43 7AS,50.8766,-1.5787
Imperial China,SO43 7BD,50.8724,-1.5771
Mad Hatter Tea Room,SO43 7BD,50.8724,-1.5771
Surfing Moo Moo,SO43 7BD,50.8724,-1.5771
Tasty Pastries,SO43 7BD,50.8724,-1.5771
Peggy Mays Cafe,SO43 7BE,50.8727,-1.5752
Renoufs,SO43 7BE,50.8727,-1.5752
Stag hotel(lyndhurst) Limited,SO43 7BE,50.8727,-1.5752
The Greenwood Tree Cafe,SO43 7BE,50.8727,-1.5752
The Mailmans Arms,SO43 7BE,50.8727,-1.5752
THE THAI FOREST,SO43 7BG,50.8724,-1.5751
The Lyndhurst Tea House,SO43 7BG,50.8724,-1.5751
THE SWAN INN,SO43 7DT,50.8757,-1.5865
The New Forest Inn,SO43 7DY,50.8746,-1.5936
The Trusty Servant,SO43 7FY,50.8964,-1.5959
Furzey Gardens Tea Rooms,SO43 7GL,50.9012,-1.6133
Sir Walter Tyrrell Ltd,SO43 7HD,50.9195,-1.6200
The Crown Manor House Hotel Ltd,SO43 7NF,50.8728,-1.5777
The George ,SP6 1AH,50.9272,-1.7883
The dolls house quintessential tea room ,SP6 1AH,50.9272,-1.7883
The Crown Inn,SP6 1AX,50.9272,-1.7912
The Ship Inn,SP6 1AX,50.9272,-1.7912
La Lambretta,SP6 1JF,50.9268,-1.7935
The Foresters Arms,SP6 2JA,50.9149,-1.7527
Aubrey's Forest Kitchen,SP6 2JZ,50.9315,-1.7595
Woodside Inn,SP6 2JZ,50.9315,-1.7595
Woodside Suite,SP6 2JZ,50.9315,-1.7595
The Fighting Cocks,SP6 2LL,50.9343,-1.7495
The Royal Oak,SP6 2PB,50.9064,-1.7726
The Potting Shed ,SP6 2QB,50.9080,-1.7601
The Churchill Arms,SP6 3AA,50.9117,-1.8410
Sticky Bun Tea Rooms,SP6 3BE,50.9182,-1.8238
Pitch 25 cafe,SP6 3EG,50.9214,-1.8327
The Compasses Inn,SP6 3HQ,50.9453,-1.8501
