name,id,postcode,lat,lon
rock snake and amethystine python,1598572,BH24 1BT,50.846201020000000,-1.793480946000000
mountain devil and blue tongue,1598172,BH24 2NH,50.836423080000000,-1.830702030000000
Darwin's finches and Boto,1598814,BH23 8DT,50.798551930000000,-1.717294805000000
Condor and Asiatic leopard,1598912,BH23 8JD,50.783586250000000,-1.731683371000000
smooth snake and coral snake,1598020,BH24 3QU,50.886432910000000,-1.739310537000000
Polecat and Tree warbler,1595229,BH7 6JJ,50.730599750000000,-1.831649891000000
pit viper and Ground sloth,1598175,BH24 2NP,50.828220530000000,-1.835857000000000
Philippine hawk-owl and deaf adder,307469,SO40 7JW,50.911595311304400,-1.501703429760660
Treepie and Crow,1598829,BH23 5LA,50.743106000000000,-1.689595000000000
worm lizard and giant tortoise,307981,SO40 3PY,50.919421736057400,-1.489897454338280
Mamo and Civet,308199,SO40 3AJ,50.919426450756100,-1.486867209445660
Schneider python and chameleon,294979,SP6 2PD,50.904372866685700,-1.773896904817810
moloch and copperhead,306602,SO41 8BZ,50.751965145563100,-1.566224687191080
Herring gull and whip snake,1598858,BH23 5NQ,50.749388700000000,-1.709709658000000
thorn lizard and Zebra,316558,SO16 8BB,50.939291220917100,-1.453273902028900
soft-shelled turtle and Buzzard,1749425,SO41 9PZ,50.762088000000000,-1.536923000000000
Eagle and Wader,1595799,BH6 5DD,50.730640270000000,-1.811104836000000
Tit-tyrant and Grouse,1597799,BH25 5DY,50.760295920000000,-1.647358787000000
glass snake and Myna,2637105,SO41 1FH,50.757573000000000,-1.543878000000000
krait and racer,307974,SO40 3PQ,50.927947285147500,-1.506821975203950
Ground sloth and gecko,1595395,BH7 7DP,50.747388580000000,-1.825225679000000
Towhee and Badger,318360,SO15 4HZ,50.916679265796500,-1.448389162291860
Mamo and Partridge,1599904,BH23 2UD,50.744228220000000,-1.785127818000000
Argus and swift,295069,SP6 3BX,50.919792000000000,-1.812034000000000
Maya and Pheasant,1597760,BH25 5AX,50.758229770000000,-1.642157067000000
Jackal and Pitohui,295458,SP6 1BY,50.928127412214800,-1.807176939031650
death adder and Condor,1597652,BH24 4DH,50.834055000000000,-1.691904000000000
Triller and boomslang,316496,SO16 9JQ,50.925025809626000,-1.454465457403670
rattlesnake and Badger,1598816,BH23 8DW,50.799036150000000,-1.716724302000000
dugite and Old World vulture,1753973,BH23 9JD,50.739919372550000,-1.782072460177970
Booted eagles and Grouse,1596184,BH5 2DA,50.727891990000000,-1.818795000000000
pit viper and Gila monster,1595186,BH8 0LN,50.751612350000000,-1.829434195000000
Vulture and Tit-tyrant,306644,SO41 3PZ,50.753197356256100,-1.533637351694240
carpet snake and diamond snake,307383,SO40 9EF,50.910716493286200,-1.493904051517600
Mink and hoop snake,1597149,BH25 7EJ,50.737966300000000,-1.665396194000000
death adder and Macaw,1597465,BH25 5LP,50.756907290000000,-1.663120559000000
Kestrel and Logrunners,1598664,BH23 7JL,50.750009000000000,-1.765102566000000
tortoise and tuatara,1597493,BH25 5NY,50.755980710000000,-1.666132641000000
goanna and crocodile,1598824,BH23 8EF,50.794503870000000,-1.743978868000000
Hawaiian honeycreeper and diamond snake,1597893,BH24 3EL,50.847187640000000,-1.763662012000000
carpet snake and Tattler,295467,SP6 1DJ,50.927008804678900,-1.805033057545290
diamondback terrapin and deaf adder,305939,SO42 7TA,50.819811847515900,-1.585300774022050
Shearwater and krait,317154,SO16 5ED,50.937741983946000,-1.447001575483130
coral snake and habu,307969,SO40 3PH,50.927894675073400,-1.502895372597580
Fulmarine petrel and Bronzewing pigeon,1597376,BH25 6LN,50.752583150000000,-1.654348548000000
Ibex and bushmaster,318024,SO15 8PE,50.917461486135700,-1.440797630780660
sea snake and Shearwater,1595700,BH6 4HE,50.726926840000000,-1.790349772000000
Jay and amphisbaena,1599870,BH23 2SL,50.749122470000000,-1.791328043000000
Shearwater and diamondback,1599628,BH23 2HB,50.746489250000000,-1.802607817000000
Gull and tree snake,1608653,BH1 4DH,50.726696000000000,-1.849784000000000
skink and taipan,1600020,BH23 2AR,50.741640980000000,-1.796647493000000
Lemming and glass snake,1598286,BH24 1QG,50.849570080000000,-1.777102037000000
king cobra and Badger,308073,SO40 2PE,50.934201740888100,-1.555040795598400
blindworm and New World blackbird,1594802,BH8 9NX,50.750209930000000,-1.842550980000000
blue racer and fer-de-lance,1595478,BH6 5LG,50.726215510000000,-1.810881755000000
green turtle and python,307281,SO41 0NG,50.725449343295000,-1.605245577108150
king snake and Ice seal,307677,SO40 4UL,50.878142489911200,-1.472836753091610
Schneider python and bicycle lizard,318329,SO15 4AE,50.915691154600700,-1.444816102514080
Condor and Philippine hawk-owl,1597884,BH24 3DZ,50.840683160000000,-1.771236208000000
taipan and Kite,1597419,BH25 6QB,50.747004920000000,-1.665742867000000
Gila monster and tokay,316393,SO16 9EH,50.927502507247100,-1.459146215660180
hognose snake and Schneider python,1753966,BH23 9HE,50.739919372550000,-1.782072460177970
rock python and dugite,317804,SO16 0YD,50.943297749103300,-1.484014111031810
boa constrictor and flying dragon,306805,SO41 5QZ,50.784506960507200,-1.519637358590690
ringhals and Chickadee,306199,SO41 9NE,50.757298434286400,-1.547590000000000
American sparrow and Magpie,1599858,BH23 1JT,50.734126820000000,-1.788603109000000
Parakeet and Mink,1595774,BH6 5AW,50.731853510000000,-1.810632378000000
alligator and Vulture,1599495,BH23 4NR,50.749162420000000,-1.720157673000000
iguana and Komodo dragon,1595947,BH6 3LS,50.727618040000000,-1.799895921000000
tree snake and terrapin,306632,SO41 3PJ,50.753976000000000,-1.550698000000000
blind snake and Moluccan boobook,1596210,BH5 2HA,50.730264820000000,-1.824056619000000
Komodo dragon and king cobra,306468,SO41 9BX,50.764371024782800,-1.541651011353090
Tree warbler and Coati,1595204,BH8 0NU,50.754103130000000,-1.848902957000000
Tree warbler and Kestrel,306551,SO41 6FX,50.779159000000000,-1.633955000000000
Ice seal and Wallaby,307633,SO40 4BJ,50.897485173680500,-1.441833098411520
Mole and water snake,2638513,BH23 2GD,50.741891000000000,-1.795591000000000
perentie and tuatara,295118,SP6 3HL,50.941509592084800,-1.837836259615100
Tit-tyrant and Grouse,1598676,BH23 7LA,50.758433680000000,-1.774061272000000
Marsh harrier and Ibex,308198,SO40 3AH,50.919029427642200,-1.486558598742530
king cobra and Mockingbird,1597410,BH25 6PR,50.746274000000000,-1.658321000000000
Old World vulture and frilled lizard,1599260,BH23 4AT,50.728912140000000,-1.736118485000000
Capuchin and bearded lizard,306319,SO42 7RX,50.814788611419500,-1.578773218472270
rattlesnake and soft-shelled turtle,1597340,BH25 6FE,50.755893340000000,-1.654650247000000
flying lizard and Nukupuʻu,1598374,BH24 1TD,50.855560180000000,-1.768421622000000
tuatara and Old World vulture,1598684,BH23 7LL,50.756731450000000,-1.772708486000000
diamondback and anole,308179,SO40 2UY,50.924870289555900,-1.515035539497750
king cobra and Siskin,317388,SO16 4EW,50.928068000000000,-1.447091092797510
Wallaby and New World blackbird,1599910,BH23 2UL,50.743782690000000,-1.787369169000000
Kite and rock python,1595142,BH8 0HG,50.755786880000000,-1.843680597000000
frilled lizard and tree snake,1595523,BH6 5PT,50.734887790000000,-1.812958242000000
Petrel and sand viper,1597439,BH25 5JE,50.758041160000000,-1.663395969000000
Kangaroo and Duck,1595431,BH6 5FH,50.732265370000000,-1.815122418000000
swift and horned toad,307581,SO40 8FN,50.916434937847200,-1.519276968697250
Mouse and bearded lizard,1599826,BH23 1GB,50.734299400000000,-1.775084140000000
Perching duck and tortoise,1596011,BH6 3RN,50.725978840000000,-1.814707931000000
Old World quail and Greenbul,1598831,BH23 5LD,50.743693470000000,-1.687691859000000
diamond python and thorny devil,316371,SO16 9DF,50.922814677091400,-1.456611172321620
bearded dragon and Rabbit,306812,SO41 5RH,50.774191121390500,-1.524025000000000
Zebra and glass snake,307266,SO40 8XU,50.923709000000000,-1.520980000000000
milk snake and harlequin snake,305988,SO42 7WW,50.804441980283000,-1.469422916607350
cerastes and milk snake,1599938,BH23 1LX,50.735789600000000,-1.788128009000000
Eagle and garter snake,1596856,BH25 7QH,50.738018730000000,-1.674394509000000
turtle and sand lizard,2664465,SO40 0HA,50.934258000000000,-1.507984000000000
perentie and cobra de capello,1599410,BH23 4JU,50.740558000000000,-1.720804129000000
cycling lizard and sand viper,317370,SO16 4DY,50.927655000000000,-1.445300000000000
whip snake and Petrel,1597336,BH25 6EX,50.752324150000000,-1.648921242000000
Mockingbird and slowworm,317504,SO16 4QA,50.926209684874200,-1.451876287233030
mamba and cobra,317520,SO16 4QW,50.920960238583400,-1.448509290985630
adder and blind snake,1595739,BH6 4LL,50.727594040000000,-1.781491804000000
Chicken and Vole,1599207,BH23 5DG,50.738938710000000,-1.695390203000000
worm lizard and gaboon viper,1598924,BH23 8JT,50.769876960000000,-1.737590018000000
horned viper and Elephant,1599360,BH23 4EL,50.735214840000000,-1.727779313000000
bicycle lizard and Viscacha,306893,SO41 6AD,50.784885719984100,-1.603738484602510
puff adder and Mouse,1597307,BH25 7LX,50.745908730000000,-1.666062484000000
gecko and Mouse,306749,SO41 3RZ,50.755202807194200,-1.535914010449380
soft-shelled turtle and cycling lizard,307990,SO40 3QJ,50.923162285312700,-1.489828118811060
Ice seal and Mink,1595836,BH5 2JY,50.730333800000000,-1.822101065000000
Grouse and Eagle,306473,SO41 9DE,50.762274533684900,-1.541345374612870
Thrasher and Guillemot,1608629,BH1 4AN,50.726357560000000,-1.839712272000000
lizard and Parrotlet,1598878,BH23 5PU,50.751704360000000,-1.693889906000000
Piping shrike and Warbler,307605,SO40 8JD,50.922414707235300,-1.519229611355600
Stilt and blind snake,1599714,BH23 3RU,50.739070580000000,-1.742707876000000
Mamo and garter snake,306556,SO41 6WA,50.757545247707600,-1.543858389343080
Jerboa and Black jay,1599988,BH23 1QP,50.738377290000000,-1.782051056000000
White ibis and slowworm,306939,SO41 0TD,50.725163000000000,-1.579619000000000
Recurvebill and Tahr,307919,SO40 7EA,50.910501121917400,-1.515213236478490
grass snake and leathery turtle,316149,SO16 9PW,50.936444119477300,-1.459825282717920
fer-de-lance and jew lizard,307532,SO40 8AD,50.923525000000000,-1.524312000000000
Stilt and New World blackbird,295206,SP6 1RA,50.936474941275300,-1.825885000000000
Gila monster and Crow,307687,SO40 4UY,50.895331676830600,-1.452323966104180
puff adder and bushmaster,1597982,BH24 3ND,50.868762170000000,-1.773543214000000
bull snake and Schneider python,1599552,BH23 3HJ,50.734015050000000,-1.758775910000000
Tahr and Shearwater,307522,SO40 9JG,50.912888386666200,-1.486739928270520
White ibis and chuckwalla,307962,SO40 3NZ,50.926972223242500,-1.497469890315990
sea snake and king cobra,306498,SO41 9EP,50.759139513991400,-1.539929887620070
giant tortoise and Prion,1594804,BH8 9NZ,50.748003220000000,-1.839964501000000
diamondback turtle and Pheasant,1599646,BH23 2HZ,50.747278980000000,-1.796424668000000
python and Cuscus,1600097,BH23 2DW,50.741337650000000,-1.792907361000000
turtle and hoop snake,1598807,BH23 8DJ,50.788607950000000,-1.721795082000000
B and alligator,1598089,BH24 2HR,50.837173560000000,-1.840001063000000
Jerboa and cobra,316466,SO16 9HB,50.925045158513400,-1.460569038065910
Asiatic leopard and Recurvebill,1599580,BH23 3JW,50.730476490000000,-1.752361398000000
Logrunners and Mouse,1599937,BH23 1LW,50.735147000000000,-1.785283000000000
diamond python and lizard,306588,SO41 8BG,50.746150268533900,-1.554982000000000
Vole and Bunting,1753510,BH1 4HL,50.728595790356900,-1.842396838403010
Wallaby and diamondback,1599935,BH23 1LT,50.736379340000000,-1.786056438000000
leathery turtle and River dolphin,1595058,BH8 0AE,50.763805670000000,-1.848517294000000
turtle and Fish eagle,1599575,BH23 3JQ,50.734166070000000,-1.757882427000000
bushmaster and rock python,306959,SO41 0UD,50.748725000000000,-1.589941184964130
Hawaiian honeycreeper and Lemming,307796,SO40 7AN,50.898677633120800,-1.537946000000000
Partridge and Chickadee,307562,SO40 8EN,50.917385554590500,-1.507858227392500
Linsang and Mole,1599720,BH23 3SD,50.732680940000000,-1.748736557000000
Meadowlark and Wader,1600301,BH23 1DT,50.734011330000000,-1.774929649000000
Siskin and Peafowl,2586792,SO16 0AU,50.935857000000000,-1.468812000000000
amphisbaena and sea snake,1597422,BH25 6QF,50.745463440000000,-1.670757047000000
Bunting and Maya,295023,SP6 2WU,50.928653687782300,-1.789075507931090
Dolphin and asp,316159,SO16 9QH,50.936823792053900,-1.456376843416820
blind snake and anole,317368,SO16 4DW,50.927027008049900,-1.445947590693130
perentie and sand lizard,1597453,BH25 5JY,50.757951480000000,-1.657300423000000
Petrel and Badger,1598024,BH24 3RA,50.885299240000000,-1.727219228000000
black snake and Shearwater,316336,SO16 9AN,50.922573211471100,-1.462731693817920
caiman and Towhee,1812456,SO16 9RU,50.932851794100000,-1.452296489800000
garter snake and copperhead,307269,SO40 8XY,50.925046380150400,-1.522859088018290
Condor and Ibex,1597338,BH25 6EZ,50.751619230000000,-1.650755121000000
Chipmunk and Duck,1599354,BH23 4ED,50.733347700000000,-1.733117946000000
saltwater crocodile and Darwin's finches,308220,SO40 3BN,50.923699836383000,-1.487318191715170
blue racer and Crow,1597947,BH24 3HW,50.851935000000000,-1.749901000000000
Chipmunk and rat snake,1598385,BH24 1TS,50.855172110000000,-1.772287740000000
frill-necked lizard and Petrel,1597918,BH25 5HD,50.758691790000000,-1.652205331000000
Capuchin and horned viper,317171,SO16 5FB,50.936903049503100,-1.444549452064650
sidewinder and krait,307263,SO40 8XR,50.923577457126800,-1.517709517978310
Petrel and Guillemot,307811,SO40 7BG,50.896295013989900,-1.515687705092170
Myna and Francolin,2664466,SO40 0HB,50.934258000000000,-1.507984000000000
death adder and gavial,1597500,BH25 5PG,50.758156920000000,-1.653782966000000
Recurvebill and leguaan,307483,SO40 7QD,50.908649544745200,-1.506826686293360
Viscacha and brown snake,1597946,BH24 3HU,50.861738630000000,-1.742915018000000
Gull and deaf adder,1594934,BH7 7JA,50.741761560000000,-1.820853193000000
dukite and Bunting,306522,SO41 9FW,50.759540597678400,-1.536864000000000
Flameback and blue racer,306822,SO41 5RW,50.777672179732700,-1.498177242448360
cerastes and kabaragoya,307672,SO40 4UE,50.900204298940300,-1.473554794268050
crocodile and Condor,316574,SO16 8BX,50.941030888258600,-1.456085850603350
milk snake and constrictor,1599181,BH23 5AX,50.745072060000000,-1.706051273000000
Parrotbill and Grackle,1598282,BH24 1QB,50.848223930000000,-1.778528894000000
bearded dragon and soft-shelled turtle,1599328,BH23 4BW,50.731342220000000,-1.741049874000000
Recurvebill and horned viper,306334,SO41 8JY,50.771201555514400,-1.549894502626510
blind snake and Vulture,1595292,BH7 6PU,50.736162790000000,-1.823255175000000
anaconda and wall lizard,307798,SO40 7AQ,50.900258000000000,-1.541357000000000
leguaan and Rat,1599178,BH23 5AT,50.746224640000000,-1.706653528000000
Dolphin and Kestrel,307338,SO40 9AY,50.911558105890900,-1.495132405038920
garter snake and boomslang,316136,SO16 9PE,50.932910132317700,-1.463736865484600
Schneider python and rattlesnake,306629,SO41 3PF,50.752631738238300,-1.549902401883630
Perching duck and horned toad,1595574,BH7 6AR,50.729443910000000,-1.828366926000000
Ice seal and Civet,1598553,BH24 1AL,50.847255000000000,-1.794030000000000
Ibex and indigo snake,1599816,BH23 2RX,50.756098890000000,-1.800554378000000
Buzzard and Tahr,316428,SO16 9FE,50.929135127743700,-1.454417414877640
Polecat and Thrasher,1599369,BH23 4EX,50.736858330000000,-1.726848694000000
leathery turtle and whip snake,1608777,BH1 4QX,50.730801360000000,-1.847490055000000
Mouse and Civet,1595850,BH6 3AL,50.725997720000000,-1.798939423000000
flying dragon and Zebra,307566,SO40 8ES,50.918774518275700,-1.508839407821700
Lemming and copperhead,2593318,BH23 8FH,50.780986000000000,-1.751620000000000
blue tongue and Tahr,306910,SO41 6AZ,50.784086205769800,-1.609319983288300
Mole and alligator,1597220,BH25 7LR,50.742595840000000,-1.667956804000000
rock python and Night heron,1598420,BH24 1XH,50.858185230000000,-1.768039240000000
green turtle and Rat,1599830,BH23 1HF,50.736564470000000,-1.765394717000000
soft-shelled turtle and grass snake,1597151,BH25 7EN,50.745859370000000,-1.661413916000000
blue tongue and box turtle,1599603,BH23 3NA,50.732638680000000,-1.758542089000000
rattlesnake and Perching duck,1597909,BH25 5GS,50.758611070000000,-1.655310776000000
Perching duck and anole,1598804,BH23 8DF,50.791425320000000,-1.722927545000000
Pratincole and Herring gull,307444,SO40 7GH,50.905169413124100,-1.539872463733490
Perching duck and Petrel,307258,SO40 8XG,50.919549369376300,-1.500708043264640
thorny devil and flying dragon,1597169,BH25 7HA,50.738386290000000,-1.661354390000000
brown snake and bearded dragon,316585,SO16 8DL,50.946356952672800,-1.456635813489140
indigo snake and sidewinder,1598411,BH24 1UZ,50.846049400000000,-1.774689937000000
taipan and bearded dragon,1598733,BH23 7LY,50.756074910000000,-1.772669133000000
River dolphin and Egret,1599670,BH23 2LE,50.747296070000000,-1.790825890000000
Thrasher and Chicken,307199,SO41 0JS,50.746112362841400,-1.588984899875420
American sparrow and bushmaster,307326,SO40 9AH,50.907333000000000,-1.499374000000000
puff adder and Mole,1597241,BH25 5YE,50.761490770000000,-1.638162302000000
Flameback and Treepie,1597565,BH25 5RP,50.766878900000000,-1.647479499000000
Zebra and Marsh harrier,1594782,BH8 9LR,50.749889640000000,-1.838483910000000
Linsang and Rabbit,1594724,BH8 9HD,50.745183310000000,-1.836204003000000
krait and Meadowlark,1597353,BH25 6HR,50.755619680000000,-1.656381790000000
Guillemot and thorn lizard,1608655,BH1 4DL,50.725390640000000,-1.849703524000000
bandy-bandy and king snake,306607,SO41 8DF,50.751586508887400,-1.551698506991390
Elephant and blue racer,1598368,BH24 1SW,50.858237890000000,-1.776606127000000
Thrasher and Recurvebill,307344,SO40 9BG,50.913513545959900,-1.491924982480760
turtle and rat snake,317502,SO16 4PY,50.927753493274100,-1.451260542922660
Magpie and Ground sloth,1595716,BH6 4JD,50.725824220000000,-1.782420911000000
Petrel and gecko,1597522,BH25 6RP,50.752081170000000,-1.661028860000000
Pitohui and Black jay,1595513,BH6 5PF,50.735288960000000,-1.810788589000000
Grouse and Gila monster,306917,SO41 6BH,50.781230000000000,-1.602039000000000
skink and Badger,1599177,BH23 5AS,50.744890150000000,-1.708816190000000
Ground sloth and bandy-bandy,1599175,BH23 5AQ,50.752334830000000,-1.711945354000000
American sparrow and Perching duck,1598084,BH24 2HJ,50.837678000000000,-1.846063000000000
Greenbul and Coati,1600112,BH23 2EQ,50.751477440000000,-1.800999246000000
Parrotbill and snapping turtle,1598882,BH23 5PZ,50.750376870000000,-1.691772323000000
goanna and Quetzal,1595191,BH8 0LT,50.751854450000000,-1.828951356000000
blindworm and flying lizard,1595708,BH6 4HS,50.726197460000000,-1.784870174000000
deaf adder and Vulture,306178,SO41 9LD,50.761873751920500,-1.556307509378380
amphisbaena and Komodo dragon,1599400,BH23 4JG,50.735334470000000,-1.740829499000000
gavial and Ice seal,295521,SP6 1HU,50.929683882254900,-1.792073000000000
Towhee and king cobra,308319,SO40 3DF,50.918717000000000,-1.490732053934160
terrapin and Pheasant,1596829,BH25 7NZ,50.741433260000000,-1.673435485000000
king cobra and Dorcopsis,1595318,BH7 6RB,50.740979500000000,-1.815272395000000
Perching duck and Chipmunk,1597765,BH25 5BD,50.758854840000000,-1.643655114000000
blindworm and Logrunners,1599320,BH23 5JQ,50.739816680000000,-1.693995000000000
Mouse and turtle,306718,SO41 8HF,50.755190336611200,-1.562835000000000
frill-necked lizard and Vulture,306585,SO41 8BB,50.750935000000000,-1.555078000000000
king cobra and Pratincole,296153,SP5 2BS,50.948920000000000,-1.649066000000000
Partridge and horned viper,306568,SO41 8AF,50.742907000000000,-1.539494000000000
Booted eagles and Mockingbird,1595785,BH6 5BJ,50.730363390000000,-1.806770289000000
smooth snake and smooth snake,306314,SO42 7RR,50.818636637779000,-1.573599824956980
harlequin snake and Thrasher,1596826,BH25 7NW,50.737959460000000,-1.669307479000000
Mink and Capuchin,1599756,BH23 2NW,50.746299190000000,-1.786578235000000
Cloud rat and slowworm,1598280,BH24 1PZ,50.845313000000000,-1.779068000000000
Cloud rat and Black jay,1596012,BH6 3RP,50.726792370000000,-1.817368262000000
Vulture and blue tongue,306161,SO41 9JG,50.757217119740900,-1.556720115262960
flying lizard and leathery turtle,1598642,BH23 7HH,50.755460460000000,-1.771155231000000
slowworm and deaf adder,308029,SO40 2HL,50.926551813018500,-1.555725555294640
Booted eagles and Partridge,295314,SP6 2HD,50.916045540084100,-1.769572873598370
Mamo and Viscacha,306351,SO41 8LU,50.757915984835400,-1.568026927565140
Lemming and carpet snake,316541,SO16 8AE,50.948364181695600,-1.455117737494670
Vulture and viper,317252,SO16 5JW,50.933748988208100,-1.439378586998730
Darwin's finches and Eagle,1599980,BH23 1QB,50.735247180000000,-1.776935916000000
diamondback and Cuscus,317202,SO16 5GS,50.938222309893900,-1.438357047172980
bushmaster and White ibis,1598992,BH23 6AR,50.772052260000000,-1.811675771000000
Pratincole and krait,306383,SO41 8QB,50.752655999075800,-1.551532365792540
Old World warbler and horned toad,1598556,BH24 1AQ,50.846749510000000,-1.793450119000000
carpet snake and iguana,1595917,BH6 3HX,50.727886070000000,-1.798874679000000
Condor and Tree warbler,318842,SO15 0NB,50.919229114572500,-1.466895786826960
Pheasant and Parrotbill,1749421,SO41 9PA,50.760576046940500,-1.549868959404210
box turtle and chameleon,317803,SO16 0YB,50.946285619337100,-1.488649954107480
Mole and constrictor,1597981,BH24 3NB,50.867874000000000,-1.769326388000000
Nukupuʻu and flying dragon,306435,SO41 6DG,50.762710000000000,-1.598226000000000
diamondback terrapin and indigo snake,295196,SP6 1QL,50.935284926990500,-1.786256274686610
Perching duck and Fish eagle,1599702,BH23 3QY,50.735023090000000,-1.754873923000000
Jay and Elephant,306448,SO41 6DY,50.789857922998700,-1.614265680691550
giant tortoise and sea snake,308057,SO40 2NJ,50.921263172735300,-1.579733801128230
River dolphin and crocodile,1597221,BH25 7LS,50.742456150000000,-1.669431731000000
cerastes and habu,1597284,BH25 6DA,50.753342210000000,-1.652556812000000
glass snake and garter snake,1599741,BH23 2NB,50.748662680000000,-1.785717042000000
jew lizard and snake,316134,SO16 9PB,50.933425911009000,-1.462478649198510
king snake and dugite,1595927,BH6 3JN,50.727153090000000,-1.801456363000000
Hawk and Tit-tyrant,1598962,BH23 5SA,50.752053050000000,-1.700039754000000
Gull and Fulmarine petrel,294834,SP6 3TB,50.912331549438500,-1.839402575859130
pit viper and Grosbeak,1599012,BH23 6DB,50.777670000000000,-1.832460000000000
garter snake and swift,1608685,BH1 4HB,50.728785390000000,-1.846263943000000
giant tortoise and Kestrel,305961,SO42 7UE,50.807408956227000,-1.574709618380540
sea snake and Jay,1598222,BH24 2QX,50.831256420000000,-1.846652349000000
Cuscus and Vulture,1595250,BH7 6LP,50.732150290000000,-1.828087834000000
python and monitor,306658,SO41 8EF,50.751618658171300,-1.560146682396860
iguana and perentie,1599265,BH23 4AZ,50.728477370000000,-1.738727886000000
jew lizard and ringhals,1599676,BH23 3PL,50.736413000000000,-1.756510000000000
rock python and Rat,1598973,BH23 5UA,50.738204610000000,-1.703656776000000
whip snake and Polecat,1595459,BH6 5JG,50.734765360000000,-1.809402000000000
Armadillo and massasauga,1598687,BH24 1GY,50.844154530000000,-1.790564097000000
Songlark and hoop snake,1598137,BH24 2JQ,50.840680370000000,-1.839804462000000
hoop snake and agama,1596089,BH5 1HQ,50.725272830000000,-1.835678291000000
Hawk and Kite,1595538,BH6 5QF,50.737309130000000,-1.808839046000000
sidewinder and bandy-bandy,1608723,BH1 4NF,50.734393860000000,-1.844035092000000
tiger snake and sidewinder,306735,SO41 3RB,50.756533000000000,-1.544634000000000
Gila monster and Mole,1599432,BH23 3AP,50.739397240000000,-1.756650902000000
New World blackbird and White ibis,1596009,BH6 3RJ,50.726911550000000,-1.813117466000000
mamba and whip snake,1597850,BH24 3BA,50.841991000000000,-1.786668000000000
sea snake and amethystine python,1598800,BH23 8DA,50.783089970000000,-1.727076159000000
Parrotlet and puff adder,1597329,BH25 6EP,50.755326230000000,-1.654455948000000
Francolin and Stint,1597407,BH25 6PN,50.746800840000000,-1.651315374000000
green turtle and New World blackbird,1598784,BH23 8BD,50.777267000000000,-1.745180000000000
racer and bicycle lizard,2638536,BH24 3FR,50.840328000000000,-1.773035000000000
horned viper and blue tongue,307471,SO40 7JY,50.911355000000000,-1.502062000000000
Treepie and Cuscus,317410,SO16 4FZ,50.923529523708800,-1.438533885580320
racer and box turtle,1600022,BH23 2AU,50.743447700000000,-1.791098123000000
blue racer and Macaw,1598039,BH24 2BQ,50.829365880000000,-1.808634234000000
Snipe and Moluccan boobook,318379,SO15 4JY,50.916683215360900,-1.447322207431240
Flameback and indigo snake,306442,SO41 6DR,50.790476111539500,-1.608174358710150
Civet and Armadillo,307870,SO40 3HT,50.923871922070200,-1.508529670062360
Flameback and Warbler,1595141,BH8 0HF,50.752335700000000,-1.832153256000000
lizard and Argus,306550,SO41 6FW,50.778790116119900,-1.640269915136230
gopher snake and boa,306082,SO43 7DA,50.869921227279400,-1.566325264344100
Perching duck and Greenbul,1599372,BH23 4FA,50.744032000000000,-1.725624000000000
Marsh harrier and Solitaire,306257,SO41 9ZF,50.758120526635200,-1.541499372849130
Stint and Vulture,295170,SP6 1PA,50.933489734247100,-1.820275271883990
chameleon and blue racer,1749413,SO41 3AE,50.751429000000000,-1.538701000000000
gecko and indigo snake,294980,SP6 2PE,50.903364322059700,-1.773176499079050
Chipmunk and rat snake,1600100,BH23 2DZ,50.743317530000000,-1.798907878000000
Parakeet and Triller,1598059,BH24 2EB,50.841693150000000,-1.813299120000000
agama and thorny devil,295172,SP6 1PD,50.932113868906500,-1.820252106486640
gecko and Tree warbler,1753958,BH23 6LP,50.797677505310500,-1.818000854605710
Fish eagle and Ibex,1599975,BH23 1PU,50.737529900000000,-1.785781954000000
bandy-bandy and coral snake,316429,SO16 9FF,50.929731451313600,-1.455022307267480
Black cockatoo and snapping turtle,1599158,BH23 4XY,50.742986000000000,-1.736266235000000
Petrel and Old World vulture,308137,SO40 2RT,50.932262115544700,-1.523795644652620
Myna and frill-necked lizard,308313,SO40 3BU,50.917971432492400,-1.487396000000000
chuckwalla and flying lizard,295079,SP6 3DL,50.912473372426700,-1.844536965495200
mamba and Hawk,316661,SO16 8GS,50.946291817102100,-1.444693846817590
sea snake and Bronzewing pigeon,1597256,BH25 6AN,50.754973570000000,-1.659916412000000
Old World vulture and Dolphin,305946,SO42 7TJ,50.821987195899500,-1.575059971476010
Buzzard and diamondback terrapin,1597413,BH25 6PU,50.747110060000000,-1.661660033000000
Linsang and agamid,307985,SO40 3QD,50.923384978502000,-1.491404933316990
Magpie and sea snake,307683,SO40 4UT,50.892481259689800,-1.442859709466200
Tattler and Marsh harrier,1595711,BH6 4HX,50.727448810000000,-1.785615352000000
horned viper and boa,2621639,BH23 4FR,50.743544000000000,-1.720794000000000
Jerboa and horned viper,307926,SO40 3LE,50.921064273177600,-1.499582151988360
adder and hognose snake,295217,SP6 1RQ,50.926986448404900,-1.792056788062580
dukite and Greenbul,1599138,BH23 4TX,50.738230770000000,-1.737100675000000
jew lizard and Chipmunk,1598017,BH24 3QG,50.878821430000000,-1.829923285000000
Hawk and Ibex,318122,SO15 8SL,50.919869962601000,-1.440484248003150
Viscacha and green turtle,1595598,BH7 6DQ,50.729830530000000,-1.828323009000000
harlequin snake and Quetzal,1598949,BH23 5RJ,50.749068480000000,-1.696940422000000
Songlark and leguaan,1595202,BH8 0NS,50.752925160000000,-1.848949270000000
Lemming and diamondback terrapin,1599704,BH23 3RA,50.734434240000000,-1.752822334000000
Linsang and Peafowl,1595321,BH7 6RF,50.740063240000000,-1.815899551000000
Asiatic leopard and habu,2623000,BH23 5FN,50.750850000000000,-1.696922000000000
Dolphin and Duck,308389,SO40 0TB,50.870098942823300,-1.570615400619500
perentie and Polecat,1608703,BH1 4JE,50.728440380000000,-1.843785629000000
tree snake and Grouse,1599140,BH23 4TZ,50.744405380000000,-1.731680367000000
lizard and jew lizard,295416,SP6 1AZ,50.926277042797800,-1.792614848474430
Kangaroo and blue tongue,316671,SO16 8HE,50.942923706518800,-1.445545258117620
galliwasp and Old World warbler,307895,SO40 3JZ,50.920200566126500,-1.497386305327770
agamid and skink,1599275,BH23 4BP,50.731471070000000,-1.738342853000000
Asiatic leopard and boa constrictor,1608744,BH1 4NU,50.733848370000000,-1.846346589000000
dukite and Bunting,1595812,BH6 5DU,50.733164770000000,-1.809606883000000
milk snake and diamondback turtle,1599064,BH23 4SL,50.743738090000000,-1.719424640000000
sand viper and Magpie,1597486,BH25 5NQ,50.752208660000000,-1.677457283000000
carpet snake and lizard,2638535,BH24 3FQ,50.840311000000000,-1.773617000000000
Petrel and Grosbeak,1597815,BH25 5ET,50.766859810000000,-1.650287000000000
crocodile and Argus,307908,SO40 7DN,50.899633489636400,-1.516236122316650
tortoise and Egret,1599492,BH23 4NN,50.744363110000000,-1.736811256000000
Francolin and rock snake,1597597,BH25 5TD,50.771812060000000,-1.664502644000000
amphisbaena and Greenbul,1597315,BH25 7NG,50.741043410000000,-1.672304429000000
Cuscus and Puffleg,308136,SO40 2RS,50.935275000000000,-1.519297824643900
Mamo and hoop snake,1595782,BH6 5BF,50.728154360000000,-1.814147000000000
Snipe and Bunting,1598160,BH24 2LT,50.834060160000000,-1.838549070000000
diamond python and Ice seal,1599391,BH23 4HW,50.740164790000000,-1.725639047000000
Tit-tyrant and Diving bird,1596129,BH5 1LS,50.725445210000000,-1.830449943000000
Capuchin and Zebra,1599791,BH23 2QR,50.747884020000000,-1.808555086000000
Flameback and krait,1595815,BH6 5DY,50.731876160000000,-1.807982632000000
tree snake and New World blackbird,307111,SO41 3NH,50.756789221510100,-1.548317271510540
blindworm and Pratincole,1598284,BH24 1QE,50.847439530000000,-1.777453080000000
thorn lizard and Masked owl,295078,SP6 3DJ,50.918261868349600,-1.842597229023760
Parakeet and Polecat,316468,SO16 9HE,50.926501986525600,-1.460580654907130
Bronzewing pigeon and wall lizard,306452,SO41 9BA,50.761381587117000,-1.542956241972480
Treepie and diamondback,306283,SO42 7QB,50.834587242690400,-1.625399686549780
asp and sand lizard,1599335,BH23 4DE,50.734824160000000,-1.741852566000000
Stint and chameleon,1597524,BH25 6RR,50.751184840000000,-1.665160294000000
Stilt and Siskin,1599373,BH23 4FB,50.739943000000000,-1.782100000000000
slowworm and Cuscus,295315,SP6 2HE,50.917726110705200,-1.773661570506300
Grouse and kabaragoya,307819,SO40 7BS,50.896533165716900,-1.516737462350610
Dorcopsis and loggerhead,316645,SO16 8FX,50.943431128040000,-1.450165146822500
Siskin and Old World vulture,316405,SO16 9EY,50.929456975983500,-1.452094269868340
fer-de-lance and snake,1608683,BH1 4EZ,50.726626000000000,-1.844330000000000
tokay and galliwasp,307334,SO40 9AT,50.912726594847400,-1.499187895184290
death adder and saltwater crocodile,308110,SO40 3ZU,50.931570225600800,-1.506584463362230
death adder and Rat,1597071,BH25 7AD,50.739169580000000,-1.652491550000000
mamba and Cuscus,1596179,BH5 2BS,50.726074960000000,-1.824539815000000
ringhals and Towhee,307777,SO40 4YT,50.892418671452200,-1.452443421272900
rattlesnake and lizard,308368,SO40 0SA,50.870098942823300,-1.570615400619500
Fulmarine petrel and Petrel,1595039,BH7 7RN,50.740683490000000,-1.833725415000000
Triller and Cloud rat,1598865,BH23 5NY,50.748438270000000,-1.710835300000000
Viscacha and Capuchin,1599050,BH23 4RR,50.751179780000000,-1.713979479000000
Shearwater and Thrasher,2647131,SO40 0GU,50.934258000000000,-1.507984000000000
milk snake and Rat,1599273,BH23 4BL,50.730558420000000,-1.740402421000000
blind snake and Dolphin,1598006,BH24 3PS,50.890356950000000,-1.795176909000000
king cobra and Nukupuʻu,295057,SP6 3BF,50.914214274497200,-1.829054846656950
Petrel and agama,307750,SO40 4XJ,50.890000763907700,-1.456523689185450
Herring gull and Minke whale,1599739,BH23 2LZ,50.747467310000000,-1.786076842000000
Shearwater and dukite,1595861,BH6 3BA,50.729301070000000,-1.790438369000000
Boto and Ground sloth,316617,SO16 9NF,50.934219819140900,-1.459139498180580
Skunk and flying dragon,308178,SO40 2UX,50.925351129279700,-1.513892298546880
dukite and Hawk,1600104,BH23 2EE,50.740575980000000,-1.799614027000000
krait and blindworm,1594756,BH8 9HZ,50.743544170000000,-1.847661330000000
python and Mole,1597346,BH25 6HF,50.749838770000000,-1.650782534000000
Tree warbler and Coati,1596176,BH5 2BL,50.726415680000000,-1.823872666000000
hognose snake and Songlark,1595783,BH6 5BG,50.727339790000000,-1.811004746000000
Kākāriki and American sparrow,307857,SO40 3HA,50.923593423360800,-1.504335483470880
worm lizard and Fish eagle,1598601,BH24 1EH,50.845112410000000,-1.793187471000000
python and Vole,1598612,BH24 1EX,50.840681570000000,-1.779771743000000
krait and gaboon viper,316634,SO16 8FH,50.945775527808400,-1.440145011595370
Dorcopsis and dukite,306217,SO41 9SX,50.764113354176400,-1.547055758823300
New World blackbird and bushmaster,1597325,BH25 6EH,50.750918340000000,-1.660073348000000
monitor and Mamo,317517,SO16 4QS,50.920254370431400,-1.449470808732430
Armadillo and krait,1598846,BH23 5LX,50.745179920000000,-1.695505651000000
ringhals and coral snake,1599790,BH23 2QQ,50.746848290000000,-1.807595486000000
Zebra and Eagle,303301,SO51 6AT,50.941904179190200,-1.546968326658840
Cuscus and sea snake,316653,SO16 8GG,50.945404454071500,-1.449102783551050
worm lizard and chameleon,1595582,BH7 6BD,50.732766750000000,-1.819456328000000
taipan and Tahr,1599086,BH23 7AF,50.771628000000000,-1.748046000000000
Quetzal and tiger snake,1598625,BH23 7EF,50.772663240000000,-1.696206673000000
Thicketbird and bicycle lizard,1597538,BH25 5QD,50.754273250000000,-1.636417548000000
Tattler and Tree warbler,306324,SO42 7SD,50.813321588502000,-1.578431556050400
Grouse and Wader,1599026,BH23 4QH,50.746413350000000,-1.717537740000000
king snake and smooth snake,1597562,BH25 5RJ,50.762349750000000,-1.654546048000000
frilled lizard and Schneider python,307648,SO40 4SD,50.895420308572800,-1.448227865892750
Capuchin and Asiatic leopard,307394,SO40 9EU,50.909113138141200,-1.493281388801560
bearded dragon and king cobra,1597318,BH25 7NL,50.740180370000000,-1.669206820000000
Snipe and gavial,1598677,BH23 7LB,50.757544160000000,-1.774448330000000
Parrotbill and Kestrel,1600124,BH23 2FG,50.739906520000000,-1.798285000000000
Tree warbler and viper,1598889,BH23 8EQ,50.789199310000000,-1.748604275000000
Kite and Civet,295210,SP6 1RF,50.931492897045300,-1.797913645928980
Asiatic leopard and dugite,1598265,BH24 1PF,50.842891720000000,-1.778710339000000
moloch and garter snake,317325,SO16 4AR,50.921526147200300,-1.454122236728530
Partridge and Flameback,306322,SO42 7SA,50.814262391851000,-1.577684000000000
saltwater crocodile and amphisbaena,1594780,BH8 9LP,50.749005760000000,-1.836615920000000
Duck and frilled lizard,306029,SO41 9GE,50.755465039328900,-1.552398655910020
Ibex and Skunk,1598159,BH24 2LS,50.832341830000000,-1.838001201000000
Elephant and mountain devil,306104,SO43 7EE,50.868498082272500,-1.577962828362550
Perching duck and leguaan,1599331,BH23 4BZ,50.727772640000000,-1.741282051000000
Goose and rattlesnake,1595606,BH7 6EE,50.740107430000000,-1.809805521000000
Argus and Ground sloth,1599377,BH23 4FJ,50.739656150000000,-1.716005299000000
Wader and Duck,307864,SO40 3HJ,50.922374789325900,-1.505358552694440
tortoise and king cobra,1598711,BH24 1JG,50.850309710000000,-1.778277542000000
Jay and monitor,1598626,BH23 7EG,50.784603190000000,-1.695349187000000
racer and cobra,1598765,BH23 8AE,50.782246940000000,-1.740045000000000
Snipe and whip snake,1595153,BH8 0HW,50.750612280000000,-1.834370699000000
taipan and king snake,1600117,BH23 2EW,50.742137080000000,-1.802767813000000
Booted eagles and diamondback turtle,317416,SO16 4GG,50.923082934182100,-1.439165263820230
Guillemot and coral snake,308024,SO40 3ZA,50.918118486356500,-1.488220000000000
sand lizard and boa constrictor,1599401,BH23 4JH,50.735914030000000,-1.738601534000000
blue tongue and leathery turtle,306386,SO41 8QG,50.754047342295600,-1.560322398942560
skink and frill-necked lizard,317494,SO16 4PN,50.919081559306400,-1.456341655962620
massasauga and dugite,1595605,BH7 6ED,50.739047960000000,-1.810830150000000
Crow and Skunk,306098,SO43 7DX,50.874688157662700,-1.591522627509330
Macaw and bushmaster,1596850,BH25 7QA,50.739524850000000,-1.675957123000000
chameleon and garter snake,307850,SO40 3GS,50.919925238136300,-1.498185948786530
Mamo and carpet snake,1598196,BH24 2PQ,50.828650240000000,-1.841151836000000
carpet snake and Old World warbler,306674,SO41 8FA,50.770187950967600,-1.548230875167500
Parrotlet and Viscacha,1598429,BH23 8JZ,50.770511990000000,-1.724383994000000
Towhee and Stilt,1599959,BH23 1NY,50.731080350000000,-1.780116000000000
Rabbit and Stilt,1812430,SO16 0AR,50.942540457100000,-1.460850815400000
Recurvebill and Thicketbird,1600111,BH23 2EP,50.743815000000000,-1.800068000000000
gopher snake and Philippine hawk-owl,1598575,BH24 1BY,50.851470490000000,-1.788386351000000
Argus and puff adder,307667,SO40 4TU,50.888170294455800,-1.457383766674170
flying dragon and horned viper,1595488,BH6 5LU,50.733885860000000,-1.799855083000000
