name,postcode,lat,lon
Dyke golf club,BN1 8YJ,50.872693400000000,-0.200489799000000
Cafe-Bar Orange,BN11 1BG,50.814367200000000,-0.370962977000000
KASPAS ,BN11 1BN,50.814870970000000,-0.370973842000000
CORNER HOUSE PUB & GARDEN,BN11 1DJ,50.815709000000000,-0.367814036000000
China Palace Worthing,BN11 1EG,50.812432410000000,-0.370719000000000
Fortune inn,BN11 1EG,50.812432410000000,-0.370719000000000
Pomodoro,BN11 1EG,50.812432410000000,-0.370719000000000
Wimpy Worthing,BN11 1EG,50.812432410000000,-0.370719000000000
the wildflower house ltd T/A Cafe Traditionale,BN11 1EG,50.812432410000000,-0.370719000000000
macmillans,BN11 1LG,50.814166470000000,-0.368826470000000
The Orchard Cafe Ltd,BN11 1LL,50.813781660000000,-0.367675870000000
Fernando's Grill Restaurant,BN11 1LY,50.813104530000000,-0.369417065000000
Brosis Cafe Ltd,BN11 1PN,50.813762530000000,-0.372744214000000
The happy teapot,BN11 1PN,50.813762530000000,-0.372744214000000
Lucifers Cafe/Bar,BN11 1QG,50.812220790000000,-0.372869000000000
The Hare & Hounds,BN11 1QG,50.812220790000000,-0.372869000000000
The Woods,BN11 1QG,50.812220790000000,-0.372869000000000
Small Batch Coffee Company Limited,BN11 1QN,50.811027530000000,-0.372668916000000
The Fat Greek Taverna,BN11 1QN,50.811027530000000,-0.372668916000000
cucinetta,BN11 1QN,50.811027530000000,-0.372668916000000
Shorely Scrumptious,BN11 1RL,50.810698820000000,-0.376186315000000
The Dining Room Worthing,BN11 1RL,50.810698820000000,-0.376186315000000
McDonald's Restaurant,BN11 1SX,50.810598870000000,-0.371165000000000
THE COFFEE HOUSE,BN11 1SY,50.811378330000000,-0.370740475000000
Aunty Bunny's Hut Ltd,BN11 1YJ,50.811054850000000,-0.371404669000000
Palm court pavilion limited,BN11 2DB,50.815093540000000,-0.366309949000000
Chipwick ,BN11 2EN,50.812384020000000,-0.359718740000000
Cocks kitchen,BN11 2EN,50.812384020000000,-0.359718740000000
Vals Cafe,BN11 2NW,50.816882290000000,-0.351540340000000
Rose Petal Cake Company,BN11 2QY,50.816100670000000,-0.351596250000000
Delightful Desserts,BN11 3AA,50.810844000000000,-0.369633115000000
HoneyBee Donuts,BN11 3AA,50.810844000000000,-0.369633115000000
Cafe Vita,BN11 3AL,50.809968000000000,-0.370108000000000
Toy’s flying wok(Worthing)ltd,BN11 3AL,50.809968000000000,-0.370108000000000
Issa Sushi,BN11 3AW,50.810985860000000,-0.370328299000000
Munch Coffee Bar and Kitchen,BN11 3AY,50.809971310000000,-0.370448767000000
burger mee,BN11 3AY,50.809971310000000,-0.370448767000000
Bungaroosh,BN11 3BA,50.809937330000000,-0.370892000000000
NRG Cavern,BN11 3BA,50.809937330000000,-0.370892000000000
S R SANDWICHES LTD,BN11 3BG,50.809741410000000,-0.372018101000000
Wine & Reason,BN11 3BG,50.809741410000000,-0.372018101000000
poppins cafe and restaurant,BN11 3BP,50.809889530000000,-0.375547257000000
LIMING LTD,BN11 3BT,50.809624900000000,-0.375272557000000
Malt,BN11 3BZ,50.809852270000000,-0.377393767000000
Mahaan Restaurant,BN11 3DA,50.809826180000000,-0.378104369000000
Bites cafe and kitchen ,BN11 3DF,50.811879660000000,-0.369289379000000
Jonny’s ,BN11 3DF,50.811879660000000,-0.369289379000000
The Continental,BN11 3DF,50.811879660000000,-0.369289379000000
Pitch Restaurant,BN11 3DJ,50.811684810000000,-0.368217378000000
The Grape Escape,BN11 3DJ,50.811684810000000,-0.368217378000000
Giuseppes Restaurant ,BN11 3DP,50.812030160000000,-0.368363000000000
halloumilicious,BN11 3DP,50.812030160000000,-0.368363000000000
FINCH Bar and Eatery,BN11 3DQ,50.811911120000000,-0.368323050000000
Giuseppes Lite,BN11 3DQ,50.811911120000000,-0.368323050000000
Le Spice ,BN11 3DQ,50.811911120000000,-0.368323050000000
Ardington hotel ,BN11 3DZ,50.811171220000000,-0.366219670000000
Egremont Pub,BN11 3ED,50.811896580000000,-0.365356882000000
Cow & Oak,BN11 3EE,50.812287910000000,-0.365045133000000
The Fish Factory,BN11 3EE,50.812287910000000,-0.365045133000000
Rocking Horse ,BN11 3EG,50.812118170000000,-0.367052509000000
Fioridilatte Worthing ltd,BN11 3EZ,50.811553150000000,-0.368449078000000
Coffee Me,BN11 3HF,50.810173220000000,-0.375253535000000
Pizzaface Worthing Ltd,BN11 3HG,50.810054280000000,-0.377046111000000
Floral Cafe ,BN11 3JJ,50.809730220000000,-0.379612250000000
Om Taste Of Nepal,BN11 3JN,50.809866840000000,-0.381679844000000
Ami Bistro,BN11 3JX,50.809769710000000,-0.383586000000000
Brunswick and Thorn Limited,BN11 3ND,50.809117540000000,-0.380825722000000
CrabShack,BN11 3PN,50.810704920000000,-0.364390684000000
The Beach House,BN11 3PS,50.810184860000000,-0.368354805000000
Brio Restaurant - Worthing,BN11 3PT,50.810123320000000,-0.368456307000000
Casa Ciro Limited,BN11 3PT,50.810123320000000,-0.368456307000000
Number 24,BN11 3PT,50.810123320000000,-0.368456307000000
Oregano Pizzeria,BN11 3PT,50.810123320000000,-0.368456307000000
Vintage Tea Room,BN11 3PT,50.810123320000000,-0.368456307000000
The Cow Shed,BN11 3PU,50.809954650000000,-0.369257049000000
The Lido Restaurant,BN11 3PX,50.809132040000000,-0.370008000000000
Boutique restaurant ,BN11 3QA,50.809550540000000,-0.371116000000000
Harry Ramsden's,BN11 3QA,50.809550540000000,-0.371116000000000
view cafe bar,BN11 3QB,50.809224840000000,-0.374748000000000
The Burlington Hotel (Worthing) Limited,BN11 3QL,50.808146470000000,-0.382136704000000
Istanbul Cafe,BN11 3RG,50.809514580000000,-0.384814667000000
Efesim restaurant ltd,BN11 4DP,50.817123690000000,-0.378391054000000
Shaan Restaurant ,BN11 4HN,50.818136040000000,-0.389798356000000
Cafe One22,BN11 4PL,50.812860430000000,-0.384841216000000
Marine Gardens Restaurant,BN11 5EF,50.806901370000000,-0.396174075000000
DELICE PERI PERI GORING LTD,BN12 4AD,50.813594880000000,-0.402914625000000
LEMON GRASS (GORING) LIMITED,BN12 4AJ,50.813810000000000,-0.401412257000000
The Lazybrunch Kitchen ,BN12 4AJ,50.813810000000000,-0.401412257000000
Mulakat Indian Dining,BN12 4PE,50.812460440000000,-0.421321283000000
The Verandah ,BN12 4PE,50.812460440000000,-0.421321283000000
Tides Restaurant,BN12 4UU,50.814629980000000,-0.430815814000000
Kingsley Coffee Ltd,BN12 5DP,50.814634210000000,-0.445238143000000
Restaurant andalucia,BN12 5JP,50.815624700000000,-0.446681602000000
The Durrington Cafe,BN12 6DH,50.820071110000000,-0.410899599000000
The Pit Stop Cafe ,BN12 6JH,50.823116100000000,-0.423661000000000
Highdown Garden Centre Limited,BN12 6PW,50.820012000000000,-0.458660000000000
THE HENTY ARMS,BN12 6QY,50.817539700000000,-0.445965048000000
The Park View,BN13 2JR,50.835574200000000,-0.412134170000000
The Coach & Horses,BN13 3UA,50.839853450000000,-0.424772000000000
coach and horses,BN13 3UA,50.839853450000000,-0.424772000000000
The Fox at Patching,BN13 3UJ,50.841070670000000,-0.470153010000000
Anaz Indian Restaurant ,BN14 0EJ,50.849273390000000,-0.397846763000000
Findon Garden Centre LTD,BN14 0RE,50.859587340000000,-0.410253055000000
The Black Horse,BN14 0SX,50.863379510000000,-0.408717282000000
Findon Manor Hotel,BN14 0TA,50.867340160000000,-0.408326635000000
The Gun,BN14 0TA,50.867340160000000,-0.408326635000000
Sylvan oak,BN14 0TE,50.868239400000000,-0.407002749000000
Tajdar,BN14 0TE,50.868239400000000,-0.407002749000000
Village House Hotel,BN14 0TE,50.868239400000000,-0.407002749000000
Le Deli  / Buzz Events and catering ltd,BN14 7AE,50.819726410000000,-0.378655830000000
SMILEYS CAFE ,BN14 7AX,50.824573170000000,-0.379907803000000
Worthing Mencap Buddys,BN14 7AX,50.824573170000000,-0.379907803000000
South By West,BN14 7LH,50.819016220000000,-0.391812000000000
George and Dragon,BN14 7NN,50.825425170000000,-0.393395467000000
The Old Bakehouse,BN14 7NN,50.825425170000000,-0.393395467000000
Zeera Bangladeshi Cuisine,BN14 8AG,50.821648360000000,-0.372654688000000
unclesams ,BN14 8AG,50.821648360000000,-0.372654688000000
Rens Kitchen,BN14 8PG,50.829392420000000,-0.365640470000000
NOORIS INDIAN CUISINE,BN14 9BT,50.828397470000000,-0.374890764000000
GIORGIO RISTORANTE,BN14 9BY,50.828846620000000,-0.375499957000000
KFC Broadwater,BN14 9DB,50.829291130000000,-0.375129531000000
Muldoons Broadwater,BN14 9DB,50.829291130000000,-0.375129531000000
The Cricketers PH,BN14 9DE,50.829713610000000,-0.376407064000000
Picnic Cafe,BN14 9JH,50.833963580000000,-0.367753028000000
Hillbarn Golf CLub Ltd,BN14 9QF,50.838262880000000,-0.379405408000000
The gardeners arms,BN15 0AR,50.834589740000000,-0.354069335000000
Hangtight limited TA Prithi Raj,BN15 8AS,50.822739000000000,-0.323790000000000
Meze meze,BN15 8AU,50.822064080000000,-0.324509953000000
Perch On Lancing Beach,BN15 8RA,50.819869000000000,-0.324361000000000
Naaz,BN15 9AE,50.827383780000000,-0.322331612000000
Crabtree Inn,BN15 9NQ,50.832399770000000,-0.329067625000000
Bengal tandoori ,BN16 1AF,50.816858890000000,-0.477545324000000
Bengal,BN16 1AF,50.816858890000000,-0.477545324000000
Ristorante al mare,BN16 1JJ,50.811141890000000,-0.481890086000000
Masala lounge ,BN16 1JN,50.810107440000000,-0.480490031000000
Penang Village,BN16 1NN,50.805115690000000,-0.481829926000000
The Seahorse Cafe,BN16 1NN,50.805115690000000,-0.481829926000000
Tudor Tavern,BN16 1NN,50.805115690000000,-0.481829926000000
Seaview Hotel,BN16 1PD,50.803780210000000,-0.480794614000000
Broadmark cafe,BN16 2NE,50.810134870000000,-0.504888468000000
KFC,BN16 2NE,50.810134870000000,-0.504888468000000
The Honeypot Cafe & Kitchen,BN16 2RD,50.809877570000000,-0.510787113000000
CAFE OASIS,BN16 3DA,50.810902890000000,-0.505871734000000
La cucina ,BN16 3DE,50.810722470000000,-0.506530417000000
Monsoon,BN16 3DR,50.810204260000000,-0.507497933000000
The Windmill Inn (Rustington) Ltd,BN16 3JN,50.817020720000000,-0.501857810000000
Lemongrass Thai Restaurant,BN16 3NR,50.810869240000000,-0.510272981000000
Angmering Manor,BN16 4AG,50.828600940000000,-0.480074317000000
The Spotted Cow,BN16 4AW,50.828377740000000,-0.475082000000000
Haskins Roundstone Garden Centre ,BN16 4BD,50.818801380000000,-0.472726315000000
The Lamb At Angmering,BN16 4EQ,50.829382000000000,-0.484039000000000
Lanes Health Clubs,BN16 4NB,50.822386120000000,-0.503687982000000
Out of Bounds (Rustington) Ltd,BN16 4NB,50.822386120000000,-0.503687982000000
Rustington Golf Centre Ltd,BN16 4NB,50.822386120000000,-0.503687982000000
Arcade Lounge ,BN17 5AP,50.808807810000000,-0.540712558000000
Harbour Lights Cafe,BN17 5AW,50.808108500000000,-0.545205212000000
PICCOLA ITALIA,BN17 5BG,50.809242350000000,-0.543821605000000
Wimpy LIttlehampton,BN17 5BG,50.809242350000000,-0.543821605000000
The Arun View Inn,BN17 5DD,50.810652000000000,-0.549995000000000
Ritas Cafe,BN17 5DE,50.808518080000000,-0.550656929000000
WEST BEACH CAFE,BN17 5DL,50.806039990000000,-0.545994000000000
The Boathouse in The Marina ,BN17 5DS,50.810421000000000,-0.554572000000000
BadSaint Restaurant,BN17 5EA,50.809347830000000,-0.542186062000000
east beach cafe,BN17 5GB,50.802628350000000,-0.532730699000000
Harbour Park Limited,BN17 5LL,50.803752860000000,-0.541366740000000
47 Mussel Row,BN17 5LP,50.805236610000000,-0.542796546000000
Burgers and Dogs,BN17 5LP,50.805236610000000,-0.542796546000000
Riverbreeze Restaurant ,BN17 5LP,50.805236610000000,-0.542796546000000
lonukul  limited  T/a thai kitchen ,BN17 5LP,50.805236610000000,-0.542796546000000
The Gravy Boat,BN17 5LW,50.806299690000000,-0.542947981000000
vardar restaurant,BN17 5NH,50.805141210000000,-0.535178230000000
vardar vip club,BN17 5NH,50.805141210000000,-0.535178230000000
Toast,BN17 5PL,50.804401150000000,-0.532107490000000
Bailiffscourt Hotel & Spa,BN17 5RW,50.798195220000000,-0.580009391000000
Edge by the Sea,BN17 5TJ,50.803166000000000,-0.531016000000000
The Fish Factory,BN17 6AU,50.810949000000000,-0.539965000000000
McDonald's Restaurant,BN17 7QQ,50.839956750000000,-0.541900079000000
The Brewhouse Project,BN17 7QQ,50.839956750000000,-0.541900079000000
PEBBLE HOTELS LIMITED,BN18 0AD,50.856628690000000,-0.580466288000000
Ship & Anchor Pub,BN18 0BJ,50.825482000000000,-0.580020000000000
Edgcumbe Tea & Coffee,BN18 0DF,50.825702000000000,-0.590747000000000
the black horse,BN18 0LP,50.848904150000000,-0.608884541000000
Norfolk Arms Hotel ,BN18 9AB,50.855830000000000,-0.553425000000000
The Burger Shop Co.,BN18 9AB,50.855830000000000,-0.553425000000000
Cockburn's Tea Rooms & Confectioners Ltd,BN18 9AG,50.854191330000000,-0.554072288000000
Motte & Bailey Cafe,BN18 9AG,50.854191330000000,-0.554072288000000
The Red Lion,BN18 9AG,50.854191330000000,-0.554072288000000
INDIAN ROYAL ,BN18 9AH,50.854496280000000,-0.553281457000000
La Campania Limited,BN18 9AJ,50.854784440000000,-0.554764317000000
china palace arundel,BN18 9AJ,50.854784440000000,-0.554764317000000
BELINDAS TEAROOMS LTD,BN18 9DG,50.854090460000000,-0.555368259000000
Butlers,BN18 9DG,50.854090460000000,-0.555368259000000
LG CAFE,BN18 9DG,50.854090460000000,-0.555368259000000
The Parsons Table,BN18 9DG,50.854090460000000,-0.555368259000000
Riverside Tearooms,BN18 9LP,50.897240520000000,-0.542472500000000
The Sportsman Inn,BN18 9NR,50.911382750000000,-0.522144801000000
The George At Burpham,BN18 9RR,50.870351100000000,-0.523840605000000
The Gather Inn,BN3 4LW,50.828513970000000,-0.200811722000000
17 Grams,BN3 5TD,50.834372810000000,-0.206338122000000
Colosseo Hove Limited,BN3 5TD,50.834372810000000,-0.206338122000000
Cafe an-an,BN3 7GB,50.837071530000000,-0.204629777000000
THE BLUE ANCHOR,BN41 1DF,50.831015920000000,-0.208525889000000
Small Batch Coffee Company Limited,BN41 1DU,50.830238410000000,-0.210018297000000
SK SUB LTD,BN41 1GA,50.834818460000000,-0.206661881000000
The Railway Inn,BN41 1GA,50.834818460000000,-0.206661881000000
Wimpy portslade ,BN41 1GA,50.834818460000000,-0.206661881000000
Mayberry Garden Centre,BN41 1SP,50.838890890000000,-0.222427374000000
Carats Cafe Bar ,BN41 1WD,50.828962010000000,-0.237828124000000
Hove Deep Sea Anglers Club,BN41 1WE,50.826631460000000,-0.202163000000000
Wheelies Cafe,BN41 1XD,50.836676450000000,-0.210524720000000
Boulder Brighton,BN41 1XQ,50.835574180000000,-0.210779909000000
Jolly Eaters' Cafe,BN41 2TQ,50.845350770000000,-0.222011415000000
Bake Out Southwick Ltd,BN42 4FJ,50.834448010000000,-0.236641609000000
Subway,BN43 5DA,50.831919090000000,-0.275633042000000
Tom Foolery Coffee Company,BN43 5DA,50.831919090000000,-0.275633042000000
Calcutta 16,BN43 5DB,50.832509700000000,-0.278165000000000
The Indian Cottage Tandoori,BN43 5DB,50.832509700000000,-0.278165000000000
Chambers Bistro,BN43 5DD,50.831702140000000,-0.276166465000000
Crown & Anchor ,BN43 5DD,50.831702140000000,-0.276166465000000
TOSCA RISTORANTE,BN43 5DD,50.831702140000000,-0.276166465000000
The Bridge Inn,BN43 5DE,50.832102910000000,-0.277727998000000
THE ROYAL SOVEREIGN PUB ,BN43 5DP,50.832685620000000,-0.275775208000000
Hummingbird Restaurant LLP,BN43 5FF,50.833363000000000,-0.291173000000000
Ricardo Ltd.,BN43 5FG,50.841300350000000,-0.290385748000000
The Harbour Club,BN43 5HG,50.829582110000000,-0.263153000000000
Into The Blue Restaurant ,BN43 5RA,50.829086230000000,-0.271988632000000
Brio Restaurant - Shoreham,BN43 5WB,50.833672050000000,-0.272674000000000
La Patisserie Shoreham Ltd,BN43 5ZE,50.832190770000000,-0.274543762000000
THE TAP HOUSE,BN43 5ZE,50.832190770000000,-0.274543762000000
Teddys,BN43 5ZE,50.832190770000000,-0.274543762000000
Toast by the Coast,BN43 5ZE,50.832190770000000,-0.274543762000000
The Tides Pizzeria,BN43 6BF,50.841529660000000,-0.260265435000000
CAFE ARTISAN,BN43 6DA,50.832853100000000,-0.273113430000000
McDonald's Restaurant,BN43 6PW,50.833338890000000,-0.265480000000000
cythereas taverna,BN43 6RE,50.832478000000000,-0.268342000000000
McDonalds Holmbush Centre,BN43 6TD,50.842098000000000,-0.251892000000000
The Fountain Ashurst,BN44 3AP,50.932769370000000,-0.320677402000000
Springwells,BN44 3GG,50.887322700000000,-0.326803000000000
THE KINGS HEAD,BN44 3HZ,50.882372910000000,-0.305828574000000
The Star Inn,BN44 3RD,50.889390000000000,-0.330243000000000
The cobblestone tea house ,BN44 3RD,50.889390000000000,-0.330243000000000
Truffles Bakery and Confectioners Ltd,BN44 3RD,50.889390000000000,-0.330243000000000
Truffles Bakery,BN44 3RD,50.889390000000000,-0.330243000000000
The Rising Sun,BN44 3TN,50.877876030000000,-0.300860124000000
subway,BN44 3TQ,50.881074060000000,-0.300615861000000
The Castle Inn Hotel,BN44 3WE,50.882781170000000,-0.312282155000000
The Old Tollgate Restaurant Limited,BN44 3WE,50.882781170000000,-0.312282155000000
Steyning Tearooms,BN44 3YE,50.888146000000000,-0.328766000000000
The White Horse (Steyning) Ltd,BN44 3YE,50.888146000000000,-0.328766000000000
The Royal Oak Poynings,BN45 7AQ,50.893619160000000,-0.206807485000000
Rushfields Plant Centre Ltd,BN45 7AY,50.903569850000000,-0.204149574000000
The Bull Inn,BN5 9AD,50.949581870000000,-0.279582612000000
The Wheatsheaf Pub,BN5 9BD,50.949231070000000,-0.241541167000000
Truffles Bakery and Confectioners Ltd,BN5 9DA,50.930503660000000,-0.272630401000000
The George,BN5 9DB,50.930262390000000,-0.272127031000000
Relish,BN5 9DD,50.929227480000000,-0.272079995000000
relish ,BN5 9DD,50.929227480000000,-0.272079995000000
Henfield Haven CIO,BN5 9DT,50.928276360000000,-0.274050539000000
Christina's,BN5 9HN,50.931579940000000,-0.272433987000000
Goodness Henfield,BN5 9HN,50.931579940000000,-0.272433987000000
The White Hart,BN5 9HP,50.931663710000000,-0.272018178000000
Tottington Manor,BN5 9LJ,50.891001290000000,-0.272954567000000
The Shepherd and Dog Pub,BN5 9LU,50.888937740000000,-0.227506000000000
THE FOX PUB,BN5 9XE,50.901533260000000,-0.274483000000000
Fuel Coffee House,BN5 9XH,50.883696680000000,-0.281953639000000
golding barn cafe,BN5 9XH,50.883696680000000,-0.281953639000000
Country Club & Leisure Ltd t/a Wickwoods,BN6 9DY,50.919507000000000,-0.222991218000000
The Ginger Fox,BN6 9EA,50.913400690000000,-0.214781921000000
Singing Hills Golf Course Ltd,BN6 9EB,50.920655240000000,-0.208713520000000
The Elmer Hotel,PO22 6HD,50.793412067854900,-0.610730991934544
The Labouring Man,RH20 1LF,50.940958000000000,-0.540441933592819
The Squire & Horse,RH20 1NS,50.908744000000000,-0.566479000000000
WHITE HORSE INN SUTTON,RH20 1PS,50.929350000000000,-0.607568000000000
The West Sussex Golf Club Limited,RH20 2EN,50.939458000000000,-0.477858000000000
ROUNDABOUT HOTEL,RH20 2PF,50.938507955105000,-0.459699042027933
The Roundabout Hotel,RH20 2PF,50.938507955105000,-0.459699042027933
Squire's Garden Centre Washington,RH20 3BP,50.918193000000000,-0.404060000000000
Jungle Tearoom,RH20 3DE,50.927413000000000,-0.390425000000000
The White Lion Inn,RH20 3EP,50.944784000000000,-0.425143000000000
GREENBELL TRADING LIMITED,RH20 3JT,50.934961510682700,-0.390122174817850
The frankland arm,RH20 4AL,50.905599207209200,-0.405201753486076
Halcyon Days,RH20 4DR,50.917858495866000,-0.452783807356967
The Moon Pub,RH20 4DR,50.917858495866000,-0.452783807356967
Joanna's Boutique Tearoom,RH20 4DU,50.917527218746700,-0.452894379720036
Cottage tandoori,RH20 4DZ,50.918022785609300,-0.456363505684824
Golden Willow Restaurant ,RH20 4HJ,50.919641346761000,-0.463607000000000
The Old Forge Restaurant,RH20 4LA,50.917204323667100,-0.454767000000000
