name,postcode,lat,lon
Minke whale and Armadillo,RG9 3NG,51.509437498464100,-0.881801434148288
Egret and Bunting,GU19 5DT,51.359426048294200,-0.695754589041677
Siskin and Thicketbird,SL6 4QL,51.515063613601500,-0.752218748397841
Macaw and Thrasher,RG42 9TT,51.416008000000000,-0.770719000000000
Myna and New World blackbird,RG42 6BZ,51.433638000000000,-0.751688000000000
New World blackbird and Piping shrike,RG12 9YW,51.406769934227300,-0.722717861734384
Siskin and Peafowl,RG27 0NL,51.348403824854800,-0.860667976285861
Grouse and Snipe,SL6 4NJ,51.514996438968700,-0.756054082306242
Puffleg and Logrunners,RG41 1HS,51.422523499101800,-0.862349876727297
Fulmarine petrel and Petrel,SL1 6JB,51.521051907086900,-0.646734721020459
Lemming and Perching duck,RG12 1FB,51.415598000000000,-0.771207000000000
Chickadee and Asiatic leopard,RG40 3BF,51.395826000000000,-0.812358000000000
Mouse and Asiatic leopard,RG41 5JT,51.432454779093200,-0.871151755572086
Bronzewing pigeon and Warbler,RG12 7BX,51.406913997315500,-0.754488466388633
Chipmunk and Warbler,GU46 7RS,51.346386323324600,-0.844722553847096
Warbler and Parrotbill,RG42 2AJ,51.419134071704800,-0.755321291771964
Kangaroo and Vole,SL6 2FF,51.493078987119400,-0.688804168828421
Mockingbird and Parakeet,RG41 4BX,51.407836371881000,-0.852793646051007
Macaw and Linsang,RG45 6JB,51.370915091897400,-0.808635113148995
New World blackbird and American sparrow,RG42 6NB,51.435382477841400,-0.712827770570580
Greenbul and Recurvebill,RG40 3TQ,51.362078185590300,-0.856709181839870
Fulmarine petrel and Hawk,SL4 1RY,51.482933134428600,-0.618066125416065
Maya and Grackle,SL2 5FY,51.512432108204500,-0.589029020782086
Duck and Goose,SL4 4NL,51.473446946737600,-0.643521700108379
Vulture and Petrel,RG12 7AW,51.406104000000000,-0.758493000000000
Egret and Marmoset,RG12 7UP,51.416007000000000,-0.770736000000000
Kestrel and Herring gull,GU20 6DS,51.366127410567800,-0.657726963335527
Moluccan boobook and Dorcopsis,SL4 6PS,51.495148154180400,-0.619151764861563
Crow and Treepie,SL5 9GE,51.397280130541800,-0.648664959618004
Fish eagle and Darwin's finches,SL5 9RJ,51.391048384116700,-0.631601173375585
Puffleg and Parakeet,RG6 3AQ,51.433503613812900,-0.903983148485963
Chicken and Moluccan boobook,RG12 1DH,51.416057131214200,-0.747567472568472
Rabbit and Peafowl,RG10 8JU,51.502296711609100,-0.864816846186797
Magpie and Chicken,RG41 5DL,51.416544552452100,-0.894379882946546
Mamo and Armadillo,GU18 5YU,51.344996772153000,-0.676794795859225
Capuchin and Triller,RG10 0DT,51.460162596055700,-0.856678757794603
Scimitar babbler and Jay,RG9 1EA,51.529602021053600,-0.898477162795230
Solitaire and Ibex,SL6 6SW,51.531322000000000,-0.752207000000000
Fish eagle and Siskin,GU25 4QE,51.408690771467800,-0.592094863845866
Argus and Puffleg,RG41 4DU,51.393906592746200,-0.858201487962129
Chickadee and Ibex,RG12 8SD,51.397610713518300,-0.765019039744642
Grackle and Diving bird,SL6 0PL,51.520744966746700,-0.659946669211848
Thrasher and Boto,SL4 1TA,51.481289605654800,-0.613665827815741
Fulmarine petrel and Grackle,RG42 5SF,51.447880324291100,-0.754352858705060
Tattler and Mamo,RG9 2LT,51.536329885661300,-0.895820441651279
Crow and Tit-tyrant,SL6 6JS,51.528642848730600,-0.734721438304348
Pratincole and B,SL6 8PG,51.525306985380100,-0.714878026124185
Pheasant and Civet,RG41 2YB,51.411516109638000,-0.845670250796996
Argus and Argus,SL4 3RB,51.475835037499800,-0.633126466288952
Rabbit and Mockingbird,RG12 8PE,51.411695000000000,-0.774508107010447
Black cockatoo and Solitaire,RG41 2GZ,51.404305000000000,-0.848368000000000
Kākāriki and Bunting,RG40 4AP,51.375234000000000,-0.900729000000000
Black cockatoo and Hawaiian honeycreeper,GU46 7PN,51.347056582665400,-0.842480090308720
Cloud rat and Marmoset,RG41 3YZ,51.408775911753100,-0.857845608098522
Hawk and Armadillo,SL5 0LS,51.402244123249500,-0.636055000000000
Old World quail and Herring gull,SL6 1XN,51.516695702661700,-0.710234613969108
Flameback and Solitaire,SL6 0DA,51.528122271413900,-0.692165875995684
Wader and Kākāriki,SL5 7FX,51.409795066600000,-0.666760000000000
Scimitar babbler and Marmoset,RG12 9BJ,51.412061262459100,-0.734692168394581
Armadillo and Capuchin,SL5 0QD,51.402956000000000,-0.639383000000000
Jay and Ibex,RG45 6QP,51.377934329327300,-0.799472620067743
Greenbul and Tattler,SL5 8ER,51.417917000000000,-0.687288000000000
Parrotlet and B,RG45 7EQ,51.367812785588300,-0.793689476538698
Mockingbird and Guillemot,SL5 0PU,51.408864927110300,-0.624640000000000
Hawk and Hawaiian honeycreeper,RG40 2LJ,51.406200178482000,-0.818429661985557
New World blackbird and Warbler,RG40 1ST,51.410404067642700,-0.798536272979853
Thicketbird and Flameback,SL5 0LA,51.398932198431800,-0.616846898237657
Capuchin and Mink,SL1 6LT,51.524053390101400,-0.644238510140158
Bunting and Logrunners,GU20 6BN,51.363890207178600,-0.664184461454572
Badger and Cloud rat,SL4 3QZ,51.477735582100200,-0.631860056533078
Old World warbler and Solitaire,RG42 1TH,51.423554488795700,-0.763471364504472
Hawaiian honeycreeper and Mole,SL6 6QP,51.529451157862700,-0.799528000000000
Black cockatoo and American sparrow,SL5 0FJ,51.398339000000000,-0.645971000000000
Greenbul and Triller,SL4 6DL,51.491692528365600,-0.607516511623307
Triller and Perching duck,SL4 1HZ,51.476544695622700,-0.610872128406110
Siskin and Treepie,SL1 4NB,51.523238619587500,-0.634460913049117
Rabbit and White ibis,GU19 5NG,51.360892852192000,-0.686994412763983
Myna and Pitohui,RG40 4NZ,51.361560000000000,-0.858747000000000
Treepie and Philippine hawk-owl,RG42 5LD,51.434463432530900,-0.787734240517843
Chickadee and Buzzard,GU18 5YP,51.345142479804400,-0.670602133352111
Perching duck and New World blackbird,SL2 4FF,51.533124000000000,-0.584320000000000
Moluccan boobook and Skunk,SL1 5EW,51.516838089432200,-0.637707735759681
Old World vulture and Perching duck,RG10 8AY,51.504162481955000,-0.859713249191321
Old World vulture and Black jay,SL5 9RZ,51.387324000000000,-0.639890000000000
Treepie and Armadillo,SL4 3RT,51.471789938209500,-0.629388635628771
Kite and Hawaiian honeycreeper,RG12 9JD,51.405450505689200,-0.730388915927147
Moluccan boobook and Old World vulture,GU19 5LA,51.360096679688500,-0.688166219220567
Armadillo and Dolphin,SL6 5EU,51.528891043084100,-0.752864365891816
Linsang and Scimitar babbler,SL6 3FG,51.514991000000000,-0.777437000000000
Black jay and Lemming,GU24 8RQ,51.357885339965800,-0.602672485925413
Coati and Linsang,SL5 5EE,51.401788000000000,-0.653402000000000
Linsang and Bunting,RG41 5PS,51.422501133466800,-0.883406253484905
Grosbeak and Booted eagles,SL6 8ST,51.530449678905700,-0.712354508507465
Bunting and Old World warbler,RG42 5LT,51.433351552934000,-0.788036998117996
Black cockatoo and Rabbit,RG5 3QG,51.443623854175300,-0.904446005149915
Mouse and Egret,GU20 6EN,51.365378145009300,-0.653554361307523
Piping shrike and Wader,RG5 4FE,51.460075000000000,-0.877131000000000
Zebra and Mouse,SL6 1BR,51.519559223068700,-0.719796000000000
Mink and Ibex,RG9 1SZ,51.530852502936900,-0.913007635089094
Ibex and Gull,RG40 1QJ,51.417542375589100,-0.820538899512528
Towhee and Fox,RG12 9AH,51.412186559346800,-0.743833950269577
Mink and Eagle,SL1 4WA,51.508269603950500,-0.584618526220629
Mockingbird and Fish eagle,SL1 2PN,51.506679189755700,-0.604984819664068
Jerboa and Tit-tyrant,RG12 9RG,51.406351000800000,-0.744468393700000
Armadillo and Tattler,RG40 2AL,51.409713626729900,-0.839791728184146
Boto and Buzzard,RG41 4ED,51.395499958057900,-0.855617640014968
River dolphin and Parrotbill,SL1 2PJ,51.506696398622600,-0.606654000000000
Jay and Mink,RG42 2EX,51.426903255611600,-0.755326002897245
Philippine hawk-owl and Cuscus,SL4 1SZ,51.481886783876900,-0.613978953629050
Piping shrike and Crow,RG42 1QA,51.420633678371200,-0.772496000000000
Piping shrike and Jay,RG45 6NF,51.372924879979900,-0.796758975766763
Partridge and Jackal,RG5 4NF,51.451226234755900,-0.891498920370353
Capuchin and Cuscus,RG40 2ES,51.411247317918700,-0.827645878549756
Prion and Macaw,SL6 2WS,51.518545000000000,-0.714794000000000
Herring gull and Ibex,RG40 9SG,51.411756459998100,-0.839049834500358
Argus and Buzzard,RG41 2QD,51.407657229823200,-0.845537359815225
Elephant and Old World vulture,SL6 6JW,51.527286154657700,-0.732322811654721
New World blackbird and Tahr,SL1 3RA,51.516508259609400,-0.597507248150904
Mamo and Vole,SL6 4PL,51.515489004826700,-0.748258290626894
Tahr and Meadowlark,SL1 3NB,51.521984813440000,-0.597540825863604
Cuscus and Treepie,GU46 7QN,51.343263861628800,-0.830902883869821
Vole and Recurvebill,RG10 9QW,51.476244067506400,-0.881331587578363
Jerboa and Skunk,SL6 1DR,51.521798271019900,-0.723769224440475
New World blackbird and Chicken,RG42 2JZ,51.428241157379500,-0.744184948274270
Night heron and Bronzewing pigeon,GU47 8AD,51.346187000000000,-0.809332000000000
Mole and Bunting,RG2 9GF,51.385258000000000,-0.887125000000000
Magpie and Civet,SL4 2EN,51.434985071672300,-0.673146514379708
Grosbeak and Duck,RG41 2TT,51.408392256560200,-0.849875383800576
Stilt and Masked owl,SL5 7PA,51.418244088487100,-0.682921562659443
Mink and Old World quail,RG42 4BY,51.421565000000000,-0.790765000000000
Tahr and Bunting,SL6 3HW,51.505307141460900,-0.742355000000000
Marmoset and Elephant,SL5 9BX,51.400644256296800,-0.662869743357433
Masked owl and Flameback,RG27 0PW,51.347876160123400,-0.900498577563339
Warbler and Night heron,RG45 6BY,51.371458773595600,-0.825975677605974
Herring gull and Condor,SL1 9DU,51.506913919135000,-0.627167938432674
Macaw and Stilt,RG6 7YA,51.434403412533900,-0.904047936242636
Condor and Thrasher,RG12 9SY,51.405674776683800,-0.746212076711632
Linsang and Guillemot,RG45 6PF,51.377606000000000,-0.790096000000000
Greenbul and Warbler,RG12 1GR,51.416007000000000,-0.770736000000000
Pheasant and Scimitar babbler,RG42 6LE,51.443143806451700,-0.710480025503712
Cuscus and Condor,RG6 3AR,51.430390692279300,-0.907653828891986
Marmoset and Ground sloth,RG45 7EA,51.369614291409800,-0.794863245501566
Solitaire and Kākāriki,SL1 1FG,51.507042000000000,-0.588487000000000
Scimitar babbler and Pratincole,GU20 6LL,51.382983949609000,-0.657392019184078
Night heron and Diving bird,RG12 2BH,51.425544495533600,-0.766294355399821
Jay and Goose,SL1 3UH,51.511796544424600,-0.610362287761932
Bronzewing pigeon and Crow,RG12 1LE,51.417594000000000,-0.752341000000000
Tahr and Cloud rat,SL5 9AP,51.398697348792200,-0.662466501854315
Jerboa and Recurvebill,RG40 3PJ,51.382396453172700,-0.846230410501112
Rat and Myna,RG40 2YF,51.409713000000000,-0.834950392119590
Dolphin and Bronzewing pigeon,RG12 1BX,51.416645991100000,-0.762133506800000
Greenbul and New World blackbird,RG12 2LF,51.424192010571000,-0.742253528901570
Argus and Argus,SL4 4ND,51.475437987326300,-0.654780504984422
Treepie and Vole,RG45 6HA,51.372242273936500,-0.809160973339028
Skunk and Towhee,GU19 5RE,51.356695034619600,-0.689541591268202
Rat and Treepie,GU47 8LR,51.353923238422300,-0.809836962866108
Grouse and Capuchin,SL1 1XB,51.510558032595400,-0.586478618367763
American sparrow and Linsang,SL1 3ET,51.520477304031100,-0.604794000000000
Capuchin and Zebra,SL6 6SL,51.532890250349500,-0.747593700368359
Wallaby and Tit-tyrant,RG12 2JG,51.421968187869600,-0.747031984606230
Shearwater and Fish eagle,SL1 2ST,51.505271369176500,-0.606828904748203
Rat and Snipe,RG12 8WY,51.398624634227500,-0.770799246127234
Scimitar babbler and Old World quail,GU47 8NA,51.354336274888900,-0.811549594021466
Linsang and Boto,RG12 7BZ,51.392758150590100,-0.756110000000000
Stilt and Gull,RG40 3RH,51.375867482895000,-0.858089906214072
Wallaby and Old World quail,GU24 8RT,51.357630436755500,-0.595642668003372
Jackal and Black jay,RG12 7RD,51.390753360722100,-0.765361742847796
Shearwater and Wallaby,GU18 5RH,51.353538226571900,-0.676692383719456
Grouse and Myna,SL2 1QJ,51.533849189634700,-0.624454726336743
Partridge and Black jay,RG12 8TD,51.411702355715100,-0.789256491677353
Perching duck and Coati,SL6 1LJ,51.522379723212300,-0.720856000000000
Kangaroo and Old World warbler,RG45 7LL,51.366074499818800,-0.789928472691410
Linsang and Badger,RG40 4PA,51.360755912164500,-0.863133656601273
Treepie and Songlark,RG42 1XU,51.420364582781300,-0.758581316233665
Meadowlark and Dolphin,SL4 3JE,51.472323412319000,-0.609776471421971
Grackle and Grosbeak,RG40 3JB,51.389057000000000,-0.846786293781549
Boto and Hawaiian honeycreeper,RG42 6AS,51.433822867395700,-0.739485000000000
Francolin and Triller,SL5 8LE,51.419486682934300,-0.696749773161473
Crow and Darwin's finches,GU47 0PL,51.350386001168000,-0.776340822200021
Thicketbird and Skunk,RG40 5QT,51.434737000000000,-0.842243317271554
Tahr and Elephant,SL6 3NQ,51.500379460482000,-0.762373315365275
Wader and Meadowlark,RG40 1PU,51.419106000000000,-0.824756000000000
Black jay and Jackal,RG5 4UX,51.454140709739600,-0.887815872736014
Kite and Tattler,RG2 9YT,51.383322000000000,-0.900162000000000
Chipmunk and Philippine hawk-owl,SL1 5FU,51.508819162100000,-0.633811361100000
Bronzewing pigeon and Lemming,RG12 9AZ,51.414589035295500,-0.741467302369825
Greenbul and Skunk,RG40 1RN,51.412399868418000,-0.816170498682822
Lemming and Jay,RG40 3SJ,51.366402911154900,-0.852981571499673
Vole and Tattler,SL5 0AR,51.402505618969700,-0.644083044719580
Asiatic leopard and Grouse,GU25 4PB,51.403544000000000,-0.590211000000000
Quetzal and Masked owl,RG42 9SY,51.416008000000000,-0.770719000000000
Skunk and Nukupuʻu,RG12 9TF,51.413833000000000,-0.736193000000000
Minke whale and American sparrow,RG2 9FQ,51.385931145397000,-0.903452765323763
Recurvebill and Mamo,SL2 1PY,51.529985408515800,-0.623158344552000
Black jay and Zebra,RG42 5HZ,51.438743562144200,-0.786858408138939
Night heron and Mamo,RG6 7DZ,51.440708646282900,-0.916831931833231
Egret and Scimitar babbler,SL6 6NZ,51.529716651491400,-0.763754943618545
Polecat and Darwin's finches,SL6 6QJ,51.529642275294300,-0.764376857141133
Capuchin and Vole,RG40 2LY,51.409019653643500,-0.812691980688509
Kangaroo and Jackal,SL5 8NB,51.416801708021300,-0.694654619209474
Elephant and Asiatic leopard,SL4 1GF,51.479565678468000,-0.611601196041227
Fox and Nukupuʻu,SL6 7TN,51.529890307186500,-0.719578487995033
Herring gull and Guillemot,GU20 6AT,51.361124688212200,-0.644184851488010
Greenbul and Marsh harrier,RG9 1NJ,51.527113709185500,-0.902573484840503
Ibex and Puffleg,SL2 2LG,51.530517477135100,-0.652725365165182
Condor and Lemming,RG5 3AR,51.460474740222500,-0.911211020670143
Buzzard and Dorcopsis,SL5 0HT,51.390782063556300,-0.622930000000000
Mamo and Magpie,RG9 1FB,51.535536164200000,-0.903899405300000
Treepie and Egret,GU20 6PA,51.369005077090700,-0.668776380803903
Marsh harrier and Recurvebill,RG41 3TY,51.415587609198600,-0.859257713430843
Hawk and Grouse,SL1 5NR,51.517734312752200,-0.651459497226112
Viscacha and Bronzewing pigeon,SL6 3DB,51.509285912166000,-0.746699088959610
Parakeet and Elephant,SL5 0HA,51.396478894451400,-0.649364167988677
Marsh harrier and Parrotbill,RG41 1HA,51.416437657909600,-0.854217761594374
Jackal and Grosbeak,RG40 1QR,51.412283848335700,-0.833299167730712
Tattler and Logrunners,RG41 5DE,51.435674663902300,-0.873100905309744
Francolin and Mouse,RG42 1UR,51.418964181946700,-0.766471498297043
Wader and Egret,GU25 4JP,51.389716000000000,-0.585922000000000
Myna and Guillemot,SL4 5PL,51.484053097336100,-0.642357334478299
Polecat and Marsh harrier,SL6 2AW,51.505578823648600,-0.700202999279134
Cloud rat and Parrotbill,RG12 7LA,51.401514546569100,-0.757481555039598
Cloud rat and Stint,SL2 1HB,51.528710064121700,-0.617170860283603
Ibex and Stint,SL1 7PP,51.525167335824500,-0.664530563705239
Philippine hawk-owl and Pheasant,SL5 0JZ,51.398344000000000,-0.617152000000000
Cuscus and Polecat,SL5 7NB,51.425151813299300,-0.678952000000000
Tree warbler and Shearwater,SL6 2BP,51.506878304110400,-0.698998885869040
Myna and Gull,GU46 7UX,51.342308339695700,-0.818120457058265
Ground sloth and Capuchin,SL5 0WL,51.401786147432200,-0.653434446641934
Philippine hawk-owl and American sparrow,SL2 2PJ,51.532418668722300,-0.637487837259617
Thrasher and Towhee,RG40 1XH,51.411410737939600,-0.830503112421561
Old World quail and Viscacha,RG12 9JT,51.406766241752700,-0.728167084453460
Parrotbill and Mole,RG41 3AZ,51.411664084118800,-0.867292553401840
Mamo and Piping shrike,RG42 6HL,51.458597478997800,-0.741596076130477
Kangaroo and Crow,SL1 3HL,51.521697000000000,-0.608721000000000
Flameback and Wallaby,SL1 1XU,51.510092822660100,-0.594159302709540
Buzzard and Lemming,RG6 4EQ,51.427286769560600,-0.917163635381397
Jackal and Treepie,GU19 5HD,51.363053028997700,-0.692807513381397
Buzzard and Stint,RG12 0QN,51.395986154400700,-0.734115096400967
Shearwater and Recurvebill,RG12 9LQ,51.408713943702700,-0.734052000000000
Civet and Stilt,RG45 6JX,51.380081248305900,-0.796356000000000
Towhee and Ibex,RG41 4ET,51.399163000000000,-0.866969000000000
Eagle and Macaw,SL1 5SX,51.515703871875000,-0.632192939432050
Civet and Armadillo,TW20 0XY,51.440979000000000,-0.592512000000000
Bronzewing pigeon and Egret,GU19 5BA,51.360942136678700,-0.693011231481960
B and Kākāriki,SL6 6NT,51.535742405449500,-0.756209610508741
Crow and Songlark,SL2 5AN,51.516104385048800,-0.590817974774619
Vole and Rat,RG45 7ND,51.369633035064200,-0.796687223359955
Skunk and Tattler,GU24 8PN,51.351194620964900,-0.596614881548662
Jay and Piping shrike,RG2 9JQ,51.409135608148900,-0.897290406213703
Night heron and Masked owl,RG12 7AZ,51.407265602362000,-0.752882985055014
Tattler and Diving bird,TW20 0XB,51.432408250213900,-0.590272658391785
Ice seal and Kite,SL4 6NL,51.499024354145900,-0.641538009305411
Greenbul and Old World vulture,SL4 5FQ,51.478781863100000,-0.631166432300000
Armadillo and Viscacha,RG42 6NA,51.435566000000000,-0.713010000000000
Fox and Stilt,RG41 5TU,51.439266000000000,-0.880825000000000
Grosbeak and Diving bird,SL1 0HT,51.508269603950500,-0.584618526220629
Grackle and Mockingbird,RG41 5JG,51.433051895349300,-0.877150265587208
Siskin and Meadowlark,SL4 2DU,51.428683974112800,-0.668596493603006
Old World vulture and Lemming,SL5 7FG,51.404676000000000,-0.653631489802957
Cloud rat and Puffleg,SL6 1LL,51.521826000000000,-0.722096000000000
River dolphin and Parrotlet,SL6 7HR,51.532752377209900,-0.724774930051602
New World blackbird and Stilt,SL6 6AE,51.523092683279900,-0.727869930919224
Argus and Nukupuʻu,RG12 8TF,51.415199519513800,-0.790055691796934
Peafowl and Snipe,SL4 5HW,51.484037569162300,-0.640240697308707
Thrasher and Hawaiian honeycreeper,RG12 2PA,51.417557000000000,-0.738884000000000
B and Condor,SL5 7DZ,51.408218280230600,-0.666257771914869
Old World vulture and Armadillo,SL5 8BY,51.416706430432200,-0.685324200945186
Perching duck and New World blackbird,SL1 9DJ,51.508322642886100,-0.626909457364514
Macaw and Kākāriki,SL1 3GF,51.514576424407300,-0.602149500417246
Chickadee and Meadowlark,SL5 9DG,51.403606157617700,-0.669497296760376
Marsh harrier and Siskin,RG42 2QQ,51.427926181009200,-0.746682055894469
Siskin and Peafowl,GU20 6BZ,51.359539117210700,-0.655635822679000
Mamo and Parakeet,SL1 5BU,51.518758733928700,-0.633528322943605
Hawaiian honeycreeper and Tree warbler,SL5 7AW,51.402770000000000,-0.660712509218752
Wader and Old World vulture,SL4 1QW,51.485454000000000,-0.607481369677336
Black jay and Pheasant,RG12 9RA,51.409700854582000,-0.750199851446086
Parakeet and Bronzewing pigeon,RG6 1BD,51.459965263924000,-0.917369431608641
Grouse and Kangaroo,RG41 5NE,51.431624438527800,-0.877386646477691
Marsh harrier and Francolin,SL1 2TA,51.505323852665700,-0.616582049195032
Philippine hawk-owl and Vulture,SL1 6DD,51.521528635647800,-0.647527767257976
Condor and Macaw,RG12 7LX,51.399027314016700,-0.754429530171621
Bunting and Crow,SL4 4BD,51.447811000000000,-0.670976000000000
Vole and Partridge,RG42 2EL,51.424651639792100,-0.759227480854460
Black jay and Eagle,SL1 1UX,51.510019321281500,-0.585054259397501
Rabbit and Parrotlet,RG10 9QQ,51.475025558620700,-0.883679611153905
Towhee and Stilt,RG40 3LS,51.382104939859200,-0.834037813634975
Warbler and Scimitar babbler,RG40 9QU,51.410738000000000,-0.835060000000000
Goose and Pitohui,SL4 2FD,51.460634219900000,-0.585574340700000
Duck and Dorcopsis,SL1 0DX,51.508271000000000,-0.584618000000000
Tahr and Argus,RG10 0RR,51.446042000000000,-0.839735000000000
Tree warbler and Treepie,RG12 9NE,51.402976842146900,-0.735302260999198
Polecat and River dolphin,SL4 3AP,51.479505000000000,-0.613248552066382
Mink and Asiatic leopard,SL4 5GG,51.481127000000000,-0.624757000000000
Badger and Warbler,SL1 9AT,51.511213295316400,-0.627269291149634
Bunting and Parrotbill,SL6 7PG,51.533530548831700,-0.726050766481630
Piping shrike and Tattler,SL4 5RS,51.481180055678200,-0.653661111773822
Greenbul and Kangaroo,SL4 3FF,51.475101152105700,-0.631881267798170
Jackal and Goose,GU18 5XS,51.350596623613700,-0.671822883068972
Grackle and Lemming,RG9 1BH,51.536966000000000,-0.901266615540663
Pitohui and Ice seal,RG12 9FL,51.412926740672900,-0.725767336187490
Petrel and Moluccan boobook,SL1 5TA,51.511495918978000,-0.639178446055656
Prion and Myna,GU15 4HX,51.342241592649400,-0.744282302450638
Chipmunk and Scimitar babbler,SL4 1HF,51.478913515848300,-0.606652838838836
Kākāriki and Greenbul,RG41 4SZ,51.403211729814500,-0.865445522340666
Kestrel and Solitaire,SL5 9AL,51.402192986513000,-0.662263909491357
Grouse and Tit-tyrant,SL6 5LA,51.524528520820500,-0.759513373368751
Jackal and Minke whale,RG40 2BB,51.409117492502500,-0.834990106446670
Egret and Hawk,SL5 9DT,51.402781991193600,-0.675329292820218
White ibis and Siskin,RG9 9HG,51.535934000000000,-0.904000000000000
Flameback and New World blackbird,SL4 6JA,51.496782844044600,-0.630497572851097
Minke whale and Zebra,RG40 2NS,51.404845647169100,-0.837643351486245
Darwin's finches and Fish eagle,GU46 7AY,51.347206000000000,-0.837362000000000
Grosbeak and Rat,RG12 1NY,51.414304000000000,-0.761806000000000
Philippine hawk-owl and Fox,RG6 5JH,51.436085375887000,-0.913761821433710
Lemming and Polecat,SL6 5EW,51.526193534907800,-0.753716475508359
Puffleg and Dorcopsis,SL6 0LJ,51.521843655364000,-0.660880157461730
Chipmunk and Cloud rat,RG42 2AB,51.418965487906000,-0.752996080485205
Chickadee and Zebra,RG40 2AH,51.410739566662100,-0.840786655259485
Maya and Parrotbill,RG12 8FB,51.408983712776400,-0.768249763693045
Vulture and Ice seal,SL6 8DY,51.527927243920600,-0.705390754116277
Old World vulture and Bronzewing pigeon,SL2 2EY,51.532923216850300,-0.635252485709560
Ibex and Vulture,RG40 1DB,51.412542000000000,-0.837391000000000
Jay and Jackal,RG10 8BA,51.503687475236800,-0.857894000000000
Shearwater and Argus,GU47 0YD,51.354908393646700,-0.787522711086629
Civet and Wader,SL6 7QT,51.536017631586200,-0.737357393878301
Crow and Elephant,RG42 4GS,51.433285000000000,-0.749842000000000
Parrotbill and Argus,RG40 2DA,51.407493691544500,-0.831753244221506
Wallaby and Ice seal,RG40 9SS,51.411756459998100,-0.839049834500358
Condor and Guillemot,SL4 4RS,51.469737062912000,-0.680906832040276
Grouse and Argus,SL1 6JH,51.520810712551300,-0.642979913233415
Viscacha and Siskin,GU18 5AA,51.352088257643100,-0.670142653034146
Mink and Pheasant,GU15 4LZ,51.349424390352000,-0.744100358304838
Polecat and Thrasher,SL6 1RS,51.522864933141600,-0.716042239770134
Quetzal and Partridge,RG40 1JR,51.409602000000000,-0.809729000000000
Boto and Polecat,RG40 1TD,51.418047972592700,-0.829715377654608
Peafowl and Francolin,RG40 1GF,51.411294614000000,-0.808003152300000
Warbler and Old World vulture,RG9 1PL,51.528301000000000,-0.913089043590928
Towhee and Rat,RG2 9PH,51.396558403270000,-0.906202946288652
Warbler and Lemming,SL6 1DA,51.514841000000000,-0.719819957041320
Fish eagle and Night heron,SL1 5BW,51.517444816746500,-0.634980072342699
Parrotlet and Stint,RG9 4DL,51.500736223977500,-0.904979099127349
Mink and New World blackbird,SL5 8RL,51.418568098244000,-0.708626000000000
Meadowlark and Meadowlark,RG42 5SD,51.447867127461700,-0.757346441125275
Grosbeak and Tit-tyrant,RG12 9GD,51.410571190857600,-0.737436510978250
Thicketbird and Greenbul,SL5 8JX,51.422236831759900,-0.687754395380235
Eagle and Francolin,SL1 1JL,51.508893319243200,-0.595363423708798
Partridge and Argus,SL4 4NB,51.476013024727400,-0.653957220019313
Chicken and Hawk,GU47 9DR,51.345015834199000,-0.803147025999621
Diving bird and Myna,GU24 8BF,51.353980000000000,-0.599312000000000
Ice seal and Darwin's finches,RG10 9JR,51.480352359961800,-0.857902140661548
Rabbit and Cloud rat,RG40 4HL,51.388416955599900,-0.862362184087217
Rat and Gull,RG12 1LP,51.414404887409300,-0.751998515315880
Dorcopsis and American sparrow,RG42 9RT,51.416008000000000,-0.770719000000000
Moluccan boobook and White ibis,SL4 3AH,51.476746553907300,-0.608936427221147
Crow and Puffleg,SL6 0LE,51.523301402610300,-0.661759923083597
Myna and Linsang,SL1 0BN,51.508272000000000,-0.584601000000000
Argus and Zebra,RG42 1FW,51.416841720255600,-0.781053156286840
Old World vulture and Crow,GU20 6AH,51.363417092445600,-0.652706923020710
Parrotlet and Masked owl,RG10 9PX,51.488502600202400,-0.864756099652304
Myna and Goose,SL6 7DT,51.527087366141100,-0.723938510849517
Cloud rat and Masked owl,SL1 5UE,51.511994820281000,-0.639552675011722
Ibex and Fox,SL1 6LB,51.524420421376900,-0.661323509933936
Jerboa and Masked owl,SL1 0SG,51.510856575769300,-0.604655492966527
Vole and Perching duck,SL2 1AH,51.529536800746400,-0.614839187357450
Masked owl and Fox,SL1 0TE,51.510856575769300,-0.604655492966527
Greenbul and Linsang,RG42 6AG,51.434066568879000,-0.746571595276565
Masked owl and Mole,RG12 1YQ,51.415729231394800,-0.763265449709137
Pitohui and Hawk,RG10 9TB,51.500668978060800,-0.839068727686107
Thrasher and New World blackbird,SL6 7DY,51.530917000000000,-0.725082000000000
Pratincole and Grouse,RG10 9GY,51.476945000000000,-0.870912905022846
Partridge and Tree warbler,SL5 0DH,51.392751533881300,-0.628833803140117
Mole and Polecat,SL1 1RD,51.506464479037600,-0.590034667383635
Thicketbird and Greenbul,RG40 1PB,51.410828134406400,-0.802191755805093
Skunk and Masked owl,SL6 7AA,51.523582000000000,-0.725579000000000
Shearwater and Diving bird,GU18 5UH,51.349061995620400,-0.669713304596187
Dolphin and Egret,SL2 1AD,51.526816570541900,-0.614446014925417
Peafowl and Wader,SL95 1NX,51.508271000000000,-0.584618000000000
Petrel and Diving bird,SL6 1SU,51.520056526492000,-0.715775288790337
Wader and Scimitar babbler,RG40 4UD,51.381638759374300,-0.854238957877411
Hawk and Stint,SL2 1TU,51.527641282946800,-0.635713133682144
Greenbul and Mamo,RG12 0WE,51.394724928089600,-0.731404499843861
Triller and Flameback,SL6 2PA,51.480035317557800,-0.692360765716582
Myna and Darwin's finches,SL1 4XB,51.522666000000000,-0.616149416152161
Black cockatoo and Armadillo,RG40 1DY,51.414322981210200,-0.834900953471838
Warbler and Civet,RG42 7UU,51.421170608371300,-0.723941703523603
Vole and Rabbit,RG6 3XP,51.430290580752400,-0.903671625510117
River dolphin and Mamo,GU15 4BG,51.351407920205700,-0.722132353243169
Marmoset and New World blackbird,RG42 4GN,51.417060000000000,-0.791485000000000
Tahr and Parakeet,SL5 8LZ,51.417743000000000,-0.697518000000000
Marmoset and Wader,RG6 7JB,51.438054590510800,-0.910852060553907
Hawk and Civet,SL4 3NT,51.477189577158400,-0.619031686900544
Francolin and Marsh harrier,SL4 5SQ,51.482284243497500,-0.655068745361836
Vole and Condor,SL5 5BA,51.401788496700000,-0.653434475400000
Dolphin and Condor,SL1 0YY,51.508271826500000,-0.584618550000000
Polecat and Siskin,SL1 2AE,51.503370801375600,-0.585519518626593
Wader and Hawaiian honeycreeper,SL4 5GQ,51.482497000000000,-0.635980000000000
Moluccan boobook and Elephant,RG6 4BW,51.425613260499500,-0.916081283556140
Tattler and Songlark,RG12 1DR,51.416125513621000,-0.747234851720140
Grouse and Pheasant,SL6 2BB,51.507828502438300,-0.700355133204050
Chicken and Darwin's finches,GU46 7LR,51.341961209225900,-0.828524000000000
Dolphin and Coati,RG9 1ES,51.528311124730000,-0.896980246913293
Elephant and Francolin,SL4 6NH,51.499538538834100,-0.640344000000000
Partridge and Asiatic leopard,RG5 4UG,51.454532934641500,-0.880840399179332
Hawaiian honeycreeper and Magpie,RG42 3UH,51.428658510472300,-0.724538684458228
Jackal and Maya,RG12 7HT,51.402542180286200,-0.753485862513275
Hawaiian honeycreeper and Nukupuʻu,RG40 3QS,51.376803203397600,-0.828985603704941
Linsang and New World blackbird,RG12 8ZP,51.395304665677900,-0.774912928394960
Maya and Cuscus,SL4 2RD,51.457451900337300,-0.586579411627087
Dolphin and Lemming,SL6 7NQ,51.535820954200500,-0.739136279610174
Wallaby and Kite,RG12 2RD,51.416491076938400,-0.731060998338865
Macaw and American sparrow,SL5 7AD,51.402442000000000,-0.655586000000000
Booted eagles and Grackle,RG12 2RN,51.417703278277000,-0.731732108069484
Night heron and Jackal,SL2 2NF,51.530210330797500,-0.650254778216148
Herring gull and Viscacha,RG41 1JE,51.422425695676200,-0.855995291363428
White ibis and Tattler,SL1 1LH,51.508491000000000,-0.587940000000000
Fox and Hawk,RG10 8JY,51.502318655948200,-0.866156200227848
Nukupuʻu and Old World vulture,SL5 9ER,51.402394674823500,-0.681651682728356
Pheasant and Pratincole,SL6 8GF,51.525673000000000,-0.721888000000000
Grosbeak and Old World vulture,SL1 3AD,51.526460654313900,-0.612481900435171
Perching duck and Rabbit,RG42 3TT,51.421900387285800,-0.731529656687056
Parakeet and Boto,SL4 1WZ,51.481161043338200,-0.610400661903773
Cloud rat and Wader,RG42 5JH,51.435578732983200,-0.789503046896226
Tattler and Black jay,RG42 3SW,51.419876000000000,-0.719706000000000
Crow and Hawaiian honeycreeper,RG45 6UY,51.383340666126700,-0.798799492674262
Duck and Ice seal,RG4 6XJ,51.470551000000000,-0.902984112946886
Marmoset and Shearwater,GU47 8LY,51.354186175405000,-0.810935951903274
Argus and Polecat,SL6 8RT,51.532155144133500,-0.714541049748975
Mamo and Chipmunk,RG41 1AA,51.414200259000000,-0.841303207000000
Scimitar babbler and Macaw,SL4 4XF,51.477803672543900,-0.657202126036709
Mink and Moluccan boobook,SL6 8RW,51.530263326583100,-0.715041238303741
Magpie and Guillemot,RG5 3EA,51.455517253753300,-0.911861477330358
Triller and Vole,GU15 1PU,51.343089503838600,-0.708135199762224
Capuchin and Armadillo,RG42 2QA,51.429073881549800,-0.749743347490324
Hawaiian honeycreeper and American sparrow,RG42 5PA,51.434054974041900,-0.796966548187109
Solitaire and Parrotbill,SL6 1FY,51.522015000000000,-0.720390000000000
Dorcopsis and Asiatic leopard,SL4 1QF,51.485539060284000,-0.605759598836381
Siskin and Masked owl,RG6 3WH,51.424883184992000,-0.909108367771187
Dolphin and Tattler,GU47 8JS,51.348423515373500,-0.805886000000000
Dorcopsis and Kite,SL6 4QG,51.514896962188000,-0.761951140898923
Ibex and Wallaby,SL4 3QY,51.476741336281200,-0.632192195096696
Flameback and Fox,RG45 6JJ,51.372136016858100,-0.803144092358853
Peafowl and American sparrow,RG41 5RE,51.435139000000000,-0.873344000000000
Partridge and Pheasant,SL2 2BP,51.534522110843500,-0.628168701650835
Jay and Eagle,SL1 6HA,51.525008021175000,-0.651388804660675
Duck and Meadowlark,GU18 5TW,51.351186576914400,-0.673098252493956
Parrotlet and Old World vulture,RG41 5HT,51.426636565109900,-0.880486278558327
Tit-tyrant and Scimitar babbler,SL5 9RX,51.387909581735900,-0.637730961884700
Cuscus and Old World quail,SL1 2TL,51.504470609781000,-0.618192821297388
Ibex and Gull,RG42 6DA,51.432321007904200,-0.725616332328478
Chicken and Civet,RG45 7PH,51.362547096852800,-0.796671808532696
Grosbeak and Mouse,RG12 9SJ,51.409760676625700,-0.747133000000000
Egret and Tit-tyrant,SL1 5UG,51.512212984368500,-0.645195255154131
Moluccan boobook and Petrel,RG12 7FB,51.391877179839500,-0.742507298498102
Armadillo and Towhee,RG10 8EQ,51.501706138600000,-0.863909562400000
Fox and River dolphin,GU24 8PH,51.349558745071800,-0.597425926743625
Guillemot and Rabbit,GU15 4JU,51.346044000000000,-0.739871000000000
Asiatic leopard and Kangaroo,RG40 3TJ,51.358299628681700,-0.841866446471221
Duck and White ibis,RG5 4UN,51.458868703519500,-0.881957852370983
Parrotlet and Moluccan boobook,GU19 5FG,51.355060994025300,-0.697616370915826
Tree warbler and Scimitar babbler,GU46 7TE,51.343513665758700,-0.825180000000000
Pheasant and Vulture,RG42 3SA,51.423114043242100,-0.734832857757965
Snipe and Kākāriki,RG40 2BP,51.407295705339200,-0.834446911909183
Stint and Night heron,GU15 4ES,51.346261732488400,-0.729612000000000
Zebra and Cuscus,RG12 7FL,51.408135835459700,-0.756079990222489
Rabbit and Mole,GU20 6LE,51.380450260588300,-0.662177000000000
Rat and Tree warbler,SL4 6HE,51.492753742100000,-0.614931566200000
Pratincole and Bunting,RG12 9PT,51.402389945957300,-0.740925179406518
Shearwater and Philippine hawk-owl,RG12 7DB,51.407316397797800,-0.750897471798766
Siskin and Skunk,RG41 5HH,51.435581000000000,-0.894323000000000
Pheasant and Pitohui,RG40 1SS,51.410925180038300,-0.822420228857200
Ice seal and Condor,RG5 4LS,51.457105907392500,-0.900942426752347
Mamo and Dolphin,SL6 4RH,51.518685476531200,-0.746138467183124
Booted eagles and Herring gull,SL5 7JF,51.411034000000000,-0.675752000000000
Meadowlark and Mockingbird,RG5 3NJ,51.447346192791300,-0.909235206164146
Diving bird and Maya,SL1 2NG,51.507815920235700,-0.611362366245591
New World blackbird and Linsang,RG12 7WX,51.392898432649000,-0.764125406437633
Rat and Thrasher,SL1 6LP,51.523204249101400,-0.642346612249742
Mink and Recurvebill,SL60 1AB,51.518554400000000,-0.714794200000029
Magpie and Hawaiian honeycreeper,RG12 8TX,51.417195734990600,-0.787443209246118
Pratincole and Hawaiian honeycreeper,RG6 3BN,51.432195354892900,-0.909293889987229
Wader and B,SL5 8DU,51.412966408074000,-0.707216573411719
Old World quail and Grouse,GU47 9BZ,51.344529796374900,-0.798708690453021
Badger and Gull,RG27 0NJ,51.348464437887300,-0.865363000000000
Old World vulture and Songlark,SL4 3BX,51.477985894061400,-0.612599570280885
Songlark and American sparrow,SL6 6PA,51.534493957892300,-0.766566777258057
Francolin and Rat,RG12 7LT,51.399550638339600,-0.752905907902131
Songlark and Guillemot,SL6 6HH,51.531088360122100,-0.745581546377940
Grosbeak and Booted eagles,RG9 1HT,51.529807674280300,-0.902191569125325
Asiatic leopard and Perching duck,RG40 5PZ,51.422048399951500,-0.816180147532818
Piping shrike and Minke whale,SL2 1SZ,51.529508094792000,-0.624628798512112
Chickadee and Black cockatoo,RG40 9PB,51.410738000000000,-0.835060000000000
Argus and Marmoset,SL1 1YH,51.505827853526200,-0.591682529301458
Minke whale and Cuscus,SL6 2AH,51.507195320840000,-0.701641160661340
Bunting and Zebra,SL6 1NJ,51.521433816192800,-0.720853425548849
Ground sloth and Stilt,SL2 2JQ,51.531168829773500,-0.636717799840932
Pratincole and Chipmunk,RG10 0JA,51.480244639203200,-0.800273624858935
Solitaire and Goose,GU15 4DL,51.349971083172600,-0.728921440966296
Thrasher and Grosbeak,SL2 2LU,51.531694922300000,-0.632276139500000
Bronzewing pigeon and Pratincole,SL4 5BS,51.481434684633500,-0.616052035722826
Chickadee and Kangaroo,SL4 5FA,51.481161043338200,-0.610400661903773
Armadillo and Booted eagles,SL6 2NQ,51.485024917700000,-0.719164686028481
Goose and Wallaby,SL5 8FQ,51.417311399800000,-0.708791072800000
Wallaby and Guillemot,GU15 3UY,51.349919646518600,-0.715137432348102
Mink and Masked owl,RG41 3HG,51.420019661790800,-0.864713090016413
Thicketbird and Boto,SL1 5PD,51.516214304268900,-0.652210578033498
Stilt and Wallaby,GU46 7RX,51.342694000000000,-0.828678000000000
Chipmunk and Tahr,GU19 5HB,51.360029277389000,-0.702301356141000
Pitohui and Fish eagle,SL95 1AB,51.508271826500000,-0.584618550000000
Parrotlet and Black jay,RG40 3PF,51.379914000000000,-0.846110373500000
Minke whale and Skunk,SL1 8HT,51.538692366508100,-0.662260272089395
Goose and Condor,SL6 7PJ,51.538215634019700,-0.736056543962651
Parakeet and Kestrel,SL6 7RL,51.534972100700000,-0.732729414700000
Black cockatoo and Fish eagle,RG40 5QG,51.420886493261000,-0.837552954928003
Mamo and River dolphin,GU24 8SZ,51.360769674349800,-0.613084344283635
Minke whale and Civet,SL1 4SS,51.524068000000000,-0.622962000000000
Zebra and Booted eagles,RG12 8FW,51.405725567400000,-0.777165023900000
Snipe and Perching duck,SL5 8QL,51.418328395342800,-0.709093087992895
Jackal and Thicketbird,SL6 2BH,51.508551025894100,-0.696588059584626
Mink and Puffleg,GU15 4EL,51.346424295061000,-0.726908824409525
Old World warbler and Pratincole,RG10 8BY,51.501436731398500,-0.869808706715541
Bunting and Marmoset,RG45 7DW,51.370979083100900,-0.786825373531555
Marsh harrier and Petrel,RG42 3DR,51.424956056763600,-0.733041615155417
Asiatic leopard and Siskin,SL1 2BQ,51.504678953754300,-0.588289000000000
Chicken and Egret,SL1 0TF,51.510856575769300,-0.604655492966527
Elephant and B,RG9 1JT,51.528248398501100,-0.901796594781290
Mole and Crow,SL6 6RF,51.526154920309800,-0.807096796422724
Mockingbird and Wallaby,SL4 4UF,51.449889491072900,-0.667994233563806
Old World quail and Polecat,SL4 3PF,51.475527310826800,-0.619139477554893
Marmoset and Fox,SL6 8DT,51.526085987108600,-0.704765453142205
Magpie and Chicken,SL4 4JA,51.474683858888100,-0.647847935496222
Cloud rat and Chicken,RG41 5HZ,51.434382628265100,-0.887518806175994
Hawk and Flameback,SL4 5AS,51.479389481414700,-0.618000412166660
Grosbeak and Towhee,GU24 8UF,51.351009000000000,-0.602820000000000
Jay and Diving bird,SL5 8JY,51.421889768149600,-0.687275331859314
Marmoset and Peafowl,RG40 2EN,51.410258953680300,-0.826822815321491
River dolphin and Masked owl,RG10 0DB,51.458435005460500,-0.852878796126134
Crow and Thicketbird,SL1 3DG,51.517829951692300,-0.608823895177023
Quetzal and Mole,SL1 0FW,51.508271000000000,-0.584618000000000
Pratincole and Asiatic leopard,GU15 4DH,51.349072556268900,-0.728156523756553
Ground sloth and Rat,SL4 4HT,51.476853931441500,-0.644990222383689
Shearwater and Perching duck,RG12 9ES,51.410836044936300,-0.729492068305983
Jackal and Viscacha,RG42 6PA,51.430255270596900,-0.713489698125844
Triller and Booted eagles,RG5 4AA,51.446535938282100,-0.898548415470346
Meadowlark and Tree warbler,RG12 8AT,51.408607104441600,-0.782120410957404
Mink and Zebra,SL2 1QN,51.534087107780000,-0.627879002567952
Argus and Mamo,SL6 5JH,51.523657003374900,-0.757879398224027
Black cockatoo and Bronzewing pigeon,SL6 1XG,51.518494658669100,-0.707834517615706
Gull and Masked owl,SL5 9QE,51.392333794562800,-0.640833550906272
Grosbeak and Zebra,SL5 9NE,51.401716550861100,-0.655204754443984
White ibis and Old World quail,SL6 2NB,51.487626134791200,-0.718573299389049
Warbler and Cuscus,GU19 5ET,51.358180343748900,-0.707495346706772
Jackal and Francolin,SL6 2SW,51.510948316637100,-0.731536978654240
Parakeet and Warbler,RG42 7PN,51.426219259335500,-0.708712553892391
Kestrel and Chicken,RG10 8JX,51.500715639894900,-0.864971378093734
Wader and Parakeet,SL6 1SY,51.520981591991800,-0.713212480213243
Pratincole and Darwin's finches,RG2 9NG,51.381646506112600,-0.902017598352770
Puffleg and Mole,RG10 0DF,51.458805976913300,-0.853114192926593
Scimitar babbler and Quetzal,SL6 4HJ,51.517036661950200,-0.740793534129961
Francolin and Black cockatoo,SL6 5HG,51.529013496079900,-0.750006636817478
Triller and Argus,RG10 9BL,51.486915455469400,-0.863355242537832
American sparrow and Grackle,RG10 9BN,51.485950765069800,-0.863091177485994
Badger and Peafowl,SL1 1JP,51.508506325753500,-0.592334853664174
Wallaby and White ibis,RG10 9SR,51.494601688792600,-0.843846878880974
Polecat and Mamo,SL1 2SN,51.506797859287400,-0.609678612146612
Armadillo and Night heron,GU46 7TF,51.342599582368100,-0.825621897339814
Old World vulture and Herring gull,RG10 0UD,51.462827789025900,-0.877528211882305
Mockingbird and American sparrow,RG12 7WB,51.411123698199600,-0.758860330248107
Tree warbler and Booted eagles,SL1 2PL,51.506944916096700,-0.606158267883191
Mouse and Myna,SL1 3HE,51.521442859356500,-0.608037000000000
Polecat and Maya,SL1 1UN,51.509845877142500,-0.587077066267818
Logrunners and Crow,GU24 8RJ,51.354797738564200,-0.601646218479501
Dolphin and Boto,RG45 7NJ,51.369449993038400,-0.799004921658510
Towhee and Francolin,RG40 2BT,51.407617029470300,-0.833302900294020
Quetzal and Bunting,SL2 2NJ,51.530694865289000,-0.650946870474528
Tattler and Gull,SL4 1PJ,51.482915000000000,-0.609584000000000
Mink and Meadowlark,SL5 8DL,51.411844097474300,-0.700863839729032
Chickadee and Francolin,RG41 5AF,51.423526953685800,-0.867545893384011
Maya and Jackal,RG12 8XD,51.397739228044800,-0.769543623419327
Rabbit and B,SL6 6DH,51.523932689231500,-0.737374509179670
Pheasant and Chipmunk,RG41 5BG,51.415171000000000,-0.884059000000000
Vulture and Rabbit,SL5 0LE,51.399579745507200,-0.616856118903905
Scimitar babbler and Vulture,SL6 1ED,51.520980149353200,-0.722956103240371
Triller and Mouse,SL2 5EZ,51.515498605366100,-0.584567436047515
New World blackbird and Kākāriki,RG41 5RP,51.431438596362300,-0.889028817022988
Duck and Piping shrike,SL4 5LY,51.481143098650700,-0.639549112243131
Kākāriki and Siskin,SL1 5AH,51.513403151346300,-0.627679047242763
Partridge and Buzzard,RG42 4UF,51.424373361687500,-0.772942112330519
Chickadee and Capuchin,SL4 2AZ,51.469885093555800,-0.608137260949889
Mouse and Goose,RG12 2AD,51.412407812600000,-0.729923129400000
Egret and Meadowlark,RG41 5NQ,51.433211028226000,-0.874053428253251
Kākāriki and Diving bird,SL5 7EQ,51.409353851783700,-0.665692730259830
Armadillo and Jerboa,RG40 1UU,51.416367496518100,-0.826220677052922
Piping shrike and Pratincole,GU15 3UH,51.346924000000000,-0.720774839587110
Tree warbler and Guillemot,RG41 1AE,51.422865000000000,-0.846388000000000
Boto and Diving bird,RG12 0SF,51.399558976368600,-0.729401991814701
Vole and Tit-tyrant,SL6 0AG,51.529792317146100,-0.693559667825782
Puffleg and Fulmarine petrel,SL6 4QH,51.515154729198200,-0.743064825049372
Argus and Capuchin,RG5 4LX,51.455092800619300,-0.900098422017325
Bronzewing pigeon and Treepie,RG40 2HL,51.408265381050300,-0.825292249573520
Linsang and Pheasant,SL1 6EN,51.524443977148800,-0.659448901476317
Partridge and Solitaire,RG6 3UA,51.428552258379000,-0.910114214519068
Rabbit and Old World vulture,RG12 8ES,51.401364389800000,-0.781479070100000
Recurvebill and Warbler,SL2 4PG,51.538302665600000,-0.595813725288194
Cuscus and Piping shrike,SL1 5DJ,51.513007155068000,-0.635357692927192
Stilt and Pitohui,RG40 2EE,51.409187306919800,-0.826663319953413
Partridge and Dorcopsis,SL4 6FE,51.488326685679400,-0.610021000000000
Parrotlet and Bronzewing pigeon,SL1 2PF,51.508272000000000,-0.584601000000000
Old World vulture and Bunting,RG9 9JB,51.535934000000000,-0.904000000000000
Mink and Recurvebill,SL4 5EJ,51.483492576057600,-0.625883840806542
Guillemot and Skunk,RG41 3BG,51.408837086958400,-0.864141699109895
Rabbit and Scimitar babbler,SL5 0DB,51.395735312838600,-0.639496567827054
Prion and Skunk,SL4 3PE,51.475875315603100,-0.620439323423696
Piping shrike and Mink,SL4 2HZ,51.442308568799000,-0.628170501213999
Armadillo and Civet,RG40 5AF,51.423942386900000,-0.822733081800000
Kite and Towhee,SL2 5AE,51.512994000000000,-0.589124000000000
Condor and Mouse,SL6 2LP,51.492859177230000,-0.709524482184594
Kākāriki and Myna,GU46 7RW,51.343356073507900,-0.841998993068998
Perching duck and Night heron,RG40 4JD,51.377228482789300,-0.857495687778109
Boto and Warbler,RG9 2BF,51.538834549639100,-0.904021934427711
Goose and Perching duck,SL6 7JH,51.531459951448900,-0.719217285307370
Jay and Booted eagles,RG12 9GH,51.411877907472900,-0.737702485377835
Meadowlark and Fulmarine petrel,RG12 9AN,51.412761883350600,-0.743818184664154
Hawk and Vole,SL1 5QG,51.519110475184900,-0.642915136487099
Night heron and Quetzal,GU15 4JP,51.344698631489100,-0.742808061142081
Thicketbird and River dolphin,RG40 5RU,51.438649792995700,-0.814614468116271
Francolin and Grosbeak,SL4 4QG,51.473453207465300,-0.662858940000475
Minke whale and New World blackbird,SL2 5EX,51.515327836917300,-0.588305429963342
Cuscus and Thrasher,SL6 7JT,51.533411048178900,-0.720027585258127
Tit-tyrant and Puffleg,RG42 4UR,51.426194093672200,-0.769067296812360
Jay and Grosbeak,SL6 7BB,51.527603546607900,-0.727585661475392
Herring gull and Cloud rat,RG12 9LR,51.405598756884000,-0.732455135131293
Songlark and Chicken,SL6 6JL,51.526925028734800,-0.732188685007458
Skunk and Hawaiian honeycreeper,RG6 3UR,51.426488906273000,-0.908696165928679
Recurvebill and Peafowl,SL6 4LW,51.524462657844100,-0.762643137501549
Stilt and Jerboa,RG10 0ED,51.460200620040100,-0.858736186741373
Elephant and Old World quail,SL1 3HT,51.522524002768400,-0.607325935787825
Rabbit and Nukupuʻu,SL6 0HQ,51.538147544164200,-0.688071947283077
Chicken and Piping shrike,SL6 6QS,51.526812135841000,-0.790487583256332
Greenbul and Kangaroo,SL6 5JQ,51.524614583808500,-0.761545000000000
Viscacha and Civet,SL1 2TG,51.505662561999300,-0.617854182925731
Stint and Wader,RG10 9AD,51.477362864576600,-0.868603739252861
Asiatic leopard and Chicken,SL1 0NX,51.508272000000000,-0.584601000000000
Parrotlet and Songlark,SL6 2FS,51.507480000000000,-0.731414000000000
Rabbit and Snipe,RG2 9LY,51.384582771477600,-0.893928621566836
Grackle and Mouse,SL6 6LB,51.528498141454500,-0.737983450490053
Gull and Kangaroo,RG12 7EH,51.401951000000000,-0.758620000000000
Coati and Piping shrike,SL2 2AF,51.535191564856400,-0.624673793473348
Macaw and Parrotbill,RG41 4BA,51.403176416213300,-0.852579569091314
Armadillo and Tattler,GU19 5EU,51.356652369079300,-0.709189967560565
Stilt and Thrasher,GU19 5AN,51.359805108237000,-0.694264440482801
Dorcopsis and Polecat,RG9 2AP,51.537770039017900,-0.905575877286001
Hawaiian honeycreeper and Eagle,SL4 1QL,51.485681155088000,-0.607123511846111
Cuscus and Treepie,SL6 3UD,51.509342402880000,-0.763888505898340
Polecat and Fish eagle,RG12 0WA,51.394092090910300,-0.731091407783411
Pheasant and Vulture,RG2 9QB,51.396487546103800,-0.907282700464453
Shearwater and Tree warbler,RG45 7FG,51.368346000000000,-0.783330000000000
Diving bird and B,RG40 4HZ,51.374799584787100,-0.876750000000000
Jerboa and Ibex,RG40 4GR,51.410736932147000,-0.835078362852042
Buzzard and Stint,RG45 6HW,51.374211078587000,-0.810000674545738
Cuscus and Old World vulture,SL4 6QL,51.502562235449500,-0.663808223215418
Eagle and Kākāriki,SL1 9EB,51.506657966627600,-0.637607872142367
Rabbit and Crow,RG40 2LP,51.408207000000000,-0.816638000000000
Asiatic leopard and Wader,RG40 1WB,51.416935662797600,-0.832691819585798
Cuscus and Black cockatoo,RG12 7DL,51.406708334452600,-0.758836078920699
Petrel and Myna,RG10 0SQ,51.447777000000000,-0.866464939648569
Piping shrike and Masked owl,SL1 5BS,51.519096859432600,-0.633993836849971
Francolin and Warbler,RG5 4QJ,51.456324000000000,-0.895089000000000
Meadowlark and Wallaby,RG27 0ND,51.347793050906500,-0.867230822691536
Chipmunk and Tahr,SL2 1NT,51.527422287264200,-0.606369220189065
Thrasher and Hawaiian honeycreeper,SL5 8LD,51.419291865556800,-0.695403443584797
Fox and Skunk,SL1 6NH,51.529317719259700,-0.646143691884086
Jay and Petrel,RG12 8UY,51.394510255849200,-0.766899231938151
Peafowl and Coati,RG41 4UX,51.402424946183000,-0.870568501796299
Grosbeak and Parakeet,SL6 1AH,51.517216000000000,-0.715534000000000
River dolphin and Parrotbill,SL6 2FE,51.494904318979500,-0.692166000000000
Parrotlet and Petrel,RG10 9NN,51.479130000000000,-0.856896000000000
Marsh harrier and Moluccan boobook,SL2 2EP,51.533177043654400,-0.631568421140904
Night heron and Prion,SL1 6EP,51.524510421731000,-0.648780012277917
Argus and Mockingbird,SL1 5PZ,51.508269603950500,-0.584618526220629
Parrotlet and Mole,SL1 8DD,51.533624779667500,-0.653167094058739
Mole and Grouse,SL6 1QR,51.523576654435500,-0.716166369280432
Eagle and Viscacha,RG12 8AH,51.408666050201800,-0.777417188333646
Chicken and Kestrel,RG10 9HA,51.482719086093200,-0.860867312542394
Grosbeak and Badger,SL6 8HF,51.536844252438200,-0.701864783131750
Philippine hawk-owl and Coati,RG9 3YX,51.535930183608300,-0.904019588019346
Grosbeak and Mockingbird,SL5 8QR,51.421681932893100,-0.688791432765392
Viscacha and Booted eagles,SL1 0WN,51.508271826500000,-0.584618550000000
Duck and Capuchin,RG42 3HW,51.428506386706900,-0.727088967060741
Dolphin and Cuscus,SL6 8FB,51.527813115600000,-0.713843000000000
Guillemot and Meadowlark,SL4 5BT,51.481116499815600,-0.621102064762278
Scimitar babbler and Thrasher,RG10 0AW,51.471196726993800,-0.862334866830170
Peafowl and Dorcopsis,RG6 7JT,51.436049541588700,-0.915719249114702
Kestrel and Hawaiian honeycreeper,RG40 9QP,51.410738000000000,-0.835060000000000
Kite and Goose,RG2 9TA,51.386563000000000,-0.884492000000000
Songlark and Marsh harrier,SL2 5BZ,51.515299000000000,-0.590897000000000
Jay and Ibex,RG41 3DU,51.417243693314000,-0.864048430629915
American sparrow and Stint,RG40 1QH,51.419147456726100,-0.820986560939208
Thrasher and Dolphin,RG42 3TZ,51.421494931687500,-0.731454586434163
Old World warbler and Nukupuʻu,RG4 6GJ,51.464861513173500,-0.901432751097593
Elephant and Tit-tyrant,GU47 0RS,51.347029076469600,-0.783839388836865
Logrunners and Eagle,RG42 3UW,51.421710367491900,-0.724789612307417
Chicken and Piping shrike,RG12 9NJ,51.402466770848800,-0.735531972334293
Jackal and Chipmunk,SL6 7XJ,51.528717000000000,-0.726473000000000
Kangaroo and Masked owl,RG10 0AQ,51.472793827380400,-0.861978386060652
Chipmunk and Greenbul,RG42 4AB,51.420807854422900,-0.782846085418762
Moluccan boobook and Pitohui,RG5 3PW,51.447202084826200,-0.903425032150163
Mamo and Masked owl,SL1 2ES,51.505097247100000,-0.608635398300000
Mockingbird and Treepie,SL1 5ER,51.518924057826500,-0.638467048836049
Boto and Grouse,RG45 6SU,51.370479784963500,-0.790717435281886
Scimitar babbler and Parakeet,SL1 3BH,51.523063403420000,-0.612628389956067
Perching duck and Old World quail,SL4 5DS,51.480480197903700,-0.612135065420970
Chickadee and Dorcopsis,RG42 1SE,51.422401149666400,-0.771801177673472
Quetzal and Armadillo,SL2 1TF,51.529883304962800,-0.626722304339457
Triller and Viscacha,SL4 4UQ,51.449604000000000,-0.666535000000000
Minke whale and Hawaiian honeycreeper,SL6 3NR,51.503622619882500,-0.762948240992883
Logrunners and Mole,SL4 2DL,51.434044455040600,-0.661322000000000
Lemming and Darwin's finches,RG40 1SR,51.410950762543200,-0.820492809343824
Treepie and Vole,SL4 3DB,51.470730519930700,-0.623387677676292
Eagle and Goose,SL1 7DZ,51.527251649369200,-0.673882994383497
B and Booted eagles,RG42 1XT,51.419785290097900,-0.759071603326673
Old World warbler and Stint,RG40 4XB,51.378797505137600,-0.867212978632426
Masked owl and Tahr,RG10 8DH,51.498816000000000,-0.871084000000000
Jay and Grosbeak,RG42 2FB,51.426982534749900,-0.740019333241613
Warbler and Dolphin,GU20 6JL,51.374882740928300,-0.667700758958679
Shearwater and Flameback,SL1 5TU,51.511275628191000,-0.642672379175479
Snipe and Chipmunk,SL4 2BZ,51.443676350562400,-0.642159120806337
Condor and Lemming,SL1 6ET,51.526075259485600,-0.650362623312166
Jackal and Wader,SL4 4PL,51.474580689516600,-0.650601202043057
Siskin and Armadillo,GU19 5AT,51.362830733596200,-0.690616164358042
Tree warbler and New World blackbird,RG40 3DP,51.386615369206300,-0.777214403571107
Triller and Zebra,SL4 2BY,51.443374369038900,-0.640930602377116
River dolphin and Petrel,SL1 3LB,51.521818317997500,-0.603181815557481
Goose and Peafowl,RG5 4UU,51.453455858325000,-0.888609685607379
Kite and Herring gull,RG42 6BY,51.432392000000000,-0.722184471585201
Minke whale and Mamo,RG41 5QX,51.431005445500000,-0.883846434600000
Puffleg and Vole,RG12 2NY,51.418125548967800,-0.737530418856889
Bunting and Magpie,RG6 3AW,51.431294353915100,-0.909099564230795
Parrotbill and Thicketbird,SL6 6AN,51.523118112290500,-0.732712408139579
Fox and Eagle,GU15 1QN,51.342450334933000,-0.708885400490522
Rabbit and Mouse,SL6 3AZ,51.505005000000000,-0.752436000000000
Cuscus and Philippine hawk-owl,SL1 4XU,51.524944274257600,-0.617949000000000
Darwin's finches and Argus,RG40 5AB,51.420765200099700,-0.819118440358357
Kākāriki and Chickadee,SL6 6QY,51.525942073347600,-0.792442251493059
Wader and Ground sloth,RG12 7ZS,51.388100244681000,-0.751736877264236
Cloud rat and Hawaiian honeycreeper,RG10 8QZ,51.520120548433000,-0.821249650717238
Civet and Booted eagles,RG40 2EP,51.410355747579500,-0.825713183766869
Skunk and Moluccan boobook,SL5 7DF,51.406438974954800,-0.653659000000000
Puffleg and Argus,RG10 9SN,51.494741642111900,-0.844491000000000
Marmoset and Rabbit,RG45 7HG,51.365476055116100,-0.785103368604971
Duck and Coati,SL4 5UQ,51.489978154783600,-0.677715729445344
Hawaiian honeycreeper and Armadillo,RG10 9EY,51.481000049560400,-0.861630174030003
Parrotlet and Fox,SL4 4LP,51.475426878843800,-0.652246554928976
Mockingbird and Parrotbill,SL1 3DF,51.517469887727000,-0.608907000000000
Mouse and Fulmarine petrel,RG5 4RW,51.461603000000000,-0.895163000000000
Nukupuʻu and Jay,GU15 1NE,51.342631413743800,-0.715542220087572
Armadillo and Wallaby,SL1 3EY,51.521406406753300,-0.606351053992092
Buzzard and Chipmunk,SL1 2HD,51.507749772029200,-0.597373000000000
Petrel and New World blackbird,SL2 1QR,51.536199000000000,-0.622336000000000
Tit-tyrant and Stint,RG40 3RG,51.375171623370600,-0.858066000000000
Linsang and Diving bird,SL2 2AN,51.534153000000000,-0.638070000000000
Eagle and Maya,SL6 6QB,51.529548367189600,-0.759883000000000
Boto and Grackle,RG12 8WT,51.388259820206700,-0.774526173552465
Capuchin and Pheasant,SL6 8GG,51.525831000000000,-0.721566000000000
Moluccan boobook and Black jay,RG12 2LS,51.420801395503300,-0.745553775938579
Kite and River dolphin,RG5 4LN,51.457987050018000,-0.900935661374572
Stint and Argus,RG40 5QA,51.421818954612400,-0.821967734271217
Flameback and Marmoset,SL6 5ED,51.525815007772300,-0.748566213864097
Chicken and Grouse,RG41 4SA,51.412703461100000,-0.875031819100000
Herring gull and Scimitar babbler,SL6 3NX,51.510927809802100,-0.760747377875538
Cuscus and Wader,GU47 0YF,51.357405202247300,-0.781166207903154
Philippine hawk-owl and River dolphin,GU24 9PX,51.344257221116200,-0.647468075307499
Parrotlet and Mamo,SL2 2EN,51.537133982609900,-0.633151184831999
White ibis and Songlark,SL2 1TX,51.527980740108800,-0.636294040466037
Fulmarine petrel and Flameback,SL2 2LQ,51.530081545194700,-0.640657162142929
Condor and Egret,RG12 8FA,51.404671239200000,-0.776948733400000
Mole and Chickadee,SL6 2JT,51.492071268340300,-0.714922000000000
Wader and American sparrow,RG10 9NE,51.476017539262100,-0.863381299480681
Ground sloth and Badger,GU46 7TP,51.345378730359000,-0.825680099059614
Jackal and Polecat,GU47 0XB,51.355960877630800,-0.773736475444237
Bronzewing pigeon and Hawk,SL5 9DN,51.403966756482300,-0.672750370509436
Snipe and Macaw,RG9 4DR,51.500225175125900,-0.916761706918303
Solitaire and Prion,GU46 7QT,51.344267655230700,-0.836893318769112
Myna and Prion,SL6 2YW,51.496433891382000,-0.703445117846475
Night heron and Polecat,RG40 3HD,51.394808900694200,-0.846579431430183
Greenbul and Dolphin,SL6 6JG,51.520756000000000,-0.743718000000000
Old World vulture and Marmoset,SL6 4DT,51.517676202466000,-0.732693000000000
Rabbit and Myna,SL4 5HG,51.484400957473900,-0.636686961662661
American sparrow and Coati,SL1 6JU,51.523810140645700,-0.648094423903219
Philippine hawk-owl and Chicken,RG40 3DN,51.389319586203300,-0.778708889834605
Parrotbill and Capuchin,SL1 5GA,51.517021000000000,-0.628403000000000
Mouse and Parrotlet,SL6 1JE,51.520948000000000,-0.721516000000000
Francolin and Fish eagle,GU46 7RA,51.346631030532300,-0.840365728819346
Bronzewing pigeon and Boto,RG42 9QH,51.416007000000000,-0.770736000000000
Tahr and Asiatic leopard,RG42 4FL,51.419346000000000,-0.784798000000000
Warbler and Maya,SL2 2DE,51.535742569592600,-0.627958994163923
Hawaiian honeycreeper and Boto,SL6 7ED,51.524891024952400,-0.723726017572630
Warbler and Armadillo,RG42 3RW,51.426464327502900,-0.724527847941004
Petrel and Cuscus,SL4 2DE,51.432870000000000,-0.658649000000000
Fulmarine petrel and Marsh harrier,SL5 0BH,51.396517390192500,-0.641025817081382
Mole and Bunting,SL1 7NG,51.524963869563800,-0.661564000000000
Polecat and Viscacha,SL1 2LE,51.509832415690600,-0.600205201224450
Duck and Quetzal,SL6 5JN,51.525801041833000,-0.759104006549753
Wallaby and Condor,RG40 3GA,51.382997051686300,-0.784005000000000
Old World warbler and Armadillo,SL6 6JA,51.523843569227300,-0.746455000000000
Maya and Moluccan boobook,SL1 3PF,51.516027734883700,-0.602450969664403
Booted eagles and B,SL1 3SX,51.513693845137900,-0.608085200397372
Chickadee and Wader,RG42 5PR,51.442316213088300,-0.789742226843484
Macaw and Polecat,SL6 3NE,51.500225293682700,-0.761397816181198
Cuscus and New World blackbird,SL4 1RH,51.482789730234800,-0.610253000000000
Petrel and Old World warbler,SL6 5DD,51.525093252259800,-0.748340945101633
Cloud rat and Dolphin,SL1 2QJ,51.510136449733400,-0.606104111868746
Cuscus and Ibex,SL2 1LW,51.526575533980100,-0.599446797745978
Nukupuʻu and Vulture,RG41 5XG,51.425352175421400,-0.879697811718397
Tit-tyrant and Maya,SL5 0JL,51.393836056734400,-0.626228492359975
Linsang and Songlark,SL6 6DY,51.523205000000000,-0.727279626882912
Bronzewing pigeon and Linsang,SL4 3AS,51.478820020124900,-0.613179081181077
Masked owl and Kite,SL6 3SP,51.483112624103400,-0.787856000000000
Pratincole and White ibis,SL4 4HZ,51.475742758184200,-0.646880667823689
Mamo and Parrotbill,SL6 6DB,51.523235000000000,-0.734376235307594
Vulture and Marsh harrier,SL3 3BP,51.508269603950500,-0.584618526220629
Polecat and New World blackbird,RG10 9UD,51.479647519684200,-0.853858835155720
Puffleg and Philippine hawk-owl,SL6 6HS,51.530285598581400,-0.736968127315009
Herring gull and Stint,SL5 9NZ,51.399132334387400,-0.657768000000000
Pratincole and Quetzal,RG42 5QJ,51.454631000000000,-0.785775000000000
Cuscus and Viscacha,SL6 1HF,51.520446809074200,-0.726833812028802
Chipmunk and Jerboa,SL6 2DR,51.499405615725900,-0.701401479234646
Cloud rat and Greenbul,SL4 3BY,51.477704890478100,-0.613169698288217
Kākāriki and Pheasant,RG41 4ES,51.398050000000000,-0.845952000000000
Zebra and Piping shrike,SL2 1AF,51.528142857591400,-0.614823822087374
Moluccan boobook and Bunting,SL4 2BG,51.466872037910400,-0.611871288559034
Towhee and Mouse,SL6 8FZ,51.525440809100000,-0.721966537900000
Recurvebill and Thrasher,SL5 8AB,51.408297382978900,-0.694853634273463
Duck and Badger,SL1 0NE,51.508272000000000,-0.584601000000000
Hawk and Old World vulture,RG2 9JJ,51.415059072247400,-0.903762729996871
Grackle and Mouse,RG5 3RA,51.440899000000000,-0.903346000000000
Parakeet and Booted eagles,GU18 5UJ,51.348020442346400,-0.672358000000000
Meadowlark and New World blackbird,SL5 9ND,51.390052328662500,-0.649610871738678
Egret and Black jay,RG6 7LS,51.433975650746000,-0.912186236358974
Black jay and Armadillo,SL0 1AD,51.508271000000000,-0.584618000000000
Coati and Wallaby,RG9 1SB,51.535812132304400,-0.904858669689432
Old World warbler and Buzzard,RG12 1NJ,51.415300000000000,-0.761660162346619
Mockingbird and Rabbit,SL5 9ET,51.403258581741300,-0.675329901463557
Wader and Herring gull,GU25 4NN,51.396702000000000,-0.600829000000000
Boto and Ground sloth,RG45 6DE,51.367664430204500,-0.816175033684900
Parrotbill and Minke whale,SL1 1EE,51.510417077306300,-0.599466763776886
Elephant and Wallaby,SL6 7JZ,51.534224285145900,-0.721215870458896
Marmoset and Magpie,SL5 7AL,51.404203243149300,-0.654844286239637
Hawaiian honeycreeper and Mamo,SL4 2HL,51.450574676915700,-0.589713261555745
Moluccan boobook and Elephant,SL4 5SS,51.482982714071000,-0.653247990195644
Hawk and Gull,RG41 1JF,51.423532407953500,-0.856988836832785
Warbler and Grosbeak,SL1 7DA,51.537099068460200,-0.662898147731866
Triller and Solitaire,SL5 0QR,51.397324000000000,-0.636071000000000
Puffleg and Civet,RG12 9EZ,51.411547459344700,-0.725446197266831
Flameback and Grackle,RG40 4YB,51.386294222613200,-0.855832871697744
Rabbit and Armadillo,SL6 8FY,51.523269590700000,-0.711721083100000
Badger and Capuchin,GU24 8NB,51.349145612513700,-0.601229510692803
American sparrow and Kākāriki,SL2 4YU,51.508269603950500,-0.584618526220629
Myna and Maya,RG40 3LZ,51.380019000000000,-0.821374000000000
Armadillo and Masked owl,RG42 2QU,51.426935316284300,-0.749888009140698
Old World quail and Duck,RG2 9GP,51.386467000000000,-0.887641000000000
Magpie and Egret,SL4 1BN,51.480260051506400,-0.605704552759503
Dorcopsis and Chicken,RG42 1UB,51.422532521289800,-0.764620778494451
Ground sloth and Eagle,SL4 1RD,51.483310400979800,-0.610421749403255
New World blackbird and Egret,RG40 1TW,51.414659040215300,-0.830722219157668
Mamo and Maya,SL1 2DZ,51.503440215783700,-0.587548928847565
Siskin and White ibis,SL4 5EP,51.481643279245400,-0.627681973068582
Petrel and Marmoset,RG42 1SF,51.422250630999100,-0.772883893944864
Moluccan boobook and Hawk,SL6 2EB,51.498830000000000,-0.681969000000000
Old World vulture and Badger,SL5 5DH,51.401788331500000,-0.653420104100000
White ibis and Goose,SL2 1NL,51.527551461054700,-0.606998000000000
Tahr and Ibex,RG12 7RJ,51.410595083341600,-0.761592231667990
Recurvebill and Piping shrike,SL1 4ED,51.518626000000000,-0.614435000000000
Buzzard and Badger,SL6 4SB,51.515992321847200,-0.747394189443570
Thicketbird and Marmoset,GU19 5JX,51.359201121132700,-0.691710677415827
American sparrow and Parakeet,RG41 2TL,51.409595230581100,-0.850592881482952
Mink and Herring gull,SL1 8HL,51.538625548350900,-0.662709227077062
Kākāriki and Night heron,RG5 3NP,51.447588284778100,-0.906265050124400
Solitaire and Towhee,SL6 2TH,51.511201885490300,-0.736703298131443
Puffleg and Rat,SL4 4HQ,51.472470524095200,-0.638410433705543
Tit-tyrant and Vulture,GU46 7AZ,51.347459000000000,-0.837514000000000
Grackle and Asiatic leopard,RG40 9FT,51.410736932147000,-0.835078362852042
Grackle and Fish eagle,GU20 6DP,51.366518536421700,-0.654196079531886
Elephant and Skunk,SL5 7JW,51.406526946821500,-0.686090566982644
Guillemot and Jerboa,SL2 1LT,51.528691967354300,-0.602740830262339
Siskin and Warbler,GU15 4BX,51.349943326331000,-0.733000398100356
Gull and Petrel,RG12 8HN,51.416391000000000,-0.778144000000000
Dolphin and Eagle,SL5 0BS,51.398260607576000,-0.640916662944143
Grouse and Puffleg,SL4 6EZ,51.492352971076800,-0.612408391059066
Fox and Piping shrike,SL5 8LS,51.418457111360700,-0.696347611025475
Tree warbler and Goose,SL4 1SS,51.482327093749800,-0.614714485832347
Triller and Jay,SL4 4WH,51.481161043338200,-0.610400661903773
Nukupuʻu and Kākāriki,SL6 7ET,51.532418000000000,-0.725386548468677
Fulmarine petrel and Eagle,RG41 2RT,51.406893000000000,-0.848173000000000
Bunting and Stilt,SL6 4PJ,51.513582237696000,-0.745687707011877
Kangaroo and Peafowl,SL6 8AG,51.523440820979500,-0.719370176853797
Badger and Pitohui,SL1 2JY,51.509173141637000,-0.599966024014599
Mockingbird and Marsh harrier,SL2 3BA,51.538014465523600,-0.616211220858466
Logrunners and Siskin,RG40 1WA,51.417956052596600,-0.832220020696659
Puffleg and Bronzewing pigeon,RG10 0JX,51.485214001442700,-0.808784553186105
Puffleg and American sparrow,RG42 6JY,51.440848429506500,-0.716989000000000
Quetzal and Stint,RG41 5UX,51.438160371632800,-0.885743736321813
Parrotbill and Parrotbill,SL4 3AQ,51.475433609433400,-0.610445096931487
Marmoset and Towhee,RG12 7JJ,51.401234351183400,-0.751422536096470
Greenbul and River dolphin,GU19 5NU,51.362405809664500,-0.687999710196199
Jay and Mink,SL4 5UA,51.485025569990100,-0.656529153984913
Boto and Hawk,SL6 0DE,51.519176000000000,-0.680906000000000
Chicken and Fulmarine petrel,SL1 4RA,51.520783313993000,-0.625179893201275
Greenbul and Mamo,RG5 3DA,51.454941209880300,-0.907931613294602
Chicken and Egret,SL2 1NJ,51.528753731551600,-0.607179125697798
Logrunners and Vulture,SL6 5DZ,51.524675484175500,-0.755559752231787
Lemming and Snipe,SL6 0PN,51.517863485869500,-0.663533506562607
Condor and Parrotlet,SL4 6HJ,51.492738590587800,-0.615364074682871
Dorcopsis and Perching duck,RG41 5PR,51.426182507116900,-0.873449436134772
Prion and Thrasher,SL4 6DE,51.491158624297900,-0.609506168240598
River dolphin and Guillemot,SL1 3FQ,51.515672524106600,-0.611499000000000
Kite and Kākāriki,SL6 3YE,51.504849577292700,-0.763332865614562
Solitaire and Puffleg,SL5 7QX,51.416788948881800,-0.651426188749650
Macaw and Warbler,SL1 0BQ,51.508271000000000,-0.584618000000000
Tit-tyrant and Tree warbler,GU47 0SG,51.352854277519400,-0.782809184167754
Recurvebill and Grouse,RG42 2DX,51.420362727704000,-0.755014666749473
Towhee and Vole,SL2 2HP,51.535197684133000,-0.636756052001313
Masked owl and Diving bird,GU15 1LB,51.347470910480900,-0.714057184121095
Treepie and Parakeet,SL1 3HS,51.522967500354200,-0.609085373478232
Grackle and Tree warbler,RG42 3QZ,51.423018589844800,-0.724364872441787
Tattler and Rabbit,SL2 2JG,51.531731707600000,-0.633889751500000
Marmoset and Nukupuʻu,RG42 3TY,51.421512406013700,-0.730576785694901
Chicken and Hawk,SL2 1HL,51.531369739944500,-0.620824284275000
Flameback and Jerboa,SL1 2YE,51.510240894408900,-0.615683796797547
Tattler and Viscacha,SL6 2TN,51.511840586006500,-0.739236322770678
Piping shrike and Jerboa,SL6 4EP,51.521632087656300,-0.732494204148423
Chicken and Booted eagles,SL6 7QN,51.537896689425500,-0.737334241447414
Thicketbird and Guillemot,SL4 5DX,51.482205031677600,-0.617196000000000
Philippine hawk-owl and Tree warbler,RG9 3LG,51.507219130841700,-0.884910446588150
Fox and Chickadee,RG12 8UN,51.400597716894100,-0.774599032275988
Myna and Wader,RG40 1JX,51.411825000000000,-0.836733000000000
Warbler and Tahr,RG42 9GR,51.416007000000000,-0.770736000000000
Old World vulture and Kite,RG40 3LB,51.379851160160800,-0.851668418827518
Jerboa and Petrel,RG41 5LX,51.429333000000000,-0.876403185947964
Thrasher and Fox,SL6 7HN,51.534506051403000,-0.724798020346665
Macaw and Mamo,RG41 4TN,51.395508997489800,-0.893075855373450
Tattler and Wader,RG41 2SY,51.412817381252900,-0.850900337235003
Pratincole and Tattler,SL5 0UJ,51.392002466434800,-0.632449472676516
Skunk and Parrotbill,RG40 4UA,51.384815104497600,-0.856300869591974
Masked owl and Old World vulture,SL5 0LF,51.398464373809500,-0.613022839063979
Wader and Cuscus,SL5 9DH,51.403993952966600,-0.671182509629236
Jerboa and Night heron,SL1 2LL,51.506508556317700,-0.603491477033727
Chickadee and Parrotlet,RG5 4AF,51.451601000000000,-0.896829000000000
Mouse and Chickadee,RG42 2AD,51.419897000000000,-0.750037000000000
American sparrow and Buzzard,RG12 7BH,51.403665160974500,-0.755928114181578
Masked owl and Wader,RG9 1WH,51.535930183608300,-0.904019588019346
Black cockatoo and Bunting,SL1 3PR,51.516665419709700,-0.600125474472212
Flameback and Pheasant,SL1 3TJ,51.513886350476200,-0.612950415510652
Logrunners and Badger,SL5 0HQ,51.391852845884100,-0.626575347197799
Kangaroo and Flameback,RG10 8QL,51.523861575124300,-0.843884511667453
Wader and Capuchin,GU15 3UT,51.347683931458000,-0.716262528833800
Bronzewing pigeon and Goose,SL1 5AQ,51.510999575414100,-0.632838185488282
Coati and Old World warbler,RG5 4EL,51.447915478481200,-0.893219578957887
Eagle and Capuchin,RG10 9YJ,51.515346003611700,-0.809685000907610
Jackal and Philippine hawk-owl,RG12 9QS,51.409143339386400,-0.728243000000000
Hawk and Stilt,RG40 1XX,51.420734116058700,-0.828568144177721
Asiatic leopard and Booted eagles,SL4 6ES,51.490298234320000,-0.612024240817108
Eagle and Ground sloth,SL1 5QU,51.516483223946500,-0.645111812693317
Dolphin and Pitohui,RG12 7AA,51.412141489114000,-0.759019704744913
Pitohui and Fox,RG12 7LE,51.389186861445600,-0.754984147268499
Polecat and Crow,SL1 2LN,51.506406146002200,-0.602442740794856
Grosbeak and Nukupuʻu,RG45 6RE,51.374693509601700,-0.792231000000000
Viscacha and Peafowl,RG12 7JH,51.400157559077100,-0.750790578195048
Pitohui and Tit-tyrant,RG10 0BL,51.474899000000000,-0.855398185474670
Masked owl and Polecat,SL5 9AB,51.402088401439600,-0.653914363413682
American sparrow and Mole,RG5 4QL,51.457890392274800,-0.893525336226464
Philippine hawk-owl and Marsh harrier,GU15 4BW,51.351610508585200,-0.720920448388478
Logrunners and Dolphin,RG40 3JZ,51.386597170855300,-0.843638577322839
Coati and Booted eagles,RG12 9YB,51.400716189867100,-0.724180293217722
Shearwater and Civet,RG41 2AZ,51.405775852200000,-0.843803000000000
Myna and Thicketbird,SL6 4NL,51.515459269990300,-0.754758826710334
Asiatic leopard and Mouse,SL4 2EW,51.434841896268000,-0.673208208053559
Asiatic leopard and Towhee,RG42 1UE,51.422228483591600,-0.763075672379076
Old World vulture and Gull,RG41 1NS,51.420537018479700,-0.846780558918065
Argus and Treepie,SL6 1XH,51.521139407606000,-0.706303897216529
Parrotbill and New World blackbird,TW20 0UJ,51.425619735570000,-0.593315137952910
Francolin and Nukupuʻu,RG5 4SN,51.452885921786700,-0.892998666585800
Triller and Mamo,RG12 9AA,51.410897812688200,-0.741050999423363
Tahr and Goose,RG12 7PJ,51.398032868161400,-0.748864718841719
Grosbeak and Badger,SL6 1PL,51.522044934244100,-0.727437877159703
Darwin's finches and Triller,SL2 2DF,51.535329634158700,-0.629557414638409
Boto and Zebra,SL6 4BQ,51.510157217257000,-0.741573996144462
Partridge and Moluccan boobook,SL4 1LB,51.480678160604600,-0.604568524115686
American sparrow and Black jay,SL1 2XL,51.509576741346000,-0.615790385131817
Thrasher and Duck,SL6 1PN,51.521977007566500,-0.726978525912715
Solitaire and Ice seal,SL4 2BS,51.450075000000000,-0.630168000000000
Civet and Coati,RG41 1QH,51.425655737595300,-0.849602000000000
Jackal and Recurvebill,RG41 1BF,51.423550000000000,-0.843853000000000
Thrasher and Cuscus,SL6 1NZ,51.521089475801600,-0.724740333378802
Petrel and Cloud rat,RG10 0TF,51.436744854632000,-0.861018376796278
Wader and Old World quail,SL6 3EX,51.506789930236000,-0.745369882987554
Cuscus and Buzzard,RG40 5SA,51.432483045989000,-0.814788435008687
Thrasher and Stint,RG41 5EL,51.426359788845700,-0.875056040865781
Civet and Dorcopsis,RG9 1BX,51.532018027548900,-0.901057147406595
Guillemot and Vole,GU15 1PW,51.347622456272000,-0.710664190825793
Boto and Maya,SL1 5JH,51.517602475345600,-0.641590752689147
Armadillo and Thrasher,SL6 2UF,51.501714113328300,-0.708510817507819
Warbler and Old World quail,SL6 2QD,51.510645977066500,-0.727697822538450
Condor and Cloud rat,SL4 4EL,51.477728146616100,-0.636626695677553
Skunk and Flameback,RG5 4AD,51.446784069160500,-0.899118046213076
Tit-tyrant and Egret,RG5 3EW,51.449215399500000,-0.895375667200000
Kākāriki and Hawk,RG6 4BL,51.423337867111100,-0.916034425536126
Ground sloth and Dorcopsis,RG41 5SQ,51.425708000000000,-0.886646000000000
Grackle and Grackle,RG12 1QH,51.415054000000000,-0.760405000000000
Kite and Prion,SL5 5BF,51.401788496700000,-0.653434475400000
Quetzal and Pitohui,GU47 9RR,51.352659177543700,-0.789319000000000
Masked owl and Siskin,SL1 4AQ,51.512652000000000,-0.617974000000000
Greenbul and Kangaroo,SL4 4ES,51.476862575737900,-0.637042000000000
Eagle and Ice seal,RG12 8EY,51.400632062900000,-0.784560537800000
Bronzewing pigeon and Tattler,SL5 8FY,51.411564000000000,-0.710373000000000
Badger and Treepie,SL6 6SH,51.533742348517000,-0.745710451132634
Triller and Diving bird,SL6 6JF,51.527741888939800,-0.745442852805746
Mole and Black cockatoo,SL6 6AZ,51.526817628265400,-0.729741047759976
Tree warbler and Buzzard,SL5 7SH,51.412697337499500,-0.638187929886020
Rabbit and Cloud rat,SL6 1UF,51.516763000000000,-0.708874439265939
Rabbit and Recurvebill,RG12 9LD,51.404455343712800,-0.728173674811242
Dolphin and Grouse,RG12 0XX,51.399636437154400,-0.726596645583067
Ibex and Thrasher,RG41 5AG,51.423778716274200,-0.865684290465333
Crow and Ground sloth,SL1 6LZ,51.525720665301700,-0.645342211212999
Treepie and Songlark,SL6 3PU,51.509955599307500,-0.758943676205796
Moluccan boobook and Maya,GU47 9RU,51.351005182644100,-0.790942902831305
Scimitar babbler and Minke whale,SL4 6AJ,51.487712999898000,-0.609251000000000
Kite and Macaw,SL4 1HT,51.477347475619300,-0.611841340830798
Darwin's finches and Vulture,SL1 7JX,51.534012274034200,-0.658735340264403
Asiatic leopard and Old World quail,SL5 0DA,51.395864423596500,-0.637451585116183
Mouse and River dolphin,GU19 5NL,51.358497187783000,-0.686660749718164
Mouse and Zebra,GU46 7SR,51.346645863394300,-0.830098906344207
Goose and Argus,RG12 9EW,51.411640932438200,-0.734905078184227
Old World warbler and Tattler,SL5 7SB,51.408971612866900,-0.621777779253234
Kite and American sparrow,RG9 1XN,51.530597409377000,-0.917511623148274
Jay and Eagle,RG40 2LH,51.408225612503200,-0.818650647152870
Dolphin and Skunk,SL1 5TG,51.511075189173900,-0.641669596572398
Vole and Wader,RG45 7NN,51.368593588468400,-0.804069639023600
Prion and Chickadee,RG4 6TJ,51.473711512043000,-0.903408000000000
White ibis and Nukupuʻu,RG42 3SN,51.424925549771400,-0.738551267207578
Ice seal and Egret,RG45 6BE,51.372381438315700,-0.817576275772286
Tahr and Argus,SL4 3QQ,51.474492737041000,-0.616809268681244
Cuscus and Jackal,RG12 9EL,51.410272183822000,-0.733059238309769
Piping shrike and Hawaiian honeycreeper,SL6 8NU,51.529897375057500,-0.704657307756105
Puffleg and New World blackbird,GU47 0YT,51.354324316917600,-0.784091457112099
Fish eagle and Old World quail,SL2 1NZ,51.527837897500600,-0.604266226498314
Puffleg and Mockingbird,SL5 8QX,51.426412000000000,-0.703284000000000
Quetzal and Thrasher,RG9 9HJ,51.535934000000000,-0.904000000000000
Stilt and Bunting,RG40 2HQ,51.407708555887700,-0.823566801615129
Old World quail and Argus,GU18 5XD,51.347634385214100,-0.667528966449881
Chipmunk and Jackal,RG10 0AF,51.470697092325600,-0.851664300603691
Songlark and Towhee,GU47 0TJ,51.354734106293500,-0.780260515610456
Parakeet and Egret,RG5 4NQ,51.451984295632100,-0.885148243063109
Siskin and Chipmunk,RG41 1AY,51.425172000000000,-0.847883000000000
Dorcopsis and Badger,SL6 6DP,51.523355008969400,-0.741354418623965
Thrasher and Pheasant,GU25 4NY,51.403908964650300,-0.594343000000000
Mamo and Pheasant,SL1 2QQ,51.510595000000000,-0.603551000000000
Philippine hawk-owl and B,RG45 7BP,51.368813783887600,-0.795717464862573
Solitaire and Recurvebill,SL6 2QU,51.507793067715800,-0.716739666224923
Black jay and Meadowlark,SL6 8TX,51.532854545678600,-0.713540972969779
White ibis and Thicketbird,RG10 8ED,51.498625782935500,-0.860874251352437
Rabbit and Ice seal,SL2 5DF,51.520536181000900,-0.592209045938727
Night heron and Boto,SL4 1SN,51.483421227578500,-0.608675000000000
Civet and Jackal,SL6 2DB,51.501122000000000,-0.703629000000000
Francolin and Capuchin,RG42 9LY,51.416007000000000,-0.770736000000000
Buzzard and Civet,GU18 5QN,51.345453959375200,-0.674283253790779
River dolphin and Mouse,RG40 5YG,51.418038436476800,-0.818009450131548
Dolphin and Songlark,GU24 8PG,51.350796022384300,-0.598623134105493
Treepie and Jerboa,SL6 8ET,51.532859139937900,-0.707413471566751
Stilt and Partridge,SL6 2AT,51.508634971136300,-0.700101633992010
Vole and Egret,SL4 4TL,51.446491789647900,-0.673662083836093
Myna and Tattler,GU19 5AS,51.363826943461400,-0.689639719915605
American sparrow and Condor,SL6 5PB,51.534011535902100,-0.819319425041358
Thrasher and Jackal,SL6 2HL,51.490214174524700,-0.710218520253393
Macaw and Bronzewing pigeon,GU46 7RN,51.344338522637500,-0.842232679809143
Shearwater and Skunk,RG41 2AR,51.405615177200000,-0.846092085100000
Bunting and Elephant,SL4 1NQ,51.481892766299200,-0.605381139019968
White ibis and Polecat,RG12 2SH,51.415673000000000,-0.721017000000000
Badger and Old World warbler,RG10 9DG,51.484486036692200,-0.859483916302143
Pitohui and Grouse,RG40 4PZ,51.374946568837500,-0.891416632065837
Asiatic leopard and Marsh harrier,RG10 8HB,51.501242570426000,-0.876455000000000
Armadillo and Thicketbird,RG42 6NS,51.433533350044200,-0.699270527255292
Kākāriki and Greenbul,GU24 8RP,51.355816831224900,-0.604157235456607
Kākāriki and Quetzal,SL1 6PA,51.521564595917300,-0.651432857359851
Tit-tyrant and Nukupuʻu,RG10 0PF,51.464363981102100,-0.810781394231483
Cuscus and Kangaroo,RG41 3AR,51.412826413606800,-0.856421791270885
Wallaby and Capuchin,RG10 9HN,51.488046422278000,-0.853907546107548
Egret and Francolin,SL5 8ZN,51.401786147432200,-0.653434446641934
White ibis and Recurvebill,SL4 3NJ,51.474450962868500,-0.625493150599212
Logrunners and Diving bird,SL6 3XR,51.505130298896300,-0.760112165922627
Songlark and Solitaire,RG42 4HB,51.431622410080000,-0.786040025062823
Kestrel and Maya,RG41 1AS,51.426114000000000,-0.847586000000000
Egret and Goose,RG2 9FD,51.386955870110600,-0.903413906197805
Herring gull and Jerboa,GU20 6PQ,51.378182000000000,-0.680921000000000
Mouse and Songlark,SL1 3AG,51.526056670183200,-0.612537425020910
Booted eagles and Ice seal,SL1 0SD,51.510856575769300,-0.604655492966527
Crow and Bunting,RG41 5BB,51.421865043104000,-0.883651866694722
Chickadee and Warbler,RG10 0EH,51.461438339983000,-0.860259941373048
Parrotlet and Peafowl,GU18 5YN,51.345156600986100,-0.672640617377251
Hawk and Mouse,RG40 1WH,51.410736932147000,-0.835078362852042
Flameback and Polecat,SL2 4HZ,51.535963543003500,-0.585980201067405
Kākāriki and Grouse,SL4 4QE,51.476188241887100,-0.675666546674215
Petrel and Darwin's finches,SL1 9LB,51.506638956750100,-0.619063832560127
Puffleg and Dolphin,SL2 1TR,51.528582157047800,-0.636203993048950
Eagle and Herring gull,RG9 1EF,51.530424544837000,-0.900850430165698
Marsh harrier and Black jay,SL1 6JY,51.525926876039100,-0.647628115256354
Fish eagle and Bronzewing pigeon,RG40 4YQ,51.386875831972500,-0.858304592743810
Civet and Dolphin,SL5 7JU,51.405589869750500,-0.653437757946392
Masked owl and Snipe,SL2 2PU,51.532386438106100,-0.644798363982284
Pitohui and River dolphin,RG45 7NE,51.367223356091800,-0.798459826644674
Moluccan boobook and Songlark,SL2 5EG,51.513170138495700,-0.586844527050101
Jay and Gull,GU15 1QT,51.344552594099200,-0.708711468826303
Tree warbler and Cloud rat,SL1 5BN,51.517217680286400,-0.634006811405229
Mouse and Grouse,RG41 1NP,51.419930859052700,-0.848233972882857
Zebra and Snipe,RG40 2NW,51.407149000000000,-0.836751000000000
Logrunners and Buzzard,RG10 0AA,51.475504017945300,-0.860499847257420
Puffleg and Puffleg,RG45 6BX,51.372829535266900,-0.826371628739432
Crow and White ibis,SL5 7NP,51.421401939161100,-0.683866326626488
Francolin and Bunting,SL1 8DR,51.535806716259400,-0.653679435085568
Mamo and Moluccan boobook,RG40 3DZ,51.383345020328400,-0.801860229818306
Mole and Bunting,RG12 2PW,51.413242000000000,-0.737291000000000
Nukupuʻu and Egret,SL6 2AZ,51.496877843303800,-0.685165705240139
Treepie and New World blackbird,RG40 3AX,51.382671643652500,-0.805484675226652
Chickadee and Fulmarine petrel,RG42 5NP,51.439842209863700,-0.777491530685123
Logrunners and Myna,RG12 7SS,51.392690363774500,-0.740357775057329
Moluccan boobook and Fulmarine petrel,SL6 6SF,51.532779204393600,-0.743934759266309
Shearwater and Duck,SL4 4LA,51.478681504257300,-0.652985855954362
Boto and Magpie,RG10 0EZ,51.468701686465700,-0.858193007562412
Chicken and New World blackbird,GU18 5RT,51.348486433116700,-0.660238374474694
Warbler and Puffleg,GU24 8AH,51.346195918230800,-0.600457781152925
Vole and Moluccan boobook,SL1 2BB,51.504427844958700,-0.590414509886437
Bunting and Magpie,RG5 3SG,51.444809921784900,-0.916936371431585
Goose and New World blackbird,RG45 7PD,51.368221949758000,-0.796752935787450
Pitohui and Lemming,SL1 7LR,51.531097547881300,-0.658619156039478
Recurvebill and Vole,SL6 4XF,51.511352000000000,-0.746426000000000
Mamo and Ice seal,SL5 7RW,51.419339842310400,-0.642607068865887
Dorcopsis and Jackal,SL1 0NU,51.508272000000000,-0.584601000000000
Ibex and Magpie,SL1 2SW,51.506244932189600,-0.609306394674937
Night heron and New World blackbird,SL2 2LD,51.531659441641500,-0.641028264166338
New World blackbird and Fish eagle,RG45 7DQ,51.370634868326700,-0.789508000000000
Shearwater and Fox,SL6 2JG,51.491610813255600,-0.728602230993860
Songlark and Marsh harrier,SL2 4ZN,51.508269603950500,-0.584618526220629
Siskin and River dolphin,GU47 8QQ,51.354933076928200,-0.803922669731827
Vulture and Egret,SL6 3DD,51.509732356723100,-0.745795000000000
Snipe and Greenbul,SL4 3NB,51.474341261909400,-0.620744777886241
Flameback and Elephant,SL5 9FG,51.396479175813900,-0.650169131401062
Herring gull and Fish eagle,SL4 4LL,51.479161345274200,-0.657191060641612
Kākāriki and B,SL6 6LY,51.524898705663900,-0.740245167665238
Perching duck and Hawk,SL6 2JE,51.488221473662800,-0.724519554840921
Old World warbler and Egret,SL2 3FW,51.537081000000000,-0.615285000000000
Solitaire and Bronzewing pigeon,SL5 7SA,51.410210628817900,-0.623911733562445
Capuchin and Dolphin,RG9 3HJ,51.538719500441600,-0.877580280951047
Bunting and Ground sloth,SL1 6LG,51.529160284595700,-0.650429989932621
Thicketbird and Francolin,GU15 1JX,51.342713135859400,-0.718899609096576
Wallaby and Logrunners,SL1 0DR,51.508271000000000,-0.584618000000000
Lemming and Herring gull,GU18 5UW,51.346207150687000,-0.680464489531645
White ibis and Parakeet,SL6 1FW,51.517038000000000,-0.714891000000000
Perching duck and Condor,RG45 6HR,51.373311028621900,-0.809032680221051
Diving bird and Mouse,GU47 9AL,51.347656165422400,-0.796674128073194
Crow and New World blackbird,RG12 7HJ,51.404187892505700,-0.754346863099670
Macaw and Thrasher,SL6 2BN,51.507719128481400,-0.698600295439477
Jerboa and Siskin,GU18 5QR,51.347193990237200,-0.670828000000000
Duck and Chickadee,RG40 9NB,51.410739577900000,-0.835078407500000
Fish eagle and Parakeet,RG41 1HY,51.424341000000000,-0.860492000000000
Jerboa and Tahr,RG5 4NY,51.454777628855200,-0.898134221849818
Scimitar babbler and Goose,RG41 3HJ,51.415533801833800,-0.869483384632235
Minke whale and Piping shrike,GU18 5SZ,51.350122019145400,-0.660937396072039
Stilt and Tahr,SL6 2JH,51.491202000000000,-0.731437000000000
Partridge and Ice seal,GU19 5AQ,51.361679239712400,-0.693794611674848
Minke whale and Nukupuʻu,RG12 9LG,51.407896980212400,-0.733771883146485
Treepie and Elephant,RG9 1XL,51.530567323040700,-0.916200446046719
Kākāriki and Snipe,RG12 7QT,51.412427000000000,-0.755227083560572
Ice seal and Asiatic leopard,RG12 2GW,51.421704000000000,-0.747368000000000
Macaw and Francolin,SL6 1AN,51.522361000000000,-0.709262632955127
Tree warbler and Macaw,SL6 4AT,51.516617388003500,-0.741943656413880
Gull and Grackle,SL4 3JN,51.470754369630600,-0.616245614737752
Recurvebill and Linsang,GU46 7SY,51.346333310496300,-0.833021654556534
Boto and Kangaroo,RG40 1BA,51.411075550903000,-0.835673670120479
Fulmarine petrel and Black cockatoo,RG12 8ZH,51.395736797152000,-0.776683775916275
Magpie and Zebra,SL6 8QU,51.526521044280600,-0.704262987989309
Maya and Guillemot,RG10 8QY,51.519676000000000,-0.824408563056917
Quetzal and Hawk,SL2 5WX,51.508269603950500,-0.584618526220629
Snipe and Dorcopsis,SL4 5DA,51.484040962627800,-0.619746486037125
Shearwater and Pitohui,RG10 9AN,51.484774842744400,-0.862371512961883
Nukupuʻu and Jackal,RG41 4DL,51.398786402310100,-0.870902476386640
Mink and Logrunners,SL6 7SA,51.536596633935800,-0.729353526624727
Hawk and Maya,SL1 3LJ,51.524415180823300,-0.598504035365485
Treepie and Scimitar babbler,RG41 5UR,51.436686349513000,-0.874514699678687
Scimitar babbler and Treepie,RG45 7BH,51.367980807487100,-0.794288408507456
Quetzal and Linsang,RG40 2JD,51.405204871589700,-0.821388221926519
New World blackbird and Siskin,GU15 1QS,51.343853252570600,-0.707266610073844
Masked owl and Lemming,SL6 6PX,51.529987926169200,-0.765607308759458
Bronzewing pigeon and Grackle,RG42 3DQ,51.425707021201800,-0.735135233207487
Herring gull and Black cockatoo,RG10 9LF,51.480800162941600,-0.857718148126421
Polecat and Bunting,SL6 2QX,51.505241397288100,-0.714462733162066
Asiatic leopard and Thrasher,RG40 1UT,51.413505906248200,-0.823317369663505
Puffleg and Partridge,SL5 8HG,51.413945263228500,-0.699783315370304
Diving bird and Condor,SL1 8DH,51.535576000000000,-0.650682171380189
Zebra and Condor,SL5 7LY,51.425356694869900,-0.678114390992933
Scimitar babbler and Booted eagles,RG12 9DY,51.408461966311600,-0.747861232647609
Minke whale and Vulture,SL1 1TW,51.506442186686300,-0.590424402834380
Cuscus and Myna,RG42 2PQ,51.428586680253100,-0.753813055842474
Egret and Fox,RG5 4LA,51.453042568609000,-0.900090116522049
Darwin's finches and White ibis,SL6 8ED,51.529192307460000,-0.706767663338272
Armadillo and Old World warbler,GU25 4NR,51.403322596201800,-0.599965000000000
Jerboa and Tahr,RG12 2RS,51.417722427177100,-0.730178424090276
Viscacha and Quetzal,SL2 1RY,51.529050880671600,-0.623979426974140
Rabbit and Chipmunk,RG10 8PB,51.520239000000000,-0.869440000000000
Ground sloth and Puffleg,RG41 2TU,51.406415151239400,-0.854583242834427
Cuscus and Dolphin,RG45 6US,51.382175550668900,-0.797421746168047
Thrasher and Pheasant,GU15 4HE,51.348080418343800,-0.725398293964400
Marsh harrier and Gull,SL4 2DA,51.434996223072900,-0.655968631973396
Civet and Triller,SL4 4LY,51.476608678963500,-0.653363701731277
Tahr and Ground sloth,RG42 5RP,51.433068508780300,-0.755863393762468
Minke whale and Bunting,SL5 9NP,51.400224501648000,-0.656829831110144
Nukupuʻu and Ibex,GU47 8PD,51.356364534062900,-0.799633000000000
Ice seal and Solitaire,RG12 7HU,51.402133984776800,-0.753151930833281
Pitohui and Masked owl,SL2 5BX,51.520080578974800,-0.597714622079041
Polecat and Armadillo,RG4 6XB,51.463776324573500,-0.917207291544254
Macaw and Old World warbler,RG42 7PT,51.424338554086500,-0.707773117367525
Jerboa and Nukupuʻu,RG10 9XS,51.502288535446600,-0.831924662946685
Vole and Parakeet,GU18 5TH,51.349881649262500,-0.669833170030665
Bronzewing pigeon and Prion,RG27 0QR,51.352633842119100,-0.896765880874808
Herring gull and Elephant,SL2 2DY,51.534872317952700,-0.633521702893585
Vulture and Dorcopsis,RG12 8BE,51.408557718285800,-0.784292818545347
Pratincole and Gull,SL1 0RJ,51.508272000000000,-0.584601000000000
Solitaire and Tattler,SL6 8ZJ,51.518553121528900,-0.714794258096484
Stilt and Fish eagle,SL1 2NE,51.506481000000000,-0.596443000000000
Perching duck and Pitohui,SL4 1SA,51.483822523970200,-0.617996037461141
Minke whale and Recurvebill,SL5 9RG,51.391425374430800,-0.635398754647536
Pratincole and Mouse,SL6 7SG,51.533203922445300,-0.730759966037765
Triller and Viscacha,RG42 5QA,51.451123567637900,-0.781464556243627
Chickadee and Grackle,SL6 5FE,51.526628676600000,-0.750432422800000
Peafowl and Buzzard,RG42 3JL,51.428152389439800,-0.729270837095165
Petrel and Stint,RG12 7RN,51.410530987115700,-0.759782238953699
Dorcopsis and Mamo,SL1 2UJ,51.511510444579400,-0.624234110619770
B and Rat,SL1 5AY,51.510465000000000,-0.633983859833077
Lemming and Herring gull,RG9 1AA,51.535930183608300,-0.904019588019346
Jerboa and Capuchin,RG42 1PW,51.420470311248400,-0.771176977179173
Civet and Parrotlet,SL1 2AY,51.504209529191000,-0.590954358591846
Chipmunk and Logrunners,RG2 9FE,51.384116386634100,-0.904588273504974
Treepie and B,RG10 0SX,51.446924026892500,-0.868335000000000
Grackle and Piping shrike,SL6 4HQ,51.517824957610100,-0.738840515260622
Goose and Chickadee,RG42 5RS,51.435544252594000,-0.755292615035044
Parrotbill and Crow,RG41 4SS,51.404248233894300,-0.873154525333037
Quetzal and Flameback,SL2 2EX,51.533628474515400,-0.634813283713343
Jay and Old World warbler,SL4 6JR,51.498217223646100,-0.635525678302465
Pheasant and Vole,RG41 3SW,51.414397000000000,-0.854128601984934
Hawk and Chickadee,SL5 5DP,51.401787000000000,-0.653420000000000
Asiatic leopard and Flameback,RG9 1AY,51.534625000000000,-0.900821000000000
Fox and Flameback,GU47 0UT,51.355217683346400,-0.772320173264783
Moluccan boobook and Perching duck,SL1 5PA,51.519335236300500,-0.653055317877138
Kangaroo and Hawaiian honeycreeper,RG41 2RN,51.408017000000000,-0.847239000000000
Solitaire and Boto,RG12 7NY,51.399223982267000,-0.750097245712981
Booted eagles and Myna,SL6 4NY,51.518031982511800,-0.759098933116235
American sparrow and Linsang,RG40 1TE,51.419362999833700,-0.829034633615685
Kestrel and Grosbeak,SL1 3HP,51.523043741084800,-0.610207372314915
Solitaire and Warbler,SL5 5DS,51.401787000000000,-0.653420000000000
White ibis and Wader,RG42 6AQ,51.433284421522700,-0.742926000000000
Cuscus and Shearwater,GU46 7TG,51.343108260530100,-0.825235601686022
Cuscus and Bronzewing pigeon,RG45 6QH,51.377734650103000,-0.796661628933404
Moluccan boobook and Tree warbler,SL5 0EG,51.391883204626200,-0.628399819797010
White ibis and Jerboa,RG10 0RW,51.451115000000000,-0.840844000000000
Philippine hawk-owl and Cuscus,SL5 8LR,51.418743930219300,-0.697072904684265
Triller and Hawaiian honeycreeper,RG6 3WL,51.425221966065800,-0.909761930067202
Pitohui and Masked owl,RG5 4LE,51.459673250043200,-0.905285351095558
Piping shrike and Prion,RG42 3SE,51.423427751484200,-0.736406308854520
American sparrow and Vulture,SL2 1RD,51.531653685062900,-0.625097577144536
Macaw and Polecat,RG9 3LW,51.508823932365700,-0.882522520061456
Pitohui and Shearwater,SL4 4DQ,51.474199413337200,-0.638618146319064
Darwin's finches and Mouse,SL6 5BB,51.522239567172600,-0.747193987691983
Nukupuʻu and River dolphin,RG40 2BJ,51.408108061464900,-0.838380187618291
Lemming and Petrel,RG9 2DS,51.538418261383400,-0.907593393141591
Chipmunk and Stint,RG40 3SU,51.367750017019700,-0.840019188673263
Tit-tyrant and Wader,RG12 0TS,51.394577305156500,-0.736051317458646
Snipe and Chicken,RG42 4UB,51.424361959718400,-0.770137714758519
Mockingbird and Mockingbird,SL6 1NG,51.518553121528900,-0.714794258096484
Dorcopsis and Moluccan boobook,RG9 1FR,51.534503599781600,-0.900507104097212
Meadowlark and Thicketbird,RG5 4TT,51.459941462820900,-0.898398542217922
Tattler and Vulture,SL5 8LT,51.420578576721100,-0.696287261372150
Mole and Mockingbird,GU20 6HS,51.369223025426500,-0.649318573997845
Stilt and Solitaire,RG42 4GT,51.432940000000000,-0.749491000000000
Tattler and Philippine hawk-owl,RG40 4RU,51.386134204017000,-0.860636776259883
Myna and Partridge,RG10 0LJ,51.486465373687400,-0.815146695660519
Coati and Badger,RG12 9UA,51.413299235421400,-0.719516201227831
Civet and Guillemot,RG12 7HA,51.389750066551800,-0.752137529195219
American sparrow and Polecat,SL1 1PS,51.507044000000000,-0.591764785509120
Rat and Capuchin,GU18 5RJ,51.353621632166700,-0.676115539455220
Perching duck and Wallaby,SL1 2EA,51.504055982602900,-0.588653748326302
Cloud rat and River dolphin,RG40 3JF,51.385817754713500,-0.845756372978436
Linsang and Jay,RG10 0SD,51.453917111497700,-0.853395002907697
Buzzard and Flameback,RG42 3TR,51.421207368810800,-0.735633369386439
Greenbul and Chickadee,SL1 5TY,51.512083181597200,-0.634001854149627
Greenbul and Mole,RG9 1NY,51.525858049698000,-0.905803775242333
Night heron and Darwin's finches,RG9 1TR,51.536209306046900,-0.913730732507272
Chipmunk and Night heron,RG9 1XR,51.531917580270200,-0.907633635341364
Solitaire and Civet,RG12 7NB,51.397984092122500,-0.755262852354408
Grosbeak and Scimitar babbler,RG42 6EH,51.446068900755200,-0.751437814398854
Logrunners and Parrotlet,SL2 2LW,51.529258681384200,-0.639485113920520
Dolphin and Capuchin,GU47 9DA,51.343663485312000,-0.801042938389231
Tahr and Capuchin,RG40 2HG,51.408188634987900,-0.829305664101348
Hawaiian honeycreeper and Ibex,SL4 6AG,51.487557799600300,-0.609169197961097
Old World vulture and Vulture,SL5 9HQ,51.390196754106800,-0.636455751902457
Tit-tyrant and Minke whale,SL5 0BQ,51.396748000000000,-0.640674000000000
Duck and Piping shrike,RG42 4BR,51.416638382181200,-0.789069000000000
Pitohui and Night heron,RG41 1AF,51.423201000000000,-0.847630000000000
Lemming and Siskin,RG10 9PU,51.482626129685100,-0.867983876042838
Old World vulture and Dorcopsis,RG41 1AP,51.426425000000000,-0.849045000000000
Gull and Hawk,SL6 2LH,51.492445104849000,-0.707850835393866
Quetzal and Fish eagle,SL4 6JE,51.497254723548900,-0.631635928472632
Mockingbird and Hawaiian honeycreeper,SL6 8UU,51.530055000000000,-0.709035000000000
Asiatic leopard and Bunting,RG10 0JG,51.486346862420700,-0.806119371083652
Marsh harrier and Moluccan boobook,RG27 0QS,51.353647146011800,-0.896468692230719
Crow and Hawk,SL1 1PD,51.507547118080100,-0.591081965211401
Polecat and Guillemot,SL6 0NP,51.523279927924500,-0.687720824813536
Peafowl and Hawk,SL1 2PP,51.505250469593900,-0.603558751959245
Coati and Logrunners,SL6 3QG,51.506903000000000,-0.775622011694150
Guillemot and Kestrel,SL6 0PT,51.515639000000000,-0.671050000000000
Marsh harrier and Coati,RG45 6TS,51.380146926696300,-0.801282738519097
Ibex and Solitaire,SL5 8HB,51.417095538826900,-0.696817767066868
Moluccan boobook and Songlark,GU47 8HT,51.351978572702300,-0.814037486624894
Stilt and Fox,SL2 2JB,51.531900789000000,-0.635283153700000
Flameback and Perching duck,SL1 6PF,51.521832395434700,-0.652044747142722
Rabbit and Diving bird,RG40 3RQ,51.391416184957500,-0.852715623373769
Egret and Macaw,SL6 0NY,51.522838727100000,-0.677845453100000
Rat and Goose,SL1 5TZ,51.511982475609800,-0.632304385234847
Shearwater and Kite,RG41 2TG,51.410525008958000,-0.848211471106211
Piping shrike and Chickadee,SL6 8RL,51.529195028485600,-0.714379333390328
Night heron and Stilt,GU47 8JR,51.348358744319000,-0.804696904457956
Herring gull and Jay,RG40 4RE,51.368884580600000,-0.895743494300000
Chicken and Fox,SL1 0TD,51.510856575769300,-0.604655492966527
Mouse and Cuscus,RG12 7YJ,51.393630047005700,-0.761877809305174
Fish eagle and Bunting,SL5 7NZ,51.419723538509000,-0.684144637428761
Chickadee and River dolphin,SL1 6EU,51.525547135058500,-0.649008800365258
Partridge and New World blackbird,SL1 6HG,51.524637224381100,-0.652769166113787
Magpie and Bronzewing pigeon,RG10 9TP,51.487825296896900,-0.896257000000000
Grackle and Rabbit,RG45 7QJ,51.363815378523600,-0.798462813417512
Parakeet and Treepie,RG41 5NT,51.429219413701900,-0.873202150047949
Rat and Ibex,SL2 5EA,51.513740000000000,-0.585530000000000
Linsang and Bunting,RG12 9PE,51.406881710500000,-0.746164800000000
Buzzard and Darwin's finches,SL5 8DE,51.410560171739000,-0.690533072359446
Eagle and Hawaiian honeycreeper,SL2 1DZ,51.530034336418700,-0.610527947425172
Linsang and Chipmunk,SL4 6DX,51.492290761050600,-0.610191960325632
Prion and Cuscus,GU25 4JU,51.395084000000000,-0.587354466857335
Maya and Stilt,SL5 8EA,51.413461771246100,-0.707288881192205
Stilt and Jackal,RG12 7LR,51.398983000000000,-0.753485197002962
Bronzewing pigeon and Towhee,RG42 5JD,51.433754371404600,-0.784386676026440
Old World warbler and Macaw,GU24 8WE,51.351017048362300,-0.602823966465807
Skunk and Black jay,GU25 4NT,51.404749000000000,-0.596946000000000
Eagle and Chipmunk,RG9 1ET,51.528401586715000,-0.898953014324880
Thicketbird and Parrotbill,SL1 1TJ,51.506780830208500,-0.593166124023900
Armadillo and Kite,SL6 6PS,51.533077689247100,-0.754220544591517
Scimitar babbler and Black jay,SL1 3SJ,51.512114000000000,-0.600640000000000
Snipe and Marsh harrier,RG42 4NW,51.422779787468500,-0.777055057837309
River dolphin and Triller,RG40 4QE,51.373395000000000,-0.884170000000000
Mink and Moluccan boobook,SL4 4RA,51.458098688196600,-0.646626000000000
Night heron and Treepie,SL5 0JB,51.385090776877500,-0.623515557313814
Asiatic leopard and Booted eagles,SL1 6JX,51.524553762286300,-0.646299383292530
Jackal and Magpie,RG12 1FD,51.416007000000000,-0.770736000000000
Greenbul and Parakeet,GU47 0QS,51.350670075801700,-0.777711815495418
Chickadee and Mamo,SL1 2NH,51.507815920235700,-0.611362366245591
Shearwater and Goose,RG2 9LT,51.386988548619800,-0.901142472210708
Siskin and Peafowl,RG41 2AL,51.397226000000000,-0.842580000000000
Vulture and Jay,SL1 3DR,51.517241729525300,-0.611811000000000
Moluccan boobook and Old World quail,SL1 5RE,51.518835943089600,-0.647953432589560
Tahr and White ibis,GU47 9DZ,51.343959033096100,-0.797417044439758
Boto and Shearwater,GU47 8NQ,51.356525537524500,-0.808419530087247
Quetzal and Kākāriki,RG12 9AL,51.412473810711600,-0.742948935763234
Mamo and Piping shrike,RG42 4JG,51.430824000000000,-0.790360000000000
Mole and Skunk,GU15 4DS,51.350301879614600,-0.727088577029687
Jackal and Mockingbird,SL4 3RA,51.477548233572500,-0.632758461177500
Coati and Civet,GU15 1PL,51.345430894710200,-0.709261124728838
Capuchin and Asiatic leopard,RG45 7DY,51.371068533201700,-0.788089000000000
Puffleg and Argus,RG12 7RZ,51.405902487275100,-0.763415499980145
B and Stilt,SL1 5NB,51.513588152321100,-0.652950997848314
Myna and Dolphin,SL1 4WS,51.524784895100000,-0.616454000000000
Badger and New World blackbird,SL4 2BD,51.465620748261200,-0.612513897635645
Meadowlark and American sparrow,SL4 1LH,51.482299715491900,-0.607845789412150
Stint and Meadowlark,SL4 3QT,51.474521068414700,-0.632258596021467
Bunting and Marsh harrier,SL1 2HF,51.507628368157700,-0.598615644333289
Stilt and Marsh harrier,SL4 3EN,51.475985712656000,-0.615309762904264
Marsh harrier and Capuchin,SL1 3DN,51.519150646602500,-0.607212625396422
Kestrel and Flameback,SL5 7AN,51.402170662806100,-0.660309388760966
Diving bird and Fox,GU24 8PQ,51.349920482816700,-0.598348281930098
Argus and Viscacha,GU47 8PA,51.350896691568700,-0.800509546270032
Polecat and Asiatic leopard,RG45 7AG,51.369305810622000,-0.793982000000000
River dolphin and Parrotbill,GU19 5DU,51.358548353550400,-0.697689733051637
Grackle and Wader,GU20 6BP,51.365654654652200,-0.658846875199760
Hawk and Kite,SL2 2NH,51.531847228863100,-0.647942886819429
Kākāriki and Wader,SL4 5JE,51.484753383670900,-0.626047579032687
Skunk and Viscacha,SL2 1NG,51.528933140843500,-0.608658524205231
Puffleg and Civet,SL5 9ZS,51.401786147432200,-0.653434446641934
Jackal and Moluccan boobook,RG40 5QL,51.437606647942200,-0.808397419095136
Prion and Grouse,SL6 4AD,51.522248667401700,-0.730473546772686
Mouse and White ibis,SL4 5AH,51.480454881106400,-0.615318440940110
Linsang and Nukupuʻu,SL6 4NZ,51.517798750185700,-0.754060884782789
Linsang and Old World quail,RG12 2TN,51.416861527333800,-0.743748969254150
Snipe and Skunk,RG45 7DD,51.370491859035700,-0.788404162205686
Treepie and Stint,RG9 9JN,51.535934000000000,-0.904000000000000
Cloud rat and Mockingbird,SL4 6PZ,51.501899739208900,-0.656191549774847
Zebra and Pheasant,RG5 3JW,51.451807363751700,-0.905502240953340
River dolphin and Pheasant,SL6 4ET,51.520690045269500,-0.731857333787407
Civet and Wader,SL6 3LA,51.483701758376500,-0.733949208497788
Nukupuʻu and Quetzal,SL5 7HH,51.411596059586900,-0.673895512312904
Cloud rat and Night heron,RG41 2EW,51.397279837796600,-0.837288859449677
Treepie and Siskin,SL2 2LS,51.529843995904800,-0.634912057629514
Piping shrike and B,RG12 7WS,51.388419542005200,-0.759790789945152
Old World warbler and Recurvebill,SL6 2DJ,51.498227558009100,-0.701391736405936
Masked owl and Tattler,RG12 7NE,51.397086668127500,-0.755430952669341
Nukupuʻu and Francolin,RG45 6JR,51.377264790390100,-0.804346613117992
Wader and Marmoset,GU19 5LP,51.361784000000000,-0.687730000000000
Masked owl and Minke whale,RG5 3LS,51.446638572948300,-0.905668968706703
Parrotlet and Quetzal,RG5 4AE,51.443638418340500,-0.899280005395240
Triller and Kestrel,RG10 0AY,51.471321417516200,-0.860359273563069
Dolphin and Maya,SL1 1HD,51.508269603950500,-0.584618526220629
Warbler and Old World warbler,SL6 6YD,51.518553121528900,-0.714794258096484
Francolin and Mink,SL4 4DT,51.474288241743200,-0.642402428400937
Minke whale and Jerboa,RG10 8AQ,51.498078626810400,-0.861939540774916
Vulture and Kestrel,GU19 5NR,51.361787646818100,-0.689008457775556
Parrotbill and Peafowl,GU47 9RP,51.351803906162100,-0.788179059074810
Rat and American sparrow,SL5 0PZ,51.406014000000000,-0.638645000000000
New World blackbird and Tree warbler,RG5 3JX,51.453055353126000,-0.906263960390516
Old World quail and Petrel,RG40 9SX,51.411756459998100,-0.839049834500358
Minke whale and Parrotbill,SL1 6NN,51.527447700527100,-0.645391872166553
Rat and Parrotbill,SL4 3SD,51.477341899513500,-0.628948647607663
New World blackbird and Gull,RG5 3AE,51.457277807150800,-0.911661296597647
Chicken and Thicketbird,RG10 9JH,51.476745718488600,-0.860584107482252
Bronzewing pigeon and Cloud rat,RG40 3BU,51.388310905792600,-0.795938741235687
Linsang and Pratincole,RG4 6XQ,51.468972665609500,-0.904515767505428
Guillemot and Tahr,RG12 1AE,51.417007165428100,-0.748116744754920
River dolphin and Mockingbird,SL1 6PD,51.523422668507500,-0.653496898500927
Civet and Ground sloth,GU19 5LD,51.359745758738700,-0.687343192304246
Grackle and Moluccan boobook,RG41 2QY,51.403105351281400,-0.844617000000000
Chickadee and Vole,SL2 2HH,51.536098631120300,-0.635359384289548
Viscacha and Darwin's finches,SL6 3SD,51.493134051279800,-0.781468512199325
Mole and Snipe,SL5 0JP,51.394291187056700,-0.625165570784875
Partridge and Magpie,RG12 8BZ,51.409367525700000,-0.776320211000000
River dolphin and Myna,RG9 9JL,51.535934000000000,-0.904000000000000
Masked owl and Scimitar babbler,SL1 5FH,51.508850391747300,-0.632830460096537
Skunk and Wader,SL1 6DX,51.525029640271700,-0.660339845666915
Gull and Towhee,SL1 6JZ,51.524187343334900,-0.648054425144093
Pheasant and Goose,SL5 7ET,51.408893573775300,-0.670292824922663
Duck and Songlark,RG40 9QY,51.410738000000000,-0.835060000000000
Piping shrike and Darwin's finches,SL6 3XH,51.504256812601000,-0.759141700290982
Tree warbler and American sparrow,GU24 9QT,51.343442684407400,-0.643127249346765
Pratincole and Polecat,SL1 3AF,51.526765080027200,-0.612371738745778
Peafowl and Shearwater,SL4 3SL,51.481684674087400,-0.615900456053726
Chipmunk and Nukupuʻu,SL1 2EG,51.506397979283900,-0.597990567615512
Moluccan boobook and Flameback,RG45 6LG,51.382266258892100,-0.801888394360495
Moluccan boobook and Cloud rat,RG40 3HA,51.382082954168600,-0.818375324961991
Marsh harrier and B,SL6 7RF,51.535061252800000,-0.733491093900000
Duck and Pheasant,RG45 7BX,51.369766407277200,-0.798292713548714
Tit-tyrant and Ground sloth,RG12 7RX,51.406372519510700,-0.763647240211228
Vulture and Partridge,SL4 6DS,51.491838418778600,-0.609960837490586
Capuchin and Pratincole,SL6 3SJ,51.486891000000000,-0.776810000000000
Badger and Parrotlet,SL6 7BZ,51.529850611650600,-0.726672459923070
Towhee and Thicketbird,GU15 2AN,51.343103973385900,-0.720927506439651
Grouse and Magpie,RG41 5RD,51.438575000000000,-0.892395000000000
Wader and Mamo,SL4 1HN,51.478457104939700,-0.610626831933464
Kite and Grackle,RG10 0PS,51.462367055967600,-0.802757697684365
Tit-tyrant and Logrunners,SL5 0NF,51.399957450949400,-0.632183512047020
Tattler and Parrotbill,SL5 7HE,51.410185031880600,-0.671578212218260
Darwin's finches and Grouse,RG12 9AB,51.412971000000000,-0.747307000000000
Bronzewing pigeon and Old World vulture,RG5 4HJ,51.462815234084900,-0.899927212393680
Myna and Treepie,SL1 8JD,51.538785057354100,-0.666453564830301
Masked owl and Meadowlark,RG10 8HH,51.499624930357200,-0.884375423363311
Partridge and Viscacha,SL5 9JE,51.392789243949100,-0.667971279660532
Marmoset and Cloud rat,RG12 7LQ,51.390869590700100,-0.755944563493320
Elephant and Tit-tyrant,RG12 2TT,51.416120478451100,-0.741495000000000
Partridge and Flameback,RG10 9SJ,51.474779673453000,-0.879581948109381
Wader and Flameback,GU47 8LN,51.353789443315800,-0.808174561077696
Condor and Parrotbill,RG2 9PP,51.387011000000000,-0.910153000000000
Parrotlet and Zebra,GU47 8LU,51.353356245334800,-0.808903839596855
Solitaire and Viscacha,SL6 4RQ,51.516105000000000,-0.748558000000000
Kangaroo and Fish eagle,RG9 1UQ,51.536930137362600,-0.912920564387129
Thicketbird and Quetzal,SL4 6QU,51.508408267201200,-0.664920000000000
B and Nukupuʻu,RG4 6XE,51.471547943833600,-0.907794383356186
Minke whale and Duck,SL6 8NG,51.524287099812800,-0.707166073827389
Hawk and Gull,RG5 4DB,51.446359592246400,-0.891285776338515
Wallaby and Marsh harrier,SL4 5HE,51.484776936113800,-0.631908598594487
Grosbeak and Kangaroo,SL6 0JD,51.532762005803600,-0.685718136487726
Skunk and Quetzal,RG10 9TH,51.493376016340300,-0.842653479119287
Stint and Black cockatoo,RG42 5PB,51.433003482432500,-0.800533063624029
Francolin and Marmoset,GU47 9RB,51.349767782876200,-0.787801972668128
Mouse and Zebra,SL1 2XH,51.511637759493000,-0.617471628733007
Songlark and Masked owl,RG10 0GJ,51.473565827189700,-0.858143587160446
Skunk and Pratincole,SL6 3SL,51.485540971211300,-0.777638236599528
Condor and Night heron,SL1 2PU,51.504916684270200,-0.603468093831385
Stint and Maya,SL1 5PB,51.519451207178800,-0.653758143075839
Condor and Civet,RG42 1UG,51.419876983638300,-0.764347202700467
Thrasher and Grosbeak,RG12 2QN,51.417471037592600,-0.722764801851684
Asiatic leopard and Boto,RG45 7DH,51.370686431678500,-0.788959310812092
Herring gull and New World blackbird,SL6 8HZ,51.534459045475900,-0.709804777402084
Skunk and Bronzewing pigeon,RG40 1EH,51.415026536600000,-0.810681470100000
Chickadee and Viscacha,SL1 5FR,51.516800207200000,-0.636570385100000
Marmoset and American sparrow,RG10 9JG,51.477221474434000,-0.860500257137068
White ibis and Vulture,RG12 8LZ,51.418235866037700,-0.784553842115900
Jay and Old World quail,GU18 5ND,51.348711000000000,-0.679947000000000
Nukupuʻu and Chipmunk,SL1 7EF,51.527520582632600,-0.670631647656744
Ice seal and B,SL6 2PD,51.482307945181800,-0.694571197895740
Duck and Cuscus,SL1 3PH,51.515511191349600,-0.602870313218237
Egret and Coati,RG42 2BJ,51.422465054213100,-0.759933899961933
Parrotbill and Logrunners,SL1 0PQ,51.508269603950500,-0.584618526220629
Jackal and Zebra,SL4 3HB,51.478001954773500,-0.616242324366077
Old World vulture and Marmoset,RG9 9BZ,51.535934000000000,-0.904000000000000
Asiatic leopard and Lemming,RG42 6JE,51.446076589037300,-0.713879803005129
Recurvebill and Fox,RG10 9EH,51.477880703283400,-0.866358958097952
Triller and Ice seal,RG41 1LJ,51.420735018749400,-0.857820845003434
Grackle and Old World vulture,RG40 4UQ,51.384404961099000,-0.854816563526564
Skunk and Grosbeak,SL1 5LR,51.513147342309400,-0.650586151314326
Kite and Meadowlark,RG45 7EN,51.368981228696800,-0.787538986658874
Maya and Dorcopsis,RG41 5HD,51.434329000000000,-0.891246000000000
Gull and Tree warbler,RG9 2EA,51.537440384049500,-0.908799121776865
Greenbul and Buzzard,GU15 4AW,51.352800907234600,-0.717943354709832
Elephant and Tree warbler,RG10 8HJ,51.499145472489800,-0.887859092830046
Pitohui and Jay,RG42 6LX,51.433370916193900,-0.712251313884776
Old World warbler and Rabbit,RG40 4RZ,51.386820366212600,-0.860921533955222
Logrunners and Minke whale,RG10 0NX,51.470483897934200,-0.811313391408132
Stint and Perching duck,GU24 9FX,51.342232000000000,-0.636397000000000
Solitaire and Cloud rat,SL1 6LA,51.527954568384100,-0.651143182084985
Siskin and Wader,SL2 2BA,51.537114876538000,-0.629201007266059
Recurvebill and Crow,SL1 2GD,51.503848073094500,-0.593803949673439
Badger and Tit-tyrant,RG42 3UE,51.422030769007700,-0.726966823295003
Wallaby and Marsh harrier,SL4 6BL,51.487310490638100,-0.608787838267877
Herring gull and Partridge,SL6 3PZ,51.510632539853500,-0.760034875122055
Myna and Rat,RG40 4QW,51.375925405945000,-0.890329778330326
Scimitar babbler and Old World warbler,RG6 3BX,51.433164431018600,-0.915859466758354
Francolin and Duck,RG41 1EN,51.417187613056800,-0.849079468420288
Wallaby and Booted eagles,SL1 5NH,51.519165293411600,-0.650004754216471
Darwin's finches and Buzzard,RG41 5LA,51.433218292477900,-0.868270174371795
Boto and Mamo,SL1 3FZ,51.517500000000000,-0.610301000000000
Armadillo and Grouse,SL6 5JU,51.527239922561800,-0.761543000000000
Jay and Thrasher,SL6 4LQ,51.519613037018700,-0.759805451123824
Goose and Ground sloth,GU20 6LH,51.377651752036300,-0.666068575123880
Tree warbler and Parrotlet,RG12 9NQ,51.410227000000000,-0.740422000000000
Diving bird and Scimitar babbler,RG10 9UQ,51.473568881944400,-0.880849871191245
Old World warbler and New World blackbird,RG5 3ER,51.456558912699000,-0.915593300274937
Booted eagles and Duck,RG10 0AN,51.470331478144600,-0.862126025030626
Stilt and Mink,RG5 4QS,51.456220374799400,-0.890931794205105
Jay and Stint,SL6 8QQ,51.529896324302500,-0.709458003378348
Flameback and Jay,SL4 1PR,51.484562338057200,-0.607560860354547
Quetzal and Linsang,SL4 3TH,51.470925941162400,-0.622417135630162
River dolphin and Egret,RG10 9PA,51.489588748598100,-0.863634461774265
Ibex and Boto,RG40 1QP,51.414617376577000,-0.821174982294892
Towhee and Pitohui,RG40 4XD,51.377924612850800,-0.866214363361997
Night heron and Old World vulture,SL4 6DD,51.490822510298900,-0.609977327704396
Hawk and Bunting,RG12 7JW,51.400797175051700,-0.754280831009931
Chipmunk and Recurvebill,RG41 1HX,51.423696220177300,-0.862737863345270
Fulmarine petrel and Greenbul,SL1 5PE,51.516146970104600,-0.653394360868927
Rabbit and Parrotbill,GU47 7GF,51.344155000000000,-0.802306000000000
Eagle and Black jay,GU47 8QN,51.351682177381900,-0.800819324801833
Magpie and Bronzewing pigeon,SL6 1BZ,51.514587933188600,-0.722226915288101
Goose and Old World quail,GU15 4DW,51.348985856067900,-0.725143423103154
Elephant and Kākāriki,SL6 2ED,51.502397000000000,-0.685655000000000
Cloud rat and Cuscus,RG10 9XQ,51.488451180233000,-0.841451000000000
Myna and Night heron,RG42 4JA,51.426651000000000,-0.774691000000000
Boto and Black cockatoo,SL6 2HZ,51.494049813832600,-0.718061894790652
Parakeet and Mole,SL6 7RA,51.535758244800000,-0.733918716900000
Siskin and Francolin,SL1 2YQ,51.511025467844000,-0.621986259376067
Lemming and Parrotbill,RG42 7NN,51.430625809530300,-0.701424546778149
Meadowlark and Badger,SL6 0PD,51.521665863858200,-0.664214976163418
Warbler and Boto,SL4 4AP,51.466392799539800,-0.655636736670041
Petrel and Skunk,GU47 8JE,51.357258656852700,-0.822231127274062
Dorcopsis and Mink,SL6 8NA,51.524013938885700,-0.709307162781311
New World blackbird and Macaw,SL6 7NG,51.534813233674100,-0.738009000000000
Logrunners and Wallaby,SL6 3AA,51.503905260807800,-0.732150356742912
Hawk and Egret,RG12 8XG,51.397113215323600,-0.769014184776691
Buzzard and Jay,SL4 3BG,51.476902000000000,-0.614389000000000
Crow and Black cockatoo,RG42 3DH,51.430829356752300,-0.732346934964892
Ground sloth and Bunting,SL4 1EW,51.480289696006800,-0.608958250846464
Coati and Peafowl,SL4 5QD,51.482378993185200,-0.644552867000908
Grouse and Duck,SL6 5JL,51.525058000000000,-0.758490000000000
Nukupuʻu and Grosbeak,RG41 3XF,51.418581155207900,-0.862879170006240
Greenbul and New World blackbird,SL4 5SP,51.480302037333400,-0.654723823268147
Fulmarine petrel and Night heron,SL4 3FL,51.473695000000000,-0.626723000000000
Jay and Pratincole,SL2 2AP,51.537620636146600,-0.630930508160344
Nukupuʻu and Piping shrike,GU46 7RH,51.344864129083300,-0.845378220232262
Ibex and Eagle,RG40 3HY,51.390739201373600,-0.849699965286193
Macaw and Snipe,RG40 3EJ,51.383074167691600,-0.852061983422373
Hawaiian honeycreeper and Ibex,RG41 5RL,51.429608773200000,-0.876012075100000
