name,postcode,lat,lon
Mink and Mamo,LL54 5AL,52.975504060981300,-4.403347000000000
cayman and cerastes,LL54 5LW,52.993489674753900,-4.427182000000000
Wallaby and Badger,LL54 5PW,53.009113975969500,-4.384354722348320
Cuscus and cayman,LL54 5SF,53.087204484318200,-4.288613720144210
Pheasant and coral snake,LL54 5SG,53.087753346848700,-4.290927755632480
River dolphin and bull snake,LL54 5TH,53.085991815611700,-4.306708374859920
Grouse and agamid,LL54 6BA,53.050019980935300,-4.247474854875880
American sparrow and Vole,LL54 6DD,53.046311729951600,-4.281671468188810
hawksbill and frill-necked lizard,LL54 6EA,53.028792564376800,-4.272991175929430
Cuscus and amethystine python,LL54 6LG,53.060639067948600,-4.248863578118430
horned viper and Pitohui,LL54 7AB,53.072553970058600,-4.248290364382960
hognose snake and Treepie,LL54 7AP,53.082102154919700,-4.250238000000000
Herring gull and blue tongue,LL54 7BN,53.070073033787100,-4.226754725253530
Badger and snake,LL54 7DN,53.075349821348500,-4.267725137490070
green turtle and Night heron,LL54 7DY,53.078724771230400,-4.274143665811740
Hawk and Black jay,LL54 7HD,53.093135300306200,-4.234398062050030
Parrotlet and gavial,LL54 7HP,53.089122657671100,-4.231188303294870
amethystine python and Dorcopsis,LL54 7RA,53.082124578163000,-4.235186329133600
Songlark and Vole,LL54 7RF,53.071098942124100,-4.216596903489750
worm lizard and Partridge,LL54 7TW,53.075560668159000,-4.276455178117370
turtle and lizard,LL54 7UF,53.080015093569100,-4.290770507277450
Scimitar babbler and gecko,LL54 7UP,53.112532670337400,-4.267455685983530
Francolin and dugite,LL54 7UW,53.112711000000000,-4.268565263348140
copperhead and Vole,LL55 1AE,53.141173891569400,-4.274257773893960
jew lizard and hognose snake,LL55 1AY,53.142490000000000,-4.272697000000000
Dorcopsis and water snake,LL55 1EE,53.142338808248600,-4.261250528799340
slowworm and Coati,LL55 1HE,53.143439879014200,-4.265285956758200
Chicken and viper,LL55 1HJ,53.145969366000900,-4.265598586261540
Crow and king snake,LL55 1LW,53.151510070742500,-4.263587170239760
anole and boomslang,LL55 1PP,53.140738645323200,-4.273038583833290
Peafowl and gopher snake,LL55 1PT,53.140794089922500,-4.269944000000000
Treepie and Ground sloth,LL55 1RF,53.140323000000000,-4.275566729578680
Egret and Snipe,LL55 1RR,53.140163745588400,-4.276078000000000
Scimitar babbler and blindworm,LL55 1RT,53.141267049052500,-4.276909294708290
smooth snake and Petrel,LL55 1SY,53.141870000000000,-4.274680769052640
cycling lizard and Songlark,LL55 1UL,53.161993735280200,-4.220127761615560
Bronzewing pigeon and Quetzal,LL55 1YD,53.169438027949300,-4.203679791997350
Chicken and Piping shrike,LL55 1YP,53.166262199411300,-4.201362620493130
Chicken and Lemming,LL55 1YY,53.165041715838800,-4.201240288436870
Armadillo and Schneider python,LL55 2BS,53.142199279239800,-4.253437835657200
Linsang and Zebra,LL55 2DD,53.139966000000000,-4.266957000000000
snapping turtle and slowworm,LL55 2DW,53.139177261868200,-4.260605945828440
Ground sloth and Grackle,LL55 2EA,53.138992754154400,-4.256589201492740
Badger and dukite,LL55 2EH,53.137552475097900,-4.259997308312900
worm lizard and Vulture,LL55 2EP,53.137315996469900,-4.262152000000000
Skunk and blue tongue,LL55 2LE,53.137247095925500,-4.269430366269420
Mink and tree snake,LL55 2RN,53.139010000000000,-4.267116000000000
Grackle and Black cockatoo,LL55 2SH,53.133407000000000,-4.244958712179100
pit viper and boomslang,LL55 4BS,53.154459235771600,-4.193953104949890
Macaw and tuatara,LL55 4HJ,53.130340733531800,-4.210751663698310
River dolphin and Asiatic leopard,LL55 4HQ,53.121562273698700,-4.226845661807590
cobra de capello and Viscacha,LL55 4PZ,53.109870421450000,-4.201438469119440
Fulmarine petrel and Rat,LL55 4QA,53.146504184442700,-4.196718334763380
Black cockatoo and Boto,LL55 4ZA,53.111510690307000,-4.205049233369500
sand lizard and leathery turtle,LL55 9ZX,53.140375110240300,-4.277475141742080
brown snake and water snake,LL56 4QB,53.192048046845600,-4.189151081231200
constrictor and king snake,LL56 4QG,53.186572527788100,-4.193557061744900
Black jay and sidewinder,LL56 4QX,53.188363786712400,-4.209006422499220
Moluccan boobook and Prion,LL60 6NE,53.192432615873800,-4.334113152645530
agama and Boto,LL60 6NJ,53.190789122668800,-4.333559772867040
Ibex and cobra de capello,LL61 6HZ,53.179016024608100,-4.269700000000000
Linsang and sea snake,LL61 6RN,53.162827096406800,-4.324831083464820
Minke whale and Darwin's finches,LL61 6RY,53.164356399808700,-4.359518008283190
Eagle and Night heron,LL61 6SJ,53.191201000000000,-4.270454000000000
loggerhead and Siskin,LL61 6SY,53.165548346537800,-4.357443971289300
habu and Ibex,LL61 6TR,53.167090155982100,-4.363573073215480
Jackal and Pheasant,LL61 6UF,53.178369268942700,-4.274729240786930
wall lizard and king snake,LL61 6YL,53.167504084397900,-4.321059282510230
diamondback terrapin and Chicken,LL61 6YR,53.166022828554400,-4.324480000000000
diamondback terrapin and racer,LL61 6YZ,53.166518854374500,-4.324551953771370
dugite and carpet snake,LL62 5AB,53.199992000000000,-4.403850000000000
leathery turtle and Pheasant,LL62 5AN,53.193257723114900,-4.389071207374310
Masked owl and Armadillo,LL62 5AR,53.193863705031300,-4.387547914734400
gavial and Lemming,LL62 5BA,53.185421457204100,-4.379444906582670
Grosbeak and Grackle,LL62 5HU,53.196371443203200,-4.422585000000000
Buzzard and elapid,LL62 5LP,53.179830198963500,-4.416880322950110
Night heron and Jerboa,LL63 5LX,53.191639610936500,-4.463190073570320
