name,postcode,lat,lon
swift and hawksbill,CH7 5NX,53.185354000000000,-3.240593000000000
Kangaroo and Old World vulture,CH7 5NZ,53.179850000000000,-3.251993424015910
Nukupuʻu and smooth snake,LL15 1AU,53.115618100264500,-3.308883415186340
Black cockatoo and Badger,LL15 1BN,53.116743295958500,-3.310381897481620
worm lizard and Nukupuʻu,LL15 1BQ,53.125891642055100,-3.281771631530550
Gull and black snake,LL15 1HF,53.114331032062000,-3.311473925626720
Puffleg and Vulture,LL15 1JB,53.112609563741000,-3.301232197460510
Towhee and Buzzard,LL15 1NU,53.114086859753900,-3.318115190954030
sidewinder and Kite,LL15 1TE,53.133189048892200,-3.318998871937580
agama and soft-shelled turtle,LL15 1UT,53.123903000000000,-3.272806000000000
boomslang and hoop snake,LL15 1XY,53.107656880750500,-3.298707406481370
horned viper and rattlesnake,LL15 2EX,53.079696337280400,-3.273173047019970
Herring gull and blue tongue,LL15 2NT,53.092202000000000,-3.307963000000000
loggerhead and perentie,LL15 2PA,53.083048000000000,-3.313897000000000
boomslang and black snake,LL15 2PY,53.043140069360900,-3.335042229795480
Quetzal and gecko,LL15 2TZ,53.134819844677000,-3.333996941514430
Parrotlet and Triller,LL15 2UA,53.125911593443900,-3.342747791414180
Chicken and glass snake,LL15 2UN,53.102616000000000,-3.277031000000000
Siskin and agama,LL15 2UW,53.093240991900000,-3.276113000000000
Snipe and rock python,LL15 9AQ,53.115065531504900,-3.310898634685500
krait and saltwater crocodile,LL16 3AP,53.185038806231900,-3.416265110687910
Old World warbler and flying lizard,LL16 3DB,53.183933244972800,-3.417140000000000
python and Herring gull,LL16 3HE,53.183933724405900,-3.404825108208600
mud turtle and moloch,LL16 3LP,53.183067950654800,-3.423981986582340
amphisbaena and tiger snake,LL16 3PE,53.185258720659300,-3.427212368950440
Dolphin and Fulmarine petrel,LL16 3RF,53.182576331179000,-3.426000921999830
thorny devil and grass snake,LL16 3SB,53.183561188744200,-3.425584644108280
Buzzard and slowworm,LL16 3SZ,53.183582865785800,-3.421514819444710
Lemming and Philippine hawk-owl,LL16 3TB,53.184056080955000,-3.419525109610060
Bunting and box turtle,LL16 3YB,53.188374767566600,-3.419218774174290
frill-necked lizard and Marmoset,LL16 3YU,53.186237865724100,-3.428023129877550
goanna and Parrotlet,LL16 4AD,53.181644344185200,-3.399991557453440
asp and bearded dragon,LL16 4AW,53.181757000000000,-3.397406000000000
Magpie and bull snake,LL16 4HX,53.175198422306700,-3.337449031143640
B and cobra,LL16 4NN,53.160579746538100,-3.378440000000000
iguana and Nukupuʻu,LL16 4PX,53.182378772384200,-3.404041006050830
Grosbeak and soft-shelled turtle,LL16 4SF,53.152498688545300,-3.410752274950500
terrapin and galliwasp,LL16 4TR,53.149753277660000,-3.436953000000000
Goose and Rabbit,LL16 5HR,53.178291254419200,-3.597161580462700
Mink and Argus,LL16 5LY,53.154614498084800,-3.558295567216520
Siskin and amphisbaena,LL16 5PE,53.162679692086600,-3.471277167052180
Treepie and king snake,LL16 5RP,53.177402000000000,-3.466514000000000
hoop snake and garter snake,LL21 0AE,52.980992022733800,-3.378480273098340
Parakeet and Jay,LL21 0AG,52.980744000000000,-3.377445000000000
crocodile and hognose snake,LL21 0NY,52.990699508902200,-3.483168072786530
Chickadee and Black jay,LL21 0RG,53.007426437741300,-3.548307371813570
amphisbaena and flying lizard,LL21 0RN,52.991028339637300,-3.594562587218610
Nukupuʻu and Thicketbird,LL21 9AB,52.988079788883100,-3.371942545037680
gaboon viper and hoop snake,LL21 9DE,53.004445929740500,-3.380091940158640
Masked owl and boa constrictor,LL21 9DH,53.009395100633200,-3.379683479795570
Masked owl and gecko,LL21 9NL,53.028839043142200,-3.243685834768910
frill-necked lizard and bushmaster,LL21 9RF,53.031462967881500,-3.437547428054720
blind snake and blue tongue,LL21 9RG,53.022482704241200,-3.450816363812670
kabaragoya and Coati,LL21 9UF,53.031285729200200,-3.534458209197590
Mockingbird and leathery turtle,LL21 9YA,52.988270452895700,-3.380518000000000
