name,postcode,lat,lon
Rumba,CW12 1AH,53.1635,-2.2149
DV8,CW12 1AR,53.1633,-2.2142
Wild & Wild Ltd,CW12 1AY,53.1632,-2.2136
Costa Coffee,CW12 1BA,53.1630,-2.2130
LizzyB's,CW12 1BD,53.1627,-2.2114
Ye Olde White Lion Congleton,CW12 1BD,53.1627,-2.2114
The olde Kings Arms ,CW12 1BN,53.1630,-2.2109
Bear Grills Cafe,CW12 1BP,53.1639,-2.2117
KingfishR Indian cuisine,CW12 1HG,53.1651,-2.2146
The Old Saw Mill,CW12 1HJ,53.1657,-2.2149
McDonald’s Restaurants 552 t/a LEMACA Ltd,CW12 1LR,53.1679,-2.2188
Spice Sector Ltd,CW12 1RP,53.1628,-2.2096
Reuben Stubbs Bistro,CW12 1RS,53.1627,-2.2076
Waggon and horses,CW12 2JD,53.1900,-2.2158
The Plough Inn,CW12 2NH,53.1856,-2.1915
The Queens Head,CW12 3DE,53.1580,-2.1943
The Chappell Centre,CW12 3HX,53.1536,-2.1873
The Castle Inn,CW12 3LP,53.1503,-2.1752
The Honey Pot Tea Room Alsager Ltd,CW12 3LZ,53.1511,-2.1815
Horseshoe Inn,CW12 3NL,53.1357,-2.2106
Subway Congleton,CW12 4NB,53.1649,-2.2358
The Topiary Coffee Shop,CW12 4RL,53.1470,-2.2406
The Egerton Arms Country Inn,CW12 4RQ,53.1511,-2.2320
PECKS RESTAURANT,CW12 4SB,53.1400,-2.2501
The Brownlow Inn Ltd,CW12 4TH,53.1419,-2.2546
The Packhorse Inn,SK17 0DB,53.1838,-1.8505
The Greyhound Inn,SK17 0JN,53.1261,-1.8736
Merchants House Kitchen ,SK17 0NT,53.1815,-1.8686
Hanley Flames,ST1 1DE,53.0255,-2.1756
Roberto's Pizza House ,ST1 1EB,53.0244,-2.1781
Zest Bistro,ST1 1EG,53.0249,-2.1773
North Kitchen and Bar,ST1 1EN,53.0247,-2.1769
Peters Tavern,ST1 1EN,53.0247,-2.1769
Seafarers ,ST1 1HL,53.0248,-2.1761
The Quarter Cafe,ST1 1HR,53.0239,-2.1776
The Slamwich Club,ST1 1HR,53.0239,-2.1776
The Corner,ST1 1HX,53.0241,-2.1780
Subway Tontine Street,ST1 1NQ,53.0255,-2.1749
Esquires Coffee Hanley,ST1 1PF,53.0265,-2.1758
Mrs B's Market Kitchen,ST1 1PS,53.0275,-2.1758
McDonald’s Restaurants 184 t/a LEMACA Ltd,ST1 1PW,53.0255,-2.1738
kfc,ST1 1PW,53.0255,-2.1738
Little dessert shop ,ST1 1SA,53.0257,-2.1768
CASA ARGESEANA,ST1 2BL,53.0269,-2.1736
Victoria Lounge,ST1 3AF,53.0230,-2.1757
Jaflong Curry,ST1 3EA,53.0226,-2.1734
Emma Bridgewater Limited,ST1 3EJ,53.0177,-2.1702
NutriBox Health ,ST1 4AF,53.0231,-2.1872
The Boat House,ST1 4DX,53.0173,-2.1778
The Pavilion Cafe,ST1 4DX,53.0173,-2.1778
Restaurant Family,ST1 4EU,53.0228,-2.1798
CHICINOS STOKE LIMITED,ST1 4LU,53.0184,-2.1830
MIRCHI RESTAUANT ,ST1 4LY,53.0174,-2.1842
Cauldon Kitchen,ST1 4PZ,53.0177,-2.1883
Bon Pan Asian Restaurant (Stoke Branch),ST1 5BN,53.0292,-2.1766
The Burger Priest Hanley,ST1 5BN,53.0292,-2.1766
CAMERON'S,ST1 5LA,53.0259,-2.1772
kfc,ST1 5NZ,53.0318,-2.1891
Festive thai,ST1 5PU,53.0300,-2.2000
SUBWAY WATERWORLD FESTIVAL PARK,ST1 5PU,53.0300,-2.2000
Waterworld Leisure Ltd,ST1 5PU,53.0300,-2.2000
skeat ltd.,ST1 5PU,53.0300,-2.2000
Burger King,ST1 5QQ,53.0261,-2.1860
Subway Trinity Street,ST1 5RW,53.0255,-2.1776
Inflato,ST1 5SG,53.0293,-2.1985
McDonald’s Restaurants 435 t/a LEMACA Ltd,ST1 5SJ,53.0286,-2.1922
McDonald’s Restaurants 1452 t/a LEMACA Ltd,ST1 6AX,53.0484,-2.1615
Moshi Coffee Ltd,ST10 1AF,52.9878,-1.9886
Gelato & Cakes,ST10 1AJ,52.9867,-1.9905
capuchino at the summer house ,ST10 1AJ,52.9867,-1.9905
Victorian Tearooms,ST10 1AY,52.9874,-1.9885
THE HUNTSMAN,ST10 1SX,52.9924,-1.9778
The Fox & Goose,ST10 2HN,53.0350,-1.9486
The Marquis of Granby,ST10 2LD,53.0475,-1.9722
The Old Red Lion,ST10 2NA,53.0439,-1.9714
The Red Lion INn,ST10 2NU,52.9797,-2.0283
The Royal Oak,ST10 2PE,52.9903,-2.0399
CHARLIE BASSETTS INN LIMITED,ST10 2PQ,52.9885,-2.0440
The star at cotton,ST10 3DW,53.0079,-1.9036
Farge Canteen,ST10 3EQ,53.0437,-1.8748
Ye Olde Crown Hotel,ST10 3HL,53.0491,-1.8762
Red Lion Inn (Waterfall) Limited,ST10 3HZ,53.0608,-1.8806
The Bulls Head Restaurant (Alton) Limited,ST10 4AQ,52.9777,-1.8924
Alton Bridge Hotel,ST10 4BX,52.9796,-1.8953
The Talbot Coaching Inn Ltd,ST10 4BX,52.9796,-1.8953
Hales Hall Caravan & Camping Park,ST10 4QR,52.9937,-1.9695
The Red House ,ST11 9ED,52.9836,-2.0746
The Auctioneers Arms,ST11 9EQ,52.9883,-2.0819
ROEBUCK,ST13 5AB,53.1056,-2.0239
COFFEE BEANS CAFE LIMITED,ST13 5AJ,53.1056,-2.0221
Lawtons Pies Ltd,ST13 5AJ,53.1056,-2.0221
Pabna Staffordshire LTD,ST13 5AS,53.1049,-2.0192
Silk House Leek,ST13 5DL,53.1046,-2.0264
Domino's Pizza - Leek,ST13 5DR,53.1062,-2.0267
The napoli,ST13 5DZ,53.1058,-2.0272
the red lion leek,ST13 5HH,53.1062,-2.0251
Costa Coffee,ST13 5HJ,53.1063,-2.0257
Monty's,ST13 5HJ,53.1063,-2.0257
Primo piano ,ST13 5HW,53.1061,-2.0262
The Penguin,ST13 5HW,53.1061,-2.0262
The Street Restaurant and Grill,ST13 5JF,53.1050,-2.0243
CAFE DELIGHT,ST13 5JH,53.1052,-2.0220
Alberto's Kitchen,ST13 5JW,53.1052,-2.0214
The Old Mill,ST13 5JZ,53.1037,-2.0228
The Diner,ST13 5SN,53.1048,-2.0253
foxlowe arts centre,ST13 6AD,53.1068,-2.0252
Qarma Leek Ltd,ST13 6BL,53.1053,-2.0179
The White Hart Tearoom ,ST13 6DH,53.1072,-2.0224
LEEK BAR AND GRILL,ST13 6HU,53.1059,-2.0224
TEA-CAKE,ST13 6HU,53.1059,-2.0224
The Boat Inn,ST13 7EQ,53.0638,-2.0345
RED LION PUB,ST13 7HN,53.0668,-2.0420
The Black Lion,ST13 7HP,53.0685,-2.0450
Hollybush Inn,ST13 7JT,53.0789,-2.0683
LA CASONA,ST13 7LN,53.1125,-2.0042
The Reform Inn,ST13 7LP,53.1239,-1.9785
THE COTTAGE KITCHEN WINKHILL LTD,ST13 7PN,53.0666,-1.9249
PEAK WILDLIFE PARK,ST13 7QR,53.0610,-1.9241
Jervis Arms ,ST13 7RU,53.0944,-1.9288
Black Lion Inn,ST13 7SP,53.1059,-1.8880
The Retreat,ST13 8EU,53.1088,-2.0334
AJs Catering,ST13 8LD,53.1106,-2.0394
Hotel Rudyard ,ST13 8RN,53.1194,-2.0740
The Lazy Trout,ST13 8SN,53.1437,-2.0157
Waterview Restaurant,ST13 8SW,53.1410,-2.0025
Three Horseshoes Country Inn & Spa,ST13 8TW,53.1346,-1.9892
The winking man,ST13 8UH,53.1696,-1.9638
Spice Exchange,ST2 7AF,53.0481,-2.1402
The Teapot at Milton,ST2 7BW,53.0496,-2.1418
Sanjeev’s,ST2 7HQ,53.0584,-2.1392
The Glost House,ST3 1EZ,52.9906,-2.1379
McDonald’s Restaurants 1383 t/a LEMACA Ltd,ST3 2JB,52.9899,-2.1396
Britannia Cafe,ST3 2NL,52.9875,-2.1372
SAGHIR EXPRESS LIMITED ,ST3 2NS,52.9877,-2.1367
Desi dera ,ST3 4RE,52.9808,-2.1236
Niagara balti ltd ,ST3 5LQ,52.9827,-2.1205
Taste of India,ST3 6AD,52.9790,-2.1028
The Rowan Tree,ST3 6FB,52.9776,-2.0979
Blue Tiffin,ST3 6HE,52.9752,-2.0934
SUBWAY MFG MEIR,ST3 6HE,52.9752,-2.0934
ON THE RUN CAFE,ST3 6LX,52.9815,-2.0939
KFC MEIR 02040,ST3 7DX,52.9770,-2.1061
Tandoori knights,ST4 1BL,53.0037,-2.1838
Sangam restaurant ,ST4 1HL,53.0039,-2.1826
Planet Bollywood,ST4 1HP,53.0037,-2.1829
WHITE STAR,ST4 1JB,53.0039,-2.1843
Sangam Balti Restaurant,ST4 1JH,53.0043,-2.1842
Works Canteen,ST4 1QQ,53.0057,-2.1857
BOD STOKE,ST4 2AA,53.0081,-2.1808
Subway Winton Sq,ST4 2AD,53.0080,-2.1800
North Stafford Hotel,ST4 2AE,53.0084,-2.1798
Topping ,ST4 2EE,53.0110,-2.1807
Subway Fenton,ST4 2HG,53.0017,-2.1614
McDonald’s Restaurants 903 t/a LEMACA Ltd,ST4 2HX,53.0082,-2.1668
Lahori restaurant,ST4 2QW,53.0120,-2.1831
Any 'Owd Oatcake LTD,ST4 3AD,52.9989,-2.1644
MALTNHOPS FENTON LTD,ST4 3EJ,52.9944,-2.1460
Sammys Kitchen,ST4 3ER,52.9963,-2.1510
The Cafe at Fenton Town Hall,ST4 3FA,52.9933,-2.1645
The Kitchen Cafe ,ST4 4AD,53.0028,-2.1848
kfc,ST4 4AT,52.9987,-2.1851
OH INDIA RESTAURANT,ST4 4RF,52.9803,-2.1989
LONDON ROAD ALE HOUSE,ST4 5AA,52.9985,-2.1897
The Stage Door,ST4 5AB,52.9976,-2.1899
Jollees,ST4 5AG,52.9974,-2.1905
The West End centre and Cafe West End ,ST4 5AW,52.9944,-2.1926
Black Lion Pub ,ST4 5NZ,52.9877,-2.2020
Kismet Restaurant (stoke) Ltd,ST4 6AF,53.0108,-2.2109
McDonald’s Restaurants 501 t/a LEMACA Ltd,ST4 6PD,52.9956,-2.2085
The Orange Tree Bar & Grill,ST4 6PG,52.9967,-2.2114
Screwfix Trentham,ST4 8GR,52.9819,-2.1729
New Victoria Theatre Projects Ltd,ST5 0JG,53.0160,-2.2145
Marsh Head Cafe Ltd T/A The Shed,ST5 0PU,53.0239,-2.2157
Basmati,ST5 1HF,53.0128,-2.2222
Max Tan Restaurant Ltd t/a The Arch,ST5 1HF,53.0128,-2.2222
Borough Arms Hotel,ST5 1HX,53.0140,-2.2191
THE GREYHOUND,ST5 1JT,53.0124,-2.2154
Marloes Restaurant,ST5 1LQ,53.0088,-2.2239
Amore Italian Restaurant & Cafe,ST5 1PR,53.0112,-2.2290
PASTA DI PIAZZA,ST5 1PS,53.0098,-2.2252
SHAWS,ST5 1PS,53.0098,-2.2252
Sanctuary Bar,ST5 1PS,53.0098,-2.2252
Bar Social,ST5 1PT,53.0096,-2.2259
Bygones Tearoom ,ST5 1PT,53.0096,-2.2259
Subway,ST5 1PT,53.0096,-2.2259
Eesha Indian Fine Cuisine ltd,ST5 1QG,53.0102,-2.2276
Shalimar cuisine limited,ST5 1QG,53.0102,-2.2276
Art of Siam,ST5 1QL,53.0112,-2.2284
Fireaway pizza Stoke ,ST5 1QQ,53.0104,-2.2272
McDonald’s Restaurants 086 t/a LEMACA Ltd,ST5 1QQ,53.0104,-2.2272
STREAT ASIAN STREET FOOD ,ST5 1QS,53.0113,-2.2294
Oscars Restaurant,ST5 1RF,53.0118,-2.2273
Caffe Java,ST5 1RH,53.0122,-2.2264
newcastle under lyme golf club limited,ST5 2QB,53.0000,-2.2416
Pizza Triangle,ST5 2RR,53.0106,-2.2308
Peaches Restaurant,ST5 2TB,53.0104,-2.2322
Waggon and Horses,ST5 2TF,53.0078,-2.2325
Bilash Restaurant,ST5 2TL,53.0083,-2.2328
The Westbury Tavern,ST5 4JW,52.9841,-2.2251
Garners Garden Centre,ST5 6SH,53.0141,-2.2545
McDonald’s Restaurants 1046 t/a LEMACA Ltd,ST5 8HS,53.0354,-2.2378
Mellors Catering Services Ltd,ST5 9BT,53.0260,-2.2421
Wolstanton Golf Club Ltd,ST5 9DR,53.0327,-2.2339
kfc,ST5 9ER,53.0182,-2.2307
GG’s Cafe and Grill,ST5 9JJ,53.0210,-2.2314
coffee cup,ST6 1JQ,53.0464,-2.1906
Totally Delicious Autonet,ST6 2BA,53.0430,-2.1907
THE BULLS HEAD,ST6 3AJ,53.0446,-2.1993
agie and katie ltd,ST6 3AJ,53.0446,-2.1993
Kismet Restaurant (Burslem) Ltd ,ST6 3EL,53.0447,-2.1964
Totally Delicious Middleport Pottery,ST6 3PE,53.0402,-2.2095
Rifleman Inn,ST6 4QL,53.0758,-2.2387
Subway Tunstall ,ST6 5EA,53.0592,-2.2108
kfc,ST6 5EN,53.0634,-2.2128
McDonald’s Restaurants 1021 t/a LEMACA Ltd,ST6 5PH,53.0717,-2.2158
The Furlong ,ST6 5UP,53.0648,-2.2030
Brindleys lock,ST6 6XP,53.0796,-2.2037
The Bistro,ST6 7QS,53.0578,-2.1786
The Top Pub,ST6 8TX,53.0859,-2.1375
The swan inn,ST7 1PS,53.0766,-2.2624
Red Bull Hotel,ST7 3AJ,53.0921,-2.2580
TRAVELLERS REST,ST7 3HA,53.1042,-2.2517
The Rising Sun,ST7 3JT,53.1139,-2.2436
The ash inn,ST7 4NE,53.1077,-2.2163
Sanaya Limited,ST8 6AB,53.1154,-2.1760
Reubens American Italian,ST8 6AW,53.1175,-2.1749
Gardners Arms ,ST8 6PH,53.1010,-2.1859
Roaring Meg,ST8 7EA,53.1211,-2.1608
black lion,ST9 0AJ,53.0359,-2.0004
MANTRA RESTAURANT,ST9 0DQ,53.0230,-2.0674
MR MF ALLEN T/A BLACK HORSE,ST9 9BA,53.0826,-2.1028
Stafford Arms,ST9 9JR,53.0548,-2.1076
N & J Hospitality Ltd ,ST9 9LL,53.0651,-2.1134
The Travellers Rest,ST9 9LX,53.0678,-2.1023
EGO at the Hollybush,ST9 9NL,53.0653,-2.1244
