name,id,postcode,lat,lon
Guillemot and B,230617,SY17 5PU,52.500140821377700,-3.529755378528070
Triller and tortoise,230503,SY18 6QP,52.448018103324300,-3.539690711172970
cycling lizard and frill-necked lizard,925458,LD6 5DP,52.301786210093100,-3.508593813196780
Badger and Crow,226941,SY23 4RH,52.366766736435100,-3.888040884702120
Linsang and Chicken,230623,SY17 5QH,52.506405088663700,-3.514560890621120
Ground sloth and snake,230045,SY18 6YS,52.446863982080000,-3.539253165029730
flying lizard and puff adder,230229,SY18 6AG,52.449270011748500,-3.542971729620280
king snake and saltwater crocodile,230415,SY18 6NZ,52.459917150405900,-3.596994144502310
cobra de capello and habu,230075,SY19 7BU,52.515428721436700,-3.638267359358420
wall lizard and kabaragoya,925533,LD6 5LR,52.370537540530400,-3.523509656086780
black snake and bull snake,230244,SY18 6BA,52.449626540801600,-3.534228572522050
soft-shelled turtle and diamondback terrapin,230283,SY18 6EB,52.447309704081000,-3.535961000000000
deaf adder and tree snake,230333,SY18 6ER,52.445321000000000,-3.539082000000000
B and bearded dragon,230133,SY19 7DG,52.514605538344400,-3.655420351013390
blue tongue and Stint,925559,LD6 5PL,52.304021673010200,-3.512365885713280
gopher snake and Kangaroo,230345,SY18 6HF,52.452540547758100,-3.539686606305860
Black jay and Ice seal,230506,SY18 6QU,52.401237543752200,-3.508398174884590
Goose and rat snake,227376,SY23 3JS,52.408731802925600,-3.837110414302800
horned toad and Viscacha,230702,SY17 5QU,52.522172542287800,-3.502044102395760
sand lizard and Puffleg,230493,SY18 6QA,52.423340792226800,-3.538801120776270
adder and soft-shelled turtle,226939,SY23 4RF,52.364372914052400,-3.867243917797100
Linsang and terrapin,230703,SY17 5QX,52.524462016253500,-3.524085261989300
Maya and Polecat,230494,SY18 6QB,52.420697252419300,-3.545708962738500
Ice seal and Capuchin,227435,SY23 3LJ,52.413764321124600,-3.839010574646030
Piping shrike and Puffleg,230511,SY18 6RE,52.440351583204700,-3.544999285740000
tree snake and Polecat,226945,SY23 4RQ,52.370641665408700,-3.894801872780370
Pitohui and Vole,226944,SY23 4RP,52.352812000000000,-3.895419000000000
