name,postcode,lat,lon
Night heron and Coati,SY20 8QB,52.511930505077500,-3.978289074865710
wall lizard and green turtle,SY23 1BN,52.408910843130100,-4.085298042840020
Ice seal and amphisbaena,SY23 1BX,52.409818000000000,-4.083885000000000
Jackal and diamondback terrapin,SY23 1DZ,52.412783861327100,-4.088995110237290
Zebra and loggerhead,SY23 1JN,52.412138000000000,-4.087435000000000
elapid and Komodo dragon,SY23 1PU,52.413831000000000,-4.084774853381270
copperhead and Buzzard,SY23 1RG,52.402720810037800,-4.070687423609700
blind snake and Snipe,SY23 2BH,52.414822000000000,-4.088238000000000
bushmaster and king cobra,SY23 2BX,52.418553379989300,-4.084076646936250
Parakeet and Elephant,SY23 2DL,52.417472921910300,-4.079055139230100
Rat and Cuscus,SY23 2DQ,52.420277549321100,-4.084202104711500
kabaragoya and horned viper,SY23 2DS,52.417392058190800,-4.081537210514640
Macaw and snapping turtle,SY23 2EU,52.416729000000000,-4.074388000000000
Peafowl and python,SY23 2HU,52.422065210334700,-4.083786400684670
Ibex and River dolphin,SY23 2JS,52.415974381366700,-4.078881688793810
bandy-bandy and Francolin,SY23 2JY,52.415674202579300,-4.074985410088880
Coati and Asiatic leopard,SY23 3AJ,52.416994809745600,-4.062724176206900
crocodile and Schneider python,SY23 3DU,52.417788000000000,-4.068849000000000
Towhee and Treepie,SY23 3GD,52.407629955458400,-4.072240633191900
Darwin's finches and adder,SY23 3GL,52.415429995175200,-4.061710003030960
python and saltwater crocodile,SY23 3JB,52.403870408773700,-4.040265782734110
diamond python and dugite,SY23 3JN,52.371484152448700,-3.844407259806040
Grosbeak and diamondback,SY23 3TB,52.437371886129500,-3.997676909091990
dukite and Mamo,SY23 3WB,52.403471383025700,-4.043584490279200
Eagle and monitor,SY23 4AB,52.356536000000000,-3.800574348892520
Jackal and Tahr,SY23 4BT,52.377550196201300,-4.072917889095400
Goose and agamid,SY23 4DB,52.374549000000000,-4.080534000000000
caiman and Marsh harrier,SY23 4DD,52.372188000000000,-4.080838365220120
Buzzard and bicycle lizard,SY23 4EU,52.348236487502900,-4.066817886838350
Fulmarine petrel and Ground sloth,SY23 4NA,52.376268382010500,-3.998061213697590
Ice seal and cycling lizard,SY23 4QP,52.391092467227300,-4.068761397610990
mamba and whip snake,SY23 4QU,52.377574000000000,-3.875749000000000
tree snake and frill-necked lizard,SY23 4SH,52.315210301864900,-3.967330400833920
mud turtle and Ibex,SY23 4UH,52.381207000000000,-4.070612653120410
garter snake and Badger,SY23 5AL,52.310241066239300,-4.134348882409530
Piping shrike and Eagle,SY23 5BB,52.301126144300800,-4.128718161426950
Civet and soft-shelled turtle,SY23 5DL,52.306485654054900,-4.144099125448400
agamid and Mockingbird,SY23 9BG,52.403479000000000,-4.043595000000000
Peafowl and Treepie,SY23 9FQ,52.403479092700000,-4.043585449200000
constrictor and snake,SY24 5AL,52.442680272122000,-4.032289005637730
Capuchin and River dolphin,SY24 5AZ,52.444317883280300,-4.027508597301370
bull snake and Moluccan boobook,SY24 5BA,52.445462951361500,-4.025751258978580
Schneider python and sidewinder,SY24 5BL,52.445759166298300,-4.027354078589230
gaboon viper and sand lizard,SY24 5DT,52.441760413389300,-4.030878280860810
bandy-bandy and Chickadee,SY24 5EB,52.482313976351700,-3.984676637587170
Skunk and Vole,SY24 5ES,52.485049332616500,-3.982413861427060
Macaw and Boto,SY24 5LS,52.478166000000000,-4.048208000000000
chameleon and Coati,SY24 5NJ,52.478075034474700,-4.053888552614940
White ibis and Warbler,SY25 6DJ,52.335774741253700,-3.851037670529210
flying dragon and snake,SY25 6DN,52.336431141268700,-3.851035731743910
Rat and Towhee,SY25 6DS,52.341228000000000,-3.863978000000000
