name,id,postcode,lat,lon
Stint and Nukupu ªu,227168,SY23 4AZ,52.333694987120300,-3.933144747929840
Fox and viper,227364,SY23 3HZ,52.419283255924600,-4.001270744635440
Mink and Boto,226843,SY24 5DA,52.462687593990700,-4.025923937205660
bicycle lizard and skink,227259,SY23 4EE,52.393176853346400,-4.000985625313630
diamond snake and thorny devil,226871,SY24 5EQ,52.487242012143200,-3.997447501328080
Badger and Crow,226941,SY23 4RH,52.366766736435100,-3.888040884702120
alligator and blue tongue,227255,SY23 4DZ,52.395066645132900,-4.038242743527090
Cloud rat and Diving bird,226856,SY24 5DT,52.441760413389300,-4.030878280860810
carpet snake and diamondback,2632314,SY23 4AW,52.388422000000000,-3.982073000000000
American sparrow and anole,227714,SY23 3BN,52.419400183014300,-4.046424227457930
cobra de capello and habu,230075,SY19 7BU,52.515428721436700,-3.638267359358420
Goose and whip snake,227169,SY23 4BA,52.335333792001000,-3.926948680860050
alligator and Prion,227264,SY23 4EL,52.399970000000000,-3.997423000000000
puff adder and taipan,227815,SY23 3EG,52.442649455072100,-3.993972403575740
B and bearded dragon,230133,SY19 7DG,52.514605538344400,-3.655420351013390
pit viper and Pheasant,229612,SY20 8JR,52.496202000000000,-3.984949000000000
Partridge and Grackle,226864,SY24 5EE,52.480351267863300,-3.974088291506140
cycling lizard and viper,227395,SY23 4NZ,52.356652013473100,-4.024270000000000
lizard and Warbler,1758668,SY23 9FN,52.403479092702800,-4.043585449175560
Goose and rat snake,227376,SY23 3JS,52.408731802925600,-3.837110414302800
Guillemot and bicycle lizard,229605,SY20 8JG,52.505076150630700,-3.978467429414460
snapping turtle and alligator,227680,SY23 2WX,52.403471383025700,-4.043584490279200
adder and soft-shelled turtle,226939,SY23 4RF,52.364372914052400,-3.867243917797100
Ice seal and agamid,227347,SY23 3HD,52.436572487863200,-4.001348142470450
iguana and Songlark,227712,SY23 3BJ,52.434491000000000,-4.033295000000000
gopher snake and New World blackbird,227817,SY23 3EJ,52.439086225508700,-3.990927769107880
Ice seal and Capuchin,227435,SY23 3LJ,52.413764321124600,-3.839010574646030
Moluccan boobook and Goose,227352,SY23 3HJ,52.401187486302900,-4.040465365325960
garter snake and taipan,226862,SY24 5EB,52.482313976351700,-3.984676637587170
Boto and garter snake,229703,SY20 8PN,52.511967672368200,-3.976065450116700
tree snake and Polecat,226945,SY23 4RQ,52.370641665408700,-3.894801872780370
Pitohui and Vole,226944,SY23 4RP,52.352812000000000,-3.895419000000000
