name,postcode,lat,lon
Guillemot and saltwater crocodile,HR6 9UX,52.312752131240100,-2.854845912833330
water snake and chuckwalla,LD7 1DN,52.342623173473400,-3.051459314937720
iguana and Logrunners,LD7 1NS,52.310023854089200,-3.118908761911500
black snake and Badger,LD7 1NY,52.304174473084300,-3.142946189339260
Petrel and Viscacha,LD7 1PS,52.362384425471100,-3.105619175448060
Boto and Jerboa,LD7 1RH,52.380300307304000,-3.171180158474390
garter snake and Buzzard,LD7 1RW,52.380850000000000,-3.132423000000000
Polecat and grass snake,LD7 1SS,52.335779478938600,-3.157425230453270
Tahr and loggerhead,LD7 1SU,52.341220216013400,-3.182697324604030
boomslang and frill-necked lizard,LD8 2EW,52.304737765707200,-3.025804271460020
kabaragoya and snapping turtle,LD8 2HA,52.312117000000000,-3.015721000000000
Viscacha and Goose,LD8 2NB,52.323522000000000,-2.968091000000000
turtle and asp,SY15 6TH,52.511278125620600,-3.100497415470390
Kangaroo and skink,SY15 6TR,52.498183375220500,-3.112544267323870
flying dragon and boa constrictor,SY16 4EX,52.513218017364000,-3.182906000000000
Rabbit and diamondback turtle,SY16 4HH,52.500602000000000,-3.163106000000000
anaconda and hoop snake,SY16 4HN,52.495347405974800,-3.194990100059340
Cloud rat and White ibis,SY6 6QE,52.502373000000000,-2.823738000000000
Meadowlark and Minke whale,SY6 6WB,52.447021000000000,-2.840288000000000
rat snake and mamba,SY7 0HG,52.419059000000000,-2.927143000000000
massasauga and moloch,SY7 0HT,52.426138693267600,-2.981059383160780
gavial and fer-de-lance,SY7 0JE,52.413983781364500,-3.020339745239270
Tahr and Peafowl,SY7 0LN,52.363029755572700,-2.875289398724090
grass snake and elapid,SY7 0NZ,52.420812822051200,-2.847876900960420
sea snake and Magpie,SY7 0QD,52.391262000000000,-2.911867836880320
agama and asp,SY7 0QH,52.409674000000000,-2.975122000000000
iguana and deaf adder,SY7 7BR,52.447035000000000,-2.840287000000000
Zebra and giant tortoise,SY7 8BH,52.514203218161600,-2.888326398278490
Grouse and tiger snake,SY7 8EP,52.429472000000000,-2.907109000000000
Goose and Hawk,SY7 8NT,52.446550731140500,-2.840499529969470
agamid and terrapin,SY7 9AB,52.435959000000000,-2.852169000000000
River dolphin and black snake,SY7 9JQ,52.446010510467500,-2.824010503265800
iguana and Bronzewing pigeon,SY7 9QE,52.444954380107000,-2.836143568598530
Armadillo and Piping shrike,SY7 9QY,52.441009297762100,-2.839717307240770
boa constrictor and Old World quail,SY7 9RF,52.440772942247800,-2.837550232950160
Asiatic leopard and taipan,SY8 2HS,52.338766421668400,-2.828928050628420
leguaan and Parakeet,SY9 5AF,52.488070489900900,-2.999624086911870
elapid and Armadillo,SY9 5ET,52.480793484009600,-2.991420000000000
Snipe and Elephant,SY9 5FE,52.515140000000000,-2.980121000000000
coral snake and Chicken,SY9 5HD,52.512459777054900,-2.980446748958980
Piping shrike and Old World quail,SY9 5HZ,52.496610683100400,-2.957306455689300
