name,postcode,lat,lon
Logrunners and Solitaire,DY14 0EU,52.403293626221000,-2.543451487356900
Kangaroo and Tit-tyrant,DY14 0HW,52.397179413088500,-2.549475461833680
black snake and Zebra,DY14 0NT,52.385509838974400,-2.562906659554380
Mink and rock snake,DY14 0QP,52.400814668694000,-2.564056867759400
blindworm and Civet,DY14 0QX,52.405905892414500,-2.574676147591370
boa and massasauga,DY14 0RT,52.421597000000000,-2.543809000000000
Guillemot and saltwater crocodile,HR6 9UX,52.312752131240100,-2.854845912833330
Cloud rat and White ibis,SY6 6QE,52.502373000000000,-2.823738000000000
Meadowlark and Minke whale,SY6 6WB,52.447021000000000,-2.840288000000000
blindworm and turtle,SY6 7DG,52.512222589529300,-2.759647618296750
constrictor and skink,SY6 7EZ,52.517610000000000,-2.800243616419850
rat snake and mamba,SY7 0HG,52.419059000000000,-2.927143000000000
Tahr and Peafowl,SY7 0LN,52.363029755572700,-2.875289398724090
grass snake and elapid,SY7 0NZ,52.420812822051200,-2.847876900960420
sea snake and Magpie,SY7 0QD,52.391262000000000,-2.911867836880320
iguana and deaf adder,SY7 7BR,52.447035000000000,-2.840287000000000
Zebra and giant tortoise,SY7 8BH,52.514203218161600,-2.888326398278490
Grouse and tiger snake,SY7 8EP,52.429472000000000,-2.907109000000000
Goose and Hawk,SY7 8NT,52.446550731140500,-2.840499529969470
agamid and terrapin,SY7 9AB,52.435959000000000,-2.852169000000000
anole and Ground sloth,SY7 9AP,52.406859720116100,-2.800083000000000
Guillemot and Vulture,SY7 9EE,52.441061593559100,-2.659959224262870
blue tongue and Quetzal,SY7 9HF,52.491596079589600,-2.694340322217660
Guillemot and tuatara,SY7 9HN,52.475209489498800,-2.670555280364800
River dolphin and black snake,SY7 9JQ,52.446010510467500,-2.824010503265800
iguana and Bronzewing pigeon,SY7 9QE,52.444954380107000,-2.836143568598530
Armadillo and Piping shrike,SY7 9QY,52.441009297762100,-2.839717307240770
boa constrictor and Old World quail,SY7 9RF,52.440772942247800,-2.837550232950160
thorn lizard and Flameback,SY8 1BN,52.366095918490500,-2.719364026723520
python and Towhee,SY8 1BZ,52.368258164168700,-2.720089462972040
gaboon viper and rattlesnake,SY8 1DB,52.369228438104100,-2.718519000000000
black snake and Stilt,SY8 1DX,52.373798596889100,-2.719694865050270
Eagle and Magpie,SY8 1GH,52.364973981338000,-2.720535372625570
Marsh harrier and Treepie,SY8 1JB,52.373163028656700,-2.707331220041940
Fox and amphisbaena,SY8 1JN,52.364545143898300,-2.711188111259180
Buzzard and moloch,SY8 1JS,52.364646571156600,-2.706269928564840
elapid and Asiatic leopard,SY8 1JX,52.363803551644900,-2.702908135520900
sand viper and Fox,SY8 1NU,52.365405728224700,-2.714579775900640
python and Armadillo,SY8 1RF,52.371910964095200,-2.715198890896180
Logrunners and blue racer,SY8 1RZ,52.367516887947200,-2.713350775235430
Tree warbler and Wallaby,SY8 1TY,52.367756852339600,-2.718260114567600
Greenbul and Puffleg,SY8 1XJ,52.371160605564300,-2.697854731920880
Night heron and Chickadee,SY8 1XX,52.372669312877500,-2.699655847728390
Hawaiian honeycreeper and Maya,SY8 2EL,52.438781000000000,-2.653099000000000
Solitaire and king snake,SY8 2HE,52.353718177230300,-2.782693793475300
Asiatic leopard and taipan,SY8 2HS,52.338766421668400,-2.828928050628420
Flameback and Fulmarine petrel,SY8 2LA,52.385342273287000,-2.805880000000000
turtle and Old World quail,SY8 2NJ,52.376255431598300,-2.714843094640180
Mole and Bronzewing pigeon,SY8 2NL,52.374714757699400,-2.713907469289060
Buzzard and Thrasher,SY8 2PT,52.378137340880200,-2.711377159670490
rock snake and Tree warbler,SY8 2QA,52.379886124879000,-2.719514743690810
green turtle and Towhee,SY8 3AJ,52.358505288316300,-2.591901675133480
bicycle lizard and Prion,SY8 3BN,52.354627585458100,-2.657070049607200
slowworm and blindworm,SY8 3ET,52.383265000000000,-2.674244000000000
wall lizard and Francolin,SY8 3LB,52.371104181437100,-2.632844248858050
Polecat and Meadowlark,SY8 3LD,52.369257939471700,-2.630085981866310
Cuscus and Tit-tyrant,SY8 3LZ,52.374366053545000,-2.598650459573660
Chipmunk and Vulture,SY8 3QL,52.376665965812300,-2.579129310129720
flying lizard and Lemming,SY8 3QP,52.375151616373600,-2.585411243599640
thorn lizard and blue racer,SY8 3QT,52.372235745060100,-2.573195966283990
Polecat and gecko,SY8 3QX,52.376385963352400,-2.572015780885710
Philippine hawk-owl and death adder,SY8 4EG,52.330683839674800,-2.745321193731570
Snipe and Vulture,SY8 4EJ,52.326125929317500,-2.736690049593080
puff adder and Tit-tyrant,SY8 4ER,52.325673359668700,-2.751854000000000
Buzzard and Greenbul,SY8 4HB,52.300369559028400,-2.747950203995420
hoop snake and Jerboa,SY8 4JR,52.300281589083600,-2.749063241104830
Parrotlet and Marsh harrier,SY8 4NJ,52.308677569469800,-2.702430371940220
Rat and Badger,SY8 4NR,52.303941362118000,-2.705156577654000
White ibis and B,SY8 4PD,52.306926676505900,-2.697503908299040
Parrotlet and Capuchin,SY8 9DN,52.368624000000000,-2.697402000000000
horned toad and Ice seal,TF13 6LA,52.522952633078900,-2.648555247602470
Schneider python and water snake,TF13 6QW,52.521485917194900,-2.630508816106200
green turtle and Rabbit,WR15 8DT,52.317961207261400,-2.589673252673460
box turtle and Puffleg,WR15 8HB,52.317208060055300,-2.599976397676400
Mockingbird and Ice seal,WR15 8HT,52.312255000000000,-2.594702000000000
Kangaroo and Rat,WR15 8XA,52.304262571308300,-2.598085405662490
rock snake and perentie,WR15 8ZY,52.312088606119300,-2.593643686481460
jew lizard and harlequin snake,WV16 6QN,52.453151000000000,-2.585533000000000
rock python and Jackal,WV16 6QZ,52.464643000000000,-2.549388000000000
Kite and White ibis,WV16 6TL,52.497952472706300,-2.577187063513730
