name,postcode,lat,lon
Solitaire and bearded dragon,LD1 6PN,52.324280949141900,-3.411192990506080
Polecat and deaf adder,LD1 6PS,52.370531866221200,-3.395128626483200
Grouse and Wallaby,LD1 6SF,52.310163554232000,-3.309896363615230
adder and B,LD1 6YE,52.427383806490600,-3.317252318033700
pit viper and mamba,LD6 5AB,52.300068499796700,-3.511439213623660
Cuscus and taipan,LD6 5LF,52.339025060228700,-3.522748962966680
Maya and rock snake,LD6 5PE,52.300652106843600,-3.430680097394530
python and garter snake,LD6 5PL,52.304021673010200,-3.512365885713280
gavial and Maya,LD6 5PW,52.305170394278500,-3.510424953073600
Bronzewing pigeon and amethystine python,LD7 1YT,52.438122902570700,-3.260919000000000
Condor and Kangaroo,SY16 1AG,52.514313148206000,-3.313263911147040
Black jay and amethystine python,SY16 1DE,52.512653181303900,-3.321849714529070
hawksbill and moloch,SY16 1JL,52.505736140036000,-3.320537105103610
Argus and caiman,SY16 1LL,52.507587836888300,-3.327797708791100
Wallaby and Solitaire,SY16 1LQ,52.504611000000000,-3.328783000000000
tokay and Triller,SY16 1RA,52.506874813289000,-3.339209882951610
Wallaby and carpet snake,SY16 1WW,52.514313148206000,-3.313263911147040
loggerhead and Greenbul,SY16 2BS,52.517532416867000,-3.316440096752090
Greenbul and Egret,SY16 2DH,52.518749871913900,-3.314486860953290
glass snake and Perching duck,SY16 2EH,52.515669951300200,-3.323016078218480
Herring gull and Flameback,SY16 2EY,52.518143336098200,-3.318094264607300
horned viper and Crow,SY16 2EZ,52.518249709039300,-3.318230090118020
New World blackbird and slowworm,SY16 2FA,52.518134000000000,-3.314751000000000
Perching duck and Grackle,SY16 2HB,52.518573259676200,-3.318239777353220
Dolphin and Tahr,SY16 2JG,52.516908272031400,-3.306237870457850
Asiatic leopard and horned viper,SY16 2JS,52.518411000000000,-3.305442000000000
Cuscus and Viscacha,SY16 2LH,52.519916242855200,-3.308213633002990
Darwin's finches and bull snake,SY16 2LL,52.520733683429900,-3.303388889649570
smooth snake and Darwin's finches,SY16 3FA,52.522185000000000,-3.319913000000000
Siskin and horned viper,SY16 4DE,52.502154485656800,-3.259849849670180
Fulmarine petrel and tuatara,SY16 4LU,52.511124708822700,-3.226701299144650
cobra de capello and worm lizard,SY16 4NT,52.501452645690000,-3.257369504848520
Rabbit and Petrel,SY16 4NX,52.500244841745100,-3.257659134135090
chameleon and Parrotlet,SY17 5AB,52.491913896596900,-3.426172914095250
Booted eagles and bull snake,SY17 5BT,52.483665590729700,-3.432444620177830
Partridge and tiger snake,SY17 5BU,52.483368794885600,-3.433937070054150
thorny devil and Ice seal,SY17 5DJ,52.496940232234900,-3.427617188487880
agama and Jay,SY17 5DQ,52.491211167900400,-3.430509000000000
Stint and blind snake,SY17 5ET,52.518893701255500,-3.424025363997910
Peafowl and rat snake,SY17 5EZ,52.517110897060700,-3.429153000000000
Hawk and swift,SY17 5HP,52.516655900516900,-3.444718188059940
tokay and Dorcopsis,SY17 5RR,52.497518216584500,-3.590224939997220
cayman and Gila monster,SY17 5WP,52.514313148206000,-3.313263911147040
iguana and sand lizard,SY18 6BX,52.448224636039400,-3.537637834900190
sidewinder and Vole,SY18 6DR,52.444241173894100,-3.539750253643990
iguana and ringhals,SY18 6DU,52.443903831728300,-3.541489385190670
gaboon viper and Quetzal,SY18 6EZ,52.447362052628900,-3.540359412133220
Chicken and rock python,SY18 6LH,52.446752981349800,-3.497490009825800
Ground sloth and alligator,SY18 6QJ,52.418071699578900,-3.567571456976670
blindworm and frill-necked lizard,SY18 6RQ,52.423173010893800,-3.548207452139090
monitor and diamondback turtle,SY18 6SL,52.414269824165000,-3.603666356905500
