name,postcode,lat,lon
Chatime ,CV1 1DL,52.407184977222200,-1.513492449486280
The Cat Lounge,CV1 1DL,52.407184977222200,-1.513492449486280
Bean & Brunch,CV1 1DN,52.407637243428600,-1.514163682428590
The Litten Tree,CV1 1EX,52.405172723945600,-1.513706000000000
The Lazy Monkey Bar & Kitchen,CV1 1EY,52.404485640782300,-1.515124327397940
CRAZY GATE,CV1 1FD,52.409125265507600,-1.510927905946420
HAUTE DOLCI,CV1 1FJ,52.409785333817900,-1.509671037476820
Pepes Piri Piri,CV1 1FJ,52.409785333817900,-1.509671037476820
Sovranos Caffe,CV1 1FX,52.408817661853900,-1.512636566764950
ALATURKA DONER,CV1 1FY,52.409125794541700,-1.513235898064940
Bagel Brunch,CV1 1FY,52.409125794541700,-1.513235898064940
Nine Dragon Ltd/treading name-Alley food&mood,CV1 1FY,52.409125794541700,-1.513235898064940
Restaurant du Liban,CV1 1FY,52.409125794541700,-1.513235898064940
Fork & Knife Foods Ltd T/A Steakout Coventry,CV1 1GF,52.410189000000000,-1.511445000000000
Franzos,CV1 1GF,52.410189000000000,-1.511445000000000
Rodizio Rico,CV1 1GF,52.410189000000000,-1.511445000000000
Belgrade Theatre Cafe,CV1 1GS,52.409839549751600,-1.514095395885740
Cafe Morso,CV1 1GX,52.409463187741500,-1.514393544088220
Heavenly desserts ,CV1 1GX,52.409463187741500,-1.514393544088220
McDonald's Restaurant,CV1 1HF,52.409268432730000,-1.510764615939170
KFC CROSS CHEAPING,CV1 1HG,52.409499854475000,-1.510203428386820
Wali Leisure & Retail Limited,CV1 1HG,52.409499854475000,-1.510203428386820
Subway,CV1 1HL,52.410139768528800,-1.510593269872500
Z&K Quality Food Ltd/TA German Doner Kebab,CV1 1HN,52.409989252623200,-1.511153569553140
SXG COVENTRY ,CV1 1JA,52.410398606522600,-1.507973619850720
Sprinkles Gelato - Coventry,CV1 1JA,52.410398606522600,-1.507973619850720
Esquires Coffee,CV1 1JD,52.410794315774100,-1.510174395947760
Bean & Leaf Coffee House,CV1 1LB,52.406806155230300,-1.511012339655580
China Red,CV1 1LB,52.406806155230300,-1.511012339655580
Fratelli Coventry,CV1 1LB,52.406806155230300,-1.511012339655580
MH fmaily ltd,CV1 1LF,52.406772867934700,-1.511659500584120
nicely noodle bar,CV1 1LF,52.406772867934700,-1.511659500584120
NOODLE BAR,CV1 1LH,52.406176432242600,-1.513091948599850
The Yard Coventry limited,CV1 1LH,52.406176432242600,-1.513091948599850
BISTROT PIERRE - COVENTRY,CV1 1LL,52.407755000000000,-1.509767000000000
treading name-T4,CV1 1NF,52.407786826942700,-1.511192603859730
The Town Crier,CV1 1PB,52.407994954452400,-1.515894383622530
Chopstix Coventry,CV1 1QX,52.409238240856100,-1.512161512664220
KFC WEST ORCHARDS,CV1 1QX,52.409238240856100,-1.512161512664220
McDonald's Restaurant,CV1 1QX,52.409238240856100,-1.512161512664220
The Coffee Hub at CBGC ,CV1 2DS,52.406038388484100,-1.503671024231060
THAI DUSIT,CV1 2JP,52.403274000000000,-1.500102089594600
Glamorous Coventry ,CV1 2LW,52.404178684461300,-1.503971164320210
Kahawa Cafe LTD,CV1 2PL,52.405337000000000,-1.511969000000000
my dhabba ,CV1 3AX,52.409072299605000,-1.517734871540520
Selminas Resturant and Bar,CV1 3BA,52.408277903027200,-1.516935011837250
The Green Dragon,CV1 3BA,52.408277903027200,-1.516935011837250
The Old Windmill,CV1 3BA,52.408277903027200,-1.516935011837250
Tastes Vietnam ,CV1 3BB,52.408452246579700,-1.517800431764240
Turmeric Gold,CV1 3BB,52.408452246579700,-1.517800431764240
Ramada Hotel & Suites by Wyndham Coventry City Centre,CV1 3GG,52.405329386855800,-1.521539000000000
Akbars,CV1 3GJ,52.404628839558900,-1.521590373581630
Arco Bar & Ristorante,CV1 3GJ,52.404628839558900,-1.521590373581630
Shimlaspice ,CV1 3GJ,52.404628839558900,-1.521590373581630
Blue orchid,CV1 3GR,52.405058000000000,-1.520792000000000
aqua food & mood,CV1 3GR,52.405058000000000,-1.520792000000000
Pickles Indian and Grill Cuisine Ltd,CV1 3HE,52.408371867679300,-1.529091189712770
The railway bar and grill,CV1 3HF,52.408288740105300,-1.526284310054010
Market Cafe,CV1 3HT,52.406999514634400,-1.514302984113230
Teezers Ltd,CV1 3JZ,52.405218928936300,-1.519174000000000
Artisan Bar and Grill,CV1 4AJ,52.410461000000000,-1.516250000000000
Royal Voluntary Service,CV1 4FS,52.415061152317700,-1.504158068413670
Taksim Restaurant ,CV1 4FT,52.417578000000000,-1.500411139083030
Dumpling King,CV1 5DW,52.407718123547000,-1.496772000000000
Sweet spot,CV1 5DW,52.407718123547000,-1.496772000000000
SHAWARMA KING,CV1 5DY,52.407456546273000,-1.496746080312500
Slovianka Polish & Ukrainian Cuisine,CV1 5DZ,52.408093840001000,-1.494519000000000
TANG CHINESE Restaurant ,CV1 5EA,52.407913480112800,-1.494507000000000
LEAVE IT TO ESMIE,CV1 5ED,52.407514095730500,-1.493865000000000
Creams Cafe Coventry,CV1 5FZ,52.413666423191900,-1.504717505053230
zeenat kebabish,CV1 5HT,52.418224978048700,-1.498446811678400
HADRAMUD RESTAURANT LTD,CV1 5PW,52.409322888692200,-1.500135412553180
Finger Licking Kitchen,CV1 5QJ,52.410404002652500,-1.502813490336400
Basement Browns - Coventry,CV1 5RE,52.407374000000000,-1.508875000000000
Chi Bar,CV1 5RE,52.407374000000000,-1.508875000000000
Subway,CV1 5RE,52.407374000000000,-1.508875000000000
Playwrights Bar & Bistro,CV1 5RF,52.407559988515500,-1.508519690841240
The Golden Cross,CV1 5RF,52.407559988515500,-1.508519690841240
Britannia Hotel Coventry,CV1 5RP,52.409487339161400,-1.507189913994490
COVENTRY XIONGQI LTD,CV1 5SQ,52.409590000000000,-1.507762000000000
DODO Pizza,CV1 5SQ,52.409590000000000,-1.507762000000000
Jinseon Korean BBQ Restaurant ,CV1 5SQ,52.409590000000000,-1.507762000000000
SHIN JAPANESE KITCHEN & BAR,CV1 5SQ,52.409590000000000,-1.507762000000000
TRACEY'S CAFE,CV10 7DA,52.503944000000000,-1.477009000000000
The Horseshoes,CV10 7JQ,52.513601631296500,-1.475848371159490
CJ's restaurant and bar,CV10 7NJ,52.515633218434400,-1.498488000000000
KFC,CV10 7RG,52.498879225072700,-1.480502000000000
Coombs Catering at Unipart Logistics,CV10 7RL,52.501086000000000,-1.477367000000000
McLean Restaurants Ltd,CV10 7SD,52.496170000000000,-1.477705000000000
Nuneaton Bowl,CV10 7SD,52.496170000000000,-1.477705000000000
starbucks,CV10 7SD,52.496170000000000,-1.477705000000000
The Sunnyside Inn,CV10 8ER,52.519209893863500,-1.492007494573620
Kingswood Tavern,CV10 8QH,52.521059711126700,-1.517291254122700
Oakridge Golf Club,CV10 9PH,52.516465000000000,-1.555952611668400
Lord Nelson Inn,CV10 9PQ,52.519816629614400,-1.558113093071860
THE CAFE LOUNGE,CV11 4AD,52.522337344308400,-1.465221227766800
Busters,CV11 4EA,52.522651093503000,-1.467015519032490
The time cafe ,CV11 4EA,52.522651093503000,-1.467015519032490
Alara Bistro & Coffee Ltd,CV11 4ED,52.523318730325900,-1.465548306808880
MELISSA COFFEE LTD,CV11 4EU,52.523547389076900,-1.466415123412480
Jennys Restaurant Nuneaton Ltd.,CV11 4HB,52.524018161304100,-1.466866000000000
Cassandras Restaurant Ltd,CV11 4HL,52.523679741232200,-1.468181000000000
Ego at the Cedar Tree,CV11 4LX,52.515414000000000,-1.462724688187710
The Arches Bar and Restaurant,CV11 4NL,52.512269465875900,-1.467421033566280
Ivys cafe,CV11 4PR,52.513576000000000,-1.453937000000000
Desserts.Nuneaton Ltd,CV11 5BP,52.523136343261000,-1.468823000000000
Hannah's cafe,CV11 5BS,52.523021000000000,-1.469117164037740
Toppers,CV11 5BS,52.523021000000000,-1.469117164037740
Sovranos Caffe,CV11 5JL,52.522812919264900,-1.468886000000000
McLean Restaurants Ltd,CV11 5JW,52.522453405042300,-1.469037078527380
Crave coffee and desserts ,CV11 5JZ,52.522229839680200,-1.473328640192870
new gurkha ,CV11 5JZ,52.522229839680200,-1.473328640192870
Subway,CV11 5LE,52.522054698445400,-1.474524000000000
Nuneaton Grill and Fish Bar Ltd,CV11 5LG,52.521992769236300,-1.476632851978580
Tea & Chat,CV11 5QH,52.521578910434500,-1.468487566765630
Nuneaton museum and Art Gallery tearoom ,CV11 5TU,52.519566432102400,-1.466772818686240
The Whitestone,CV11 6NF,52.505766347493400,-1.430019143540570
cippolini ,CV12 0BJ,52.473149046587000,-1.492949981597560
ASTLEY BOOK FARM,CV12 0NE,52.486305294431000,-1.519733275780000
Meeting point café ,CV12 0NE,52.486305294431000,-1.519733275780000
Palace Bedworth,CV12 8AB,52.483104590515300,-1.473177322584250
The Newdigate Arms,CV12 8EF,52.481984244111800,-1.482099274838810
Latte Artist Coffee Shop,CV12 8HT,52.479582447501100,-1.471761000000000
Bedworth Ex-Servicemen's Club,CV12 8JH,52.478377086900500,-1.469435041779690
Subway Bedworth,CV12 8JP,52.481097358267700,-1.472627027110230
Mayors Cafe,CV12 8JT,52.477440000000000,-1.468740000000000
Bedworth Civic Hall High Street Coffee Bar,CV12 8NF,52.478926274051600,-1.471814000000000
COSTA COFFEE,CV12 8SX,52.481470256348100,-1.473594403816800
Village Cafe,CV12 9NG,52.476001534646000,-1.424705861674780
The Houz Bistro Ltd,CV12 9QX,52.475432569093600,-1.422328190431350
Weston Hall Hotel,CV12 9RU,52.481664149391400,-1.435395000000000
The Old Crown,CV2 1NP,52.453196412899800,-1.463675000000000
Holiday Inn Coventry,CV2 2HP,52.430930734595900,-1.434557000000000
MURCO WALSGRAVE SUBWAY ,CV2 2QN,52.430122789403100,-1.439231272725070
McLean Restaurants Ltd,CV2 2RZ,52.430865438869700,-1.438486456705720
Premiere Classe Coventry,CV2 2SD,52.431175060953600,-1.439320879845040
KFC CROSS POINT,CV2 2SH,52.432980377973800,-1.431428875779380
Costa Coventry,CV2 2SZ,52.434705241841000,-1.429171000000000
the rose & woodbine,CV2 3FW,52.417788824485400,-1.480704611872290
Antalya Restaurant Ltd,CV2 4AX,52.411233404079300,-1.480340527020260
Bombay Joe's,CV2 4BA,52.411372378709800,-1.481412000000000
Foodworx ltd,CV2 4BA,52.411372378709800,-1.481412000000000
Get stuffed cafe,CV2 4BA,52.411372378709800,-1.481412000000000
Dhaka Dynasty Tandoori Restaurant ,CV2 4BL,52.411078369102800,-1.473506000000000
KFC WALSGRAVE ROAD,CV2 4BL,52.411078369102800,-1.473506000000000
BALL HILL DINER ,CV2 4ED,52.410606794015300,-1.483008792844820
Simmer Down Restaurant,CV2 4ED,52.410606794015300,-1.483008792844820
Sri Sai Subs Ltd,CV2 4ED,52.410606794015300,-1.483008792844820
Ms J Westwood TA Sawasdee Thai,CV2 4JZ,52.412693266837800,-1.477044869443070
The Millpool,CV2 5FR,52.406385871788300,-1.459861929175420
Barley Mow,CV21 1HW,52.391106368768100,-1.282976914953630
KFC - Junction One Retail Pk Rugby,CV21 1RW,52.385223889260700,-1.259577000000000
McDonald's Restaurant,CV21 1RW,52.385223889260700,-1.259577000000000
Subway Junction 1 Retail Park,CV21 1RW,52.385223889260700,-1.259577000000000
starbucks,CV21 1SR,52.388942000000000,-1.258385000000000
The Distillery Rugby,CV21 2AL,52.373510036857000,-1.262139088514290
Franklins Breakfast and Sandwich Shop,CV21 2DY,52.371513952298000,-1.267886090962930
Central Cafe,CV21 2JR,52.373140000000000,-1.263249170302000
FRESH IN FOOD LTD,CV21 2JR,52.373140000000000,-1.263249170302000
On the Rocks,CV21 2RS,52.373377750512900,-1.259673552699270
quigleys,CV21 2RS,52.373377750512900,-1.259673552699270
Maharajah Tandoori Restaurant,CV21 2SG,52.374455923125000,-1.259567394568930
Tameras kitchen ,CV21 2TP,52.373186397979300,-1.259265462977050
Hill murry restaurant and takeaway ,CV21 3AT,52.371354604719400,-1.261058687450160
La Casa Loco,CV21 3AW,52.371963000000000,-1.261850871812140
Maia Gelato ,CV21 3BG,52.371363133384600,-1.262424553101550
Yum Yum World Limited,CV21 3BG,52.371363133384600,-1.262424553101550
Professional Thai Food,CV21 3BU,52.371528788726500,-1.263038703706400
Lawrence Sheriff,CV21 3BW,52.371348634911400,-1.262982948092860
Treacle’s Kitchen ,CV21 3BX,52.371729209164500,-1.263461332029660
Kuni Coffee,CV21 3DY,52.372432000000000,-1.262142000000000
McDonald's Restaurant,CV21 3DY,52.372432000000000,-1.262142000000000
Costa Coffee,CV21 3EB,52.372529000000000,-1.263136906449850
Kaspas Desserts,CV21 3EB,52.372529000000000,-1.263136906449850
LIBERTINE BURGER (RUGBY)  ,CV21 3EB,52.372529000000000,-1.263136906449850
LIBERTINE BURGER (RUGBY) LIMITED,CV21 3EB,52.372529000000000,-1.263136906449850
Dilruba,CV21 3HQ,52.376345940618900,-1.255598898079680
TITASH INDIAN AND BANGLADESHI CUISINE LIMITED,CV21 3PT,52.372590914143600,-1.260362383146250
Dosa village rugby,CV21 3PU,52.372408709085000,-1.258866000000000
FRESH IN FOOD LTD,CV21 3PY,52.372226106765500,-1.256666961373410
The Stag and Pheasant,CV21 4BW,52.361179101344200,-1.216615667282470
Bell inn,CV21 4HD,52.358184232487000,-1.215097431770180
Rugby Railway Club,CV22 5AL,52.366071007175600,-1.244418883943760
Olivia’s Coffee House,CV22 5BH,52.361750948281200,-1.232524206631710
Malancha,CV22 6NS,52.336152259140800,-1.288048512045580
The Green Man,CV22 6NS,52.336152259140800,-1.288048512045580
Cinnamon Lounge,CV22 6NU,52.337175136928800,-1.289206244115980
Dunchurch Park Hotel,CV22 6QW,52.337774470659100,-1.282753389104620
Stobart Truckstops LTD,CV23 0AE,52.381938953463700,-1.188789399984390
the stag and pheasant,CV23 0DY,52.398232000000000,-1.221060000000000
The Old Lion ,CV23 0HQ,52.409890324258700,-1.298520171692660
Golden Lion Hotel LLP,CV23 0JA,52.411953741511000,-1.319319756898160
Queens head,CV23 0JY,52.390880820889700,-1.369635123478420
Rebecca's Kitchen ,CV23 0PE,52.429027503012900,-1.336970443137530
The Barn at Willey,CV23 0SL,52.463453534500700,-1.290913432334360
FRESH IN FOOD LTD,CV23 0UX,52.401840392111700,-1.245220000000000
The Tuning Fork Cafe Ltd,CV23 1AF,52.356865000000000,-1.184918000000000
Waterside Restaurant,CV23 8AB,52.319302885424300,-1.319861458161400
Olde Coach House,CV23 8UN,52.308482564764200,-1.164860253065770
Barby Sporting Limited,CV23 8UX,52.343538689425500,-1.211011720778290
The Red Lion Kilsby,CV23 8XP,52.335851000000000,-1.180390786159410
OLD SMITHY,CV23 9EF,52.383437308671500,-1.340048180221320
Draycote Hotel,CV23 9LF,52.341228000000000,-1.330284000000000
McDonald's Restaurant,CV23 9LG,52.344351031794700,-1.339823000000000
Friendly Inn,CV23 9NY,52.329494607768500,-1.376304058307630
The Essence Of India,CV23 9RH,52.318149090542100,-1.402945000000000
B'S Batches ,CV3 1AT,52.403324000000000,-1.486589379332670
PIZZA HOT LTD,CV3 1BA,52.402533078776300,-1.487012909489880
Biggin Hall Public house,CV3 1HG,52.407040897354800,-1.471525699087380
Coombe Abbey Hotel,CV3 2AB,52.412076712558500,-1.409101148222870
McDonald's Restaurant,CV3 2EA,52.397773318453600,-1.442433658096070
Subway Willenhall Lane,CV3 2EA,52.397773318453600,-1.442433658096070
Munchbox cafe,CV3 4DL,52.381040495178800,-1.471351209375890
Laura Ashley - The Tea Room The Iliffe ,CV3 4EQ,52.383348947129500,-1.472910396156360
Ibis Coventry South,CV3 4LF,52.383737000000000,-1.491403000000000
Subway ,CV3 5HW,52.393953118872800,-1.507377565314070
The Festival Public House,CV3 5QJ,52.378858533394600,-1.503064844792710
Indigo Indian Cuisine,CV3 6AU,52.397765213281200,-1.516153247012320
mfg cubbington subway,CV32 7HY,52.311542226671300,-1.510169990716070
Hollies Tea and Cake Room  Ltd,CV32 7NB,52.311012962097100,-1.501844347380620
hillbillys grill shack at the plough ltd ,CV33 9DQ,52.317595193952500,-1.424912760631960
The Red Lion at Hunningham ,CV33 9DY,52.312717286346700,-1.452215739561710
J & C Ellis Ta Hilltop Farm Shop & Cafe,CV33 9EL,52.301216931206400,-1.449908556034690
Everyday Fresh Cafe,CV4 7BX,52.388247813519800,-1.546452763795630
Subway,CV4 7EH,52.387812325672600,-1.554876612585670
McDonald's Restaurant,CV4 9BJ,52.401549707881500,-1.554988328263200
RUPALi RESTAURANT,CV4 9DU,52.403648149594900,-1.563345000000000
wing wah coventry,CV4 9EL,52.405569000000000,-1.559566226224420
Coventry Hearsall Golf Club,CV5 6DF,52.393988919483100,-1.531683672343330
Millsy's Cafe Bar Bistro Ltd,CV5 6EG,52.399544257991700,-1.531536707967500
Allys Balti House Ltd ,CV5 6EJ,52.398660428613400,-1.533103958898410
BOMBAY PALACE,CV5 6EJ,52.398660428613400,-1.533103958898410
Cafe Bravo,CV5 6EJ,52.398660428613400,-1.533103958898410
Emily's Cafe,CV5 6EJ,52.398660428613400,-1.533103958898410
Street Restaurant,CV5 6EJ,52.398660428613400,-1.533103958898410
Subway,CV5 6EL,52.398175328216300,-1.533197257857570
SAGE,CV5 6EP,52.398943455227600,-1.531925195008510
The Cottage,CV5 6ET,52.399174064105800,-1.533891000000000
O'Tool's Café,CV5 6GD,52.401912547184200,-1.530247592475040
Richards kitchen Ltd,CV5 6NF,52.400200165695800,-1.529178141795590
Myrtles Coffee,CV5 6NG,52.400790563796700,-1.528436968766770
The Royal Bengal,CV5 6NG,52.400790563796700,-1.528436968766770
KFC TILE HILL,CV5 6UA,52.402799179503000,-1.557342222432410
Oodles Noodles,CV5 6UA,52.402799179503000,-1.557342222432410
Subway Tile Hill,CV5 6UA,52.402799179503000,-1.557342222432410
Love A Latte,CV5 7JT,52.412450000000000,-1.570549664484570
Cones,CV5 8AU,52.408008197784600,-1.555937691364580
McDonald's Restaurant,CV5 8BW,52.411290788062600,-1.528369157685110
New Spires,CV5 8HJ,52.414115967011200,-1.547363773445210
The Jacobean Hotel,CV5 8HX,52.419609038404900,-1.552115796272580
The good honest food company ,CV5 9BN,52.423730665218600,-1.567633000000000
Rainbow Inn,CV5 9GT,52.423248535935400,-1.560931000000000
Shefs food services ltd ,CV5 9GT,52.423248535935400,-1.560931000000000
Britannia Coventry Hill Hotel,CV5 9PH,52.426078295668800,-1.573021364936610
Kausshik Limited,CV6 1AU,52.417439246082600,-1.532699909453930
Dosa village,CV6 1DY,52.416828005877000,-1.525942906243110
Lions Inn Indian Cuisine Ltd,CV6 1EJ,52.420299787208100,-1.533125519342870
the old hotel(coventry) kalia empire,CV6 2EJ,52.437499883622800,-1.533635226836490
Livermore &Co Ltd,CV6 2FR,52.443065043191300,-1.533826000000000
FoodWhitehall's Ltd,CV6 2HT,52.443261935330100,-1.522216772725300
The Ocean Indian Cuisine,CV6 3ET,52.431263323995100,-1.516360309953020
Subway,CV6 3EX,52.431621000000000,-1.517710000000000
The Pilot,CV6 4AU,52.435014374035000,-1.519099313586400
BD Coventry Limited,CV6 4BY,52.439005000000000,-1.507567000000000
Masala jacks restaurant ,CV6 4BY,52.439005000000000,-1.507567000000000
Hollybush 2017 ltd,CV6 4DD,52.441040000000000,-1.508299057712510
Asiana Restaurant ,CV6 4DG,52.444866108444200,-1.509988038373960
SFC ,CV6 4HH,52.450300743512500,-1.511104905798600
EASTERN DINER LTD,CV6 5AN,52.428691420304300,-1.498901661330250
Nima’s Limited ,CV6 5AU,52.428918092577600,-1.499355015822040
3 FIVE 1 RESTAURANT,CV6 5DS,52.420071240151900,-1.497102488938920
The New Horseshoe Bar & Grill,CV6 5HN,52.438079498827300,-1.493131771952200
Aachi Restaurant,CV6 5HP,52.433907600257100,-1.495121184623800
McDonald's Restaurant,CV6 5QE,52.429847982055700,-1.487666708075550
Subway,CV6 5QG,52.429398000000000,-1.489334000000000
Burger King,CV6 6AS,52.444353000000000,-1.492545000000000
Subway,CV6 6AS,52.444353000000000,-1.492545000000000
the longford engine,CV6 6BP,52.454405532901400,-1.484806654347990
the greyhound inn,CV6 6DF,52.457259611432000,-1.469482741500380
Spice Sensation ,CV6 6EE,52.449998000000000,-1.486109000000000
Royal Punjab Dhabba,CV6 6ER,52.440249446516900,-1.491812316456650
CHENNAI DOSA,CV6 6GS,52.440568521074100,-1.490749448084470
Weavers Bar & Grill,CV6 7HA,52.433189360694000,-1.480803169259020
KFC COURTHOUSE GREEN,CV6 7NS,52.427929000000000,-1.484380000000000
Horse and Jockey,CV7 8AA,52.459433000000000,-1.556112000000000
The Weavers Arms,CV7 8DL,52.488502703325400,-1.572314402335780
Hare and Hounds,CV7 8JA,52.450659231380700,-1.530818293692590
Royal Court Hotel Coventry,CV7 8JG,52.451132617795400,-1.548514920114200
Hogans Bar and bistro(coventry ltd),CV7 8NJ,52.443619564290300,-1.539867417576480
The Rose And Castle,CV7 9HZ,52.447046420955100,-1.413797000000000
Nettle Hill Ltd,CV7 9JL,52.439618088462300,-1.392242083327120
Peacock & Grand Hotels Limited,CV8 1HY,52.338447525247600,-1.574394000000000
The Tiltyard Pub,CV8 2DE,52.347287065594500,-1.557955284770600
Kenilworth Golf Club Ltd,CV8 2EA,52.350747846933400,-1.548319260354270
Chesford Grange Hotel,CV8 2LD,52.326259390210800,-1.558091401043990
FARMERS FAYRE,CV8 2LZ,52.339930604290400,-1.527280000000000
The Oak,CV8 3AU,52.366897756986100,-1.491450000000000
Smiths Nurseries (Baginton) Limited,CV8 3BA,52.360589900640300,-1.494458993939550
Citrus Hotel Coventry,CV8 3DY,52.374300906162100,-1.460091671627340
blacksmiths arms public house,CV8 3EY,52.365629099301100,-1.433982439288620
Mercure Brandon Hall Hotel,CV8 3FW,52.383059983063900,-1.406241502685200
Brandon Wood Golf Course & Club,CV8 3GQ,52.382608600471900,-1.418529963477530
Royal Oak Brandon ,CV8 3HR,52.381876000000000,-1.401130000000000
THREE POTS PANTRY LTD,LE10 2JJ,52.520320476858700,-1.366207868375320
Pesto at the Axe & Compass,LE10 3HG,52.496510645556500,-1.358758046597760
Sketchley Grange Hotel & Spa,LE10 3HU,52.524568305055400,-1.375520903035770
Barnacles Restaurant & Bar Bistro,LE10 3JA,52.512993323231100,-1.359476041329310
The Bulls Head,LE10 3LB,52.487467363710500,-1.368933212034680
THE BLUE PIG,LE10 3LG,52.486982588952500,-1.370751526344840
The Bricklayers,LE10 3PP,52.521368820974300,-1.292575543218170
E&R Tearoom Ltd,LE17 4AD,52.455108262850600,-1.200293112298560
Costa Lutterworth,LE17 4AL,52.455568449182600,-1.201874140237710
The New Sunar Gow,LE17 4AP,52.455612498724800,-1.197752771329920
CHEIKHO'S RESTAURANT,LE17 4AW,52.455685356436600,-1.200547555307840
Karters Cafe,LE17 4AW,52.455685356436600,-1.200547555307840
Fox Inn,LE17 4BN,52.453167308466900,-1.200431269705670
the Shambles,LE17 4DW,52.455577022889300,-1.199151466310120
Live at the Lodge Ltd,LE17 4ED,52.457517844037000,-1.200323056363080
Himalayan Zest ,LE17 4EH,52.456594983818400,-1.199456770278790
The Greyhound Coaching Inn,LE17 4EJ,52.456239000000000,-1.199850107377380
Wycliffe rooms,LE17 4EQ,52.456867204708000,-1.201158977770000
Pitstop Cafe,LE17 4HT,52.429230000000000,-1.220999000000000
The Yard Cafe Cotesbach Limited,LE17 4HX,52.436699607602500,-1.209554000000000
The Black Horse Walcote,LE17 4JU,52.447851448146200,-1.163640103700190
The Olde Royal Oak,LE17 4SA,52.466261562292100,-1.211822801055070
MAN AT ARMS,LE17 4SB,52.467713123738800,-1.212444576433310
Chequers Country Inn,LE17 5BT,52.484963144928800,-1.256594707955080
Ullesthorpe Court Hotel and Golf Club Limited,LE17 5BZ,52.494315691019800,-1.257040945823920
PALMERS AT ULLESTHORPE LIMITED,LE17 5DR,52.479798966984100,-1.243223663724700
Dunton Bassett arms restaurant limited,LE17 5JJ,52.510695628363400,-1.196470438247460
The Chequers,LE17 6BL,52.410146261102900,-1.163647620054150
Manor Farm shop and Farmhouse Kitchen,LE17 6DB,52.398215745509600,-1.189416958666180
