name,postcode,lat,lon
gavial and Shearwater,BT44 8LY,54.849358000000000,-6.555807000000000
Ice seal and Skunk,BT45 5BE,54.754487000000000,-6.615914000000000
tokay and rock python,BT45 5EL,54.772734000000000,-6.626789000000000
Grosbeak and Siskin,BT45 5EX,54.761864000000000,-6.614451000000000
Pitohui and rock python,BT45 5HZ,54.758436000000000,-6.619461000000000
kabaragoya and Tree warbler,BT45 5JP,54.842083000000000,-6.714158000000000
Puffleg and gecko,BT45 5JZ,54.779637000000000,-6.664945000000000
puff adder and mountain devil,BT45 5LN,54.769981000000000,-6.672567000000000
Bunting and gavial,BT45 5LT,54.771518000000000,-6.673589000000000
diamondback terrapin and Siskin,BT45 5LW,54.769566000000000,-6.672253000000000
Booted eagles and king cobra,BT45 5NW,54.770717000000000,-6.704769000000000
Ground sloth and Parakeet,BT45 5PL,54.801938000000000,-6.682779000000000
Pheasant and king snake,BT45 5PR,54.809600000000000,-6.714492000000000
Ibex and Gila monster,BT45 6BB,54.751946000000000,-6.596259000000000
Meadowlark and Prion,BT45 6BH,54.752430000000000,-6.599536000000000
worm lizard and Rabbit,BT45 6DD,54.752552000000000,-6.607467000000000
Mink and Eagle,BT45 6DP,54.750124000000000,-6.608824000000000
elapid and Asiatic leopard,BT45 6GA,54.752804000000000,-6.590730000000000
sand lizard and Darwin's finches,BT45 6GX,54.742011000000000,-6.619817000000000
dukite and water snake,BT45 6HQ,54.749666000000000,-6.615427000000000
Mockingbird and Mouse,BT45 6NJ,54.705635000000000,-6.570958000000000
Viscacha and amethystine python,BT45 6NQ,54.717498000000000,-6.559925000000000
Tree warbler and Nukupu ªu,BT45 7AB,54.793294000000000,-6.783370000000000
Ice seal and Quetzal,BT45 7AE,54.793731000000000,-6.782923000000000
anaconda and gecko,BT45 7AF,54.793383000000000,-6.778392000000000
Recurvebill and ringhals,BT45 7JD,54.777106000000000,-6.791113000000000
Viscacha and Black jay,BT45 7LA,54.777945000000000,-6.742801000000000
Ice seal and rock snake,BT45 7LB,54.776500000000000,-6.736878000000000
ringhals and goanna,BT45 8AN,54.779228000000000,-6.553538000000000
thorny devil and New World blackbird,BT45 8AQ,54.776712000000000,-6.562548000000000
lizard and Komodo dragon,BT45 8BL,54.782063000000000,-6.542712000000000
Puffleg and Francolin,BT45 8GY,54.812229000000000,-6.611263000000000
Scimitar babbler and agamid,BT45 8HH,54.775564000000000,-6.553403000000000
Ground sloth and giant tortoise,BT45 8JL,54.840424000000000,-6.548670000000000
Shearwater and tokay,BT45 8RP,54.773167000000000,-6.555308000000000
Bunting and River dolphin,BT45 8SA,54.835799000000000,-6.597927000000000
Kite and sidewinder,BT46 5BW,54.845521000000000,-6.669123000000000
box turtle and Eagle,BT46 5DJ,54.825805000000000,-6.703177000000000
Ibex and Masked owl,BT46 5DY,54.907130000000000,-6.669928000000000
Dorcopsis and Fox,BT46 5EG,54.840230000000000,-6.662650000000000
Capuchin and wall lizard,BT46 5HN,54.851902000000000,-6.648999000000000
sidewinder and Guillemot,BT46 5HU,54.867292000000000,-6.667563000000000
Treepie and Piping shrike,BT46 5HZ,54.854194000000000,-6.668426000000000
kabaragoya and Night heron,BT46 5JR,54.834611000000000,-6.714287000000000
River dolphin and leathery turtle,BT46 5LR,54.824379000000000,-6.715157000000000
Recurvebill and Chipmunk,BT46 5LX,54.843975000000000,-6.677237000000000
gecko and grass snake,BT46 5NL,54.905154000000000,-6.691477000000000
Fox and Goose,BT46 5PG,54.858431000000000,-6.724400000000000
horned viper and Vole,BT46 5QD,54.910141000000000,-6.664402000000000
adder and Bronzewing pigeon,BT46 5QU,54.922201000000000,-6.646908000000000
River dolphin and mamba,BT46 5QX,54.922824000000000,-6.658508000000000
Old World quail and Chicken,BT46 5RN,54.877922000000000,-6.642626000000000
Ground sloth and diamond python,BT46 5SE,54.893395000000000,-6.652067000000000
Black jay and Solitaire,BT46 5SS,54.878233000000000,-6.632163000000000
massasauga and water snake,BT46 5SX,54.891691000000000,-6.629058000000000
cobra de capello and Gull,BT46 5TX,54.852304000000000,-6.607582000000000
pit viper and Argus,BT46 5UA,54.862991000000000,-6.582343000000000
Black cockatoo and Gila monster,BT46 5UB,54.875783000000000,-6.578435000000000
deaf adder and skink,BT46 5UX,54.884138000000000,-6.583875000000000
leathery turtle and python,BT46 5XA,54.896924000000000,-6.583020000000000
Lemming and bearded lizard,BT47 4SH,54.901546000000000,-6.888342000000000
krait and cycling lizard,BT80 9XL,54.708274000000000,-6.762614000000000
