name,postcode,lat,lon
The Cock Inn,DG8 0JT,54.8301,-4.7479
D'NISI (STRANRAER) LIMITED,DG9 7EF,54.9049,-5.0254
The Central Cafe,DG9 7EF,54.9049,-5.0254
Starfish Restaurant,DG9 7EJ,54.9047,-5.0246
Arkhouse inn,DG9 7JG,54.9042,-5.0278
Fig & Olive,DG9 7JP,54.9045,-5.0297
The Alexandra Coffee Shop,DG9 7JS,54.9048,-5.0297
Marine house hotel,DG9 7JZ,54.9065,-5.0342
CAFE PIZZERIA,DG9 7RL,54.9048,-5.0272
The Royal Cafe,DG9 7RR,54.9042,-5.0255
Lando's,DG9 7RX,54.9034,-5.0246
Henrys Bay House Restaurant,DG9 8AT,54.9062,-5.0136
North West Castle,DG9 8EH,54.9050,-5.0212
Craignelder Hotel,DG9 8HA,54.9049,-5.0185
The Port Pantry,DG9 8JL,54.8419,-5.1163
The Boardwalk,DG9 8JS,54.8400,-5.1163
Harbour House Hotel,DG9 8JW,54.8426,-5.1159
Mount Stewart Hotel,DG9 8LE,54.8403,-5.1159
The Waterfront Hotel,DG9 8SX,54.8422,-5.1177
crown hotel,DG9 8SX,54.8422,-5.1177
Dunskey Golf Club,DG9 8TB,54.8458,-5.1164
Fernhill Hotel,DG9 8TD,54.8451,-5.1161
The Galloway,DG9 9AA,54.8371,-5.1038
Knockinaam Lodge,DG9 9AD,54.8282,-5.0748
Torrs Warren Hotel,DG9 9DH,54.8361,-4.9793
Tigh Na Mara Hotel ,DG9 9JF,54.8081,-4.9627
