name,postcode,lat,lon
Piping shrike and sand lizard,DG5 4LF,54.887016000000000,-3.804857944274320
krait and pit viper,DG5 4LG,54.885916000000000,-3.811217734385920
Coati and Viscacha,DG5 4LL,54.881338600510400,-3.812534729948460
Francolin and iguana,DG5 4QP,54.886316202448800,-3.799350182611710
Treepie and frill-necked lizard,DG5 4UN,54.924700518658500,-3.820039998463520
Minke whale and Tattler,DG6 4BZ,54.836692465678200,-4.047305415859440
mud turtle and massasauga,DG6 4DA,54.837475638536500,-4.045102606878430
Grosbeak and Cuscus,DG6 4DN,54.837532815252800,-4.048640505938760
sidewinder and Viscacha,DG6 4EB,54.837843710289800,-4.046195751249460
ringhals and diamondback terrapin,DG6 4EU,54.843929000000000,-4.039853000000000
slowworm and crocodile,DG6 4HN,54.844591770074400,-4.035634563199840
Logrunners and cayman,DG6 4JB,54.846918637818300,-4.033555502936060
rock snake and gavial,DG6 4JZ,54.836349103704200,-4.054326696935360
flying dragon and rock snake,DG6 4LP,54.835799618932100,-4.052803858932000
Kestrel and terrapin,DG6 4LX,54.836225059143000,-4.051564108904750
agamid and gaboon viper,DG6 4NA,54.863704964576700,-4.031097021073210
saltwater crocodile and boomslang,DG6 4NF,54.868813097293700,-4.046985443182820
turtle and flying lizard,DG6 4NU,54.866264490087800,-4.081109574917720
Kite and diamondback,DG6 4PF,54.871542920746700,-4.094567352839160
Myna and Fulmarine petrel,DG6 4PT,54.880727000000000,-4.129855000000000
Armadillo and amphisbaena,DG6 4QZ,54.799783538395300,-3.958189060286880
Ibex and Treepie,DG6 4SF,54.836689162160600,-4.089164027692460
Macaw and sea snake,DG6 4SQ,54.809742813532400,-4.128919292205120
garter snake and asp,DG6 4UA,54.810846793024200,-4.173113446695680
skink and tortoise,DG6 4XQ,54.794729546971400,-4.028895922340040
puff adder and krait,DG6 4YJ,54.841613039054100,-4.044938138707750
leguaan and Partridge,DG7 1NJ,54.922186606521100,-3.865492432845430
king cobra and American sparrow,DG7 1QP,54.844674667397300,-3.873656903835140
Fish eagle and adder,DG7 1QQ,54.888971000000000,-3.854742000000000
Greenbul and Bronzewing pigeon,DG7 1QT,54.842957553667000,-3.872518263847580
thorn lizard and leathery turtle,DG7 1QZ,54.835236000000000,-3.844444000000000
boa constrictor and Maya,DG7 1RB,54.834837623751800,-3.882637177495380
Old World quail and racer,DG7 1SG,54.919891256537500,-3.936930848341010
soft-shelled turtle and Cuscus,DG7 1TB,54.879747449122700,-4.005777129573260
flying lizard and Songlark,DG7 2AN,54.885371958788700,-4.050569291605040
Bunting and Black jay,DG7 2DG,54.875250251878700,-4.150375962148110
Pitohui and Bunting,DG7 2JE,54.885075890591500,-4.183049094153080
Jay and horned viper,DG7 2JQ,54.885004011091100,-4.182047350134310
