name,postcode,lat,lon
Mockingbird and Prion,DG8 0DF,54.902230000000000,-4.637191000000000
box turtle and cayman,DG8 0HH,54.913352415696400,-4.607053944805200
Francolin and boomslang,DG8 0JY,54.834522101587900,-4.756772551485390
sidewinder and brown snake,DG8 0JZ,54.841472768952400,-4.765004033576260
Prion and Prion,DG8 0LE,54.851920000000000,-4.722451000000000
krait and Viscacha,DG8 0NS,54.880171957419800,-4.798059562082490
diamondback and worm lizard,DG8 0PL,54.877918091316000,-4.811951003740590
lizard and Cuscus,DG8 0PU,54.880714768007700,-4.802587788000840
mud turtle and Civet,DG8 0QA,54.878777174561400,-4.812509798509830
crocodile and tiger snake,DG8 0QF,54.879181590699300,-4.810963216483690
Petrel and chameleon,DG9 8BD,54.907147480060100,-5.006921307394590
blindworm and asp,DG9 8HG,54.908239000000000,-5.004272000000000
garter snake and Quetzal,DG9 8NE,54.873772000000000,-5.011418000000000
chameleon and cobra de capello,DG9 8NU,54.898556788261500,-4.989276451052740
Guillemot and Meadowlark,DG9 8SE,54.897898704127200,-4.955937769721750
anole and Wallaby,DG9 9AL,54.867001028936800,-4.999082206892220
New World blackbird and Greenbul,DG9 9DX,54.828367000000000,-4.954511000000000
Fox and crocodile,DG9 9EU,54.861402109549000,-4.959078685858360
Pitohui and Maya,DG9 9JX,54.794494211230000,-4.968313627718190
Ground sloth and Mamo,DG9 9LQ,54.804878000000000,-5.001215000000000
Petrel and Gull,DG9 9NH,54.722346602384300,-4.955750003058360
Shearwater and swift,DG9 9NT,54.724216051339800,-4.937493000000000
blue tongue and Cloud rat,DG9 9PH,54.782517594367300,-4.974233300347620
