name,postcode,lat,lon
flying dragon and boa constrictor,TS24 0DJ,54.703085746228600,-1.196926482190600
massasauga and New World blackbird,TS24 0GH,54.710243000000000,-1.219135000000000
New World blackbird and Thicketbird,TS24 0UL,54.703915669243600,-1.209712983477540
Eagle and bandy-bandy,TS24 9DR,54.702877000000000,-1.231071000000000
leathery turtle and Minke whale,TS24 9HN,54.707285834574900,-1.218043761191530
pit viper and harlequin snake,TS24 9JD,54.707429111040700,-1.224962914702010
sidewinder and Guillemot,TS24 9JE,54.707204993382800,-1.226457095694130
snake and flying dragon,TS24 9LL,54.709313975769700,-1.225997911260330
Siskin and sea snake,TS24 9NQ,54.707120942601400,-1.235879241252890
Minke whale and Night heron,TS24 9PB,54.710241000000000,-1.231676000000000
Hawaiian honeycreeper and bushmaster,TS24 9RB,54.717208620809100,-1.250995957360140
frilled lizard and Logrunners,TS24 9RX,54.713865171921400,-1.243699945174030
Ibex and thorn lizard,TS24 9SA,54.715909011810800,-1.245757546812500
Snipe and bandy-bandy,TS26 0FD,54.705484394233500,-1.236701622297200
River dolphin and asp,TS26 0QU,54.703843007433000,-1.244848504154060
Lemming and galliwasp,TS26 0SE,54.700542111220000,-1.232961455484710
Macaw and bearded dragon,TS26 0WD,54.703484339713200,-1.243536096999440
Ground sloth and Bunting,TS26 0WE,54.704082482636200,-1.241460986664320
amphisbaena and alligator,TS26 0WN,54.704144368577700,-1.245618842440460
diamondback turtle and Dorcopsis,TS27 3AT,54.709804986192800,-1.279426834630680
Goose and diamondback,TS27 3ND,54.710423963078100,-1.252517856034230
Ice seal and Stilt,TS27 4AJ,54.742944806135500,-1.278838887118080
Magpie and Piping shrike,TS27 4EX,54.749925870419100,-1.292293474087400
Peafowl and Prion,TS27 4HP,54.745760774081100,-1.283915277005410
Nukupu ªu and ringhals,TS27 4HZ,54.744265441625800,-1.281797958001960
perentie and Kite,TS27 4LE,54.747730000000000,-1.291555000000000
agamid and diamondback terrapin,TS27 4LP,54.747480248224500,-1.293625526438870
Condor and flying lizard,TS27 4LS,54.747638069064100,-1.294492755405070
Puffleg and pit viper,TS27 4NF,54.751640875385400,-1.293584203286300
Francolin and Fox,TS27 4NQ,54.751875729389400,-1.295335784449860
bicycle lizard and mountain devil,TS27 4NR,54.754476533980000,-1.299066338271440
boa and Moluccan boobook,TS27 4NT,54.755080111255600,-1.299320062961610
snapping turtle and Dorcopsis,TS27 4QG,54.736585953410000,-1.293224824497440
