name,postcode,lat,lon
glass snake and Guillemot,DD8 0BJ,56.643759490327400,-2.890715305415560
fer-de-lance and Lemming,DD8 0SE,56.644195095173400,-2.888230315123650
Warbler and puff adder,DD8 0SF,56.644195095173400,-2.888230315123650
goanna and jew lizard,DD8 0TL,56.644195095173400,-2.888230315123650
tree snake and anole,DD8 0TP,56.644195095173400,-2.888230315123650
blind snake and blue tongue,DD8 1EA,56.639985381141800,-2.892712962447690
loggerhead and loggerhead,DD8 1EB,56.639945239308900,-2.893298981353930
Egret and mountain devil,DD8 1LB,56.639953421768900,-2.898402532043520
Logrunners and Vulture,DD8 1PA,56.632484487913500,-2.898828142128200
Kestrel and glass snake,DD8 1RJ,56.606657834711700,-3.005258743499760
hawksbill and Mamo,DD8 1RW,56.607963222108900,-3.002703149823030
gavial and Prion,DD8 1RX,56.606762882732200,-3.006711394260480
Prion and Treepie,DD8 1TY,56.597888204053300,-2.952515000000000
Grosbeak and Komodo dragon,DD8 1TZ,56.599754000000000,-2.970627000000000
Cuscus and Bunting,DD8 1UG,56.598424581371200,-3.007922832479060
gopher snake and Tattler,DD8 1XE,56.624025600875600,-2.896997256203630
Chickadee and Petrel,DD8 2AW,56.640497467050300,-2.883904122635330
Old World quail and Tree warbler,DD8 2BA,56.639430446203200,-2.881074804234640
Songlark and kabaragoya,DD8 2BY,56.644822362443500,-2.880874418188330
Kite and Greenbul,DD8 2EA,56.645866438766900,-2.879481000000000
green turtle and skink,DD8 2EF,56.633856000000000,-2.851976000000000
Wader and rat snake,DD8 2EQ,56.645224000000000,-2.883723716813750
Gila monster and skink,DD8 2EY,56.632709000000000,-2.852656000000000
sidewinder and pit viper,DD8 2RF,56.645027097312700,-2.870932037776470
bushmaster and caiman,DD8 2RP,56.636193327128900,-2.847855372583150
Prion and flying lizard,DD8 2SZ,56.653277414541400,-2.848401983069360
dugite and Badger,DD8 3DB,56.649017092090000,-2.874628220057490
sidewinder and python,DD8 3DF,56.653320063613000,-2.875967460925300
Peafowl and Capuchin,DD8 3DH,56.648434477768400,-2.874435338522790
Cuscus and diamondback terrapin,DD8 3DU,56.649300594992500,-2.873917204082330
monitor and Gila monster,DD8 3FF,56.741833000000000,-2.857268000000000
caiman and Shearwater,DD8 3JQ,56.651129241910300,-2.892226107260670
sand viper and Guillemot,DD8 3NE,56.658278707413800,-2.859296913442790
Bronzewing pigeon and tortoise,DD8 3NN,56.671653298342600,-2.867466835453550
Wallaby and anole,DD8 3NX,56.658359787353300,-2.855351125207140
bicycle lizard and swift,DD8 3PX,56.697626750846400,-2.827795807121290
boa and Mamo,DD8 3RT,56.675856408518900,-2.893088152394110
chuckwalla and bull snake,DD8 3RZ,56.675760263111900,-2.907627111868990
terrapin and elapid,DD8 3TD,56.712763730375500,-2.860980000000000
Bunting and Greenbul,DD8 3TF,56.719995540589000,-2.938283169030200
Old World quail and diamondback turtle,DD8 3WS,56.650028761236300,-2.886557199886520
Stilt and diamondback turtle,DD8 4BP,56.673211307552000,-3.002184105568890
adder and Boto,DD8 4LT,56.703200000000000,-2.971607000000000
Armadillo and Marmoset,DD8 4NA,56.725605569897500,-2.974228000000000
pit viper and Vole,DD8 4ND,56.733197115109400,-3.031665000000000
Pitohui and boomslang,DD8 4PA,56.684471137684200,-3.001862922142450
Boto and Marmoset,DD8 4RS,56.775279949021700,-3.098257986157420
habu and Tattler,DD8 4SD,56.797394902047000,-3.152494659942800
turtle and habu,DD8 5AA,56.672382559343800,-3.009342000000000
Thrasher and Coati,DD8 5BX,56.668944177621900,-3.002136070116950
king cobra and python,DD8 5ER,56.684612029919000,-3.031919476021200
Ice seal and taipan,DD8 5JT,56.713083278540600,-3.121308964962280
Prion and Peafowl,DD8 5LL,56.663700097911400,-3.039064863415480
Pitohui and Armadillo,DD8 5NU,56.646399516894700,-3.074548000000000
Mouse and caiman,DD8 5PX,56.665596257873900,-2.991637634903330
mud turtle and Eagle,DD8 5QB,56.663851580327100,-2.980513825152250
terrapin and Gull,DD8 5QL,56.658345608664100,-2.947859592334110
Black cockatoo and Elephant,PH11 8JJ,56.625188000000000,-3.207765029927780
Black cockatoo and goanna,PH11 8JR,56.633031911278200,-3.180620361779630
River dolphin and taipan,PH11 8RB,56.619873130263300,-3.223037027697660
Night heron and Pratincole,PH12 8QZ,56.594439000000000,-3.173521000000000
Shearwater and Pheasant,PH12 8RX,56.587106758565900,-3.161130681844620
Argus and Petrel,PH12 8RZ,56.586475750368400,-3.163276857797330
anaconda and Wallaby,PH12 8TG,56.577495020556400,-3.168617032564980
