name,postcode,lat,lon
Valhalla Lodge,PH10 7NA,56.7187,-3.5209
Strathardle Inn,PH10 7NS,56.7218,-3.5007
KIRKMICHAEL HOTEL LTD,PH10 7NT,56.7241,-3.5053
Mortons Coffee Lounge,PH16 5AB,56.7036,-3.7358
Pasha,PH16 5AB,56.7036,-3.7358
Mackenzie's Coffee House,PH16 5AG,56.7041,-3.7373
McKays Hotel,PH16 5AG,56.7040,-3.7365
BR Pitlochry,PH16 5AN,56.7030,-3.7365
Pitlochry Dam Visitor Centre,PH16 5AP,56.7024,-3.7396
Fisher's Hotel,PH16 5BN,56.7031,-3.7348
Cafe Biba,PH16 5BX,56.7021,-3.7300
Cobbs Cafe Queens View,PH16 5BX,56.7021,-3.7300
Fern Cottage Restaurant,PH16 5DD,56.7011,-3.7320
Dundarach Hotel,PH16 5DJ,56.6999,-3.7271
Saorsa 1875,PH16 5DW,56.7014,-3.7244
Moulin Hotel ,PH16 5EH,56.7125,-3.7267
Craigvrack Restaurant,PH16 5EQ,56.7084,-3.7288
Knockendarroch Hotel & Restaurant,PH16 5HT,56.7031,-3.7258
Rosemount Hotel,PH16 5HT,56.7031,-3.7258
East Haugh House Hotel,PH16 5TE,56.6861,-3.6980
The Red Brolly Inn,PH9 0LG,56.6541,-3.6694
Iain Burnett Highland Chocolatier,PH9 0PL,56.6579,-3.7744
The Grandtully Hotel,PH9 0PL,56.6580,-3.7744
