name,postcode,lat,lon
turtle and Pratincole,PH15 2AY,56.621550377490600,-3.866548377150670
Pitohui and blind snake,PH15 2BF,56.617228992846200,-3.875461657956230
Jay and viper,PH15 2BS,56.621179515479800,-3.869105339980480
bearded lizard and Armadillo,PH15 2BW,56.616827844381800,-3.874056488029210
terrapin and goanna,PH15 2DD,56.619701310476400,-3.865007000000000
Warbler and caiman,PH15 2DY,56.616276819584100,-3.859280328072720
python and mountain devil,PH15 2JD,56.623366000000000,-3.903868000000000
soft-shelled turtle and flying dragon,PH15 2JX,56.649123089383600,-3.821962307911360
amphisbaena and Pitohui,PH16 5BN,56.703094512298600,-3.734797253441020
Capuchin and milk snake,PH16 5HA,56.706127614542100,-3.724727227956840
giant tortoise and frilled lizard,PH16 5HW,56.706320804552100,-3.725699863607100
sand lizard and American sparrow,PH16 5JS,56.693669399104500,-3.702863023501830
sand lizard and Ice seal,PH16 5LQ,56.743727580060400,-3.778661458084300
cycling lizard and Cloud rat,PH16 5LT,56.760789158506300,-3.821086655457710
bearded lizard and blue racer,PH16 5TE,56.686044000000000,-3.698012000000000
indigo snake and snake,PH18 5TU,56.784306302459200,-3.825221974462460
skink and whip snake,PH18 5TX,56.777004753499100,-3.854590000000000
Linsang and adder,PH18 5UD,56.763420537608800,-3.940877383052010
Civet and gavial,PH9 0LG,56.654209000000000,-3.668849000000000
Pitohui and Black cockatoo,PH9 0NE,56.664914846559500,-3.661767391775590
flying dragon and chuckwalla,PH9 0NF,56.658458000000000,-3.663522000000000
Viscacha and Jackal,PH9 0PZ,56.644972833211100,-3.690735112578380
