name,postcode,lat,lon
Buzzard and Chickadee,DG10 9QF,55.329042000000000,-3.437880000000000
Magpie and Recurvebill,DG11 1ET,55.237891037467900,-3.436979206356050
Vole and Cuscus,DG11 2LB,55.220656384616300,-3.355948884539560
Crow and White ibis,DG10 9LG,55.362019000000000,-3.358917000000000
Thicketbird and Dorcopsis,DG1 3NQ,55.173338000000000,-3.501231000000000
Meadowlark and White ibis,DG13 0QW,55.308508013438600,-3.203477887882420
Crow and Snipe,DG10 9QL,55.328024055254500,-3.438836724388310
Buzzard and Crow,DG10 9QA,55.279504075645600,-3.474298948364870
Warbler and Grackle,DG10 9DE,55.333199763089400,-3.433538149758190
Ground sloth and Pheasant,DG10 9PL,55.292098119865300,-3.417850552820570
Skunk and Kākāriki,DG10 9HG,55.334110000000000,-3.444812000000000
Vulture and Minke whale,TD7 5JD,55.384998013364300,-3.251971380046730
Guillemot and Old World vulture,DG10 9JL,55.336616869158000,-3.444035744993670
Hawk and Polecat,DG11 2LN,55.210311378097100,-3.301628374621610
Grackle and Mouse,DG11 2LF,55.210571010032500,-3.313455321424630
B and Bronzewing pigeon,DG10 9JB,55.335977000000000,-3.447933629788420
Chipmunk and Elephant,DG10 9BG,55.333735975126600,-3.435323202805710
Ibex and Songlark,DG10 9NF,55.238805195759300,-3.406343652605460
Tattler and Magpie,DG11 2PB,55.202879000000000,-3.303413000000000
Old World warbler and Gull,DG10 9DB,55.331964289440300,-3.438490840498630
Kangaroo and Booted eagles,DG10 9HQ,55.333602236445900,-3.430636157019650
Buzzard and Black jay,DG10 9DN,55.333367468927200,-3.442955873113810
Kangaroo and Armadillo,DG10 9RG,55.286767000000000,-3.446398000000000
Old World vulture and New World blackbird,DG10 9HA,55.331915394372900,-3.445677620878240
Pheasant and Armadillo,DG10 9EU,55.332612441152700,-3.444489127989290
Puffleg and Capuchin,DG10 9AB,55.334257412647200,-3.444454397611980
Thrasher and Meadowlark,DG1 3NA,55.171057270279700,-3.543459341885670
Towhee and Moluccan boobook,DG11 2NU,55.185855448425900,-3.255659553159770
Mamo and Mink,DG13 0QP,55.325957134601800,-3.204637153374270
Quetzal and River dolphin,DG10 9NL,55.247971008627400,-3.377250358775800
Rabbit and Parrotlet,DG10 9JW,55.332117937369600,-3.433830135513290
Thrasher and Crow,DG11 1HJ,55.214595793682000,-3.477713593924810
Tahr and Kite,DG10 9SJ,55.329531000000000,-3.481989000000000
Peafowl and Moluccan boobook,DG10 9RX,55.343040849713100,-3.449473218001710
Fish eagle and Grosbeak,DG10 9PZ,55.272582244518600,-3.467006247324770
Partridge and Tahr,ML12 6TF,55.437133000000000,-3.658011000000000
Ice seal and Cloud rat,DG10 9QS,55.311538259346100,-3.430014817564090
Bunting and Snipe,DG10 9LF,55.333891000000000,-3.388491000000000
Puffleg and Diving bird,DG10 9HD,55.332508039352100,-3.444958267274230
Ice seal and Bronzewing pigeon,DG11 1HW,55.204084000000000,-3.436924000000000
Elephant and Grouse,DG11 1EJ,55.175158000000000,-3.403504000000000
