name,postcode,lat,lon
Thrasher and Skunk,KA18 4NL,55.391980718447200,-4.165556661117890
Wader and Polecat,ML12 6XH,55.400013000000000,-3.790879000000000
Lemming and Grouse,ML12 6SS,55.495304207652300,-3.774686368745590
Recurvebill and Kākāriki,DG4 6DR,55.368480758128100,-3.921928396532760
Chicken and Minke whale,KA18 4NF,55.393087886734500,-4.186666578971080
Armadillo and Jay,ML12 6UR,55.399041945295100,-3.775454244682500
Thrasher and Armadillo,DG4 6BN,55.368013790336100,-3.925330036533900
Badger and Diving bird,KA18 3NA,55.496575556710400,-4.163300007917840
Jerboa and Civet,DG4 6JZ,55.366245596025300,-3.936558000056150
Mockingbird and Grouse,KA18 4JS,55.391267987743600,-4.171281115903480
Masked owl and Civet,ML12 6XX,55.416378134146100,-3.763024157566770
Greenbul and Macaw,DG4 6QR,55.379829811294500,-3.987796830219140
Flameback and Myna,DG3 4AT,55.269541893847700,-3.834648160791730
Chickadee and B,DG4 6QN,55.382070484380600,-3.986520094798030
Chipmunk and Wallaby,DG4 6BF,55.369876166443600,-3.928624013810010
Parrotlet and Fox,ML12 6YF,55.418240421814500,-3.757893264818410
Wallaby and Recurvebill,DG3 5DA,55.315774000000000,-3.798347000000000
Crow and Ground sloth,KA18 4AN,55.396224863418600,-4.184644701073650
Flameback and Jackal,DG4 6AG,55.365441000000000,-3.922750948430350
Siskin and Jay,DG4 6AF,55.365260705905200,-3.921395000000000
Fulmarine petrel and Chipmunk,DG4 6AS,55.363717419887500,-3.920214304026530
Black cockatoo and Meadowlark,KA18 3PT,55.516945059407500,-4.082237970595610
Recurvebill and Moluccan boobook,KA18 3PS,55.517875864000000,-4.081938650519400
Shearwater and Moluccan boobook,KA18 4AY,55.392761362879400,-4.182806000000000
Parrotlet and Pheasant,KA18 4JW,55.391568540392600,-4.174092488081020
Pitohui and Stilt,DG4 6HL,55.366317907691800,-3.913712919870090
Pheasant and Thrasher,DG4 6QX,55.378605926837700,-3.990103109412260
Polecat and Gull,KA18 3RF,55.520090040835000,-4.071679449050490
Grosbeak and Thicketbird,DG3 4AG,55.273650109215100,-3.808689641379620
Pratincole and Recurvebill,ML12 6UY,55.398376929242700,-3.782246458331560
Nukupuʻu and Dorcopsis,DG4 6DF,55.368645000000000,-3.925802000000000
Francolin and Mink,DG4 6HN,55.361322922058500,-3.911862527141820
Tree warbler and Diving bird,KA18 4AG,55.398198362624100,-4.183853396399070
Flameback and Mockingbird,KA18 4BX,55.394159191266200,-4.179195000000000
Bunting and Crow,KA18 4AP,55.398588765093000,-4.182627269275580
Mouse and Polecat,KA18 4HB,55.390543316923000,-4.181189058433980
Rabbit and Argus,DG4 6QU,55.378505336913000,-3.990761006131390
Snipe and Old World quail,ML12 6FQ,55.497849698371300,-3.748932222206500
Eagle and Condor,KA18 4HY,55.388017041015400,-4.182234099938540
Minke whale and Vulture,DG4 6DL,55.365758000000000,-3.929339000000000
Crow and Viscacha,DG4 6HT,55.349254593147300,-3.872874699782000
Peafowl and Armadillo,DG4 6HA,55.430115630155900,-3.889077327145670
Lemming and Recurvebill,KA18 4BY,55.394296082920200,-4.179911379458030
Dolphin and Diving bird,DG3 4AS,55.274825628000400,-3.848997434724550
Viscacha and Tit-tyrant,DG4 6HD,55.393569212368600,-3.935304345893980
Moluccan boobook and Warbler,KA18 4JQ,55.392867411070600,-4.175853424511920
Jackal and Songlark,KA18 3LS,55.455042000000000,-4.178106000000000
Triller and Bronzewing pigeon,ML12 6UT,55.398206636565100,-3.778325000000000
Kākāriki and Crow,DG4 6NW,55.395917073770600,-4.048785908744640
White ibis and Meadowlark,KA18 3PR,55.517914853093900,-4.083873265778040
