name,postcode,lat,lon
Piping shrike and agamid,AB33 8AE,57.235169430000000,-2.703019288000000
Boto and Ice seal,AB33 8FD,57.231416030000000,-2.696488000000000
box turtle and Grackle,AB33 8FL,57.236998560000000,-2.703633952000000
Warbler and worm lizard,AB33 8GA,57.229444890000000,-2.703423810000000
galliwasp and Mole,AB33 8GE,57.230621940000000,-2.701773250000000
Stint and Solitaire,AB33 8HJ,57.225377740000000,-2.706426000000000
Jerboa and Zebra,AB33 8JY,57.196043050000000,-2.772574205000000
Old World warbler and amphisbaena,AB33 8NA,57.242085000000000,-2.701660000000000
Wallaby and Night heron,AB33 8QY,57.236897490000000,-2.879342226000000
Ibex and Tahr,AB33 8RE,57.212029000000000,-2.935588000000000
smooth snake and Cloud rat,AB33 8SD,57.203789000000000,-2.799368000000000
Meadowlark and Fox,AB33 8SR,57.197425890000000,-2.930269978000000
Crow and viper,AB33 8TB,57.222001920000000,-2.942663197000000
Shearwater and Ground sloth,AB33 8TH,57.233651000000000,-2.712665000000000
rattlesnake and Skunk,AB33 8UQ,57.232942639268600,-2.717553000000000
anole and Jackal,AB36 8TR,57.226420890000000,-3.036272526000000
snapping turtle and Skunk,AB36 8YX,57.181785580000000,-3.071119006000000
Prion and Dorcopsis,AB52 6NY,57.331105000000000,-2.692411000000000
mamba and Wallaby,AB52 6YX,57.328493450000000,-2.708072999000000
Jay and jew lizard,AB54 4GB,57.332337950000000,-2.832788100000000
Mouse and caiman,AB54 4JX,57.256689000000000,-2.893085808000000
massasauga and horned viper,AB54 4JY,57.288143000000000,-2.895147000000000
Piping shrike and Gila monster,AB54 4LT,57.327368530000000,-2.806867131000000
Recurvebill and mamba,AB54 4NJ,57.360939710000000,-2.781023926000000
Parrotlet and diamond python,AB54 4PN,57.305541750000000,-2.722287559000000
