name,postcode,lat,lon
JP AT THE STRATHDEARN,IV13 7YN,57.33181762695310,-3.98948907852173
CAIRNGORM HOTEL,PH22 1PE,57.18837500000000,-3.83008900000000
MacDonald Hotels Aviemore Conference Centre,PH22 1PN,57.18821334838870,-3.83380389213562
Happy Haggis ,PH22 1PT,57.18367300000000,-3.83210700000000
The Old Bridge Inn,PH22 1PU,57.1860,-3.8287
Cobbs Cafe Aviemore,PH22 1RH,57.1912,-3.8294
Explorer Cafe,PH22 1RH,57.1912,-3.8294
Galaxy noodle bar,PH22 1RH,57.19250960000000,-3.82840270000000
Galaxy restaurant ,PH22 1RH,57.19250960000000,-3.82840270000000
Royal Tandoori Restaurant ,PH22 1RH,57.1912,-3.8294
Subway Aviemore,PH22 1RH,57.1912,-3.8294
The Ski-ing Doo Restaurant,PH22 1RH,57.19122000000000,-3.82963400000000
Winking Owl,PH22 1RH,57.19136000000000,-3.82869800000000
Route 7 Cafe,PH22 1ST,57.20188700000000,-3.81900400000000
Mambos Cafe / bar,PH22 1TE,57.2026,-3.8254
Carrbridge Hotel Ltd,PH23 3AB,57.28427100000000,-3.81502100000000
Carrmoor Guest House,PH23 3AD,57.28129500000000,-3.81150700000000
Doughnut Shack,PH23 3AJ,57.27799700000000,-3.81152700000000
Foresters Restaurant,PH23 3AJ,57.27799700000000,-3.81152700000000
Pinewood Grill ,PH23 3AJ,57.27799700000000,-3.81152700000000
Cairn Hotel,PH23 3AS,57.28320300000000,-3.81501800000000
Carrbridge Kitchen,PH23 3AS,57.2834,-3.8150
