name,postcode,lat,lon
hawksbill and Myna,LL67 0DU,53.408351136510000,-4.494809375375810
Flameback and Snipe,LL67 0ER,53.413536391677700,-4.451983789428960
diamondback terrapin and Fish eagle,LL67 0LF,53.410491297436000,-4.455344691399360
Boto and Wallaby,LL67 0NG,53.412681000000000,-4.448977876700580
lizard and Perching duck,LL68 0PN,53.375639165816200,-4.432680093918620
Gila monster and Stilt,LL68 0RB,53.394801810787500,-4.454922300697560
diamond python and indigo snake,LL68 0SA,53.390413633336000,-4.459317111019910
elapid and Ice seal,LL68 0SN,53.382580000000000,-4.484670000000000
Parrotlet and blindworm,LL68 0TF,53.373413836001400,-4.475731872584700
carpet snake and Snipe,LL68 0TL,53.379617408090400,-4.469235233301570
Hawk and bicycle lizard,LL68 0TW,53.380897639051700,-4.468196606697060
Old World vulture and Egret,LL68 0UE,53.394468190148200,-4.492267034453500
Kangaroo and Prion,LL68 0UG,53.396150668592200,-4.482723166377520
boa and Mockingbird,LL68 9AE,53.409601262060200,-4.345375397195890
Mole and Philippine hawk-owl,LL68 9AY,53.407819279732600,-4.353688123115110
death adder and Polecat,LL68 9HF,53.412756525406300,-4.333014206396440
Lemming and Old World warbler,LL68 9NX,53.408966073652900,-4.347958536906610
frilled lizard and Quetzal,LL68 9NY,53.404856000000000,-4.336644000000000
blue racer and amphisbaena,LL68 9SW,53.421777000000000,-4.370353000000000
Fulmarine petrel and Piping shrike,LL68 9UB,53.375601202829900,-4.367531480549790
