name,postcode,lat,lon
M & Ems ltd t/a Subway,CH46 0RL,53.3996,-3.1153
Cafe Blu ,CH46 0SJ,53.4010,-3.1121
Leasowe Castle Hotel,CH46 3RF,53.4184,-3.1078
saughall hotel ,CH46 5ND,53.3896,-3.1235
Asma Turkish Restaurant,CH46 6DQ,53.3960,-3.1255
Fullhouse Chinese Restaurant,CH47 2AB,53.3907,-3.1787
Nine Leaves Tea Lounge,CH47 2AB,53.3907,-3.1787
Monte Carlo restaurant bar and grill,CH47 2AE,53.3913,-3.1785
The Potting Shed,CH47 2AE,53.3913,-3.1785
Khao Soi Thai Restaurant,CH47 2AF,53.3919,-3.1776
The Artizan Hoylake,CH47 2AF,53.3919,-3.1776
Flavours,CH47 2BG,53.3932,-3.1767
The Quadrant Restaurant,CH47 2EE,53.3904,-3.1799
ground ,CH47 2EE,53.3904,-3.1799
Popsy's Licensed Coffee Shop And Bistro,CH47 3AG,53.3977,-3.1744
Bank Coffee Shop,CH47 3BB,53.3929,-3.1763
Subway,CH47 3BB,53.3929,-3.1763
Mother India Kitchen,CH47 3BD,53.3942,-3.1751
Julian's Restaurant,CH47 3BW,53.3970,-3.1719
Heima Coffee,CH47 8XA,53.3998,-3.1555
Maple Gardens Cafe ,CH47 8XT,53.4080,-3.1487
ATRIUM RESTAURANT,CH47 9RE,53.3945,-3.1423
Lattetude,CH48 0QA,53.3728,-3.1855
Royal Bengal Restaurant,CH48 0QB,53.3683,-3.1833
Pebbles(Hoylake)Ltd,CH48 0QG,53.3725,-3.1884
Subway,CH48 0QX,53.3718,-3.1842
The Tapas Kitchen,CH48 0RB,53.3680,-3.1827
Love Brownies West Kirby,CH48 0RD,53.3717,-3.1847
PICKLED WALNUT,CH48 0RD,53.3717,-3.1847
Rubens Coffee Ltd,CH48 0RD,53.3717,-3.1847
Green Onions Cafe,CH48 0RE,53.3702,-3.1842
The Nook Cafe,CH48 0RE,53.3702,-3.1842
shuhel balti house,CH48 0RE,53.3702,-3.1842
Andres Restaurant,CH48 0RF,53.3689,-3.1837
CALDY GOLF CLUB,CH48 1NB,53.3540,-3.1539
The Caldy Golf Club Limited,CH48 1NB,53.3540,-3.1539
Annabel's Cafe,CH48 1PL,53.3743,-3.1465
JJ Jacobs Estates Ltd,CH48 1PP,53.3729,-3.1354
Hickory's Smokehouse,CH48 3JN,53.3673,-3.1750
Aubergine Caf√©,CH48 4DA,53.3722,-3.1837
Hannah's West Kirby,CH48 4DD,53.3724,-3.1829
The Sweet Pea Cafe,CH48 4DD,53.3724,-3.1829
Forza ,CH48 4DY,53.3735,-3.1845
Grand Ave,CH48 4DY,53.3735,-3.1845
Karma indian food ,CH48 4DY,53.3735,-3.1845
The Wro,CH48 4DY,53.3735,-3.1845
West Kirby Tap,CH48 4DY,53.3735,-3.1845
toast,CH48 4DZ,53.3730,-3.1837
Figo's Mediterranean Kitchen ,CH48 4EG,53.3729,-3.1814
Blind Pig West Kirby,CH48 4HD,53.3727,-3.1846
Leaf Tea Shop & Bar West Kirby Venue Ltd,CH48 6DS,53.3742,-3.1684
The Ridger,CH48 9XW,53.3743,-3.1524
Noya Mediterranean Restaurant,CH49 0TQ,53.3849,-3.0978
Kerala Kitchen,CH49 0UB,53.3837,-3.0986
Re-Fuel Cafe,CH49 1AB,53.3762,-3.1025
Oak Bar and Bistro,CH49 3NQ,53.3769,-3.1206
IRBY MILL LTD,CH49 3NT,53.3677,-3.1228
Shippons,CH61 3UA,53.3522,-3.1188
Zeera Restaurant,CH61 3UA,53.3522,-3.1188
Aroma ,CH61 3UE,53.3526,-3.1172
