name,postcode,lat,lon
Fat Lolly Sams,CH41 0DF,53.3953,-3.0565
Village tandoori  (nw) ltd,CH41 0DF,53.3953,-3.0565
Pitstop cafe,CH41 1FD,53.4066,-3.0460
Cafe Barista - 12 Quays,CH41 1FE,53.4032,-3.0161
Charming Thai Kitchen Restaurant ,CH41 2QJ,53.3884,-3.0319
Busy Bee Takeaway ,CH41 2RA,53.3888,-3.0271
Coffee on the Square,CH41 2RD,53.3895,-3.0232
The Cafe,CH41 2XY,53.3904,-3.0226
Wimpy Restaurant ,CH41 2XY,53.3904,-3.0227
Costa Coffee,CH41 2YB,53.3899,-3.0249
Burger King,CH41 2ZL,53.3889,-3.0268
M & Ems ltd t/a Subway,CH41 2ZL,53.3894,-3.0264
Sun Ying,CH41 4DA,53.3892,-3.0325
Cramstones Cafe,CH41 4DB,53.3892,-3.0340
Caffe Cream at Birkenhead Park,CH41 4HY,53.3954,-3.0386
Thyme,CH41 5AP,53.3909,-3.0164
Joro Vegan Eatery,CH41 5AR,53.3927,-3.0160
Sugarr Food and Dessert Bar LTD,CH41 5BT,53.3926,-3.0168
Gallaghers Traditional Pub,CH41 5DQ,53.3939,-3.0127
The Riverview,CH41 5DQ,53.3939,-3.0127
Alleycats ,CH41 6AB,53.3918,-3.0182
The Brass Balance Birkenhead (Wetherspoon),CH41 6AB,53.3924,-3.0179
capitol chinese restaurant,CH41 6AE,53.3931,-3.0180
Sawasdee Thai restaurant ,CH41 6AF,53.3920,-3.0188
Liberty Bell Coffee,CH41 6DJ,53.3950,-3.0123
Bamboo Thai Limited,CH41 6DU,53.3944,-3.0090
Caffe Cream at Woodside,CH41 6DU,53.3944,-3.0090
Haku,CH41 6DU,53.3944,-3.0090
Low Slow and Dough Ltd,CH41 6DU,53.3944,-3.0090
REFRESHMENT ROOMS WOODSIDE LTD,CH41 6DU,53.3944,-3.0090
Woodside Ferry Village,CH41 6DU,53.3955,-3.0095
McDonald's,CH41 6EB,53.3892,-3.0303
PGriffiths foods ltd Mcdonalds Birkenhead,CH41 6EB,53.3893,-3.0300
McDonald's,CH41 9DF,53.3863,-3.0148
KFC - ROCKFERRY,CH42 1LJ,53.3757,-3.0108
KFC,CH42 1LJ,53.3765,-3.0098
WATERFRONT PUBS LIMITED,CH42 1LS,53.3744,-3.0031
Subway,CH42 5AB,53.3811,-3.0242
Armadillo Restaurant,CH42 6PU,53.3738,-3.0250
Rubens Coffee Ltd,CH42 8PF,53.3732,-3.0476
Thai Rooster Kitchen ,CH42 8PF,53.3732,-3.0476
Benricks,CH42 8PQ,53.3739,-3.0451
M & Ems ltd t/a Subway,CH42 8PQ,53.3739,-3.0451
Ruhi Balti,CH42 9PD,53.3741,-3.0388
Villa Venezia NW Limited,CH42 9PN,53.3745,-3.0333
Ella Turkish Charcoal Grill,CH42 9PQ,53.3730,-3.0403
Home Coffee,CH43 5SF,53.3826,-3.0415
Elixir Oxton,CH43 5SG,53.3817,-3.0430
Thyme Oxton Ltd,CH43 5SG,53.3817,-3.0430
Fit Grill,CH43 5SR,53.3823,-3.0442
Queens Arms ,CH43 5TL,53.3784,-3.0453
Oxton Bar and Kitchen,CH43 5TQ,53.3817,-3.0418
Subway,CH43 9JW,53.3789,-3.0642
Townfield Cafe,CH43 9JW,53.3788,-3.0642
Cult Coffee,CH44 2AE,53.4197,-3.0495
The Bidston Golf Club Ltd,CH44 2HR,53.4121,-3.0809
McDonald's,CH44 5TP,53.4196,-3.0435
PGriffiths foods ltd Mcdonalds Wallasey,CH44 5TP,53.4197,-3.0433
Rise & Grind wallasey ltd ,CH44 5UB,53.4176,-3.0447
The Cafe,CH44 5XT,53.4193,-3.0455
Costa Coffee,CH44 5XU,53.4191,-3.0454
Costa Coffee,CH44 5XU,53.4196,-3.0458
Jeanies Cafe,CH44 5XX,53.4193,-3.0441
CAFE CROSS THE MERSEY LIMITED,CH44 6QY,53.4093,-3.0171
Tandoori Mahal,CH44 8AU,53.4193,-3.0271
The Ferry ,CH44 8DF,53.4189,-3.0256
Hollins Hey Hotel,CH45 0JY,53.4367,-3.0489
Magic Spices,CH45 1HE,53.4318,-3.0402
The pilot boat,CH45 1HP,53.4316,-3.0342
Burger King,CH45 2HZ,53.4411,-3.0452
M & Ems ltd t/a Subway,CH45 2HZ,53.4396,-3.0533
Habibi,CH45 2JD,53.4379,-3.0426
James Atherton,CH45 2JD,53.4379,-3.0426
Rock Point Records,CH45 2JF,53.4383,-3.0422
Floral Pavilion,CH45 2JS,53.4400,-3.0422
Riverside Bowl,CH45 2JS,53.4401,-3.0422
PORTOFINO (NEW BRIGHTON) LTD,CH45 2JT,53.4398,-3.0439
The Master Mariner New Brighton (Wetherspoon),CH45 2JT,53.4399,-3.0442
Bistro 115,CH45 2LZ,53.4385,-3.0436
Caffe Cream of New Brighton,CH45 2PB,53.4404,-3.0442
Costa Coffee,CH45 2PB,53.4404,-3.0474
Marine Point Restaurants Ltd t/a Ella restaurant,CH45 2PB,53.4407,-3.0457
Remember When Tea Rooms Limited,CH45 2PH,53.4387,-3.0387
Mak Syed ,CH45 3HA,53.4279,-3.0681
The Grove House Hotel,CH45 3HF,53.4297,-3.0638
Porkys pantry ,CH45 3LE,53.4227,-3.0646
Subway,CH45 3LN,53.4238,-3.0649
stollies cafe and delicatessen,CH45 3LN,53.4235,-3.0648
Sheridans Bar & Grill,CH45 3LQ,53.4231,-3.0643
Amara,CH45 3LR,53.4271,-3.0676
PANEER RESTAURANT LIMITED,CH45 4JP,53.4209,-3.0441
Paneer Restaurant,CH45 4JP,53.4209,-3.0441
New Chinese Kitchen,CH45 4LD,53.4236,-3.0469
KFC - LISCARD,CH45 4NE,53.4199,-3.0467
KFC,CH45 4NE,53.4199,-3.0466
Pizza Hut,CH45 4NE,53.4202,-3.0463
M & Ems ltd t/a Subway,CH45 4NL,53.4199,-3.0458
vinovino restaurant ,CH45 4NN,53.4193,-3.0476
The Clairville Wallasey (Wetherspoon),CH45 4NW,53.4197,-3.0472
The new Ying king restaurant ,CH45 4QN,53.4211,-3.0463
Elachi,CH45 4QW,53.4219,-3.0468
Wallasey Golf Club Limited,CH45 8LA,53.4291,-3.0738
Clarence Hotel,CH45 9JQ,53.4360,-3.0528
Pizza Hut,CH46 0PD,53.4006,-3.1108
M & Ems ltd t/a Subway,CH46 0RL,53.3997,-3.1149
Cafe Blu ,CH46 0SJ,53.4010,-3.1121
The Mockbeggar Hall Moreton (Wetherspoon),CH46 0SL,53.4008,-3.1132
Leasowe Castle Hotel,CH46 3RF,53.4186,-3.1080
saughall hotel ,CH46 5ND,53.3896,-3.1235
Asma Turkish Restaurant,CH46 6DQ,53.3961,-3.1254
Fullhouse Chinese Restaurant,CH47 2AB,53.3906,-3.1785
Nine Leaves Tea Lounge,CH47 2AB,53.3907,-3.1787
Monte Carlo restaurant bar and grill,CH47 2AE,53.3913,-3.1784
The Potting Shed,CH47 2AE,53.3913,-3.1785
Khao Soi Thai Restaurant,CH47 2AF,53.3920,-3.1776
The Artizan Hoylake,CH47 2AF,53.3920,-3.1776
Flavours,CH47 2BG,53.3932,-3.1767
The Quadrant Restaurant,CH47 2EE,53.3904,-3.1799
ground ,CH47 2EE,53.3904,-3.1799
Popsy's Licensed Coffee Shop And Bistro,CH47 3AG,53.3977,-3.1744
Bank Coffee Shop,CH47 3BB,53.3929,-3.1762
Hoylake Lights Hoylake (Wetherspoon),CH47 3BB,53.3925,-3.1771
Subway,CH47 3BB,53.3929,-3.1762
Mother India Kitchen,CH47 3BD,53.3941,-3.1751
Julian's Restaurant,CH47 3BW,53.3970,-3.1719
Heima Coffee,CH47 8XA,53.3998,-3.1556
Maple Gardens Cafe ,CH47 8XT,53.4075,-3.1490
ATRIUM RESTAURANT,CH47 9RE,53.3943,-3.1418
Lattetude,CH48 0QA,53.3728,-3.1855
Royal Bengal Restaurant,CH48 0QB,53.3683,-3.1833
Pebbles(Hoylake)Ltd,CH48 0QG,53.3725,-3.1884
Subway,CH48 0QX,53.3718,-3.1842
The Tapas Kitchen,CH48 0RB,53.3680,-3.1826
Love Brownies West Kirby,CH48 0RD,53.3719,-3.1848
PICKLED WALNUT,CH48 0RD,53.3717,-3.1847
Rubens Coffee Ltd,CH48 0RD,53.3720,-3.1848
Green Onions Cafe,CH48 0RE,53.3703,-3.1842
The Nook Cafe,CH48 0RE,53.3705,-3.1842
shuhel balti house,CH48 0RE,53.3697,-3.1839
Andres Restaurant,CH48 0RF,53.3689,-3.1836
CALDY GOLF CLUB,CH48 1NB,53.3540,-3.1539
The Caldy Golf Club Limited,CH48 1NB,53.3540,-3.1539
Annabel's Cafe,CH48 1PL,53.3744,-3.1470
JJ Jacobs Estates Ltd,CH48 1PP,53.3729,-3.1354
Hickory's Smokehouse,CH48 3JN,53.3673,-3.1750
Aubergine Café,CH48 4DA,53.3722,-3.1838
Hannah's West Kirby,CH48 4DD,53.3724,-3.1833
The Sweet Pea Cafe,CH48 4DD,53.3726,-3.1829
Costa Coffee,CH48 4DY,53.3737,-3.1851
Forza ,CH48 4DY,53.3735,-3.1845
Grand Ave,CH48 4DY,53.3736,-3.1844
Karma indian food ,CH48 4DY,53.3736,-3.1844
The Wro,CH48 4DY,53.3736,-3.1844
West Kirby Tap,CH48 4DY,53.3736,-3.1844
toast,CH48 4DZ,53.3730,-3.1835
The Dee Hotel West Kirby (Wetherspoon),CH48 4EF,53.3728,-3.1825
Figo's Mediterranean Kitchen ,CH48 4EG,53.3729,-3.1814
Blind Pig West Kirby,CH48 4HD,53.3727,-3.1846
Leaf Tea Shop & Bar West Kirby Venue Ltd,CH48 6DS,53.3742,-3.1685
The Ridger,CH48 9XW,53.3729,-3.1524
THE VILLAGE CAFE,CH49 0TH,53.3847,-3.0980
Bake my day,CH49 0TQ,53.3849,-3.0972
Noya Mediterranean Restaurant,CH49 0TQ,53.3850,-3.0978
Kerala Kitchen,CH49 0UB,53.3837,-3.0985
Re-Fuel Cafe,CH49 1AB,53.3762,-3.1025
Oak Bar and Bistro,CH49 3NQ,53.3770,-3.1206
IRBY MILL LTD,CH49 3NT,53.3677,-3.1228
McDonald's,CH49 6QG,53.3803,-3.1002
Shippons,CH61 3UA,53.3523,-3.1188
Zeera Restaurant,CH61 3UA,53.3523,-3.1190
Aroma ,CH61 3UE,53.3526,-3.1172
riverside convenience store limited,CH62 1DY,53.3645,-2.9935
The John Masefield New Ferry (Wetherspoon),CH62 5AD,53.3613,-2.9978
Alo Pho,CH63 5JB,53.3617,-3.0110
STEAK HOUSE (UK) LTD,CH63 5ND,53.3613,-3.0271
MUZZY'S BREAKFAST HOUSE LTD,CH63 5NH,53.3617,-3.0270
oriental delight,CH63 7NX,53.3563,-3.0036
wellington ,CH63 7PW,53.3535,-3.0052
La Luce Del Sole,CH63 7RE,53.3502,-3.0028
Rubens Coffee Ltd,CH63 8LG,53.3563,-3.0231
EZO LTD,CH63 8QT,53.3552,-3.0243
El Tacos,L1 0AB,53.3968,-2.9798
SIREN Liverpool,L1 0AB,53.3968,-2.9798
Ditto Coffee Liverpool Limited,L1 0AF,53.3971,-2.9817
The Baltic Roastery Limited,L1 0AH,53.3954,-2.9801
Blundell Street Reataurant ,L1 0AJ,53.3967,-2.9836
McDonald's,L1 0AJ,53.3963,-2.9844
McDonalds ,L1 0AJ,53.3963,-2.9844
Chapters Of Us,L1 0AX,53.3960,-2.9821
Baltic Bakehouse,L1 0AY,53.3968,-2.9820
Love Lane Brewery Bar & Kitchen,L1 0AY,53.3966,-2.9830
Coffee & Fandisha ,L1 0BL,53.3960,-2.9790
KFC,L1 0JA,53.3960,-2.9840
MY VISION LIMITED,L1 1DG,53.4050,-2.9818
Bramleys Cafe,L1 1DS,53.4061,-2.9839
P & D Italian Deli,L1 1DS,53.4059,-2.9841
SHAKESPEARE,L1 1EQ,53.4068,-2.9839
KFC,L1 1HU,53.4056,-2.9794
KFC,L1 1HU,53.4059,-2.9795
The Richard John Blackler Liverpool (Wetherspoon),L1 1HU,53.4061,-2.9799
Ma Egertons Stage Door,L1 1JA,53.4086,-2.9777
Costa Coffee,L1 1JG,53.4080,-2.9782
McDonalds,L1 1JR,53.4054,-2.9791
Shiraz Palace,L1 1JR,53.4054,-2.9789
Lobster Pot,L1 1JW,53.4051,-2.9807
Starbucks Ranelagh St Liverpool,L1 1JW,53.4050,-2.9809
Berlin doner,L1 1LG,53.4069,-2.9828
Dunkin Donuts Liverpool,L1 1LH,53.4068,-2.9819
The Cafe,L1 1LP,53.4063,-2.9816
The Fall Well Liverpool (Wetherspoon),L1 1LS,53.4069,-2.9823
KFC,L1 1LT,53.4035,-2.9806
McDonald's,L1 1LT,53.4066,-2.9804
Fat Lolly Sams,L1 1LX,53.4073,-2.9811
Subway,L1 1LX,53.4073,-2.9811
Key Lime Coffee,L1 1NG,53.4068,-2.9803
Holiday Inn Liverpool - City Centre,L1 1NQ,53.4068,-2.9800
Archie's,L1 1QE,53.4049,-2.9796
Subway,L1 1QE,53.4046,-2.9801
wonton to go,L1 1QE,53.4046,-2.9801
Bon Pan Asian Restaurant (Liverpool Branch),L1 1QR,53.4055,-2.9808
Costa Coffee,L1 1QR,53.4056,-2.9808
McDonald's,L1 1QR,53.4049,-2.9813
McDonalds ,L1 1QR,53.4055,-2.9808
Burger King -  LivQS,L1 1RH,53.4077,-2.9829
Costa Coffee,L1 1RH,53.4077,-2.9835
HRN Limited,L1 1RH,53.4080,-2.9828
La Tasca - Liverpool,L1 1RH,53.4080,-2.9828
Nando's,L1 1RH,53.4077,-2.9831
icestone gelato,L1 1RH,53.4077,-2.9829
The North Western Liverpool (Wetherspoon),L1 1RJ,53.4083,-2.9789
Chy,L1 2SA,53.4048,-2.9776
Damas Cafe & Eatery ,L1 2SJ,53.4029,-2.9758
Indian delight,L1 2SJ,53.4028,-2.9757
UNI Restaurant,L1 2SJ,53.4032,-2.9761
Yukti isf,L1 2SJ,53.4031,-2.9759
The Butterfly and Grasshopper,L1 2SU,53.4029,-2.9749
Bao & Bap,L1 2TE,53.4027,-2.9733
Cafe' Porto,L1 2TE,53.4027,-2.9733
Turncoat Bar & Pizza at The Bombed Out Church,L1 2TR,53.4022,-2.9745
Voltagabbana at The Botanical Garden,L1 2TR,53.4022,-2.9745
Costa Coffee,L1 3AP,53.4050,-2.9848
The Athenaeum,L1 3DD,53.4047,-2.9839
BISTRO FRANC,L1 3DN,53.4029,-2.9856
Bem Brasil,L1 3DN,53.4033,-2.9845
Lunya,L1 3DN,53.4035,-2.9839
Yard & Coop,L1 3DN,53.4032,-2.9847
Yard and Coop Liverpool,L1 3DN,53.4032,-2.9847
Roxy Ball Room Liverpool,L1 3DS,53.4037,-2.9844
Salt House Tapas,L1 3DW,53.4029,-2.9856
Malmo Coffee,L1 3DY,53.4042,-2.9826
Subway (Hanover Street),L1 3DY,53.4040,-2.9830
Wok & Go (Liverpool One),L1 3DY,53.4039,-2.9832
Head of Steam (Liverpool),L1 3DZ,53.4044,-2.9822
MerseyMade Ltd,L1 3HJ,53.4021,-2.9862
Alberts Schenke,L1 4AA,53.4025,-2.9857
Hanover Street Social,L1 4AA,53.4027,-2.9853
Angel Restaurant ,L1 4AF,53.4037,-2.9829
Root Coffee,L1 4AF,53.4037,-2.9829
Thyme,L1 4AF,53.4035,-2.9830
Einstein's,L1 4AN,53.4031,-2.9807
McCooleys,L1 4AQ,53.4032,-2.9800
villa romano ltd,L1 4AQ,53.4041,-2.9817
SPICE THAI,L1 4AR,53.4040,-2.9818
Moloko,L1 4AS,53.4023,-2.9789
Epic RBG t/a Mason's Liverpool,L1 4AU,53.4028,-2.9809
Peacock,L1 4AZ,53.4022,-2.9791
7983 Ltd,L1 4BB,53.4011,-2.9764
Kazimier Gardens,L1 4BE,53.4028,-2.9817
Wreckfish Limited,L1 4BE,53.4026,-2.9811
MOJO Liverpool,L1 4BG,53.4014,-2.9765
Cowshed Liverpool,L1 4BL,53.4011,-2.9767
Harpers Pizza,L1 4BS,53.4029,-2.9794
Potts Coffee,L1 4BS,53.4027,-2.9797
Tree of Life Bookshop and Cafe,L1 4BS,53.4027,-2.9797
Caribou Poutine,L1 4BW,53.4028,-2.9792
Merchant,L1 4BX,53.4020,-2.9806
Naked Noodle,L1 4DJ,53.4042,-2.9801
Bundobust Liverpool,L1 4DN,53.4039,-2.9795
CRUST (LIVERPOOL) LTD,L1 4DN,53.4038,-2.9792
K O Grill,L1 4DN,53.4038,-2.9793
Pieminister Liverpool,L1 4DN,53.4037,-2.9791
Mother Espresso,L1 4DQ,53.4023,-2.9777
Cafe Latino,L1 4DS,53.4040,-2.9806
Cat Cafe Liverpool,L1 4DS,53.4043,-2.9812
Taco Bell,L1 4DS,53.4043,-2.9813
Wok to Walk,L1 4DS,53.4036,-2.9799
BAKCHICH,L1 4EA,53.4034,-2.9794
Johnny English Fish and Chips,L1 4EA,53.4032,-2.9790
wok & go ,L1 4EA,53.4033,-2.9789
Egg Cafe,L1 4ED,53.4039,-2.9777
Newington Temple,L1 4ED,53.4035,-2.9785
Ban Di Bul Korean restaurant,L1 4EU,53.4032,-2.9781
LA PARRILLA MEXICAN TAPAS BAR AND GRILL,L1 4EU,53.4031,-2.9781
La Parrilla,L1 4EU,53.4031,-2.9781
Pronto Pizza,L1 4EU,53.4033,-2.9785
Subway,L1 4EU,53.4034,-2.9787
Toro's Steakhouse,L1 4EU,53.4033,-2.9783
Kassap Meat House,L1 4EZ,53.4028,-2.9771
Leaf Tea Shop & Bar (Liverpool) Ltd,L1 4EZ,53.4030,-2.9775
Mowgli Street Food - Bold Street  Liverpool,L1 4EZ,53.4029,-2.9774
89BSC Ltd,L1 4HF,53.4026,-2.9768
Maray Bold Street,L1 4HF,53.4025,-2.9767
The Italian Club,L1 4HF,53.4026,-2.9769
Greek Taverna Bold Street Ltd,L1 4HR,53.4029,-2.9784
KASBAH CAFE BAZAAR RESTAURANT,L1 4HR,53.4030,-2.9786
Red Dog Saloon - Liverpool,L1 4HR,53.4031,-2.9787
Fogo Brazil bar & grill ,L1 4HY,53.4025,-2.9774
Maggie Mays Cafe Bar,L1 4HY,53.4027,-2.9777
Slims at Bold Street Limited ,L1 4HY,53.4025,-2.9774
Soul Cafe,L1 4HY,53.4022,-2.9768
The Little Shoe Bold Street ,L1 4HY,53.4022,-2.9768
American Pizza Slice ,L1 4JA,53.4020,-2.9764
Cafe Tabac,L1 4JA,53.4019,-2.9762
Jimmy's,L1 4JA,53.4018,-2.9760
The Italian Club Fish,L1 4JA,53.4019,-2.9762
Big bowl noodle bar,L1 4JF,53.4015,-2.9761
Pattersons Gradwell,L1 4JH,53.4024,-2.9830
Clockworks,L1 4JJ,53.4021,-2.9820
ALMOST FAMOUS LIVERPOOL,L1 4JN,53.4019,-2.9800
Crazy Pedro's Liverpool,L1 4JN,53.4022,-2.9813
Vietnom,L1 4JQ,53.4005,-2.9765
Dong Restaurant,L1 4JR,53.4011,-2.9789
The Lime Kiln Liverpool (Wetherspoon),L1 4NR,53.4035,-2.9806
CHINA-DINA (UK) LTD,L1 4NW,53.4044,-2.9805
down the hatch,L1 5AA,53.4018,-2.9825
Il Forno Restaurant,L1 5AG,53.4006,-2.9785
SAPPORO TEPPANYAKI LTD,L1 5AG,53.4005,-2.9782
SPICE LOUNGE BAR & GRILL LTD,L1 5AG,53.4010,-2.9799
The Monro,L1 5AG,53.4013,-2.9806
Lock & Key Bar & Kitchen,L1 5AP,53.4025,-2.9846
PINS (Liverpool) Limited,L1 5AP,53.4025,-2.9846
The Brunch Club,L1 5AP,53.4025,-2.9846
Duke Street Food and Drink Market Limited,L1 5AS,53.4019,-2.9837
Mayflower restaurant,L1 5AS,53.4020,-2.9834
PILGRIM ,L1 5AS,53.4019,-2.9837
Thoughtfully Cafe Liverpool Ltd,L1 5BE,53.4013,-2.9850
A Tavola,L1 5BF,53.4005,-2.9788
Reem Lounge,L1 5BF,53.4005,-2.9788
Reem Restaurant,L1 5BF,53.4005,-2.9788
Chilli Chilli Restaurant,L1 5DN,53.3994,-2.9774
China City,L1 5DN,53.3989,-2.9782
JUMBO CITY RESTAURANT LIMITED ,L1 5DN,53.3989,-2.9782
North Garden Restaurant,L1 5DN,53.3992,-2.9777
The bagelry,L1 5DN,53.3990,-2.9780
Amalia Italian Restaurant,L1 5FB,53.4017,-2.9844
La Famiglia Restaurant ,L1 6AF,53.4075,-2.9878
Spice City Indian Cuisine Limited,L1 6AF,53.4074,-2.9876
Casa Italia,L1 6AL,53.4067,-2.9865
Koukash Bar & Grill,L1 6BR,53.4081,-2.9868
Jam Restaurant,L1 6BW,53.4073,-2.9853
Mei Zhen Noodle Bar,L1 6BX,53.4075,-2.9854
200 Degrees,L1 6DA,53.4068,-2.9857
Costa Coffee,L1 6DA,53.4068,-2.9858
Sultan Palace,L1 6DE,53.4086,-2.9839
Kaspa's,L1 6DQ,53.4087,-2.9851
The Welkin Liverpool (Wetherspoon),L1 6DS,53.4058,-2.9858
Lobster Pot,L1 6DZ,53.4060,-2.9853
Subway,L1 6EG,53.4067,-2.9847
Sir Thomas Hotel,L1 6JB,53.4081,-2.9857
The Shankly Hotel,L1 6JD,53.4080,-2.9843
Pret A Manger,L1 8BQ,53.4035,-2.9865
Thorntons Ltd,L1 8BU,53.4036,-2.9871
Sugar and Dice Ltd,L1 8DP,53.3996,-2.9851
Arket,L1 8JF,53.4041,-2.9864
BARBURRITO,L1 8JF,53.4041,-2.9865
Nando's,L1 8JF,53.4042,-2.9864
Smoke & Dough,L1 8JF,53.4041,-2.9865
Starbucks Paradise Street,L1 8JF,53.4041,-2.9864
Yee Rah,L1 8JF,53.4041,-2.9864
Hilton Liverpool City Centre,L1 8LW,53.4024,-2.9890
Starbucks Liverpool One,L1 8LW,53.4024,-2.9890
QUICK CHEF CAFE TURKISH BBQ,L1 9AS,53.4017,-2.9708
SUBWAY,L1 9AS,53.4020,-2.9730
The Fly in the Loaf,L1 9AS,53.4020,-2.9723
92 Degrees,L1 9AX,53.4014,-2.9713
Bing House,L1 9AX,53.4017,-2.9726
Buyers Club Ltd,L1 9AX,53.4014,-2.9713
Grilla (Hardman) Ltd,L1 9AX,53.4016,-2.9723
Costa Coffee,L1 9BP,53.4012,-2.9701
Chatime Liverpool,L1 9BQ,53.4023,-2.9698
Everyman Theatre,L1 9BQ,53.4030,-2.9693
Papillon Hope Street,L1 9BQ,53.4023,-2.9698
The Refinery,L1 9BQ,53.4023,-2.9698
Moose Coffee (UK) Ltd,L1 9BW,53.4010,-2.9705
Frederiks,L1 9BX,53.4020,-2.9705
The London Carriage Works,L1 9DA,53.4009,-2.9711
Free State Kitchen,L1 9DE,53.4025,-2.9728
Chamber 36 ,L1 9DF,53.4002,-2.9761
Tokyo Noodle Bar,L1 9DF,53.4012,-2.9757
Yuet Ben Restaurant,L1 9DU,53.4001,-2.9760
Yummies cafe ,L10 0AF,53.4673,-2.9145
Subway,L10 9LA,53.4690,-2.9292
Elior UK,L11 0BS,53.4559,-2.8986
Subway,L11 1BQ,53.4417,-2.9276
Compass Group,L11 1BS,53.4383,-2.9236
New China Garden,L11 1EL,53.4381,-2.9135
Noya grill ltd,L11 1EL,53.4380,-2.9137
KFC,L11 9DH,53.4559,-2.9153
McDonald's,L11 9DH,53.4566,-2.9157
Subway,L11 9DH,53.4563,-2.9165
DILAN TURKISH RESTAURANT AND STEAK HOUSE,L12 2AH,53.4215,-2.8965
New Orchid Garden Restaurant,L12 2AH,53.4219,-2.8973
Costa Coffee,L12 2AP,53.4212,-2.8978
churrasco grill restaurant ,L12 5HJ,53.4325,-2.9098
BOON,L12 5HP,53.4335,-2.9125
The Compass Group,L12 6QL,53.4342,-2.8777
51 Mill Lane ,L12 7HZ,53.4303,-2.9110
Everest Kitchen,L12 7HZ,53.4306,-2.9109
Almond Bar & Eatery ,L12 7JB,53.4321,-2.9100
The Book Bar & Eatery,L12 7JB,53.4324,-2.9099
Elior UK,L12 8RF,53.4298,-2.8987
Subway,L12 9JH,53.4248,-2.8909
Costa Coffee,L13 0AF,53.4260,-2.9177
MEX(LIVERPOOL) LTD,L13 0AJ,53.4341,-2.9278
Indigo Greens Catering LTD,L13 0AL,53.4332,-2.9262
Costa Coffee,L13 0DJ,53.4259,-2.9180
Beefeater Stag and Rainbow,L13 0DL,53.4267,-2.9179
KFC,L13 1AA,53.4103,-2.9209
Starbucks Edge Ln Liverpool,L13 1AA,53.4103,-2.9203
McDonald's,L13 1AD,53.4098,-2.9230
Bjs Diner,L13 1BA,53.4076,-2.9196
the children's discovery zone ltd,L13 1EH,53.4056,-2.9270
Subway,L13 1EW,53.4084,-2.9229
Costa Coffee,L13 1FA,53.4088,-2.9255
Jos cafe,L13 3DN,53.4159,-2.9143
derby lane sandwich bar,L13 3DW,53.4175,-2.9149
Murrys Diner,L13 4AH,53.4065,-2.9142
Franky’z ,L13 5SD,53.4131,-2.9127
The Navigator Stoneycroft (Wetherspoon),L13 5UH,53.4151,-2.9057
Costa Coffee,L13 5XE,53.4133,-2.9130
Costa Coffee,L13 5XE,53.4133,-2.9131
VANILLA,L13 5XE,53.4139,-2.9094
KFC TUEBROOK 02026,L13 8AA,53.4243,-2.9347
KFC,L13 8AA,53.4243,-2.9347
Subway,L13 8AD,53.4247,-2.9335
Time Out,L13 9AN,53.4338,-2.9364
Amaisleys Ltd,L13 9DN,53.4342,-2.9353
Pizza Hut,L14 2DD,53.4191,-2.8892
Subway,L14 2DD,53.4191,-2.8892
KFC,L14 2DE,53.4198,-2.8835
Rocket Pub & Kitchen Ltd,L14 3PA,53.4062,-2.8997
JUMBO,L14 8XG,53.4305,-2.8770
Streats waffle bar & bistro ,L15 3JJ,53.3915,-2.9316
Loaded Burgers,L15 3JL,53.3903,-2.9295
REYHOON ,L15 3JL,53.3902,-2.9288
Evil eye burrito ltd ,L15 3JT,53.3904,-2.9308
Halabala Bistro,L15 4LF,53.4002,-2.9272
Something else,L15 4LG,53.3996,-2.9240
Cafe express deli,L15 4LL,53.4002,-2.9283
TIGER ROCK LTD,L15 5AG,53.3892,-2.9170
The Tavern Company,L15 5AG,53.3892,-2.9163
GT Smith Liverpool Ltd,L15 5AH,53.3896,-2.9260
Pizza Hut,L15 5AH,53.3895,-2.9264
Subway,L15 5AH,53.3898,-2.9251
Meatless,L15 5AJ,53.3896,-2.9204
Bean There Coffee Shop,L15 5AN,53.3889,-2.9169
Leaf Tea Shop & Bar (Smithdown) Ltd,L15 5AN,53.3889,-2.9169
Maggie Fu,L15 5AN,53.3891,-2.9177
Portland Street 358,L15 5AN,53.3889,-2.9174
TRIBECA BAR & PIZZERIA ,L15 5AN,53.3894,-2.9185
Costa Coffee,L15 5AU,53.3903,-2.9263
Waterfall Elior,L15 6TQ,53.3957,-2.9165
Canton Palace Chinese Restaurant,L15 6UY,53.3967,-2.8987
The Childwall Fiveways Hotel Liverpool (Wetherspoon),L15 6XS,53.3968,-2.8966
Wavertree Town Hall,L15 8HF,53.3986,-2.9177
The Doghouse Pennylane,L15 9EA,53.3898,-2.9148
spire restaurant,L15 9EA,53.3896,-2.9148
Costa Coffee,L15 9EB,53.3901,-2.9168
Costa Coffee,L15 9EB,53.3903,-2.9168
Macello meathouse ,L16 0JN,53.3943,-2.8911
Zara’s Hub ,L16 0JN,53.3944,-2.8904
Elior UK (Staff Canteen),L16 0JP,53.3937,-2.8832
khalisha restaurant,L16 5EU,53.4016,-2.8890
Calisa,L16 7PF,53.3949,-2.8923
Neighbourhood Bistro,L16 8NA,53.3907,-2.8993
Cucina di Vincenzo,L16 8NE,53.3902,-2.8990
EL  NIDO,L16 8NE,53.3903,-2.8992
Eton Place,L16 8NE,53.3902,-2.8989
Press Bros Coffee,L17 0BD,53.3728,-2.9288
Sefton Park Palm House,L17 1AP,53.3834,-2.9392
McDonald's,L17 4JP,53.3815,-2.9546
Otterspool Adventure Centre Ltd,L17 5AL,53.3634,-2.9329
Coopers Coffee Shop,L17 6AE,53.3672,-2.9255
Justino's Restaurant and Bar,L17 6AE,53.3670,-2.9250
Justino's Ristorante and Bar,L17 6AE,53.3670,-2.9250
Domino's Pizza - Liverpool - Aigburth Road,L17 7BR,53.3792,-2.9504
Al Dente restaurant & bar,L17 8UN,53.3796,-2.9482
Hexagon Events t/a Hafla Hafla,L17 8UP,53.3813,-2.9460
LA GOMERA STEAK LTD,L17 8UP,53.3813,-2.9459
POLIDOR 68,L17 8UP,53.3814,-2.9457
Yum Cha,L17 8UP,53.3813,-2.9459
Keith's Food & Wine Bar,L17 8UR,53.3817,-2.9453
Bistro Noir,L17 8US,53.3802,-2.9470
The Bookbinder,L17 8US,53.3800,-2.9472
The Lodge,L17 8US,53.3807,-2.9461
Love&Rockets ,L17 8UU,53.3812,-2.9455
Nonno’s Pizza and Plates,L17 8UU,53.3809,-2.9459
Pippins Corner,L17 8UU,53.3815,-2.9451
The Lark Bistro,L17 8UU,53.3822,-2.9442
chy,L17 8UW,53.3809,-2.9465
rhubarb cafe bar,L17 8UW,53.3805,-2.9465
taj lark lane ltd,L17 8UW,53.3808,-2.9466
Maranto's,L17 8XT,53.3799,-2.9459
Churrasco Steakhouse ,L17 8XW,53.3789,-2.9477
Subway,L17 9PE,53.3780,-2.9470
Catherine Braidy,L17 9PJ,53.3754,-2.9405
Light Of Bengal Restaurant Ltd,L17 9PW,53.3750,-2.9394
Dovedale Towers,L18 1DG,53.3865,-2.9198
The Potting Shed Liverpool LTD,L18 1HN,53.3888,-2.9264
Costa Coffee,L18 1LG,53.3887,-2.9124
Costa Coffee,L18 1LG,53.3889,-2.9133
Glass Onion,L18 1LG,53.3887,-2.9124
Funglok restaurant,L18 2DA,53.3870,-2.9090
GEORGOUTSATES LIMITED,L18 2DA,53.3870,-2.9090
Maray Allerton,L18 2DA,53.3871,-2.9092
THREE PIGGIES,L18 2DA,53.3870,-2.9090
Baltic Bakehouse,L18 2DD,53.3859,-2.9079
Bloom Bar and Bistro,L18 2DD,53.3855,-2.9074
Corner Room Cafe & Bar,L18 2DD,53.3854,-2.9074
Costa Coffee,L18 2DD,53.3852,-2.9069
Costa Coffee,L18 2DD,53.3852,-2.9072
East River,L18 2DD,53.3856,-2.9076
Grilla (Allerton) Ltd,L18 2DD,53.3855,-2.9074
Laus18,L18 2DD,53.3855,-2.9074
The Interesting Eating Company,L18 2DD,53.3855,-2.9074
M RAY LIMITED,L18 2DG,53.3867,-2.9096
Calderstones Mansion House,L18 3JB,53.3816,-2.8941
Allerton Golf Trading Ltd,L18 3JT,53.3751,-2.8928
Amakura Coffee shop,L18 4QY,53.3687,-2.9117
Espresso Plus ,L18 5EA,53.3803,-2.9138
Lolivetto Ltd,L18 5EA,53.3806,-2.9132
The Rose of Mossley,L18 5EA,53.3800,-2.9144
52 Rose Lane Bistro ,L18 5ED,53.3800,-2.9134
Cocomo,L18 5EP,53.3843,-2.9148
Subway,L18 5HU,53.3850,-2.9080
Costa Coffee,L18 6HF,53.3810,-2.9084
Elior UK,L18 6HF,53.3813,-2.9093
Chaba Chaba Thai Restaurant,L18 6HG,53.3841,-2.9064
HOPE AND SMOKE,L18 6HG,53.3842,-2.9066
Istanbul Restaurant - Allerton,L18 6HG,53.3840,-2.9064
MILLON TANDOORI,L18 6HG,53.3841,-2.9064
Gustum bar and restaurant,L18 8AG,53.3795,-2.9145
The Pig Shed Canteen,L19 2JX,53.3536,-2.8965
The Spice Brasserie ,L19 2NJ,53.3533,-2.8970
Funtown,L19 2PA,53.3532,-2.8953
KFC GARSTON 02073,L19 2PA,53.3533,-2.8932
KFC,L19 2PA,53.3533,-2.8930
The Climbing Hangar Matchworks,L19 2RF,53.3505,-2.8861
Space coffee & restaurant,L19 3QD,53.3663,-2.9237
Madhari Restaurant ltd,L19 3QG,53.3632,-2.9164
Costa Coffee,L19 5NE,53.3576,-2.8896
Dunelm Mill,L19 5NY,53.3540,-2.8918
Costa Coffee,L19 5PQ,53.3577,-2.8909
Santa Maluco Ltd,L2 0NA,53.4067,-2.9918
Pasta Cosa ,L2 0NE,53.4066,-2.9915
Viva Brazil Liverpool ,L2 0NR,53.4062,-2.9911
EVERTON LEISURE LTD,L2 0PL,53.4057,-2.9925
Liberte ,L2 0PL,53.4055,-2.9932
Mowgli Street Food - Water Street  Liverpool,L2 0RD,53.4067,-2.9918
OH ME OH MY,L2 0RG,53.4059,-2.9939
The Alchemist Liverpool,L2 0UU,53.4058,-2.9913
Etsu Japanese Restaurant,L2 0XJ,53.4052,-2.9932
Silk Rd Beetham Plaza,L2 0XJ,53.4052,-2.9932
Debenhams Restaurant Liverpool One,L2 1TA,53.4049,-2.9885
Chopstix Liverpool Lord Street,L2 1TD,53.4051,-2.9873
Costa Coffee,L2 1TD,53.4051,-2.9879
McDonald's,L2 1TL,53.4052,-2.9860
McDonalds ,L2 1TL,53.4052,-2.9861
Thyme,L2 2AY,53.4091,-2.9880
The Lion Tavern,L2 2BP,53.4090,-2.9904
Railway Exchange Ltd,L2 2DT,53.4089,-2.9906
shenanigans (liverpool) limited,L2 2EN,53.4104,-2.9890
Thomas Rigby's,L2 2EZ,53.4077,-2.9899
The Excelsior,L2 2JH,53.4097,-2.9846
The Galley at the Ship & Mitre,L2 2JH,53.4097,-2.9846
Costa Coffee,L2 2NZ,53.4082,-2.9924
Bean,L2 2QP,53.4094,-2.9906
SUBWAY,L2 3AB,53.4077,-2.9908
El Gato Negro Tapas,L2 3YL,53.4075,-2.9927
Fazenda Rodizio Bar & Grill,L2 3YL,53.4075,-2.9927
JL Coffee House Ltd (T/A Esquires Coffee Liverpool),L2 3YL,53.4075,-2.9927
Gino D'acampo My Restaurant ,L2 4SW,53.4068,-2.9908
Rudys Castle St,L2 4SW,53.4068,-2.9908
Moose Coffee (UK) Ltd,L2 4TQ,53.4071,-2.9906
Nude Lifestyle Kitchen,L2 4TQ,53.4071,-2.9903
Queens wine bar and bistro,L2 4TX,53.4067,-2.9906
Harrisons bar and kitchen,L2 5QU,53.4067,-2.9886
Shiraz BBQ,L2 5QU,53.4067,-2.9888
Aloft Liverpool ,L2 5QW,53.4073,-2.9892
Six By Nico (Liverpool) Limited,L2 5QY,53.4068,-2.9888
BABY E COFFEE & DELI LTD,L2 5RL,53.4077,-2.9890
Laboulee Doree,L2 5ST,53.4082,-2.9876
Dale Street Kitchen,L2 5TF,53.4090,-2.9855
Rococo Coffee House Ltd,L2 6PB,53.4055,-2.9875
bistro pierre,L2 6PS,53.4061,-2.9862
Pattersons Baltic,L2 6PT,53.4061,-2.9863
Roxy Ball Room Liverpool Two,L2 6PX,53.4060,-2.9869
McCooleys,L2 6PY,53.4066,-2.9867
Subway,L2 6SG,53.4057,-2.9882
The Slaughterhouse,L2 7LS,53.4056,-2.9912
manhattan bar and grill ltd,L2 7LS,53.4055,-2.9911
Chop Chop,L2 7NB,53.4055,-2.9914
Old Bank,L2 7NE,53.4052,-2.9914
THE CORNMARKET,L2 7NT,53.4055,-2.9915
The Captain Alexander Liverpool (Wetherspoon),L2 7NX,53.4048,-2.9913
30 James Street    ,L2 7PQ,53.4050,-2.9919
Liverpool Operations Ltd,L2 7PQ,53.4049,-2.9919
The Liverpool Pub ,L2 7PQ,53.4051,-2.9916
ABBEY ROAD BAR AND KITCHEN,L2 9QA,53.4059,-2.9891
cook street coffee,L2 9QU,53.4061,-2.9895
Veggie republic ,L2 9RF,53.4063,-2.9891
TIGER ROCK CITY LTD,L2 9RU,53.4061,-2.9889
San Carlo Liverpool,L2 9SH,53.4059,-2.9902
Bacaro,L2 9UB,53.4057,-2.9902
Pret A Manger,L2 9UJ,53.4053,-2.9896
Golden Harvest Restaurant ,L20 3BY,53.4494,-2.9874
Castle Bingo Bootle,L20 3DY,53.4498,-2.9904
Costa Coffee,L20 3DY,53.4496,-2.9903
Costa Coffee,L20 3DY,53.4498,-2.9904
McDonald's,L20 3ER,53.4516,-2.9903
McDonald's,L20 3ER,53.4520,-2.9904
Subway,L20 3ER,53.4516,-2.9903
Golden castle ,L20 3ET,53.4527,-2.9907
Let’s buffet sandwich bar ,L20 3EX,53.4536,-2.9909
The Wild Rose Bootle (Wetherspoon),L20 3EX,53.4529,-2.9912
The Cafe,L20 4ST,53.4517,-2.9928
Subway,L20 4SZ,53.4516,-2.9931
TJ Hughes Bootle,L20 4SZ,53.4517,-2.9929
Harrison's Tea Room,L20 4TZ,53.4522,-2.9943
The Climbing Hangar Liverpool,L20 8PD,53.4318,-2.9912
KFC,L21 7PF,53.4699,-2.9988
Subway,L21 7PJ,53.4702,-2.9997
Bigbites food house ltd,L22 0LD,53.4776,-3.0233
Subway,L22 0LR,53.4754,-3.0253
The Sit Off,L22 0LT,53.4759,-3.0243
Chy South Road,L22 0LY,53.4749,-3.0255
Dagurkha ,L22 0ND,53.4757,-3.0238
Henry’s Pizza Kebab Ltd,L22 0ND,53.4757,-3.0236
Brew Coffee and Kitchen,L22 4QB,53.4789,-3.0236
The Workshop ,L22 4QB,53.4793,-3.0237
Da Mount Gurkha,L22 4QD,53.4805,-3.0238
Chicago Style Ltd,L22 5PE,53.4742,-3.0279
SULTAN TURKISH MEDITERRANEAN BAR & GRILL,L22 5PE,53.4743,-3.0278
Taverna Tasty Food Ltd,L22 5PE,53.4742,-3.0279
The Queens Picture House Liverpool (Wetherspoon),L22 5PE,53.4743,-3.0275
rancho steakhouse,L22 5PE,53.4742,-3.0279
Adana BBQ,L22 5PQ,53.4738,-3.0277
Nicolas Restaurant,L22 5PQ,53.4738,-3.0277
Si la parella ,L22 5PQ,53.4738,-3.0277
Tapas Tapas,L22 5PQ,53.4738,-3.0279
Timberwolf Grind & Tap,L22 5PQ,53.4738,-3.0277
The Royal Hotel,L22 5PR,53.4727,-3.0287
Saffron Restaurant ,L22 9QQ,53.4791,-3.0246
Costa Coffee,L23 2SA,53.4924,-3.0259
Costa Coffee,L23 2SA,53.4925,-3.0258
BLUES ,L23 2SE,53.4927,-3.0250
Mojoes,L23 2TB,53.4932,-3.0279
so salsa,L23 2TB,53.4932,-3.0279
Costa Coffee,L23 2UE,53.4922,-3.0250
Cantinetta Restaurant,L23 2UN,53.4926,-3.0244
Moose Coffee (UK) Ltd,L23 3AS,53.4855,-3.0325
Inside No4,L23 3BR,53.4868,-3.0328
DACE,L23 3DP,53.4863,-3.0326
Subway,L23 4TA,53.4996,-3.0057
Gambinos,L23 5RE,53.4908,-3.0276
Hampsons,L23 5RE,53.4903,-3.0285
The Corkscrew,L23 5RE,53.4903,-3.0285
The Fat Italian Crosby,L23 5RQ,53.4903,-3.0277
Tree House 23 Limited,L23 5RQ,53.4903,-3.0277
rock salt,L23 5RQ,53.4903,-3.0277
Churches Together in Great Crosby Charitable Trust,L23 5SE,53.4913,-3.0250
Ayuthaya Thai restaurant ,L23 5SF,53.4921,-3.0261
Franchettis,L23 5SF,53.4921,-3.0261
StoryHouse,L23 5SF,53.4921,-3.0261
Ata by Peaberry,L23 5SJ,53.4907,-3.0252
Pioneer Bar and Brasserie,L23 5TD,53.4893,-3.0237
Crosby Leisure Centre,L23 6SX,53.4831,-3.0433
Kinsleys,L23 7XJ,53.4936,-3.0284
The West Lancashire Golf Club Ltd,L23 8SZ,53.4979,-3.0520
Costa Coffee,L24 8QB,53.3515,-2.8789
McDonald's,L24 8QB,53.3503,-2.8793
McDonalds ,L24 8QB,53.3507,-2.8793
KFC,L24 9GB,53.3580,-2.8675
McDonald's Restaurant Hunts Cross,L24 9GB,53.3579,-2.8667
McDonald's,L24 9GB,53.3587,-2.8653
Tilly Mint Nutrition,L24 9GQ,53.3561,-2.8724
Go Fresh Cafe ,L24 9HJ,53.3546,-2.8697
Pepperwood Kitchen,L24 9LG,53.3543,-2.8534
Subway,L24 9WA,53.3575,-2.8682
Purple curry ltd,L25 0NN,53.3598,-2.8550
Hunts cross supper bar ,L25 0NT,53.3591,-2.8550
Costa Coffee,L25 1PD,53.3915,-2.8722
Costa Coffee,L25 1PD,53.3916,-2.8724
Subway,L25 1PD,53.3916,-2.8722
Subway,L25 2RF,53.3907,-2.8601
McDonald's Restaurant Belle Vale,L25 2RJ,53.3910,-2.8564
McDonald's,L25 2RJ,53.3910,-2.8564
Sayers Cafe,L25 2RQ,53.3908,-2.8587
HOLDI (NW) LTD,L25 5NH,53.3755,-2.8667
The Elephant ,L25 5NH,53.3756,-2.8668
Stablers Catering,L25 5PN,53.3796,-2.8550
IMAGINE MORE CAFE - STRAWBERRY FIELD,L25 6EJ,53.3804,-2.8822
CRUST (WOOLTON) LTD,L25 7RA,53.3746,-2.8676
Coast Coffee Ltd,L25 7RA,53.3748,-2.8668
Caveau,L25 7RE,53.3741,-2.8696
Istanbul BBQ & Bistro ,L25 7RE,53.3744,-2.8682
KING DO RESTAURANT LIMITED,L25 7RG,53.3742,-2.8700
Elior Uk ( Tesco staff Canteen),L25 7SF,53.3738,-2.8732
CookHouse Pub & Carvery,L25 9NQ,53.3730,-2.8529
Subway,L26 0AD,53.3598,-2.8298
Liverpool Golf Centre Bistro,L27 0YB,53.3930,-2.8374
TNS Catering_Childwall Golf Club,L27 2YA,53.3976,-2.8431
Subway,L28 1NR,53.4356,-2.8688
Ego at the Punchbowl,L29 7WA,53.5065,-2.9825
Bean,L3 0AA,53.4089,-2.9979
Titanic Hotel Liverpool,L3 0AN,53.4220,-2.9988
Cargo Seafood Restaurant,L3 1BD,53.4111,-3.0016
Cafe Lucaya,L3 1BH,53.4062,-2.9941
Matou Pan Asian Restaurant & Bar,L3 1BY,53.4042,-2.9944
Fab4 Cafe at The Beatles Story  Pier Head,L3 1DP,53.4046,-2.9972
Ma Boyle's Alehouse & Eatery,L3 1LG,53.4066,-2.9943
Malmaison Liverpool,L3 1QZ,53.4085,-2.9976
The Richmond,L3 2AA,53.4103,-2.9864
Costa Coffee,L3 2FE,53.4102,-2.9871
Fattoush ,L3 2FE,53.4102,-2.9872
Love Thy Neighbour,L3 2FE,53.4097,-2.9863
Peaberry Coffee House & Kitchen,L3 4AA,53.3996,-2.9937
Porters Cafe,L3 4AA,53.4000,-2.9938
Rubens Coffee Ltd,L3 4AA,53.3996,-2.9937
Fab4 Cafe at The Beatles Story  Royal Albert Dock,L3 4AD,53.3994,-2.9914
Holiday Inn Express Liverpool - Royal Albert Dock,L3 4AD,53.3994,-2.9914
Lunyalita,L3 4AD,53.3994,-2.9914
Maray Dockside,L3 4AD,53.3994,-2.9914
Panam Restaurant & Bar,L3 4AD,53.3994,-2.9914
Rosa's Thai Cafe,L3 4AD,53.3994,-2.9914
Thyme,L3 4AD,53.3993,-2.9916
Madre Liverpool,L3 4AE,53.3999,-2.9909
Costa Coffee,L3 4AF,53.4012,-2.9918
Gusto Italian ,L3 4AF,53.4012,-2.9918
Turncoat Bar,L3 4AF,53.4009,-2.9916
Costa Coffee,L3 4AG,53.4001,-2.9940
Campanile Liverpool,L3 4AJ,53.3953,-2.9848
Puffle waffle,L3 4AS,53.3995,-2.9909
Tate Liverpool,L3 4BB,53.4004,-2.9941
Grosvenor Casino Leo Liverpool,L3 4BF,53.3948,-2.9844
SPRING CITY LIMITED,L3 4BH,53.3803,-2.9764
Bean,L3 4BJ,53.3849,-2.9796
La Viva Limited,L3 4BJ,53.3849,-2.9796
Delifonseca Dockside,L3 4BN,53.3867,-2.9803
The Yacht Club Bar & Restaurant ,L3 4BP,53.3908,-2.9850
Chung Ku Restaurant,L3 4DB,53.3784,-2.9734
The Dolby Hotel,L3 4DE,53.3942,-2.9840
Eastzesst LIVERPOOL ,L3 4FN,53.3977,-2.9900
Pullman Liverpool,L3 4FP,53.3959,-2.9902
Dough Bar,L3 5GA,53.4067,-2.9774
Thyme,L3 5LX,53.4066,-2.9784
SUBWAY,L3 5NL,53.4089,-2.9724
Thaihee Korean Restaurant,L3 5NY,53.4092,-2.9708
Liner Hotel ,L3 5QB,53.4085,-2.9756
Costa Coffee,L3 5RF,53.4058,-2.9671
SUBWAY,L3 5RF,53.4058,-2.9672
Kimos (Mount Pleasant) ,L3 5SD,53.4042,-2.9755
Rumi by Bukhara,L3 5SD,53.4042,-2.9755
Land Lifestyle Ltd,L3 5TF,53.4039,-2.9712
Jidong Bubble Tea,L3 5TX,53.4059,-2.9652
Britannia Adelphi Hotel,L3 5UL,53.4055,-2.9770
Manhattan Chicken Ltd,L3 6DJ,53.4114,-2.9879
Tranquil Evolution,L3 7BB,53.4128,-2.9989
Ten Streets Social,L3 7BX,53.4186,-2.9997
Factory Kitchen,L3 7ED,53.4183,-2.9979
Costa Coffee,L3 8JA,53.4095,-2.9741
TJ Hughes Liverpool,L3 8JA,53.4097,-2.9718
Layers Food Drink Market,L3 8JG,53.4102,-2.9695
Hotel Indigo Liverpool,L3 9AG,53.4074,-2.9939
Out to Lunch liverpool ltd,L3 9AG,53.4081,-2.9928
RADISSON BLU LIVERPOOL,L3 9BD,53.4109,-2.9964
City Wine Bar and Kitchen,L3 9BS,53.4088,-2.9938
Trattoria 51 Liverpool Ltd,L3 9BS,53.4089,-2.9940
Sanskruti Restaurant,L3 9LP,53.4091,-2.9912
Starbucks Liverpool Old Hall,L3 9LQ,53.4094,-2.9928
Panoramic 34 Ltd,L3 9PJ,53.4099,-2.9964
Staff Canteen (Compass Group),L3 9PY,53.4112,-2.9957
Bean Coffee & Cocktails,L3 9RY,53.4105,-2.9942
Costa Coffee,L3 9SJ,53.4099,-2.9940
Costa Coffee,L3 9SJ,53.4102,-2.9937
Pret A Manger,L3 9SX,53.4082,-2.9930
Crazy Town,L30 1NY,53.4716,-2.9626
Netherton Snooker & Social Club,L30 5QA,53.4885,-2.9739
gourmet social enterprise C.I.C,L30 5QA,53.4885,-2.9739
Little World Market ltd,L30 6TA,53.4831,-2.9659
McDonald's,L30 6TQ,53.4844,-2.9623
Subway,L30 6TQ,53.4850,-2.9638
The Park Hotel,L30 6YN,53.4821,-2.9675
Beefeater Packet Steamer,L30 7PT,53.4901,-2.9566
Costa Coffee,L31 0DQ,53.5165,-2.9425
Costa Coffee,L31 0DQ,53.5166,-2.9419
MAGHULL SQUARE BAR AND GRILL,L31 0DQ,53.5166,-2.9419
Horse & Jockey,L31 1DU,53.4864,-2.9137
Bay of Bengal Tanduri Ltd,L31 2HB,53.5133,-2.9450
LAL QILA INDIAN RESTURANT,L31 2HB,53.5133,-2.9450
Suzys Cafe,L31 2PH,53.5141,-2.9435
MUGHAL DELIVERY LTD,L31 2PN,53.5130,-2.9441
Tokala Ltd,L31 3EW,53.5113,-2.9265
Bernie's Deli Too,L31 3HF,53.5068,-2.9328
The Weld Blundell,L31 4EF,53.5291,-2.9540
The Frank Hornby Liverpool (Wetherspoon),L31 6BR,53.5153,-2.9367
 Shake shack,L31 6DG,53.5158,-2.9311
Subway,L31 6DG,53.5158,-2.9311
Sefton Meadows Ltd,L31 8BT,53.5077,-2.9626
The Fun factor Ltd,L31 8BX,53.5069,-2.9591
McDonald's,L32 1TS,53.4841,-2.8851
McDonald's,L32 1TS,53.4895,-2.8880
Bernie's Sandwich & deli bar,L32 2AE,53.4875,-2.9012
Community Cafe,L32 5TH,53.4838,-2.8920
Fryer tucks cafe,L32 6QP,53.4745,-2.8765
Costa Coffee,L32 8RD,53.4817,-2.8872
Costa Coffee,L32 8RD,53.4819,-2.8874
The Cafe,L32 8UG,53.4822,-2.8886
Workman FM,L33 7RX,53.4719,-2.8673
Subway Kirkby ,L33 7SE,53.4803,-2.8631
Kirkby Bank Butty Bar,L33 7SY,53.4810,-2.8566
Fryer tucks 2 ,L33 7TJ,53.4844,-2.8579
Cafe at the conservatory limited,L33 7TW,53.4856,-2.8530
AMC (LIVERPOOL) LTD,L34 0EZ,53.4543,-2.8512
Lakeside Bar & Grill LTD,L34 1PJ,53.4240,-2.8264
Knowsley Safari,L34 4AN,53.4355,-2.8130
The Derby Arms,L34 9EA,53.4526,-2.8550
Suites Hotel Knowsley ,L34 9HA,53.4635,-2.8765
McDonald's,L36 3YB,53.4219,-2.8622
Table Table Derby Lodge,L36 4HD,53.4085,-2.8582
McDonald's,L36 5RT,53.4102,-2.8379
Brewers Fayre Chapel Brook,L36 6AD,53.3995,-2.8146
COFFEE WAGON ,L36 6EG,53.4147,-2.8249
The Cafe,L36 9UG,53.4122,-2.8393
The Barkers Brewery Liverpool (Wetherspoon),L36 9UJ,53.4134,-2.8401
The Coffee House Huyton,L36 9UJ,53.4117,-2.8399
El pueblo,L36 9UL,53.4109,-2.8394
etonplace Huyton village,L36 9UQ,53.4109,-2.8390
Subway,L36 9UR,53.4118,-2.8385
Club 3000 Bingo Huyton,L36 9US,53.4107,-2.8429
Costa Coffee,L36 9YG,53.4126,-2.8393
Formby Golf Club,L37 1LQ,53.5675,-3.0735
FCD COFFEE LOUNGE,L37 1NU,53.5603,-3.0804
Hilal balti house ,L37 3LN,53.5579,-3.0585
Suay Pan Asian Restaurant & Bar,L37 3LN,53.5579,-3.0585
NESSA (FORMBY) LTD,L37 3NH,53.5637,-3.0571
efes bbq restaurant,L37 3NH,53.5635,-3.0570
LEFT BANK BRASSERIE,L37 3NW,53.5578,-3.0598
Coopers Bacaro,L37 3PX,53.5576,-3.0606
The bakehouse,L37 3PX,53.5576,-3.0606
Formby Pool Trust,L37 4AB,53.5555,-3.0625
Golden Bridge,L37 4AL,53.5533,-3.0692
Sorrento Restaurant,L37 4AQ,53.5563,-3.0599
The Lifeboat Formby (Wetherspoon),L37 4AQ,53.5563,-3.0597
Costa Coffee,L37 4DL,53.5570,-3.0614
Costa Coffee,L37 4DL,53.5571,-3.0614
Pizza Express,L37 4DL,53.5570,-3.0615
The Kitchen,L37 4DL,53.5571,-3.0614
Subway,L37 4DU,53.5566,-3.0613
The Tea Rooms,L37 4DU,53.5565,-3.0614
Delish ,L37 4ED,53.5560,-3.0637
Geees Coffee,L37 4ED,53.5560,-3.0632
Kitty’s tea rooms ,L37 7DB,53.5657,-3.0715
Don Luigi ,L37 8BQ,53.5569,-3.0566
McDonald's,L37 8DL,53.5540,-3.0417
McDonald's,L37 8DL,53.5546,-3.0447
Costa Coffee,L37 8DP,53.5539,-3.0429
The Topiary Coffee Shop,L38 1QB,53.5241,-3.0273
SunShine TeaRooms,L38 6JE,53.5226,-3.0239
Mossock Hall Golf Club,L39 0EE,53.5238,-2.8833
Quattros,L39 0HF,53.5340,-2.8144
The Cherry House Ltd.,L39 1NN,53.5745,-2.8873
Flavours cafe & fish bar,L39 2AA,53.5672,-2.8847
Costa Coffee,L39 2AN,53.5730,-2.8793
Costa Coffee,L39 2AN,53.5733,-2.8804
M R (OMSKIRK)LTD  TRADING AS PASSAGE TO INDIA,L39 2AQ,53.5669,-2.8845
Shamraat 2,L39 2AQ,53.5669,-2.8844
Starbucks Ormskirk,L39 2AQ,53.5669,-2.8844
Ormskirk hospital restaurant,L39 2AZ,53.5646,-2.8713
The Fat Italian Ormskirk,L39 2BW,53.5683,-2.8785
AGA Catering Ltd,L39 2DN,53.5677,-2.8837
Staffords fish and chips ,L39 2EG,53.5681,-2.8857
Two Cents Pizza LTD,L39 2EG,53.5681,-2.8857
Love to Eat ,L39 2ER,53.5675,-2.8859
Becks Sandwich Bar,L39 2ES,53.5685,-2.8850
Il Padrino,L39 2ES,53.5685,-2.8850
Left Bank Brasserie,L39 2ES,53.5685,-2.8850
Barnyard Churrasco and grill,L39 2XA,53.5681,-2.8852
The Court Leet Ormskirk (Wetherspoon),L39 2XA,53.5680,-2.8850
Cobble Coffee,L39 3AE,53.5676,-2.8867
McDonald's,L39 3AE,53.5677,-2.8873
McDonalds,L39 3AE,53.5676,-2.8866
Dinky Dory,L39 3AG,53.5681,-2.8871
Subway,L39 3AG,53.5681,-2.8871
Market Cross,L39 3AN,53.5680,-2.8865
Turquaz turkish bbq restaurant ,L39 3AW,53.5686,-2.8872
Costa Coffee,L39 3BH,53.5661,-2.8869
Costa Coffee,L39 3BH,53.5671,-2.8859
The Old Post Office,L39 3BH,53.5663,-2.8856
Brooke’s Bistro ,L39 3BS,53.5652,-2.8897
O'BRIENS TEA ROOMS ,L39 3BY,53.5678,-2.8901
the royal oak,L39 3LW,53.5555,-2.9089
Bramleys Coffee House  ,L39 3QS,53.5681,-2.8861
The Cricketers,L39 4QF,53.5648,-2.8837
Jill Martin Ltd trading as The Edge,L39 4QJ,53.5663,-2.8829
Mandrakes A Magical Experience,L39 4QR,53.5666,-2.8835
The Dog and Gun Inn,L39 5BU,53.5522,-2.8911
The Barn at Moor Hall,L39 6RT,53.5416,-2.8896
The Stanley Arms,L39 6SA,53.5430,-2.9206
THE NEW SCARISBRICK ARMS RESTAURANT,L39 7HX,53.5578,-2.9673
Georgie porgy cafe,L4 0RQ,53.4295,-2.9607
The Isla Gladstone Conservatory,L4 0TD,53.4328,-2.9673
WOK ON LTD,L4 0UE,53.4276,-2.9586
Miru sushi,L4 2QZ,53.4248,-2.9538
Wok noodle,L4 2QZ,53.4248,-2.9540
The Cabbage Hall Bar & Restaurant,L4 2RB,53.4271,-2.9515
Breck n Brunch,L4 2RD,53.4251,-2.9539
Jacobs Kitchen,L4 2RN,53.4280,-2.9530
JUNGLE GRILL WALTON,L4 3QH,53.4388,-2.9709
SUBWAY COUNTY ROAD,L4 3QH,53.4388,-2.9709
KFC - WALTON,L4 3QN,53.4409,-2.9705
KFC,L4 3QN,53.4406,-2.9706
Club 3000 Bingo Stanley Park,L4 3QU,53.4397,-2.9723
The Thomas Frost Liverpool (Wetherspoon),L4 4AJ,53.4360,-2.9727
The Pacific Hotel,L4 4AZ,53.4356,-2.9719
McDonald's,L4 4BB,53.4368,-2.9719
The Goodison Cafe ,L4 4EH,53.4383,-2.9678
SPELLOW MATCH DAY PUB LTD,L4 4EN,53.4409,-2.9679
Fu Hong,L4 8TT,53.4358,-2.9359
McDonald's,L4 8UU,53.4391,-2.9398
Compass Group UK and Ireland Ltd.,L4 9UA,53.4434,-2.9484
the plough inn ,L40 6JG,53.5652,-2.8230
Warbreck Garden Centre,L40 6JW,53.5555,-2.8341
CHATIME YORK LTD,L5 3BB,53.4229,-2.9759
THE CREPES HOUSE LIMITED,L5 3BB,53.4229,-2.9759
Sedpraiz Eatery ,L5 4NH,53.4233,-2.9611
Costa Coffee,L5 5AA,53.4245,-2.9794
KFC - GREAT HOMER,L5 5AA,53.4243,-2.9817
KFC,L5 5AA,53.4241,-2.9818
McDonald's,L5 5AA,53.4235,-2.9816
McDonald's,L5 5AA,53.4242,-2.9813
Subway,L5 5AA,53.4245,-2.9802
Newton Park limited ,L5 9TZ,53.4246,-2.9960
Subway,L5 9ZH,53.4267,-2.9973
The Scanary Cafe ,L6 0AX,53.4285,-2.9496
Townsend Kitchen,L6 0BB,53.4293,-2.9458
Starbucks Prescot Street,L6 1BA,53.4107,-2.9653
Blue Diamond,L6 4BB,53.4225,-2.9423
Harmans On Site Services Ltd,L7 0HA,53.4096,-2.9434
CornerCafe Prescot Road Liverpool,L7 0LB,53.4132,-2.9400
McDonald's,L7 2RN,53.4119,-2.9465
McDonald's,L7 2RN,53.4121,-2.9447
SUBWAY,L7 7AJ,53.4009,-2.9637
Starbucks Myrtle St Liverpool,L7 7DN,53.4016,-2.9701
92 Degrees,L7 7DP,53.4008,-2.9667
MR ZHANG'S KITCHEN,L7 7DP,53.4008,-2.9665
Red hong ltd,L7 7DP,53.4008,-2.9667
The Art school restaurant,L7 7EB,53.4006,-2.9693
Yogee,L7 7EF,53.4005,-2.9670
KFC MYRTLE PARADE 02071,L7 7EL,53.4006,-2.9651
Font Bar,L7 7JE,53.4031,-2.9683
HOMETOWN DINING HOUSE,L7 7JE,53.4028,-2.9687
B-Ding Ltd,L7 8UE,53.4106,-2.9671
Big bowl,L7 8UE,53.4106,-2.9661
Costa Coffee,L7 8XP,53.4101,-2.9650
Royal Voluntary Service,L7 8XP,53.4095,-2.9648
Subway,L7 8XP,53.4095,-2.9648
FAJITA’s,L7 9LQ,53.4105,-2.9294
Bean,L7 9NJ,53.4082,-2.9358
QVC,L70 2QA,53.4725,-2.8583
RED SEA LIVERPOOL LTD ,L8 0QD,53.3971,-2.9495
Broaster ,L8 0QE,53.3951,-2.9493
GRU,L8 0QF,53.3941,-2.9491
Kebabish Original,L8 0QL,53.3955,-2.9498
Sakoon cafe,L8 0QL,53.3956,-2.9498
Elior (Tesco),L8 4XF,53.3848,-2.9639
Baltic Market,L8 5RE,53.3932,-2.9780
Eat Up Gud,L8 5RE,53.3932,-2.9795
Hafla Hafla Ltd ,L8 5RE,53.3932,-2.9795
Little Korea,L8 5RE,53.3932,-2.9795
Midnight Baltic ,L8 5RE,53.3932,-2.9780
Pattersons Baltic,L8 5RE,53.3932,-2.9780
Wholesome Junkies Liverpool LTD,L8 5RE,53.3932,-2.9795
The Baltic Social,L8 5RN,53.3945,-2.9792
Arcains,L8 5SD,53.3934,-2.9791
Punch Tarmeys,L8 5SD,53.3934,-2.9791
Costa Coffee,L8 5SN,53.3810,-2.9733
Portland Pizza and Fish and Chips,L8 5SN,53.3819,-2.9749
Subway,L8 5SN,53.3810,-2.9732
APOCALYPSE COW LIVERPOOL (HH FOOD LTD),L8 5XJ,53.3936,-2.9781
Baltic beer garden,L8 5XJ,53.3936,-2.9781
LITTLE FURNACE WOOD FIRED PIZZAS LTD,L8 5XJ,53.3936,-2.9781
Lu Ban Restaurant,L8 5XJ,53.3936,-2.9781
Blackburne Arms ,L8 7NL,53.3995,-2.9685
Liverpool Women's NHS,L8 7SS,53.3985,-2.9601
Noso,L9 0ED,53.4667,-2.9501
The Queens Arms,L9 0HZ,53.4722,-2.9550
Aintree tandoori ,L9 0JB,53.4730,-2.9551
China Garden Restaurant,L9 1DG,53.4529,-2.9628
The Raven Liverpool (Wetherspoon),L9 2BU,53.4637,-2.9587
McDonald's,L9 3BY,53.4567,-2.9624
McDonald's,L9 3BY,53.4573,-2.9626
allure coffee & sandwich bar,L9 4RL,53.4641,-2.9592
Kurdina restaurant,L9 4RQ,53.4637,-2.9595
Little Ange's Cafe,L9 4RW,53.4653,-2.9576
SUBWAY WALTON VALE,L9 4SR,53.4645,-2.9587
Costa Coffee,L9 5AL,53.4799,-2.9520
Subway,L9 5AL,53.4792,-2.9509
Costa Coffee,L9 5AN,53.4799,-2.9520
McDonald's,L9 5AN,53.4826,-2.9514
McDonald's,L9 5AN,53.4959,-2.9205
Nando's,L9 5AN,53.4812,-2.9522
KFC,L9 5BD,53.4766,-2.9540
AED coffee shop,L9 7AL,53.4663,-2.9311
ECC coffee shop,L9 7AL,53.4663,-2.9311
Fresh,L9 7AL,53.4663,-2.9311
The bistro,L9 7AL,53.4663,-2.9311
The coffe shop,L9 7AL,53.4663,-2.9311
Torino,L9 7AL,53.4663,-2.9311
the dining room ,L9 7AL,53.4663,-2.9311
the sandwich shop,L9 7AL,53.4663,-2.9311
McCools Creamery,L9 8AP,53.4611,-2.9620
The Edge Joey orrs,L9 8AP,53.4614,-2.9617
