name,postcode,lat,lon
Compass Group UK @ Wavin,DN12 1BY,53.48870200000000,-1.18492300000000
Robbo's Diner,DN12 1NP,53.47668100000000,-1.18837800000000
The Topiary Coffee Shop,DN12 2AE,53.48111000000000,-1.21502500000000
The Indus Restaurant & Bar ,DN12 2BT,53.47867000000000,-1.22947500000000
Seafish Restaurant,DN12 3AG,53.48210600000000,-1.22427500000000
English Heritage Trust,DN12 3BX,53.48403167724610,-1.22737598419189
Balti palace Conisbrough limited ,DN12 4DG,53.49103600000000,-1.24176100000000
Lotus Indian restaurant ,DN4 9LU,53.49875259399410,-1.18221294879913
Marr Lodge,DN5 7AX,53.5411,-1.2281
The bulrush bistro,DN5 7EE,53.51788900000000,-1.25829400000000
The Crown Inn,DN5 7JQ,53.5195,-1.2630
Mehfil Indian Brasserie,DN5 7RF,53.51251200000000,-1.18868900000000
OTTO COFFEE AND WINE BAR LTD,DN5 7RF,53.51263770000000,-1.18846260000000
BUTLERS TEA ROOM,DN5 7TU,53.52897100000000,-1.17710500000000
The Old Brewhouse,DN5 7TU,53.5290,-1.1771
The Sun Inn,DN5 8QE,53.5368,-1.1678
McDonald's Restaurant,DN6 7FB,53.5729,-1.2146
Mcdonalds Restaurant,DN6 7FE,53.57487000000000,-1.20820100000000
Indian Flavour,DN6 7HN,53.5641,-1.1952
5 Flavours Cafe ,DN6 7HP,53.56312179565430,-1.19459104537964
Adwick Leisure center,DN6 7QF,53.56278800000000,-1.18517600000000
Aagrah Doncaster,DN6 7RA,53.55912500000000,-1.19113400000000
The Bridge and Bayleaf,NG14 7FB,53.43896865844727,-1.49555003643036
Amber Hotels Ltd,S1 2AB,53.38546900000000,-1.46146300000000
Hotel ibis Sheffield City,S1 2AR,53.38319300000000,-1.46319000000000
Extra Life Gaming Lounge,S1 2AT,53.38279100000000,-1.46357200000000
KFC Haymarket,S1 2AW,53.38382000000000,-1.46450600000000
KFC,S1 2AW,53.38382000000000,-1.46450600000000
SUBWAY,S1 2AW,53.3838,-1.4644
Hygge Coffee shop,S1 2AZ,53.3828,-1.4650
Mecca Bingo Club,S1 2BA,53.38195400000000,-1.46529600000000
Old Queens Head,S1 2BG,53.38091900000000,-1.46303900000000
Burger King UK Ltd,S1 2BP,53.37752100000000,-1.46287100000000
Kollective Coffee & Kitchen ,S1 2BS,53.37689620000000,-1.46596000000000
The Rutland Arms,S1 2BS,53.37664600000000,-1.46620400000000
Feast,S1 2DW,53.38485300000000,-1.47046200000000
Couch,S1 2EG,53.38322100000000,-1.47118900000000
Sakushi Limited,S1 2EG,53.38322100000000,-1.47118900000000
urbandeli,S1 2EG,53.3832,-1.4712
Blue Moon Cafe Sheffield Ltd,S1 2EW,53.38296500000000,-1.47033500000000
Costa Coffee,S1 2FB,53.38178000000000,-1.47072500000000
MACPOT LIMITED ,S1 2FB,53.3817,-1.4703
Subway Orchard Square,S1 2FB,53.3817,-1.4703
Cavells Cafe Bar,S1 2GA,53.38295300000000,-1.46771900000000
Pizza Hut Restaurant,S1 2GB,53.38314800000000,-1.46690500000000
Caffe Nero,S1 2GE,53.38245800000000,-1.46756000000000
Cara Restaurants Limited McDonalds 496,S1 2GE,53.38245800000000,-1.46756000000000
McDonalds (496),S1 2GE,53.38245800000000,-1.46756000000000
Tokyou Restaurant,S1 2GF,53.38273700000000,-1.46548200000000
Caffe Piazza,S1 2GN,53.38257500000000,-1.47152700000000
Turtle Bay,S1 2GT,53.38162612915040,-1.47253096103668
GRAZIE,S1 2GY,53.38191700000000,-1.47108500000000
HUMPIT,S1 2GY,53.38191600000000,-1.47108400000000
Smokin Bull Burger and Grill,S1 2GY,53.38205210000000,-1.47121760000000
Landmark steak house ,S1 2HB,53.3804,-1.4710
Patisserie Valerie,S1 2HB,53.38033400000000,-1.47102900000000
Pret A Manger,S1 2HE,53.38177490234380,-1.46941804885864
Starbucks Fargate,S1 2HE,53.38177400000000,-1.46941800000000
Starbucks,S1 2HE,53.38177400000000,-1.46941800000000
Bar Public limited,S1 2HH,53.3804,-1.4700
Costa Coffee,S1 2HJ,53.37920700000000,-1.47024600000000
Head of Steam (Sheffield),S1 2JE,53.38044800000000,-1.46815600000000
Mamas and Leonies,S1 2JE,53.38044800000000,-1.46815600000000
Aagrah Leopold ,S1 2JG,53.3816,-1.4721
Cubana Tapas Bar & Restaurant,S1 2JG,53.38145200000000,-1.47164700000000
PHO Trading,S1 2JG,53.38145200000000,-1.47164700000000
Wagamama,S1 2JG,53.38145200000000,-1.47164700000000
Zizzi,S1 2JG,53.38145200000000,-1.47164700000000
Lisboa Patisserie,S1 2JL,53.37926930000000,-1.47001930000000
Caffe Nero,S1 2JX,53.37937200000000,-1.46904100000000
Starbucks Tudor Square,S1 2LA,53.38080400000000,-1.46758100000000
Starbucks,S1 2LA,53.38080400000000,-1.46758100000000
Lynne's Pantry Limited,S1 2LG,53.38074800000000,-1.46908500000000
Miller & Carter,S1 2LG,53.38061080000000,-1.46848430000000
EGO Mediterranean Restaurant Sheffield,S1 2LH,53.37993200000000,-1.46742600000000
Pizza Express,S1 2LN,53.37901900000000,-1.46826400000000
Howard Hotel,S1 2LW,53.37825000000000,-1.46511700000000
Howst,S1 2LX,53.37831700000000,-1.46610800000000
Roebuck Tavern,S1 2NB,53.37837700000000,-1.46941500000000
Silversmiths,S1 2NT,53.37822900000000,-1.46662100000000
Tamper Coffee Sellers Wheel,S1 2NU,53.37676100000000,-1.46799200000000
The Mowbray Cafe,S1 2NU,53.37676100000000,-1.46799200000000
Marmadukes Norfolk Row,S1 2PA,53.38112400000000,-1.46867400000000
ANDREWS Cafe Tea Rooms,S1 2PD,53.38185600000000,-1.46762800000000
Feast,S1 2PD,53.38185600000000,-1.46762800000000
CHINESE TABLE LIMITED,S1 2PF,53.38234000000000,-1.46726100000000
Smoke Barbecue,S1 2PN,53.3822,-1.4657
Mulberry bar and venue,S1 2PP,53.38143800000000,-1.46643000000000
Debenhams Restaurant Sheffield,S1 3LR,53.37775300000000,-1.47266900000000
BUTLERS BALTI HOUSE,S1 4BT,53.38341200000000,-1.47590700000000
BANG BANG HOT POT RESTAURANT ,S1 4DA,53.38048553466800,-1.48102402687073
YEPSS,S1 4DE,53.38468200000000,-1.47440300000000
Noodle Doodle,S1 4EL,53.38195900000000,-1.47458700000000
Tsuki Restaurant and Bar,S1 4EP,53.38148200000000,-1.47442700000000
Pizza Hut Delivery,S1 4EQ,53.38122800000000,-1.47394900000000
FirePit Rocks,S1 4ES,53.38089800000000,-1.47647900000000
ISTANBUL RESTAURANT,S1 4ES,53.38089800000000,-1.47647900000000
Bloo88,S1 4ET,53.3806,-1.4779
Subway West Street,S1 4EU,53.38029900000000,-1.47935800000000
Bar&Beyond Sheffield,S1 4EW,53.38009100000000,-1.47909000000000
KFC West Street,S1 4EW,53.3801,-1.4791
KFC,S1 4EW,53.38009100000000,-1.47909000000000
MOUNT LEBANON,S1 4EW,53.38009262084960,-1.47908997535706
Nando's,S1 4EW,53.38009100000000,-1.47909000000000
200 Degrees,S1 4GE,53.38004200000000,-1.47335510000000
Caffe Nero,S1 4GE,53.37975900000000,-1.47505000000000
Heavenly Desserts,S1 4GE,53.37970352172850,-1.47476494312286
Pieminister Sheffield,S1 4GE,53.37976000000000,-1.47481830000000
SIMMONITE,S1 4GE,53.37975900000000,-1.47505000000000
Chatime Sheff Ltd,S1 4GF,53.38008480000000,-1.47426850000000
Copper Pot,S1 4GF,53.38004302978520,-1.47449004650116
Lonestar,S1 4GF,53.38004400000000,-1.47449000000000
Luckyfox,S1 4GF,53.38004400000000,-1.47449000000000
MR MIYAGI REVOLVING SUSHI BAR,S1 4GF,53.38004302978520,-1.47449004650116
UNIQUE SUSHI LTD T/A LETS SUSHI,S1 4GF,53.3801,-1.4744
Chilli Flow,S1 4GH,53.38003500000000,-1.47644500000000
Noodle Inn Centro,S1 4GH,53.38003500000000,-1.47644500000000
J D Wetherspoons Ltd,S1 4HP,53.37921600000000,-1.47221500000000
Marmadukes Cambridge St,S1 4HP,53.37875010000000,-1.47200970000000
Akbar's,S1 4JB,53.37972800000000,-1.48041700000000
Gaard West one,S1 4JB,53.3795,-1.4805
Ginseng Korean restaurant ,S1 4JB,53.37972800000000,-1.48041700000000
Hang,S1 4JB,53.37972800000000,-1.48041700000000
WEST ONE SUSHI LTD T/A LETS SUSHI,S1 4JB,53.37972800000000,-1.48041700000000
han restaurant,S1 4JB,53.37972800000000,-1.48041700000000
China Red Restaurant,S1 4JD,53.37674400000000,-1.47430500000000
The Cabin Pancake and Waffle House Ltd,S1 4JH,53.37547300000000,-1.47540300000000
Wildwood Artisan Coffee Shop,S1 4JH,53.37544631958010,-1.47531294822693
Wildwood Artisan Gifts and Coffee Shop Ltd,S1 4JH,53.37544631958010,-1.47531294822693
Gourmet Burger Kitchen,S1 4PA,53.37651824951170,-1.47369205951691
Nando's Chickenland Ltd,S1 4PA,53.37651824951170,-1.47369205951691
Zizzi,S1 4PA,53.37651824951170,-1.47369205951691
SUBWAY,S1 4PB,53.37540470000000,-1.47458300000000
AUNTIE ANNES SHEFFIELD,S1 4PF,53.37616570000000,-1.47351500000000
Bitz & bitez ,S1 4PF,53.37527300000000,-1.47313920000000
Caffe Nero,S1 4PF,53.37645721435550,-1.47279095649719
Lemongrass thai street food,S1 4PF,53.37645721435550,-1.47279095649719
Pizza Express,S1 4PF,53.37645721435550,-1.47279095649719
The Market Chippy,S1 4PF,53.37677300000000,-1.47253100000000
El paso,S1 4PT,53.37445900000000,-1.47386700000000
SPIRIT OF SHEFFIELD LTD,S1 4PT,53.37445900000000,-1.47386700000000
Shapla Tandoori Restaurant ,S1 4PT,53.37445900000000,-1.47386700000000
Fresh Choice Noodles,S1 4QB,53.37684900000000,-1.47143300000000
Wongting,S1 4QD,53.3767,-1.4719
Waterfall Elior,S1 4QF,53.37524414062500,-1.46840202808380
Lane7 Sheffield,S1 4QN,53.3775,-1.4713
Dashu bakery and cafe ,S1 4QP,53.37726974487300,-1.47073602676392
Jurys Inn,S1 4QW,53.37583200000000,-1.47125000000000
ALS Gongcha,S1 4QY,53.37709170000000,-1.47054080000000
Birdhouse Tea Bar & Kitchen,S1 4RG,53.37529754638670,-1.46870100498199
Twisted Burger Company,S1 4SQ,53.37430191040040,-1.46838295459747
Chez Lahlou,S10 1GB,53.38728100000000,-1.49778100000000
cinque terre restuarant ltd,S10 1GB,53.38728100000000,-1.49778100000000
The Closed Shop,S10 1GG,53.38523500000000,-1.49843700000000
Waterfall Elior,S10 1LA,53.38461000000000,-1.50178200000000
Rajput Restaurant Ltd ,S10 1LG,53.38698900000000,-1.49904700000000
San Lorenzo,S10 1QU,53.38762600000000,-1.50709900000000
The Crooked Cafe,S10 1TE,53.38567200000000,-1.50840000000000
Casanova Pizzeria Ristorante,S10 1TG,53.38535400000000,-1.50780200000000
Dana Cafe,S10 1TG,53.38535308837890,-1.50780200958252
JAFLONG INDIAN RESTAURANT LIMITED,S10 1TG,53.38535400000000,-1.50780200000000
The Punchbowl,S10 1TH,53.38667400000000,-1.50724600000000
Zara’s ,S10 1TH,53.38667400000000,-1.50724600000000
Old Grindstone,S10 1UA,53.38097430000000,-1.50542980000000
Dandelion Cocoa,S10 1UH,53.38404330000000,-1.50793130000000
INDAIN CHEF,S10 1UH,53.38371900000000,-1.50782100000000
The Masons ,S10 1UR,53.38248825073240,-1.50787997245789
Waterfall Elior,S10 2DN,53.37455800000000,-1.48620700000000
Waterfall Elior,S10 2FA,53.37819300000000,-1.48070600000000
Big foodie Ltd ,S10 2GW,53.3800,-1.4816
Maveli Restaurant and Bar ,S10 2GW,53.37988700000000,-1.48178300000000
Appetito,S10 2GZ,53.37998500000000,-1.48358600000000
Jinding Restaurant,S10 2GZ,53.3800,-1.4836
Pepper Greenhouse,S10 2GZ,53.3800,-1.4836
Napoli Centro Pizzeria,S10 2HP,53.37895800000000,-1.48943100000000
the potato oven,S10 2HP,53.3790,-1.4894
Chong Qing Restaurant ,S10 2HS,53.38022900000000,-1.48173400000000
New Pot Restaurant ltd / Jimmys Kitchen,S10 2HS,53.38022900000000,-1.48173400000000
So Famous,S10 2HS,53.38022994995120,-1.48177897930145
Lokanta,S10 2QA,53.37687500000000,-1.50045900000000
Thyme Cafe,S10 2QA,53.37687500000000,-1.50045900000000
La Vaca,S10 2QE,53.37686000000000,-1.50136100000000
Vittles Cafe,S10 2QE,53.37686000000000,-1.50136100000000
Waterfall Elior,S10 2SA,53.37811700000000,-1.49662600000000
Butcher and Catch,S10 2SP,53.37768936157230,-1.49986302852631
Bar One ,S10 2TG,53.38061400000000,-1.48766700000000
Starbucks Broomhill,S10 2TJ,53.3809,-1.4927
Starbucks,S10 2TJ,53.38095900000000,-1.49268400000000
The York,S10 3BA,53.37744200000000,-1.50075300000000
Balti King,S10 3BB,53.37758000000000,-1.50159300000000
Bambukat,S10 3BD,53.37681200000000,-1.50273000000000
Cawa Coffee,S10 3BD,53.37681200000000,-1.50273000000000
Proove,S10 3BD,53.37681200000000,-1.50273000000000
Medirest Healthcare Compass Group,S10 3BR,53.37435600000000,-1.51753300000000
Waterfall Elior,S10 3BT,53.37271000000000,-1.51714600000000
Halifax Hall Hotel,S10 3ER,53.37143100000000,-1.50564800000000
RANMOOR TANDOORI,S10 3GD,53.37113300000000,-1.52299600000000
bulls head,S10 3GD,53.37113300000000,-1.52299600000000
The Rising Sun,S10 3QA,53.36729600000000,-1.53013200000000
Waterfall Elior,S10 3QA,53.36729600000000,-1.53013200000000
Lavang,S10 3QD,53.36736300000000,-1.53104800000000
Waterfall Elior,S10 3QP,53.36795200000000,-1.53470800000000
The shiny sheff,S10 4EP,53.37088200000000,-1.55585300000000
The Coffee Rooms,S10 4GA,53.36383050000000,-1.54539660000000
HALLAMSHIRE GOLF CLUB CATERING,S10 4LA,53.37442400000000,-1.54152200000000
Hallamshire Golf Club Ltd,S10 4LA,53.37442400000000,-1.54152200000000
The Steel Cauldron,S10 5BL,53.37792750000000,-1.50144540000000
Waterfall Elior,S10 5DP,53.37686400000000,-1.51540100000000
PAPA CICCOS ,S10 5NH,53.37966000000000,-1.51999900000000
Cuore Siciliano,S10 5RY,53.3793,-1.5209
Hudson's Kitchen,S10 5RY,53.37931442260740,-1.52099502086639
Hudsons Kitchen,S10 5RY,53.37931442260740,-1.52099502086639
The Greystones,S11 7BS,53.36419800000000,-1.51513900000000
Gigi’s Cucina,S11 7EB,53.36810400000000,-1.52304400000000
La Coppola,S11 7EB,53.36810400000000,-1.52304400000000
Lovely Pear,S11 7EB,53.36810400000000,-1.52304400000000
Oakbrook Coffee Co Limited,S11 7EB,53.36810400000000,-1.52304400000000
Waterfall Elior,S11 7GL,53.36273200000000,-1.51049700000000
Waterfall Elior,S11 7LG,53.35953903198240,-1.52108204364777
Waterfall Elior,S11 7LH,53.35781400000000,-1.52129600000000
Waterfall Elior,S11 7PQ,53.35767500000000,-1.51582900000000
Rossi’s Italian Restaurant ,S11 8AE,53.36707700000000,-1.47725000000000
Nando's Chickenland Ltd,S11 8AP,53.36684600000000,-1.48407500000000
Compass Group,S11 8JF,53.37144300000000,-1.48502700000000
Waterfall Elior,S11 8JN,53.37056900000000,-1.48867400000000
Ashoka Restaurant ,S11 8NX,53.37141100000000,-1.48803300000000
Caffe Nero PLC,S11 8NX,53.37141100000000,-1.48803300000000
Graze Inn,S11 8NX,53.37141100000000,-1.48803300000000
Uncle Sams Diner ltd,S11 8PE,53.37137100000000,-1.48929600000000
friesday s11 limited,S11 8PE,53.37137100000000,-1.48929600000000
TRIO FOOD UK LIMITED,S11 8PF,53.3706,-1.4906
The Italian kitchen ,S11 8PF,53.37063100000000,-1.49062800000000
Aysha's PrithiRaj Restaurant,S11 8PG,53.36998200000000,-1.49239400000000
Starbucks Ecclesall Sheffield,S11 8PG,53.3700,-1.4924
Starbucks,S11 8PG,53.36998200000000,-1.49239400000000
Coffika Eccy Rd,S11 8PJ,53.37016300000000,-1.49273700000000
Costa Coffee,S11 8PN,53.36907900000000,-1.49357700000000
KFC,S11 8PN,53.36907900000000,-1.49357700000000
Cafe Marco,S11 8PP,53.36920100000000,-1.49471700000000
Pizza Express Ltd,S11 8PP,53.36911392211910,-1.49504899978638
Koko Restaurant Limited,S11 8PR,53.36873400000000,-1.49706700000000
ALL SIAM LIMITED,S11 8PT,53.36791300000000,-1.50057900000000
Hopper  Coffee  Bar & Kitchen,S11 8PT,53.36791300000000,-1.50057900000000
La Patisserie,S11 8PT,53.36791300000000,-1.50057900000000
Mowgli Street Food - Sheffield,S11 8PT,53.36791300000000,-1.50057900000000
PATOO THAI,S11 8PT,53.3680,-1.5005
Maranellos,S11 8PX,53.36960600000000,-1.49469800000000
The Delightful Touch,S11 8QF,53.36819700000000,-1.49737400000000
BROCCO ON THE PARK,S11 8RS,53.36866500000000,-1.50201300000000
Clarrie's Kitchen,S11 8TB,53.3661,-1.5073
Olive ,S11 8TB,53.36611700000000,-1.50734700000000
URBAN CHOOLA ,S11 8TD,53.36461900000000,-1.50823600000000
LA LUNA RESTAURANT,S11 8TN,53.36146300000000,-1.50801700000000
Elly Joy,S11 8XX,53.3673,-1.4968
Nam Song Sharrow Vale Limited,S11 8XX,53.3673,-1.4968
TONCO,S11 8XX,53.3673,-1.4968
The Stag's Head,S11 8YL,53.36611300000000,-1.49131300000000
Waterfall Elior,S11 8YU,53.36516700000000,-1.49717000000000
Waterfall Elior,S11 8YZ,53.36754608154300,-1.49019801616669
Made By Jonty,S11 8ZG,53.36711900000000,-1.49986700000000
Waterfall Elior,S11 8ZG,53.36711900000000,-1.49986700000000
Otto's Restaurant Limited,S11 8ZP,53.36733800000000,-1.50052500000000
The Union Hotel Limited,S11 9EF,53.36111500000000,-1.49349100000000
monument coffee co,S11 9PL,53.35625800000000,-1.51226800000000
Waterfall Elior,S11 9QH,53.35120200000000,-1.52906200000000
Waterfall Elior,S12 2AR,53.35689500000000,-1.41584800000000
Waterfall Elior,S12 2EJ,53.35183100000000,-1.42057400000000
Punch Bowl,S12 2SF,53.35735200000000,-1.43217400000000
Memory lane tearoom ,S13 7PD,53.3591,-1.3674
Elior - Balmoral Care Home,S13 7PR,53.35728800000000,-1.36427700000000
Brunswick Gardens,S13 7RB,53.36074100000000,-1.36116000000000
Waterfall Elior,S13 7RB,53.36067900000000,-1.36123600000000
Waterfall Elior,S13 8HH,53.37264000000000,-1.39884400000000
KFC Handsworth,S13 8HR,53.37319100000000,-1.39757300000000
Waterfall Elior,S13 8LT,53.36390500000000,-1.40276800000000
Eurest-Compass Group UK & Ireland,S13 9BN,53.37323200000000,-1.38972700000000
D&H Taylor t/as McDonald's,S13 9BS,53.37403700000000,-1.39254100000000
McDonalds,S13 9BS,53.37403700000000,-1.39254100000000
Waterfall Elior,S13 9HH,53.36896300000000,-1.37764400000000
Waterfall Elior,S13 9HJ,53.36955200000000,-1.37333700000000
Everest Inn,S13 9HS,53.37043700000000,-1.37592400000000
Waterfall Elior,S2 1AA,53.37294400000000,-1.41656000000000
Waterfall Elior,S2 1EE,53.36141586303710,-1.42663502693176
Waterfall Elior,S2 1EY,53.36479300000000,-1.42059400000000
KFC,S2 1GJ,53.36488200000000,-1.43548500000000
KFC,S2 1GN,53.36321600000000,-1.43289200000000
LITTLE JACKS,S2 1LB,53.36469300000000,-1.42789800000000
Waterfall Elior,S2 1PL,53.36870600000000,-1.42507900000000
Waterfall Elior,S2 1TR,53.38227800000000,-1.43794600000000
The rhubarb shed ltd,S2 1UL,53.37642100000000,-1.43494100000000
Waterfall Elior,S2 2PJ,53.36476900000000,-1.44591500000000
Cara Restaurants Limited McDonalds 719,S2 2TP,53.37351700000000,-1.46200500000000
McDonalds Restaurant (719),S2 2TP,53.37351700000000,-1.46200500000000
Waterfall Elior,S2 3DJ,53.36178200000000,-1.46914000000000
Royal Standard,S2 4AX,53.37407900000000,-1.46506400000000
H Ponsford Ltd,S2 4HS,53.36100700000000,-1.47263600000000
India Garden,S2 4HT,53.35979900000000,-1.47395800000000
Olam-D Kitchen ,S2 4HT,53.35979900000000,-1.47395800000000
Pour,S2 4HT,53.35979900000000,-1.47395800000000
China Town Restaurant,S2 4LA,53.3723,-1.4765
The Clubhouse,S2 4LA,53.37207031250000,-1.47661697864532
Toro steakhouse,S2 4LA,53.3723,-1.4765
cedar court food ,S2 4LA,53.3723,-1.4765
Zs bistro,S2 4LE,53.3704,-1.4774
stack lounge,S2 4LE,53.37038500000000,-1.47743500000000
Pepe's Piri Piri,S2 4LH,53.36936569213870,-1.47678601741791
Saigon68 Vietnamese cafe,S2 4LH,53.36936700000000,-1.47678600000000
Tin Tin Chinese Restaurant,S2 4LN,53.37272000000000,-1.47700000000000
Rassams Creamery,S2 4LP,53.37209840000000,-1.47715030000000
La Romantica,S2 4LR,53.37109600000000,-1.47759100000000
Taco Mex Mexican food LTD,S2 4LR,53.37106000000000,-1.47760700000000
Taco mex Mexican chef ltd,S2 4LR,53.37106000000000,-1.47760700000000
Yama Sushi,S2 4LR,53.37109600000000,-1.47759100000000
kebab,S2 4LR,53.37109600000000,-1.47759100000000
kebabish express,S2 4LR,53.37109600000000,-1.47759100000000
lemon pepper grillz,S2 4LR,53.3712,-1.4775
the potato oven,S2 4LR,53.37106000000000,-1.47760600000000
Desi cafe,S2 4LT,53.3694,-1.4773
Middle East shawarma ,S2 4LT,53.36939600000000,-1.47731100000000
Amigos Mexican Kitchen ,S2 4LW,53.36817800000000,-1.47634900000000
Imrans diner,S2 4LW,53.36817800000000,-1.47634900000000
Little Istanbul 2,S2 4LW,53.3682,-1.4763
Treatz Sheffield,S2 4LW,53.36817800000000,-1.47634900000000
Jabbarwocky,S2 4NA,53.3669,-1.4755
Fusionz,S2 4NF,53.3672,-1.4752
Golden Taste,S2 4NF,53.36714800000000,-1.47517500000000
Wasabisabi ,S2 4NF,53.36714800000000,-1.47517500000000
Waterfall Elior,S2 4NJ,53.36436600000000,-1.47215800000000
OISOI Gathering,S2 4QF,53.3720,-1.4748
The Treehouse Board Game Cafe,S2 4QF,53.37189483642580,-1.47511601448059
pbz,S2 4QF,53.3720,-1.4748
Breeze Shisha lounge,S2 4QU,53.37051391601560,-1.47402095794678
Smokey bar and grill,S2 4QU,53.3706,-1.4742
Bramall Subway,S2 4QZ,53.3725,-1.4717
Burger King,S2 5AU,53.38402000000000,-1.44153100000000
Buzz Bingo,S2 5AU,53.38402000000000,-1.44153100000000
Waterfall Elior,S2 5ED,53.37939200000000,-1.44372600000000
South Street Kitchen,S2 5QX,53.38026572004940,-1.46866660291363
Bengal tandoori,S25 2PN,53.36915900000000,-1.21006600000000
the royal elephant ,S25 2PQ,53.36673500000000,-1.21195900000000
Paulos Restaurant ,S25 2PS,53.36923400000000,-1.21057500000000
Whiter's CafeBistro ,S25 2PS,53.36923400000000,-1.21057500000000
aroma coffee shop,S25 2PS,53.36923400000000,-1.21057500000000
Dolcetti Coffee House and Bistro ,S25 3SA,53.37834000000000,-1.23124200000000
Tropical Butterfly House Ltd,S25 4EQ,53.35589500000000,-1.21352600000000
Greenbean Coffee Shop & Bistro,S26 1DJ,53.3613,-1.2666
Ricardo's Cafe and Bistro,S26 2EB,53.36306600000000,-1.29805700000000
ASTON  HALL HOTEL LIMITED,S26 2EE,53.36267400000000,-1.29864900000000
The Cafe at the Corner,S26 4QA,53.36375800000000,-1.31986500000000
The copper kettle,S3 7AG,53.38678000000000,-1.47331000000000
Bugby diner,S3 7HE,53.3821,-1.4826
Waterfall Elior,S3 7JA,53.38617700000000,-1.48122600000000
Piccolos,S3 7RX,53.37989100000000,-1.48062500000000
BB's Italian Restaurant Ltd,S3 7SB,53.37929200000000,-1.47725000000000
Forum Kitchen & Bar,S3 7SB,53.37929200000000,-1.47725000000000
The Common Room,S3 7SB,53.37929200000000,-1.47725000000000
The Old House,S3 7SB,53.37929200000000,-1.47725000000000
Brewdog,S3 7SF,53.37951278686520,-1.47801399230957
Little Snack Bar,S3 7SF,53.37951100000000,-1.47801400000000
Pizza Express,S3 7SF,53.37951100000000,-1.47801400000000
Taco Bell,S3 7SF,53.37951278686520,-1.47801399230957
sweet house ,S3 7SF,53.37951100000000,-1.47801400000000
Bagel Shack,S3 7SP,53.37532200000000,-1.48416800000000
UNIT SHEFFIELD,S3 7WB,53.37634800000000,-1.48032200000000
Icarus and Apollo,S3 8AS,53.39454200000000,-1.47832700000000
URBAN PIZZA CO,S3 8AS,53.39454200000000,-1.47832700000000
Bullion Chocolate,S3 8AT,53.3935,-1.4788
Edo Sushi,S3 8AT,53.39347457885740,-1.47891104221344
Foundry Coffee Roasters,S3 8AT,53.39303990000000,-1.47820960000000
Jar Bar,S3 8AT,53.39303990000000,-1.47820960000000
MA-BA KITCHEN LTD t/a MA-ba,S3 8AT,53.39303990000000,-1.47820960000000
Rutland Cutlery Works Ltd,S3 8AT,53.39303990000000,-1.47820960000000
Slick Chick's Fried Chicken and Cheesecake,S3 8AT,53.39303990000000,-1.47820960000000
Gaard,S3 8BX,53.3922,-1.4754
The Depot Bakery Burton Rd,S3 8BX,53.3922,-1.4754
Church Temple of Fun,S3 8DG,53.39250946044920,-1.48029100894928
Pina,S3 8EF,53.39208410000000,-1.47340920000000
The Mowbray,S3 8EN,53.39114750000000,-1.47299970000000
The Riverside,S3 8EN,53.39025800000000,-1.47114700000000
The Harlequin,S3 8GG,53.38848200000000,-1.46589100000000
Chickadees,S3 8HS,53.3867,-1.4634
AU Village African Restaurant ,S3 8HT,53.38757800000000,-1.46268500000000
Wicker Kebabish,S3 8HT,53.38757800000000,-1.46268500000000
Agha Lounge ,S3 8JT,53.3863,-1.4620
Chaat Cart,S3 8LS,53.51733500027440,-1.31345500735018
Depot Pizza Company at Kommune ,S3 8LS,53.3815,-1.4635
Fat Hippo Sheffield S3,S3 8LS,53.51733500027440,-1.31345500735018
Kommune,S3 8LS,53.3815,-1.4635
MorMor,S3 8LS,53.3815,-1.4635
Tamper Coffee Kiosk at Kommune,S3 8LS,53.51733500027440,-1.31345500735018
The Depot Bakery at Kommune,S3 8LS,53.3815,-1.4635
Torito ,S3 8LS,53.3815,-1.4635
shoot the bull - Rotisserie and Grill ,S3 8LS,53.51733500027440,-1.31345500735018
BETESEB ETHIOPIAN RESTAURANT ,S3 8LT,53.3844,-1.4652
Trawlers catch,S3 8LT,53.38439900000000,-1.46532600000000
Albies Coffee Ltd,S3 8NB,53.38510500000000,-1.46633900000000
7 Spices Balti,S3 8PP,53.38616600000000,-1.47065600000000
Island Cafe,S3 8RY,53.38929748535160,-1.47132396697998
Millowners Arms,S3 8RY,53.38929748535160,-1.47132396697998
the Taphouse Bar ,S3 8RY,53.38929748535160,-1.47132396697998
Craft & Dough Kelham Island,S3 8SD,53.38915900000000,-1.47046900000000
Bar Kelham,S3 8SE,53.38983535766600,-1.47712099552155
Stew & Oyster,S3 8SE,53.3897,-1.4766
The Grind Cafe Kelham Island Limited,S3 8SJ,53.38829100000000,-1.47345600000000
JORO RESTAURANT LIMITED,S3 8US,53.3883,-1.4758
Costa Coffee,S30 4SF,53.4622,-1.4693
Waterfall Elior,S35 0AE,53.42381700000000,-1.54410600000000
Shoulder of mutton,S35 0AQ,53.42431800000000,-1.54100100000000
Waterfall Elior,S35 0DD,53.45079500000000,-1.55455400000000
Julio's Pizzeria Restaurante,S35 0GY,53.43349500000000,-1.53637100000000
Waterfall Elior,S35 0HG,53.43302900000000,-1.54382700000000
KONDAS TRADE LTD - (SUBWAY),S35 1SF,53.46211100000000,-1.46871800000000
Crown & Cushion,S35 1SS,53.45915300000000,-1.48482500000000
Waterfall Elior,S35 1WH,53.45639300000000,-1.47035600000000
Waterfall Elior,S35 1ZD,53.45855100000000,-1.48066100000000
Waterfall Elior,S35 2EU,53.46562100000000,-1.47575400000000
the barrel,S35 2UL,53.46712500000000,-1.47434900000000
Pizza Hut,S35 2UQ,53.46248500000000,-1.46784000000000
come a casa,S35 2UQ,53.46248500000000,-1.46784000000000
Waterfall Elior,S35 2UR,53.46398300000000,-1.46905700000000
oak house restaurant ,S35 2XH,53.46358800000000,-1.46523600000000
Miners Arms,S35 2YD,53.47487900000000,-1.46541000000000
Norfolk Arms Chapeltown LTD ,S35 2YG,53.47145500000000,-1.45963800000000
Waterfall Elior,S35 4HN,53.46959200000000,-1.49818200000000
Queens Head,S35 4LU,53.47402030000000,-1.48702940000000
Waterfall Elior,S35 4LU,53.47472300000000,-1.48948800000000
The Copper Kettle Vintage Tearoom ,S35 7AA,53.50744200000000,-1.56721400000000
THE GREEN DRAGON,S35 7AE,53.50211300000000,-1.56261000000000
The Bridge Inn,S35 7AE,53.50211300000000,-1.56261000000000
The Countess Tea Room,S35 7DB,53.49073100000000,-1.53781300000000
The Wortley Arms,S35 7DB,53.49073100000000,-1.53781300000000
Wortley Golf Club,S35 7DF,53.50099100000000,-1.52527800000000
Waterfall Elior,S35 8NN,53.43539200000000,-1.48594000000000
Whitley Hall Hotel LTD,S35 8NR,53.44963100000000,-1.48191400000000
Whitley Hall Hotel,S35 8NR,53.44963100000000,-1.48191400000000
The Old Red Lion,S35 8PR,53.44296100000000,-1.50295200000000
Red Lion Grenoside LTD,S35 8QH,53.43954400000000,-1.49620200000000
Village Cafe,S35 9UA,53.43924200000000,-1.46399100000000
Waterfall Elior,S35 9UD,53.44129200000000,-1.46812000000000
JUMERIAH SPICE LTD,S35 9WJ,53.44588000000000,-1.46306400000000
Cerrones ,S35 9XD,53.43950800000000,-1.46520700000000
Welbilt Staff Canteen,S35 9ZX,53.45066600000000,-1.45806500000000
King and Miller,S36 2RD,53.47817200000000,-1.56862700000000
SAL Desserts,S4 7BH,53.4008,-1.4550
Waterfall Elior,S4 7BX,53.40338500000000,-1.46382400000000
Nile Cafe,S4 7JB,53.39253400000000,-1.45743500000000
ALNASIM RESTAURANT,S4 7LF,53.3912,-1.4590
Spital chippy,S4 7LF,53.39123700000000,-1.45884900000000
mangla restaurant,S4 7LF,53.39123700000000,-1.45884900000000
AROOJ MEGA BUFFET RESTAURANT LTD,S4 7WZ,53.38987800000000,-1.44479300000000
The Quays Hotel,S4 7YA,53.38767300000000,-1.45776700000000
My chicken 2 Nite,S4 8GS,53.40920800000000,-1.44764000000000
Capillies sandwich bar and cafe,S5 0QF,53.42268300000000,-1.45557600000000
Costa Coffee,S5 0QG,53.4227,-1.4548
KFC Lane Top,S5 0QG,53.4227,-1.4548
Soowes coffee pot café ,S5 0QG,53.42275900000000,-1.45462700000000
A TASTE OF ARABIA,S5 6HH,53.41814140000000,-1.44734320000000
Henrys cafe ,S5 6HH,53.41746000000000,-1.44569800000000
SUGAR XPRESS,S5 6HH,53.41746139526370,-1.44569802284241
Subway,S5 6HL,53.41894640000000,-1.44662320000000
Kebabish express ,S5 6HU,53.42248700000000,-1.45402900000000
Waterfall Elior,S5 6TB,53.41467100000000,-1.45106000000000
the potato oven,S5 7AB,53.40660858154300,-1.45349502563477
Northern Perk,S5 7AU,53.40975900000000,-1.45605700000000
Big Baps,S5 7TR,53.42169900000000,-1.45673200000000
Pizza Hut Delivery,S6 1LH,53.42073300000000,-1.49258700000000
Burger King,S6 1LR,53.41511700000000,-1.50163600000000
Niagara Conference & Leisure,S6 1LU,53.41598600000000,-1.50296500000000
Costa Coffee,S6 1NN,53.41841800000000,-1.49577400000000
Dunelm (Soft Furnishings Ltd),S6 1NN,53.41877746582030,-1.49587595462799
Subway,S6 1QB,53.4126,-1.4996
Napoleons Casino,S6 2BL,53.40412100000000,-1.49013800000000
Sette Colli restaurant ,S6 2BY,53.4032,-1.5001
OEC Sheffield,S6 2DE,53.40604000000000,-1.49331900000000
Owlerton Stadium,S6 2DE,53.40604000000000,-1.49331900000000
McDonalds Restaurants Ltd,S6 2GB,53.40177100000000,-1.49347500000000
The Garrison Hotel,S6 2GB,53.40177100000000,-1.49347500000000
KFC Penistone Road,S6 2GF,53.4030,-1.4951
Pizza Hut Restaurant,S6 2GF,53.40298200000000,-1.49508500000000
Hillsborough Tap,S6 2LX,53.40216600000000,-1.49992200000000
Waterfall Elior,S6 2NU,53.40054000000000,-1.49997200000000
Waterfall Elior,S6 2PL,53.39919300000000,-1.50242400000000
Waterfall Elior,S6 2TS,53.39712000000000,-1.49680800000000
Mamma Mia Pepe,S6 2UG,53.39990800000000,-1.49518100000000
Waterfall Elior,S6 2WJ,53.39291800000000,-1.49591000000000
SAW GRINDERS UNION LTD,S6 3AE,53.39018050000000,-1.47795880000000
V.or.V,S6 3FB,53.3900,-1.4773
Aesthete Coffee and Kitchen,S6 3TE,53.3934,-1.5009
Vito’s Italian Restaurant,S6 3TE,53.39345200000000,-1.50088200000000
CAFE PIE,S6 3TF,53.39462600000000,-1.50226600000000
Waterfall Elior,S6 4AJ,53.41460700000000,-1.51304600000000
Hole in one catering ,S6 4BE,53.4168,-1.5250
The wadsley Jack,S6 4BJ,53.41020800000000,-1.52107000000000
the rose and crown,S6 4BN,53.41113670000000,-1.52184260000000
Rubys cafe ,S6 4GW,53.40357300000000,-1.50314000000000
Lignum.V Caribbean Cafe,S6 4GX,53.40444946289060,-1.50394201278687
Subway Hillsborough,S6 4GY,53.40318100000000,-1.50171500000000
ChocoLatte,S6 4HA,53.40423900000000,-1.50326700000000
Buttercup,S6 4JD,53.40269500000000,-1.50369100000000
Holme lane deli,S6 4JW,53.40127400000000,-1.50576800000000
Big si's cafe,S6 4JZ,53.40014200000000,-1.51033900000000
Waterfall Elior,S6 4RH,53.40160400000000,-1.51178100000000
Waterfall Elior,S6 5HN,53.39664800000000,-1.52416900000000
The Rivelin Pub,S6 5SL,53.38545800000000,-1.54296700000000
The Peacock,S6 6AJ,53.39390900000000,-1.54322300000000
Waterfall elior,S6 6AN,53.39425600000000,-1.54700800000000
Waterfall Elior,S6 6BN,53.39569200000000,-1.54645200000000
kafe stannington ltd,S6 6BX,53.39317703247070,-1.54680895805359
Waterfall Elior,S6 6HE,53.40346527099610,-1.56079852581024
the old horns,S6 6LG,53.40346527099610,-1.56079852581024
WISEWOOD INN,S6 6RR,53.40408400000000,-1.53408900000000
Waterfall Elior,S6 6SG,53.40569400000000,-1.53429700000000
Nags Head Inn,S6 6SJ,53.41123300000000,-1.56817500000000
Sabirs grill,S60 1AS,53.42846000000000,-1.35737600000000
GW Boutique Hotel,S60 1DJ,53.4211,-1.3684
Magna Science Adventure Centre,S60 1DX,53.41825900000000,-1.38496000000000
Toyoda Gosei Canteen,S60 1FB,53.42494000000000,-1.37505200000000
Mecca Bingo Rotherham,S60 1NG,53.43136700000000,-1.35814500000000
The Rhinoceros,S60 1PL,53.4320,-1.3569
PANTRY GREEN LIMITED,S60 1PN,53.43183500000000,-1.35655800000000
Subway,S60 1PP,53.43058200000000,-1.35593000000000
hygge cafe,S60 1PP,53.43056090000000,-1.35587060000000
McDonald's Bridgegate Rotherham,S60 1PQ,53.43192100000000,-1.35736900000000
The Plaice To Be,S60 1PQ,53.43192100000000,-1.35736900000000
Guests Tea Room and Coffee Shop,S60 1PT,53.43030300000000,-1.35585900000000
Churchills Bistro,S60 1PW,53.43161000000000,-1.35638100000000
Tings Thai Kitchen,S60 1QA,53.42988204956050,-1.35807704925537
Interchange Cafe Limited,S60 1QB,53.43308500000000,-1.35661400000000
Caffe Cristinacce,S60 1RZ,53.4397,-1.3522
McDonald's Parkgate Retail Park,S60 1SG,53.44171400000000,-1.34845900000000
KFC,S60 1TG,53.44417100000000,-1.34551600000000
Nando's,S60 1TG,53.44319680000000,-1.34493970000000
SUBWAY,S60 1TG,53.44319680000000,-1.34493970000000
Carlton Park Hotel,S60 2BG,53.41904300000000,-1.34799400000000
KFC Canklow,S60 2JH,53.4178,-1.3608
KFC,S60 2JH,53.41772800000000,-1.36078800000000
Zaika kebabs and sweets ,S60 2LR,53.42950400000000,-1.35423000000000
Mr tasty ltd,S60 2NN,53.42789400000000,-1.35076300000000
Rajas Rotherham ,S60 2NW,53.42751000000000,-1.34968500000000
Rotherham Hospice,S60 2SW,53.4240,-1.3408
McDonald's Canklow,S60 2XG,53.4095,-1.3609
McDonalds Restaurants,S60 2XG,53.40934100000000,-1.36077800000000
The Chequers Inn,S60 4HB,53.40606200000000,-1.33146500000000
The Sitwell Arms,S60 4HQ,53.4040,-1.3286
Cuccinis ltd,S60 4LA,53.41657600000000,-1.32153600000000
No.21 coffee shop & bistro,S60 5BS,53.40374100000000,-1.37436900000000
The Centre Community Cafe Brinsworth,S60 5BU,53.40456390380860,-1.37032604217529
JoJo's Cafe,S60 5DL,53.4079,-1.3684
PHOENIX PAVILION,S60 5PA,53.41017300000000,-1.37353800000000
BB's Coffee Shop c/o Boundary Mill Stores,S60 5TR,53.3888,-1.3715
WHITBYS,S60 5TR,53.38785400000000,-1.37183600000000
manor barn ,S61 1EP,53.43354200000000,-1.39416200000000
wimpy,S61 1QN,53.4380,-1.3917
The Droppingwell,S61 2AB,53.44363100000000,-1.40756800000000
AKBAR BALTI SHEFFIELD LTD,S61 2NF,53.42725100000000,-1.39088000000000
The Masons Arms  Thorpe Hesley,S61 2RP,53.4612,-1.4340
The Bay Horse,S61 2RQ,53.45565100000000,-1.41532200000000
kimberworth park rotherham,S61 3AX,53.4494,-1.4011
Tuck In Cafe,S61 3QY,53.44368000000000,-1.39227100000000
THE MILTON ARMS,S61 4DY,53.45669400000000,-1.37439000000000
The Mill Dam,S61 4HH,53.45436200000000,-1.37889700000000
WJ CAFE,S61 4RN,53.4449,-1.3526
Parkgate Fisheries ,S62 6DX,53.45198200000000,-1.34383000000000
The Fitzwilliam Arms Hotel,S62 6EE,53.45014900000000,-1.34729200000000
Starbucks Rotherham DT,S62 6EJ,53.4495,-1.3414
Starbucks,S62 6EJ,53.44987660000000,-1.34013050000000
Greetings cafe,S62 6EQ,53.45109600000000,-1.34462700000000
Urban Fresh Burgers & Fries,S62 6FP,53.44752290000000,-1.34714790000000
George's 2019 Ltd,S62 6HG,53.45260400000000,-1.34912100000000
Jump INCflated,S62 6JQ,53.44713400000000,-1.34515400000000
earl grey,S62 6NE,53.45913800000000,-1.34408200000000
Big bs,S62 7JW,53.46877670288090,-1.34462594985962
Le Bistro,S62 7TL,53.47855100000000,-1.41833800000000
Village Tea Room and Garden,S62 7TL,53.47855100000000,-1.41833800000000
THE GEORGE AND DRAGON,S62 7TN,53.47967000000000,-1.42103500000000
BaxterStorey,S63 5AD,53.49871826171880,-1.31273305416107
Compass Group at Capita House,S63 5DJ,53.50834900000000,-1.32929900000000
Manvers Lake Cafe,S63 7DG,53.50683500000000,-1.33665100000000
KFC,S63 7DQ,53.50777200000000,-1.33693800000000
G J’s Cafe,S63 7EE,53.5026,-1.3277
Coffee St.,S63 7FN,53.51051200000000,-1.35636300000000
ONYX FISH BAR & GRILL,S63 7FN,53.51051200000000,-1.35636300000000
Thai Garden Cage Limited,S63 7FN,53.51018142700200,-1.35659396648407
Cafe Naaz ,S63 7LW,53.50197000000000,-1.34441600000000
KNEAD BAKERY,S64 0AJ,53.49767400000000,-1.28338500000000
Pekish Cafe & Desserts ,S64 0DB,53.49508380000000,-1.28136450000000
Pastures Lodge,S64 0JJ,53.49684700000000,-1.25828500000000
REEDS RESTAURANT,S64 0JJ,53.49684700000000,-1.25828500000000
The Manvers Arms,S64 0NL,53.51049300000000,-1.29407100000000
Foodiez Takeaway and Desserts,S64 8AA,53.48927900000000,-1.30016500000000
The Little Siam Tea Room,S64 8AP,53.48798500000000,-1.30326100000000
Spice lounge (Swinton) limited,S64 8DQ,53.48872800000000,-1.32303800000000
Kings Head Swinton,S64 8EE,53.48684500000000,-1.32864300000000
Broadway Diner,S64 8HD,53.4833,-1.3265
The Alder Tree,S64 8HD,53.48340920000000,-1.32648470000000
Cinimon,S64 8PP,53.48702800000000,-1.30868700000000
Potteries tea rooms,S64 8QA,53.48748900000000,-1.31546100000000
Tea or coffee,S64 9AB,53.49361400000000,-1.29141100000000
Rosie's Tea Shoppe,S64 9AU,53.4938,-1.2910
30 Mexborough tearooms,S64 9AW,53.49343109130860,-1.28802299499512
W S Pettit & Co,S64 9AW,53.49343200000000,-1.28802300000000
The Corner Cafe,S64 9DG,53.49300500000000,-1.29017100000000
Empire Bingo Mexborough,S64 9JB,53.49332500000000,-1.29411500000000
GOA SPICE,S64 9JB,53.49353060000000,-1.29264580000000
The Old College Coffee Shop and dining room,S64 9JP,53.49546310000000,-1.28467430000000
Casper’s Coffee House ,S64 9LL,53.49287730000000,-1.28515490000000
Wetherspoon,S64 9QA,53.49280800000000,-1.28740100000000
E'lupos Restaurant,S65 1BL,53.43614400000000,-1.35376800000000
CORNER CAFE ,S65 1EL,53.4324,-1.3544
Buzz Bingo,S65 1EN,53.44158000000000,-1.32731000000000
KFC Fitzwilliam Road,S65 1EN,53.4416,-1.3266
Taco Bell,S65 1EN,53.4416,-1.3266
Ginge's Snap,S65 1EQ,53.43218000000000,-1.35387400000000
YOH BURGER (ROTHERHAM),S65 1PX,53.43689346313480,-1.34585404396057
CLARKY'S SANDWICH SHOP,S65 2DE,53.43715000000000,-1.33075200000000
bay tree bistro ltd,S65 3HU,53.42345300000000,-1.30595600000000
mark woodward t/a brecks social club,S65 3HZ,53.4215,-1.3069
McDonald's Dalton - Rotherham Drive Thru,S65 3SR,53.44486600000000,-1.32834200000000
McDonalds Restaurants,S65 3SR,53.44486600000000,-1.32834200000000
earl of strafford,S65 4PF,53.46751000000000,-1.27315200000000
Seven Seas Limited,S66 1AG,53.41994700000000,-1.28746000000000
Ewans,S66 1DY,53.4108,-1.2748
McDonald's Bramley - Bawtry Rd,S66 1YY,53.42196400000000,-1.25420100000000
McDonalds,S66 1YY,53.42196400000000,-1.25420100000000
Chaudrys Restaurant Ltd,S66 2BW,53.42182500000000,-1.28437400000000
Gas Lamp Wickersley Limited,S66 2BW,53.4218,-1.2844
The Courtyard ,S66 2BW,53.42182500000000,-1.28437400000000
The Olive Lounge Wickersley Limited,S66 2BW,53.42182500000000,-1.28437400000000
The Three Tuns,S66 7QT,53.43607000000000,-1.17008000000000
Grazing Harts ,S66 7RR,53.44684219360350,-1.22687399387360
The Haynook,S66 8HZ,53.42932500000000,-1.21349600000000
The Cove Coffee House,S66 8LF,53.4233,-1.2036
Roche Abbey English Heritage,S66 8NW,53.40442400000000,-1.18501500000000
Hellaby Hall Hotel ,S66 8SN,53.42517400000000,-1.24011900000000
The Croft Steakhouse ltd,S66 9AN,53.3981,-1.2627
The Greasy Spoon,S66 9DD,53.3942,-1.2572
Waterfall Elior,S7 1BE,53.36642700000000,-1.47665600000000
Da Silva Restaurant ,S7 1DU,53.36171722412110,-1.48096704483032
Da Silva Restaurant,S7 1DU,53.36171722412110,-1.48096704483032
Nether Edge Pizza,S7 1FF,53.36418700000000,-1.47639800000000
Four corners cafe,S7 1FH,53.36329400000000,-1.47770200000000
Dead Donkey Bar,S7 1FL,53.36243440000000,-1.47826770000000
LA MAMA (SHEFFIELD) LIMITED,S7 1FL,53.36182500000000,-1.47875600000000
gj coffee shop ltd,S7 1FL,53.36182403564450,-1.47875595092773
Cole's Corner,S7 1FN,53.36066000000000,-1.47955200000000
The Broadfield,S7 1FR,53.35839900000000,-1.48261500000000
Barrowboy,S7 1FS,53.36008453369140,-1.47933399677277
Meraki Restaurant,S7 1FS,53.36001100000000,-1.47934900000000
Picture House Social ,S7 1FS,53.36001200000000,-1.47934900000000
Pizza Hut,S7 1FS,53.36001200000000,-1.47934900000000
Casa mia,S7 1LJ,53.3668,-1.4807
Mercure Sheffield Kenwoodhall Hotels and Spa,S7 1NQ,53.36461900000000,-1.49091000000000
Waterfall Elior,S7 1RB,53.35773100000000,-1.48400500000000
Homemade by Thelmas Ltd,S7 1RU,53.35873600000000,-1.48803400000000
The vintage tearoom,S7 1TB,53.35611343383790,-1.48436999320984
Watefall Elior,S7 1TD,53.35696600000000,-1.48396900000000
northtown kitchen ,S7 2BE,53.3549,-1.4854
Kia’s Pastaria ,S7 2BG,53.35355000000000,-1.48582800000000
Ajanta’s Vegetarian ,S7 2BL,53.35200200000000,-1.48755900000000
Waterfall Elior,S7 2DY,53.35245600000000,-1.49276700000000
Away We Go,S7 2EF,53.35315000000000,-1.49961000000000
Coffee Boy,S70 1GW,53.55232740000000,-1.47943100000000
Jar Bar,S70 1GW,53.55186500000000,-1.47887350000000
Khao Niew Thai Cafe,S70 1GW,53.55215835571290,-1.47859597206116
MEZE TURKISH KITCHEN,S70 1GW,53.5522,-1.4786
Rajah foods limited ,S70 1GW,53.5522,-1.4786
McDonalds,S70 1LP,53.54928207397460,-1.48097002506256
Albert Street Cafe,S70 1RS,53.55139000000000,-1.47990300000000
Julie and Sue Catering Ltd t/a The Courtyard,S70 1RS,53.5514,-1.4802
Pinocchios Retaurant,S70 1RX,53.55118900000000,-1.47910500000000
Subway,S70 1SD,53.55438100000000,-1.47746600000000
Costa Coffee,S70 1SJ,53.55272200000000,-1.48035400000000
Chilli Restaurant,S70 1SN,53.55117600000000,-1.48053900000000
Grille Steakhouse,S70 1SN,53.5512,-1.4805
PJ CAFE,S70 1SN,53.5512,-1.4805
Pasha ,S70 1SN,53.5512,-1.4805
blackburns cafe,S70 1SN,53.55117700000000,-1.48053900000000
Chennells,S70 1SS,53.55173200000000,-1.48205700000000
Istanbul Kitchen and Bar,S70 1SW,53.55063300000000,-1.48166200000000
Green&Tasty,S70 1TH,53.54994300000000,-1.47587500000000
Bon appetit,S70 1TP,53.54891000000000,-1.47202500000000
Bombay Rasoi,S70 1YA,53.55219800000000,-1.48184000000000
Locke park cafe ,S70 1YG,53.54610200000000,-1.47931900000000
Evoo The Barzzeria,S70 2AB,53.55371480000000,-1.48117340000000
Favela Brazilian Grill,S70 2AB,53.55388641357420,-1.48139703273773
The White Bear,S70 2AH,53.5554,-1.4827
Estabulo Bar & Grill,S70 2HG,53.55484100000000,-1.48001100000000
Brasserie Ruelle,S70 2HT,53.55414800000000,-1.47950700000000
The Garrison,S70 2HZ,53.55380100000000,-1.48064200000000
Old George Coffee House,S70 2QE,53.55328200000000,-1.48116200000000
Angelini's ,S70 2QN,53.55347061157230,-1.48067700862885
Aroma Cafe Bar,S70 2QN,53.55347800000000,-1.48057100000000
The Victorian Tea Rooms,S70 2QN,53.55347800000000,-1.48057100000000
8oz Burger Co. Limited T/as Backyard BBQ,S70 2QP,53.5533,-1.4804
Cafe Creme Barnsley,S70 2QP,53.55329800000000,-1.48048300000000
Lemon Tree ,S70 2QT,53.55271100000000,-1.48193900000000
The Pavilion Bar and Kitchen,S70 2RD,53.55348790000000,-1.48694220000000
KFC,S70 2RL,53.55243800000000,-1.48544400000000
Taco Bell,S70 2RL,53.55258178710940,-1.48500502109528
Pieminister Barnsley,S70 2SW,53.5533,-1.4829
SUBWAY - BARNSLEY TRADE PARK,S70 3PB,53.5389,-1.4308
Cardamom Lounge,S70 3RH,53.54680900000000,-1.45040900000000
Boatmans rest ltd ,S70 4TD,53.52801100000000,-1.45561500000000
The Red Lion Country Inn,S70 5LJ,53.52638900000000,-1.47084100000000
Dale tavern,S70 5PG,53.52953300000000,-1.45829600000000
Dunkin Donuts Rockingham,S70 5TW,53.50148391723630,-1.47571897506714
Taco Bell,S70 5TW,53.50148391723630,-1.47571897506714
Travellers inn ,S70 5UX,53.5078,-1.4806
Hadley’s ,S70 6AP,53.54921200000000,-1.48975500000000
puccinis,S70 6HL,53.55227000000000,-1.49433700000000
Shaw Lane Sports Club,S70 6HZ,53.55038700000000,-1.49327200000000
Rob Royd Farm Shop Ltd,S70 6NW,53.53820700000000,-1.49115400000000
Metrodome Leisure Complex,S71 1AN,53.5532,-1.4735
Buzz Bingo,S71 1AY,53.55393600463870,-1.47626495361328
Subway,S71 1JE,53.5575,-1.4702
KFC Wakefield Road,S71 1NG,53.56808200000000,-1.47184600000000
KFC,S71 1NG,53.56808200000000,-1.47184600000000
Barnsley Bowl Ltd,S71 2AZ,53.57340800000000,-1.46285500000000
The Full House ,S71 2NW,53.56309500000000,-1.46017700000000
Audreys coffee house ,S71 5EZ,53.54197692871090,-1.40409898757935
The Mill of the Black Monks,S71 5QF,53.55292000000000,-1.44048800000000
Squires Bar,S73 0DA,53.52185500000000,-1.39780500000000
The Kitchen Witch Company,S73 0DA,53.5218,-1.3978
Wombwell Hillies Golf Course,S73 0LA,53.51644500000000,-1.39981200000000
The elephant and castle,S73 0NT,53.50654500000000,-1.40630000000000
Pizza Hut Restaurant,S73 0TB,53.50735800000000,-1.38925000000000
McDonalds,S73 0UF,53.51038360595700,-1.38667297363281
The Old Moor Tavern,S73 0YQ,53.5206,-1.3704
The Ash Inn,S73 8EP,53.53685900000000,-1.42200500000000
Coffee Thyme,S73 8HS,53.52349600000000,-1.40066300000000
Palace Balti Hut Ltd,S73 8HS,53.52349600000000,-1.40066300000000
The Courtyard ,S73 8HS,53.52349472045900,-1.40066301822662
Thai 25 Street Food Ltd,S73 8HT,53.52487770000000,-1.40315440000000
THAAL (SOUTH YORKSHIRE) LIMITED,S73 9HH,53.53612100000000,-1.36843700000000
Mumbai lounge (Barnsley) ltd,S73 9JA,53.53517900000000,-1.36191800000000
Hare & Hounds,S74 0DQ,53.49765014648440,-1.46644997596741
Saville Square,S74 0DQ,53.49765100000000,-1.46645000000000
The Keys,S74 0PY,53.49909400000000,-1.46952200000000
The Milton Arms,S74 8ES,53.49481600000000,-1.42485300000000
Elachi,S74 9AU,53.49957300000000,-1.43864300000000
Your Space Hoyland,S74 9EH,53.50043400000000,-1.44975700000000
Impeccable taste ,S75 1DL,53.5594,-1.4870
The Crown & Anchor,S75 1LL,53.57157400000000,-1.52900400000000
The Royal,S75 1LS,53.57382200000000,-1.52677500000000
ALAMS LOUNGE,S75 1PL,53.55760100000000,-1.52777100000000
Barnsley Hospice Appeal,S75 2RL,53.5601,-1.5147
Baxterstorey - Mercedes Benz,S75 3DH,53.49325561523440,-1.49096894264221
Tankersley Manor Hotel,S75 3DQ,53.48957000000000,-1.48694400000000
The Strafford Arms,S75 3EW,53.53018800000000,-1.51030400000000
Holiday Inn Barnsley,S75 3JT,53.54545900000000,-1.52337800000000
Dil Raj Restaurant,S75 3RF,53.54237200000000,-1.52483100000000
Locked in time antiques and vintage tea rooms ,S75 3RG,53.54163800000000,-1.52343600000000
Curry Mahal,S75 3RN,53.54327700000000,-1.52617900000000
Hotel ibis Styles Barnsley,S75 3TX,53.54932785034180,-1.51784098148346
The Spencer Arms,S75 4HL,53.56818000000000,-1.57053500000000
Beatson House Restaurant,S75 4HR,53.56905900000000,-1.57001300000000
rileys at the potting shed,S75 4JU,53.54802700000000,-1.56022000000000
The Bells Bar and Kitchen,S75 4LN,53.54562200000000,-1.56379100000000
The Fairway ,S75 4LS,53.5466,-1.5362
The Chillilodge ,S75 4RD,53.5303,-1.5665
Everest Tandoori,S8 0RL,53.35843900000000,-1.47543200000000
The vintage pantry,S8 0XL,53.36122800000000,-1.47583400000000
Virgin Active - Sheffield (Elior),S8 0XQ,53.35975646972660,-1.47875201702118
Virgin Active Sheffield,S8 0XQ,53.35975646972660,-1.47875201702118
The cosy tearoom ,S8 0YD,53.35998700000000,-1.47581900000000
Apna Style LTD,S8 0ZT,53.36367800000000,-1.47499200000000
Waterfall Elior,S8 9EH,53.35262900000000,-1.47864300000000
Waterfall Elior,S8 9HJ,53.35455100000000,-1.46603000000000
Waterfall Elior (Taylor Shaw),S9 1AN,53.41414300000000,-1.42666400000000
Waterfall Elior,S9 1AS,53.41149100000000,-1.42101300000000
SUBWAY - MEADOWHALL INTERCHANGE,S9 1BS,53.41044500000000,-1.42223000000000
Coffika Meadowhall,S9 1EH,53.41487121582030,-1.41013395786285
Pret A Manger,S9 1EH,53.41487121582030,-1.41013395786285
Starbucks Coffee Company,S9 1EH,53.41487100000000,-1.41013400000000
Caffe Rizzoli Prosecco Bar,S9 1EL,53.41487100000000,-1.41013400000000
Costa Coffee Cafe,S9 1EL,53.41487100000000,-1.41013400000000
Debenhams Restaurant Meadowhall,S9 1EL,53.41487100000000,-1.41013400000000
BARBURRITO,S9 1EP,53.41304900000000,-1.41247600000000
Barnis,S9 1EP,53.4141,-1.4128
Chaobaby,S9 1EP,53.41304900000000,-1.41247600000000
Costa Coffee,S9 1EP,53.41304900000000,-1.41247600000000
Five Guys,S9 1EP,53.41487100000000,-1.41013400000000
KFC Meadowhall,S9 1EP,53.4141,-1.4128
KFC,S9 1EP,53.41304900000000,-1.41247600000000
McDonald's The Oasis  Meadowhall,S9 1EP,53.4141,-1.4128
McDonalds Restaurants Ltd,S9 1EP,53.41304900000000,-1.41247600000000
Nando's Restaurant,S9 1EP,53.41304900000000,-1.41247600000000
Pizza Express,S9 1EP,53.41304900000000,-1.41247600000000
Pizza Hut,S9 1EP,53.41304900000000,-1.41247600000000
Subway Meadowhall Oasis,S9 1EP,53.4141,-1.4128
Tapas Revolution Sheffield,S9 1EP,53.41487100000000,-1.41013400000000
Tasty plaice,S9 1EP,53.41304900000000,-1.41247600000000
Wagamama,S9 1EP,53.41487100000000,-1.41013400000000
Wrapchic,S9 1EP,53.41487100000000,-1.41013400000000
Yangtze Sheffield,S9 1EP,53.4141,-1.4128
Zizzi,S9 1EP,53.41304900000000,-1.41247600000000
let's sushi,S9 1EP,53.41304900000000,-1.41247600000000
Caffe Nero,S9 1ER,53.41304900000000,-1.41247600000000
Starbucks,S9 1ER,53.41304900000000,-1.41247600000000
Subway Meadowhall High Street,S9 1ES,53.41241860000000,-1.41213880000000
Jump INC Sheffield,S9 1EW,53.41259002685550,-1.40682601928711
Waterfall Elior,S9 1LU,53.41879600000000,-1.42599900000000
Waterfall Elior,S9 1NR,53.42109200000000,-1.42673600000000
Simply Classic Pretty little thing,S9 1RF,53.40593719482420,-1.39417803287506
Waterfall elior,S9 1SG,53.41375160000000,-1.39646300000000
The Green Room,S9 1XH,53.39560100000000,-1.38545200000000
Waterfall Elior,S9 2AE,53.39837265014650,-1.42744696140289
Costa Coffee,S9 2DD,53.40260696411130,-1.41868197917938
Taco Bell,S9 2DD,53.40260696411130,-1.41868197917938
big filla ltd,S9 2DE,53.40116119384770,-1.41719698905945
Baxterstorey,S9 2EG,53.40680870000000,-1.41468420000000
39 Desserts Sheffield,S9 2EP,53.40130790000000,-1.41387100000000
Burger King,S9 2EP,53.40152900000000,-1.41498100000000
Five Guys JV Limited,S9 2EP,53.40152900000000,-1.41498100000000
Hollywood Bowl,S9 2EP,53.40152900000000,-1.41498100000000
Miller & Carter,S9 2EP,53.40152900000000,-1.41498100000000
Nando's,S9 2EP,53.40152900000000,-1.41498100000000
Pizza Express,S9 2EP,53.40152900000000,-1.41498100000000
Subway Centretainment,S9 2EP,53.40152740478520,-1.41498100757599
Wagamama Group Limited,S9 2EP,53.40152900000000,-1.41498100000000
Starbucks,S9 2FJ,53.40551530000000,-1.41658110000000
TGI Fridays Sheffield,S9 2YL,53.40994700000000,-1.40683300000000
tinsley subway,S9 2YL,53.4095,-1.4077
McDonald's Meadowhall Retail Park  near Valley Centertainment,S9 2YZ,53.40519300000000,-1.41240400000000
McDonalds Restaurant,S9 2YZ,53.40519300000000,-1.41240400000000
Pizza Hut Restaurant,S9 2YZ,53.40519300000000,-1.41240400000000
BAIG COFFEE N CREAM,S9 3FR,53.3882,-1.4204
BAIG DESSERTS PARLOUR,S9 3FR,53.3882,-1.4204
Courtyard Cafe-Bar,S9 3QS,53.39267300000000,-1.43320800000000
La Vlad Restaurant,S9 3RA,53.39243900000000,-1.43503000000000
Big Baps Sandwich Shop ,S9 3RN,53.39337100000000,-1.43247700000000
Indus The Restaurant Limited,S9 3RP,53.39403200000000,-1.43167100000000
PRIY EATERY,S9 4AD,53.3813,-1.4000
Waterfall Elior,S9 4GQ,53.37990500000000,-1.41747200000000
waverley road cafe,S9 4PJ,53.38523600000000,-1.40833400000000
Waterfall Elior,S9 5EF,53.39455600000000,-1.41719700000000
Subway,S9 5HZ,53.38732200000000,-1.40841000000000
Cara Restaurants Limited McDonalds 1189,S9 5PA,53.39117000000000,-1.40870200000000
McDonalds Restaurant,S9 5PA,53.39117000000000,-1.40870200000000
