name,postcode,lat,lon
BROADWAY CAFE,DN16 2JP,53.5669,-0.6468
Carvers Fish Restaurant,DN16 2RX,53.5666,-0.6520
Clay Oven Scunthorpe Limited,DN16 2RY,53.5671,-0.6521
MC Gourmet Ltd,DN16 2SD,53.5669,-0.6508
Marks gluten free treats,DN16 2SF,53.5655,-0.6499
Coffee at 43 ltd,DN16 2SS,53.5670,-0.6486
Mint Leaf,DN16 3LG,53.5583,-0.6519
The Pink Pig Farm,DN16 3RE,53.5448,-0.6294
KFC,DN16 3UA,53.5648,-0.6168
McDonald's,DN16 3UA,53.5648,-0.6168
subway,DN16 3UA,53.5648,-0.6168
Arcafe,DN17 1QL,53.5707,-0.6779
Ashby Decoy Golf Club,DN17 2AB,53.5640,-0.6902
South Park Cafe,DN17 2AU,53.5541,-0.6797
Four Season Coffee Shop at Silica Lodge Garden Centre,DN17 2BN,53.5602,-0.6820
subway,DN17 2SX,53.5506,-0.6719
Jenny wren public house ,DN17 3AS,53.5061,-0.7454
The Kitchen In The Boat Limited,DN17 3JT,53.5415,-0.7410
The Horn Inn ,DN17 3NU,53.5284,-0.6532
The Pantry (Messingham) Ltd,DN17 3RS,53.5297,-0.6545
Cafe1906,DN17 3SA,53.5329,-0.6547
JAAZ PAVILION,DN17 3SN,53.5300,-0.6522
Bird in the Barley ,DN17 3SQ,53.5396,-0.6543
Doubletree by Hilton Forest Pines Spa and Golf Resort,DN20 0AQ,53.5595,-0.5572
RED LION,DN20 0HY,53.5660,-0.5508
The Steel Rooms,DN20 8EQ,53.5524,-0.4939
Mumbai Lounge Brigg,DN20 8JD,53.5526,-0.4906
shipleys curiositeas,DN20 8JE,53.5521,-0.4905
The Deli and Diner Ltd,DN20 8JH,53.5523,-0.4911
The loft restaurant ,DN20 8JH,53.5523,-0.4911
Cafe Courtyard ,DN20 8LD,53.5517,-0.4933
Lord Nelson Hotel,DN20 8LD,53.5517,-0.4933
Yellowbelly Pizza Co,DN20 8LD,53.5517,-0.4933
China Royal Restaurant,DN20 8LN,53.5514,-0.4949
Harrison’s Hideaway ,DN20 8PD,53.5527,-0.5009
MILLERS BARN LTD,DN20 8RH,53.5636,-0.4650
SUTTON ARMS,DN20 9AN,53.5366,-0.5413
The Wheatsheaf (Hibaldstow) Ltd,DN20 9EB,53.5106,-0.5279
Brigg Garden Centre,DN20 9HE,53.5498,-0.4645
Arties Mill,DN20 9LF,53.5515,-0.5128
Black Horse Inn,DN21 3JX,53.4442,-0.7166
Three Horseshoes,DN21 3QX,53.4810,-0.6640
The Gamekeeper,DN21 3TW,53.4984,-0.6710
THE WHITE SWAN,DN21 3UD,53.4973,-0.6651
Uncle Henry's Farm Shop Butchery and Cafe,DN21 4JD,53.4503,-0.5655
THE SHIRES PUBLIC HOUSE (LINCOLNSHIRE) lIMITED,DN21 4JL,53.5003,-0.5735
THE TERRACE (KIRTON) LTD,DN21 4JR,53.4876,-0.5964
Cleatham Hall Hotel ,DN21 4JS,53.5057,-0.5963
Market café Scunthorpe ltd,DN21 4LJ,53.4782,-0.5834
Masey’s cafe restaurant ltd,DN21 4LJ,53.4782,-0.5834
The George Kirton,DN21 4LX,53.4761,-0.5891
Shimla Spice,DN21 4LZ,53.4765,-0.5893
The Red Lion,DN21 4QR,53.4863,-0.5372
Fox and Hounds Country Inn Limited,DN21 5JX,53.3543,-0.6917
half moon inn ,DN21 5JZ,53.3508,-0.6856
The Cross Keys ,DN38 6AQ,53.5301,-0.3573
Hope Tavern,LN7 6AH,53.4621,-0.3554
