name,postcode,lat,lon
death adder and viper,LN11 1TB,53.360873836127600,0.096056078940511
Siskin and worm lizard,LN11 1TE,53.360873836127600,0.096056078940511
Logrunners and Vole,LN11 1TN,53.360873836127600,0.096056078940511
coral snake and Chipmunk,LN11 1TS,53.360873836127600,0.096056078940511
thorny devil and Herring gull,LN11 7DE,53.434639000000000,0.160206000000000
horned viper and indigo snake,LN11 7DJ,53.398279000000000,0.132837000000000
River dolphin and boa,LN11 7JE,53.461751365231300,0.080248940112808
wall lizard and horned toad,LN11 7LR,53.445623994496000,0.116520429831703
anaconda and Chickadee,LN11 7LW,53.460470000000000,0.109767000000000
alligator and bull snake,LN11 7QB,53.442879286178600,0.146891300447146
racer and mamba,LN11 7QP,53.446866295654500,0.139638006604762
horned viper and amethystine python,LN11 7QS,53.448925465202800,0.139623000000000
B and Guillemot,LN11 8HN,53.350703479058000,0.100785800366554
Boto and Komodo dragon,LN11 8TA,53.370858987386900,0.090082445730960
tree snake and giant tortoise,LN11 8TF,53.374596000000000,0.086717000000000
box turtle and Thrasher,LN11 8TU,53.362804079061500,0.100298988102101
bearded dragon and flying lizard,LN12 1NJ,53.364096000000000,0.218755000000000
Snipe and box turtle,LN12 1NN,53.370382958716300,0.220961070174491
tortoise and Coati,LN12 1NP,53.371674338784600,0.224996986041600
milk snake and Schneider python,LN12 1NW,53.373444056519900,0.225555290155038
Grackle and horned toad,LN12 1NZ,53.350164509800000,0.252575047100000
chuckwalla and Greenbul,LN12 1PG,53.379481722899600,0.214653507732322
Old World vulture and turtle,LN12 1QY,53.350859051429800,0.252897206444601
snapping turtle and gavial,LN12 1RB,53.350209636843400,0.253959819485828
