name,postcode,lat,lon
rattlesnake and Duck,BT69 6AA,54.413985000000000,-6.974941000000000
Cuscus and Dolphin,BT69 6AD,54.413964000000000,-6.970600000000000
Tahr and Fox,BT69 6DN,54.450632000000000,-6.981518000000000
monitor and terrapin,BT69 6DP,54.411260000000000,-6.969636000000000
milk snake and coral snake,BT70 2DD,54.469972000000000,-7.084486000000000
smooth snake and tokay,BT70 2EP,54.462364000000000,-7.026102000000000
Capuchin and flying dragon,BT70 2EY,54.462307000000000,-7.024561000000000
grass snake and box turtle,BT70 2JH,54.468883000000000,-7.032751000000000
Badger and Recurvebill,BT70 2JX,54.479902000000000,-6.988057000000000
blue racer and leathery turtle,BT75 0AD,54.358570000000000,-7.341506000000000
Jerboa and American sparrow,BT75 0SB,54.375911000000000,-7.322888000000000
king cobra and Herring gull,BT76 0AJ,54.410715000000000,-7.173136000000000
flying dragon and flying dragon,BT76 0AN,54.415811000000000,-7.160480000000000
horned toad and chameleon,BT76 0AQ,54.414683000000000,-7.168587000000000
puff adder and Tattler,BT76 0AR,54.412826000000000,-7.162697000000000
New World blackbird and coral snake,BT76 0AX,54.415823000000000,-7.161895000000000
Warbler and Hawk,BT76 0DW,54.459326000000000,-7.186109000000000
rat snake and chameleon,BT76 0UF,54.438912000000000,-7.257072000000000
Civet and lizard,BT77 0AB,54.429739000000000,-7.131425000000000
Schneider python and puff adder,BT77 0AP,54.429746000000000,-7.131427000000000
Kestrel and Gila monster,BT77 0DF,54.442602000000000,-7.140062000000000
diamondback and Crow,BT77 0EY,54.428556000000000,-7.129385000000000
sand lizard and Maya,BT78 1LA,54.537105000000000,-7.294744000000000
bearded dragon and Wader,BT78 1QJ,54.538753000000000,-7.319359000000000
puff adder and Mole,BT78 1UT,54.478855000000000,-7.244082000000000
Chipmunk and garter snake,BT78 2AY,54.495644000000000,-7.321295000000000
Zebra and Chicken,BT78 2BU,54.499635000000000,-7.315348000000000
taipan and worm lizard,BT78 2FF,54.502561000000000,-7.314665000000000
kabaragoya and flying lizard,BT78 2HD,54.453793000000000,-7.299461000000000
Philippine hawk-owl and Guillemot,BT78 2NX,54.486597000000000,-7.335376000000000
Moluccan boobook and Skunk,BT78 2PR,54.512935000000000,-7.265300000000000
Civet and bull snake,BT78 2PX,54.515526000000000,-7.273421000000000
python and Partridge,BT78 2QH,54.517590000000000,-7.236541000000000
bandy-bandy and Mockingbird,BT79 0QJ,54.523894000000000,-7.178647000000000
Diving bird and viper,BT79 0RP,54.536590000000000,-7.165817000000000
Gila monster and Crow,BT79 0TQ,54.547002000000000,-7.164584000000000
Black jay and Bronzewing pigeon,BT79 0UP,54.529484000000000,-7.212748000000000
amethystine python and galliwasp,BT79 0XT,54.532220000000000,-7.230570000000000
Mole and hognose snake,BT79 0YB,54.515918000000000,-7.228329000000000
Old World quail and Pratincole,BT79 9JE,54.526511000000000,-7.086372000000000
