name,id,postcode,lat,lon
Ice seal and Cuscus,1735457,BT78 3TG,54.465229000000000,-7.539199000000000
sand viper and whip snake,1938700,BT94 4AU,54.329864000000000,-7.464242000000000
wall lizard and Coati,1735459,BT78 3TJ,54.464911000000000,-7.521915000000000
monitor and Chipmunk,1938544,BT94 2DA,54.415738000000000,-7.569942000000000
Civet and horned toad,1748313,BT94 2AB,54.421514000000000,-7.593731000000000
diamond snake and Prion,1735412,BT78 3QJ,54.440057000000000,-7.437191000000000
Parrotlet and chuckwalla,1735209,BT78 2QH,54.517590000000000,-7.236541000000000
rat snake and Rabbit,1903462,BT74 4HX,54.325028000000000,-7.576607000000000
diamondback terrapin and Fulmarine petrel,1735146,BT78 2JE,54.507530000000000,-7.282270000000000
adder and Peafowl,1903482,BT74 4RF,54.354580000000000,-7.596266000000000
lizard and Fish eagle,1703622,BT74 4EN,54.355894000000000,-7.608081000000000
blue tongue and Schneider python,1748424,BT94 3HS,54.383542000000000,-7.463052000000000
chuckwalla and water snake,1938489,BT94 1HG,54.449828000000000,-7.614476000000000
indigo snake and Tree warbler,1938607,BT94 3AF,54.352409000000000,-7.571066000000000
Kangaroo and diamondback,1735156,BT78 2JW,54.470154000000000,-7.375608000000000
gecko and Minke whale,1735392,BT78 3PG,54.474122000000000,-7.450372000000000
diamondback and Treepie,1748423,BT94 3HJ,54.403479000000000,-7.435503000000000
galliwasp and Puffleg,1748342,BT94 2FX,54.425005000000000,-7.589937000000000
perentie and Philippine hawk-owl,1938658,BT94 3EP,54.399673000000000,-7.486489000000000
Tit-tyrant and dukite,1735203,BT78 2QA,54.521884000000000,-7.264400000000000
Darwin's finches and Shearwater,1706494,BT94 5BJ,54.339400000000000,-7.520942000000000
Towhee and kabaragoya,1738083,BT79 0XY,54.527184000000000,-7.215434000000000
gopher snake and Bunting,1735042,BT78 1UX,54.483858000000000,-7.225521000000000
Solitaire and Old World warbler,1735478,BT78 3UQ,54.481518000000000,-7.594183000000000
Hawk and Mink,1739747,BT74 4AR,54.357558000000000,-7.609160000000000
Myna and Mouse,1706364,BT94 4BY,54.328369000000000,-7.369380000000000
Mouse and Flameback,1735199,BT78 2PU,54.510318000000000,-7.278361000000000
kabaragoya and ringhals,1735168,BT78 2LP,54.509564000000000,-7.382137000000000
harlequin snake and glass snake,1735347,BT78 3JQ,54.512434000000000,-7.470052000000000
anaconda and Peafowl,1739791,BT74 4GJ,54.382103000000000,-7.615421000000000
cobra and Meadowlark,1903439,BT74 4FE,54.368205000000000,-7.515083000000000
Gila monster and Buzzard,1735279,BT78 3BX,54.549262000000000,-7.506029000000000
Towhee and jew lizard,1735458,BT78 3TH,54.469096000000000,-7.532722000000000
skink and viper,1739757,BT74 4BW,54.366101000000000,-7.597446000000000
Philippine hawk-owl and tokay,1706397,BT94 4GE,54.334828000000000,-7.356844000000000
Jay and Francolin,1939382,BT94 4SL,54.328010000000000,-7.473750000000000
Guillemot and galliwasp,1734672,BT75 0SR,54.359627000000000,-7.347642000000000
Wader and Maya,1735404,BT78 3PX,54.453399000000000,-7.393053000000000
Ground sloth and cerastes,1735374,BT78 3LZ,54.518447000000000,-7.536343000000000
goanna and Ground sloth,1739778,BT74 4EQ,54.327989000000000,-7.615632000000000
Bunting and Cloud rat,1735332,BT78 3HU,54.501214000000000,-7.455874000000000
terrapin and bicycle lizard,1748335,BT94 2EZ,54.417894000000000,-7.601715000000000
hawksbill and Grouse,1748230,BT94 1GP,54.458385000000000,-7.616602000000000
copperhead and garter snake,1938656,BT94 3EL,54.359550000000000,-7.576052000000000
tortoise and Prion,1706330,BT94 3LY,54.378809000000000,-7.461206000000000
Partridge and Warbler,1701983,BT78 3EF,54.510361000000000,-7.446473000000000
Eagle and River dolphin,1748340,BT94 2FS,54.403930000000000,-7.539530000000000
blue tongue and Polecat,1903377,BT74 0BD,54.356207000000000,-7.593990000000000
boa constrictor and Mole,1735185,BT78 2NR,54.493603000000000,-7.323812000000000
gaboon viper and Marmoset,1737854,BT79 0BP,54.497587000000000,-7.220633000000000
Black jay and Cloud rat,1734970,BT78 1QJ,54.538753000000000,-7.319359000000000
Stilt and frill-necked lizard,1734965,BT78 1QD,54.531712000000000,-7.294607000000000
loggerhead and Grouse,1735075,BT78 2BL,54.496526000000000,-7.315277000000000
Mole and Logrunners,1738078,BT79 0XS,54.526197000000000,-7.232753000000000
constrictor and Grackle,1735403,BT78 3PW,54.465730000000000,-7.425023000000000
python and Thrasher,1748426,BT94 3JA,54.385233000000000,-7.485746000000000
brown snake and agamid,1735135,BT78 2HQ,54.492767000000000,-7.308303000000000
boa and king cobra,1747597,BT93 0DT,54.546758000000000,-7.576831000000000
hoop snake and wall lizard,1748415,BT94 3GA,54.375705000000000,-7.393583000000000
pit viper and Fox,1735338,BT78 3JB,54.512835000000000,-7.461619000000000
Booted eagles and constrictor,1735330,BT78 3HS,54.482226000000000,-7.442904000000000
water snake and worm lizard,1938579,BT94 2FU,54.417134000000000,-7.539120000000000
blue tongue and Mamo,1938655,BT94 3EJ,54.362123000000000,-7.408289000000000
slowworm and tuatara,1735113,BT78 2EN,54.473279000000000,-7.263373000000000
Solitaire and Macaw,1748341,BT94 2FW,54.422203000000000,-7.551758000000000
Chickadee and Cuscus,1735462,BT78 3TP,54.487134000000000,-7.530109000000000
black snake and blue racer,1735439,BT78 3SD,54.426518000000000,-7.504798000000000
Skunk and caiman,1735207,BT78 2QF,54.527619000000000,-7.260682000000000
Grosbeak and monitor,1747585,BT93 0DA,54.547515000000000,-7.573024000000000
garter snake and turtle,1703608,BT78 3BP,54.548695000000000,-7.443064000000000
Guillemot and leathery turtle,2595852,BT75 0TF,54.401124000000000,-7.251887000000000
swift and boa,1706329,BT94 3LX,54.380392000000000,-7.459600000000000
