name,postcode,lat,lon
gopher snake and carpet snake,BT22 1AY,54.443168000000000,-5.476918000000000
leguaan and Fish eagle,BT22 1BE,54.498121000000000,-5.473207000000000
habu and Chicken,BT22 1DJ,54.491341000000000,-5.456552000000000
Darwin's finches and Piping shrike,BT22 1DR,54.481830000000000,-5.495232000000000
smooth snake and Night heron,BT22 1DZ,54.461470000000000,-5.445434000000000
B and whip snake,BT22 1EL,54.464038000000000,-5.447514000000000
asp and ringhals,BT22 1EQ,54.456104000000000,-5.451476000000000
mud turtle and Rat,BT22 1FE,54.459403000000000,-5.448972000000000
Treepie and Meadowlark,BT22 1FY,54.482704000000000,-5.443291000000000
puff adder and monitor,BT22 1GA,54.442406000000000,-5.467805000000000
Chipmunk and Herring gull,BT22 1GP,54.476349000000000,-5.509437000000000
Logrunners and Shearwater,BT22 1GQ,54.465182000000000,-5.439510000000000
Rabbit and Black jay,BT22 1GX,54.435546000000000,-5.476831000000000
galliwasp and Mockingbird,BT22 1LF,54.379208000000000,-5.545483000000000
Duck and indigo snake,BT22 1LG,54.380246000000000,-5.544867000000000
galliwasp and copperhead,BT22 1LN,54.382087000000000,-5.546805000000000
Mamo and carpet snake,BT22 1NA,54.383516000000000,-5.543055000000000
Myna and Piping shrike,BT22 1PT,54.381952000000000,-5.539745000000000
pit viper and Black jay,BT22 1QN,54.434627000000000,-5.522436000000000
Old World quail and Petrel,BT22 1QP,54.388011000000000,-5.461104000000000
Solitaire and cayman,BT22 1RG,54.338715000000000,-5.500176000000000
flying dragon and Siskin,BT22 1RH,54.379978000000000,-5.542947000000000
Kangaroo and Tit-tyrant,BT22 1RR,54.383585000000000,-5.536999000000000
Warbler and Grackle,BT22 1SG,54.458576000000000,-5.444118000000000
anole and Grackle,BT22 2LE,54.548896000000000,-5.490440000000000
Recurvebill and Grosbeak,BT22 2ND,54.539018000000000,-5.556108000000000
tree snake and deaf adder,BT22 2PU,54.543237000000000,-5.487511000000000
Dolphin and Dolphin,BT22 2SL,54.487552000000000,-5.534888000000000
Parrotlet and Old World vulture,BT22 2SR,54.487959000000000,-5.534123000000000
leathery turtle and sea snake,BT22 2UT,54.489114000000000,-5.535055000000000
gecko and rattlesnake,BT22 2WA,54.490644000000000,-5.535813000000000
Fish eagle and Marsh harrier,BT30 7LF,54.367071000000000,-5.556272000000000
Ground sloth and Treepie,BT30 7LZ,54.369442000000000,-5.557392000000000
iguana and saltwater crocodile,BT30 7NE,54.371352000000000,-5.555354000000000
