name,postcode,lat,lon
Out to Lunch,CA20 1PG,54.419213000000000,-3.500704000000000
The Parkhead Inn,CA22 2RP,54.471887562260500,-3.521783828113950
Queens Hotel,CA27 0DE,54.491590544418800,-3.590094443371220
The Manor Inn,CA27 0DE,54.491590544418800,-3.590094443371220
The Yellow Earl Limited,CA28 7AH,54.547532250678700,-3.586642335757990
The Rooftop Cafe Dixons Department Store,CA28 7AL,54.547301000000000,-3.587221000000000
Cross's Coffee Shop,CA28 7AU,54.547286000000000,-3.589740000000000
sugar tongue cafe,CA28 7AU,54.547286000000000,-3.589740000000000
GEORGIAN HOUSE HOTEL ,CA28 7AY,54.547618399561500,-3.588980249236740
La Venue,CA28 7DG,54.547845772968800,-3.588092361796870
The Whittington Cat,CA28 7DG,54.547845772968800,-3.588092361796870
Cafe O'Hare Limited,CA28 7DP,54.548517345615600,-3.588968815119110
Taste at market place ,CA28 7HZ,54.546189364686200,-3.591027280995220
Costa Coffee Whitehaven 2,CA28 7JD,54.547290823200300,-3.590652720121540
Number 11 market place ,CA28 7JD,54.547290823200300,-3.590652720121540
Costa Coffee Whitehaven ,CA28 7JH,54.548078000000000,-3.590359000000000
The Vagabond,CA28 7LL,54.548731000000000,-3.590539000000000
Zest Whitehaven Ltd,CA28 7LR,54.547929732324300,-3.591960835704240
Casa a Roma ,CA28 7QF,54.548215798488900,-3.586607027460350
CLEAVER'S WINE & DINE LTD,CA28 7RB,54.546927191179900,-3.585490234735840
Castle Knights,CA28 7RP,54.543810450312900,-3.582586677606280
McDonald's Restaurants,CA28 7RW,54.544252000000000,-3.583261875559160
The Chase Hotel,CA28 8AA,54.542887507270700,-3.580419000000000
The Globe,CA28 8QX,54.536684128720200,-3.567455000000000
Summergrove Halls,CA28 8XZ,54.528934255591600,-3.550763818048410
