name,id,postcode,lat,lon
leguaan and black snake,1498146,CA20 1DY,54.457454965289100,-3.462673854257500
Egret and sea snake,1499143,CA19 1YL,54.393857873419800,-3.378515191277860
Goose and pit viper,1498283,CA20 1NL,54.396001491265100,-3.478400269812880
hoop snake and Gila monster,1497633,CA22 2PG,54.479814745011900,-3.495159685755680
Pitohui and deaf adder,1498040,CA20 1AF,54.429328041897000,-3.468901570740050
green turtle and amethystine python,932697,LA21 8BP,54.342009000000000,-3.104084367725850
habu and perentie,932628,LA20 6EE,54.362947952237500,-3.177417337454490
Triller and Solitaire,1498205,CA20 1JY,54.400783781592900,-3.473781000000000
Tahr and New World blackbird,1498141,CA20 1DQ,54.444320000000000,-3.487984460966340
cobra de capello and alligator,1497872,CA23 3AT,54.544470606098900,-3.402372154478800
constrictor and snapping turtle,1498224,CA20 1LY,54.400446335700000,-3.476542103259310
swift and copperhead,1497388,CA26 3PQ,54.546990134915200,-3.488602574108680
Boto and American sparrow,1497498,CA26 3XY,54.547993780625900,-3.436073185877900
loggerhead and Old World quail,1499091,CA19 1UT,54.406869328410400,-3.392094086687170
Rat and Pheasant,1499130,CA19 1XS,54.382858308649700,-3.451965981090600
milk snake and Flameback,1497387,CA26 3PP,54.542931536871500,-3.491932993176910
constrictor and puff adder,1501340,CA13 9UZ,54.541204739277600,-3.276913315371480
gopher snake and Songlark,1497382,CA26 3PG,54.545348655471500,-3.489795025742380
Perching duck and blue racer,1499052,CA18 1SJ,54.354648154685100,-3.408469722197340
Chipmunk and gecko,1498312,CA20 1PZ,54.395031673499300,-3.484187730605370
Shearwater and carpet snake,1497496,CA26 3XU,54.549049139182800,-3.446314476288890
B and lizard,1497392,CA26 3PU,54.542485802459100,-3.492365024291830
puff adder and Rabbit,932689,LA21 8BB,54.338105894064400,-3.103247238015400
carpet snake and giant tortoise,1498186,CA20 1HX,54.416893654337800,-3.432579665083010
agamid and diamond snake,1498282,CA20 1NJ,54.395823758758300,-3.477500485120400
Petrel and Jackal,1499129,CA19 1XR,54.377779445402800,-3.443026086636930
