name,postcode,lat,lon
Stilt and gecko,FK17 8AL,56.245157000000000,-4.223742000000000
water snake and blue racer,FK17 8ES,56.240371812644200,-4.197804735568790
Peafowl and sand viper,FK17 8JR,56.236468961248300,-4.214573004223760
sea snake and Mamo,FK17 8LY,56.237474356859000,-4.194976108432700
Stilt and whip snake,FK8 3ER,56.134741832569600,-4.232248615618710
Triller and agamid,FK8 3LP,56.115378446048500,-4.292366667433300
Asiatic leopard and Egret,FK8 3NU,56.116531000000000,-4.285470000000000
milk snake and Bunting,FK8 3NY,56.109399667849500,-4.294423628268740
Warbler and bull snake,FK8 3NZ,56.111387767258700,-4.288510268710560
Tattler and Bronzewing pigeon,FK8 3RR,56.151737527961200,-4.378099631102090
habu and Condor,FK8 3RS,56.147074277819000,-4.377569983475190
tokay and River dolphin,FK8 3RU,56.148965000000000,-4.370860000000000
Mamo and Booted eagles,FK8 3SU,56.179793681483800,-4.380560189171590
giant tortoise and blindworm,FK8 3TG,56.178471485284600,-4.415347076500720
Gull and Schneider python,FK8 3TJ,56.185075071260900,-4.454682343960220
mamba and Buzzard,G63 0AA,56.069197181902800,-4.435209174059750
Hawk and Fox,G63 0AY,56.065078000000000,-4.451821000000000
saltwater crocodile and worm lizard,G63 0BH,56.065019335148300,-4.446946858061340
rock snake and thorn lizard,G63 0HW,56.068179056385400,-4.479105042209750
cycling lizard and Buzzard,G63 0JB,56.072043000000000,-4.472061990788720
bearded lizard and mud turtle,G63 0LS,56.089167538358200,-4.229803427665960
Towhee and Parakeet,G63 0PA,56.072608528953400,-4.334046298550900
horned toad and tiger snake,G63 0PR,56.070826332921300,-4.328957500285710
frilled lizard and thorny devil,G63 0PX,56.069552621882700,-4.332998000000000
hoop snake and blind snake,G63 0XA,56.052660941036500,-4.222592000000000
White ibis and Condor,G63 0XB,56.052993121121500,-4.222398875911290
