name,postcode,lat,lon
dugite and mamba,FK8 3SD,56.152766342556600,-4.393234953000760
Ground sloth and Civet,G63 0AJ,56.098663716193800,-4.552814999345060
iguana and worm lizard,G63 0AU,56.073145000000000,-4.496812000000000
Komodo dragon and Chicken,G63 0DL,56.069037364720600,-4.454158845899260
rock snake and Logrunners,G63 0JU,56.104388000000000,-4.606565266093170
White ibis and garter snake,G63 0NQ,56.081469000000000,-4.411698000000000
crocodile and swift,G63 0PE,56.072307000000000,-4.334301000000000
Boto and Dolphin,G63 0QJ,56.070525174742000,-4.326818393770620
asp and Hawaiian honeycreeper,G63 0QR,56.082048000000000,-4.337253000000000
lizard and Thicketbird,G63 0QS,56.080040043893700,-4.331404000000000
deaf adder and Old World warbler,G63 0QW,56.079409654216200,-4.362502414499320
bicycle lizard and swift,G63 0RN,56.066254181858600,-4.335959536502020
slowworm and Elephant,G63 0SA,56.074400773828100,-4.376690461250660
Kākāriki and Meadowlark,G63 0TE,56.071332811047400,-4.337343447794730
Civet and green turtle,G63 0TH,56.070565624789600,-4.336091909953550
taipan and tortoise,G83 7DG,56.207405000000000,-4.706776851342380
tiger snake and Fish eagle,G83 7DN,56.219184663308500,-4.698248418485930
cayman and Partridge,G83 8NQ,56.052661000000000,-4.530693000000000
tortoise and milk snake,G83 8NT,56.073417919660600,-4.638614356934680
cerastes and Polecat,G83 8RH,56.060100531104400,-4.647278765827060
