name,id,postcode,lat,lon
hognose snake and coral snake,208975,TD14 5LN,55.848249326656400,-2.223551712463530
diamondback and grass snake,209317,TD11 3XA,55.801214575495600,-2.212562306252380
adder and tree snake,208531,TD15 1TW,55.776834558588400,-2.147706031503100
American sparrow and tiger snake,209299,TD11 3UH,55.801856075266100,-2.210492050911290
Flameback and Schneider python,208966,TD14 5LA,55.852416000000000,-2.204648000000000
Schneider python and Perching duck,209444,TD10 6YS,55.751579000000000,-2.414367000000000
Booted eagles and Polecat,209229,TD11 3QL,55.770892841299300,-2.367439107841480
Rat and Eagle,209002,TD14 5NW,55.885362540424500,-2.155887901083100
galliwasp and amethystine python,1218759,EH42 1SW,55.972183767675600,-2.465398390548400
cobra de capello and turtle,209122,TD14 5QQ,55.840983000000000,-2.127798000000000
Snipe and taipan,2647753,TD14 5FA,55.850368000000000,-2.207439000000000
tuatara and bicycle lizard,209487,TD11 3DG,55.779231888921400,-2.345452805899870
racer and Siskin,1218968,EH42 1EF,55.957591380320500,-2.451177082603330
grass snake and Coati,1218709,EH42 1QU,55.968609000000000,-2.409443000000000
iguana and gavial,209582,TD11 3LR,55.778204000000000,-2.330713000000000
mud turtle and death adder,209353,TD11 3YU,55.799497990372400,-2.227849949087440
constrictor and bearded lizard,209618,TD11 3PW,55.791417505586600,-2.325004073968230
milk snake and water snake,209505,TD11 3EE,55.779418197723700,-2.343094912657380
smooth snake and monitor,1760557,TD11 3SS,55.798995191878300,-2.214129000000000
