name,postcode,lat,lon
kabaragoya and cerastes,DD8 3TZ,56.721370633209900,-2.954771766103980
Tree warbler and Grackle,DD8 4BJ,56.673406368665600,-3.001552000000000
Schneider python and diamond snake,DD8 4DQ,56.673892000000000,-2.996840368555650
White ibis and Thicketbird,DD8 4GS,56.675477597481200,-3.005247211912840
flying dragon and krait,DD8 4HE,56.673576677953700,-3.007008025912000
snake and monitor,DD8 4LH,56.680759731073300,-2.975958557788140
slowworm and bearded lizard,DD8 4NG,56.679650000000000,-3.013634000000000
Warbler and Black jay,DD8 4PS,56.682137591618300,-3.006028627100320
Solitaire and boa,DD8 4TL,56.682860162063000,-2.999975594768770
Thicketbird and green turtle,DD8 4TU,56.677450000000000,-3.016790000000000
Chickadee and gavial,DD8 5AE,56.672458947772400,-3.012999877558320
turtle and Grackle,DD8 5BB,56.662520000000000,-3.038380000000000
boomslang and Bronzewing pigeon,DD8 5HZ,56.683732966568200,-3.142881929528600
Mink and Wader,DD8 5JG,56.665891735568300,-3.151462549275000
Fox and cobra de capello,DD8 5LJ,56.666212587211100,-3.034043348975540
cobra and death adder,DD8 5LP,56.662649519375600,-3.034679917555750
Ibex and Mamo,DD8 5NA,56.667230000000000,-3.042425000000000
Armadillo and diamond snake,DD8 5QH,56.674541192704500,-2.952950114333610
Grouse and gavial,PH10 7JT,56.651060119772700,-3.343992538747340
Petrel and habu,PH11 8PR,56.713328119649500,-3.228715413590710
