name,postcode,lat,lon
Hollytree Hotel,PA38 4BY,56.6779,-5.2375
Macariâ€™s Fish & Chip Shop,PH33 6AD,56.8169,-5.1130
Tavern Restaurant,PH33 6AD,56.8169,-5.1130
The Grog and Gruel ,PH33 6AD,56.8169,-5.1130
Garrison West,PH33 6AJ,56.8178,-5.1104
McDonald's Restaurant,PH33 6AN,56.8213,-5.1049
Alexandra Hotel Bistro,PH33 6AZ,56.8193,-5.1065
Ben Nevis Bar,PH33 6DG,56.8170,-5.1133
The Hot Roast Company Limited,PH33 6DG,56.8170,-5.1133
The Crofters Bar & Restaurant,PH33 6DH,56.8182,-5.1112
Imperial Hotel,PH33 6DW,56.8188,-5.1106
Black Isle Bar,PH33 6DY,56.8162,-5.1135
Chicago Heights,PH33 6EU,56.8193,-5.1091
Nevis Bank Hotel,PH33 6PF,56.8213,-5.0918
Cobbs Nevisport,PH33 6PU,56.8224,-5.0908
Lime Tree An Ealdhain,PH33 6RQ,56.8115,-5.1214
Clan MacDuff Hotel,PH33 6RW,56.7990,-5.1370
Creag Mhor Lodge,PH33 6RY,56.7026,-5.2048
THE ONICH HOTEL,PH33 6RY,56.7026,-5.2048
Loch Leven Hotel,PH33 6SA,56.6911,-5.1599
Inverlochy Castle,PH33 6SN,56.8481,-5.0493
Nevis Range Development Complany Ltd,PH33 6SQ,56.8553,-5.0156
Glen Nevis Restaurant and Bar,PH33 6SX,56.8038,-5.0726
Ben Nevis Inn ,PH33 6TE,56.8197,-5.0782
Ben Nevis Peaks Bar,PH33 6TG,56.8265,-5.0869
The Inn at Ardgour,PH33 7AA,56.7235,-5.2469
The Lochy Ltd,PH33 7HL,56.8427,-5.0993
Moorings Hotel,PH33 7LY,56.8474,-5.0934
Isles of Glencoe Hotel,PH49 4HL,56.6802,-5.1306
Coffee Shop Crafts & Things,PH49 4HN,56.6802,-5.1143
Glencoe Inn and Gathering,PH49 4HP,56.6831,-5.1057
Glencoe House,PH49 4HT,56.6849,-5.0980
Clachaig Inn,PH49 4HX,56.6737,-5.0729
Ballachulish Hotel,PH49 4JY,56.6876,-5.1845
