name,postcode,lat,lon
Wallaby and fer-de-lance,SA42 0LT,52.018210079050300,-4.828076481449860
bandy-bandy and diamond snake,SA42 0LX,52.017659545091400,-4.813144950026330
copperhead and Greenbul,SA42 0LZ,52.016720008814300,-4.802766325420010
galliwasp and River dolphin,SA42 0NA,52.013387713587500,-4.797296475099230
king snake and flying dragon,SA42 0RS,52.016226820636500,-4.842833095839500
giant tortoise and garter snake,SA42 0SP,52.007593000000000,-4.883206000000000
black snake and Badger,SA42 0ST,52.019570027088800,-4.853336441341010
Skunk and alligator,SA42 0TE,52.017442628745500,-4.834558126123190
carpet snake and horned viper,SA42 0TR,52.018063598135900,-4.831550965122240
diamondback turtle and loggerhead,SA42 0TW,52.016209000000000,-4.834655000000000
Francolin and mamba,SA42 0UX,52.012590331501000,-4.898277447256490
thorny devil and tokay,SA42 0YD,52.004926055183200,-4.938249093581790
Mink and goanna,SA43 3BP,52.066246000000000,-4.753265000000000
glass snake and Cuscus,SA43 3BX,52.074309479254400,-4.749105698054770
blue racer and Parrotbill,SA64 0BA,52.000982507175400,-4.998679455392140
Partridge and Mouse,SA64 0BL,52.003941896028200,-4.996895596209650
Ibex and loggerhead,SA64 0BX,52.010786798694300,-4.985897809551670
Masked owl and Grouse,SA64 0DH,52.004827896802300,-4.996007618681700
Eagle and whip snake,SA64 0DY,52.010912850785700,-4.990497156113930
Mockingbird and king snake,SA64 0EJ,52.001789818911900,-4.998762597917390
thorny devil and Eagle,SA64 0ET,52.003319431552500,-5.001910468205590
