name,postcode,lat,lon
Ground sloth and Chicken,SA41 3PL,52.026150161708800,-4.680910291735570
Solitaire and bull snake,SA41 3UW,52.017664198172600,-4.768950739883690
mud turtle and Darwin's finches,SA42 0NP,52.032345000000000,-4.818879000000000
Flameback and snake,SA42 0NQ,52.035822000000000,-4.792209000000000
Diving bird and gecko,SA42 0QE,52.011431904381800,-4.827211543257000
caiman and racer,SA42 0QX,52.006838887427200,-4.850223514073710
Tattler and Tattler,SA42 0RR,52.016595897510700,-4.837973608753900
galliwasp and Chipmunk,SA42 0SD,52.017361654991800,-4.903192152235440
pit viper and Fox,SA42 0TG,52.015518963118000,-4.835267247903540
Greenbul and Wallaby,SA42 0UJ,52.013572196065300,-4.892729567319690
Kestrel and Macaw,SA43 1AE,52.088636809846600,-4.655356661493440
horned viper and mud turtle,SA43 1AW,52.091095602046600,-4.655590334565930
constrictor and Bronzewing pigeon,SA43 1BG,52.088987686276100,-4.651756982163290
Puffleg and Condor,SA43 1DY,52.083839000000000,-4.658385000000000
boa and Parrotbill,SA43 1HY,52.081562193213500,-4.661607066929420
massasauga and Philippine hawk-owl,SA43 1JR,52.084026304117700,-4.660410815864390
Gull and cobra de capello,SA43 1QQ,52.132690222419500,-4.601453496132240
Asiatic leopard and moloch,SA43 1RB,52.101422003252900,-4.626998238337010
Darwin's finches and Argus,SA43 1RD,52.097946042791400,-4.619536824782060
Viscacha and moloch,SA43 2TP,52.042037000000000,-4.616790000000000
Siskin and gopher snake,SA43 2TU,52.028467380934600,-4.641656079727760
tortoise and black snake,SA43 3AD,52.080019398091700,-4.657048861429610
bearded lizard and Dorcopsis,SA43 3EF,52.082106079957000,-4.681242796624500
Old World warbler and Parrotlet,SA43 3JF,52.078810156479900,-4.681239000000000
harlequin snake and smooth snake,SA43 3LJ,52.088646121977300,-4.683912506268090
Cuscus and soft-shelled turtle,SA64 0BY,52.009148019909600,-4.987391756580390
gopher snake and swift,SA64 0EA,52.010132467519700,-4.990415935838190
tree snake and turtle,SA64 0EZ,52.004946911270200,-5.004744522647280
