name,postcode,lat,lon
grass snake and Viscacha,SA19 7JP,52.009354359994800,-4.011060534262190
bushmaster and Wallaby,SA19 7LZ,52.003517934362800,-4.036207907187060
terrapin and Meadowlark,SA19 7RT,52.042834054605400,-4.033955699900850
loggerhead and Booted eagles,SA19 8DG,52.027925000000000,-3.869096000000000
Armadillo and boa,SA19 8LJ,52.084960934274600,-3.972101707438860
Kangaroo and alligator,SA19 8NQ,52.096101877866200,-3.972636992779290
gaboon viper and terrapin,SA19 8PB,52.007419768458000,-3.876604313232830
gaboon viper and dugite,SA19 8PD,52.004005130728300,-3.866845714038370
sea snake and crocodile,SA19 8PL,52.036670142139200,-3.911275791911170
leguaan and habu,SA19 8TN,52.019172033616800,-3.953465582508680
Fish eagle and Macaw,SA19 8UG,52.029645000000000,-3.935263000000000
whip snake and rock python,SA19 8UW,52.046849782332400,-3.960462370733650
thorn lizard and cobra,SA19 8YL,52.055717122389000,-3.949546320971870
snapping turtle and Snipe,SA19 8YR,52.079279108120200,-3.932972874175860
Ground sloth and Wader,SA20 0PN,52.098750000000000,-3.826825000000000
Triller and loggerhead,SA20 0TA,52.041947463410600,-3.821678279423490
asp and Mamo,SA20 0UT,52.029646000000000,-3.775259000000000
Marmoset and Maya,SA39 9EB,52.029322000000000,-4.186922000000000
Siskin and tuatara,SA40 9QB,52.076532133464900,-4.157021284164390
puff adder and snake,SA40 9SE,52.064207154401100,-4.171527273151150
Kestrel and frilled lizard,SA40 9ST,52.089167201002200,-4.156959340975880
gaboon viper and Piping shrike,SA40 9UE,52.074606840017900,-4.161113000000000
galliwasp and River dolphin,SA48 7AJ,52.110500648657200,-4.077649734410580
Buzzard and mud turtle,SA48 7AS,52.111881144549200,-4.079042000000000
crocodile and hognose snake,SA48 7BU,52.112954977522200,-4.082262297413000
Polecat and water snake,SA48 7BZ,52.110931201879000,-4.081277088502650
hawksbill and box turtle,SA48 7EN,52.114813779925300,-4.084948789633460
Argus and Ice seal,SA48 7HE,52.112917743380300,-4.078258729126800
crocodile and Parrotlet,SA48 7HR,52.113703624277200,-4.073972070947920
Mouse and Coati,SA48 7LW,52.111787515679300,-4.182076725565670
New World blackbird and Recurvebill,SA48 8AX,52.142885892050800,-4.099179900077520
Prion and racer,SA48 8AZ,52.152307000000000,-4.120001000000000
Chipmunk and Polecat,SA48 8BS,52.118982505153100,-4.083123000000000
loggerhead and Marsh harrier,SA48 8BW,52.167678000000000,-4.100698000000000
Maya and blue racer,SA48 8EA,52.085121085508500,-4.085519921406200
horned viper and fer-de-lance,SA48 8HD,52.072662418829800,-4.030715096413700
frilled lizard and skink,SA48 8HH,52.091700138076000,-4.030090732387880
cayman and Wader,SA48 8NB,52.157353494613800,-4.032492981463160
Black cockatoo and Asiatic leopard,SA48 8PH,52.176640318018800,-4.108828405688830
Capuchin and Philippine hawk-owl,SA48 8QR,52.223055000000000,-4.070925000000000
Duck and coral snake,SY25 6RU,52.179185762058800,-3.957956000000000
cayman and Old World vulture,SY25 6RX,52.178883132498900,-3.955734067140110
Komodo dragon and amphisbaena,SY25 6SJ,52.196570940210600,-4.029643715059010
