name,postcode,lat,lon
Boto and Wallaby,LD2 3PE,52.168958000000000,-3.515896000000000
taipan and water snake,LD2 3PG,52.191136927716200,-3.530771000000000
Asiatic leopard and Fish eagle,LD2 3SG,52.209868124644600,-3.500310810203590
Zebra and turtle,LD4 4AF,52.133566253195200,-3.530590557134270
amphisbaena and constrictor,LD4 4AU,52.138361947368100,-3.523390313004080
sand viper and Vole,LD4 4BU,52.120220796283000,-3.532850018237850
lizard and thorn lizard,LD5 4RD,52.107983449849200,-3.638459878646940
amphisbaena and milk snake,LD5 4ST,52.106277888485400,-3.639550914893790
copperhead and Coati,LD5 4UT,52.148741696358400,-3.577121942523680
python and Petrel,LD5 4YB,52.148591098401300,-3.582992213107490
loggerhead and Booted eagles,SA19 8DG,52.027925000000000,-3.869096000000000
gaboon viper and terrapin,SA19 8PB,52.007419768458000,-3.876604313232830
gaboon viper and dugite,SA19 8PD,52.004005130728300,-3.866845714038370
sea snake and crocodile,SA19 8PL,52.036670142139200,-3.911275791911170
Ground sloth and Wader,SA20 0PN,52.098750000000000,-3.826825000000000
Tree warbler and milk snake,SA20 0RG,52.004887000000000,-3.747369000000000
Triller and loggerhead,SA20 0TA,52.041947463410600,-3.821678279423490
Elephant and Recurvebill,SA20 0UR,52.032207353939100,-3.765724368379900
asp and Mamo,SA20 0UT,52.029646000000000,-3.775259000000000
skink and anole,SA20 0YN,52.013363955846300,-3.747449000000000
