name,postcode,lat,lon
Macaw and fer-de-lance,SA19 7PE,52.012468279793300,-4.024023858089120
turtle and mountain devil,SA19 7SE,52.049568668391800,-4.026390000000000
gopher snake and Old World vulture,SA19 7SF,52.061048291579700,-4.040399813087320
diamondback terrapin and rock snake,SA19 8DB,52.014978029820700,-3.903734771103940
Piping shrike and Perching duck,SA19 8JD,52.083299544975200,-3.924666821496250
horned toad and Elephant,SA19 8JU,52.103642897284600,-3.985673572918440
boa constrictor and Masked owl,SA19 8JY,52.092936281450900,-3.992438830089000
Old World quail and Dorcopsis,SA19 8LZ,52.093184000000000,-3.975632000000000
Ground sloth and alligator,SA19 8PW,52.033867908035400,-3.902190121918530
Macaw and diamondback terrapin,SA19 8TE,52.031367989809000,-3.971637093893430
sand viper and constrictor,SA19 8UE,52.028583443588900,-3.951673000000000
diamondback turtle and turtle,SA20 0LF,52.037656332832400,-3.742173752229150
Dolphin and Mouse,SA20 0LP,52.057742724493300,-3.714657588542500
rock python and thorny devil,SA20 0TN,52.046305429897300,-3.837503058538190
Stint and elapid,SA20 0TY,52.014793000000000,-3.804208000000000
diamondback terrapin and Scimitar babbler,SA20 0YG,52.004627208943700,-3.787351881131510
Viscacha and Tit-tyrant,SA20 0YS,52.043143924951100,-3.727951274565180
Polecat and hawksbill,SA48 8HL,52.104338204225700,-3.997736703977000
Lemming and dugite,SA48 8HX,52.121698000000000,-4.034259000000000
green turtle and Wallaby,SY25 6AT,52.217904000000000,-3.941272000000000
tortoise and Schneider python,SY25 6HG,52.217494978242000,-3.939848671465040
Jay and Meadowlark,SY25 6JY,52.218184505597500,-3.936189585583430
Capuchin and viper,SY25 6PU,52.199963845730400,-3.988824236209170
leguaan and cerastes,SY25 6RX,52.178883132498900,-3.955734067140110
skink and blue tongue,SY25 6UG,52.201018377079100,-3.944999002454380
