name,id,postcode,lat,lon
Asiatic leopard and Chickadee,925789,LD5 4SD,52.114909000000000,-3.629951000000000
king cobra and bearded dragon,926924,LD2 3EB,52.146909759015800,-3.402610130609470
pit viper and Gila monster,411161,SA20 0UR,52.032207353939100,-3.765724368379900
Thicketbird and Perching duck,925699,LD4 4AR,52.134673506242000,-3.529795677292560
Shearwater and frilled lizard,926674,LD2 3RS,52.183526000000000,-3.429316000000000
coral snake and adder,925823,LD5 4UP,52.148241147936500,-3.578244281784250
cobra and bandy-bandy,926659,LD2 3PY,52.169022386585400,-3.427052280601540
python and flying lizard,926869,LD2 3AG,52.148142074647900,-3.403321177180080
alligator and Thicketbird,926689,LD2 3SL,52.205667542371000,-3.462894000000000
Siskin and Petrel,926653,LD2 3PR,52.183542428640500,-3.476050083924460
thorn lizard and Maya,925781,LD5 4RQ,52.107120089100700,-3.634587782690700
Dolphin and Minke whale,925770,LD5 4RA,52.107604692718600,-3.639833237596140
Treepie and horned viper,925788,LD5 4SB,52.123404290717700,-3.624125664508950
Vulture and whip snake,411160,SA20 0UP,52.041708432859800,-3.768329837736480
Komodo dragon and iguana,925791,LD5 4SF,52.131510585766100,-3.617217611589520
iguana and Macaw,926905,LD2 3DD,52.152459171927500,-3.409990711284180
smooth snake and Fulmarine petrel,927114,LD1 6LL,52.214764317011700,-3.442965314620970
Kangaroo and horned toad,926639,LD2 3NY,52.153236319969200,-3.458456624354670
Skunk and bearded dragon,925753,LD4 4ED,52.083479000000000,-3.600141000000000
American sparrow and River dolphin,411165,SA20 0UW,52.046642844848000,-3.770857947881960
thorny devil and anaconda,926532,LD2 3LU,52.179719392400400,-3.557975357385610
tuatara and Chickadee,926967,LD2 3EU,52.149879091489500,-3.395600078697580
constrictor and agamid,925697,LD4 4AN,52.134984517246800,-3.560943205230180
Warbler and leguaan,926631,LD2 3NN,52.150763278762200,-3.416456006543400
Grosbeak and Goose,925792,LD5 4SG,52.136466602684800,-3.616432763360920
Jerboa and Marsh harrier,926872,LD2 3AL,52.148565882090200,-3.405483000109080
Thrasher and asp,925805,LD5 4TH,52.109833394619200,-3.649582437735330
Jackal and glass snake,926649,LD2 3PL,52.205691665481100,-3.544556659295360
Mouse and American sparrow,927113,LD1 6LH,52.214198419262200,-3.442185836149280
Chickadee and snake,926662,LD2 3RB,52.180075146340200,-3.442029000000000
Chipmunk and cobra de capello,926711,LD2 3TP,52.162286000000000,-3.380491000000000
Songlark and leguaan,927164,LD1 6NE,52.212880004409000,-3.438235106496210
Asiatic leopard and Perching duck,926697,LD2 3SW,52.180765173113200,-3.441805805813370
