name,postcode,lat,lon
agama and Partridge,LD1 5SF,52.162044098946900,-3.281535920747670
sand viper and Meadowlark,LD1 6HW,52.213640296252300,-3.438377242036000
Herring gull and racer,LD1 6LS,52.216282352847600,-3.440877392328740
Ice seal and Parrotbill,LD2 3AD,52.148359519820900,-3.403181860253100
Civet and diamondback terrapin,LD2 3AL,52.148565882090200,-3.405483000109080
Armadillo and bicycle lizard,LD2 3BB,52.148489000000000,-3.402115042210060
python and Pitohui,LD2 3BD,52.149183000000000,-3.402821000000000
Solitaire and snake,LD2 3BJ,52.038607964834700,-3.371529987056200
Gull and Asiatic leopard,LD2 3BU,52.151558749713600,-3.407842849232280
Cuscus and monitor,LD2 3ES,52.149779188133200,-3.395684649900930
Kangaroo and Capuchin,LD2 3ET,52.150015118884400,-3.395502020869610
Triller and Hawaiian honeycreeper,LD2 3EY,52.150124528627300,-3.395373897808750
rattlesnake and gopher snake,LD2 3EZ,52.078710240492900,-3.319437483020770
Stint and Schneider python,LD2 3HD,52.131070000000000,-3.420521000000000
flying dragon and elapid,LD2 3LA,52.113322179685400,-3.429274024153150
Fox and American sparrow,LD2 3NT,52.154928000000000,-3.448981000000000
Capuchin and hognose snake,LD2 3NW,52.157423000000000,-3.423494000000000
ringhals and Masked owl,LD2 3PA,52.153552000000000,-3.459958000000000
Jerboa and Maya,LD2 3RA,52.179545237497200,-3.442307498161080
horned toad and water snake,LD2 3RP,52.180441369636100,-3.450614884586750
rattlesnake and Chipmunk,LD2 3RU,52.193214535096700,-3.433225678544430
Herring gull and Rabbit,LD2 3TW,52.196889423939400,-3.409553120780450
diamondback and Tree warbler,LD2 3UD,52.156764000000000,-3.376739000000000
flying lizard and blind snake,LD2 3YJ,52.100727805226000,-3.313152382803510
caiman and ringhals,LD2 3YW,52.138050377437400,-3.377710276991540
Condor and Mouse,LD3 0HP,52.005877757118200,-3.248018815931160
Chickadee and Stint,LD3 0LG,52.007585000000000,-3.246507000000000
loggerhead and Chipmunk,LD3 0LL,52.012474148456100,-3.238949823116330
Parrotbill and crocodile,LD3 9RG,52.054585000000000,-3.448284000000000
Dolphin and agama,LD3 9RH,52.013057331525100,-3.417101000000000
fer-de-lance and Jackal,LD3 9TH,52.007023000000000,-3.353539821459340
leathery turtle and Coati,LD4 4DG,52.106325000000000,-3.564089000000000
Nukupu ªu and bearded dragon,LD5 4RT,52.108446741500900,-3.633584906224140
