name,postcode,lat,lon
THE YEW TREE,CV47 2AS,52.14627075195310,-1.40400099754334
The Bell Inn,CV47 2BY,52.22483400000000,-1.38910100000000
The Wharf Inn,CV47 2FE,52.17530700000000,-1.37236300000000
The Merrie Lion,CV47 2YH,52.16844100000000,-1.39183200000000
The Butcher's Arms,CV47 7SN,52.20239700000000,-1.31133000000000
The Robin hood,MK18 5DN,52.01147900000000,-1.03119400000000
Fawsley Hall Hotel & Spa,NN11 3BA,52.2065,-1.1810
Old School Cafe,NN11 3RL,52.1711,-1.2059
Fox and Hounds,NN11 3YY,52.19989400000000,-1.21967200000000
The Plough Inn,NN11 6DH,52.17668900000000,-1.29846200000000
Hellidon Lakes Golf & Spa Hotel,NN11 6GG,52.21888351440430,-1.25163102149963
Red Lion at Hellidon,NN11 6LG,52.21899900000000,-1.24460200000000
Peggottys,NN12 8LB,52.18013100000000,-1.02602700000000
The Crown Inn Weston ltd,NN12 8PX,52.11716100000000,-1.14073300000000
The New Inn,NN12 8QT,52.1138,-1.0514
The Kings Head,NN13 5HW,52.06755400000000,-1.08045700000000
Crewe Arms,NN13 5NF,52.02681200000000,-1.18627800000000
Limes Farm Limited,NN13 5PB,52.05381900000000,-1.22204300000000
The Red Lion  Evenley,NN13 5SH,52.00819700000000,-1.14516600000000
Chilli and Pepper,NN13 6AU,52.02621000000000,-1.15187700000000
Dhan Shiri,NN13 6AU,52.02621000000000,-1.15187700000000
CURRY JUNCTION LTD,NN13 6BA,52.02734500000000,-1.15353200000000
Rossetti,NN13 6DF,52.02674900000000,-1.15064300000000
Brackley Leisure Centre,NN13 6JJ,52.0380,-1.1541
Brackley bar and grill,NN13 7AB,52.02676500000000,-1.14905400000000
Costa Coffee,NN13 7AB,52.02676500000000,-1.14905400000000
Hummingbirds Bistro Ltd,NN13 7AB,52.02676500000000,-1.14905400000000
The Courtyard Coffee House ,NN13 7AB,52.02676500000000,-1.14905400000000
Waterfall Elior Ltd,NN13 7BF,52.02857900000000,-1.14388800000000
The Greyhound Inn,NN13 7BW,52.03171900000000,-1.14417800000000
Ann's Fish Bar,NN13 7DP,52.02702200000000,-1.14980700000000
The Crown Hotel,NN13 7DP,52.0272,-1.1498
little istanbul restaurant,NN13 7DP,52.02702200000000,-1.14980700000000
The old fire station cafe,NN13 7DW,52.02947000000000,-1.14643700000000
The Green Room,NN13 7EP,52.0259,-1.1498
The Unicorn Hotel,NN13 7EP,52.02595138549800,-1.14985704421997
Brackley Central Cafe,NN13 7UG,52.03724570000000,-1.14099680000000
The Narrowboat at Weedon,NN7 4RZ,52.22272700000000,-1.06131400000000
The Barn ,NN7 4SH,52.20545500000000,-1.05768300000000
Oaks Coffee Shop,OX15 4AQ,52.03334200000000,-1.31843300000000
The Red Lion ,OX15 4LX,52.02009500000000,-1.37469600000000
The Horse & Groom Inn,OX15 4RS,52.00819300000000,-1.40796300000000
The Saye and Sele Arms,OX15 5ED,52.04216384887700,-1.38883900642395
The Dun Cow,OX15 6DA,52.1018,-1.4299
The Butchers arms,OX15 6JQ,52.07267300000000,-1.43341700000000
Wroxton House Hotel,OX15 6QB,52.07451000000000,-1.39237900000000
MERCURE WHATELY HALL HOTEL,OX16 0AN,52.06087400000000,-1.34114800000000
Woodgreen Leisure Centre,OX16 0HS,52.06180953979490,-1.35065901279449
La Foglia Ltd,OX16 0TB,52.06195449829100,-1.33998000621796
the church house,OX16 0TB,52.06195600000000,-1.33998000000000
Buzz Bingo,OX16 0TH,52.06322190000000,-1.33937880000000
White Horse,OX16 0TH,52.06283100000000,-1.33900400000000
Thai Orchid Restaurant,OX16 0TL,52.06196100000000,-1.33935300000000
Compass Group At William Morris County Primary School,OX16 0UZ,52.06740400000000,-1.36458300000000
KFC,OX16 1LX,52.07325580000000,-1.34099600000000
Pizza Hut Restaurant,OX16 1LX,52.07434844970700,-1.34195697307587
McDonalds Restaurants Ltd,OX16 1RH,52.07565000000000,-1.34180600000000
The Ally Cafe,OX16 2AA,52.08159255981450,-1.32928597927094
Waterfall Elior Limited,OX16 2AU,52.06421200000000,-1.33840000000000
Spiceball Leisure Centre,OX16 2BW,52.06473200000000,-1.33163900000000
The Three Pigeons Inn,OX16 2ED,52.06380500000000,-1.33948600000000
Tom's Diner ,OX16 2PQ,52.06378150000000,-1.33337520000000
Hillier Garden Centre Banbury,OX16 2PR,52.06479700000000,-1.33691800000000
Connect Catering,OX16 2RE,52.0671,-1.3375
McDonalds Restaurants Ltd,OX16 3AB,52.07289123535160,-1.31841504573822
Compass Group UK And Ireland At Karcher,OX16 3EL,52.07289123535160,-1.31841504573822
Norbar Torque Tools Ltd,OX16 3JU,52.07461547851560,-1.32416701316834
The pepperpot ,OX16 3WT,52.0671,-1.3202
THE BELL,OX16 4QJ,52.06299400000000,-1.32647100000000
Reg's Cafe,OX16 4SP,52.06215900000000,-1.31725100000000
Banbury Bowl,OX16 5BH,52.06068038940430,-1.33515703678131
Banbury Fish Bar,OX16 5BN,52.06108800000000,-1.33447900000000
Pizza Express,OX16 5ET,52.06017900000000,-1.33908700000000
Pizza Hut Delivery,OX16 5EX,52.05961300000000,-1.33909600000000
Cafe Nero,OX16 5JE,52.06199100000000,-1.33516500000000
Jennys Cafe,OX16 5JE,52.06199200000000,-1.33516600000000
Reg's Cafe,OX16 5LS,52.06143951416020,-1.33724594116211
The Wine Vaults,OX16 5LW,52.06218200000000,-1.33694300000000
Lenny's Cafe bar restaurant,OX16 5LY,52.06200920000000,-1.33796720000000
JAYPUR RESTAURANT,OX16 5NA,52.0622,-1.3385
The Old Auctioneer ,OX16 5NA,52.06216300000000,-1.33835800000000
Ye Olde Reine Deer Inn,OX16 5NA,52.06216300000000,-1.33835800000000
ALSO KNOWN AS,OX16 5NB,52.06255100000000,-1.33699600000000
New Mogul ,OX16 5NB,52.06255100000000,-1.33699600000000
Siam house,OX16 5NB,52.06255000000000,-1.33699500000000
Burger King,OX16 5NW,52.06233978271480,-1.33437299728394
MUFFIN BREAK,OX16 5UH,52.06277300000000,-1.33500800000000
Banbury House Hotel,OX16 9AH,52.05663100000000,-1.33954800000000
Wykham Park Retail Ltd,OX16 9UP,52.03916300000000,-1.35273700000000
The Chatsworth,OX16 9YR,52.0487,-1.3254
HERB CENTRE LTD,OX17 1DF,52.12704200000000,-1.40289900000000
The Kitchen at Farnborough,OX17 1DZ,52.14329900000000,-1.36867700000000
The Griffin Inn,OX17 1LB,52.13589300000000,-1.27093400000000
Red Lion ,OX17 1PB,52.11673800000000,-1.31660800000000
Canalside Cafe Cropredy,OX17 1PN,52.11469140000000,-1.31666920000000
Brasenose Arms,OX17 1PW,52.11534900000000,-1.31896600000000
three conies,OX17 2EX,52.09812700000000,-1.22639700000000
The George and Dragon,OX17 2JW,52.09050500000000,-1.28221200000000
New Inn,OX17 2ND,52.07108600000000,-1.26199600000000
The Butlers Pantry,OX17 2PB,52.07278800000000,-1.27394600000000
The star inn,OX17 2SA,52.10551834106450,-1.18610298633575
The Rose and Crown Charlton,OX17 3DP,52.01909300000000,-1.23254000000000
The Pickled Ploughman,OX17 3NL,52.01765441894530,-1.30194294452667
The Pig Place,OX17 3NU,52.00598600000000,-1.28272000000000
Butchers Arms,OX17 3RD,52.02211900000000,-1.27448900000000
The White Horse Kings Sutton,OX17 3RF,52.02086000000000,-1.27446600000000
