name,postcode,lat,lon
Espresso Library Limited,CB1 1BG,52.204688815749100,0.133209845351381
KFC CAMBRIDGE,CB1 1BG,52.204688815749100,0.133209845351381
Pepe's Piri Piri,CB1 1BG,52.204688815749100,0.133209845351381
The Snug Bar Grafton,CB1 1DB,52.205695552793300,0.134224032510790
VEGAN VICE,CB1 1DB,52.205695552793300,0.134224032510790
Cafe Arena,CB1 1DG,52.206096423401600,0.132940648633114
Coeur de France & Shanghai Family ,CB1 1DG,52.206096423401600,0.132940648633114
Subway,CB1 1DG,52.206096423401600,0.132940648633114
The Catch Fish and Chips,CB1 1DG,52.206096423401600,0.132940648633114
signrorelli's deli,CB1 1DG,52.206096423401600,0.132940648633114
The Tram Depot,CB1 1DY,52.204642577891300,0.132783202932416
LukThai at The Cricketers,CB1 1EQ,52.204373820266400,0.129243214796792
Nanna Mexico,CB1 1EW,52.206599797698900,0.130594000000000
Baan Thai Cambridge,CB1 1JH,52.203506226440500,0.126494250922124
Stem & Glory - Cambridge,CB1 1LH,52.207431022440900,0.122759138831292
Yippee Noodle Bar,CB1 1LH,52.207431022440900,0.122759138831292
Efes Restaurant,CB1 1LN,52.207297680825200,0.124172501830276
MAWSON VIEW LIMITED T/A RAJA RESTAURANT,CB1 1LN,52.207297680825200,0.124172501830276
Stolen,CB1 1LN,52.207297680825200,0.124172501830276
The Locker Cafe,CB1 1LN,52.207297680825200,0.124172501830276
Gonville Hotel,CB1 1LY,52.199816456525500,0.128659502446060
Savino's Cafe Bar Italiano,CB1 1NE,52.204348000000000,0.123271000000000
Subway,CB1 1NE,52.204348000000000,0.123271000000000
Cafe Abantu,CB1 1NL,52.207013000000000,0.121568000000000
NINE PARKER LTD TRADING AS SUSHIMANIA,CB1 1NP,52.205061335543700,0.123026704910699
Amelie Restaurants,CB1 1PS,52.206971581416700,0.133508000000000
Chi Street Food,CB1 1PS,52.206971581416700,0.133508000000000
The Burger Priest Cambridge,CB1 1PS,52.206971581416700,0.133508000000000
Yakut Restaurant,CB1 1PS,52.206971581416700,0.133508000000000
la piazza by signorelli,CB1 1PS,52.206971581416700,0.133508000000000
Mina steakhouse ,CB1 2AA,52.192379090757900,0.134495000000000
Noodles Plus,CB1 2AD,52.201236517133900,0.133673767435390
Tu Casa Restaurant,CB1 2AD,52.201236517133900,0.133673767435390
Al Casbah,CB1 2AS,52.200407548586000,0.135755992366112
Bibimbap House,CB1 2AS,52.200407548586000,0.135755992366112
Carlos BBQ,CB1 2AS,52.200407548586000,0.135755992366112
Maurizio Dining & Co,CB1 2AS,52.200407548586000,0.135755992366112
Modigliani ,CB1 2AS,52.200407548586000,0.135755992366112
Mr Ho's,CB1 2AS,52.200407548586000,0.135755992366112
Rotana cafe,CB1 2AS,52.200407548586000,0.135755992366112
Saman Restaurant limited ,CB1 2AS,52.200407548586000,0.135755992366112
Spring,CB1 2AS,52.200407548586000,0.135755992366112
PRANA INDIAN RESTAURANT,CB1 2AW,52.200519029624900,0.136551578612674
Scott's All Day,CB1 2AZ,52.199274825400700,0.140003000000000
Cambridge Gourmet Grill,CB1 2BD,52.199317183737100,0.138367041523248
Little Petra Ltd,CB1 2BD,52.199317183737100,0.138367041523248
The Devonshire Arms,CB1 2BH,52.197974573760300,0.138522086754603
YHA Cambridge,CB1 2DN,52.196784822611100,0.135699359335238
Salisbury Arms,CB1 2DW,52.198702679728700,0.135557177929252
Clayton Hotel Cambridge,CB1 2FB,52.194838000000000,0.134996606408530
Costa Coffee,CB1 2FF,52.192698032766800,0.133845000000000
Wasabi Sushi & Bento,CB1 2GA,52.194922000000000,0.136574000000000
NORFOLK STREET BAKERY AT STATION ROAD,CB1 2JB,52.195178560399500,0.131539934675815
Smokeworks Station Road,CB1 2JB,52.195178560399500,0.131539934675815
Tawa Kitchen,CB1 2JH,52.194352000000000,0.134573000000000
The Box Cafe ,CB1 2LD,52.204518555861600,0.136655643368047
Thrive plant-based Cafe & Bistro,CB1 2LD,52.204518555861600,0.136655643368047
Zhong Hua Snacks,CB1 2LD,52.204518555861600,0.136655643368047
EKO KITCHEN LIMITED,CB1 2LF,52.204594068848100,0.137947183994379
LH CB1 LTD,CB1 2LF,52.204594068848100,0.137947183994379
The Cambridge Blue,CB1 2LG,52.202975547405900,0.138937833581471
Hot Numbers coffee - Gwydir Street,CB1 2LJ,52.200519995958100,0.138483324608455
The Alexandra Arms,CB1 2LL,52.202713386432600,0.139510635346469
Black Cat Cafe,CB1 3AH,52.198016725610600,0.143631122929401
The Sea Tree,CB1 3AH,52.198016725610600,0.143631122929401
Tradizioni Restaurant,CB1 3AH,52.198016725610600,0.143631122929401
The Empress,CB1 3AX,52.200300550147100,0.148087345991065
The Edge Cafe,CB1 3DF,52.197121883745700,0.150802126619824
Subway,CB1 3ET,52.204989000000000,0.144508000000000
196 ,CB1 3NF,52.197334576675500,0.145350000000000
Limoncello (Cambridge) Ltd,CB1 3NF,52.197334576675500,0.145350000000000
Relevant Record Cafe,CB1 3NF,52.197334576675500,0.145350000000000
Tzatziki,CB1 3NL,52.196952213119300,0.149710000000000
THE BROOK PUB ,CB1 3NW,52.196080810474500,0.155127028236544
The Dumpling Tree Bar & Restaurant,CB1 3RX,52.188407203957800,0.152853950767070
Costa Coffee,CB1 7AA,52.188732763984000,0.138767000000000
Rock of virtue EAT out ,CB1 7AA,52.188732763984000,0.138767000000000
Hot Spot Cambridge Limited,CB1 7DY,52.191403000000000,0.136962005329437
Nines Global Buffet,CB1 7DY,52.191403000000000,0.136962005329437
Pizza 1889 Cambridge Leisure Park,CB1 7DY,52.191403000000000,0.136962005329437
Rockers Steakhouse,CB1 7DY,52.191403000000000,0.136962005329437
SUBWAY STORE (29712),CB1 7DZ,52.189388171482000,0.136983420957439
Clip 'n Climb Cambridge,CB1 7EB,52.191995382722500,0.138000980167036
Rainbow Rocket,CB1 7ED,52.192876039679700,0.139023557178414
The coffee house ,CB1 8QJ,52.180916979298700,0.151863152738276
The Queen Edith Pub,CB1 8QN,52.181364414903900,0.152967214211892
The Queen Edith Public House,CB1 8QN,52.181364414903900,0.152967214211892
INDISH,CB1 9HX,52.186724588943100,0.173020046377714
The Red Lion ,CB1 9JP,52.186891648083300,0.171272630020526
The Cross Keys,CB10 1AX,52.023436541250800,0.238807728821450
The Eight Bells,CB10 1BU,52.025284340901900,0.236684321868702
Saffron Walden Golf Club ,CB10 1BX,52.025544000000000,0.233062106557889
Old English Gentleman,CB10 1EJ,52.021714359373700,0.240470816367826
Subway ,CB10 1EJ,52.021714359373700,0.240470816367826
MOCHA CAFE DINER LTD,CB10 1ER,52.022923482562800,0.239306847892331
the trawlerman chippy ltd,CB10 1ER,52.022923482562800,0.239306847892331
Cafe CouCou Ltd,CB10 1EW,52.022775034811900,0.239547227080457
TEAAMO,CB10 1EX,52.022979844931400,0.240125934004254
Gluttons ,CB10 1HE,52.023391279060900,0.240714975318092
ANGELA REED,CB10 1HQ,52.024112474791700,0.240619838796494
The Kings Arms,CB10 1HQ,52.024112474791700,0.240619838796494
The Market House,CB10 1HQ,52.024112474791700,0.240619838796494
Tiptree Tea Room at The Courtyard,CB10 1JH,52.023862774456500,0.242170000000000
The Restaurant on Church Street,CB10 1JW,52.024134200653600,0.239686000000000
Bicicletta Coffee con Velo,CB10 1JZ,52.023012852118600,0.240977000000000
THE CROWN AND THISTLE,CB10 1PL,52.063826453385400,0.202734231594378
The Plough,CB10 1PL,52.063826453385400,0.202734231594378
The Red Lion,CB10 1QY,52.084866527167900,0.181658000000000
THE PLOUGH BAR & GRILL LTD,CB10 2TL,52.011394023192700,0.351479446264964
The Gate Inn,CB11 3AG,52.019545893798000,0.250914852000411
Audley End Miniature Railway Ltd,CB11 4JB,52.018800778383600,0.220532524455045
The Bell Inn,CB11 4JY,52.005458210272000,0.199822925563497
AZ Cambridge ,CB2 0AA,52.174443000000000,0.135112000000000
Abcam,CB2 0AX,52.173220000000000,0.136338000000000
Royal Voluntary Service,CB2 0QQ,52.173741000000000,0.139114000000000
Doppleganger,CB2 1AB,52.201015473610200,0.125994840152615
Nanna Mexico,CB2 1AB,52.201015473610200,0.125994840152615
Noodle Republic/Rallycart LTD,CB2 1AB,52.201015473610200,0.125994840152615
Parker's Tavern,CB2 1AD,52.202183000000000,0.125376000000000
De Luca Cucina & Bar,CB2 1AW,52.200312000000000,0.126730749204950
KIM'S BULGOGI,CB2 1AW,52.200312000000000,0.126730749204950
Charlie Chan Restaurant,CB2 1DB,52.201729121204900,0.124814245414610
NOVI,CB2 1DB,52.201729121204900,0.124814245414610
The Tiffin Truck,CB2 1DB,52.201729121204900,0.124814245414610
1 and 1 Rougamo ,CB2 1DP,52.200172301561100,0.126249000000000
Bould Brothers Coffee,CB2 1DP,52.200172301561100,0.126249000000000
Little Seoul,CB2 1DP,52.200172301561100,0.126249000000000
Seven days,CB2 1DP,52.200172301561100,0.126249000000000
The Olive Grove,CB2 1DP,52.200172301561100,0.126249000000000
The house authentic thai restaurant,CB2 1DP,52.200172301561100,0.126249000000000
The Oak Bistro,CB2 1EG,52.198681954086100,0.125751760920074
Yim Wah Express,CB2 1EG,52.198681954086100,0.125751760920074
The Snug Bar Lensfield Road,CB2 1EN,52.197900994555500,0.123680477321223
The Alma,CB2 1HW,52.196159001027900,0.126041079356624
Cambridge Blues Sandwitches ,CB2 1LA,52.196901637454300,0.129237223971055
Costa Coffee,CB2 1LA,52.196901637454300,0.129237223971055
La Maison du Steak,CB2 1PG,52.193359263745100,0.133194065494789
The Earl of Derby,CB2 1PG,52.193359263745100,0.133194065494789
Hot Numbers Coffee - Trumpington Street,CB2 1QA,52.199234000000000,0.121608000000000
Hotel du Vin & Bistro Cambridge,CB2 1QA,52.199234000000000,0.121608000000000
Fitzwilliam Museum,CB2 1RB,52.199266298732400,0.120262765377778
Fitzbillies,CB2 1RG,52.202444000000000,0.118102000000000
Cambridge Hotel - (Riverside Brasserie),CB2 1RT,52.200231936919700,0.116562441296492
Cambridge Chop House,CB2 1SJ,52.204248000000000,0.117812976957803
Copper Kettle,CB2 1SJ,52.204248000000000,0.117812976957803
Ittou Noodle Bar,CB2 1SJ,52.204248000000000,0.117812976957803
Hong Kong Fusion Restaurant ,CB2 1TW,52.208040471888500,0.118367963105661
Le Patissier ltd,CB2 1TW,52.208040471888500,0.118367963105661
Bridges Cambridge,CB2 1UF,52.209013394067700,0.118117000000000
Chinese Canteen,CB2 1UJ,52.209617319240600,0.117184197991939
CrepeAffaire Cambridge,CB2 1UR,52.208029124375200,0.118750000000000
Fitzbillies,CB2 1UW,52.209491739954700,0.116474000000000
Galleria,CB2 1UW,52.209491739954700,0.116474000000000
Jamaica Blue Cambridge,CB2 3ET,52.204738676437500,0.121238000000000
itsu Cambridge,CB2 3HG,52.206259488042600,0.121032000000000
Harriets Cafe Tearooms,CB2 3JU,52.206812106480300,0.119173058113090
Tabanco,CB2 3JX,52.206518569371200,0.119088000000000
La Raza,CB2 3LL,52.206121000000000,0.118593424147537
McDonald's Rose Crescent,CB2 3LL,52.206121000000000,0.118593424147537
The gardenia ,CB2 3LL,52.206121000000000,0.118593424147537
B.Tap Baron,CB2 3NA,52.204785000000000,0.120959724677861
Nanna Mexico,CB2 3NB,52.205275118953400,0.120300000000000
Wasabi Sushi & Bento,CB2 3NB,52.205275118953400,0.120300000000000
Stazione restaurant,CB2 3NJ,52.205504717169600,0.119560000000000
Butch Annies,CB2 3PA,52.206056000000000,0.119796000000000
Ta Bouche,CB2 3PF,52.206271841741200,0.120027000000000
Vetomeato,CB2 3PF,52.206271841741200,0.120027000000000
Indigo Coffee House,CB2 3PJ,52.204735063011800,0.118166821845140
MBB Pubs Ltd (Trading as Pintshop),CB2 3PP,52.204438377537700,0.118664947205627
The Senate Bistro,CB2 3PQ,52.204986358980500,0.118193409934499
Smokeworks Free School Lane,CB2 3QA,52.203855978078800,0.118549429714770
Sticks 'n' Sushi Cambridge ,CB2 3QJ,52.204823965955800,0.119224803438048
BREAD & MEAT ,CB2 3QN,52.204103541209600,0.118444000000000
Expresso Lane,CB2 3RD,52.202273440106900,0.118666000000000
Hudsons Ale House,CB2 9HZ,52.175401000000000,0.112955455972882
The Lord Byron,CB2 9LA,52.174433422350400,0.111081423776822
The Black Bull Balsham,CB21 4DJ,52.131761931983900,0.317207145707881
The Bell Inn,CB21 4DZ,52.130336989747400,0.323357694376099
Dog & Duck,CB21 4HS,52.097091880207300,0.275915027926597
THE CROWN INN,CB21 4HS,52.097091880207300,0.275915027926597
The Linton Kitchen ,CB21 4HS,52.097091880207300,0.275915027926597
The Three Hills Bartlow,CB21 4PW,52.081395483333400,0.310816696560705
The Old Red Lion,CB21 4QF,52.099488000000000,0.349540000000000
The White Hart,CB21 5BZ,52.177293300065300,0.224557832364256
The Hat & Rabbit,CB21 5DZ,52.184674620648200,0.208190000000000
The Hole in the Wall ,CB21 5JY,52.202928430454200,0.253788000000000
The Chestnut Tree,CB21 5LT,52.138568367149700,0.348148070254127
Juice Bar The Apiary,CB21 6DH,52.113295000000000,0.224874000000000
The Apiary,CB21 6DH,52.113295000000000,0.224874000000000
Gog Magog Golf Club,CB22 3AB,52.165559234001100,0.161664956141653
The George Inn,CB22 3AG,52.130136077950200,0.208429332501962
Footprints Cafe Limited,CB22 3BG,52.123001000000000,0.169400358096906
The Kings Head,CB22 3BG,52.123001000000000,0.169400358096906
The Chequers,CB22 3ER,52.110463933358500,0.185525000000000
The Brickhouse coffee shop,CB22 3FD,52.124153740096000,0.169389970398976
McDonald's Whittlesford,CB22 3HD,52.104191891274700,0.175649256612890
Red Lion Hotel,CB22 4NL,52.104116975697300,0.163598501058723
Tickell Arms,CB22 4NZ,52.115109908747300,0.145142870617925
The John Barleycorn,CB22 4PP,52.096642000000000,0.158419000000000
The Mess Cafe,CB22 4QH,52.096144000000000,0.130947000000000
The Plough Duxford,CB22 4RP,52.091338430685300,0.157753932466174
The Lodge Duxford Hotel,CB22 4RT,52.088728756681800,0.156387224668122
Holiday Inn Express Cambridge Duxford,CB22 4WL,52.104804096324900,0.166333276486595
The Rose,CB22 5DG,52.144513076743900,0.146175841421446
Three Horseshoes ,CB22 5DS,52.145564000000000,0.147293000000000
Square and Compasses,CB22 5EH,52.148475529689100,0.133459592782335
THE NAVIGATOR,CB22 5ES,52.140846000000000,0.122280000000000
Mill View,CB22 5GA,52.151928000000000,0.092108000000000
Scotsdales Cafe Shelford,CB22 5JT,52.160902972688900,0.127956980116427
The Forum,CB22 5LZ,52.146605215753700,0.134948747479482
Quy Mill Hotel & Spa,CB25 9AF,52.217532612059300,0.217403796004925
The Punter ,CB3 0AE,52.211306769836600,0.112726884170211
La Margherita,CB3 0AF,52.210165688903200,0.115546000000000
The Architect,CB3 0AH,52.212429539602300,0.112794801981290
Sir Isaac Newton,CB3 0AJ,52.212997000000000,0.112822000000000
the castle inn,CB3 0AJ,52.212997000000000,0.112822000000000
Millworks,CB3 9EY,52.198997965883000,0.113062000000000
Rice Boat,CB3 9EY,52.198997965883000,0.113062000000000
Sala Thong Cambridge,CB3 9EY,52.198997965883000,0.113062000000000
The Red Bull Pizza Pub,CB3 9JZ,52.196891659494300,0.107258206362926
Orchard Tea Garden Limited,CB3 9ND,52.177546000000000,0.096427000000000
The Blue Ball Inn,CB3 9NQ,52.182949019493200,0.093916249775587
The Rupert Brooke,CB3 9NQ,52.182949019493200,0.093916249775587
Polonia Club Cambridge,CB4 1AS,52.215782393468400,0.131355244039494
Stir Cambridge Ltd,CB4 1BG,52.216100262209300,0.133171085108747
Royal Spice Indian & Bangladeshi cuisine ,CB4 1EH,52.213939000000000,0.125479977936151
The Old Spring,CB4 1HB,52.213798419350300,0.127688480360180
SUBWAY STORE (60278),CB4 1JY,52.215296321780300,0.125900929620700
The Haymakers,CB4 1NG,52.217014050689800,0.138821807840682
Cafe 121,CB4 1XE,52.220458000000000,0.133409000000000
The Portland Arms,CB4 3BA,52.214499838735700,0.124691801469370
Carpenters Arms,CB4 3DZ,52.215790801455100,0.116367000000000
IAA NOODLE BAR,CB4 3EF,52.215655915778200,0.121409279841176
Coffee Tree Cambridge,CB4 3JP,52.218164387906600,0.111398058871517
Cafe Foy ,CB5 8AB,52.209967704241900,0.117542000000000
Thaikhun,CB5 8AB,52.209967704241900,0.117542000000000
Bould Brothers Coffee ,CB5 8AD,52.208855780314700,0.119533783703293
The Maypole,CB5 8AF,52.209383904001600,0.118666068867703
The River Bar Steakhouse and Grill,CB5 8AQ,52.209998713429500,0.117978102779967
The Varsity Hotel,CB5 8AQ,52.209998713429500,0.117978102779967
SEVEN DAYS,CB5 8DZ,52.208185000000000,0.135851000000000
Burleigh Arms,CB5 8EG,52.208334261828300,0.133501579401112
Navadhanya,CB5 8EG,52.208334261828300,0.133501579401112
OtherSyde,CB5 8HN,52.212417827965200,0.142860654254592
Partyman World Cambridge,CB5 8HY,52.214878000000000,0.149069000000000
Corner House Pub,CB5 8JE,52.210293393917200,0.144968642641933
THE SEVEN STARS CAMBRIDGE,CB5 8JE,52.210293393917200,0.144968642641933
The Wrestlers,CB5 8JE,52.210293393917200,0.144968642641933
pipasha,CB5 8PA,52.212977552142900,0.157540449346913
Marshall,CB5 8RX,52.210173000000000,0.175204000000000
Red Lion Brinkley,CB8 0RA,52.168184840498700,0.376191591233379
Three Blackbirds,CB8 9SQ,52.196747119646200,0.426415392108369
KFC - Lordscroft Lane Haverhill,CB9 0ER,52.083628697707600,0.440022383462179
The Fox & Hounds ,CB9 7DQ,52.043599334332000,0.448851450583749
The Red Lion,CB9 7HA,52.106333708752000,0.468147967267626
Haverhill Golf Club,CB9 7UW,52.076307000000000,0.466082000000000
Nine Jars,CB9 8AA,52.082402000000000,0.438459414416002
Route 66 Haverhill ,CB9 8AR,52.081040480142600,0.440377433430166
Haven Cafe,CB9 8HB,52.083191394925300,0.436597000000000
Amberâ€™s cafe ,CB9 9EF,52.084014460551000,0.437459821961820
Dejavu sandwich bar cafe ,CB9 9EF,52.084014460551000,0.437459821961820
Doffy's tearoom,CB9 9EF,52.084014460551000,0.437459821961820
The Horse & Groom P/H,CM7 4HF,52.001849227604500,0.451743696407155
THE GREEN MAN,SG8 7RJ,52.098174696891700,0.095213000000000
The King William IV,SG8 8PN,52.036431485925000,0.083883612331180
The Red Cow,SG8 8RN,52.032198000000000,0.105658541852923
