name,postcode,lat,lon
BLAXHALL VILLAGE INN LTD,IP12 2DY,52.1597,1.4594
Butley Orford Oysterage,IP12 2LH,52.0945,1.5335
The Kings Head,IP12 2LW,52.0950,1.5341
The Oyster Inn ,IP12 3NZ,52.1064,1.4572
Cragg Sisters Tearoom ,IP15 5AB,52.1534,1.6018
Delphine's Diner,IP15 5AB,52.1534,1.6018
regatta restaurant,IP15 5AN,52.1507,1.6008
The Aldeburgh Market,IP15 5AQ,52.1513,1.6015
The Cross Keys,IP15 5BN,52.1530,1.6021
Waterfall Elior At Aldeburgh Primary School,IP15 5EU,52.1494,1.5982
Aldeburgh Cafe ,IP15 5JD,52.1569,1.5920
Aldeburgh Yacht Club,IP15 5NA,52.1414,1.5986
Aldeburgh Golf Club,IP15 5PE,52.1624,1.5806
Coffeelink ,IP16 4AE,52.2064,1.5791
Waterfall Elior At Alde Valley Academy,IP16 4BG,52.2032,1.5855
The Dolphin Inn,IP16 4FE,52.1817,1.6147
White Horse Hotel,IP16 4HD,52.2088,1.5747
Waterfall Elior At Leiston Primary Avocet Academy,IP16 4JS,52.2064,1.5906
Sizewell Sports & Social Club,IP16 4JX,52.2065,1.5841
The Kitchen Thorpeness,IP16 4NW,52.1787,1.6145
Alde Valley Foods Ltd,IP16 4PY,52.1936,1.5769
Sizewell Beach Cafe,IP16 4UH,52.2076,1.6210
The Bell at Sax ,IP17 1AF,52.2148,1.4919
Queenâ€™s head pub&restaurant,IP17 1DF,52.2142,1.4918
Aimes Ltd t/a Costa Coffee Saxmundham,IP17 1EP,52.2134,1.4930
Costa Coffee,IP17 1EP,52.2133,1.4932
Friday Street Farm Kitchen,IP17 1JX,52.1899,1.4707
the golden key,IP17 1SA,52.1717,1.5101
Snape Maltings Concert Hall,IP17 1SP,52.1640,1.4957
THE PLOUGH AND SAIL,IP17 1SR,52.1638,1.4963
The Butchers Arms,IP17 1UQ,52.1934,1.5628
Waterfall Elior At Coldfair Green Primary School,IP17 1UY,52.1911,1.5645
Waterfall Elior At Saxmundham Primary School,IP17 1XQ,52.2189,1.4847
