name,postcode,lat,lon
blindworm and gavial,TR4 8BZ,50.289835728593300,-5.225559110741760
harlequin snake and dugite,TR4 8DN,50.282671951118200,-5.209434368894920
deaf adder and boa constrictor,TR4 8JQ,50.283776666232800,-5.165915249296840
thorn lizard and skink,TR4 8TU,50.280269496590200,-5.203264047925010
Rabbit and viper,TR4 9LX,50.312831011646100,-5.150117345127410
Greenbul and Eagle,TR5 0AL,50.304455000000000,-5.201842000000000
Piping shrike and flying dragon,TR5 0NG,50.306608709935200,-5.214038796340790
Kangaroo and grass snake,TR5 0PG,50.297593995374200,-5.193194000000000
lizard and sea snake,TR5 0PT,50.297283059382900,-5.180926460357120
Mamo and Snipe,TR5 0QY,50.311887454370800,-5.197157991187450
smooth snake and Songlark,TR5 0TH,50.308944022903800,-5.203099050387940
Buzzard and leathery turtle,TR5 0UD,50.310747677067600,-5.199020069324500
Grosbeak and Asiatic leopard,TR5 0XN,50.311359804489700,-5.178691707681650
boomslang and Black jay,TR5 0XP,50.322815595261200,-5.189699925235440
wall lizard and Chicken,TR5 0YP,50.303854475328900,-5.194202985035290
Kestrel and goanna,TR6 0DS,50.344761413564300,-5.158571289165550
Chicken and taipan,TR6 0DU,50.346016551554000,-5.156742730661760
Macaw and tuatara,TR6 0EB,50.337942000000000,-5.170544000000000
diamondback turtle and anole,TR6 0EX,50.342775019698300,-5.150890733415920
amethystine python and jew lizard,TR6 0FE,50.342032391900000,-5.153428916300000
dukite and sea snake,TR6 0HB,50.341075078748400,-5.153196000000000
dukite and diamondback turtle,TR6 0JH,50.336854497044300,-5.160210936018580
death adder and Booted eagles,TR6 0JN,50.345248000000000,-5.155054960626570
Perching duck and Armadillo,TR6 0JW,50.345096000000000,-5.155585000000000
