name,postcode,lat,lon
American sparrow and Maya,PA20 0BU,55.837307105647300,-5.055365569141710
Bronzewing pigeon and Goose,PA20 0EZ,55.836785299757600,-5.058022000000000
agamid and frill-necked lizard,PA20 0HU,55.837353716127300,-5.057829353463620
fer-de-lance and taipan,PA20 0JG,55.835990298540500,-5.062402724935240
goanna and Piping shrike,PA20 0JQ,55.835754311195900,-5.063214819649500
Hawk and Dolphin,PA20 0JT,55.837318398837700,-5.062858656497890
glass snake and Perching duck,PA20 0NW,55.856737070750100,-5.066784976523510
Pratincole and Marmoset,PA20 9AA,55.837031389866200,-5.053075520928170
terrapin and adder,PA20 9AF,55.837303857654500,-5.052601672442360
brown snake and Recurvebill,PA20 9BS,55.831668604607000,-5.056168927898360
Maya and Ground sloth,PA21 2AE,55.890429363799700,-5.241414523155960
gecko and chuckwalla,PA21 2BB,55.905181242584700,-5.235988527469820
Ice seal and black snake,PA21 2BP,55.875666000000000,-5.267289000000000
American sparrow and glass snake,PA21 2BW,55.883774903156600,-5.269330567910280
Mouse and kabaragoya,PA21 2EA,55.911232674200900,-5.224648410654200
dugite and horned viper,PA22 3AA,56.009403463773500,-5.214007017136170
Wallaby and sand viper,PA22 3AX,55.921668423041700,-5.078334818625070
turtle and cayman,PA23 7UN,55.949764686020400,-5.067380312273310
chameleon and Cuscus,PA23 8RE,55.989121541117000,-5.016388552842390
copperhead and Vole,PA29 6UJ,55.863286989291000,-5.414817374851260
racer and Shearwater,PA31 8LD,56.042003142477800,-5.418429112743910
python and Prion,PA31 9SG,56.026435522678100,-5.421193974821640
death adder and Mamo,PA31 9TB,56.026435522678100,-5.421193974821640
gavial and Jay,PA31 9TX,56.025125000000000,-5.418862000000000
