name,postcode,lat,lon
The Musselburgh Golf Club Limited,EH21 6SA,56.02229309082031,-2.68106341362000
The Bonnie Badger Limited,EH31 2AB,56.03528594970700,-2.83074998855591
Goose on the Green Ltd,EH31 2AD,56.03488830000000,-2.83201040000000
Mallard Hotel Ltd,EH31 2AF,56.03311300000000,-2.82924300000000
the old clubhouse,EH31 2AF,56.03311300000000,-2.82924300000000
Gullane Golf Club,EH31 2BB,56.03405900000000,-2.83813800000000
Greywalls Hotel,EH31 2EG,56.04158600000000,-2.82119000000000
Longniddry Inn,EH32 0NF,55.97456800000000,-2.89456700000000
Redhouse Nurseries & Tea Room,EH32 0PH,55.98271300000000,-2.86249300000000
Craigielaw Golf Club,EH32 0PY,56.02229309082031,-2.68106341362000
Kilspindie Golf Club,EH32 0QD,56.01261138916020,-2.87262392044067
GRACE OF INDIA,EH32 0RA,56.00967000000000,-2.85837900000000
Ducks Inn,EH32 0RE,56.00880500000000,-2.86127800000000
the juniperlea inn,EH37 5TE,55.83243000000000,-2.88839400000000
The Open Arms Hotel,EH39 5EG,56.02229309082031,-2.68106341362000
CID FINDLAY (SCO) LTD t/a the castle inn,EH39 5EP,56.0456,-2.7823
Merryhatton Garden Centre,EH39 5JS,56.00311400000000,-2.73246800000000
Whitekirk Hill ,EH39 5PR,56.03727722167970,-2.64054489135742
Lintonhotel and steakhouse ,EH40 3AF,55.98541641235350,-2.65467309951782
The Crown & Kitchen,EH40 3AG,55.98554600000000,-2.65638800000000
The Loft Cafe and Bakery,EH41 3DR,55.9545,-2.7801
Diggory's,EH41 3ED,55.95557400000000,-2.77795100000000
Pancake Heaven,EH41 3ES,55.95518112182620,-2.77598905563354
Falko (Konditormeister) Limited,EH41 3ET,55.95558547973630,-2.77601289749146
Number7,EH41 3JL,55.95608100000000,-2.77602300000000
Eastern Eye Indian Restaurant,EH41 3JW,55.95567600000000,-2.77459000000000
Costa Coffee,EH41 3LZ,55.95712100000000,-2.77772600000000
China Garden CC Ltd,EH41 3NA,55.95631408691410,-2.77763009071350
The Waterside Bistro,EH41 4AT,55.95468500000000,-2.77083900000000
THE GOLF TAVERN,EH41 4AU,55.95507500000000,-2.77023800000000
Tyneside Tavern,EH41 4DA,55.95180600000000,-2.77414400000000
The Garvald Inn,EH41 4LN,55.92868300000000,-2.66082000000000
The Goblin Ha Hotel,EH41 4QH,55.90341186523440,-2.74674201011658
THE TWEEDDALE ARMS HOTEL,EH41 4QU,55.90216000000000,-2.74558100000000
The Brig & Barrel,EH42 1NP,55.99905776977540,-2.53771400451660
TYNINGHAME COUNTRY STORE LTD,EH42 1XL,56.00324630737300,-2.62740802764893
