name,postcode,lat,lon
Bronzewing pigeon and krait,EH40 3AF,55.985420985377800,-2.654652152347040
Jerboa and River dolphin,EH40 3AJ,55.987559249255200,-2.658054318491230
Boto and Coati,EH40 3AU,55.989151021480900,-2.661142970311190
Nukupuʻu and Tahr,EH40 3DS,55.992096124358000,-2.653081791504600
Crow and Hawk,EH40 3EL,55.985857249729200,-2.662946324765780
Dorcopsis and sand lizard,EH42 1AD,56.003801490970800,-2.517203530575100
puff adder and Vole,EH42 1AT,56.003746958890000,-2.525845793439590
puff adder and Maya,EH42 1BY,56.002116913124300,-2.518255334699300
Dorcopsis and gavial,EH42 1EN,56.000661676457800,-2.513890648791240
Peafowl and Kākāriki,EH42 1FX,55.989915000000000,-2.531108000000000
Linsang and leathery turtle,EH42 1GQ,55.988758595638700,-2.515608071268000
frill-necked lizard and mountain devil,EH42 1HA,56.001236739668100,-2.513882249660660
Old World quail and Parakeet,EH42 1HG,56.003168635063400,-2.513843760537290
Armadillo and adder,EH42 1NR,55.998928124448600,-2.536955504715930
Peafowl and amethystine python,EH42 1RG,55.985036026934500,-2.561606000000000
leathery turtle and cobra de capello,EH42 1TH,55.959879908357700,-2.604823740490060
Condor and Snipe,EH42 1TZ,55.994465308960200,-2.548596539506420
iguana and Chickadee,EH42 1UE,55.994237096974500,-2.551414819176850
agamid and Cuscus,EH42 1UH,55.994563483708000,-2.552766110579410
iguana and Lemming,EH42 1WG,55.992333136080800,-2.482680955721540
Tree warbler and Civet,EH42 1XD,55.990963460662800,-2.526377805294720
copperhead and puff adder,EH42 1XU,55.991783700182100,-2.525763774756110
turtle and Bunting,EH42 1YA,55.996611302431000,-2.504762616028350
tree snake and racer,EH42 1ZU,55.995489000000000,-2.541370000000000
Armadillo and amethystine python,TD11 3RL,55.866597469718700,-2.287906746894530
box turtle and Flameback,TD13 5XX,55.932364665539000,-2.363412875144780
ringhals and Ground sloth,TD13 5YH,55.922928896356600,-2.367004917049890
