name,postcode,lat,lon
Llwyngwair Manor Holiday Park,SA42 0LX,52.017659545091400,-4.813144950026330
Trewern Arms Hotel,SA42 0NB,52.023143460571000,-4.795106616223540
Blast at Fronlas,SA42 0PH,52.016009000000000,-4.832514000000000
Llys Meddyg,SA42 0SY,52.016536595223100,-4.830725686757350
The Golden Lion,SA42 0SY,52.016536595223100,-4.830725686757350
Castle Inn,SA42 0TB,52.016206851244100,-4.833935000000000
Penrallt Hotel ,SA43 3BS,52.062428795142700,-4.765271416722750
Ship Inn Trefin ,SA62 5AX,51.948797116312600,-5.146197436888100
Siop Fach Tearoom,SA62 5HB,51.945285000000000,-5.085641000000000
THE WOLFE INN,SA62 5LS,51.895898374406300,-4.970389956118090
Wolfscastle Country Hotel,SA62 5LZ,51.899841000000000,-4.970665000000000
The Corner Piece Rudbaxton Limited,SA62 5PG,51.857732056173500,-4.967771965149830
Pump on the Green,SA62 5QT,51.870430000000000,-4.939594000000000
SOMETHING'S COOKING,SA62 5SB,51.927707570152100,-4.990326537187330
Allfirst ltd TA/Harp inn,SA62 5UA,51.924595472376500,-4.988213947579800
Melin Tregwynt Mill  cafe,SA62 5UX,51.972406943724700,-5.070264468824970
Victoria Inn,SA62 6AW,51.851740543209300,-5.095107223310440
Cross inn,SA63 4UL,51.852524582899300,-4.879187866675580
Rose and Crown,SA64 0BP,52.004686003591000,-4.995575534466420
Mannings ,SA65 9AE,51.994311000000000,-4.977414000000000
PEPPERS ,SA65 9AE,51.994311000000000,-4.977414000000000
Jenny wrens caf√© ,SA65 9AL,51.994511000000000,-4.978389000000000
Janes,SA65 9AR,51.993123941852400,-4.978063774761160
Old coach house inn,SA65 9AR,51.993123941852400,-4.978063774761160
