name,postcode,lat,lon
cobra de capello and bearded lizard,SA19 0AR,51.891373771300000,-3.988493518400000
soft-shelled turtle and caiman,SA19 0AU,51.891421000000000,-3.988484000000000
worm lizard and water snake,SA19 6AA,51.882495361821300,-3.993535257030900
Elephant and frill-necked lizard,SA19 6AW,51.883291360548700,-3.995622000000000
Jackal and puff adder,SA19 6BS,51.883723895519800,-3.992674202929130
Night heron and agama,SA19 6HA,51.883799336936900,-3.991936479954930
Rat and Siskin,SA19 6HF,51.884184235100300,-3.992040685690770
harlequin snake and Ground sloth,SA19 6HT,51.884908805382400,-3.990140114277760
Night heron and Meadowlark,SA19 6LF,51.886006015585800,-3.987471242151400
jew lizard and Capuchin,SA19 6NE,51.886739292255700,-3.988244708475130
Guillemot and flying lizard,SA19 6PP,51.863605388193100,-3.995502869083350
Parakeet and chuckwalla,SA19 6SU,51.875649937965300,-3.993145197825650
Jay and Asiatic leopard,SA19 6TL,51.853386000000000,-3.960564000000000
slowworm and cerastes,SA19 6TY,51.856150913425400,-3.948441000000000
Grackle and slowworm,SA19 6UN,51.870754952911000,-3.992275004071850
amphisbaena and Gull,SA19 6YS,51.881646994073300,-3.926268166296790
Grouse and Logrunners,SA19 7AQ,51.971220516824400,-3.990876885385850
iguana and Capuchin,SA19 7DD,51.941088603879900,-3.955453568474850
Pheasant and Viscacha,SA19 7EP,51.948135563111200,-4.033610195820410
gaboon viper and Treepie,SA19 7JD,52.006611964514100,-4.012103180211760
hawksbill and B,SA19 7JU,52.014555913038400,-3.983780099804150
loggerhead and Dolphin,SA19 7LB,51.899325859086600,-3.996882350035120
chameleon and New World blackbird,SA19 7NX,51.990201000000000,-4.025859000000000
rattlesnake and boomslang,SA19 7NY,51.934934201778100,-4.008006411241870
Lemming and Diving bird,SA19 7PL,52.019676435183200,-4.071790120538990
Scimitar babbler and viper,SA19 7RB,52.034123302494600,-4.099401144317860
B and hawksbill,SA19 7SB,52.055915321597800,-4.041872459828220
Old World quail and Stilt,SA19 7SL,52.038360436913400,-4.030573940736570
diamond snake and goanna,SA19 7YP,51.975381150457000,-3.985179055336320
Stilt and Chicken,SA19 8BQ,52.061363543603600,-3.962031696872810
taipan and Lemming,SA19 8DQ,52.045003905856400,-3.986907721427520
Petrel and diamondback turtle,SA19 8LY,51.968986053330400,-3.929590172111410
tortoise and Herring gull,SA19 8NA,51.969180870846800,-3.920426953741000
Moluccan boobook and Chicken,SA19 8RS,52.043022926214900,-3.937415490634500
viper and bandy-bandy,SA19 8SE,52.009819000000000,-3.974683000000000
Hawk and Civet,SA19 8SH,51.997030508226800,-3.981111261816730
Crow and Jackal,SA19 8TN,52.019172033616800,-3.953465582508680
Buzzard and Eagle,SA19 8UN,52.020471717660000,-3.921472320483450
krait and B,SA19 8YU,52.054394124885100,-3.969617186375760
kabaragoya and snapping turtle,SA31 1DE,51.858681559395700,-4.307831107809950
boomslang and flying dragon,SA31 1DN,51.862150107004700,-4.308880159692890
Armadillo and Schneider python,SA31 1DR,51.861922247437100,-4.309493030598430
milk snake and copperhead,SA31 1DX,51.860276593215800,-4.306286113625190
Minke whale and bearded dragon,SA31 1ET,51.857497243506400,-4.301728985675820
loggerhead and puff adder,SA31 1GA,51.858487049500000,-4.308868000000000
Myna and Mole,SA31 1LS,51.858221331771300,-4.301602000000000
Jay and Ground sloth,SA31 1NR,51.861727537316300,-4.294174573350080
Crow and diamond snake,SA31 1RE,51.857921709759500,-4.311263196811680
pit viper and mud turtle,SA31 1SW,51.862012184085900,-4.319998706466140
Capuchin and Mole,SA31 1SY,51.863909077019900,-4.316377969513840
tuatara and Warbler,SA31 1TN,51.855744170840900,-4.306751314771950
Prion and Boto,SA31 2AR,51.875265000000000,-4.287120000000000
smooth snake and grass snake,SA31 2HB,51.868302463251800,-4.290877719182530
Buzzard and Fulmarine petrel,SA31 2HU,51.865388345896700,-4.282580883468250
Guillemot and crocodile,SA31 2NR,51.853228650564900,-4.295600846267070
Mole and king snake,SA31 2PQ,51.852779000000000,-4.291999000000000
soft-shelled turtle and tokay,SA31 3EG,51.858921426628100,-4.323049286800000
Lemming and coral snake,SA31 3EU,51.858841530746600,-4.315246164488290
snapping turtle and Lemming,SA31 3JS,51.855430152293400,-4.306388000000000
Armadillo and king cobra,SA31 9DA,51.850848336834800,-4.305571525907040
chuckwalla and constrictor,SA31 9DP,51.850848336834800,-4.305571525907040
kabaragoya and Minke whale,SA32 7BA,51.893176695682300,-4.171378847550910
cobra de capello and saltwater crocodile,SA32 7DH,51.876483280697500,-4.277113505730660
Masked owl and Marmoset,SA32 7EA,51.960574499866100,-4.258332169664810
cycling lizard and Linsang,SA32 7ER,51.870798556763600,-4.253379615399470
Chicken and Bronzewing pigeon,SA32 7JA,51.930055765001000,-4.248856837923960
Fish eagle and rock snake,SA32 7JZ,51.924980282555200,-4.137629650412940
adder and gecko,SA32 7NY,51.882250657646900,-4.179657579201980
racer and ringhals,SA32 7PF,51.885894979196300,-4.161989065872680
taipan and Kangaroo,SA32 7PU,51.905341795576200,-4.186997984570300
tokay and boa constrictor,SA32 7QL,51.942028990824700,-4.163742431379250
Elephant and Kangaroo,SA32 7RB,51.952962003339800,-4.141711284155790
constrictor and Bunting,SA32 7RY,51.983591000000000,-4.139721000000000
flying dragon and Greenbul,SA32 7TB,51.967471729263100,-4.048985256947670
Diving bird and Chipmunk,SA32 7TX,51.947203215453400,-4.130523255501060
python and Magpie,SA32 8LU,51.855744735766600,-4.048405713087680
Fox and king cobra,SA32 8SF,51.896337214763900,-4.113885580112590
Triller and anole,SA33 6HX,51.889234983359800,-4.298366111408860
Kite and pit viper,SA33 6LX,51.927814902221100,-4.288584739486580
mamba and Moluccan boobook,SA39 9BS,52.002890786279200,-4.268257336101860
Greenbul and gaboon viper,SA39 9DL,52.057709728905000,-4.202793849141040
bushmaster and Badger,SA39 9DY,52.029687087787500,-4.208705008818250
blue tongue and Parakeet,SA39 9EU,52.000021111466000,-4.262707157250950
rock python and chuckwalla,SA39 9LT,52.049302504781800,-4.230003749087010
alligator and python,SA39 9LY,52.045787625315500,-4.252156323411760
diamond python and Parrotlet,SA40 9RU,52.071969352836900,-4.152803060415430
Masked owl and anaconda,SA44 4AH,52.037486839546500,-4.314350105629620
diamond python and Gila monster,SA44 4DN,52.043354686345000,-4.308149315152310
Warbler and Partridge,SA44 4EG,52.056540397116600,-4.305707538745520
New World blackbird and Boto,SA44 4HP,52.042184920563000,-4.314896000000000
cobra de capello and milk snake,SA44 4LZ,52.071305203430400,-4.321308732341550
