name,postcode,lat,lon
Solitaire and snake,LD2 3BJ,52.038607964834700,-3.371529987056200
Cuscus and B,LD3 7BA,51.947663642124500,-3.389676219135740
cycling lizard and Chipmunk,LD3 7DG,51.947249825164700,-3.391976879512160
crocodile and blind snake,LD3 7EE,51.945826000000000,-3.384716000000000
blue racer and slowworm,LD3 7LF,51.948358975745300,-3.391705671944180
Thrasher and frilled lizard,LD3 7LH,51.948623586341100,-3.391379204571760
Duck and puff adder,LD3 7LS,51.949848205640300,-3.391227955683620
Pratincole and boomslang,LD3 7LW,51.950696303222300,-3.390221078213560
rattlesnake and blindworm,LD3 7NB,51.950107436065900,-3.390480000000000
wall lizard and hoop snake,LD3 7NH,51.949890102402500,-3.387678837144900
frill-necked lizard and Scimitar babbler,LD3 8AD,51.946201597612100,-3.393937725803100
gavial and anaconda,LD3 8DD,51.945785046069300,-3.403265630409050
turtle and frilled lizard,LD3 8EB,51.944901002360000,-3.400488217241450
skink and Minke whale,LD3 8EJ,51.924405147993300,-3.463648858886980
brown snake and Quetzal,LD3 8EW,51.919868691725800,-3.464751824493520
leguaan and Kite,LD3 8HF,51.955912343610300,-3.531415021179520
diamond snake and Grackle,LD3 8HG,51.958049705926300,-3.537134728718340
Bunting and Rabbit,LD3 8LP,51.907406000000000,-3.371686000000000
Lemming and Flameback,LD3 8NS,51.939104863059400,-3.460141338305620
Mouse and Bronzewing pigeon,LD3 8PS,51.944399000000000,-3.574800817930490
blue tongue and Warbler,LD3 8PW,51.945727391797200,-3.571472752299710
swift and iguana,LD3 8RY,51.942770000000000,-3.566103000000000
Grosbeak and Dorcopsis,LD3 8SG,51.936711582554500,-3.563840536033240
Vulture and Wallaby,LD3 8SY,51.893635124471900,-3.589157548929390
rat snake and Coati,LD3 8TD,51.936355734464400,-3.527955883900530
boa constrictor and tree snake,LD3 8TW,51.949890000000000,-3.565507000000000
habu and Zebra,LD3 8UR,51.942640350749800,-3.629865844650660
mountain devil and Kite,LD3 8YF,51.946348000000000,-3.678321000000000
adder and adder,LD3 9BU,51.948918690407500,-3.392275925218330
moloch and dukite,LD3 9HU,51.954466757650200,-3.397555702665080
bushmaster and saltwater crocodile,LD3 9LA,51.950480332172800,-3.395554643499820
Greenbul and snapping turtle,LD3 9LH,51.952344357970400,-3.399861622722750
Warbler and dukite,LD3 9NA,51.997173000000000,-3.539232000000000
puff adder and blue tongue,LD3 9PD,51.965547455114900,-3.431699455488940
Tit-tyrant and Wader,LD3 9PE,51.961172564130800,-3.423962528594410
Parrotbill and crocodile,LD3 9RG,52.054585000000000,-3.448284000000000
Dolphin and agama,LD3 9RH,52.013057331525100,-3.417101000000000
Warbler and coral snake,LD3 9RR,51.996042576805700,-3.463450151056030
gavial and puff adder,SA19 9YP,51.919604641914900,-3.762653823985100
Macaw and Thrasher,SA20 0LT,52.046698685091600,-3.748460750901080
thorn lizard and diamondback turtle,SA20 0RW,52.006051393636400,-3.708368015946490
Chicken and Gull,SA20 0SF,51.976746594433000,-3.713382512506560
