name,postcode,lat,lon
Ginhaus Deli,SA19 6AH,51.8827,-3.9937
The Cawdor ,SA19 6EN,51.8830,-3.9925
White Horse ,SA19 6EN,51.8830,-3.9925
The chippery,SA19 6HA,51.8838,-3.9919
The Plough Rhosmaen,SA19 6NP,51.8933,-3.9829
WHITE HART LLANDEILO,SA19 6RS,51.8874,-4.0003
The Cottage Inn,SA19 6SD,51.8938,-4.0384
Carreg Cennen Castle,SA19 6UA,51.8562,-3.9365
The Hangout Llandeilo ,SA19 7HR,51.8914,-3.9885
The Angel Inn,SA19 7LY,51.9203,-4.0037
The Dolaucothi Arms,SA19 8UW,52.0468,-3.9605
The Goose and Cuckoo,SA19 9EE,51.9383,-3.8828
The King's Head Inn,SA20 0AB,51.9942,-3.7969
The Castle Hotel,SA20 0AP,51.9935,-3.7973
West End Cafe,SA20 0AR,51.9935,-3.7988
Llandovery Rugby Football Club Limited,SA20 0DT,51.9915,-3.8049
LlandoveryRFC ,SA20 0DT,51.9915,-3.8049
Myddfai Community Hall & Visitor Centre,SA20 0JD,51.9563,-3.7884
The Three Horseshoes,SA20 0PT,51.9942,-3.7956
la patisserie,SA20 0PT,51.9942,-3.7956
Penygawse Tea Rooms,SA20 0PU,51.9942,-3.7946
Neuadd Fawr Arms,SA20 0ST,52.0449,-3.8195
Lightcourt Ltd Pantglas Hall,SA32 7BY,51.9109,-4.1058
Y Polyn,SA32 7LH,51.8547,-4.1859
TY MAWR COUNTRY HOTEL,SA32 7RA,51.9508,-4.1489
The Forest Arms,SA32 7RA,51.9508,-4.1489
The Black Lion,SA32 7SN,51.9830,-4.0629
PEN Y BONT INN,SA32 7TG,51.9267,-4.0974
Wrights Food Emporium,SA32 8JU,51.8624,-4.1307
Gelli Aur Cafe,SA32 8LR,51.8596,-4.0387
The Tearooms Aberglasney Gardens,SA32 8QH,51.8794,-4.0646
Tanygraig Inn,SA40 9XS,52.0747,-4.1590
