name,postcode,lat,lon
The Castle Hotel,LD3 0AA,51.99751200000000,-3.23396100000000
Cock hotel ,LD3 0LE,52.00692367553711,-3.24855613708496
HONEY CAFE,LD3 0LH,52.00947952270508,-3.24432921409607
The Griffin Inn Llyswen,LD3 0UR,52.03238296508790,-3.26496505737305
WYE KNOT STOP,LD3 0UR,52.0323,-3.2650
Llangoed Hall,LD3 0YP,52.05207824707031,-3.28693079948425
Coffee#1,LD3 7AG,51.94726200000000,-3.39021400000000
Tad Cod ,LD3 7AG,51.94732500000000,-3.39023100000000
Costa Coffee ,LD3 7AL,51.94779000000000,-3.39116200000000
Costa Coffee,LD3 7AL,51.94779000000000,-3.39116200000000
Raisa Thai Foods Ltd t/a Chang,LD3 7AP,51.9474,-3.3913
Coffee Box,LD3 7AY,51.94752502441410,-3.39010691642761
The Markets Tavern Hotel,LD3 7BL,51.94648900000000,-3.38717900000000
Gurkha Corner Brecon,LD3 7DW,51.94646730000000,-3.38973780000000
The Clarence Inn Ltd,LD3 7ED,51.94509124755859,-3.38588476181030
Richway Cafe,LD3 7EH,51.94523300000000,-3.38843500000000
Brecon Rugby Football Club,LD3 7EL,51.94462700000000,-3.38571000000000
The Dutchess Brecon Limited,LD3 7JP,51.94775772094730,-3.39024496078491
Brecon Tap,LD3 7LB,51.94685410000000,-3.38958080000000
Zeera Indian restaurant ,LD3 7LT,51.94891800000000,-3.39161900000000
THE CASTLE INN,LD3 7UB,51.94007300000000,-3.25964600000000
Base Camp Cafe at Llangorse Multi Activity Centre,LD3 7UH,51.93323800000000,-3.23954200000000
Peterstone Court,LD3 7YB,51.92852401733398,-3.32539510726929
THE OLD FORD INN,LD3 7YB,51.92852401733398,-3.32539510726929
Beaconsview Tearoom,LD3 8ER,51.92499160766600,-3.48857808113098
cantref adventure farm,LD3 8LR,51.91994800000000,-3.37398600000000
Abercamlais Arms,LD3 8PH,51.94602203369140,-3.57152485847473
The Usk and Railway Inn,LD3 8RS,51.94636300000000,-3.56903400000000
Tanners Arms,LD3 8SF,51.93717800000000,-3.56392800000000
The Shoemakers Arms,LD3 8UB,51.98448944091797,-3.58972001075745
The Hours Cafe ,LD3 9AD,51.94758800000000,-3.39229100000000
Castle of Brecon Hotel,LD3 9DB,51.94880676269530,-3.39405989646912
Pilgrims Tea Rooms,LD3 9DP,51.95105300000000,-3.39276200000000
Coach and Horses llangynidr,NP8 1LS,51.8701,-3.2329
The Walnut Tree Cafe Bar,NP8 1NA,51.87324200000000,-3.23575500000000
The Red Lion,NP8 1NT,51.86557900000000,-3.23086900000000
