name,postcode,lat,lon
Akeman Inn,HP18 0QJ,51.86416100000000,-0.99390100000000
Canaletto,HP18 0RB,51.86678900000000,-1.00576600000000
The Black Boy,HP22 4HN,51.88476500000000,-0.86494300000000
royal oak,HP22 4LT,51.87122900000000,-0.76456600000000
Costa Coffee  Stony Stratford,MK11 1AA,52.0565,-0.8524
Costa Coffee,MK11 1AA,52.05646514892580,-0.85242897272110
Out Of Office Coffee,MK11 1AA,52.0565,-0.8524
Royal Thai Restaurant,MK11 1AF,52.0564,-0.8518
Anatolia6372 Ltd,MK11 1AH,52.0581,-0.8548
The Bull Hotel,MK11 1AQ,52.0572,-0.8531
Bean in Stony Ltd,MK11 1AY,52.0575,-0.8543
the crown ,MK11 1BE,52.0562,-0.8543
PASSAGE TO INDIA,MK11 1BY,52.0559,-0.8524
Miss Havisham’s Tea Shop Ltd,MK11 1EJ,52.0578,-0.8538
French Affaire,MK11 1FA,52.0575,-0.8529
Greek Affaire,MK11 1FA,52.0575,-0.8529
calcutta brasserie,MK11 1LJ,52.0592,-0.8561
Cafe Gusto,MK11 1PA,52.0519,-0.8385
Safari MK,MK11 3ET,52.0477,-0.8293
Namji,MK12 5DG,52.0612,-0.8105
ole tapas bar,MK12 5FJ,52.0646,-0.8058
Braai Shack,MK12 5JN,52.0625,-0.8091
Sunnyside Up Cafe,MK12 5JN,52.0625,-0.8091
Pizza Hut,MK12 5LJ,52.06304700000000,-0.80989800000000
Akasaka Wolverton,MK12 5LW,52.0627,-0.8121
ZOUK LOUNGE,MK12 5LW,52.0627,-0.8121
khan peri peri mk ltd,MK12 5LW,52.0627,-0.8121
1538 Wolverton McDonalds - Kaizen Restaurants,MK12 5RJ,52.0640,-0.8098
Costa Coffee,MK12 5RJ,52.06396400000000,-0.80993200000000
McDonalds Restaurant,MK12 5RJ,52.06396400000000,-0.80993200000000
KFC STACEY BUSHES,MK12 6HS,52.0506,-0.7982
KFC,MK12 6HS,52.05064700000000,-0.79822600000000
The New Inn,MK13 0EN,52.0639,-0.7880
HALLEYS COMET,MK13 7AW,52.0590,-0.7850
B&Q Milton Keynes-BaxterStorey,MK13 8PU,52.04143000000000,-0.77801700000000
Costa Coffee,MK13 8PU,52.04143000000000,-0.77801700000000
Central Cash & Carry(Watford)Ltd,MK13 9HG,52.0457,-0.7942
The Nags Head,MK14 5AX,52.0704,-0.7573
Costa Coffee,MK14 5HA,52.06657800000000,-0.75997000000000
taste of paradise 2,MK14 7BW,52.0473,-0.7599
The Crooked Billet,MK17 0DF,51.97319300000000,-0.77333700000000
Thrift Farm,MK17 0EQ,51.9854,-0.8174
Horwood House Hotel 1911 Restaurant & Bar,MK17 0PH,51.95884800000000,-0.84320700000000
The Betsey Wynne,MK17 0SH,51.93850600000000,-0.83184600000000
Dipalee lounge ,MK18 1BP,51.99928790000000,-0.98838170000000
Villiers Hotels Limited,MK18 1BS,51.99980160000000,-0.98851580000000
Louis',MK18 1BT,51.99847300000000,-0.98990300000000
The Woolpack,MK18 1EP,51.99758911132810,-0.98874300718307
Binn Smokehouse,MK18 1JX,52.00053800000000,-0.98755400000000
Subway Buckingham,MK18 1JX,52.0005,-0.9875
The Kings Head,MK18 1JX,52.00053800000000,-0.98755400000000
Prego,MK18 1NT,52.00101920000000,-0.98582270000000
Prezzo,MK18 1NU,52.00127620000000,-0.98642870000000
Meadrow Tea Rooms,MK18 1PU,52.00079300000000,-0.98565300000000
BLACK PEPPER CAFE/ BAR,MK18 1SB,52.00097800000000,-0.98533100000000
Carnitas,MK18 1SB,52.0009,-0.9853
Phoenix Kitchen,MK18 2EX,51.92195300000000,-0.95420600000000
THE OLD THATCHED INN ,MK18 2JN,51.96563000000000,-0.92998800000000
Claydon Community Cafe,MK18 2NS,51.9363,-0.9922
THE BELL HOTEL,MK18 3AB,51.94131500000000,-0.88226800000000
mahabharat restaurant,MK18 3AB,51.94131500000000,-0.88226800000000
James' Kitchen (Tea at the Rooneys),MK18 3HB,51.94307600000000,-0.88114800000000
THE CROWN,MK18 3NJ,51.92024300000000,-0.88641200000000
Buckingham Garden Centre,MK18 4AE,51.99557000000000,-1.01777300000000
The Red lion,MK18 4AG,51.98907200000000,-1.06782300000000
The Crown,MK18 4JF,51.97822700000000,-1.00606800000000
The Royal Oak,MK18 4NN,51.99059700000000,-1.04606200000000
The Robin hood,MK18 5DN,52.01147900000000,-1.03119400000000
Costa Coffee Drive Thru,MK18 7RA,51.98817870000000,-0.97728090000000
The White Lion at Wicken,MK19 6BS,52.04817900000000,-0.91062100000000
shoulder of mutton,MK19 6ED,52.0445,-0.8500
kingfisher country club limited ,MK19 6JY,52.04111862182620,-0.87867099046707
The Three Trees,MK3 5JB,51.9911,-0.7577
582 Westcroft McDonalds - Kaizen Restaurants,MK4 4DD,52.0040,-0.7943
Costa Coffee Westcroft,MK4 4DD,52.0040,-0.7943
Costa Coffee,MK4 4DD,52.00415000000000,-0.79434300000000
KFC,MK4 4DD,52.00415000000000,-0.79434300000000
McDonalds Restaurant,MK4 4DD,52.00415000000000,-0.79434300000000
Pizza Hut Restaurant,MK4 4DD,52.00415000000000,-0.79434300000000
KFC WESTCROFT,MK4 4DE,52.0044,-0.7951
PAPA JS INDIAN TAPAS,MK4 4TB,52.0076,-0.8040
The Coffee Boutique,MK4 4TB,52.0076,-0.8040
Golden wonderful kitchen limited,MK5 6JG,52.0261,-0.7889
Spice Village,MK5 6JG,52.0261,-0.7889
Santander (BaxterStorey),MK5 6LA,52.01750700000000,-0.78958300000000
bv shenley pavilions,MK5 6LB,52.0157,-0.7940
Burnt Oak,MK5 7HH,52.0145,-0.7836
The Grumpy Cook,MK5 8DL,52.0320,-0.7881
NHBC House/Glenn Management (Wilson Vale Catering),MK5 8FP,52.02230700000000,-0.76517300000000
EMW Law (Wilson Vale Catering),MK5 8FR,52.02687400000000,-0.77379300000000
360 Play (Milton Keynes) Limited,MK5 8HL,52.0217,-0.7718
Dunelm Mill,MK6 1AJ,52.02747100000000,-0.76466700000000
Bollywood Junction,MK6 2RX,52.0294,-0.7609
Pizza Hut,MK6 2RX,52.02941900000000,-0.76094000000000
TNS Catering_SMC,MK8 0AN,52.0294,-0.7985
Ash's Fish & Chicken,MK8 0PX,52.0219,-0.8074
simply Good ltd,MK8 0PX,52.0219,-0.8074
Abbey Hill Golf Centre,MK8 8AA,52.0441,-0.8104
Santander (BaxterStorey),MK9 1AN,52.03723100000000,-0.77028800000000
Costa Coffee,MK9 1BB,52.03457200000000,-0.77388900000000
Pret A Manger,MK9 1BB,52.03423650000000,-0.77347140000000
Subway Train Station,MK9 1BB,52.0343,-0.7736
peel juice bar,MK9 1BB,52.0343,-0.7736
BURGER KING-Portway Central Milton Keynes,MK9 1DY,52.0386,-0.7770
Burger King,MK9 1DY,52.03896800000000,-0.77642200000000
McDonalds Restaurant,MK9 1DY,52.03896800000000,-0.77642200000000
Wetherspoons,MK9 1EA,52.03801900000000,-0.76735000000000
olive tree restaurant,MK9 1EA,52.0380,-0.7673
Thai Modern,MK9 1EH,52.0385,-0.7670
Fourth & Fifth,MK9 1EJ,52.0387,-0.7665
Costa Coffee,MK9 1EN,52.03831300000000,-0.77660000000000
Starbucks Coffee Company,MK9 1EN,52.03831300000000,-0.77660000000000
Sizzling Grillz,MK9 1LR,52.0339,-0.7720
AKASAKA CMK,MK9 2EA,52.0392,-0.7610
Brewdog,MK9 2EA,52.03922000000000,-0.76100400000000
Melis Restaurant,MK9 2EA,52.0392,-0.7610
Middletons Steakhouse & Grill MK,MK9 2EA,52.0392,-0.7610
bon viveur  exchange house,MK9 2EA,52.0392,-0.7610
Blossom Room,MK9 2FB,52.0380,-0.7629
Nando's,MK9 2FB,52.03804400000000,-0.76288800000000
Pizza Express,MK9 2FB,52.03785840000000,-0.76271840000000
SUBWAY THE HUB (58446),MK9 2FB,52.0380,-0.7629
Turtle Bay,MK9 2FB,52.03804400000000,-0.76288800000000
Zizzi,MK9 2FB,52.03804400000000,-0.76288800000000
Banana Tree,MK9 2FS,52.0374,-0.7629
DEROKA LTD,MK9 2FS,52.0374,-0.7629
Bogota Coffee Co,MK9 2FZ,52.0375,-0.7624
Maaya Indian Kitchen & Bar,MK9 2FZ,52.0375,-0.7624
Brasserie Blanc Milton Keynes ,MK9 2GA,52.0376,-0.7624
Jurys Inn Milton Keynes,MK9 2HP,52.03927800000000,-0.76477900000000
Legend One Sushi Bar,MK9 2JH,52.0371,-0.7613
Homeground,MK9 2NR,52.0421,-0.7647
KFC MILTON KEYNES - THE CENTRE,MK9 3AB,52.0443,-0.7552
Patisserie Valerie,MK9 3AD,52.04260635375980,-0.75802397727966
BURGER KING-Silbury Arcade Central Milton Keynes,MK9 3AG,52.0434,-0.7575
Burger King,MK9 3AG,52.04340900000000,-0.75749100000000
Starbucks Coffee Company,MK9 3AG,52.04340900000000,-0.75749100000000
Ask Italian,MK9 3AJ,52.04433100000000,-0.75368900000000
Caffe Nero,MK9 3AJ,52.04433100000000,-0.75368900000000
Pret A Manger,MK9 3AJ,52.04433100000000,-0.75368900000000
Costa Coffee,MK9 3BA,52.04405400000000,-0.75302600000000
Pizza Express,MK9 3BA,52.04405400000000,-0.75302600000000
34 CMK McDonalds - Kaizen Restaurants,MK9 3BB,52.0426,-0.7565
McDonalds Restaurant,MK9 3BB,52.04262300000000,-0.75631700000000
Pizza Hut Restaurant,MK9 3BB,52.04262300000000,-0.75631700000000
G TRIBE,MK9 3EL,52.0452,-0.7585
Pepes Piri Piri Milton Keynes,MK9 3EL,52.0452,-0.7585
Ori Caffe,MK9 3EP,52.0448,-0.7524
Nando's,MK9 3ES,52.04260500000000,-0.75802400000000
Five Guys,MK9 3GA,52.04116000000000,-0.75650400000000
Burger King,MK9 3GB,52.04102100000000,-0.75698900000000
Chopstix Milton Keynes,MK9 3GB,52.0409,-0.7571
Churros Mexicanos,MK9 3GB,52.0409,-0.7571
KOKORO,MK9 3GB,52.0409,-0.7571
Made in Sud Pizzeria,MK9 3GB,52.0409,-0.7571
Pret A Manger,MK9 3GB,52.04102100000000,-0.75698900000000
Starbucks Coffee Company,MK9 3GB,52.04102100000000,-0.75698900000000
Wrapchic,MK9 3GB,52.0409,-0.7571
THE GREEN ELEPHANT CAFE,MK9 3HP,52.0396,-0.7630
University of Bedfordshire (Baxterstorey),MK9 3HS,52.03898300000000,-0.75558700000000
Buzz Bingo,MK9 3NB,52.04136400000000,-0.75539000000000
Urban Dhaba,MK9 3NT,52.0429,-0.7525
taste of paradise ,MK9 3NT,52.0429,-0.7525
Costa Coffee,MK9 3PD,52.04212200000000,-0.75911600000000
Wagamama,MK9 3PD,52.04212200000000,-0.75911600000000
Wasabi Sushi & Bento,MK9 3PD,52.04212188720700,-0.75911599397659
Wellingtons Cafe,NN12 7QN,52.07410900000000,-0.88565200000000
The Kings Head,NN13 5HW,52.06755400000000,-1.08045700000000
The Red Lion  Evenley,NN13 5SH,52.00819700000000,-1.14516600000000
Chilli and Pepper,NN13 6AU,52.02621000000000,-1.15187700000000
Dhan Shiri,NN13 6AU,52.02621000000000,-1.15187700000000
CURRY JUNCTION LTD,NN13 6BA,52.02734500000000,-1.15353200000000
Rossetti,NN13 6DF,52.02674900000000,-1.15064300000000
Brackley Leisure Centre,NN13 6JJ,52.0380,-1.1541
Brackley bar and grill,NN13 7AB,52.02676500000000,-1.14905400000000
Costa Coffee,NN13 7AB,52.02676500000000,-1.14905400000000
Hummingbirds Bistro Ltd,NN13 7AB,52.02676500000000,-1.14905400000000
The Courtyard Coffee House ,NN13 7AB,52.02676500000000,-1.14905400000000
Waterfall Elior Ltd,NN13 7BF,52.02857900000000,-1.14388800000000
The Greyhound Inn,NN13 7BW,52.03171900000000,-1.14417800000000
Ann's Fish Bar,NN13 7DP,52.02702200000000,-1.14980700000000
The Crown Hotel,NN13 7DP,52.0272,-1.1498
little istanbul restaurant,NN13 7DP,52.02702200000000,-1.14980700000000
The old fire station cafe,NN13 7DW,52.02947000000000,-1.14643700000000
The Green Room,NN13 7EP,52.0259,-1.1498
The Unicorn Hotel,NN13 7EP,52.02595138549800,-1.14985704421997
Brackley Central Cafe,NN13 7UG,52.03724570000000,-1.14099680000000
Burger King,OX26 1BT,51.89359283447270,-1.16193199157715
McDonalds Restaurants Ltd,OX26 1DE,51.89046417814080,-1.16005988548760
Apple Green Service Station,OX26 2HJ,51.90356100000000,-1.15394100000000
Bicester Leisure Centre,OX26 2NR,51.90010300000000,-1.15702900000000
KFC (Kentucky Fried Chicken),OX26 3AH,51.90745800000000,-1.15078700000000
KFC - Bicester,OX26 3AH,51.9074,-1.1508
Pizza Hut Delivery,OX26 3AH,51.90752792358400,-1.15070903301239
The Bull Inn,OX26 5DQ,51.89830300000000,-1.11747400000000
Pizza Express,OX26 6AG,51.89657200000000,-1.15109300000000
S&H Coffee Shop & Gifts,OX26 6AG,51.8966,-1.1511
Jaflong Restaurant,OX26 6AJ,51.89688200000000,-1.15043400000000
B.C Thai Restaurant,OX26 6AN,51.8963,-1.1528
Trinity Cabbages & Condoms,OX26 6BD,51.89588300000000,-1.15155700000000
Littlebury Hotel,OX26 6DR,51.89723300000000,-1.15677800000000
BANSAL ASSOCIATES LIMITED,OX26 6EH,51.8970,-1.1524
limited company ,OX26 6EH,51.8970,-1.1524
Shan Shui Investment BV Ltd,OX26 6EU,51.89281720000000,-1.15867400000000
Wildwood,OX26 6FA,51.89825330000000,-1.15212260000000
THE LITTLE BLUE BAKERY,OX26 6HY,51.8973,-1.1516
Costa Coffee,OX26 6JD,51.89731800000000,-1.15103500000000
Costa Coffee,OX26 6JJ,51.89848500000000,-1.15198800000000
Copper Kitchen,OX26 6JS,51.89977000000000,-1.15311200000000
Eat China Bicester,OX26 6JW,51.8991,-1.1526
Shakil’s ,OX26 6LP,51.89983900000000,-1.15276100000000
denis restaurant,OX26 6LP,51.89983900000000,-1.15276100000000
THE PLOUGH,OX26 6NB,51.90139700000000,-1.15440300000000
Savoir Fare,OX26 6PS,51.89607300000000,-1.14681500000000
Clip 'n Climb Bicester,OX26 6QE,51.89906692504880,-1.14295101165771
ANICA DC LIMITED,OX26 6RD,51.89664077758790,-1.14918804168701
Amici ,OX26 6TB,51.89779800000000,-1.15021300000000
Ammoura Lebanese Kitchen,OX26 6WD,51.89177600000000,-1.15558600000000
Cafe Wolseley,OX26 6WD,51.89136280000000,-1.15328080000000
Creperie Angelie,OX26 6WD,51.89177600000000,-1.15558600000000
Darlish ,OX26 6WD,51.8918,-1.1556
Farmshop Bicester,OX26 6WD,51.8918,-1.1556
MNJV3 Corporation Limited - Maitre Choux,OX26 6WD,51.8918,-1.1556
Oliphant's Ice Cream,OX26 6WD,51.89177600000000,-1.15558600000000
Pret A Manger,OX26 6WD,51.89177600000000,-1.15558700000000
itsu Bicester Village,OX26 6WD,51.89177600000000,-1.15558700000000
The Nightingale,OX26 6XX,51.89132800000000,-1.13834700000000
F Eagles Ltd t/a Muddy Duck,OX27 8ES,51.96042800000000,-1.13759000000000
Stratton Audley Barn,OX27 9AS,51.92716900000000,-1.11573000000000
James at The Sow & Pigs - Jim's Kitchen,OX27 9BA,51.92377100000000,-1.06007200000000
