name,postcode,lat,lon
snake and Guillemot,HP18 0SH,51.875407792019200,-1.000231629201040
viper and Wader,HP18 0SS,51.879562989781600,-1.008885137322870
diamondback and Bunting,HP18 0SW,51.880077162889400,-1.008016691420120
Night heron and leguaan,HP18 0TE,51.890157826893400,-1.013549112961800
leguaan and White ibis,HP18 0UT,51.880082000000000,-1.010544000000000
Songlark and Black jay,HP22 4AW,51.875389948494700,-0.914976757665971
Condor and Snipe,HP22 4BY,51.865120589553400,-0.928570547514598
Kākāriki and New World blackbird,MK18 1DB,51.997223778180000,-0.991243103385419
moloch and Petrel,MK18 1DL,51.993444901989300,-0.990934768861739
smooth snake and slowworm,MK18 1DS,51.994300265944100,-0.995284980878933
puff adder and tokay,MK18 1ES,51.997370734649800,-0.989506472095807
Eagle and water snake,MK18 1FL,52.008549000000000,-0.982334000000000
king cobra and Ground sloth,MK18 1GE,52.008240935600000,-0.981875179900000
gaboon viper and carpet snake,MK18 1GH,52.006952816655300,-0.976732317350963
Fish eagle and goanna,MK18 1GN,51.998989398956200,-0.980147588395386
rock snake and B,MK18 1GP,51.998746970458700,-0.982265202071140
swift and Buzzard,MK18 1GY,52.007299522200000,-0.983222320400000
Guillemot and Rat,MK18 1HE,52.000047296577100,-0.988690000000000
Vole and tiger snake,MK18 1HU,52.001742992923400,-0.992962437684788
caiman and smooth snake,MK18 1LH,52.005060554822700,-0.987701685187866
horned viper and sea snake,MK18 1NS,52.000329436841500,-0.987487920442883
Bronzewing pigeon and Civet,MK18 1QA,52.009800000000000,-0.976245000000000
coral snake and Quetzal,MK18 1QB,52.010191222251300,-0.974851789447918
Pitohui and Fox,MK18 1QX,52.013680531118600,-0.972877816031779
Recurvebill and coral snake,MK18 1RT,51.987793556270900,-0.983037723667538
tortoise and bearded lizard,MK18 1SB,52.000941000000000,-0.985260000000000
Badger and krait,MK18 1WR,52.000614000000000,-0.985908000000000
Black cockatoo and Komodo dragon,MK18 1YR,52.004046862348300,-0.973418805828244
loggerhead and Cuscus,MK18 2AR,51.969015286180600,-0.949691398878118
Guillemot and Solitaire,MK18 2BF,51.967247560291600,-0.957170861899058
Guillemot and Solitaire,MK18 2EP,51.935804000000000,-1.008854000000000
asp and Condor,MK18 2ER,51.931716050255400,-0.967535764649434
slowworm and garter snake,MK18 2FS,51.913006000000000,-0.999702000000000
Ibex and elapid,MK18 2GT,51.968634000000000,-0.947046000000000
hoop snake and Mole,MK18 2JS,51.951934000000000,-0.921866275193691
flying dragon and Polecat,MK18 2LT,51.922848331250200,-0.930003482324518
Parakeet and Piping shrike,MK18 2ND,51.923594256399900,-0.926015794009744
asp and Mink,MK18 2NP,51.935735025828800,-0.989291375029008
skink and Macaw,MK18 2PT,51.934553397177000,-0.986757922227934
Jay and diamond snake,MK18 2QX,51.936903003956300,-0.975664434161104
king cobra and amphisbaena,MK18 2SB,51.938458020840200,-0.986000830154166
jew lizard and coral snake,MK18 3AT,51.941361771507600,-0.888334871067636
snake and mud turtle,MK18 3FU,51.944407201300000,-0.888595000000000
Skunk and hawksbill,MK18 3GH,51.949145000000000,-0.889781000000000
Black cockatoo and cobra,MK18 4AD,51.991904104162400,-1.077158969054540
Old World warbler and mud turtle,MK18 4AF,51.987643264269200,-1.035538000000000
bicycle lizard and Eagle,MK18 4AH,51.987653164555300,-1.095944624645830
Parrotlet and soft-shelled turtle,MK18 4BD,51.986684634049800,-1.050168000000000
Jackal and Philippine hawk-owl,MK18 4FE,51.932555822507400,-1.033637062874260
Fulmarine petrel and Fish eagle,MK18 4HB,51.975203000000000,-1.043726000000000
adder and Ground sloth,MK18 4HL,51.980947370159900,-1.012153476923240
Coati and Chipmunk,MK18 4LH,51.962079953477300,-1.044340239436040
ringhals and Grosbeak,MK18 4NY,51.991913518062100,-1.048948418200800
Cuscus and Flameback,MK18 4PD,51.996707817933200,-1.046982468592180
lizard and amethystine python,MK18 4PL,51.989774767773100,-1.042425683779080
Grackle and B,MK18 5BD,52.058228420601000,-0.960290208397790
Linsang and Grackle,MK18 5BG,52.069530065821600,-0.961487000000000
Night heron and garter snake,MK18 5BJ,52.074750000000000,-0.959378000000000
Chipmunk and Solitaire,MK18 5BZ,52.018259317719500,-1.017437898174960
puff adder and blindworm,MK18 5HP,52.033303968929300,-0.969337865821620
bearded lizard and ringhals,MK18 5JG,52.016865691178400,-1.000331632051880
snapping turtle and Kite,MK18 5JJ,52.017279379772800,-1.003528306544360
flying lizard and Towhee,MK18 5JP,52.016833342458800,-1.001818707051110
Siskin and hawksbill,MK18 5PA,52.038191000000000,-0.926494000000000
gopher snake and krait,MK18 7BB,52.001184855028100,-0.973090956540583
Fox and skink,MK18 7BH,52.001409869489900,-0.976217738694405
king snake and Hawaiian honeycreeper,MK18 7BW,51.999062310504400,-0.970954561971041
frilled lizard and gopher snake,MK18 7HA,51.991865407650300,-0.973580836933243
indigo snake and hoop snake,MK18 7HX,51.996403909501200,-0.971292245830349
Fish eagle and perentie,MK18 7RF,51.986437817200000,-0.975670923700000
habu and gopher snake,MK18 7RR,51.987944667700000,-0.972156054300000
New World blackbird and thorny devil,MK18 7SA,51.988627000000000,-0.969097000000000
Kākāriki and Mink,MK19 6FE,52.053551332675100,-0.894872279400594
Meadowlark and Logrunners,NN13 5GL,52.038529000000000,-1.142155000000000
Francolin and sea snake,NN13 5GW,52.016178195028500,-1.097861682502050
moloch and Mink,NN13 5HU,52.072199797497600,-1.081472123820810
alligator and horned viper,NN13 5PB,52.053808891466300,-1.222030433115470
alligator and glass snake,NN13 5RP,52.001129056665200,-1.111099574883510
Piping shrike and bull snake,NN13 5RS,52.001353366164700,-1.114620336725010
sidewinder and Grosbeak,NN13 5RZ,52.013894351163400,-1.144870013437960
amethystine python and saltwater crocodile,NN13 5XE,51.991239937008300,-1.196347000731040
frill-necked lizard and puff adder,NN13 5XJ,51.993933056589100,-1.196939000000000
Eagle and Stilt,NN13 5XN,51.993367817500000,-1.195449767000000
water snake and Black cockatoo,NN13 6AA,52.030084823867900,-1.157053143818760
python and Snipe,NN13 6AF,52.031196638435700,-1.153972000000000
flying dragon and Grackle,NN13 6BT,52.036843866461000,-1.143047366993920
flying dragon and gavial,NN13 6DQ,52.035029143076700,-1.156960184556650
Zebra and deaf adder,NN13 6EB,52.064968000000000,-1.207176000000000
Hawaiian honeycreeper and Perching duck,NN13 6EU,52.040723903615100,-1.146209888090980
leathery turtle and bearded dragon,NN13 6EX,52.041702487774400,-1.147255590767490
habu and black snake,NN13 6GY,52.046314000000000,-1.149207000000000
loggerhead and green turtle,NN13 6HT,52.032869925757200,-1.158021184868900
Civet and Snipe,NN13 6JB,52.032678203195900,-1.162660300848440
sand viper and Towhee,NN13 6LN,52.036040932667800,-1.150118563884780
Tahr and tortoise,NN13 6LY,52.034894996351100,-1.158318443998410
Tree warbler and jew lizard,NN13 6NB,52.040103457141700,-1.151178742608990
water snake and gopher snake,NN13 6NQ,52.038555664692700,-1.158512135071090
Mamo and Eagle,NN13 6NS,52.036154620313100,-1.162230916062800
Snipe and tokay,NN13 6QX,52.041937000000000,-1.138195000000000
Goose and gopher snake,NN13 7AL,52.029517948701200,-1.134660366990500
blue racer and thorny devil,NN13 7BN,52.033120779815600,-1.142929024228470
thorn lizard and Wallaby,NN13 7US,52.029270465490100,-1.146340521384640
Vulture and Jay,OX17 2AH,52.063247892522200,-1.296216231651720
Grosbeak and terrapin,OX17 2LB,52.072025221154400,-1.264199559406400
Wader and Tree warbler,OX17 2LD,52.070939151579000,-1.263050249015330
Fish eagle and coral snake,OX17 2LP,52.070433393027500,-1.267012272234570
racer and Pitohui,OX17 2LU,52.071922714271400,-1.266506429546580
horned toad and Magpie,OX17 2LW,52.071122345547900,-1.266475771736570
River dolphin and Mole,OX17 2NQ,52.071371610289100,-1.266077769118120
harlequin snake and turtle,OX17 2PB,52.072777849644500,-1.273933350359200
bearded dragon and Siskin,OX17 2PH,52.066214618698000,-1.273937642773830
smooth snake and Mouse,OX17 2QW,52.074965484215500,-1.270031319888720
Bronzewing pigeon and Parrotbill,OX17 3AR,51.996785086852500,-1.249163762096330
blindworm and Tahr,OX17 3DA,52.019889000000000,-1.245688000000000
snapping turtle and Elephant,OX17 3DJ,52.020480227694000,-1.230303159420290
Pitohui and Egret,OX17 3FZ,51.995743000000000,-1.255980000000000
puff adder and milk snake,OX17 3JN,52.031092426489300,-1.296983377260880
Skunk and Old World quail,OX17 3QU,52.025110986947900,-1.274311719975640
giant tortoise and worm lizard,OX17 3RP,52.022245268856200,-1.277622569315620
snapping turtle and diamond python,OX25 1PA,51.851364000000000,-1.115651632317540
elapid and bushmaster,OX25 1QG,51.866856798023300,-1.073808620435220
Piping shrike and carpet snake,OX25 1TW,51.862212571662100,-1.090488095011220
deaf adder and Asiatic leopard,OX25 2AB,51.868866000000000,-1.121087000000000
Fox and boa,OX25 2BW,51.882552000000000,-1.148376000000000
Mamo and Kite,OX25 2DJ,51.871854000000000,-1.113296000000000
Prion and Eagle,OX25 2PD,51.873382674822100,-1.188034245876770
Mamo and Parakeet,OX25 2RL,51.872057664353400,-1.123639281494440
copperhead and Myna,OX25 2RW,51.869900002057800,-1.127297792192050
blue racer and lizard,OX25 2SL,51.873437414200500,-1.119370999707210
Partridge and Recurvebill,OX25 3QJ,51.859516288610100,-1.223700575035190
chameleon and Logrunners,OX25 3QN,51.864441000000000,-1.223195000000000
Siskin and Gull,OX25 4AR,51.908418529045300,-1.226404967094130
terrapin and B,OX25 5AE,51.927305000000000,-1.263557000000000
Vulture and Pheasant,OX25 5BW,51.929024000000000,-1.252357000000000
Masked owl and agamid,OX25 5BY,51.930269000000000,-1.270196000000000
Stilt and horned viper,OX25 5LB,51.931977544391200,-1.276308992047900
elapid and massasauga,OX25 5LF,51.930389076558300,-1.281192172530290
puff adder and python,OX25 5LT,51.930117343462200,-1.279393089083010
frilled lizard and anole,OX25 5TL,51.924797457384900,-1.260980797905460
massasauga and Chickadee,OX25 5YL,51.901771000000000,-1.141520000000000
Cloud rat and hognose snake,OX25 6LW,51.952329855430400,-1.278717089799420
Scimitar babbler and adder,OX25 6LZ,51.953369915116100,-1.276779641256780
Coati and Fulmarine petrel,OX26 1AS,51.895492024300000,-1.160707064100000
mud turtle and crocodile,OX26 1BT,51.893605908963500,-1.161802000000000
tuatara and boa,OX26 1DF,51.885443000000000,-1.189774000000000
Buzzard and thorn lizard,OX26 1DL,51.887839000000000,-1.190487000000000
Nukupuʻu and Polecat,OX26 1UW,51.888037097439900,-1.186448000000000
Tahr and Tahr,OX26 2DQ,51.908351132784200,-1.166471014364330
dugite and crocodile,OX26 2GD,51.903170279596500,-1.176407158106000
Prion and ringhals,OX26 2GU,51.904956017740200,-1.175909365962350
snapping turtle and perentie,OX26 2HZ,51.905977432075100,-1.174117283722210
galliwasp and Gila monster,OX26 2LZ,51.902725955576400,-1.173304797013140
Crow and Old World vulture,OX26 2RL,51.900180440295000,-1.175720574215800
Greenbul and Ice seal,OX26 2UA,51.910225373952200,-1.171988000000000
frilled lizard and Mamo,OX26 2XB,51.905754000000000,-1.166519000000000
ringhals and Partridge,OX26 2XU,51.909296200402000,-1.169157424474190
Chickadee and Songlark,OX26 2YE,51.908300297448400,-1.170731231482850
Philippine hawk-owl and Schneider python,OX26 3AB,51.910005507259100,-1.165204722271010
Lemming and Darwin's finches,OX26 3EG,51.911235471723300,-1.161154970928140
Duck and rattlesnake,OX26 3EW,51.913006786008700,-1.161165589973320
Kākāriki and Cuscus,OX26 3HH,51.907278943620200,-1.153553409924410
perentie and Stint,OX26 3XF,51.911463612996300,-1.154085345461120
swift and skink,OX26 3XL,51.911391990286800,-1.147893590929400
wall lizard and tiger snake,OX26 3ZP,51.910007172755300,-1.161643044338090
caiman and Myna,OX26 4JQ,51.903073000000000,-1.133836000000000
grass snake and coral snake,OX26 4LA,51.904542000000000,-1.129403000000000
swift and Tree warbler,OX26 4SW,51.901028000000000,-1.128425000000000
mamba and Fox,OX26 4TB,51.903614093550900,-1.147808163745400
White ibis and elapid,OX26 4UX,51.903373230654000,-1.145588833601050
Goose and thorn lizard,OX26 5DE,51.894964854361700,-1.118993000000000
box turtle and White ibis,OX26 5DP,51.899883282707400,-1.119583000000000
Perching duck and blue tongue,OX26 6AG,51.896551716788900,-1.151066000000000
brown snake and Crow,OX26 6BZ,51.893802000000000,-1.149679000000000
Warbler and Diving bird,OX26 6FE,51.895567203000000,-1.152378437300000
anaconda and amethystine python,OX26 6GE,51.899109000000000,-1.150228000000000
Polecat and Stint,OX26 6HZ,51.897591507556000,-1.155493949351830
mud turtle and chuckwalla,OX26 6NU,51.897571205860100,-1.156424462810510
Gila monster and Wader,OX26 6RJ,51.899946657623500,-1.151670937697450
American sparrow and boomslang,OX26 6RR,51.900218080018300,-1.149413027933150
pit viper and Wallaby,OX26 6UD,51.895239301411500,-1.139828313665680
cycling lizard and gecko,OX26 6WZ,51.895287504402800,-1.139042632812240
pit viper and Thrasher,OX26 6XN,51.889110064946900,-1.142662522323830
Eagle and caiman,OX26 6YJ,51.894026256733100,-1.136247484088750
Ground sloth and New World blackbird,OX26 9LQ,51.901779000000000,-1.141501000000000
American sparrow and Piping shrike,OX26 9NA,51.901779000000000,-1.141501000000000
Parakeet and blue racer,OX27 0AP,51.904654343697200,-1.053306664342530
cayman and hognose snake,OX27 0BW,51.915661947509100,-1.023880359111530
Petrel and Parrotlet,OX27 0HF,51.899743999009700,-1.062144861346610
caiman and snapping turtle,OX27 0HZ,51.902144233422600,-1.062094889902850
carpet snake and Piping shrike,OX27 7JL,51.980841000000000,-1.242893000000000
caiman and thorny devil,OX27 7LG,51.979076049919500,-1.244014468049740
Jackal and gavial,OX27 7LJ,51.979512329224200,-1.244749674135310
python and rat snake,OX27 7LR,51.926212034747000,-1.189030278290870
blindworm and thorn lizard,OX27 7QN,51.960637230332300,-1.235898017613600
Boto and rock python,OX27 7SR,51.960762098434600,-1.203179175116020
hawksbill and Triller,OX27 8AQ,51.953366360266400,-1.109570368421330
Towhee and chuckwalla,OX27 8AZ,51.917828000000000,-1.158832000000000
tortoise and White ibis,OX27 8BG,51.920386000000000,-1.160689000000000
ringhals and tuatara,OX27 8DP,51.955881084282700,-1.119432000000000
Night heron and Old World quail,OX27 8DW,51.956144200159900,-1.117882926441370
Gull and River dolphin,OX27 8RA,51.922349411759800,-1.138874140061960
Tit-tyrant and Parrotbill,OX27 8UP,51.917591135724900,-1.142294766658510
River dolphin and Mole,OX5 3DP,51.853865582321200,-1.270027000000000
Rabbit and Eagle,OX5 3FS,51.879595000000000,-1.274735000000000
thorny devil and Masked owl,OX5 3HG,51.867735781254000,-1.274696823824200
Jerboa and Warbler,OX5 3HR,51.876287000000000,-1.276143000000000
garter snake and Mouse,OX5 3JW,51.878635445645500,-1.275102593401110
alligator and boomslang,OX5 3NA,51.856180259479600,-1.274374370651610
