name,postcode,lat,lon
Robin Hood Little John,AL6 9UB,51.85561500000000,-0.21325200000000
oodles chinese,LU1 1BT,51.8853,-0.4287
Shahi nan kabab,LU1 1DD,51.88571000000000,-0.42936500000000
CAFE 1,LU1 1DQ,51.8845,-0.4294
Man ho restaurant ,LU1 1EH,51.8844,-0.4268
A 1 Lahori Zaiqa LTD ,LU1 1EW,51.88564300000000,-0.42833500000000
Shahi Grill,LU1 1EW,51.8857,-0.4284
Tiagos,LU1 1HE,51.8862,-0.4278
dial a kebab,LU1 1SE,51.88268000000000,-0.41992400000000
subway,LU1 1SE,51.88268000000000,-0.41992400000000
German Doner Kebab (GDK),LU1 2AL,51.8789,-0.4164
Creams Cafe Luton,LU1 2AN,51.8785,-0.4139
Subway George Street,LU1 2AQ,51.8785,-0.4156
HONG BUFFET,LU1 2AZ,51.87875060000000,-0.41533200000000
McDonalds Restaurants Ltd,LU1 2AZ,51.87888100000000,-0.41559700000000
NLQ ltd t/a deserts rose ,LU1 2EP,51.8807,-0.4151
The Engine,LU1 2EP,51.8807,-0.4151
George II,LU1 2EY,51.8811,-0.4141
BEDFORDSHIRE COFFEE LTD T/A MUFFIN BREAK ,LU1 2LJ,51.87942800000000,-0.41278900000000
Chopstix Luton,LU1 2LJ,51.87942800000000,-0.41278900000000
Frankster's,LU1 2LJ,51.87942800000000,-0.41278900000000
Nucrema,LU1 2LJ,51.87942800000000,-0.41278900000000
Starbucks Coffee Shop,LU1 2LT,51.88214400000000,-0.41356400000000
Jamaica Jerk and Burger Hut ltd,LU1 2NA,51.8828,-0.4185
Cookies and Cream,LU1 2NB,51.8817,-0.4180
Luton Tenpin,LU1 2NB,51.88185800000000,-0.41767200000000
Nando's Chickenland,LU1 2NB,51.88185800000000,-0.41767200000000
Subway Galaxy Luton,LU1 2NF,51.8812,-0.4172
Villa Ada Restaurant,LU1 2NQ,51.8806,-0.4126
Tastys Chicken Limited,LU1 2QB,51.8804,-0.4180
W.O HALL FOOD LTD,LU1 2QB,51.8804,-0.4180
G's Gourmet Burgers,LU1 2QH,51.8788,-0.4181
Pades Restaurant ltd,LU1 2QH,51.8788,-0.4181
Papa J's Indian Tapas Restaurant ,LU1 2QH,51.8788,-0.4181
STEAKOUT LUTON,LU1 2QH,51.8788,-0.4181
Downtown ,LU1 2QP,51.8806,-0.4185
Treatz Luton Dessert Parlour,LU1 2QX,51.8796,-0.4184
cafe zandras,LU1 2RD,51.87968444824220,-0.41991299390793
Charcoal House,LU1 2SE,51.8776,-0.4161
Gospoda Ltd,LU1 2SE,51.8776,-0.4161
Gourmet Shack,LU1 2SE,51.8776,-0.4161
PEPE S PIRI PIRI,LU1 2SE,51.8776,-0.4161
Table 21 Karahi House,LU1 2SE,51.8776,-0.4161
Debenhams Restaurant Luton,LU1 2SZ,51.8788,-0.4139
Asian Town cafe ,LU1 2TA,51.87938900000000,-0.41129300000000
Beebs bubbles,LU1 2TE,51.8790,-0.4128
Costa Coffee,LU1 2TF,51.87945300000000,-0.41334000000000
Go coffee,LU1 2TJ,51.8796,-0.4153
KFC,LU1 2TJ,51.87905883789060,-0.41554799675942
BURGER KING-The Mall Luton,LU1 2TL,51.88012500000000,-0.41651300000000
Burger King,LU1 2TL,51.88012500000000,-0.41651300000000
Greenfields Restaurant,LU1 2TW,51.8792,-0.4126
Robbys Teashop,LU1 2TW,51.8792,-0.4126
Lime House Cafe,LU1 2TY,51.8792,-0.4158
O'Sheas,LU1 3AL,51.8737,-0.4173
The Living Room Cafe ,LU1 3BE,51.8771,-0.4129
grill 33 limited,LU1 3BW,51.8767,-0.4108
La Dolce Vita (Luton) Limited,LU1 3ET,51.8774,-0.4118
Pizza Hut Delivery,LU1 3ET,51.87735748291020,-0.41191700100899
The Chequers,LU1 3EZ,51.8756,-0.4089
QUALITY FOOD LUTON LIMITED,LU1 3HG,51.8757,-0.4084
Wamimichi Noodle Bar,LU1 3HG,51.8757,-0.4084
Pizza Express,LU1 3JE,51.87889400000000,-0.41187800000000
313 Burger,LU1 3UA,51.8745,-0.4184
Frog & Rhubarb,LU1 4BJ,51.85560700000000,-0.43212600000000
The Rising Sun Pub,LU1 4BP,51.85383800000000,-0.43162100000000
The Plough ,LU1 4LU,51.8594,-0.4380
CAFE SHIMLA,LU1 5AA,51.87795400000000,-0.41953800000000
CARIBSPICE LTD,LU1 5AA,51.87795400000000,-0.41953800000000
Jill Jenkins Court,LU1 5QY,51.8764,-0.4383
Vault Lounge (Taste of Africa) ,LU2 0BW,51.8843,-0.4126
Waffles N Jerk,LU2 0BW,51.8843,-0.4126
TJ’s Peri Peri Grill and Pizza Ltd ,LU2 0DQ,51.8852,-0.4109
Hampton by Hilton London Luton Airport,LU2 0FP,51.8736,-0.3959
Youngs Fish Bar,LU2 0LX,51.88662300000000,-0.40034400000000
Victoria Kitchen,LU2 0NP,51.8842,-0.4157
Barnfield College Starbucks,LU2 7BF,51.90630400000000,-0.42214800000000
CJ's Cafe ,LU2 7SF,51.9083,-0.4116
Old Skool Pantry Limited,LU2 7SW,51.89152200000000,-0.40216100000000
SIMMONS BAKERS  STOPSLEY,LU2 7UR,51.9025,-0.3968
Wigmore Fish  Chips & All Day Dining ,LU2 8DW,51.8958,-0.3804
The White Horse,LU2 8PS,51.89463300000000,-0.35010800000000
KING WILLIAM,LU2 8QE,51.90168100000000,-0.36738000000000
Courtyard by Marriott Luton Airport,LU2 9LF,51.8758,-0.3848
Holiday Inn Luton Airport,LU2 9LF,51.8758,-0.3848
I'AMME UK LIMITED,LU2 9LU,51.8798,-0.3772
Burger King,LU2 9LY,51.87785200000000,-0.37637900000000
Frankie and Benny's,LU2 9LY,51.8778,-0.3763
Pret A Manger,LU2 9LY,51.87785200000000,-0.37637900000000
Starbucks Landside,LU2 9LY,51.87785339355470,-0.37637901306152
The Smithfield ,LU2 9LY,51.8778,-0.3763
Wasabi Sushi & Bento,LU2 9LY,51.8778,-0.3763
Wasabi,LU2 9LY,51.87785200000000,-0.37637900000000
Benugo Ltd,LU2 9NQ,51.88229500000000,-0.37774500000000
Ace Sandwich Bar LTD,LU2 9PA,51.8801,-0.3818
The Bright Star ,LU2 9QP,51.85748100000000,-0.34321900000000
Starbucks (Airside),LU2 9QT,51.87504700000000,-0.37969000000000
KFC,LU2 9TA,51.88922300000000,-0.37288900000000
Buffalo grill,LU2 9XG,51.8884,-0.3714
Grill Hut Peri Peri,LU3 1AN,51.8912,-0.4292
DESSERT ISLAND UK LTD,LU3 1AR,51.8947,-0.4320
Flava,LU3 1AW,51.8926,-0.4303
Azure Restaurant,LU3 1BT,51.8843,-0.4195
Amor Dessert Lounge,LU3 1PB,51.89880800000000,-0.43658200000000
uk periperi,LU3 1PB,51.8988,-0.4366
Ashiyana Indian,LU3 2DQ,51.91336800000000,-0.43063900000000
Pizza Hut Delivery,LU3 2QL,51.90455300000000,-0.45280900000000
Arianaz Restaurant and Wine Bar,LU3 2QQ,51.90453338623050,-0.45354101061821
SUNDON PERI GRILL,LU3 3AZ,51.91978800000000,-0.47162500000000
Dildar Restaurant,LU3 3BH,51.91616300000000,-0.47013500000000
INDIAN OCEAN ,LU3 3BH,51.91616300000000,-0.47013500000000
MR FISH AND GRILL ,LU3 3BH,51.91616300000000,-0.47013500000000
SKF,LU3 3BL,51.9191,-0.4735
cedric booles,LU3 3PE,51.93952300000000,-0.47987300000000
THE COFFEE HOUSE,LU4 0DZ,51.89418700000000,-0.47428200000000
Mecca Bingo,LU4 0JB,51.89060100000000,-0.48418300000000
Subway,LU4 8DA,51.89061100000000,-0.44501900000000
McDonalds Restaurants Limited,LU4 8EZ,51.89013790000000,-0.45618700000000
Orbital Trampoline Park (Luton) Limited,LU4 8EZ,51.8901,-0.4554
KFC,LU4 8FD,51.88893900000000,-0.45456500000000
Pizza Hut Restaurant,LU4 8FD,51.88893900000000,-0.45456600000000
Arabella lounge,LU4 8FG,51.88640200000000,-0.42999400000000
Coffeepot ,LU4 8FG,51.88640200000000,-0.42999400000000
CAFE LUTON ,LU4 8HX,51.88832080000000,-0.43166280000000
Luton tawa house,LU4 8HX,51.88832080000000,-0.43166280000000
Peri Peri Original,LU4 8JJ,51.8868,-0.4312
Alankar,LU4 8JL,51.88716800000000,-0.43418200000000
pepes piri piri,LU4 8JS,51.8893,-0.4398
The Coffee Tree,LU4 9ND,51.9010,-0.4710
Whitbread Plc (Hotels),LU4 9QH,51.90128000000000,-0.46449200000000
Chiltern Hotel Ltd,LU4 9RU,51.8928,-0.4518
Elior - Vauxhall Motors Restaurant,LU4 9TT,51.91449737548830,-0.48108598589897
GObowling,LU5 4JD,51.89069600000000,-0.52126500000000
CURRY GARDEN (DUNSTABLE) LTD T/A CURRY GARDEN FINEST INDIAN CUISINE,LU5 4NP,51.89279400000000,-0.49807500000000
CURRY GARDEN,LU5 4NP,51.89279400000000,-0.49807500000000
Kazmicks Restaurant,LU5 4RH,51.88714218139650,-0.52054500579834
The Old Palace Lodge Hotel ,LU5 4RT,51.88700700000000,-0.51757900000000
Chez Jerome ,LU5 4RU,51.88612900000000,-0.51991900000000
KFC,LU5 4WL,51.89045900000000,-0.51390500000000
Pizza Hut Restaurant,LU5 4WL,51.89045900000000,-0.51390500000000
Costa Coffee,LU5 5XE,51.90054700000000,-0.50754000000000
The Bell,LU5 6BP,51.94898200000000,-0.53161500000000
Bistro Twenty Four ,LU5 6BY,51.94794460000000,-0.53307310000000
Costa Coffee,LU5 6HP,51.94826300000000,-0.50380300000000
Costa Coffee,LU5 6HP,51.94826400000000,-0.50380400000000
KFC,LU5 6HP,51.94826400000000,-0.50380400000000
Burger King (Northbound),LU5 6HR,51.94744600000000,-0.50314700000000
Burger King (Southbound),LU5 6HR,51.94744600000000,-0.50314700000000
MOTO Services Southbound,LU5 6HR,51.94744600000000,-0.50314700000000
The Fancott,LU5 6HT,51.93743000000000,-0.51884200000000
Coconut Garden,LU6 1AU,51.89385400000000,-0.53149500000000
Donatellos ,LU6 1AU,51.89385400000000,-0.53149500000000
Cafe Latte,LU6 1HX,51.8866,-0.5221
IVORY PALMS SUITE LIMITED ,LU6 1HX,51.88663500000000,-0.52228500000000
Subway Dunstable,LU6 1HX,51.88663500000000,-0.52228500000000
The Old Sugar Loaf,LU6 1LA,51.88692600000000,-0.52179600000000
KHAM LTD T/A ROYMAI THAI RESTAURANT,LU6 1LN,51.89074300000000,-0.52717800000000
CAFEMASALA ,LU6 1RB,51.87240600000000,-0.58036100000000
The Old Farm Inn,LU6 1RE,51.87933200000000,-0.56347900000000
White Lion Pub ,LU6 1RS,51.9019,-0.5455
SPICE LOUNGE,LU6 1SL,51.88545200000000,-0.52183000000000
The Way Coffee House,LU6 1SX,51.88593700000000,-0.52187100000000
Costa Coffee Dunstable,LU6 1TD,51.8869,-0.5214
Costa Coffee,LU6 1TD,51.88683900000000,-0.52139100000000
The Cross Keys ,LU6 2DA,51.88682900000000,-0.57819200000000
The White Horse,LU6 2DG,51.8786,-0.5935
The Swan,LU6 2EY,51.86956300000000,-0.60655200000000
trevor carey,LU6 2JP,51.8715,-0.5473
The Farmers Boy,LU6 2PJ,51.85296200000000,-0.50805500000000
Zeera ,LU6 2PX,51.87960300000000,-0.54239000000000
Jaccs coffee,LU6 3AH,51.88248010000000,-0.52228120000000
Holiday Inn Express Dunstable,LU6 3DX,51.87572900000000,-0.50522500000000
Wilson Vale Catering,LU6 3EJ,51.87681198120120,-0.50900900363922
KFC,LU6 3RZ,51.88512600000000,-0.51954500000000
Priory House Tearooms,LU6 3RZ,51.88512600000000,-0.51954500000000
Sugar 'n' Spice,LU6 3RZ,51.8854,-0.5196
VANTAGE INDIAN RESTAURANT,LU6 3RZ,51.88512600000000,-0.51954500000000
Peri Peri Original Dunstable ,LU6 3SF,51.88421400000000,-0.51780200000000
The White Swan,LU6 3SF,51.8842,-0.5178
MCDONALD'S,LU7 9LZ,51.92797700000000,-0.58138700000000
CURRY GARDEN EGGINGTON LIMITED,LU7 9PD,51.91665300000000,-0.61200100000000
THE ANCHOR PUB,LU7 9PU,51.90989320000000,-0.57781420000000
Tilsworth Golf Centre Ltd,LU7 9PU,51.90916000000000,-0.57559700000000
The Green Man,MK17 9DU,51.98165100000000,-0.56834800000000
The Red Lion,MK17 9HS,51.96112400000000,-0.58476500000000
The Cross Keys Public House and Restaurant,MK43 0JB,52.07244000000000,-0.60466600000000
Lounge India Mm Ltd,MK43 0LE,52.07077600000000,-0.54078400000000
The Bell,MK43 0ND,52.06206500000000,-0.54961600000000
Marston Vale Services t/as The Forest Centre Limited,MK43 0PR,52.0647,-0.5354
Marston Moretaine Burger King,MK43 0PZ,52.06413500000000,-0.55197100000000
The White Horse,MK43 0XE,52.01159100000000,-0.60124100000000
Waterfall Elior at Kimberley College,MK43 9AE,52.07208600000000,-0.52458900000000
Costa Coffee,MK45 1DS,52.00467200000000,-0.49506100000000
SPICE INDIAN CUISINE,MK45 1HZ,51.99813400000000,-0.49563000000000
Waterfall Elior,MK45 2BX,52.02569100000000,-0.49550700000000
The White Hart,MK45 2DH,52.03009500000000,-0.46677400000000
Surfin Cafe Limited Ampthill,MK45 2EH,52.03233800000000,-0.49215000000000
the Hide,MK45 2HP,52.0318,-0.4942
Huck's American Bar and Grill,MK45 2HZ,52.02201660000000,-0.52553050000000
Leisure Bowl,MK45 2HZ,52.02201660000000,-0.52553050000000
Rajinda Pradesh,MK45 2HZ,52.02201660000000,-0.52553050000000
Sports Café,MK45 2HZ,52.02201660000000,-0.52553050000000
Staff Diner,MK45 2HZ,52.02201660000000,-0.52553050000000
Starbucks,MK45 2HZ,52.02201660000000,-0.52553050000000
The Pancake House,MK45 2HZ,52.02201660000000,-0.52553050000000
Vitale,MK45 2HZ,52.02201660000000,-0.52553050000000
VERANDAH ,MK45 2LL,52.03157800000000,-0.49598100000000
Rajgate ,MK45 2NB,52.03317900000000,-0.49461500000000
Ampthill Tandoori,MK45 2NG,52.03091300000000,-0.49329100000000
Donatellos,MK45 2NG,52.03075300000000,-0.49335500000000
FRATELLI AMPTHILL LTD t/a Fratelli,MK45 2NG,52.0309,-0.4933
The White Hart,MK45 2NG,52.03091300000000,-0.49329100000000
The coffee pot,MK45 2NG,52.0309,-0.4933
Big 10 Smoke and Grill,MK45 2PJ,52.03130490000000,-0.49200590000000
The Knife & Cleaver,MK45 3LA,52.06112289428710,-0.47830900549889
Whitbread Farms Ltd,MK45 3QA,52.07125854492190,-0.38930401206016
The Greyhound,MK45 3QD,52.06246200000000,-0.38978000000000
The Stone Jug,MK45 4BY,52.0305,-0.4240
English Heritage Shop,MK45 4HR,52.00801100000000,-0.41171100000000
English Heritage Tea Room,MK45 4HR,52.00801100000000,-0.41171100000000
CAFE GOA,MK45 4JU,51.96568100000000,-0.42664400000000
Passage to India ,MK45 4LL,51.9672,-0.4275
Boutique-e-licious,MK45 4RF,51.96878051757810,-0.43438100814819
Mill House Coffee Shop,MK45 4RF,51.9688,-0.4344
Drovers Arms of Steppingley,MK45 5BA,52.00722900000000,-0.52442100000000
The Compasses,MK45 5DD,52.0010,-0.4694
Jolly Coopers,MK45 5ED,52.00981500000000,-0.44792800000000
The White Hart,MK45 5EJ,52.01158100000000,-0.45914500000000
The Cross Keys,MK45 5HB,51.99550900000000,-0.45202000000000
The Bell Westoning,MK45 5JH,51.9824,-0.4951
The Chequers,MK45 5LA,51.9801,-0.4980
Noodlestop,SG1 1BP,51.9019,-0.2024
SUBWAY ,SG1 1BP,51.90188360000000,-0.20175310000000
Starbucks Coffee Co (UK) Ltd,SG1 1BP,51.90189361572270,-0.20236100256443
KARAKURT LTD T/A BELLA VISTA,SG1 1BS,51.90075300000000,-0.20130200000000
JJ’s Plaice ,SG1 1DH,51.9013,-0.2001
Mad Hatter Cafe,SG1 1DN,51.90196600000000,-0.20122400000000
SUBWAY ,SG1 1EH,51.90372100000000,-0.20250600000000
Esquires Coffee Stevenage,SG1 1QR,51.90295400000000,-0.20239100000000
Mecca Bingo,SG1 1XB,51.90026300000000,-0.20337100000000
Wilson Vale Catering,SG1 2AN,51.89808273315430,-0.20950399339199
The Fisherman,SG1 2JA,51.91871800000000,-0.22194500000000
Elior,SG1 2ST,51.89883900000000,-0.21321000000000
360 Play (Stevenage) Limited,SG1 2UA,51.89980400000000,-0.20863700000000
Ask Italian,SG1 2UA,51.89980400000000,-0.20863700000000
Bar&Beyond Stevenage,SG1 2UA,51.8999,-0.2083
Hollywood Bowl,SG1 2UA,51.89980400000000,-0.20863700000000
KFC Stevenage,SG1 2UA,51.89991378784180,-0.20826900005341
McDonalds,SG1 2UA,51.89980400000000,-0.20863700000000
Mr Mulligan's Lost World Stevenage,SG1 2UA,51.89991400000000,-0.20826800000000
Nando's,SG1 2UA,51.89980400000000,-0.20863700000000
Pizza Hut Restaurant,SG1 2UA,51.89980400000000,-0.20863700000000
Prezzo Plc,SG1 2UA,51.89980400000000,-0.20863700000000
Starbucks,SG1 2UA,51.89991400000000,-0.20826800000000
Wagamama Group,SG1 2UA,51.89902860000000,-0.20907150000000
SUBWAY ,SG1 3AH,51.91147500000000,-0.20801200000000
El Bar De Tapas,SG1 3AN,51.91148900000000,-0.20777900000000
CHICKAROS,SG1 3AQ,51.91114000000000,-0.20789500000000
The Broken Seal Tap Room,SG1 3AU,51.91211400000000,-0.20804500000000
TARLA RESTAURANT,SG1 3AW,51.91100690000000,-0.20759220000000
Rump & Wade,SG1 3AZ,51.9128,-0.2079
The Cromwell Hotel,SG1 3AZ,51.9128,-0.2079
Lavish bar and grill,SG1 3DB,51.90871800000000,-0.20706100000000
ANGELIQUE 2019 LTD,SG1 3DW,51.91010400000000,-0.20776100000000
Angelique Restaurant ,SG1 3DW,51.91010400000000,-0.20776100000000
OLD TOWN CHINESE RESTAURANT LTD,SG1 3DW,51.91010400000000,-0.20776100000000
Raj Mahal,SG1 3DW,51.91010400000000,-0.20776100000000
Sala Thong Stevenage,SG1 3DW,51.91010300000000,-0.20776100000000
Pizza Hut,SG1 3EF,51.91272600000000,-0.20930000000000
 Spice Rouge,SG1 3HR,51.91025700000000,-0.20720300000000
Bombay restaurant ,SG1 3HR,51.91058800000000,-0.20722600000000
MISYA (EAST) LTD,SG1 3HS,51.90944300000000,-0.20684300000000
Stevenage Garden Centre,SG1 4AH,51.92845153808590,-0.21054300665855
The Marquis of Granby,SG1 4BS,51.92111100000000,-0.20842800000000
White Horse,SG15 6TA,52.01630460000000,-0.26361490000000
The Five Bells Henlow,SG16 6AE,52.0364,-0.2862
The Crown,SG16 6BS,52.02907562255860,-0.28587999939919
Champneys Henlow,SG16 6BT,52.0300,-0.2840
Mount Pleasant Golf Club,SG16 6JL,52.00199890136720,-0.31861498951912
Dalchini Spice Ltd,SG17 5DB,52.03824200000000,-0.33308900000000
Rose Buds Duck Lane,SG17 5DG,52.03833770751950,-0.33528798818588
The Bridge,SG17 5DG,52.03791250000000,-0.33640280000000
shefford tandoori ,SG17 5DG,52.03832000000000,-0.33544800000000
Bangkok Lounge Shefford,SG17 5DJ,52.0414,-0.3356
the loft,SG17 5DQ,52.0396,-0.3346
Golden Lion,SG17 5ES,52.03649400000000,-0.30258100000000
Tawa Restaurant ,SG17 5QQ,52.06466293334960,-0.37954100966454
Samuel Whitbread Academy,SG17 5QS,52.03784400000000,-0.31769300000000
MCDONALD'S,SG18 8QB,52.07484054565430,-0.24108099937439
SOUTHILL VILLAGE STORE & TEA ROOM,SG18 9JB,52.06444549560550,-0.32054498791695
The Green Man,SG18 9JD,52.05547400000000,-0.31131300000000
White Horse,SG18 9LD,52.06300800000000,-0.32696000000000
Spice Lounge,SG18 9NX,52.05494700000000,-0.27211810000000
The Langford hideaway ,SG18 9RR,52.05375440000000,-0.27194630000000
Ivel Valley Coffee Shop,SG18 9SD,52.04723400000000,-0.27804000000000
The Lytton Arms,SG3 6QB,51.86827400000000,-0.21490000000000
Pizza Hut,SG4 0JN,51.95741700000000,-0.25496500000000
Hitchin Garden Centre,SG4 0JT,51.9629,-0.2466
Chesfield Downs Golf Club,SG4 7EQ,51.94736800000000,-0.20672700000000
The Green Man,SG4 7EU,51.94315800000000,-0.23635700000000
Bucks head pub,SG4 7HY,51.93241900000000,-0.23557100000000
The Farmhouse at Redcoats,SG4 7JR,51.92471694946290,-0.23831699788570
The FarmhouseatRedcoatsLtd,SG4 7JR,51.9247,-0.2383
George and Dragon ,SG4 7LE,51.93438700000000,-0.21048800000000
Waggon and Horses,SG4 7LE,51.93438700000000,-0.21048800000000
The Rusty Gun,SG4 7PG,51.91363300000000,-0.25837900000000
The Bull,SG4 7QG,51.92961500000000,-0.27386100000000
Emily’s Teashop,SG4 8BN,51.87670500000000,-0.28111800000000
The Boot Inn,SG4 8PT,51.85132200000000,-0.29727300000000
The Orchard at Vanstone Park,SG4 8TH,51.86841600000000,-0.23562200000000
Indian Hitchin,SG4 9NR,51.94238200000000,-0.25972400000000
Khushma Cottage,SG4 9ST,51.95136200000000,-0.26933000000000
Radcliffe Arms,SG4 9ST,51.95135710000000,-0.26973420000000
THE ALBERT INN,SG4 9SU,51.95168900000000,-0.26832800000000
Bosphorus Restaurant,SG5 1AE,51.94651600000000,-0.27858200000000
Four Leaf Clover,SG5 1AE,51.94651600000000,-0.27858200000000
Mevan Ocakbasi,SG5 1AE,51.94651600000000,-0.27858200000000
Deroka Restaurant ,SG5 1AH,51.94651400000000,-0.27903300000000
Deroka restaurant,SG5 1AH,51.94651400000000,-0.27903300000000
Lussmanns Hitchin,SG5 1AH,51.9465,-0.2790
Zizzi,SG5 1AH,51.94651400000000,-0.27903300000000
Fussey & Baer,SG5 1AT,51.94836040000000,-0.27820790000000
Los Reyes ,SG5 1BB,51.94664300000000,-0.27927500000000
Bar Azita,SG5 1BG,51.94672900000000,-0.27959200000000
Chilli B's,SG5 1BG,51.94672900000000,-0.27959200000000
Kite at The Red Hart,SG5 1BG,51.94672900000000,-0.27959200000000
ACH Leisure Limited,SG5 1BH,51.9481,-0.2790
Caffe Nero,SG5 1BH,51.94825200000000,-0.27918400000000
Regent Cottage Restaurant,SG5 1BH,51.94825200000000,-0.27918400000000
Hermitage Road Bar and Restaurant,SG5 1BT,51.94960600000000,-0.27590200000000
RDTI LIMITED,SG5 1BT,51.9496,-0.2759
Raj Douth Tandoori Cuisine,SG5 1BT,51.94960600000000,-0.27590200000000
Hitchin Cafe,SG5 1DB,51.94910200000000,-0.27525200000000
Chia Naturally Healthy ,SG5 1DR,51.94772000000000,-0.27847700000000
Starbucks Coffee Co,SG5 1DR,51.94772000000000,-0.27847700000000
Starbucks,SG5 1DR,51.94772000000000,-0.27847700000000
Halsey's Deli & Eatery,SG5 1DS,51.94735600000000,-0.27821500000000
Bar Amigo,SG5 1DT,51.94711500000000,-0.27896600000000
Osinsky's,SG5 1DY,51.94751800000000,-0.27946000000000
Casbah Grill Ltd,SG5 1HR,51.9482,-0.2780
The Groundworks,SG5 1HR,51.94814600000000,-0.27811200000000
North Hertfordshire Museum Cafe,SG5 1JE,51.9492,-0.2792
Costa Coffee Hitchin,SG5 1JQ,51.94945600000000,-0.27791600000000
Costa Coffee,SG5 1JQ,51.94945600000000,-0.27791600000000
Prezzo,SG5 1JQ,51.94945600000000,-0.27791600000000
The Haven Cafe,SG5 1JW,51.95044100000000,-0.27704900000000
Payitaht Limited,SG5 1NB,51.9502,-0.2762
Taste Buds,SG5 1NB,51.95025200000000,-0.27637200000000
MOLLY'S TEA ROOM LTD.,SG5 1NQ,51.95123000000000,-0.27627700000000
Mint Leaf Hitchin,SG5 1NQ,51.95123000000000,-0.27627700000000
Paprika Spice Ltd,SG5 1QU,51.95385100000000,-0.27227600000000
McDonalds Restaurants,SG5 1RQ,51.95430900000000,-0.26796500000000
bridge street bistro,SG5 2DF,51.94538300000000,-0.27794100000000
The Highlander,SG5 2EF,51.94720000000000,-0.28539400000000
Red Lion Lodge and Hotel,SG5 3DZ,51.92638500000000,-0.33492400000000
The Raven,SG5 3JB,51.96417100000000,-0.39074300000000
The Crown,SG5 3LP,51.99273500000000,-0.36053100000000
MOTTE & BAILEY,SG5 3QD,51.97052700000000,-0.33439400000000
THE OLD GEORGE ICKLEFORD LIMITED,SG5 3UX,51.97012000000000,-0.28045800000000
Plume of Feathers  Ickleford,SG5 3YD,51.97128400000000,-0.28013700000000
Stotfold Conservative Club,SG5 4DZ,52.0202,-0.2274
Box of Cakes Cafe,SG5 4HP,52.01552640000000,-0.23225030000000
The Orchard at Fairfield Park,SG5 4HP,52.01552640000000,-0.23225030000000
The Stag,SG5 4LA,52.01395300000000,-0.23111300000000
India Lodge,SG5 4LD,52.01374200000000,-0.22724500000000
Three Horseshoes,SG6 1AG,51.99296200000000,-0.21004700000000
Teamworks Karting Letchworth,SG6 1JS,51.98143600000000,-0.21663700000000
Burger King (UK) Ltd,SG6 1UP,51.98273900000000,-0.20241700000000
The Fox,SG6 2AE,51.96164600000000,-0.21970800000000
Three Horseshoes,SG6 2AE,51.96164600000000,-0.21970800000000
Costa Coffee,SG6 2HB,51.98008020000000,-0.20689940000000
MCDONALD'S,SG6 2HB,51.9799,-0.2077
McDonalds Restaurant,SG6 2HU,51.97823400000000,-0.20832380000000
Jackmans chippy,SG6 2NH,51.97031700000000,-0.21038200000000
DRAGON KING,SG6 3AU,51.98002300000000,-0.22790600000000
USA Fried Chicken,SG6 3BE,51.98078500000000,-0.22537100000000
Shapla Restaurant GB Ltd,SG6 3BJ,51.98040700000000,-0.22534200000000
Prezzo,SG6 3BY,51.97787900000000,-0.22943200000000
Alloro,SG6 3DA,51.97825600000000,-0.22882000000000
Khoi Khoi bar and Vino,SG6 3DA,51.97813310000000,-0.22886780000000
Miss Green Fingers,SG6 3DE,51.97912790000000,-0.22796220000000
SIMMONS BAKERS  LETCHWORTH,SG6 3DE,51.97869500000000,-0.22808900000000
Wallace Books Ltd  T/A David's Cafe,SG6 3DE,51.97869500000000,-0.22808900000000
IZ Restaurant,SG6 3DG,51.97900700000000,-0.22851400000000
Letchworth Pizza Pasta Limited,SG6 3DG,51.97900700000000,-0.22851400000000
Ciao Italia,SG6 3DL,51.97806080000000,-0.22778360000000
Wildwood,SG6 3DL,51.97791200000000,-0.22804700000000
Costa Coffee,SG6 3DN,51.97840499877930,-0.22724199295044
ESQUIRES COFFEE LETCHWORTH LIMITED,SG6 3ED,51.97883670000000,-0.22651360000000
Vutie Beets,SG6 3EN,51.97964477539060,-0.22551900148392
Thegrapevine,SG6 3EU,51.97947000000000,-0.22762200000000
Letchworth Golf Trust,SG6 3NQ,51.96378700000000,-0.23106400000000
The Broadway Hotel,SG6 3NZ,51.97905100000000,-0.23020100000000
The Cloisters,SG6 3TH,51.96778400000000,-0.22421100000000
Thornes Garden Nursery,SG6 4JR,51.99719700000000,-0.24349900000000
Cotey's Restaurant,SG7 5EX,52.02987150000000,-0.21452820000000
The Three Horseshoes,SG7 5HQ,52.04949600000000,-0.20023500000000
Chopstix Baldock,SG7 5TR,52.0145,-0.2025
EL MEXICANA,SG7 5TR,52.01452600000000,-0.20249800000000
KFC BALDOCK SERVICE,SG7 5TR,52.0145,-0.2025
KFC,SG7 5TR,52.01452600000000,-0.20249800000000
MCDONALD'S,SG7 5TR,52.01452600000000,-0.20249800000000
McDonalds,SG7 5TR,52.01452600000000,-0.20249800000000
Starbucks,SG7 5TR,52.01452600000000,-0.20249800000000
