name,postcode,lat,lon
KAYKEM FAST FOODS LIMITED,CO1 1DA,51.889526000000000,0.896894000000000
KFC Colchester High Street,CO1 1DA,51.889526000000000,0.896894000000000
Colchester High Street McDonalds,CO1 1DH,51.889587000000000,0.900668691551868
Love Thy Burger,CO1 1DH,51.889587000000000,0.900668691551868
Preto,CO1 1DH,51.889587000000000,0.900668691551868
GELATOS HOUSE COLCHESTER LTD,CO1 1DN,51.889408105332900,0.902729350420211
Three Wise Monkeys Colchester,CO1 1DN,51.889408105332900,0.902729350420211
Middletons Steakhouse & Grill Colchester,CO1 1DZ,51.891059378372800,0.896672856202652
North Hill Noodle Bar,CO1 1DZ,51.891059378372800,0.896672856202652
Loofer's Food & Coffee Place,CO1 1JG,51.888997000000000,0.897950000000000
BAGEL DOUGH LTD,CO1 1JJ,51.887985000000000,0.898108705115646
Deja brew,CO1 1JJ,51.887985000000000,0.898108705115646
RDM Food Ltd,CO1 1JJ,51.887985000000000,0.898108705115646
Tea Rose Cafe,CO1 1JJ,51.887985000000000,0.898108705115646
Cafe21,CO1 1JN,51.888473955305600,0.899035514824750
Tymperleys Ltd,CO1 1JN,51.888473955305600,0.899035514824750
cafe med,CO1 1JN,51.888473955305600,0.899035514824750
timbers cafe,CO1 1JN,51.888473955305600,0.899035514824750
Triple TWo Coffee,CO1 1LH,51.888946911687300,0.902292000000000
Aburi restaurant LTD.,CO1 1LN,51.888040000000000,0.902749345828673
Jacquelines tearoom,CO1 1LN,51.888040000000000,0.902749345828673
Caffe Sala Ltd,CO1 1LS,51.887912716959100,0.900641750873230
Small Talk Tearooms,CO1 1LS,51.887912716959100,0.900641750873230
The Purple Dog Pub ,CO1 1LS,51.887912716959100,0.900641750873230
Church Street Tavern ,CO1 1NF,51.888861442044100,0.895354150972115
Hudsons,CO1 1NX,51.889412134617900,0.896115000000000
Taco Bell,CO1 1NY,51.889239426433200,0.896439489311190
Piccolo ,CO1 1PY,51.891568000000000,0.895775000000000
The Green Room at The North Hill Hotel,CO1 1PY,51.891568000000000,0.895775000000000
Feast Sandwiches and Buffets,CO1 1QR,51.892127478356800,0.896029334769510
Pavilion Lounge and Restaurant,CO1 1QX,51.893497300419000,0.895550550221807
Trotters Bar,CO1 1QX,51.893497300419000,0.895550550221807
Raj Palace,CO1 1RB,51.895324757732400,0.895479123341640
Wimpy,CO1 1TB,51.889929186873400,0.901658291495425
MIRRA RESTAURANT,CO1 1TH,51.889762597172000,0.902577786636453
Sip & Tuck,CO1 1UE,51.889727524150300,0.904726684922865
GREYFRIARS COLCHESTER,CO1 1UG,51.890126590777500,0.905319296202780
Putt in the  Park ,CO1 1UG,51.890126590777500,0.905319296202780
Cowdray Av McDonalds,CO1 1US,51.897200303610100,0.897984000000000
The Foresters Arms,CO1 1UW,51.891684354685300,0.906335560089063
MT COFFEE LTD T/A MUFFIN BREAK,CO1 1XJ,51.888671000000000,0.900196000000000
Miseria E Nobilta' Ltd,CO1 2PG,51.889557000000000,0.904403402549556
Kimchi House,CO1 2PJ,51.888985070118900,0.903969000000000
DICE & A SLICE LTD,CO1 2PQ,51.888427636125400,0.903828895640819
Rollerworld Ltd,CO1 2TJ,51.888579000000000,0.918838000000000
The Old Siege House Bar and Brasserie,CO1 2TS,51.890308652670600,0.916493979161308
ROSE AND CROWN HOTEL,CO1 2TZ,51.890678133606500,0.918276674565529
The Crown,CO10 0AT,52.071042075693600,0.760525001731707
Kings Head,CO10 0JE,52.026880000000000,0.743895000000000
Perrywood Sudbury ,CO10 0PZ,52.043674323058400,0.764044113724065
The Saracens Head,CO10 0QJ,52.033252797312500,0.790288475604445
Mill Hotel,CO10 1BD,52.038751010811600,0.724468905452590
The Prince of Wales,CO10 1JB,52.040931000000000,0.728233000000000
dough&co,CO10 1RE,52.041382007554100,0.729689460970274
Starburger ,CO10 1RF,52.040310905253500,0.730892914361908
The white horse,CO10 1RF,52.040310905253500,0.730892914361908
The Secret Garden,CO10 2AA,52.037339935404700,0.729093133489796
alaz restaurant,CO10 2BL,52.035358525807200,0.722614835358434
Valley valley Ltd ,CO10 2DA,52.034241637513200,0.717239389685617
THE BLACK BOY HOTEL LTD,CO10 2EA,52.038671339403300,0.730238797911927
Ree's Cafe & Takeaway,CO10 2EB,52.038591708516500,0.732667000000000
The Gainsborough,CO10 2EB,52.038591708516500,0.732667000000000
Marimba,CO10 2EG,52.038154033849700,0.732639000000000
HUFFERS RESTAURANT CAFE,CO10 2EQ,52.038375645122900,0.732131091471956
painters cafe,CO10 2EU,52.038166987557500,0.727554035014517
THE MALDON GREY SUDBURY LTD,CO10 2RZ,52.038396068196100,0.747487837671684
Station Road,CO10 2SS,52.036876732638800,0.731616777036671
KFC SUDBURY DEPO,CO10 2XQ,52.045004768067000,0.749468492129434
The White Hart Inn,CO10 5DX,52.028741019666800,0.859888118253395
The Fox and Hounds,CO10 5ED,52.037681955057200,0.855748809855782
The Fox,CO10 7EB,52.018007896062300,0.694201806662726
The Pinkuah Arms ,CO10 7JW,52.072494887682000,0.647878772609993
The Henny Swan,CO10 7LS,52.012768441277200,0.736939105721858
Donkey & Buskins ,CO2 0HU,51.851266000000000,0.865042000000000
dough&co,CO2 7AD,51.887728913955500,0.897882946122905
Bellapais Restaurant Ltd,CO2 7AH,51.887757395908600,0.898916707958758
SONS WAY LIMITED,CO2 7DB,51.887428874828000,0.900203626710210
L'Patisserie,CO2 7EA,51.887132823381700,0.903527000000000
Britannia Gurkha Restaurant & Sport Bar,CO2 7QY,51.879109631483800,0.903489677691418
SUBWAY ,CO2 8FR,51.879934000000000,0.931640573411640
Pizza Hut Colchester South,CO2 8FU,51.879453000000000,0.927765000000000
Bambu,CO2 8GN,51.879251000000000,0.930469000000000
the eat inn diner,CO2 8HG,51.871839000000000,0.929072000000000
Colchester Kawasaki Race Cafe,CO2 8HH,51.874289913844600,0.931003809914045
Quayside Bar and Gurkha Restaurant,CO2 8HT,51.876173000000000,0.933451000000000
Spinnaker ,CO2 8JB,51.882031000000000,0.926121549072526
Weston Business Centre,CO2 8JX,51.881990000000000,0.929180000000000
CESSAC Community Cafe,CO2 9ND,51.867154462650500,0.879460692103574
The Live and Let Live,CO3 0PS,51.886928838869600,0.840364608047110
Colchester Zoo Limited,CO3 0SL,51.863901071790400,0.835702727791615
Mat's Kitchen,CO3 3BZ,51.885599277260000,0.894156117747597
The Nourish Co,CO3 3EN,51.887798206269000,0.894834000000000
The Bull,CO3 3ES,51.887564433659200,0.895067271413097
67 Crouch Street,CO3 3EY,51.887870440216300,0.892499853631553
Curry India Tandoori Restaurant,CO3 3HA,51.887765184475600,0.890196690216593
PLAYGOLF COLCHESTER LIMITED,CO3 4AU,51.896904272304200,0.866244836950065
The Lexden Crown,CO3 4DA,51.890038942266800,0.858249651390271
BANQUET CHINESE LIMITED,CO3 8LT,51.883450203661900,0.814102785316013
Stanway Garden Centre,CO3 8LT,51.883450203661900,0.814102785316013
The Barn Plant & Garden Centre Limited,CO3 8ND,51.890910000000000,0.809075000000000
Tollgate McDonalds,CO3 8RG,51.883769000000000,0.833073000000000
Kings cafe,CO3 9DW,51.889469607398200,0.852065360665565
The Cricketers,CO3 9TG,51.900385723723800,0.826443065959220
Greenstead Social Club,CO4 3QD,51.889750195371300,0.935324150884917
Bricklayer Arms,CO4 5AA,51.902084555216900,0.894154823152282
Stadium McDonalds,CO4 5HH,51.926539911094700,0.895175880818334
COSTA COFFEE,CO4 5JL,51.910171856821100,0.899182886270035
Fillpots Garden Centre LLP,CO4 5RB,51.939985382619800,0.903928666535466
SUBWAY ,CO4 5TU,51.901717000000000,0.901459000000000
The Oak Tree Coffee House,CO4 9BB,51.910596880031400,0.918725137975138
KFC Ardleigh,CO4 9HB,51.917610093694200,0.931455314305405
CHEFS EATING HOUSE LTD,CO4 9HT,51.920060005493000,0.926975225884362
Mimosa Restaurant,CO4 9YQ,51.923695836123000,0.921589000000000
Jam jar ,CO5 7EA,51.856381669401800,0.946905160393587
The Anchor Rowhedge,CO5 7ES,51.856150000000000,0.948698332715991
Subway feering,CO5 9EL,51.852542419626500,0.730847446034048
Copford Alma  ,CO6 1BZ,51.869442139235700,0.798874161213325
Marks Tey Hotel ,CO6 1DU,51.880991675916200,0.790465893590373
Poplar Nurseries Ltd,CO6 1HR,51.877373000000000,0.755557000000000
The Barn Brasserie,CO6 1JE,51.891029808606300,0.749115000000000
The Kings Arms Broad Green Ltd,CO6 1RU,51.875509737623200,0.727430078259446
The Chapel Inn,CO6 1TS,51.871684000000000,0.686243000000000
Swan Inn,CO6 2DD,51.921807895061200,0.754032004135942
Platform Two Cafe,CO6 2DS,51.924764000000000,0.756133000000000
COLNE VALLEY GOLF CLUB,CO6 2LT,51.931098058627500,0.692642336599277
The Essex Golf & Country Club Ltd,CO6 2NS,51.908386000000000,0.683039000000000
The Drapers,CO6 2PB,51.927549095050300,0.700578000000000
The Crown Wormingford,CO6 3AB,51.949120561568400,0.805421307611319
White Hart ,CO6 3DD,51.919615945451400,0.848347952497203
Queens Head West Bergholt,CO6 3HE,51.909663772490900,0.847456124937346
The Anchor Inn,CO6 4JL,51.970789000000000,0.873250353510198
The Stoke by Nayland Club Ltd,CO6 4PZ,51.997853350417700,0.865709000000000
The Crown,CO6 4SE,51.988444100320200,0.895833233161988
The cock inn polstead,CO6 5AL,52.007220244165500,0.902131814806057
Tiptree Tea room at The Essex Rose,CO7 6DE,51.958980008974300,0.992574065310098
The Sun Inn Dedham,CO7 6DF,51.958990357963800,0.992167142915134
Boathouse Restaurant ,CO7 6DH,51.961444229782400,0.993990305798463
The Marlborough,CO7 6DH,51.961444229782400,0.993990305798463
Le Talbooth,CO7 6HP,51.960961000000000,0.968394000000000
milsoms,CO7 6HW,51.960219218237000,0.974561122383660
Hall Farm Cafe Restaurant,CO7 6LS,51.972309541232500,0.986167147085109
The Carriers Arms ,CO7 6RA,51.978269627552900,1.019405238952520
Hare and Hounds,CO7 6RL,51.978450000000000,1.021879000000000
Dragonfly Colchester,CO7 7QY,51.923180550741000,0.937447652105453
THE BLACK BUOY TRADING COMPANY LIMITED,CO7 9BS,51.854574690910200,0.960119756714646
The Horse and Groom,CO7 9QL,51.866511778748800,0.962167779401580
The Lamarsh Lion community Pub Ltd,CO8 5EP,51.985506000000000,0.754888641021416
Buzy Beanz Bistro,CO9 1HT,51.943676322563600,0.634781983826637
Coffee Kavern ,CO9 1HT,51.943676322563600,0.634781983826637
The Locomotive Pub and Restaurant,CO9 1LL,51.944739000000000,0.632356000000000
Aimes Ltd t/a Costa Coffee Halstead,CO9 2JN,51.943426269823600,0.635875000000000
The Kings Head Pebmarsh,CO9 2NH,51.969138173793800,0.695432580156829
The Pheasant,CO9 3AU,52.006982277446600,0.640219664111813
The George,IP7 5AU,52.041593000000000,0.957345000000000
The Ram,IP7 5DL,52.042829562768600,0.953733000000000
Hufferâ€™s Cafe ,IP7 5EA,52.044660723631500,0.952747715302851
Battleburys at the KingsHead,IP7 5EF,52.044431572170400,0.953636887635929
Cobblers Cafe and Wine Bar ,IP7 5EF,52.044431572170400,0.953636887635929
Paddy & Scott's Cafe,IP7 5EF,52.044431572170400,0.953636887635929
Jet Lounge Ltd,IP7 5EJ,52.045909205376000,0.951736129113028
The Marquis of Cornwallis,IP7 5JZ,52.025180874837600,0.968477390704744
The Millers Kitchen Coffee Shop Kersey Mill,IP7 6DP,52.061588166308600,0.933479000000000
The Bell Inn,IP7 6DY,52.059949473296600,0.916303316266785
Hintlesham Golf Club,IP8 3JG,52.055676401349000,1.036967601468320
