name,postcode,lat,lon
Puffleg and Recurvebill,WA11 8AN,53.503392068798700,-2.783108097036900
Skunk and Chickadee,WN3 6QD,53.527117000000000,-2.654014816644180
Recurvebill and Kite,WN3 5QP,53.519840000000000,-2.646824000000000
Chicken and Eagle,PR6 0QW,53.650629833626400,-2.616085880593280
Grackle and Kangaroo,WN2 5NT,53.520576508971400,-2.594739974519860
Kangaroo and Dolphin,WA3 2QB,53.474349799212100,-2.577972260833670
Tahr and Marmoset,WN8 6RN,53.558155888337600,-2.775408917386500
Francolin and Pratincole,WN5 8AD,53.536420000000000,-2.679911341454550
Capuchin and Grouse,BL6 7PN,53.597954350000000,-2.548516703000000
B and Argus,WN3 4DS,53.542625989929400,-2.645859237892640
Mink and Rat,WA12 0JQ,53.479779921916300,-2.639795000000000
Greenbul and Fox,WN8 9PT,53.530947000000000,-2.754467008580330
Ground sloth and Cuscus,WN1 1SX,53.551414621562900,-2.633723000000000
Fox and Condor,WN5 9EN,53.535783054638500,-2.663437991274890
B and Mockingbird,BL6 6AX,53.599108760000000,-2.531728702000000
Jackal and Rabbit,WN8 9UW,53.544380815738100,-2.780257903671070
Grackle and Thicketbird,WN2 3TH,53.523711313198800,-2.602355958424480
Peafowl and Zebra,WN5 8LZ,53.539208667765900,-2.701064065382000
Egret and Siskin,WN6 9SE,53.616266526167900,-2.704199944552220
Boto and Boto,WN5 0UQ,53.540983000000000,-2.653032000000000
Jay and Grouse,WN5 0AY,53.540528903554300,-2.684185270354710
Mouse and Marsh harrier,WN7 1BH,53.498100582767400,-2.514393939421900
Grackle and Petrel,PR6 6GL,53.653162455781900,-2.625155407081630
Gull and Buzzard,BL5 2HL,53.536191670000000,-2.516968079000000
Kangaroo and Logrunners,WN8 8HW,53.550105454385200,-2.804829546520490
Towhee and Darwin's finches,WN2 2JZ,53.544385752398200,-2.591602000000000
Pheasant and Vole,WN6 9DD,53.579173711157500,-2.712871832773460
Piping shrike and Dolphin,WN1 2TN,53.585040845463100,-2.640191466369240
Siskin and Scimitar babbler,WN5 9UJ,53.540630827508800,-2.678920552788870
Eagle and Fox,WN2 2BE,53.541993761135300,-2.612997694509580
Boto and Greenbul,PR7 1UY,53.661456133146900,-2.652578024251560
Kākāriki and Tit-tyrant,WN6 9BE,53.582945000000000,-2.717919000000000
Polecat and Marmoset,WN2 1JD,53.559087862110400,-2.599205266906710
Egret and Parrotbill,WN2 3GD,53.524946000000000,-2.592991000000000
Parakeet and Tit-tyrant,WN5 9PS,53.540216230281600,-2.661485309113190
Vulture and Parrotbill,L40 7RX,53.600412711576600,-2.849276193370230
Mouse and Partridge,WN6 0JF,53.589285843284100,-2.667690262327270
Flameback and Cuscus,WN2 5HX,53.514838603609900,-2.602561837199080
Prion and Cloud rat,BL6 6LW,53.586904090000000,-2.521167238000000
Boto and Meadowlark,WA11 7HL,53.474890000000000,-2.723311000000000
Kākāriki and Magpie,WN1 3JD,53.545783903861300,-2.615331317146870
American sparrow and Jerboa,WN1 3YH,53.552349000000000,-2.614848709120380
Black cockatoo and Duck,PR25 4ZJ,53.691279456393900,-2.678435244942660
Prion and Tree warbler,WN1 3YE,53.551764500115100,-2.616444488122580
Bronzewing pigeon and Piping shrike,WN2 3AN,53.536157148313000,-2.577516443137470
Chickadee and Solitaire,WN5 8PZ,53.540137630035600,-2.702060249720950
Armadillo and Jay,BL6 6ZE,53.588218000000000,-2.538918000000000
Lemming and B,PR25 1BJ,53.684279260887600,-2.709165269341670
Solitaire and Perching duck,WN5 8SW,53.533315316190900,-2.709672044261730
Masked owl and Hawk,WN5 7EJ,53.515009395434600,-2.715066557075910
Mouse and Skunk,BL6 5EY,53.595860310000000,-2.590010308000000
Kākāriki and Logrunners,WN7 1RL,53.502001913936800,-2.520546971822890
Badger and Bronzewing pigeon,WN2 5LU,53.514990686129900,-2.600920201486700
Logrunners and Magpie,WN4 0DH,53.501184268432500,-2.649042798711150
Marsh harrier and Viscacha,PR7 2WA,53.644935126704200,-2.652655638347820
Songlark and Jerboa,WN2 3BJ,53.534850085261300,-2.583835492017610
Solitaire and Cuscus,WN6 0DR,53.584726644106600,-2.656697065559990
Lemming and Stilt,PR26 9SB,53.665465019551800,-2.778846229280410
Pitohui and Piping shrike,WN3 4UF,53.525548332621300,-2.612307590962040
Tree warbler and Fox,WN5 8HU,53.536169733655800,-2.690391690145190
Ground sloth and Elephant,PR25 1UQ,53.689563272706100,-2.716901356570770
Treepie and Black cockatoo,WN3 5BN,53.539432395124000,-2.636998068593230
Minke whale and Elephant,PR7 6EL,53.660075127352900,-2.701283299131590
Herring gull and Kangaroo,WN6 9JX,53.581240400077100,-2.709961269303990
Fish eagle and Tahr,PR6 8HG,53.685487117177800,-2.605390029852450
Goose and Fulmarine petrel,BL6 6QH,53.597271760000000,-2.516081976000000
Booted eagles and Recurvebill,WA11 9WD,53.478996532997900,-2.657805000000000
Jerboa and Mole,WN7 5NS,53.513562712748400,-2.534441779900890
Lemming and Boto,WA11 7QT,53.482335427903800,-2.774251205546440
Herring gull and Ice seal,PR4 6UL,53.678248826440900,-2.829359182293660
Argus and Thrasher,BL5 3PU,53.560377320000000,-2.523679171000000
Pratincole and Buzzard,PR6 7YA,53.689705000000000,-2.642638000000000
Mink and Kangaroo,WN2 3RB,53.533346850667300,-2.576874699792460
Minke whale and Chicken,WA3 2RY,53.473732401330600,-2.581097602749960
Shearwater and Old World vulture,WN7 5BD,53.499863073608100,-2.530666405760160
Booted eagles and Vole,WN1 1HR,53.545992523110700,-2.635587431297270
Old World vulture and Bronzewing pigeon,WN3 4DG,53.543793160070300,-2.636746654676270
Kangaroo and Bronzewing pigeon,PR7 6JE,53.671800000000000,-2.675726208190580
Snipe and Badger,PR7 4BY,53.624843595720300,-2.622771071025640
Jerboa and Cuscus,WN7 5DF,53.502866315745000,-2.534457934658110
Mink and Herring gull,BL6 6NJ,53.590693600000000,-2.528133153000000
Booted eagles and Hawk,WN2 5DZ,53.518836229336700,-2.604790397447340
Triller and Duck,WN7 4AA,53.496734005476700,-2.520693455544470
Myna and Quetzal,WN1 3JL,53.546481534021700,-2.616005483010770
Mink and Petrel,WN5 0DL,53.544093384023400,-2.683307124222480
Parrotbill and Zebra,WN8 8NW,53.550326639467700,-2.786449953963590
Wader and Dolphin,BL5 2AE,53.543772080000000,-2.524500272000000
Puffleg and American sparrow,WA11 8PX,53.494489322867900,-2.780969366528870
Night heron and Fulmarine petrel,WN6 0NW,53.589744743200200,-2.665990369581190
Rat and Eagle,L40 0RF,53.617748616352400,-2.847160068403970
Ground sloth and Guillemot,WN7 1EU,53.500233616539500,-2.517917259390650
Condor and Maya,WN6 7RW,53.558702881877200,-2.655448430489850
Linsang and Shearwater,WN6 7TA,53.559243317069000,-2.652105000000000
Guillemot and Chicken,WN7 1TS,53.510981230898400,-2.516449958337070
American sparrow and Myna,WN6 9DU,53.584891732967700,-2.727575257279530
Kite and Parrotlet,PR6 0SB,53.652555787333200,-2.617354609014370
Old World warbler and Gull,WN6 7EB,53.551448051109600,-2.644076386435650
Tree warbler and Mouse,WN7 1AA,53.497454108981400,-2.516315633285600
Old World warbler and Skunk,WN8 8JD,53.552289976468100,-2.807452109166020
Grouse and Parrotlet,PR6 8DY,53.683430000000000,-2.523373000000000
Old World quail and Piping shrike,WN7 5TE,53.520560035485300,-2.539492062896900
Tahr and Thicketbird,WN2 3NN,53.535517891503300,-2.568364441831770
Thrasher and Parrotlet,PR6 0NS,53.647671969494400,-2.619703722276230
Black cockatoo and Meadowlark,WN2 4SL,53.524972454138200,-2.553455772687770
Puffleg and Night heron,PR25 1TH,53.686062904860900,-2.717553544891230
Hawaiian honeycreeper and Kite,WN2 1QT,53.566798547109100,-2.582991000000000
Bronzewing pigeon and Tree warbler,WN2 4JS,53.536534674442400,-2.558600842892980
Fox and Civet,WN2 5SB,53.512630000000000,-2.596332000000000
Moluccan boobook and Hawk,WN8 6EN,53.549908426167800,-2.784434793225730
Marmoset and Mink,BL6 6HN,53.586547120000000,-2.526736989000000
Pitohui and Pitohui,WN2 3JP,53.530245740273200,-2.580604057102040
Stilt and Parakeet,L33 1TD,53.496521104544700,-2.875583147360120
Skunk and Duck,BL5 3PJ,53.562098000000000,-2.531219000000000
New World blackbird and Goose,BL5 3TS,53.553006720000000,-2.525746580000000
Jerboa and Francolin,WA11 7DU,53.480858793386900,-2.731866164590360
Armadillo and Thicketbird,WN3 6TE,53.520168635330100,-2.663676563167150
Chickadee and Siskin,WN4 0PW,53.493324563910700,-2.666045705275970
Minke whale and Puffleg,WN4 9TY,53.493918951543400,-2.651162650144620
Flameback and Shearwater,WA3 3AW,53.475861000000000,-2.596269000000000
Night heron and Guillemot,WN5 7HD,53.500644047678600,-2.706261728070110
Petrel and Argus,PR6 7DZ,53.687649707207800,-2.640626972592980
Myna and Asiatic leopard,WN7 1TG,53.500321246476700,-2.519607086789170
Lemming and Partridge,WN8 6RW,53.558698562887200,-2.774890470783250
Skunk and Fulmarine petrel,WN6 0BT,53.576433806820600,-2.644486433545930
Pratincole and Boto,WN1 3PR,53.550970614579500,-2.617006497992640
Pitohui and Songlark,WN6 9AD,53.578862088630400,-2.721369862739110
Darwin's finches and Ice seal,L40 0RD,53.608336668895900,-2.840925956185580
Parrotbill and Tattler,BL5 3BB,53.549166910000000,-2.524099131000000
American sparrow and Logrunners,WA11 8JP,53.506792607836000,-2.788146518665750
Mink and Herring gull,PR7 6QA,53.663923316141200,-2.671291329685510
Grosbeak and Ibex,WN7 1LJ,53.498334985749000,-2.514230956230070
Kākāriki and Old World warbler,WN3 6LW,53.517867203950900,-2.676565651633090
Black cockatoo and Ibex,WN5 8TY,53.530849482690900,-2.713191195923750
Tit-tyrant and Black jay,WN3 5QU,53.520534454157600,-2.649444217620010
Goose and Viscacha,BL5 2NY,53.541297920000000,-2.520923531000000
Warbler and Hawk,WN1 3XA,53.552284000000000,-2.618731000000000
River dolphin and Kestrel,WN7 3PT,53.479470931054300,-2.545992142421070
Crow and Warbler,WN6 0GH,53.589562131339000,-2.669718994422040
Crow and Perching duck,L39 2JW,53.564531404477200,-2.871252000000000
Magpie and Petrel,WN7 4GF,53.494865000000000,-2.558142000000000
Kākāriki and Kite,PR6 0JN,53.662850472205200,-2.618503918275410
Badger and Grouse,WN5 7GA,53.519510000000000,-2.712714000000000
Puffleg and Night heron,WN2 1JF,53.557255522894600,-2.595345055938450
Capuchin and Vulture,L39 0EG,53.536030000000000,-2.849073000000000
Kite and Prion,WN8 7HE,53.591242712753900,-2.767040607928130
River dolphin and Recurvebill,WN2 2RY,53.537923604901700,-2.578400555087840
Armadillo and Gull,WN6 7NP,53.553913622867200,-2.656793273190130
Old World warbler and Coati,WN2 2RQ,53.537343150953500,-2.575752134696470
Warbler and Parrotlet,PR7 3NS,53.636494235700800,-2.634421843573110
Quetzal and Kangaroo,WA11 8DP,53.504158059734000,-2.795063211963160
Black cockatoo and Kākāriki,WN7 4HR,53.490084548528600,-2.524334698387460
Fish eagle and Shearwater,L39 9EN,53.542439000000000,-2.843920000000000
Armadillo and Wallaby,WN2 3EA,53.532883807069400,-2.579689676293330
Argus and Bronzewing pigeon,BL5 2HQ,53.536145790000000,-2.523379978000000
Old World warbler and Cloud rat,WN8 6DF,53.548028524958200,-2.760991423218490
Gull and Macaw,WN5 8AU,53.536192423075400,-2.684884834002990
Dorcopsis and Rat,WN8 8LR,53.544380815738100,-2.780257903671070
Goose and Scimitar babbler,PR7 5SQ,53.648878004036400,-2.723381000000000
Minke whale and Dorcopsis,WN5 8RT,53.536763892729500,-2.707149597137910
Chipmunk and Tit-tyrant,WN8 7AS,53.606379433035000,-2.764216717749650
Pratincole and Philippine hawk-owl,WN6 7PU,53.558418387681900,-2.649933931245000
Ice seal and Magpie,WN5 0PZ,53.550483053299600,-2.664377365499920
Grackle and Dolphin,WN7 1SF,53.505345066634900,-2.520678413430030
Night heron and Duck,PR7 1JD,53.653928306028700,-2.636741380461780
Puffleg and Linsang,L40 5BR,53.596901726212000,-2.832146480868660
Chipmunk and Jay,L33 5XS,53.481368638283300,-2.871548976958970
Tahr and Prion,PR4 6WD,53.675448519271500,-2.831362948050330
Siskin and Macaw,WN6 7SF,53.555832401819600,-2.656022952794480
Lemming and Parakeet,WA3 1BX,53.481326883321100,-2.568197116586610
Old World vulture and Dolphin,BL6 7BW,53.607217630000000,-2.541442773000000
Snipe and Grackle,WN4 0AY,53.498554057265300,-2.653359255614350
Recurvebill and Shearwater,PR6 7YJ,53.676355000000000,-2.629719000000000
Asiatic leopard and Thicketbird,PR7 1QX,53.659760632400000,-2.630155954376550
Ibex and Ice seal,WN3 6TU,53.520056682262200,-2.666027688055830
Flameback and Snipe,WN6 0WF,53.585683000000000,-2.650744000000000
Tattler and Mole,WN2 5TU,53.513802642848000,-2.570049201993240
Bunting and Hawaiian honeycreeper,WN3 5BE,53.540459000000000,-2.640258000000000
Philippine hawk-owl and Towhee,WN3 4RU,53.536909382524900,-2.617631826370540
Fish eagle and Black jay,WN6 7PN,53.559502330981100,-2.645632939575030
Masked owl and Flameback,WN4 8LD,53.492122279621000,-2.639318195827320
Hawaiian honeycreeper and Partridge,BL6 5RA,53.596619880000000,-2.555268554000000
Black jay and Dolphin,BL6 6AT,53.599292330000000,-2.536913958000000
Chipmunk and Bronzewing pigeon,WN2 1BH,53.555871000000000,-2.611704000000000
Night heron and American sparrow,PR26 9RU,53.661965319300400,-2.782095868336140
Piping shrike and Herring gull,WN2 1SR,53.571908993392500,-2.593074402681890
Crow and Civet,WN5 7JY,53.513682032835300,-2.713068680870500
Macaw and Booted eagles,L39 2EU,53.566808373118200,-2.871221442956560
Goose and River dolphin,PR7 2RX,53.653525949439000,-2.632757000000000
Moluccan boobook and Mouse,PR7 3LH,53.642203610371400,-2.637472262580250
Crow and Magpie,WA11 7QX,53.483428881880600,-2.773351874247520
Kite and Jerboa,BL5 2BP,53.555041200000000,-2.537183531000000
Dolphin and Parrotbill,WN5 9SE,53.542770752890000,-2.661162975343580
Stilt and Condor,L33 9TP,53.490302285800800,-2.872937957285220
Mockingbird and Shearwater,WN3 6SA,53.526370584465900,-2.657196588400630
Parakeet and Gull,L40 4LD,53.601541278801200,-2.838373057401430
Argus and Goose,PR7 3FH,53.643744323200000,-2.627557657500000
Perching duck and Condor,WN1 3LH,53.549443954883200,-2.618478483562470
Marmoset and Warbler,L40 7AZ,53.597907000000000,-2.850101000000000
White ibis and Condor,WN3 5HR,53.528518234257800,-2.646006000000000
Cuscus and Partridge,PR6 0RP,53.651734216839200,-2.623258217805710
Meadowlark and Chickadee,WN1 2SS,53.576062000000000,-2.638693672297890
Songlark and Gull,L40 4BE,53.592750830787300,-2.810943112810200
Fox and Philippine hawk-owl,WN8 6EF,53.546442000000000,-2.768793417700800
Flameback and Hawaiian honeycreeper,WN2 1PG,53.574158868790800,-2.605081569116400
Ground sloth and Perching duck,WN7 3LP,53.483647000000000,-2.525040982141750
Hawk and Night heron,WN3 4LR,53.535664615847300,-2.618473721963450
B and Magpie,BL5 2NL,53.543967020000000,-2.518964316000000
Prion and Tahr,WA3 3EQ,53.482562000000000,-2.591812000000000
Myna and Masked owl,WN8 6HF,53.549935000000000,-2.773401000000000
Badger and Marmoset,PR7 1PP,53.665838000000000,-2.635256000000000
Goose and Jackal,PR7 6BE,53.670761394636600,-2.679769000000000
Macaw and Asiatic leopard,WA3 2GA,53.474817218173500,-2.574242144455170
Warbler and Armadillo,WN7 4NP,53.495907109648100,-2.514457822038470
Pratincole and Kestrel,WN5 0DF,53.543295206139200,-2.686131337286280
Nukupuʻu and Armadillo,PR26 9HF,53.668197698573300,-2.774658699435770
Songlark and Magpie,PR6 9ER,53.625669170295700,-2.589322414715840
Elephant and Myna,WN2 5TQ,53.514394539454400,-2.575953604200520
Rat and Kite,WN1 2AD,53.550619050104600,-2.630977836952240
Chipmunk and Boto,WN8 9DS,53.537271610901400,-2.750658816886770
Old World quail and Tree warbler,WA3 3AB,53.476005408685600,-2.599510221514520
Perching duck and Siskin,PR7 1DP,53.653901588979700,-2.633306413114440
Coati and Snipe,BL6 5PZ,53.595377250000000,-2.540052345000000
Elephant and Grackle,WN4 9UL,53.498035579534800,-2.649537381101120
Perching duck and Francolin,BL5 2DT,53.533615200000000,-2.532612323000000
Stint and Myna,PR7 6AQ,53.672339366538000,-2.659436758312940
River dolphin and Chicken,L39 2XH,53.568058332008000,-2.874840899356780
Kākāriki and Civet,WN4 0DE,53.503181000000000,-2.652239000000000
Pheasant and Gull,BL6 4LX,53.586306000000000,-2.520614160000000
Quetzal and Cloud rat,WN2 1QD,53.563646442957700,-2.559969715828690
Grackle and Dorcopsis,PR7 6JU,53.672908240473100,-2.676686779231520
Quetzal and Nukupuʻu,WN8 0EF,53.544380815738100,-2.780257903671070
Night heron and Darwin's finches,PR25 3ER,53.691386243137300,-2.687190000000000
Prion and Jerboa,WN7 5BT,53.501216245611100,-2.539608150996310
Old World vulture and Stint,WN4 8BH,53.493332873310900,-2.636487609192250
Kangaroo and Eagle,WN1 1EB,53.543275000000000,-2.629601000000000
Old World warbler and Pratincole,BL6 5BX,53.593267000000000,-2.580123000000000
Recurvebill and Jackal,WN1 1RZ,53.551045140215000,-2.638757343216320
Elephant and Jerboa,WN2 4DT,53.535652609629700,-2.563945000000000
Jackal and Peafowl,WN3 4QZ,53.537735662171400,-2.610763376485790
Cuscus and Flameback,WN2 5DU,53.518613134670300,-2.604470497538960
Peafowl and Night heron,WA3 3TU,53.481956016871200,-2.594078907867530
Skunk and Asiatic leopard,WA3 2EW,53.479440950547600,-2.579081175672860
Coati and New World blackbird,WN8 6AR,53.548959839082100,-2.757295283130680
Boto and Hawk,WN1 9RT,53.546982000000000,-2.635088000000000
Ice seal and Fulmarine petrel,PR7 2DZ,53.646458866766600,-2.636764956118520
Grosbeak and Marsh harrier,WA3 3WA,53.483000008238900,-2.604566684554720
Rat and White ibis,WN1 3RN,53.545625455869200,-2.626798622510130
Mouse and Puffleg,WN4 0AX,53.498756731344800,-2.652457875000060
Fulmarine petrel and Duck,WN7 5LL,53.512770448006200,-2.538729561947560
Condor and Logrunners,WN2 5AA,53.523053297496700,-2.602723708152110
Old World quail and Coati,WA3 2DU,53.477341995823000,-2.583723451124570
Herring gull and Parrotlet,WN6 7LL,53.550209244125800,-2.648766658582070
Cloud rat and Condor,WN3 6AN,53.529245430262800,-2.676792309654700
Skunk and Piping shrike,WN3 5QB,53.523573080823700,-2.647695744796920
Vulture and Civet,WN3 6GS,53.527130000000000,-2.661432000000000
Ibex and Puffleg,WN2 2BB,53.542320314981900,-2.607132248666340
Parrotbill and Greenbul,WA3 1DL,53.477924674422600,-2.551908875111540
Badger and Kestrel,WN5 9DS,53.539647625823100,-2.655380287599980
Thicketbird and Chipmunk,PR7 3HZ,53.642709953663800,-2.631822689439470
Gull and Wallaby,WN7 4DQ,53.496260180542800,-2.522164897238550
Flameback and Chipmunk,WN1 9TB,53.545096494276700,-2.629959998967720
Cloud rat and Piping shrike,PR6 8TS,53.672067107862100,-2.614309852386220
Zebra and Maya,WN5 7XN,53.528189460173500,-2.702465982541650
Solitaire and Greenbul,BL6 5GX,53.593359930000000,-2.562357022000000
White ibis and Elephant,WN7 1BB,53.497648453039000,-2.515021591738590
Quetzal and Shearwater,BL6 7HQ,53.602138680000000,-2.541559127000000
B and Magpie,WN3 6SP,53.521042000000000,-2.657008000000000
New World blackbird and Snipe,PR6 0RF,53.651285381964500,-2.624870430199130
Badger and Logrunners,WN4 8LN,53.495100274048300,-2.640478457142440
Minke whale and Peafowl,WN8 9AG,53.541627930461100,-2.751158438961720
Greenbul and Ground sloth,BL6 7QY,53.598401640000000,-2.556757632000000
Vole and Wader,WN8 8AH,53.547599365006700,-2.795168087668820
Eagle and Siskin,WN5 7EN,53.515984393715800,-2.714359084290310
Petrel and White ibis,WN1 2PA,53.563097199036500,-2.637353705768870
Parrotlet and Logrunners,WN8 6SS,53.562513177738000,-2.778508180084210
Darwin's finches and Scimitar babbler,WN5 9BZ,53.536923466175900,-2.657133734653420
New World blackbird and Civet,PR7 1PH,53.663251031577000,-2.633007756416040
Old World vulture and Parrotlet,WN4 8PB,53.488477000000000,-2.635450000000000
Goose and Logrunners,WN5 9ES,53.534756118038400,-2.665458779278130
Grackle and Asiatic leopard,WN2 2AT,53.543252034144500,-2.605968509827570
Snipe and Goose,PR7 5FP,53.641620247200000,-2.717646113100000
Viscacha and Condor,WN7 5HX,53.513717622532800,-2.525863110610050
Old World warbler and Polecat,WN3 6LX,53.518173728867700,-2.661956205761220
Kite and Mouse,L33 7ET,53.478403364368600,-2.870177275585410
Rabbit and Zebra,WA11 9TE,53.479799101779400,-2.662383143618520
Philippine hawk-owl and Capuchin,BL6 6LG,53.588923110000000,-2.526041417000000
Grosbeak and American sparrow,L40 4AR,53.610780791622800,-2.833326332221160
Chipmunk and Polecat,WN3 5JF,53.527290897552200,-2.645007001496820
Mamo and Rabbit,WN2 3UQ,53.525049128339100,-2.597276469313850
Macaw and White ibis,WN8 0AG,53.542113455594200,-2.729361344492600
Guillemot and Black cockatoo,WN2 3RX,53.527463133226500,-2.574230245103350
Puffleg and Old World quail,PR25 3BQ,53.684114902758400,-2.691159705068780
Moluccan boobook and Nukupuʻu,WN8 6JZ,53.558517354788400,-2.780638856481200
Dorcopsis and Jay,WN1 3RU,53.545258158924200,-2.624846395681480
Ibex and Mamo,PR25 3AU,53.686209746702500,-2.684804153364020
Polecat and Peafowl,WN7 5ST,53.508511324994500,-2.522209991648650
Bunting and Logrunners,WN2 5QA,53.515084883799200,-2.591043669832870
Capuchin and Tree warbler,L40 3SY,53.620264000000000,-2.766267000000000
Asiatic leopard and Cuscus,WN6 0JA,53.589722307215900,-2.666790705272930
Skunk and Maya,WN3 6DX,53.521294421959000,-2.672924947256780
Argus and Fulmarine petrel,BL6 7HZ,53.601214110000000,-2.551127880000000
Parakeet and Peafowl,WN7 1XE,53.499368722825700,-2.522504611558380
Mockingbird and Booted eagles,WN5 8LS,53.537691984599400,-2.699122718199760
Argus and Solitaire,WN1 1NF,53.546498000000000,-2.636999000000000
Dorcopsis and Parrotbill,PR7 6FZ,53.673017572177400,-2.673237267392280
Cloud rat and Ice seal,PR7 7HN,53.681346799300000,-2.655278058900000
Gull and Wader,WN4 8BW,53.496255854006800,-2.636169622005650
Armadillo and Hawaiian honeycreeper,PR7 7HQ,53.680553859000000,-2.653994001600000
Old World warbler and Ice seal,WA3 2JH,53.477677687285200,-2.571930264291600
Puffleg and Fox,BL5 3SQ,53.552337670000000,-2.524591146000000
Perching duck and Marmoset,WN4 9DF,53.487032675301100,-2.629551112018520
Condor and Quetzal,WN6 8NF,53.559956721161700,-2.651346416869740
Rat and Logrunners,WN1 3ER,53.544308999068100,-2.624153310632940
Boto and Fox,L39 0EH,53.530351349159200,-2.839696541056840
Pitohui and Peafowl,WN8 9BB,53.540790801335300,-2.759880718440320
Meadowlark and Vole,WN2 5RR,53.508344343378700,-2.589049979976200
Tree warbler and Old World vulture,WN1 3RZ,53.544488000000000,-2.621002000000000
Jay and Scimitar babbler,WN4 9NL,53.485442304242200,-2.649586030072400
Ice seal and Flameback,WA3 2FZ,53.475527334728300,-2.575939000000000
Zebra and Linsang,PR7 5HL,53.624608521694600,-2.679194609375000
Peafowl and Quetzal,WN1 2AT,53.550764665887000,-2.632338411962380
Duck and Puffleg,BL6 9DN,53.588202000000000,-2.538918000000000
Jerboa and Philippine hawk-owl,WN1 3EU,53.543263565037300,-2.622960846891660
Pheasant and Old World warbler,WN8 0BN,53.538757736702100,-2.732789260686960
Rabbit and Maya,L39 4AL,53.560367734820600,-2.876433000000000
Chicken and Pitohui,PR26 9HH,53.661754356652900,-2.767473301729320
Night heron and Cloud rat,WN1 9QD,53.546971188244900,-2.635089300043810
Vulture and Asiatic leopard,WN8 0HE,53.541667203902900,-2.724404061362780
Polecat and Macaw,WA11 8QZ,53.499471008657300,-2.744035959240180
Jerboa and Tattler,BL6 5TN,53.587770950000000,-2.577072105000000
Herring gull and Old World warbler,WN2 1QZ,53.560865369081300,-2.564567737646440
Flameback and Stint,WN2 4AX,53.537608699988300,-2.569101624715150
Grackle and Triller,WN7 5HD,53.508985551625000,-2.538892639478200
Kangaroo and Puffleg,BL6 7AY,53.599755580000000,-2.545774769000000
Moluccan boobook and Capuchin,WN8 9TA,53.541113000000000,-2.783910000000000
Civet and Jerboa,WN7 4UQ,53.494922936121200,-2.547803573150170
Solitaire and Warbler,WN2 3UJ,53.523510466722400,-2.597601740597890
Dolphin and Petrel,L33 7SX,53.478643000000000,-2.852010000000000
Ibex and Capuchin,WN2 4DP,53.536512227780800,-2.563383537131430
Fulmarine petrel and Skunk,WN7 1AQ,53.497515526547500,-2.516663091346500
Lemming and Bunting,L40 0SP,53.607732858897100,-2.839871094684850
Polecat and Diving bird,WN3 4QP,53.536241836825100,-2.616354694820630
Crow and Cuscus,WN3 6RN,53.525398826478200,-2.657377637698930
Booted eagles and Night heron,BL5 2ED,53.532044310000000,-2.519889616000000
Armadillo and Mink,PR6 7AJ,53.671828000000000,-2.639660000000000
Thrasher and Fox,BL6 9DS,53.588200640000000,-2.538918439000000
Dolphin and Recurvebill,WN2 3PG,53.533967041867100,-2.575012295035870
Thrasher and Hawk,PR7 4QE,53.620253397200000,-2.656840724700000
Recurvebill and Ibex,WN2 4DZ,53.540527301068200,-2.562063703175690
Vole and Linsang,WN1 3YB,53.550289000000000,-2.611800070527890
Maya and White ibis,WN2 1AX,53.554538144172100,-2.606643043183690
Partridge and Elephant,WN5 0AW,53.539069948561400,-2.686244062964430
Mouse and Vole,WA3 2JR,53.478120838678000,-2.571363658249610
Asiatic leopard and Fulmarine petrel,WN2 2NA,53.546860915886500,-2.596134814407200
Kangaroo and Diving bird,PR7 6QN,53.671496000000000,-2.668699000000000
Pheasant and Tattler,L40 5XW,53.598687367578200,-2.841580443424250
Pitohui and Stint,PR7 1EH,53.654904287540200,-2.630658462136750
Eagle and Maya,WN4 8BY,53.497100941259900,-2.637825382215500
Night heron and Dolphin,PR7 6HY,53.661134352356800,-2.673350462629350
Moluccan boobook and Flameback,WN1 3JG,53.545141765074700,-2.619577777339480
Flameback and Dorcopsis,WN3 4AA,53.542381032818100,-2.637147000000000
Pitohui and Bronzewing pigeon,WN1 2QU,53.562886398056400,-2.636429573341860
Tit-tyrant and Vole,WN6 0LW,53.592825000000000,-2.661763000000000
Rabbit and Siskin,WN7 1EA,53.496945651994400,-2.519565483583840
Nukupuʻu and Pheasant,WN1 3XP,53.554082000000000,-2.616976000000000
Solitaire and Petrel,WN7 1YA,53.497443666355500,-2.520792600593720
Triller and Rabbit,WA3 1FZ,53.475406709496900,-2.544327820119110
Badger and Jerboa,PR7 7BS,53.683014786877400,-2.655015954810040
Chipmunk and Jerboa,WN8 6PW,53.552438062919900,-2.771410053490910
Crow and Kangaroo,PR7 3RT,53.640658333700000,-2.640005494500000
Condor and Bunting,WN8 8NF,53.549319214879800,-2.793358984066610
Armadillo and Greenbul,WN6 8PN,53.559224375524500,-2.657056718755080
Philippine hawk-owl and Eagle,WN2 4GL,53.526277119741800,-2.541389985243160
Tit-tyrant and Night heron,PR25 1FA,53.680333000000000,-2.716605000000000
Recurvebill and Magpie,BL6 7LA,53.602590410000000,-2.548939478000000
Wallaby and Ice seal,WN3 6ET,53.523942325139700,-2.673585370137410
Darwin's finches and Stilt,WN3 4JL,53.539898375240800,-2.622911750776980
Hawk and Jerboa,WN6 0AZ,53.580357631468700,-2.656810570376570
Meadowlark and Wader,WA3 3HU,53.478462454277300,-2.586194873211330
Darwin's finches and Thicketbird,WN2 4UG,53.531180000000000,-2.548030000000000
Songlark and Maya,WN7 1XP,53.498256923673700,-2.523923030583350
Mole and Pratincole,PR6 0BA,53.654587000304700,-2.622589179593760
Cloud rat and Shearwater,BL6 6DQ,53.596427510000000,-2.534354310000000
Linsang and Maya,BL6 5GS,53.595585000000000,-2.567342000000000
Partridge and Francolin,WN2 3TT,53.524868000000000,-2.595871000000000
Old World quail and Kākāriki,WN7 4QX,53.494704879123700,-2.542404470346010
Songlark and Pitohui,WN6 7NT,53.557114191105400,-2.659937481244070
Mamo and Hawaiian honeycreeper,PR7 2PQ,53.648470851713200,-2.642075057145700
Thicketbird and Marmoset,PR25 3FH,53.691149557770000,-2.688594536051860
Tattler and Chickadee,BL6 4GP,53.579944000000000,-2.522018000000000
B and B,WN5 0BA,53.544012552641600,-2.681721260077080
Towhee and American sparrow,L33 7XF,53.475030000000000,-2.865679000000000
Petrel and Duck,L40 5SF,53.600812462186300,-2.842317825324070
Argus and Towhee,WN8 0DR,53.532309164228000,-2.739240711147360
Moluccan boobook and Ground sloth,BL6 6JZ,53.589589430000000,-2.533769000000000
Grosbeak and Meadowlark,WA11 8SA,53.507842245042500,-2.795237730405570
River dolphin and Mole,PR4 6HR,53.662730241677500,-2.826118454973570
Marsh harrier and Stint,WN7 5LU,53.509717282120600,-2.530035616731050
Grosbeak and Macaw,BL5 2SJ,53.534431450000000,-2.535006402000000
Fox and Gull,BL6 7DD,53.601988490000000,-2.544942205000000
Parrotbill and Tahr,WN2 4QX,53.529701859066700,-2.553140313936260
Viscacha and Perching duck,L40 6HZ,53.563141839101400,-2.844799965471380
Tahr and Magpie,WA3 1BG,53.483100000000000,-2.556512000000000
Grackle and Zebra,L40 3TA,53.622941555526100,-2.747718458382260
Kestrel and Old World vulture,BL6 7DY,53.604279000000000,-2.545410000000000
Bunting and Linsang,WN2 2RA,53.539827150746700,-2.575091736121940
Boto and Ibex,WN2 1NA,53.586739404934500,-2.624944739239320
Mink and Tit-tyrant,WN3 4PZ,53.529877304368200,-2.609473550699010
Mouse and Lemming,WN3 4EX,53.541727117427500,-2.641544505625610
Lemming and Warbler,PR6 9NA,53.616307852359600,-2.595661948309380
Marmoset and Hawk,BL5 2HH,53.537303370000000,-2.521764697000000
Philippine hawk-owl and Tahr,PR7 4JZ,53.610678874715900,-2.612133349565400
Wallaby and Night heron,WA11 8AZ,53.500729869942000,-2.781973562384960
Polecat and Elephant,WN2 3JQ,53.529806877472400,-2.578425678453010
Dorcopsis and Wader,L33 1AN,53.497084000000000,-2.877086000000000
Parakeet and Perching duck,PR7 2RG,53.642108205656700,-2.655138025364610
Diving bird and Cuscus,PR4 6ED,53.690421479701500,-2.831612561883320
River dolphin and Kangaroo,PR25 3BE,53.685234455993300,-2.693508000000000
Solitaire and Recurvebill,BL6 5NJ,53.591400740000000,-2.543748000000000
Old World warbler and Polecat,WN2 2SG,53.542560751176300,-2.576728391648810
Myna and Treepie,WN6 8HL,53.568537535407200,-2.696566279001250
Philippine hawk-owl and Duck,PR7 2HS,53.646662522533600,-2.637342876145030
Perching duck and Rabbit,PR6 0EZ,53.654724307651500,-2.616902127219580
Mole and Mamo,WN2 3LU,53.535323995144400,-2.573205053826330
Kestrel and Myna,PR7 2JH,53.644723308785800,-2.643531000000000
Siskin and Dorcopsis,BL5 3AU,53.549100000000000,-2.520898642000000
Fulmarine petrel and Parakeet,WN3 4EL,53.542119000000000,-2.634081000000000
Petrel and Condor,WN6 0UR,53.584568733512500,-2.672177746527290
Triller and Elephant,WN7 5JJ,53.510398391704100,-2.526425160425850
Piping shrike and Skunk,L40 2RG,53.639160000000000,-2.748716000000000
Hawaiian honeycreeper and Towhee,BL6 5PL,53.593616280000000,-2.541873130000000
Marsh harrier and Linsang,WN8 6PN,53.551935346478000,-2.771597000000000
Ice seal and Condor,WN3 5AA,53.541830838436200,-2.643690000000000
Civet and Marsh harrier,WN5 7XS,53.509131108032800,-2.692123355772810
Crow and B,WN4 0TY,53.490405120410300,-2.676912085920420
Chipmunk and Booted eagles,WN8 1AD,53.544381900000000,-2.780257900000038
Darwin's finches and Kangaroo,WN4 8DL,53.498080817216000,-2.644503117085310
Cloud rat and Peafowl,WN6 0JB,53.590513052892700,-2.666833373885030
Pratincole and Parrotbill,WN5 0JN,53.549479697777200,-2.689189637377070
Capuchin and Buzzard,L32 8TU,53.475313256976900,-2.876050384460990
Dolphin and Marmoset,WA3 2JD,53.476300046289500,-2.578028907719490
Asiatic leopard and Ground sloth,PR6 0PP,53.651975801655600,-2.620008931226310
River dolphin and Mamo,WN8 0AU,53.541791663871000,-2.740764096968930
Darwin's finches and Dolphin,WN4 9UZ,53.495838000000000,-2.648825000000000
Vulture and Parakeet,WN5 0LW,53.556329276554400,-2.692244603246270
Jay and Pitohui,PR7 2LP,53.642653267238000,-2.639112677321920
Tahr and Petrel,PR7 6BW,53.673611295347400,-2.679513595571040
Shearwater and Asiatic leopard,WN2 5XZ,53.497183440787600,-2.595723894747510
Egret and Linsang,L33 1AL,53.496432000000000,-2.876484000000000
Bunting and Masked owl,WN6 7SL,53.554911630911900,-2.655103009064990
Darwin's finches and Bronzewing pigeon,WN6 0JT,53.585244778035500,-2.660541955561210
Bronzewing pigeon and Rabbit,WN4 9QN,53.491058545405200,-2.644909058339860
Dolphin and Capuchin,WN7 4RG,53.495982476388600,-2.542134378376290
Mouse and Herring gull,PR7 5NB,53.634517011423400,-2.668465000000000
Egret and Parrotbill,PR7 4ET,53.618224861625200,-2.609445828350250
Darwin's finches and Fulmarine petrel,L33 6WD,53.487656001232200,-2.869733712769060
Tattler and Macaw,WN2 2BL,53.541460640743500,-2.608266789716030
Puffleg and Macaw,BL6 5WG,53.594520000000000,-2.550450000000000
Chicken and Thrasher,PR6 9NU,53.619239361103000,-2.595400879738840
Francolin and Peafowl,WN1 2PH,53.558994702371100,-2.631283667858980
Mamo and Chipmunk,PR6 8TG,53.672838878583200,-2.614548139559530
Boto and Nukupuʻu,WN1 2TF,53.584009248056800,-2.638121554465070
Scimitar babbler and Flameback,WN6 8RT,53.565166000000000,-2.647229000000000
Snipe and River dolphin,L40 6JS,53.562993221570900,-2.841656622067430
Hawaiian honeycreeper and Polecat,WN6 8NL,53.563209384804800,-2.653208150228070
Scimitar babbler and Towhee,WN8 7TU,53.587918625492000,-2.786166024418050
Vulture and Songlark,WN8 0DU,53.540778349538300,-2.728674428868510
Mouse and Elephant,PR6 0RE,53.651866971123200,-2.625500000000000
Lemming and American sparrow,WA3 2LX,53.474192807839200,-2.561894504693380
Fulmarine petrel and Herring gull,WN6 7HB,53.555379618572700,-2.641736000746540
Black cockatoo and Mamo,WA11 8QY,53.498636943045400,-2.740840525652070
Parakeet and Cloud rat,WN1 3UH,53.554077806189100,-2.614062990943660
Vulture and American sparrow,WA3 1EH,53.476468240029400,-2.546104247819660
Ibex and Shearwater,WN6 0TP,53.583896119814600,-2.663859179831430
Chicken and Siskin,WN2 1BA,53.553853439708300,-2.603599000000000
Booted eagles and Chickadee,WA11 7DH,53.481241811538800,-2.730968629304420
Rabbit and Zebra,BL6 6TU,53.589487000000000,-2.532468000000000
Kestrel and Wallaby,BL6 5SP,53.575654720000000,-2.571424918000000
Siskin and Pheasant,WN2 2HA,53.547462605460300,-2.594437852678230
Viscacha and Francolin,PR6 0EE,53.660306181875000,-2.616877738715440
Hawaiian honeycreeper and Tit-tyrant,PR7 3FF,53.644447182900000,-2.627220178700000
Vole and Polecat,WN5 7NU,53.497706381289400,-2.707509309227120
Mouse and Hawaiian honeycreeper,WN2 5XP,53.503600000000000,-2.577948000000000
Mouse and Goose,WA11 8JA,53.507893522777100,-2.790217603328430
Thrasher and Stint,WN7 4DN,53.494957124816700,-2.524153658304740
Coati and Night heron,WN5 9PU,53.539562378345900,-2.661067697019180
Eagle and Tree warbler,BL6 7FN,53.602502260000000,-2.548560540000000
Dolphin and Eagle,WN7 4AJ,53.497703690854200,-2.525046793730350
Bronzewing pigeon and Masked owl,WN5 8PU,53.543656894335000,-2.702782506061840
Mink and Kākāriki,PR25 1BQ,53.686560518997400,-2.707946826449850
Old World warbler and Tree warbler,WN7 1LU,53.499637421529600,-2.516523074299410
River dolphin and Parrotbill,BL5 3EZ,53.553390780000000,-2.522204189000000
Grosbeak and Badger,PR6 7JX,53.678197808254700,-2.633307000000000
Logrunners and Skunk,WN2 3JD,53.533079250348100,-2.584008000000000
Nukupuʻu and Gull,WA11 7AS,53.478972556690600,-2.728699544299450
Quetzal and Diving bird,WN4 9RB,53.492202464991400,-2.654392034974280
Quetzal and Marsh harrier,BL5 2PJ,53.544653430000000,-2.522338046000000
Tree warbler and Kestrel,WN3 6EZ,53.525739509325900,-2.668877342845590
Thicketbird and Eagle,WN1 2TZ,53.586690768086300,-2.639249612434190
Meadowlark and Elephant,WN1 2SE,53.564161195326900,-2.626514107800530
Civet and Lemming,WA11 8PY,53.493902174190300,-2.781410775681190
Old World quail and Bunting,WA11 8FY,53.505885537203900,-2.791582818609710
Chickadee and Petrel,WN7 3JW,53.485576752030200,-2.519200427308940
Philippine hawk-owl and Marsh harrier,PR26 9RR,53.662287245271100,-2.778212550649180
Quetzal and Jackal,WN6 0ZQ,53.589040000000000,-2.674392000000000
Towhee and Duck,WN5 0EA,53.542787838153300,-2.683693537698260
Rabbit and Condor,WN4 8LJ,53.493461817774800,-2.640951170180760
Stilt and Rat,WN2 2NH,53.545466595027700,-2.596356677728520
Rat and Buzzard,BL6 7TX,53.599676680000000,-2.549264343000000
Diving bird and Songlark,BL6 7ND,53.603781700000000,-2.549846555000000
Egret and Diving bird,PR7 1EP,53.654811000000000,-2.631580000000000
Towhee and Armadillo,BL5 2EQ,53.533546150000000,-2.523830696000000
Old World vulture and Flameback,L40 6JU,53.558724107993200,-2.860533029305570
Capuchin and Logrunners,WN8 7HF,53.591893757408400,-2.767838029547060
Diving bird and Warbler,WN5 7UD,53.493940180230100,-2.704462081153520
Jackal and Mockingbird,PR26 9RG,53.665104979274600,-2.774768437146440
Tree warbler and Coati,WN4 9NU,53.483227807982700,-2.641881836234290
Fish eagle and Siskin,WN8 6DA,53.547290534449300,-2.762547780089390
Jerboa and Condor,WN2 4GG,53.526277319489500,-2.537362388314540
Night heron and Minke whale,PR7 4QG,53.619822000000000,-2.656093000000000
Goose and Nukupuʻu,BL5 2QD,53.542751400000000,-2.515312634000000
Badger and Booted eagles,WA11 7NN,53.481445551326900,-2.725562399660210
Lemming and Condor,PR7 1QT,53.657454020238900,-2.632920867212880
B and Macaw,BL6 6PG,53.585563560000000,-2.541679438000000
Stint and Triller,WN5 8DG,53.531328732560900,-2.670775833598490
Recurvebill and Mole,WN2 3PP,53.533376000000000,-2.572847000000000
Moluccan boobook and Cloud rat,WA3 3WD,53.481880022341100,-2.603857583654690
Parrotbill and Black cockatoo,WN6 9LE,53.583623101858300,-2.706392000000000
Stilt and Guillemot,WA3 1EZ,53.474111299566800,-2.554330220355900
Masked owl and Booted eagles,WN2 5BA,53.522203550956100,-2.605456791631360
Old World quail and Boto,PR6 0PG,53.650741075452600,-2.621941000000000
Marsh harrier and Jerboa,WN2 3HB,53.533099637476300,-2.581518164158920
Maya and Vulture,WN2 3JS,53.530034178151200,-2.581596838732010
Elephant and Buzzard,WN6 7HS,53.559296148847700,-2.643863511991670
Rat and Partridge,BL5 2BB,53.546276560000000,-2.535382216000000
Quetzal and Mamo,BL6 5SU,53.583113830000000,-2.571691717000000
Siskin and Tahr,WN1 2HG,53.558249838791700,-2.636148611042940
Pitohui and Fox,WA11 7SH,53.493899000000000,-2.742552000000000
Ground sloth and Elephant,WN1 1SS,53.550797182770400,-2.632987914603360
Siskin and Old World vulture,WN2 2PY,53.541986494161200,-2.574759000000000
Skunk and Tahr,WN6 7EX,53.554976774408700,-2.651405755410600
Siskin and Grouse,WN7 4HN,53.490260000000000,-2.521506208900420
Pitohui and White ibis,WN4 8AD,53.490465225429400,-2.633158957971290
Pitohui and Fox,WN1 2SF,53.563021095136000,-2.622798297532390
Grosbeak and Snipe,PR7 7ET,53.677458983000000,-2.662696213400000
Zebra and Puffleg,PR6 7SZ,53.653162455781900,-2.625155407081630
Towhee and Parrotlet,WA3 3DX,53.480337353536400,-2.592413832092420
Treepie and Pitohui,WN2 5PG,53.515183290473400,-2.596564591820260
Philippine hawk-owl and Boto,PR7 7BG,53.682511774725900,-2.658233075657500
Kangaroo and Bunting,PR7 6AW,53.667890969472300,-2.678589082465860
Asiatic leopard and Rabbit,BL6 6AE,53.596187070000000,-2.535862228000000
Marmoset and Greenbul,WN5 7ER,53.514349275864900,-2.711209898743730
White ibis and Fulmarine petrel,WN6 0JL,53.587887911631300,-2.665311576784140
Marmoset and Egret,L40 3AB,53.615729615846200,-2.775058031354330
Wader and Egret,WN5 9RE,53.541403180355100,-2.666257208020470
White ibis and Petrel,WA3 3JF,53.474810256311500,-2.583101101189560
Grackle and Gull,PR7 7HU,53.681540215300000,-2.656068351000000
Lemming and Macaw,WN1 2BE,53.553042722773700,-2.631587488594830
Minke whale and Dorcopsis,L40 5SE,53.600816928772800,-2.841683232446650
Mamo and Prion,WN4 0UE,53.493867497400700,-2.668616667157700
Fulmarine petrel and Maya,PR4 6NH,53.676535120536600,-2.827614852796440
Pratincole and Duck,WA3 3RH,53.481426587710600,-2.608190950309620
Quetzal and Shearwater,PR7 7BD,53.685016151135000,-2.662102923413140
Rabbit and Ground sloth,BL5 2JD,53.539007350000000,-2.528771938000000
Asiatic leopard and Marmoset,PR26 9AX,53.680342000000000,-2.816583409786360
Logrunners and Old World warbler,WN2 1EN,53.558348251483900,-2.601504513935940
Chipmunk and Cloud rat,WN6 0DH,53.585878892082200,-2.656382603563800
Jackal and Black cockatoo,WN2 2HJ,53.546131826056200,-2.603504429454520
Herring gull and Tit-tyrant,PR25 9SJ,53.690359434151700,-2.703906724136270
Lemming and Stilt,WN8 0LP,53.541755896056400,-2.721628960784950
Black jay and Herring gull,PR7 2BJ,53.650598012895100,-2.627401943190730
Fish eagle and Rat,WN5 9SN,53.544372822424400,-2.664025091846070
Parakeet and Peafowl,WN3 6XD,53.517262000000000,-2.648022000000000
Guillemot and Chicken,PR6 8UH,53.670256644910800,-2.611543875034590
Cloud rat and Wader,WN5 0LJ,53.554199000000000,-2.698580000000000
Magpie and Mockingbird,BL6 5DZ,53.596586290000000,-2.584943564000000
Tahr and Diving bird,WN3 4TY,53.526544593017300,-2.612593491899240
Vole and Petrel,L40 2RB,53.642246665305700,-2.743718776929090
Chicken and Towhee,WN3 6JZ,53.517265249319500,-2.663691498521110
Kangaroo and Tit-tyrant,WN6 8AY,53.574030656574900,-2.688607355255280
Tree warbler and Francolin,WN1 9TA,53.545096494276700,-2.629959998967720
B and Pheasant,WN1 2UJ,53.586226644171100,-2.630163865328270
Kestrel and Marsh harrier,L40 5XD,53.593054290478000,-2.825710099721210
Jackal and Myna,BL6 4AP,53.581453560000000,-2.519922026000000
Macaw and Elephant,BL6 5DF,53.593024170000000,-2.585498680000000
Marsh harrier and Solitaire,WN7 5NJ,53.512587062653900,-2.529483332213130
Vole and Treepie,WN3 4JW,53.538399160339100,-2.621546483456640
Old World warbler and Parrotlet,PR7 5RH,53.644741927922800,-2.728212079996060
Duck and Civet,BL6 5RL,53.596095780000000,-2.561637894000000
Asiatic leopard and Ground sloth,WA3 3TT,53.484880315193500,-2.604231750878260
Old World vulture and Scimitar babbler,WN6 0PP,53.597563000000000,-2.684019000000000
Guillemot and Scimitar babbler,PR6 0AP,53.651772270600000,-2.616919861200000
Warbler and Thrasher,WN6 7QN,53.555453461027500,-2.659549345337510
Towhee and Vulture,WN2 4AU,53.528393751792800,-2.547481638088740
Treepie and Argus,PR6 9QH,53.621197000000000,-2.595925821113070
Chipmunk and Rat,WN5 0JX,53.550516909594100,-2.685448243624490
Scimitar babbler and Recurvebill,PR6 0TS,53.656044873292000,-2.618782527527910
Philippine hawk-owl and Myna,WN1 3JR,53.547119766170300,-2.614248977370780
Nukupuʻu and Mamo,WN8 6ED,53.547349766187800,-2.771528784407660
Black cockatoo and White ibis,BL6 5DN,53.595061740000000,-2.580540838000000
Quetzal and Cloud rat,PR7 4LX,53.615604000000000,-2.654818000000000
Grosbeak and Moluccan boobook,WN5 7DH,53.525055449200200,-2.715597830813390
Ibex and Recurvebill,WN8 8LH,53.548926372089000,-2.805063747856560
Hawaiian honeycreeper and Guillemot,L40 2QY,53.630863000000000,-2.760274000000000
Grackle and Perching duck,WA3 2GJ,53.474900862564300,-2.575538988210590
Marmoset and Kestrel,WN3 4PW,53.531293546526900,-2.608483099967820
Magpie and Magpie,WN7 1NT,53.505486285513200,-2.517136992320150
Triller and Black cockatoo,WN6 7EW,53.551859260506600,-2.651131449681200
Songlark and Snipe,L33 1SN,53.496393410761800,-2.873379660623170
Grouse and Vulture,PR7 6LP,53.656590000000000,-2.674516025340820
Fox and Peafowl,WN8 6RJ,53.564367019875100,-2.780927781598770
Mouse and Jerboa,WN7 3RY,53.476357709489700,-2.526681555771830
Warbler and Argus,WN5 0JS,53.550560967517600,-2.682460463416850
Bunting and Songlark,WN5 8JW,53.536198903243400,-2.685322498991260
Solitaire and Thrasher,PR7 6AB,53.670642396557000,-2.673638339421020
Mockingbird and Mamo,WA11 7QP,53.479523285415500,-2.769875399514830
Greenbul and Wallaby,BL6 7AU,53.600793130000000,-2.547042000000000
Shearwater and Bunting,WN8 0BX,53.533624000000000,-2.741587000000000
Herring gull and Thrasher,WN5 0QU,53.549984204273800,-2.671614273808740
Logrunners and Fulmarine petrel,WN8 9NU,53.538912134811600,-2.771118796131040
Dolphin and Warbler,WN1 2EH,53.556743054030300,-2.632140772891880
Puffleg and Crow,WN2 5NG,53.522278422856200,-2.595925233984800
Chickadee and Pheasant,PR7 4LE,53.611177417675600,-2.607787460187550
Marmoset and New World blackbird,WN3 6PB,53.532025175482200,-2.655413409831140
Hawaiian honeycreeper and Cuscus,PR6 0HZ,53.660755787639200,-2.620319425188520
Greenbul and Viscacha,WN3 5RG,53.519330309150200,-2.644403402107610
Fox and Fox,WN7 3LX,53.483590767905000,-2.527298617080230
Rat and Kākāriki,PR6 8LT,53.688451000000000,-2.614942000000000
Cloud rat and Grosbeak,PR7 7AR,53.681106073935100,-2.662132411504930
Towhee and Gull,WA3 3FT,53.480310079503700,-2.601469545773660
Night heron and Jay,WN8 0DW,53.538633775245400,-2.729542941660580
Kite and Siskin,L39 2BG,53.567977402213700,-2.869916695308910
Peafowl and Lemming,WA11 9GA,53.478347342662000,-2.659964754128480
Egret and Black jay,L40 5SG,53.599074000000000,-2.839225676837920
Grackle and Cloud rat,L33 7YA,53.473492428758000,-2.853053000000000
Peafowl and Cloud rat,PR26 9HL,53.667580542342000,-2.776963073268100
Argus and Darwin's finches,PR7 6QH,53.670909000000000,-2.670794000000000
Puffleg and Minke whale,WN3 4PB,53.528007445503900,-2.607757139359690
Kākāriki and Kestrel,PR7 3PL,53.638367214321900,-2.647215193402390
Myna and Armadillo,WN3 6AR,53.526918130131300,-2.678248606737330
Dorcopsis and Meadowlark,L40 1TS,53.631903775171600,-2.828147286300570
Buzzard and Jay,WN1 1RS,53.546965930396300,-2.635088890409610
Logrunners and Boto,WA3 3RE,53.479039643089000,-2.609031000000000
Vulture and Logrunners,WN7 5EZ,53.506219559254500,-2.538344903022590
Fulmarine petrel and Nukupuʻu,L33 5YP,53.478815416767900,-2.872837697610660
Tree warbler and Dolphin,PR7 4QD,53.623454542766600,-2.654108000000000
Grackle and Bunting,PR7 4PE,53.625545694708500,-2.651282795966460
Dolphin and Stint,PR6 0QL,53.644134267117800,-2.613132000000000
Capuchin and Guillemot,PR6 7WU,53.653162455781900,-2.625155407081630
Greenbul and Black jay,WN8 9UF,53.544380815738100,-2.780257903671070
Elephant and Parakeet,WN3 5PG,53.522859000000000,-2.636885000000000
Piping shrike and Coati,L40 8TG,53.590912000000000,-2.864450000000000
B and Maya,BL6 5AJ,53.593226470000000,-2.580878274000000
Francolin and Night heron,WN8 6SF,53.560298000000000,-2.759762000000000
Cuscus and Logrunners,WN3 5PS,53.519959323675800,-2.641094805627200
Parrotbill and Buzzard,PR7 5JF,53.608764046949600,-2.669252077455350
Bunting and Old World quail,WN1 9RN,53.546982000000000,-2.635088000000000
River dolphin and Fish eagle,WN3 5QW,53.519732080832000,-2.649884413651360
Ice seal and Old World quail,L40 5TR,53.572965310583000,-2.865065790768870
Mole and Parrotbill,WN1 2PX,53.566657635938000,-2.637301000000000
Buzzard and Guillemot,BL6 5QA,53.594818220000000,-2.540438048000000
Boto and Greenbul,WN5 9LU,53.542514044115000,-2.676521122538190
Rat and Badger,WN5 8HE,53.536702301342900,-2.685315542733630
Parrotlet and Goose,WN5 8SL,53.535138000000000,-2.708631000000000
Towhee and Grouse,BL5 3QA,53.558240220000000,-2.520965000000000
Macaw and Eagle,WN4 9LF,53.486917469222400,-2.647739802933050
Chickadee and Jackal,WN2 3UN,53.524248292146400,-2.593841138862630
Cloud rat and Pitohui,PR25 1HY,53.690852882053900,-2.714788000000000
Bunting and Kākāriki,WN5 7NT,53.495397264273200,-2.705827810121500
Flameback and Thrasher,WN1 3UF,53.552633937591200,-2.615174133403840
Condor and Myna,L33 7XG,53.484593000000000,-2.863417000000000
Chickadee and Mink,WN1 2LS,53.554812798700500,-2.626587270741760
Guillemot and Black cockatoo,WN2 4JU,53.535734489401600,-2.556719391882780
River dolphin and Grackle,PR6 9LL,53.615016937404300,-2.591350740412440
Minke whale and Solitaire,BL6 9LL,53.588218000000000,-2.538918000000000
Grouse and Wader,PR7 5FA,53.618420628689600,-2.660621555011660
New World blackbird and Scimitar babbler,WN5 7JP,53.513325441439800,-2.706517891960210
Kestrel and Mamo,WN1 9SY,53.545096494276700,-2.629959998967720
Triller and Puffleg,WN2 5AX,53.519746117994400,-2.600067822546560
Chipmunk and Thrasher,WN5 8BL,53.533156546641800,-2.679766526365200
Badger and White ibis,PR7 7DB,53.680697185403100,-2.653117777215160
Black cockatoo and Hawaiian honeycreeper,WN3 4PP,53.531721736215500,-2.609122879247640
Rabbit and Ice seal,L40 3PP,53.625150527469300,-2.745187107448050
Songlark and Mouse,PR7 1EL,53.655139480147400,-2.630374490916680
Grosbeak and Guillemot,BL6 6RS,53.604991000000000,-2.522962000000000
Elephant and Snipe,L39 2BD,53.565331749847100,-2.866616136178370
B and Solitaire,WA11 7DL,53.476398889281700,-2.735043887924770
Rabbit and Egret,BL6 5NE,53.594769680000000,-2.547160948000000
Kestrel and Cloud rat,WN6 8LR,53.560770722979500,-2.677929668698380
Greenbul and Pitohui,WN2 2TB,53.539149000000000,-2.592692000000000
Darwin's finches and Diving bird,BL5 2QU,53.537505040000000,-2.533098735000000
Petrel and Booted eagles,WN6 9AY,53.578240421369600,-2.720120805955600
Asiatic leopard and Flameback,WN8 9LT,53.539864252472500,-2.767031712851140
New World blackbird and Solitaire,WN2 5JE,53.516788815283900,-2.599045408334690
Triller and Dorcopsis,PR6 8JP,53.690380652864600,-2.575431135045160
Herring gull and Chicken,WN1 3SZ,53.548644586794600,-2.625273613504540
Siskin and Tahr,WA3 2ET,53.479835602098300,-2.577398914276720
Chickadee and Boto,WN3 6SE,53.522735451522100,-2.654606276595140
Dolphin and Condor,PR7 2JL,53.642669632327300,-2.641094460245830
Maya and Black cockatoo,BL6 6HS,53.585801830000000,-2.524522268000000
Eagle and Wader,WN6 9QQ,53.593502637491700,-2.726106602172860
Crow and Jerboa,PR25 1TB,53.687569425729000,-2.716640339765310
Pheasant and Night heron,WN6 0PZ,53.597754099393200,-2.673898137852890
B and Grouse,WN1 2SW,53.570836021655500,-2.636700317505170
Gull and Black cockatoo,WN3 4JJ,53.530381756065700,-2.611019584468680
Mamo and Bunting,WN2 4SW,53.528397956211600,-2.568585863285680
Shearwater and Flameback,WA11 8SN,53.509260869407500,-2.795475399107060
Vole and Cloud rat,PR6 9EH,53.635959715213700,-2.593186337353730
Herring gull and Darwin's finches,WA3 3QU,53.479391862162000,-2.608839901775240
Ibex and Hawk,PR6 0BZ,53.656779413018700,-2.615782169288760
Mamo and Jackal,WN7 4BL,53.493977000000000,-2.528644734289260
Duck and Civet,WN8 6DJ,53.547399057792200,-2.752513323670830
Siskin and Myna,BL5 2QH,53.544010010000000,-2.513169926000000
Maya and Old World vulture,WN4 8SZ,53.495125237667400,-2.620415798451850
Pratincole and Herring gull,L40 5TY,53.585557000000000,-2.842724000000000
Fish eagle and Mouse,WA11 8AP,53.501097323716000,-2.779387269105290
Stint and Flameback,WN7 5PQ,53.518003859145200,-2.534256387640720
Condor and Diving bird,WN6 0TS,53.584629835858000,-2.666076086940720
Chicken and Old World vulture,PR6 8QR,53.687982901743000,-2.565555865987950
Songlark and Chipmunk,PR7 1BG,53.653063309929700,-2.631811000000000
Armadillo and Ground sloth,WN7 3QW,53.475084516807100,-2.540059880393850
B and Viscacha,WN6 0DJ,53.585809930601700,-2.658965000000000
Parrotbill and Condor,WN2 5NR,53.519207757245000,-2.598084446508870
Piping shrike and Quetzal,WA11 9SJ,53.473052000000000,-2.640553000000000
Crow and Pratincole,WN7 5PL,53.517679917766500,-2.532321867754420
Kestrel and Pitohui,BL6 5RE,53.595989610000000,-2.555502037000000
Magpie and Buzzard,WN8 8BZ,53.547626121398300,-2.799243554921310
Myna and Siskin,L33 6UB,53.488477000000000,-2.875583000000000
Kestrel and Hawaiian honeycreeper,WN2 3PU,53.532990827096500,-2.572404090690470
Mockingbird and Maya,WN8 9ED,53.539754455106700,-2.749932000000000
Black cockatoo and Diving bird,WN2 1JA,53.554441475427400,-2.586384570222700
Meadowlark and Warbler,WN3 6ES,53.524933356692700,-2.673178739273120
Meadowlark and American sparrow,PR6 0FD,53.661839000000000,-2.619303000000000
Capuchin and Thrasher,WN4 0YB,53.484529705396200,-2.674768998688140
Mole and Meadowlark,WN8 7RJ,53.574403077087700,-2.763594000000000
Buzzard and Perching duck,WN5 0HQ,53.547191795932500,-2.674271549126090
Linsang and Cloud rat,WA3 3YQ,53.483769000000000,-2.586975000000000
Moluccan boobook and Goose,PR6 9SG,53.619279117923100,-2.602218000000000
Booted eagles and Booted eagles,WN4 9HJ,53.484431085369200,-2.633686929004310
Parakeet and River dolphin,PR6 7NY,53.684342324914900,-2.637200277019270
Quetzal and Vulture,PR6 9JP,53.624588004528800,-2.606029758898320
Booted eagles and Eagle,WN2 4BX,53.543619819098000,-2.565771759522810
Pratincole and Black cockatoo,WN7 3QG,53.476995668717100,-2.544770045665200
Duck and Viscacha,WN2 2QJ,53.541865223239400,-2.575572077618890
Black cockatoo and Armadillo,WN7 4QW,53.494443175473800,-2.546576445898780
Kestrel and Jackal,WN7 5PZ,53.522786182023500,-2.526050886956770
Cuscus and Parrotlet,PR7 7NA,53.686775000000000,-2.672518000000000
Tree warbler and Crow,PR7 6DL,53.670669411436800,-2.655823375912750
Boto and Chicken,WN2 2DA,53.540049927414700,-2.609936593326110
Stint and Pitohui,WN3 4PH,53.529197103066000,-2.605360461526070
Hawaiian honeycreeper and Treepie,WN1 3YQ,53.553003000000000,-2.613564000000000
Lemming and Fox,PR7 5EG,53.620538000000000,-2.663225000000000
Capuchin and Crow,WN8 6EQ,53.546183747853300,-2.766949810883130
Pheasant and Dolphin,WN1 3AD,53.545826017337700,-2.613400524376530
Vulture and Logrunners,WN7 5QN,53.507024146756100,-2.523141603748050
Masked owl and Thicketbird,WN2 2SN,53.554483781369700,-2.573962214230210
Skunk and Lemming,WN3 6DE,53.518745947814800,-2.683261019121710
Kite and Wallaby,WN5 7NX,53.496697125791500,-2.709452158603330
Chipmunk and Capuchin,PR7 7GG,53.676423221600000,-2.653263906900000
Boto and Hawk,PR6 9FJ,53.655302000000000,-2.611463000000000
Bronzewing pigeon and Eagle,WN4 9DG,53.486955911036800,-2.628766295491170
Argus and Civet,WN2 2AY,53.543165248223700,-2.607129253544360
Nukupuʻu and Tree warbler,WN3 5HX,53.528001854424500,-2.648170644009600
Mamo and Thicketbird,WA3 3TQ,53.484760650894200,-2.604787638128000
Eagle and Zebra,WA3 3JT,53.474279867315500,-2.586785053490050
Rat and Kite,PR7 4PY,53.625717429030900,-2.657681274894420
Kangaroo and Old World quail,WA11 7JF,53.485793138790100,-2.815230606804630
Jackal and Kangaroo,WN7 4EL,53.497572332700200,-2.530366448654700
Armadillo and Maya,PR6 7GY,53.679838988710900,-2.632151369119060
Chipmunk and Rat,PR6 7YH,53.676376000000000,-2.630719000000000
Maya and Grackle,BL6 6FA,53.587774820000000,-2.533655946000000
Crow and Treepie,PR6 0LE,53.649021997193000,-2.619360441616020
Tit-tyrant and Condor,WN5 7JL,53.514329446638700,-2.708495069124760
River dolphin and Capuchin,PR7 6AT,53.668665268641200,-2.678359359057690
Puffleg and Parakeet,PR6 0QA,53.650415164561100,-2.617625905534780
Chickadee and Dorcopsis,BL5 2PZ,53.542482620000000,-2.525435020000000
Perching duck and Tree warbler,PR26 8LP,53.662975069412200,-2.740633341004860
Wader and Chipmunk,BL5 2NW,53.542329050000000,-2.519442253000000
Chicken and Quetzal,WN3 4LN,53.535723612532600,-2.620964112342860
Skunk and Jackal,PR6 9AH,53.666031346427200,-2.602840836990500
Masked owl and Flameback,WN5 7DA,53.526309455841300,-2.711817605623820
Macaw and Puffleg,WA11 9RZ,53.478146116571000,-2.678238714012160
Towhee and Argus,WN4 9PR,53.481599927689000,-2.635332434719420
Jackal and Francolin,WA11 7DN,53.475362689780000,-2.736909317787860
Logrunners and Tahr,PR6 8EN,53.680518666922100,-2.606757024380550
Solitaire and Snipe,PR7 2WE,53.644367257589400,-2.652949404043440
Snipe and Cloud rat,PR25 3BA,53.685785009511200,-2.683631347600560
Mamo and Booted eagles,L33 1TE,53.494545761947800,-2.875286188805070
Chicken and Rabbit,WN3 6RQ,53.526583719096900,-2.657667519258340
Civet and Thrasher,BL6 6ET,53.588129250000000,-2.532784227000000
New World blackbird and Mamo,WN3 5XN,53.531042473098500,-2.652667586859180
Kangaroo and Quetzal,WN7 5AH,53.498563503599600,-2.531841079395860
Greenbul and Fish eagle,WN4 0DY,53.509920066882800,-2.644260588034270
Boto and Chicken,WN4 8XX,53.487827313741800,-2.623715310710920
New World blackbird and Pitohui,WN1 3UZ,53.554156220270900,-2.619769891908500
Perching duck and B,PR7 2LA,53.649946000000000,-2.631870000000000
Snipe and Snipe,PR7 1DQ,53.653540932206800,-2.631818255076860
Parakeet and Linsang,WN6 7HP,53.560619785585700,-2.643430710954000
Piping shrike and Vulture,WN7 5SS,53.507432103552700,-2.522347498914990
Cuscus and Songlark,BL6 6RQ,53.579248230000000,-2.538910242000000
Prion and Perching duck,WN7 5HR,53.510621702825700,-2.540828448683470
Flameback and Marmoset,WN7 4GX,53.489164213743900,-2.529206495230470
Booted eagles and Tit-tyrant,WN1 1XD,53.549081798386100,-2.627604354865620
Towhee and Tattler,WN8 6TB,53.564042039358600,-2.767257846257200
Duck and Greenbul,WN3 6GQ,53.519158000000000,-2.661263000000000
Petrel and Ibex,WN5 9AT,53.537133626635000,-2.653229044315510
Parakeet and Civet,PR6 6QB,53.653216000000000,-2.625214000000000
Old World quail and B,WA11 7PX,53.476800893967200,-2.772477946238650
Hawaiian honeycreeper and Macaw,WN8 8LL,53.547983644467800,-2.806238166155260
Hawk and Kangaroo,WN2 2AQ,53.541858000000000,-2.598689000000000
Ibex and Goose,WN5 9EU,53.533503208092700,-2.666087881989940
Linsang and Duck,WN8 6TJ,53.562333809872400,-2.772903647107830
Asiatic leopard and Piping shrike,PR4 6UU,53.674027658031800,-2.846851062853850
Minke whale and Maya,WN4 0YX,53.481945723643600,-2.664300219994860
Nukupuʻu and Marmoset,WN8 0LD,53.544819085019600,-2.723431682142740
Minke whale and Prion,PR7 6EP,53.664505000000000,-2.703310940441360
Grackle and Cuscus,WN8 6AG,53.546798425846400,-2.756532263220730
Argus and Gull,WN4 0UD,53.488432709196300,-2.674424042931430
Prion and Kākāriki,WN5 8BY,53.534527186266500,-2.683726374633430
Black jay and Jay,BL6 5RB,53.596445380000000,-2.554133042000000
Parakeet and Thrasher,WN6 0ET,53.582574914847800,-2.650757734231280
Songlark and Minke whale,WA11 9XQ,53.477373000000000,-2.660884000000000
Macaw and B,PR7 1PU,53.664765858194700,-2.630397128126760
Petrel and Civet,WN3 6EF,53.522291163549200,-2.668295083161400
Petrel and Dorcopsis,L40 7RB,53.594624794002900,-2.841545008074010
Cuscus and Meadowlark,BL5 3DQ,53.547661730000000,-2.520926250000000
Fox and Recurvebill,WN4 0YF,53.481577857353600,-2.662666000000000
Nukupuʻu and Mink,WA3 1FR,53.474969841892400,-2.553331962074380
White ibis and Stilt,WN3 4BF,53.542304000000000,-2.637992000000000
Condor and Kestrel,WN2 4PT,53.523479137962700,-2.551777095910690
Old World warbler and Towhee,WN7 1NE,53.501521322435100,-2.516953000000000
Logrunners and Partridge,PR26 9HP,53.667032982777400,-2.762513000000000
Mink and Vole,WN8 7XF,53.593389000000000,-2.782838000000000
American sparrow and Moluccan boobook,WN8 0AD,53.541875516444100,-2.738833995356320
Philippine hawk-owl and Ibex,WN4 9QH,53.490755097557500,-2.642839572961410
Asiatic leopard and Tahr,WN5 8HZ,53.536111314941000,-2.688052058940540
River dolphin and Vulture,L40 8JU,53.600545000000000,-2.866037000000000
Pheasant and American sparrow,WA3 2GN,53.476660838235600,-2.575909356709860
Mamo and Wader,BL6 5AP,53.592841020000000,-2.580661467000000
Vole and Ibex,WN3 4PE,53.528398228843200,-2.608682948721630
Darwin's finches and Minke whale,WN2 3TG,53.523383203149600,-2.597886538155090
Kangaroo and Piping shrike,WN2 2PA,53.544012089383500,-2.597830232474240
Buzzard and Night heron,WN1 3RG,53.547027199859800,-2.622729715141520
Chickadee and Tree warbler,WN1 1DU,53.542871101493200,-2.630244176813090
Masked owl and Mouse,L33 7UY,53.489756000000000,-2.850379000000000
Zebra and Polecat,PR7 5QG,53.645183754227800,-2.722047795276030
Jay and Marmoset,WN1 1UG,53.546946388666500,-2.630666000000000
Kākāriki and Shearwater,WN3 6JN,53.521289725371500,-2.668958049766060
Kangaroo and Eagle,WN5 8SF,53.534527480520600,-2.706855829531750
Elephant and White ibis,WN8 0AW,53.539825089703500,-2.737049000000000
Capuchin and Bronzewing pigeon,WN5 0DJ,53.541313000000000,-2.685526000000000
Kestrel and Snipe,WN3 4SE,53.538609328784300,-2.617278000000000
Parakeet and Magpie,WN3 6TT,53.522388461909000,-2.665355359174760
Quetzal and Mouse,WA3 3EG,53.481706883174000,-2.591754820298890
Minke whale and Kangaroo,WN6 0TD,53.585842582280600,-2.666200904232080
Philippine hawk-owl and Logrunners,WN6 8PY,53.567250795203500,-2.680675000000000
Grouse and Peafowl,WN7 3NP,53.481218889817500,-2.522959559808060
Duck and Mink,WN7 5BH,53.501169131917800,-2.534089836783010
Elephant and Black jay,WN7 5PJ,53.517561393882300,-2.532697419941280
Chipmunk and Kite,BL5 3RQ,53.545993930000000,-2.528195024000000
Eagle and Mouse,WN2 5QS,53.512102629550900,-2.588830685672860
Egret and Tahr,L33 1SD,53.498411490163800,-2.873978924591840
Vulture and Chicken,WN2 3UH,53.524514619467900,-2.598113654223710
Tattler and Chicken,WN2 4EG,53.537991157571100,-2.573708849044900
Siskin and Herring gull,WN8 6HB,53.549875671877300,-2.774291525662160
Peafowl and Songlark,WN6 0QS,53.592743684352800,-2.684076996998850
Bronzewing pigeon and Herring gull,WN6 8DH,53.572314000000000,-2.682552337346860
B and Greenbul,WN4 8XS,53.489140377699600,-2.621850641972720
Old World quail and Partridge,WN8 6NQ,53.549875671877300,-2.774291525662160
Flameback and Snipe,WN8 8RA,53.556183963708600,-2.791026878110970
Treepie and Viscacha,WA3 2DR,53.474915814481100,-2.561060339542800
Capuchin and Pratincole,WN1 3HN,53.547666467306800,-2.609291528905330
Grouse and Prion,WN2 4GD,53.524752377091300,-2.538806000000000
Quetzal and Herring gull,WN6 8HU,53.566124360596500,-2.697296658562670
American sparrow and Grackle,PR26 7AJ,53.691475660464600,-2.739422396090660
Civet and Peafowl,WA3 2TF,53.477348594456700,-2.569319192973950
Jay and Scimitar babbler,WN6 7AB,53.550237547872600,-2.643529734886230
Crow and Tree warbler,PR7 7EQ,53.677255869900000,-2.662042062700000
Grosbeak and Mamo,WN3 5NH,53.523690940332900,-2.639160109197240
Snipe and Vulture,L40 5UZ,53.593920158427300,-2.838207019796760
Tit-tyrant and Fish eagle,WN6 8DY,53.573038957143500,-2.710624200930280
Ibex and Greenbul,L39 2EA,53.571075299394400,-2.872819265066140
American sparrow and Quetzal,WA11 7NX,53.482211140955500,-2.729734556896870
Pitohui and B,WN2 5EG,53.519665097581400,-2.604410066197820
Grouse and Puffleg,L33 5YL,53.481184928088400,-2.877000173478420
Scimitar babbler and Tree warbler,WN5 7BE,53.525306226209200,-2.709719126400310
Darwin's finches and Solitaire,WN5 9EB,53.539465083444700,-2.652481000000000
Ground sloth and Tree warbler,WN8 6LZ,53.554283255749500,-2.775187139205400
Dorcopsis and Shearwater,WN2 2SU,53.554282398831400,-2.576585952983410
Meadowlark and Night heron,WN2 1NB,53.587958913655500,-2.608073492848700
Goose and Vulture,PR25 2EX,53.690464196431700,-2.699834895403320
Coati and Pitohui,WN7 4RZ,53.496976372510000,-2.533494000000000
Siskin and Mamo,WN3 5ER,53.536444387181100,-2.639397510645420
Parrotlet and Myna,WN1 3UX,53.555850851795600,-2.618843668447600
Jay and Piping shrike,BL6 7NZ,53.598142610000000,-2.548624914000000
Tit-tyrant and Kestrel,WN3 6BB,53.516662556087800,-2.658661000000000
Old World warbler and Grackle,WN6 9LH,53.582415263384800,-2.710403897297500
Logrunners and Rat,PR7 6QS,53.670702000000000,-2.667687000000000
Meadowlark and Goose,WN2 4HU,53.532778037416400,-2.552682550392670
B and B,WA3 2GG,53.473016809673300,-2.571054016359510
Rat and Parakeet,WN2 1AA,53.555446762764900,-2.610022246213930
Skunk and Chicken,WN8 9UE,53.544566000000000,-2.785045000000000
Tree warbler and Darwin's finches,PR7 6FJ,53.673933649195600,-2.670163838738470
Thicketbird and Fox,WN6 7DB,53.547045608176400,-2.640372320170230
Guillemot and Minke whale,PR6 0PF,53.649783000000000,-2.621959000000000
Linsang and Wallaby,WN3 6SG,53.521959518130800,-2.658410359890440
Fox and Maya,WN6 9HX,53.577022715740800,-2.711823742969790
Condor and Jackal,WN2 3LP,53.535463312241200,-2.574142388109660
Petrel and Fulmarine petrel,WN3 5PN,53.519258597820600,-2.641023893745750
Moluccan boobook and Old World warbler,WN5 0AG,53.537967554957300,-2.687252275745310
Logrunners and Jay,WN6 0DY,53.583959364407500,-2.654011535083390
Minke whale and Stilt,WN7 4JH,53.493040946512400,-2.522472006418860
Partridge and Night heron,PR6 7AF,53.662603314351800,-2.626278838009780
Civet and Fulmarine petrel,WN6 7QH,53.554809673657800,-2.658935534047000
Solitaire and Ground sloth,PR26 7SS,53.691465404826100,-2.736711475500000
Warbler and Grosbeak,PR7 5QS,53.649850025745000,-2.730720744539170
Prion and Cloud rat,WN8 9DW,53.536056897613200,-2.753715337439560
Mamo and Cuscus,BL5 3TR,53.552361250000000,-2.525361227000000
Flameback and Greenbul,WN6 7AS,53.553553759821400,-2.646961222748150
Stilt and Cuscus,WN5 9NU,53.538004193493500,-2.668105025034410
Moluccan boobook and Diving bird,PR7 4JG,53.611078928372300,-2.609478914538810
Gull and Chicken,PR7 7FP,53.681207318500000,-2.651188080900000
Chickadee and Goose,PR7 5EN,53.619713888338700,-2.662440801775520
Bunting and Marmoset,WN1 2LF,53.553546589152300,-2.628077997266340
Jackal and Fish eagle,WN3 6SJ,53.522368369021400,-2.657617284613860
Herring gull and Grouse,PR6 0HJ,53.658455382183800,-2.625385072813200
Mockingbird and Egret,WN2 4SQ,53.524802176917900,-2.552353000000000
Macaw and Night heron,WN7 5ND,53.511445201020900,-2.527523853858330
Minke whale and Linsang,WN7 5AL,53.498392306720800,-2.533436000000000
Chipmunk and Siskin,WN8 9LX,53.538171701963000,-2.766050497746390
Siskin and Philippine hawk-owl,WN2 1RY,53.568107000000000,-2.591630491875940
Booted eagles and Capuchin,PR6 7RF,53.677452601480600,-2.638080263128430
Tahr and Kangaroo,WA3 1BA,53.481067137371600,-2.552672970267660
Tit-tyrant and Prion,WN5 7LY,53.497664743605000,-2.706950854693580
Treepie and American sparrow,WN1 1HP,53.546734652222900,-2.634632666954480
Ibex and Darwin's finches,WN8 8DP,53.549285233418000,-2.797116518549940
Old World quail and Thrasher,WN7 5AZ,53.499968585340500,-2.531195359310580
Partridge and Mamo,WN6 7SA,53.557823948883300,-2.656733092001710
Parrotbill and Ibex,WN2 4QN,53.530511868954400,-2.556786638061510
Vulture and Thrasher,L33 6XW,53.485032000051700,-2.870870574920060
Jay and Vulture,WA3 2GF,53.475689609130200,-2.572265120583300
Egret and Crow,WN2 3ST,53.522522310782700,-2.575505811605360
Herring gull and Ibex,WN5 9RS,53.540810263753000,-2.669416776260500
Stint and Recurvebill,WA11 7EJ,53.473835624660400,-2.726472107624860
Grosbeak and Magpie,WN3 4LZ,53.532423727393200,-2.612467158410410
Tree warbler and Wader,WN1 2NW,53.558891000000000,-2.629033000000000
Stilt and Magpie,WN8 8LB,53.548197271228700,-2.805215925602250
Triller and Kestrel,L33 1RR,53.498935500187800,-2.876070089542700
Goose and Snipe,WN2 1HU,53.556571645340300,-2.602671845607110
Pratincole and Mamo,WN7 1TN,53.509125719089700,-2.517347180232270
Vulture and Prion,WN6 0ZL,53.589565000000000,-2.678631000000000
Parakeet and Jay,BL5 3PB,53.560747190000000,-2.529496046000000
Tit-tyrant and Francolin,PR6 0BY,53.656797000000000,-2.615779000000000
Badger and Bunting,WN3 4FQ,53.543051000000000,-2.638999000000000
Tattler and Condor,WN8 6AY,53.548244458096200,-2.752437769893600
Cuscus and Night heron,WN2 3HP,53.528523630064300,-2.585377673928240
Greenbul and Eagle,PR7 4EA,53.608456971230600,-2.617723600839520
Marmoset and Maya,WN8 8HP,53.550982191742900,-2.806778177293970
Old World quail and Thicketbird,WN4 9LL,53.487008925823500,-2.644124207119390
Capuchin and Piping shrike,PR25 3DY,53.686624645871200,-2.695593000000000
Pratincole and Thrasher,WN6 9ET,53.575924000000000,-2.715400000000000
Herring gull and Condor,WN4 0SA,53.489009000000000,-2.672760000000000
American sparrow and Old World vulture,WN4 9RU,53.495403617644200,-2.654170011697940
Flameback and Ibex,WA3 2HW,53.478005780736400,-2.574737240919550
Tahr and Triller,BL6 5QE,53.598100340000000,-2.549999397000000
Grouse and Grouse,PR7 5UW,53.651536811013900,-2.734154054959910
Thrasher and Meadowlark,PR26 9HT,53.666707861158200,-2.771528697803590
Mockingbird and Hawaiian honeycreeper,WN8 6TS,53.562481096411000,-2.770973824068510
Snipe and Guillemot,PR7 1LG,53.653354208469100,-2.641574341795030
Snipe and Moluccan boobook,WA11 7AF,53.473675769952000,-2.732043849225310
Tree warbler and Stint,WN8 6TX,53.560005542371300,-2.771547766909650
Capuchin and Maya,WN5 0QJ,53.549109447608100,-2.665699108108100
Songlark and Night heron,L40 4BQ,53.597805028666000,-2.803892738755240
Chickadee and Recurvebill,WN2 4EW,53.537638224765700,-2.560954123162810
Hawk and Tattler,WN6 0LH,53.591499782134500,-2.660715082031050
Pitohui and Wallaby,PR6 0LL,53.646761787147700,-2.620159330006290
Booted eagles and Parrotbill,WN8 6EE,53.547007375240600,-2.768866325175280
Viscacha and Warbler,PR6 8JT,53.682838000000000,-2.592465610114130
Masked owl and Grosbeak,L33 9TJ,53.489876523728600,-2.874617280068780
Grosbeak and Logrunners,WN7 4AX,53.497031004896200,-2.520606650500910
Snipe and Hawaiian honeycreeper,BL5 3DY,53.552329450000000,-2.516153559000000
Myna and Booted eagles,BL6 6RH,53.585737200000000,-2.533041138000000
Pitohui and Mockingbird,WN2 4BL,53.538218573505700,-2.571267521242960
Mole and Kākāriki,WN3 5NR,53.522606236933600,-2.638615854866930
Grosbeak and Minke whale,WA11 7SR,53.513199900555000,-2.806073000000000
Dorcopsis and Mockingbird,WN5 7HY,53.498095588884100,-2.708571025538800
Old World quail and Old World warbler,WN7 5LG,53.510192253691000,-2.538395270921130
Partridge and Rabbit,WN2 1UR,53.569301999184200,-2.578466425365840
Elephant and Chipmunk,WN4 9JP,53.483158660858100,-2.624400270733440
Flameback and Goose,L39 0HL,53.514405484883800,-2.828100792490660
Minke whale and Old World vulture,WA3 3RR,53.478163000000000,-2.603142000000000
New World blackbird and Ground sloth,WN8 9AT,53.526840075098200,-2.763628790921320
Philippine hawk-owl and Recurvebill,WN1 2SZ,53.578232000000000,-2.642928000000000
Magpie and Songlark,BL5 3PA,53.560300080000000,-2.526939111000000
Hawaiian honeycreeper and Badger,WN8 0HS,53.541917375194100,-2.736420264888670
Jerboa and B,WN5 8SP,53.533605000000000,-2.706398126968150
Asiatic leopard and Boto,WN6 8DT,53.575896643359200,-2.713753036616500
Chickadee and Mouse,WN1 1XE,53.551333000000000,-2.625268000000000
Buzzard and Eagle,WN8 8EU,53.549891756746300,-2.801852114770770
Masked owl and Marmoset,WN3 6LT,53.517330669632200,-2.676074490417040
Moluccan boobook and Linsang,PR7 6LZ,53.655516945324700,-2.734435064513880
Badger and Philippine hawk-owl,PR6 9QS,53.612871019400000,-2.600949662600000
Towhee and Grouse,PR7 3FN,53.638947000000000,-2.624216000000000
Egret and Masked owl,WN3 4PL,53.529842885204100,-2.607406279439010
American sparrow and Macaw,PR7 3RB,53.636707616824500,-2.663039842090590
Quetzal and Greenbul,PR6 8TJ,53.669741146103500,-2.615668506971140
Pratincole and Polecat,WN6 7HQ,53.558858527977900,-2.641667899167040
Tahr and Cuscus,BL6 4LW,53.583868090000000,-2.520691823000000
Ice seal and Coati,WN8 7TN,53.586194624542600,-2.759456508326320
Scimitar babbler and Skunk,PR7 7DL,53.678810619352400,-2.661127487777570
Moluccan boobook and Cuscus,WN5 0XD,53.541399109992500,-2.649024234978690
Parrotlet and Armadillo,WN7 3RB,53.481270000000000,-2.515667000000000
Old World quail and Rabbit,L33 7TH,53.485284263051100,-2.849566204999920
Philippine hawk-owl and Warbler,WN6 0JN,53.587539563307400,-2.663296932021290
Marmoset and Kite,L39 2AZ,53.564531404477200,-2.871252000000000
White ibis and Cuscus,WN6 9RN,53.608389657567100,-2.701650596975230
Solitaire and Jackal,WA3 3XF,53.484038681357700,-2.607128238753980
Myna and Thicketbird,BL6 5TQ,53.596763860000000,-2.545464216000000
Jackal and Thrasher,WN4 8LG,53.492929369045600,-2.637988852962810
Flameback and Night heron,L39 9EG,53.541053000000000,-2.873001000000000
Kangaroo and Scimitar babbler,BL5 2HG,53.536572120000000,-2.522495029000000
Ice seal and Songlark,PR4 6UE,53.680810085584400,-2.832013610796760
Cuscus and Shearwater,WN8 6RF,53.557904958883400,-2.769728194843860
Ibex and Tit-tyrant,WN6 8EN,53.567467132222800,-2.698239819331390
Darwin's finches and Warbler,WN1 2JA,53.557043768076600,-2.638138234338110
Tit-tyrant and Ice seal,BL5 2LT,53.533983120000000,-2.522568753000000
Logrunners and Egret,WN4 0RJ,53.492470372600500,-2.667705390470580
Polecat and Mamo,BL6 5LP,53.592265810000000,-2.600671909000000
Thrasher and Cuscus,WN4 9SP,53.494496456098100,-2.644117127811900
Chickadee and Vulture,WN8 8PL,53.552350494265300,-2.793038348910500
Piping shrike and Old World warbler,WN7 5RJ,53.506945998138700,-2.526608527450210
Stint and Zebra,WA11 8ET,53.498046245413000,-2.782738207011540
Chickadee and Francolin,WN5 7QG,53.493210469025800,-2.712318112965800
Rabbit and Ground sloth,PR6 9BP,53.665929203222300,-2.603703000000000
Tahr and Warbler,PR26 9JN,53.660384340216400,-2.780568452149920
Jay and Duck,WN1 1JU,53.545351783651600,-2.632680260521720
Parrotlet and Mamo,PR6 0HP,53.661012056320000,-2.624620898148780
Booted eagles and Grackle,WN4 0ER,53.503668359748000,-2.651749334510460
Vulture and Vole,PR6 0TG,53.653400055911300,-2.615732903376960
Dorcopsis and Fish eagle,WN8 9LR,53.539267655755200,-2.768952376185710
Buzzard and Badger,WA3 3UY,53.486365000000000,-2.609482000000000
Boto and Philippine hawk-owl,BL5 3SG,53.552141320000000,-2.524271746000000
Thicketbird and Petrel,WN7 1RW,53.501292516057800,-2.520387519913850
Peafowl and Mole,WN7 3NU,53.481541884743100,-2.529217068837740
Chicken and Grackle,WN5 9JA,53.533173727771200,-2.668753143230460
Pratincole and Philippine hawk-owl,BL6 7HN,53.604528590000000,-2.539791325000000
Marsh harrier and Guillemot,L33 9XS,53.491062644962200,-2.870979084442870
Armadillo and Civet,WN5 8TS,53.530919000000000,-2.716723000000000
Tahr and Coati,PR6 0AU,53.656799522550000,-2.618854108896630
Thicketbird and Thicketbird,WN4 9XB,53.496176255699800,-2.647639772753190
New World blackbird and Pheasant,BL6 6ND,53.590779750000000,-2.531004671000000
Rat and Maya,WN1 2HJ,53.557363341300100,-2.635516380337110
Chickadee and Kangaroo,WA11 8NN,53.502041804928900,-2.773751006039210
Linsang and Old World vulture,PR7 7HA,53.681009825300000,-2.675651000000000
Stint and Old World vulture,BL6 7NN,53.606009630000000,-2.544208115000000
Nukupuʻu and Condor,WN3 6GL,53.516338000000000,-2.649440000000000
Kestrel and Parrotlet,L40 7TX,53.590489876125600,-2.850467065526240
Tahr and Tit-tyrant,WN1 9PD,53.546971188244900,-2.635089300043810
Linsang and Thrasher,WN2 4US,53.531258000000000,-2.556479000000000
Mink and Parrotlet,PR6 9LE,53.621540372781200,-2.602584389956220
Mouse and Asiatic leopard,PR4 6DL,53.681102273608100,-2.828764231756200
Buzzard and Thicketbird,WN2 2NL,53.544923331586800,-2.597148877800700
Moluccan boobook and Tit-tyrant,WN2 3TL,53.524634934538600,-2.599413000000000
Skunk and Marsh harrier,L40 1TN,53.631062005699300,-2.827692251939890
Francolin and Mamo,WN6 9DB,53.584332000000000,-2.716236000000000
Petrel and B,WN5 7LL,53.498493390309700,-2.703618012667720
Warbler and Kite,WN5 7EG,53.516218087081200,-2.711346773491990
Cloud rat and Fulmarine petrel,PR4 6BT,53.683919184563600,-2.834724623870700
Duck and Old World vulture,PR6 6FD,53.653162455781900,-2.625155407081630
Moluccan boobook and Macaw,PR7 2NU,53.640541658524800,-2.642347842807390
Elephant and Scimitar babbler,PR26 9RY,53.663599726393800,-2.782322879336410
New World blackbird and Vulture,WN2 2JU,53.548069761696900,-2.598853355082180
Eagle and Bronzewing pigeon,L40 3AD,53.622298000000000,-2.741280000000000
Rabbit and Herring gull,L40 7TL,53.589181622586300,-2.852419849036730
Stint and American sparrow,PR7 5AE,53.625152927639600,-2.662086000000000
Guillemot and Boto,PR6 7PL,53.681198241693800,-2.638545681329320
Masked owl and Marmoset,WN2 5XE,53.505924412055800,-2.591278032128110
Wallaby and Thrasher,PR6 8LW,53.681764000000000,-2.611287000000000
Kākāriki and Scimitar babbler,WA11 8LU,53.493956000000000,-2.774689000000000
Mockingbird and Quetzal,WN1 3RQ,53.546586200619900,-2.626993926271460
Vole and Stint,WN6 7AE,53.552039698012200,-2.644372158097280
Myna and Mockingbird,WN6 0AL,53.579020641721700,-2.644827863938650
Herring gull and Mockingbird,WN1 3HQ,53.546878383068600,-2.608721800616740
Kākāriki and Stint,WN4 8LL,53.494220514692800,-2.640269241724600
Old World quail and Fulmarine petrel,WA3 3NX,53.474652652904400,-2.603965860344450
Pratincole and Pitohui,WN8 6SE,53.554804509896000,-2.758380853949380
Herring gull and Skunk,PR7 3HD,53.641871000000000,-2.622356000000000
Towhee and Philippine hawk-owl,PR7 4QJ,53.629240972192700,-2.660926709265220
Guillemot and Myna,WA11 7PS,53.473262016589800,-2.730620522358360
Cuscus and Jerboa,WN6 7PQ,53.556034038352800,-2.645398971997030
Fox and Viscacha,PR25 3DR,53.683132995505400,-2.685284145363730
Kestrel and Mink,WN8 8DS,53.550814738643600,-2.798247104176430
Songlark and Kangaroo,WN6 8BW,53.577209411005100,-2.689157424062200
Cuscus and American sparrow,WN8 6XW,53.562307946692400,-2.765746883858780
Eagle and Maya,PR6 9AD,53.652371000000000,-2.611572000000000
Eagle and Flameback,WN6 0QQ,53.595720357621200,-2.666145000000000
Ice seal and Civet,PR6 9HH,53.611387459272500,-2.578104613866390
Booted eagles and Shearwater,WN7 5QR,53.507837232643000,-2.524252320853100
Tattler and American sparrow,WN2 4TY,53.520841720198700,-2.540807839256170
Elephant and Siskin,L40 6JB,53.568873082034100,-2.824695226847710
Warbler and Mink,WN3 6DN,53.519780570101500,-2.676777136685650
Civet and Mamo,WA11 8QG,53.495103354441000,-2.781915227789070
Shearwater and Boto,WA3 2LG,53.474149297692200,-2.569185955329760
Wader and Pratincole,WN2 4HG,53.525153443070300,-2.549294879619170
Lemming and Wader,PR6 9LB,53.622245348425500,-2.605376311264340
Tit-tyrant and Black jay,PR26 8NL,53.681923692179400,-2.744796390691980
Rabbit and Fish eagle,PR7 5HG,53.622408678987900,-2.689787948416770
White ibis and Night heron,WN6 9BB,53.578066804497100,-2.711584533684310
Perching duck and Marmoset,WN4 9JB,53.484914370777700,-2.623838332675210
Hawk and Herring gull,WN6 7HL,53.559121105355900,-2.642985261459200
Fox and Crow,WN8 9DX,53.537939532951000,-2.750217966724590
Tattler and Snipe,WN4 9EJ,53.482895468444400,-2.636798454337630
Night heron and Minke whale,BL6 5TA,53.586300040000000,-2.574544457000000
Solitaire and Dolphin,PR7 5WL,53.642077000000000,-2.721312000000000
Puffleg and Fulmarine petrel,PR6 6PQ,53.653216000000000,-2.625214000000000
Tree warbler and Cloud rat,WN5 0AQ,53.538188949967600,-2.687829244514240
Capuchin and Old World quail,PR7 1TX,53.663481033337900,-2.645481352910130
Maya and Pratincole,WN2 4UF,53.534141433124300,-2.564016220281650
Fulmarine petrel and Nukupuʻu,BL5 3SR,53.553234090000000,-2.523092817000000
Cuscus and Argus,WA11 8NJ,53.497064000000000,-2.773570000000000
Meadowlark and Fox,WA11 7JZ,53.519940705048700,-2.792568495612710
Buzzard and Pitohui,WN7 5QQ,53.504570878650800,-2.523005844439210
Stint and Recurvebill,L33 6UU,53.487399855489300,-2.870346388491490
Vole and Black jay,WN6 0NY,53.593843735354600,-2.672370333717850
Goose and Bunting,WN6 0LD,53.588854123355900,-2.666127431038790
Marmoset and Crow,WN6 7DN,53.550088094040900,-2.641233301596710
Kangaroo and Herring gull,BL6 5QS,53.598021760000000,-2.551448955000000
Triller and Dolphin,PR7 3PW,53.637261522749700,-2.632104221111190
Minke whale and Polecat,BL6 6DP,53.593241860000000,-2.541188455000000
Parrotlet and Thicketbird,WN1 2QY,53.565350378743000,-2.632827810652550
Snipe and Snipe,WN6 9HU,53.577525032182500,-2.711998317308590
Old World quail and Gull,WN3 4JD,53.532104722351300,-2.611422000000000
Crow and Mouse,BL5 2RX,53.539482460000000,-2.537122262000000
Scimitar babbler and Old World vulture,PR7 7DY,53.679361909900000,-2.663165137700000
Linsang and Vole,PR25 1FD,53.680300000000000,-2.716196000000000
Asiatic leopard and Coati,WN7 5PG,53.517161481433100,-2.533687773763820
Stilt and Nukupuʻu,PR7 3EJ,53.645010948013500,-2.626698771042810
Darwin's finches and Thrasher,WA3 3BD,53.473212951627300,-2.598913411089940
Recurvebill and Grosbeak,PR6 0RT,53.652329267388400,-2.621179103468680
Nukupuʻu and Nukupuʻu,PR6 8LL,53.682211000000000,-2.611732000000000
Fish eagle and Francolin,PR6 8JX,53.690096970291700,-2.602048968920250
Greenbul and Bronzewing pigeon,WA11 8JL,53.506684909135100,-2.786757352741960
B and Mole,WN2 5PU,53.513027790005400,-2.588964156260980
Duck and Parrotlet,WN7 5JH,53.509992934615800,-2.526646316239990
Siskin and Mamo,PR6 0DE,53.656379713452900,-2.624931000000000
Peafowl and Lemming,BL6 7EJ,53.602065270000000,-2.543870267000000
B and Zebra,WA3 2NS,53.475788445568700,-2.566616418853270
Moluccan boobook and Armadillo,WA3 4AS,53.475107000000000,-2.521152000000000
Wader and Gull,L33 5XP,53.481891483755500,-2.873805008229470
Old World vulture and Mockingbird,BL6 5UJ,53.592941000000000,-2.591011000000000
Civet and Lemming,WN4 9SB,53.496373475610300,-2.652692607642630
Jackal and Snipe,WN6 8QJ,53.564398266220200,-2.649467000031670
Shearwater and Towhee,PR26 9RX,53.660020372438400,-2.775719302545250
Duck and Jay,WN4 0TB,53.488648178605000,-2.671277540767540
Old World vulture and Grosbeak,WN6 8DG,53.573531000000000,-2.681868832537820
Solitaire and Vole,PR7 2SQ,53.651125176115700,-2.631419021581320
Tattler and Jay,WN1 1BZ,53.545151000000000,-2.633371000000000
Moluccan boobook and Tree warbler,PR7 6QU,53.670296000000000,-2.671162000000000
Cloud rat and Tahr,BL6 5JT,53.596725010000000,-2.587816336000000
Chickadee and Puffleg,BL5 2QX,53.546162770000000,-2.520439992000000
Nukupuʻu and Dorcopsis,WN8 6QR,53.564763232490300,-2.779440326258540
Lemming and Mamo,WA11 8BQ,53.498792960583100,-2.777128953735190
Scimitar babbler and Pheasant,WN2 5QR,53.513567822302100,-2.592455166269130
Jay and Viscacha,WN1 2LD,53.555733337765400,-2.629302915582600
Bronzewing pigeon and Wader,BL5 3QE,53.559761970000000,-2.524622650000000
Dolphin and Black cockatoo,WN6 8AN,53.578043919746400,-2.687207925999610
Triller and Peafowl,PR25 1DF,53.687537814769000,-2.720410254058250
Chickadee and Macaw,BL5 2SQ,53.538384530000000,-2.531389649000000
Peafowl and Night heron,PR26 9JA,53.668498061911900,-2.761465969741030
Darwin's finches and Linsang,WN1 2AU,53.550841673052300,-2.631373579644290
Partridge and Pitohui,BL6 4LH,53.588664130000000,-2.513242708000000
Fulmarine petrel and Chickadee,WN2 5XT,53.504670426888100,-2.590386107270400
Stint and Dolphin,PR7 5QH,53.636101741976500,-2.666932303346880
Buzzard and Asiatic leopard,BL6 4AU,53.582679380000000,-2.521205871000000
Buzzard and Chicken,PR7 6JL,53.668480506650900,-2.671832000000000
Siskin and Guillemot,L40 2RE,53.627796568306100,-2.750131000000000
Wader and Stilt,L40 7AQ,53.578527000000000,-2.873862000000000
Booted eagles and Wader,BL6 5AE,53.592567000000000,-2.583634000000000
Tit-tyrant and Gull,BL5 2AR,53.544127210000000,-2.533619617000000
Greenbul and Pratincole,WN3 4LG,53.536550021944500,-2.621066739383420
Masked owl and Treepie,PR7 7EU,53.678821000000000,-2.656207000000000
Zebra and Treepie,WN6 0PR,53.593035025407400,-2.680274355541360
Wader and Greenbul,PR6 8JS,53.686036108067300,-2.585229000000000
Ice seal and Songlark,PR25 3AQ,53.687396620851500,-2.683157766463820
Old World quail and Greenbul,WN6 0QU,53.594374675679600,-2.683363011253490
Coati and Black jay,WN4 9HU,53.485541161930600,-2.624299640395710
Towhee and Crow,WN3 6RY,53.524720149486000,-2.656567663659190
Parrotbill and Pratincole,PR7 3FE,53.634290840500000,-2.633950530100000
Tattler and Eagle,WN6 7BG,53.553850355610200,-2.646965748870360
Ice seal and Coati,WN8 9HJ,53.536139053760700,-2.760612167210290
Chipmunk and Fulmarine petrel,PR7 7GD,53.677776455431800,-2.655027000000000
Meadowlark and Meadowlark,WN1 2ZP,53.546965930396300,-2.635088890409610
Moluccan boobook and Chickadee,L40 7SG,53.599226792694100,-2.850461271396550
Parakeet and Myna,WN5 8QG,53.545153493553400,-2.705071030007150
Towhee and Stilt,PR7 5AD,53.621696858961500,-2.667914611888820
Goose and Quetzal,WN1 3YD,53.550530470437800,-2.611702336070800
Petrel and Philippine hawk-owl,PR7 7JA,53.675700497800000,-2.658853807300000
Black jay and Solitaire,PR7 2JR,53.642414739000600,-2.640016637735020
Herring gull and Boto,BL6 5QZ,53.596350730000000,-2.555159256000000
Guillemot and Jerboa,WN2 5EE,53.520171527870800,-2.605578631724910
Macaw and Diving bird,L39 4YE,53.562706163213400,-2.875379633886990
Kite and Towhee,WA11 7PT,53.473433091476700,-2.729101790051980
Pratincole and Marsh harrier,PR7 5DJ,53.620899711443800,-2.672225903812240
River dolphin and Pratincole,WN8 6JR,53.563197000000000,-2.790961000000000
Capuchin and Night heron,PR7 5FX,53.631294000000000,-2.708849000000000
Parakeet and Polecat,WN2 2NT,53.545106404774200,-2.600079183737220
Mockingbird and Chipmunk,WN7 3TX,53.486143420626400,-2.523231143675580
Vole and River dolphin,WN4 0AA,53.501552777036100,-2.647390074987250
Parrotbill and Minke whale,WN1 3TB,53.549153249837700,-2.622534217099200
Ice seal and Polecat,WN2 4DL,53.537369295179400,-2.560799680754710
Macaw and Jerboa,PR7 5PP,53.632028000000000,-2.724666000000000
Logrunners and White ibis,WA11 8EZ,53.497723478944400,-2.783983462206630
Minke whale and Grosbeak,PR7 1AE,53.654970308498100,-2.630069353752700
Maya and Chickadee,PR6 8PH,53.689742000000000,-2.566261000000000
Thicketbird and Old World vulture,WN6 0SE,53.590097232311200,-2.692554859860950
Kite and Duck,WN7 4RB,53.495079703164200,-2.544971762881920
Logrunners and Capuchin,WA3 3RN,53.478955509546600,-2.602716083755030
Wader and Maya,WN1 2TH,53.584110082237300,-2.639437235526880
Condor and Elephant,WN4 9LX,53.486580994897500,-2.648458065459400
Hawk and Fox,WN7 4BW,53.492543000000000,-2.554811000000000
Warbler and B,BL6 7TE,53.601118070000000,-2.554405783000000
Hawaiian honeycreeper and Diving bird,PR7 1QZ,53.660108360278500,-2.630690779242180
Songlark and Scimitar babbler,WN2 2HS,53.543942902052100,-2.604439101969390
Hawaiian honeycreeper and River dolphin,L33 8YA,53.486251502876800,-2.878641929675470
Myna and Piping shrike,PR6 7FZ,53.681980000000000,-2.631695000000000
Condor and Linsang,PR6 0NT,53.647932601063400,-2.616228084749120
Francolin and Piping shrike,WN3 4DH,53.540055000000000,-2.631137000000000
Petrel and Vulture,WA3 2UG,53.475533000000000,-2.559561000000000
Mink and Thrasher,PR7 3JY,53.639869960004600,-2.630055955230530
Pheasant and Eagle,WN5 7BT,53.524250734798000,-2.713381988707000
Pitohui and Pitohui,WN5 7XB,53.529165000000000,-2.704881000000000
Eagle and Wallaby,BL6 7DE,53.606649210000000,-2.541919124000000
Chipmunk and Moluccan boobook,BL6 6AB,53.598684570000000,-2.540139878000000
Lemming and Fish eagle,WN2 4AY,53.529777677206200,-2.547274000000000
Jerboa and Logrunners,PR6 7HJ,53.678390068289700,-2.632493001441230
Minke whale and Treepie,BL5 2RP,53.534496900000000,-2.532427255000000
Fulmarine petrel and Marsh harrier,BL6 7QA,53.600300630000000,-2.552355087000000
Cuscus and Scimitar babbler,WA3 3RU,53.477162184066200,-2.605402767184050
Crow and Recurvebill,WN2 1DA,53.557195246462100,-2.609322000000000
Fox and Mamo,PR7 2QE,53.648993186925700,-2.645229721635100
Diving bird and Grackle,WN2 1XA,53.569080868613600,-2.583280275046610
Goose and Tit-tyrant,PR7 3DP,53.643051522400000,-2.625974228000000
Macaw and Francolin,WN6 8AD,53.580233153271900,-2.685400422526550
Skunk and Hawaiian honeycreeper,PR7 4PS,53.626086761495500,-2.654254709686650
Parrotlet and Songlark,WN8 8JJ,53.552284062917400,-2.809655740235240
Perching duck and Recurvebill,PR6 0BU,53.645767000000000,-2.612732000000000
Parrotbill and Jackal,PR6 7BQ,53.667941909986900,-2.629793735541900
Vole and Coati,WN7 4ER,53.497890123199700,-2.529646837616500
Stint and Petrel,PR6 8JN,53.683216984709800,-2.595032000000000
White ibis and Mole,WA3 3DE,53.478643260043200,-2.598673489504280
Snipe and Black cockatoo,WN2 2JW,53.548468587050100,-2.603552780079740
Goose and Jay,L40 7UX,53.601946708218100,-2.853356000000000
Diving bird and Thicketbird,WN6 9RG,53.600613722648100,-2.701233000000000
Ground sloth and Bunting,PR6 0BW,53.654628783882900,-2.624919891128730
Tattler and Fox,PR7 5BU,53.621313308618500,-2.660908638270960
Rat and Snipe,WN2 1EG,53.560326258514500,-2.604959559054450
Siskin and Grouse,WN5 7BW,53.492919980643600,-2.717120000000000
Ground sloth and Wallaby,M46 0QD,53.522049102023200,-2.513658504338380
Francolin and Jay,WN7 4NB,53.496497660185600,-2.517163229493190
Chipmunk and Puffleg,PR6 9LY,53.621621000000000,-2.604657000000000
B and Ground sloth,PR7 2BB,53.650393931580300,-2.630318805285700
Prion and Moluccan boobook,PR6 0PB,53.651766000000000,-2.624251903532930
Stilt and Jackal,L39 1PW,53.577163580447300,-2.878547942224430
Cloud rat and Jackal,PR7 2WF,53.644194346871400,-2.653340028451370
Jay and New World blackbird,WN3 4PS,53.529828486343700,-2.615492147847850
Chickadee and Kākāriki,PR25 3JR,53.682889293448700,-2.685461875593730
Vulture and Mink,WN3 5PL,53.519336561635800,-2.639893901837070
Rabbit and Peafowl,L40 5TF,53.592070990921500,-2.817064068331340
New World blackbird and Grackle,BL6 5DD,53.592437750000000,-2.585943817000000
Kākāriki and Fish eagle,WN2 3HG,53.532021000000000,-2.581669000000000
Coati and Philippine hawk-owl,WN2 3BG,53.535210558519600,-2.583872000000000
Skunk and Argus,PR25 1HW,53.688798048132400,-2.712587791059560
Piping shrike and Pheasant,BL5 3SA,53.553236330000000,-2.524632455000000
Pitohui and Coati,PR6 7LR,53.690940109260500,-2.635437284970330
Chicken and White ibis,WN1 3YG,53.550818167160100,-2.615193068143950
Bunting and Badger,WN4 0LW,53.499047305456000,-2.655206000012210
Goose and Goose,WN2 1LG,53.582896576637900,-2.586854028018230
Mamo and Parakeet,WN7 4AB,53.496487720694100,-2.519318000000000
Crow and Old World warbler,WA11 8AF,53.496473356500000,-2.792266324034730
Greenbul and Dorcopsis,WN4 9EX,53.482470323477200,-2.632226125899700
Masked owl and Old World quail,L40 5TS,53.579208129272200,-2.856916405044980
Mamo and Viscacha,PR6 0BL,53.656926813958500,-2.627208459145620
Macaw and Bronzewing pigeon,PR7 6AF,53.673575272945000,-2.666737114694430
Mole and Pitohui,WN5 0RH,53.547765241186700,-2.669798227297280
Maya and New World blackbird,WN5 7BF,53.524336392281900,-2.712463000000000
Black jay and Kite,WN1 9SF,53.545096494276700,-2.629959998967720
Old World vulture and Masked owl,WN3 6QU,53.526688969637000,-2.656507614350660
Kite and Fox,PR7 5FN,53.641922647100000,-2.718180659400000
Dolphin and River dolphin,WN6 0HF,53.585265896973500,-2.661599686642760
Flameback and Rabbit,WN7 5PX,53.522348963410800,-2.533436255081540
Old World quail and Hawk,WN5 9BD,53.538432000000000,-2.650487000000000
Grackle and Asiatic leopard,WN2 5DB,53.519183672751400,-2.598264768156430
Viscacha and Parrotlet,BL5 2EA,53.544920999506500,-2.538142210354470
Quetzal and Dorcopsis,WN7 4AD,53.497139228770700,-2.522582708227900
Flameback and Vole,WA11 8BP,53.500041377070700,-2.781418169285840
Greenbul and Black cockatoo,WN8 6QH,53.556580664187700,-2.767394519300210
American sparrow and Parrotbill,WN8 9BA,53.541392871444400,-2.759906594571050
Meadowlark and Stint,PR6 9PN,53.617714602913400,-2.594744489824740
Rat and Fulmarine petrel,WN1 3AB,53.541696897646700,-2.624340000000000
Argus and Tahr,PR25 3BU,53.682217846483800,-2.691249755600060
Kestrel and American sparrow,L40 7RY,53.600580600625700,-2.847148855652980
Parrotbill and Recurvebill,PR7 3AE,53.648803916989700,-2.628434288033270
Triller and Bronzewing pigeon,WN7 5JY,53.510489158965800,-2.536333208109600
Towhee and Puffleg,WN5 7QD,53.496116269854800,-2.710392126065510
Wallaby and Egret,WN5 0DN,53.544379684736400,-2.686677074148080
Peafowl and Thicketbird,WN7 4SF,53.498348511563900,-2.533692578469750
Jackal and Egret,PR4 6AZ,53.686589985052800,-2.829492000000000
Tree warbler and Kākāriki,WN8 8QS,53.555296545981100,-2.794723736962320
Maya and Fox,WN8 1AJ,53.544381900000000,-2.780257900000038
Stilt and Flameback,BL6 4LP,53.584264540000000,-2.518400697000000
Magpie and Rat,PR7 1QY,53.660768520138600,-2.629928871221090
Darwin's finches and Vulture,WN8 7JJ,53.589262678800200,-2.766037873556030
Mouse and Parakeet,BL5 3SB,53.551670110000000,-2.525141351000000
Jay and Polecat,PR7 5LA,53.645591601075400,-2.678457812899530
Old World quail and Partridge,WN8 8PD,53.555333612912300,-2.798603900106260
Condor and Stilt,WN8 8BL,53.544644229924800,-2.808257298635110
Marsh harrier and Dorcopsis,PR7 4BH,53.613684158319200,-2.652354780309940
Stilt and Night heron,WN6 8RX,53.568461677010900,-2.652654926700870
Ibex and Vulture,L32 8YB,53.478799216023700,-2.874916000000000
Flameback and Civet,PR7 3BY,53.649111319752900,-2.624656731158910
Myna and Asiatic leopard,WN4 8TY,53.489992749516000,-2.627304046133070
Fox and Snipe,WN7 5RR,53.507469096421400,-2.526207909784140
Ice seal and Linsang,WN3 5QG,53.524168304559400,-2.645668491370990
Hawaiian honeycreeper and Piping shrike,WN5 9PX,53.539261563569300,-2.663447127341950
Ice seal and Viscacha,BL6 7EQ,53.603345260000000,-2.543070665000000
Minke whale and Darwin's finches,WA3 3SH,53.479784427171000,-2.598749833661810
Wallaby and Polecat,PR7 2LG,53.647656482800000,-2.634665085177280
Towhee and Marmoset,BL6 6EH,53.591301170000000,-2.537024111000000
Marmoset and Piping shrike,WN2 5QQ,53.513626163310800,-2.595185494814310
Pratincole and Ice seal,WN5 7DE,53.522370780546100,-2.713606809551940
Boto and Greenbul,PR7 4PB,53.628178232004700,-2.654770947111900
Condor and Kākāriki,WN7 5PB,53.514178276020200,-2.533469306914790
Siskin and Rabbit,WN2 1AG,53.555756888918200,-2.609271000000000
Masked owl and Zebra,WN3 4QD,53.529358331070000,-2.612528512314290
Chicken and Zebra,L40 1UB,53.638888000000000,-2.851320000000000
Scimitar babbler and Crow,WN2 4TJ,53.524519847207400,-2.540402189845960
Nukupuʻu and Maya,PR4 6EA,53.688985109303600,-2.831598000000000
Old World quail and Buzzard,WN6 8HA,53.571058959143600,-2.694221819876130
Fox and Black cockatoo,WN8 8ND,53.548986000000000,-2.790953000000000
Minke whale and Prion,WN2 1ET,53.557923240757700,-2.602011744933530
Songlark and Old World vulture,WN5 0EG,53.548670169066300,-2.675110063456280
Pheasant and Darwin's finches,WN8 8BE,53.544222718900500,-2.806785413122500
Macaw and Greenbul,WN8 9HE,53.538410293023200,-2.763881968249110
Meadowlark and Black cockatoo,L33 8XT,53.484663064869400,-2.878292620388330
Capuchin and Rat,WN5 0JH,53.549697395005800,-2.697706000000000
Stilt and Parrotbill,WN7 4TJ,53.497212670500200,-2.542406341528650
American sparrow and Stilt,WN8 8UE,53.551248510923100,-2.824397678828230
American sparrow and Masked owl,WN2 1SY,53.569319963912800,-2.591331862414730
Crow and Parakeet,WN1 1SU,53.550470584872200,-2.633556584957310
Armadillo and Old World warbler,WN3 4QH,53.535088359115900,-2.616926361821950
Darwin's finches and Vole,WN5 0PX,53.550117752990300,-2.665413073925680
Partridge and Prion,WN1 1AS,53.547916895141600,-2.632160000000000
Mockingbird and Recurvebill,WN2 4NU,53.527873565662200,-2.565441108881340
Egret and Francolin,PR6 8QN,53.687271471733000,-2.567741939386610
Tit-tyrant and Viscacha,WN1 2PB,53.562478217314200,-2.638808864144870
Pheasant and Diving bird,WN8 9QH,53.528779227570400,-2.765956364164910
Ground sloth and Condor,PR7 4QT,53.623757439288800,-2.656138843499520
Piping shrike and Ibex,WN7 4DD,53.494597063866800,-2.522628000000000
Fox and Petrel,WN7 5HB,53.508193901392700,-2.537043049968570
Gull and Pitohui,WN7 4HS,53.490690316650800,-2.523528285657520
Moluccan boobook and White ibis,WN1 1YP,53.547885571484800,-2.629458106851410
Civet and Fox,PR6 9DF,53.665812321578900,-2.581709988156570
Masked owl and Kite,WN7 4GE,53.494632000000000,-2.557868000000000
Siskin and Gull,PR7 2JD,53.645050299428200,-2.641327232511740
Ground sloth and Kangaroo,WN3 5BF,53.529903000000000,-2.652439000000000
Kestrel and Skunk,WN7 5DL,53.504287100113400,-2.536330264757940
Cloud rat and Asiatic leopard,WN1 1AJ,53.547860733719200,-2.632311000000000
Night heron and Rabbit,WN6 9AG,53.582664580657000,-2.719818407633530
Chickadee and Piping shrike,WN5 8JF,53.534532256774400,-2.687543643599900
Chicken and Bronzewing pigeon,WN6 7HX,53.557455529174100,-2.643488350340050
Capuchin and Marmoset,WN2 4QY,53.530439149494600,-2.552953000000000
Mamo and Black cockatoo,WN7 1QH,53.498327825416400,-2.517969395959990
Mouse and Magpie,PR6 0RU,53.652104183601100,-2.621251441489340
Linsang and Condor,PR25 1TU,53.690633504590800,-2.718297601574670
Kākāriki and Puffleg,PR7 3HT,53.644748790415500,-2.632110334180970
Gull and Skunk,WN6 0JQ,53.589564000000000,-2.667967000000000
Ibex and Tahr,WN1 3RD,53.544678697408100,-2.618740993505340
Fox and Pratincole,WN4 0JA,53.509396095849300,-2.659572635252490
Fox and Puffleg,WA3 3AQ,53.478446769396400,-2.585727558017360
Prion and Grackle,PR4 6BS,53.682610116858500,-2.834259647711460
Wallaby and Night heron,WA11 7PP,53.473266671854100,-2.731328704309730
Zebra and Flameback,WN4 8AS,53.495263414007900,-2.635174970414530
Goose and Black cockatoo,WA3 2GQ,53.480061630527200,-2.573393824447910
Darwin's finches and Old World warbler,PR6 9PP,53.617678817703400,-2.592899682114870
Mamo and Towhee,WN6 0PA,53.591197546108100,-2.669805295451430
Tahr and Chicken,PR4 6LU,53.678827046847200,-2.828931503331020
Chicken and Myna,WN4 0SW,53.493863634589300,-2.674103266954400
Mockingbird and Fulmarine petrel,WN5 8ED,53.531659745865700,-2.684524000000000
Chipmunk and River dolphin,L33 9UX,53.492260872846400,-2.873068628704520
Coati and Polecat,WN6 9RX,53.611859000000000,-2.701935000000000
Francolin and Old World warbler,BL5 3LD,53.554299150000000,-2.522079527000000
Linsang and Argus,PR7 5JT,53.651269855096600,-2.687976000000000
Philippine hawk-owl and Elephant,WA3 3TR,53.485062652924600,-2.605500228714070
Fulmarine petrel and Francolin,PR25 3AN,53.687561000000000,-2.692246000000000
Mole and Civet,WA11 8JH,53.508388909148400,-2.788703891364000
Thicketbird and Petrel,BL6 6AY,53.598786310000000,-2.533492574000000
Siskin and New World blackbird,WA11 8PE,53.508696214934000,-2.776088798569650
Polecat and Perching duck,L40 1XH,53.640924043648700,-2.824117000000000
Greenbul and Kestrel,PR6 9HP,53.606496294400500,-2.582118360022790
White ibis and River dolphin,WN2 1UZ,53.570883554540100,-2.580405788192190
White ibis and Parrotlet,WN6 0DX,53.584446186220800,-2.653265000000000
Siskin and Fulmarine petrel,L40 0SS,53.607026969368100,-2.840552313724740
Ibex and Snipe,WN5 0BL,53.536935000000000,-2.685153000000000
Towhee and Vole,L40 7UJ,53.600615627767200,-2.851078522541960
Diving bird and Tit-tyrant,WA11 8EU,53.497734345624100,-2.782325442972870
Mouse and Mockingbird,BL6 6HR,53.585968490000000,-2.525460897000000
Egret and Boto,PR7 7BY,53.680476284500000,-2.659942735100000
American sparrow and Tahr,WN2 5HS,53.514994281530100,-2.605550022227090
Zebra and Wader,WA3 2LS,53.475161762416200,-2.567979120930600
Gull and Nukupuʻu,PR7 7AY,53.683565306260500,-2.662776638118910
Old World warbler and Civet,PR6 9JQ,53.622791640891600,-2.603993175961750
Tree warbler and Treepie,BL5 2LQ,53.545844590000000,-2.519198577000000
Myna and Pitohui,WN5 7HF,53.502670375321500,-2.710154978948340
Darwin's finches and Scimitar babbler,PR7 7BA,53.685464522559100,-2.662913000000000
Stilt and Mouse,WA3 3EY,53.479162722986400,-2.584531986063330
Warbler and Wader,BL5 2HR,53.537874520000000,-2.522707226000000
Capuchin and Macaw,WN8 7SH,53.562912516540200,-2.763976257830530
Cuscus and Booted eagles,PR7 7EE,53.678828000000000,-2.654896672062970
Francolin and Snipe,BL5 3PP,53.562406980000000,-2.526119849000000
Zebra and Parrotbill,WN2 4QE,53.526711028902900,-2.560357120771330
Duck and Fish eagle,BL5 3TX,53.554333740000000,-2.518261018000000
Rat and Partridge,WN7 1RF,53.500227393344800,-2.521414671573690
Marmoset and White ibis,BL6 7BQ,53.600831120000000,-2.544473965000000
Pheasant and Wallaby,PR25 1JE,53.688996942729200,-2.712273000000000
Linsang and Chickadee,BL6 4JH,53.586966870000000,-2.514974456000000
Buzzard and Chipmunk,BL5 2AZ,53.545575550000000,-2.537365443000000
White ibis and Night heron,WN5 9JP,53.536512712000500,-2.659903633156360
Marsh harrier and Moluccan boobook,WN7 4SA,53.497897291984800,-2.534093922680620
Myna and Asiatic leopard,WN1 2UH,53.590802463031800,-2.621439300433190
Herring gull and Triller,PR7 3FQ,53.646502000000000,-2.633677000000000
Capuchin and Fish eagle,WN8 8HH,53.548744071970200,-2.802766170659330
Bronzewing pigeon and Diving bird,L40 5SR,53.596454788502600,-2.838226987170450
Jerboa and Parrotlet,BL5 2EJ,53.537420850000000,-2.513316534000000
Puffleg and Logrunners,WN3 5NJ,53.523284570655900,-2.641190283424260
Mockingbird and Capuchin,L40 7UN,53.599903629675600,-2.850081980944690
Recurvebill and Logrunners,WN1 3JE,53.546243990954400,-2.615005973573120
Kite and Tree warbler,PR7 3DG,53.642517214900000,-2.626737747200000
Piping shrike and Chicken,WN3 5RR,53.516754913717500,-2.645269189325380
Civet and Diving bird,WN1 2HS,53.557763272323500,-2.638058490464480
Warbler and Booted eagles,WN6 7RL,53.558299193377600,-2.652015368314730
Diving bird and Hawk,L40 7TA,53.589553344952200,-2.857004894586430
Civet and Jackal,WN1 2UU,53.586238633305400,-2.634695861675210
Wallaby and Myna,WN4 0SP,53.493834055561200,-2.672972305059910
Towhee and Macaw,WN8 9JE,53.545963030480300,-2.782973363735790
Night heron and Night heron,WN2 4BP,53.540494653365100,-2.567073055828320
Mole and Skunk,PR7 2QW,53.651071111803700,-2.641585054977260
Pitohui and Kestrel,WN1 2NZ,53.565214794324100,-2.631270633551300
Fulmarine petrel and Old World vulture,L40 6LP,53.563246000000000,-2.842948887056980
Stint and Civet,PR7 7GS,53.677546997000000,-2.651570624900000
Myna and Puffleg,WN1 3HT,53.545820794018800,-2.613400121393570
Towhee and Piping shrike,L33 4YG,53.505053035990700,-2.877809549643830
Grouse and Goose,WN4 9JL,53.483639974429700,-2.626893821991810
Argus and Chicken,WN5 0JR,53.550088607782800,-2.683328267874650
Rabbit and Nukupuʻu,BL5 3GH,53.551462040000000,-2.517199549000000
Buzzard and Guillemot,BL6 5JH,53.592500000000000,-2.575188000000000
