name,postcode,lat,lon
Absurd Bird,BA1 1AN,51.37885500000000,-2.35922300000000
Tapas Revolution Bath,BA1 1AN,51.37885500000000,-2.35922300000000
Costa Coffee,BA1 1AP,51.37857000000000,-2.35838800000000
Pizza Express,BA1 1AP,51.37857000000000,-2.35838800000000
Pret A Manger,BA1 1AP,51.37857055664060,-2.35838699340820
Smashburger,BA1 1AQ,51.37885500000000,-2.35922300000000
Thaikhun,BA1 1AQ,51.3790,-2.3595
Comptoir Bath,BA1 1AT,51.37838700000000,-2.35920500000000
Kekolo Coffee,BA1 1BL,51.38320200000000,-2.36092400000000
Caffe Nero,BA1 1BP,51.38286800000000,-2.36133800000000
Bandook ,BA1 1BZ,51.38389968872070,-2.36088800430298
Le Vignoble Bath,BA1 1BZ,51.38393783569340,-2.36097288131714
EASTERN CUISINE BATH LIMITED,BA1 1DG,51.3845,-2.3615
The Oven Pizzeria,BA1 1EN,51.38166700000000,-2.36293800000000
Vino Vino ,BA1 1EN,51.38166700000000,-2.36293800000000
Subway,BA1 1EQ,51.38134800000000,-2.36142700000000
The Garricks Head,BA1 1ET,51.38205500000000,-2.36276900000000
Amarone Restaurant,BA1 1EU,51.38218900000000,-2.36259700000000
Giggling Squid,BA1 1EY,51.38216400146480,-2.36199402809143
Zizzi,BA1 1EY,51.38216400146480,-2.36199402809143
The Raven of Bath Ltd,BA1 1HE,51.38314190000000,-2.36201650000000
Wild Cafe,BA1 1HE,51.38273100000000,-2.36184000000000
Pintxo de Bath,BA1 1HG,51.38254800000000,-2.36281500000000
Thoughtful Bakery,BA1 1HG,51.38254900000000,-2.36281600000000
Pizza Express,BA1 1HQ,51.38227000000000,-2.36274100000000
Green Park Brasserie,BA1 1JB,51.38153800000000,-2.36691700000000
Pizzas of Bath,BA1 1JB,51.3813,-2.3668
The Royal Hotel,BA1 1JP,51.37818900000000,-2.35674700000000
SALATHAI RESTAURANT,BA1 1LA,51.38018300000000,-2.35732200000000
Yak Yeti Yak,BA1 1LA,51.38018300000000,-2.35732200000000
The Green Rocket,BA1 1LB,51.38031900000000,-2.35695000000000
Abbey Hotel Bath Ltd,BA1 1LF,51.38062300000000,-2.35748400000000
Tagine Zhor Ltd,BA1 1LF,51.38062300000000,-2.35748400000000
Mokoko Coffee & Bakery Abbey Churchyard,BA1 1LY,51.3815,-2.3598
The Cornish Bakery,BA1 1LY,51.38152400000000,-2.35983300000000
Searcys at The Bath Pump Room ,BA1 1LZ,51.38113600000000,-2.36011700000000
the Courtyard Cafe,BA1 1ND,51.38061100000000,-2.35841800000000
The Ale House,BA1 1NG,51.38109700000000,-2.35836400000000
The Real Italian Ice Cream Company,BA1 1NG,51.38109700000000,-2.35836400000000
The Real Italian Pizza Company,BA1 1NG,51.38109700000000,-2.35836400000000
hands Georgian Tearoom,BA1 1NN,51.38077926635740,-2.35899400711060
The Colombian Company Ltd ,BA1 1NP,51.38032150268550,-2.35914897918701
Bath bun tea shoppe,BA1 1NW,51.38033200000000,-2.35873200000000
Sally Lunn's ,BA1 1NX,51.38076400000000,-2.35854800000000
Caffe Nero,BA1 1QF,51.38020750000000,-2.36013970000000
Costa Coffee,BA1 1QH,51.38125200000000,-2.36057800000000
Pret A Manger,BA1 1QL,51.38139700000000,-2.36023500000000
Chapel Arts Cafe,BA1 1QR,51.37970600000000,-2.36042200000000
Sweet Little Things Limited,BA1 1QR,51.37969410000000,-2.36042310000000
The Drawing Rooms,BA1 1RD,51.3821,-2.3601
Cascara,BA1 1RG,51.38285240000000,-2.35968630000000
The Whole Bagel,BA1 1RG,51.38277030000000,-2.36008800000000
GOOD DAY CAFE,BA1 1RH,51.38272410000000,-2.36049000000000
SAM WELLERS BATH LTD,BA1 1RH,51.38252000000000,-2.36047300000000
Raphael Restaurant,BA1 1RN,51.38238143920900,-2.36210989952087
SOHO Coffee Shops Limited Bath,BA1 1RR,51.38249020000000,-2.36053130000000
Bonghy Bo,BA1 1RZ,51.3828,-2.3600
FLY FITNESS LTD,BA1 1SB,51.38072586059570,-2.36061811447144
Lulu Caffe,BA1 1SJ,51.38035000000000,-2.36156300000000
Cafe au Lait Bath Ltd,BA1 1SS,51.3781,-2.3583
Caffe Nero,BA1 1SS,51.37823800000000,-2.35835600000000
Chilli family noodles ,BA1 1SS,51.37823800000000,-2.35835600000000
Mokoko Coffee Southgate,BA1 1SS,51.3781,-2.3583
Tivoli Cinema Bath,BA1 1SS,51.37823800000000,-2.35835600000000
Starbucks,BA1 1SU,51.37766647338870,-2.35690093040466
Franco Manca,BA1 1SX,51.37760800000000,-2.35825000000000
Gourmet Burger Kitchen Ltd,BA1 1SX,51.37750244140620,-2.35817790031433
Graze  Bath,BA1 1SX,51.37750640000000,-2.35781270000000
Nando's,BA1 1SX,51.37744200000000,-2.35688500000000
Prezzo,BA1 1SX,51.37744200000000,-2.35688500000000
Costa Coffee,BA1 1TG,51.37942800000000,-2.35991700000000
McDonalds,BA1 1TG,51.37942900000000,-2.35991700000000
Subway,BA1 1TP,51.37816100000000,-2.36006500000000
Hondo Sushi ,BA1 1UL,51.37932600000000,-2.36112300000000
Noya's Kitchen,BA1 1UL,51.37932586669920,-2.36112403869629
Creams Cafe,BA1 1UN,51.38083100000000,-2.36311800000000
Starbucks Coffee,BA1 1UN,51.38083100000000,-2.36311800000000
the black fox,BA1 1UQ,51.37971115112300,-2.36115503311157
The Kingsmead Kitchen,BA1 2AA,51.38147600000000,-2.36365400000000
seafoods  fish and chips restaurant,BA1 2AA,51.38147735595700,-2.36365509033203
Society Cafe ,BA1 2AB,51.38110800000000,-2.36339300000000
The Dark Horse,BA1 2AB,51.38110800000000,-2.36339300000000
The Bath Coffee Company ,BA1 2AD,51.38138700000000,-2.36356800000000
Swoon Gelato,BA1 2AE,51.3815,-2.3632
The Bath Stable,BA1 2AE,51.3815,-2.3632
The Boston Tea Party Group Limited,BA1 2AE,51.38151300000000,-2.36315200000000
Yum Yum Thai Restaurant,BA1 2AE,51.38151550292970,-2.36315202713013
Mission Burrito - Bath,BA1 2AF,51.38127800000000,-2.36375400000000
Subway,BA1 2AG,51.38128400000000,-2.36473100000000
Comins Tea,BA1 2AN,51.38166700000000,-2.36293800000000
New Inn,BA1 2AY,51.38289900000000,-2.36580700000000
The Scallop Shell,BA1 2AY,51.38289900000000,-2.36580700000000
Nando's Chicken Land Ltd,BA1 2BX,51.38083400000000,-2.36489900000000
TGI Fridays,BA1 2BX,51.38083400000000,-2.36489900000000
Apex City of Bath,BA1 2DA,51.38083000000000,-2.36311800000000
Goulash ,BA1 2DR,51.3812,-2.3686
Wagamama,BA1 2EB,51.38487300000000,-2.36132500000000
Adventure cafe,BA1 2ED,51.38524246215820,-2.36128497123718
SAME SAME BUT DIFFERENT LTD,BA1 2ED,51.38524200000000,-2.36128500000000
Sub 13,BA1 2EE,51.38519500000000,-2.36193100000000
Chandos Deli,BA1 2EH,51.38455400000000,-2.36278800000000
Charm Thai Restaurant,BA1 2EH,51.38455400000000,-2.36278800000000
Champagne Plus Fromage- Bath,BA1 2EJ,51.38462829589840,-2.36254501342773
Comptoir Cuisine,BA1 2EJ,51.38462829589840,-2.36254501342773
Comptoir Plus Cuisine,BA1 2EJ,51.38462829589840,-2.36254501342773
CLAYTONS KITCHEN,BA1 2EN,51.38484800000000,-2.36276290000000
Brasserie Blanc Bath ,BA1 2HH,51.38294300000000,-2.36332200000000
MGALLERY FRANCIS HOTEL BATH,BA1 2HH,51.38294300000000,-2.36332200000000
Ole Tapas,BA1 2JL,51.38344100000000,-2.36207600000000
The Salamander,BA1 2JL,51.38344100000000,-2.36207500000000
THE GRAND EASTERN LTD,BA1 2JS,51.38337000000000,-2.36190300000000
Hall & Woodhouse,BA1 2JW,51.38382600000000,-2.36268200000000
Belushi's Bath,BA1 2JY,51.38346400000000,-2.36056700000000
The Circus Restaurant,BA1 2LN,51.38631800000000,-2.36533200000000
The Green Bird Cafe,BA1 2LP,51.38666600000000,-2.36576500000000
Topland (Royal Crescent Hotel) LTD,BA1 2LS,51.38745000000000,-2.36808500000000
The Marlborough Tavern,BA1 2LY,51.38828280000000,-2.36974830000000
Brooks Guesthouse Bath,BA1 2NA,51.38397300000000,-2.37025600000000
Bath and County Club Limited,BA1 2NJ,51.38392700000000,-2.36506800000000
Bath on the Beach,BA1 2NR,51.38498600000000,-2.36547900000000
Royal Pavilion Cafe,BA1 2NR,51.38498600000000,-2.36547900000000
Thirsty Meeples,BA1 2NT,51.38410950000000,-2.36314500000000
beckford bottle shop,BA1 2QP,51.38633700000000,-2.36204100000000
The Boston Tea Party Group Limited,BA1 2QU,51.38589859008790,-2.36170697212219
WOODS RESTAURANT,BA1 2QX,51.38579600000000,-2.36245300000000
Dos Dedos,BA1 2QZ,51.38559722900390,-2.36172008514404
Yen sushi,BA1 2QZ,51.38566300000000,-2.36171900000000
The Hop Pole,BA1 3AR,51.38508000000000,-2.37568300000000
Victoria Pub & Kitchen,BA1 3AT,51.38505000000000,-2.37655900000000
8e Chelsea Road,BA1 3DU,51.38510100000000,-2.38853000000000
The Locksbrook Inn,BA1 3EN,51.38294700000000,-2.39259200000000
Rooted Vegetarian Cafe ,BA1 3JX,51.38454950000000,-2.38851180000000
Lansdown Cricket Club,BA1 3NE,51.38768600000000,-2.38978700000000
Bathen House Hotel,BA1 3QA,51.38820450000000,-2.39529710000000
Society Cafe ,BA1 4BB,51.3962,-2.3849
Caffe Nero,BA1 5AJ,51.38241500000000,-2.35945200000000
Society Cafe ,BA1 5AJ,51.38241500000000,-2.35945200000000
Dough pizza ltd,BA1 5AP,51.38225200000000,-2.35978100000000
INDIAN TEMPTATION ,BA1 5AQ,51.38191100000000,-2.35946200000000
Coeur de Lion,BA1 5AR,51.38240500000000,-2.35985400000000
Rosarios Café,BA1 5AR,51.38240500000000,-2.35985400000000
Aqua Restaurant,BA1 5BD,51.38587700000000,-2.35943600000000
Provenist Ltd,BA1 5BD,51.3859,-2.3594
Thai Basil Restaurant,BA1 5BG,51.38729000000000,-2.35907400000000
Walcot House,BA1 5BG,51.38757705688480,-2.35874509811401
The Fine Cheese Co,BA1 5BN,51.38487800000000,-2.35981600000000
Picnic Coffee,BA1 5BR,51.38463500000000,-2.36000100000000
The Pig & Fiddle,BA1 5BR,51.38463500000000,-2.36000100000000
CURRY MAHAL UK LTD,BA1 5HR,51.38832600000000,-2.36135200000000
St Michaels Bath,BA1 5LJ,51.38412000000000,-2.36057200000000
The Broad Street Townhouse,BA1 5LP,51.3840,-2.3599
Mantra Progressive Indian,BA1 5LS,51.38531420000000,-2.36030920000000
The Hare & Hounds,BA1 5TJ,51.40339000000000,-2.37208100000000
Lansdown Tennis Squash & Croquet Club Ltd,BA1 5TN,51.39611100000000,-2.36499300000000
Ma Cuisine,BA1 6RT,51.3968,-2.3451
Larkhall Deli,BA1 6RY,51.39728700000000,-2.34474900000000
Bailbrook House Hotel,BA1 7JD,51.40125500000000,-2.33442900000000
Gather Cafe,BA1 7RA,51.40571785496940,-2.32038348551073
Papermill Tea Garden,BA1 8HG,51.4384,-2.3456
Bath Soft Cheese LTD,BA1 9AQ,51.40380300000000,-2.43229000000000
The Old Crown Inn,BA1 9AQ,51.40380300000000,-2.43229000000000
Blathwayt Arms,BA1 9BT,51.41623200000000,-2.39588300000000
F & B caterers,BA1 9BT,51.41623200000000,-2.39588300000000
Lansdown Golf Club Trading Ltd,BA1 9BT,51.41623200000000,-2.39588300000000
Pipley Barn Cafe,BA1 9BZ,51.4250,-2.4100
The New Inn  Westwood,BA15 2AE,51.33038300000000,-2.26807600000000
Hartley Farm Shop & Kitchen,BA15 2JB,51.3567,-2.2877
The Seven Stars,BA15 2LQ,51.34696600000000,-2.28950900000000
The Butchers Arms,BA2 0AE,51.34314600000000,-2.48255800000000
McDonalds,BA2 1EP,51.38076700000000,-2.39109300000000
Hillier Garden Centre Bath,BA2 2RG,51.36904600000000,-2.40043100000000
The Bear Hotel,BA2 3AQ,51.37406600000000,-2.36681400000000
Pizza Hut,BA2 3BQ,51.37983300000000,-2.37153000000000
matty s cafe,BA2 3BT,51.38125800000000,-2.37585200000000
Mintroom,BA2 3EB,51.38099600000000,-2.37333600000000
The Belvoir Castle,BA2 3EH,51.38161900000000,-2.37536600000000
Domino's Pizza,BA2 3PN,51.37710500000000,-2.37826000000000
Subway,BA2 3PN,51.37718150000000,-2.37851710000000
Opa Meze Restaurant,BA2 4AJ,51.38066400000000,-2.35571700000000
La Perla Restaurant,BA2 4AL,51.38068900000000,-2.35659400000000
Bodrum BBQ Bath Ltd,BA2 4AN,51.38269510000000,-2.35820500000000
CAPPADOCIA RESTAURANT (BATH) LTD,BA2 4AN,51.38264846801760,-2.35814690589905
Joya Italian Steakhouse,BA2 4AN,51.38253700000000,-2.35807400000000
Cortado Cafe,BA2 4AS,51.3829,-2.3586
Turtle Bay,BA2 4AS,51.38295800000000,-2.35859400000000
The Bridge Coffee Shop,BA2 4AY,51.38303200000000,-2.35779000000000
ANTICA PULTNEY BRIDGE RESTAURANT,BA2 4BA,51.38338300000000,-2.35750500000000
Chez Dominique,BA2 4BQ,51.38321400000000,-2.35705900000000
The Herd Steak Restaurant,BA2 4BQ,51.38321400000000,-2.35705900000000
No15 Great Pulteney,BA2 4BS,51.38458490000000,-2.35474220000000
Benugo Ltd,BA2 4DB,51.38575000000000,-2.35092800000000
Framptons,BA2 4DF,51.38231200000000,-2.35789900000000
Dexter's coffee shop,BA2 4EN,51.38266754150390,-2.34936809539795
The Bird  Bath,BA2 4EZ,51.38281250000000,-2.35184001922607
Ring O Bells,BA2 4JT,51.3764,-2.3543
Bikanos Indian Cuisine,BA2 4LD,51.37668400000000,-2.35478000000000
Mús Coffee House,BA2 4LD,51.37668400000000,-2.35478000000000
Widcombe Deli ,BA2 4LD,51.37668400000000,-2.35478100000000
The Good Bear Cafe,BA2 4QW,51.37457100000000,-2.36657400000000
THE CROSS KEYS INN,BA2 5RZ,51.35583800000000,-2.36467200000000
Bath Golf Club,BA2 6JG,51.38314520000000,-2.33682660000000
The Roseate Villa Bath,BA2 6LX,51.38685989379880,-2.35559296607971
The barley mow ,BA2 6NZ,51.38674500000000,-2.35211400000000
The Rising Sun Inn,BA2 6PJ,51.38437200000000,-2.35759900000000
The American Museum in Britain,BA2 7BD,51.37536900000000,-2.31132500000000
the hope and anchor,BA2 7DD,51.34470600000000,-2.34399500000000
The Packhorse Inn,BA2 7DU,51.34961600000000,-2.36460900000000
The Wheatsheaf Inn,BA2 7EG,51.33792114257810,-2.38339304924011
Limpley Stoke Hotel,BA2 7FZ,51.34694300000000,-2.31592800000000
Wheelwrights Arms,BA2 7HB,51.35645900000000,-2.32792700000000
Combe Grove Manor,BA2 7HS,51.36076400000000,-2.32863300000000
CASTLE FARM CAFE MIDFORD,BA2 7PU,51.3524,-2.3542
Homewood,BA2 7TB,51.33639600000000,-2.31891300000000
Newton Farm Foods Ltd,BA2 9BT,51.38162000000000,-2.42746900000000
The Ring O' Bells,BA2 9EE,51.34304400000000,-2.44000200000000
Darwin Bath Mill Limited,BA2 9JF,51.3820,-2.4092
UTSD Limited,BS1 1DE,51.4553,-2.5952
Urban Masala LTD,BS1 1DE,51.45528500000000,-2.59517900000000
beirut mezze,BS1 1DE,51.45528500000000,-2.59517900000000
Tuk Tuck,BS1 1EE,51.45478800000000,-2.59573400000000
Immediate Media Bristol - Baxterstorey,BS1 1EN,51.45455150000000,-2.59605100000000
Caffe Nero,BS1 1HQ,51.45433800000000,-2.59400100000000
San Carlo Bristol,BS1 1HQ,51.45433800000000,-2.59400000000000
OX Bristol,BS1 1HT,51.4545,-2.5945
THE BRISTOLOGIST,BS1 1HT,51.45443300000000,-2.59470700000000
Cafe Revival,BS1 1JG,51.45470100000000,-2.59341500000000
The Crown,BS1 1JH,51.45424500000000,-2.59297800000000
SPICE UP YOUR LIFE,BS1 1JP,51.45479100000000,-2.59964500000000
Eatchu,BS1 1JQ,51.45441436767580,-2.59354090690613
Low and Slow Barbecue,BS1 1JQ,51.45441200000000,-2.59354100000000
Pieminister St Nick's Market,BS1 1JQ,51.4544,-2.5935
Portuguese Taste,BS1 1JQ,51.4544,-2.5935
be natural kitchen,BS1 1JQ,51.45441200000000,-2.59354100000000
Burger Theory,BS1 1JX,51.45370483398440,-2.59471201896667
eat a pitta ,BS1 1LA,51.4543,-2.5932
St Nicholas Market,BS1 1LJ,51.4542,-2.5932
Dough bristol ltd,BS1 1NR,51.45315933227540,-2.59456110000610
BrewDog,BS1 1QW,51.45354500000000,-2.59272400000000
Giuseppe On The Steps Ltd,BS1 1QZ,51.45378700000000,-2.59284200000000
Nova,BS1 1RB,51.45360000000000,-2.59413500000000
Marmo Restaurant & Wine Bar,BS1 1RG,51.45359900000000,-2.59432200000000
Opa Bristol,BS1 1SE,51.45319600000000,-2.59572700000000
O I R Limited,BS1 1TG,51.45382308959960,-2.59442591667175
Dangun Bristol,BS1 1TP,51.45373200000000,-2.59475600000000
Brooks Guesthouse Bristol,BS1 1UB,51.4539,-2.5936
Hatter House Cafe ,BS1 1XH,51.45392200000000,-2.59626900000000
dhamaka limited,BS1 1XH,51.45392200000000,-2.59626900000000
Caffe Moka,BS1 1XR,51.45354200000000,-2.59671000000000
Franco Manca,BS1 1XY,51.45386000000000,-2.59592000000000
PHO,BS1 1YA,51.45383500000000,-2.59560600000000
Caffe Nero,BS1 2DD,51.45585500000000,-2.59098400000000
La Grotta,BS1 2DD,51.45585500000000,-2.59098400000000
KFC,BS1 2DF,51.45626700000000,-2.59130500000000
Subway ,BS1 2DJ,51.45660800000000,-2.59138200000000
Chatime Bristol,BS1 2DL,51.45760430000000,-2.59160010000000
The Strawberry Thief ,BS1 2HG,51.45561100000000,-2.59485200000000
The Bank Tavern,BS1 2HR,51.45593000000000,-2.59399300000000
Quay Street Diner,BS1 2JL,51.45542907714840,-2.59558391571045
Cafeamore,BS1 2LE,51.4566,-2.5924
RocknBowl Motel,BS1 2LE,51.4566,-2.5924
The Lanes Bristol,BS1 2LE,51.4566,-2.5924
White Hart ,BS1 2LU,51.45843200000000,-2.59357900000000
All Saints Coffee,BS1 2LZ,51.45598983764650,-2.59267306327820
Paul Campbell T/A  Campbell's Kitchen,BS1 2NT,51.45787700000000,-2.59483800000000
Hotel du Vin & Bistro Bristol,BS1 2NU,51.45670800000000,-2.59660800000000
TAKA BRIDEWELL,BS1 2QD,51.45684260000000,-2.59376490000000
Caffe Nero at House of Fraser,BS1 3BD,51.45816200000000,-2.58460800000000
Five Guys,BS1 3BD,51.45816040039060,-2.58460807800293
Pret a Manger,BS1 3BD,51.45816200000000,-2.58460800000000
TGI Fridays,BS1 3BD,51.45816200000000,-2.58460800000000
Tortilla,BS1 3BF,51.45890426635740,-2.58579802513123
SOHO Coffee Shops Limited Cabot,BS1 3BH,51.45813751220700,-2.58580303192139
Casa Brasil (Bristol) Trading Ltd,BS1 3BQ,51.45813800000000,-2.58580200000000
Gourmet Burger Kitchen,BS1 3BQ,51.45813800000000,-2.58580300000000
KFC,BS1 3BQ,51.45813800000000,-2.58580300000000
Pizza Express,BS1 3BQ,51.45813751220700,-2.58580303192139
Alpin PMK Ltd t/a L'Osteria,BS1 3BU,51.45776300000000,-2.58699200000000
Chopstix Bristol Cabot,BS1 3BX,51.4585,-2.5845
Coal Kitchen,BS1 3BX,51.4585,-2.5845
Nandos,BS1 3BX,51.45816200000000,-2.58460800000000
The Real Greek,BS1 3BX,51.45816040039060,-2.58460807800293
Wagamama,BS1 3BX,51.45816200000000,-2.58460800000000
Zizzi Ristorante,BS1 3BX,51.45816200000000,-2.58460800000000
Pret A Manger,BS1 3DT,51.45703500000000,-2.59062500000000
 Broadmead,BS1 3EA,51.45740000000000,-2.58949200000000
eat a pitta,BS1 3EA,51.45740000000000,-2.58949200000000
Future Inns Bristol,BS1 3EN,51.45810400000000,-2.58370100000000
itsu Bristol Broadmead,BS1 3HH,51.45836300000000,-2.58738800000000
Taste of Napoli,BS1 3HZ,51.4580,-2.5907
Burger King,BS1 3JE,51.45828800000000,-2.59006500000000
Starbucks Coffee,BS1 3JE,51.45828800000000,-2.59006500000000
McDonald's Restaurant,BS1 3JR,51.45898300000000,-2.58762700000000
McDonalds Restaurants Limited,BS1 3JR,51.45898300000000,-2.58762700000000
Caffe Nero,BS1 3JX,51.45859000000000,-2.58713300000000
Holiday Inn Bristol City Centre,BS1 3LE,51.45975900000000,-2.58897600000000
Hampton by Hilton Bristol City Centre,BS1 3LQ,51.4597,-2.5887
Double Zero Coffee,BS1 3LT,51.45889282226560,-2.59072399139404
Firewood Grill and Gelato,BS1 3LU,51.45911700000000,-2.58958600000000
Pieminister Stokes Croft,BS1 3PR,51.46102800000000,-2.59056100000000
Taco Station bristol,BS1 3PR,51.46102800000000,-2.59056100000000
The Full Moon and Attic Bar,BS1 3PR,51.46102800000000,-2.59056100000000
Caribbean Croft,BS1 3QD,51.46152501564430,-2.59054500360734
The Spaghetti Incident,BS1 3QD,51.46167600000000,-2.59025300000000
Tuk Tuck Stokes Croft,BS1 3QD,51.46167600000000,-2.59025300000000
Biblos,BS1 3QU,51.46237100000000,-2.58987300000000
The Canteen,BS1 3QY,51.46283900000000,-2.58966300000000
Bristol Porridge Project,BS1 3RJ,51.46343300000000,-2.58955600000000
The Crafty Egg,BS1 3RW,51.46377200000000,-2.59007800000000
The Crofters Rights,BS1 3RW,51.46377200000000,-2.59007800000000
Elemental,BS1 3RZ,51.46418700000000,-2.58996800000000
Bokman,BS1 3SB,51.46392500000000,-2.59006600000000
Boswells Cafe,BS1 3XB,51.45675900000000,-2.58987200000000
Butlers,BS1 3XD,51.45677566528320,-2.58996295928955
Caffe Nero,BS1 3XD,51.45676000000000,-2.58987300000000
Chopstix Bristol,BS1 3XD,51.4568,-2.5900
THE BRISTOL KITCHEN,BS1 3XD,51.45677566528320,-2.58996295928955
Burger King,BS1 3XE,51.45675890000000,-2.58986200000000
Subway (The Galleries),BS1 3XE,51.4568,-2.5899
Elior UK Services Ltd,BS1 4AY,51.45217895507810,-2.59614610671997
Pieminister Broad Quay,BS1 4DA,51.4531,-2.5969
Subway (Broad Quay),BS1 4DA,51.4531,-2.5969
Taka Broad Quay,BS1 4DA,51.45303800000000,-2.59689100000000
Turtle Bay,BS1 4DA,51.45303800000000,-2.59689100000000
Aluna Bristol,BS1 4DH,51.45226440000000,-2.59665450000000
Cathay Rendezvous,BS1 4DZ,51.45195100000000,-2.59489100000000
Gosha's House,BS1 4EF,51.45162640000000,-2.59480410000000
Hoba Kebab,BS1 4EF,51.4517,-2.5946
King William,BS1 4EF,51.4517,-2.5946
The Beer Emporium ,BS1 4EF,51.45166500000000,-2.59462800000000
The Famous Royal Navy Volunteer,BS1 4EF,51.45166500000000,-2.59462800000000
Spicer and Cole  Queen Square,BS1 4JA,51.45126800000000,-2.59296800000000
Under the Stars,BS1 4QA,51.44969900000000,-2.59732200000000
The Bristol,BS1 4QF,51.45051900000000,-2.59700100000000
Friska Queen Square,BS1 4QH,51.44964100000000,-2.59647200000000
Su Yuan Vegetarian Catering Ltd,BS1 4QY,51.44959259033200,-2.59506201744080
Mud Dock Cafe & Cycleworks,BS1 4RB,51.44933100000000,-2.59554700000000
Severnshed - Harbour House,BS1 4RB,51.44933100000000,-2.59554700000000
The Olive Shed,BS1 4RN,51.44713300000000,-2.59989300000000
Aqua Restaurant,BS1 4RR,51.45215800000000,-2.59297900000000
Three Brothers Burgers,BS1 4SB,51.45146800000000,-2.59250900000000
Adelina Yard,BS1 4SL,51.45045200000000,-2.59252600000000
4500 miles from delhi,BS1 4ST,51.45392900000000,-2.59668700000000
Pizza Hut (UK) Limited,BS1 4UL,51.45358000000000,-2.59820800000000
Bambalan,BS1 4XE,51.45457200000000,-2.59757300000000
CHICK-IN BRISTOL LTD,BS1 4XG,51.4528,-2.5982
Zerodegrees - Microbrewery & Restaurant,BS1 5BA,51.4564,-2.5977
404 (Not Found),BS1 5BG,51.4567,-2.5979
Chilli Daddy,BS1 5BG,51.4567,-2.5979
Chance & Counters Bristol,BS1 5BS,51.45616700000000,-2.59683100000000
Prezzo,BS1 5DB,51.45044700000000,-2.60055500000000
Mrs Potts Chocolate House Limited,BS1 5JA,51.45394000000000,-2.60163800000000
Woodes,BS1 5JA,51.45394000000000,-2.60163800000000
New Moon On The Quay,BS1 5JE,51.44813900000000,-2.60177700000000
Spitfire Barbecue,BS1 5JE,51.44813900000000,-2.60177700000000
All in One Bar and Restaurant,BS1 5JG,51.45431500000000,-2.60204500000000
All in one restaurant,BS1 5JG,51.45431500000000,-2.60204500000000
Antix,BS1 5JG,51.45431500000000,-2.60204500000000
Transylvania Restaurant,BS1 5JG,51.45439430000000,-2.60216560000000
113KTV,BS1 5JN,51.4548,-2.6028
Mission Burrito - Bristol,BS1 5JN,51.45477100000000,-2.60265600000000
YAKINORI BRISTOL LTD,BS1 5LA,51.45551200000000,-2.60371600000000
Jo’s Tea,BS1 5LE,51.45561000000000,-2.60368800000000
Murrays Cafe & Deli,BS1 5LJ,51.45530319213870,-2.60069108009338
Sotiris Bakery,BS1 5LJ,51.45530200000000,-2.60069100000000
Costa Coffee,BS1 5LW,51.44948400000000,-2.60267300000000
Friska Harbourside,BS1 5LW,51.44948300000000,-2.60267200000000
My Burrito,BS1 5LW,51.44947520000000,-2.60265990000000
Steak of the Art ,BS1 5LW,51.44948400000000,-2.60267300000000
Sergio's Restaurant,BS1 5NA,51.45414200000000,-2.60084900000000
Wok to Walk,BS1 5NH,51.45381900000000,-2.60232600000000
Gin & Juice,BS1 5NL,51.45417540000000,-2.60275280000000
Nando's Chickenland Limited,BS1 5NT,51.45449000000000,-2.60304100000000
Molto Buono 59,BS1 5NU,51.45464050000000,-2.60324830000000
The Boston Tea Party Group Limited,BS1 5PF,51.45524000000000,-2.60408700000000
Kaspas Desserts Bristol,BS1 5PJ,51.45537300000000,-2.60447700000000
Bristol & Bath rum distilerry ,BS1 5PW,51.4555,-2.6044
Taco Station at the distillery,BS1 5PW,51.4555,-2.6044
Izakaya Japanese Sake Bar,BS1 5SH,51.45247620000000,-2.59920450000000
SPRINKLES GELATO (BRISTOL),BS1 5SZ,51.44960403442380,-2.60173892974854
COW BEE BRISTOL,BS1 5TB,51.4530,-2.6002
Swoon Gelato,BS1 5TB,51.45303800000000,-2.60021500000000
Bristol Aquarium,BS1 5TT,51.45088400000000,-2.60293500000000
Grosvenor Casinos Limited,BS1 5TT,51.45088500000000,-2.60293600000000
Pizza Express Limited,BS1 5TY,51.44960500000000,-2.60173900000000
Bristol's Bars Ltd,BS1 5UH,51.45069100000000,-2.59847200000000
Mackenzies (Bristol) Ltd,BS1 5UH,51.4504,-2.5985
No.1 Harbourside,BS1 5UH,51.45069100000000,-2.59847200000000
Steinbeck & Shaw Bristol,BS1 5UH,51.4504,-2.5985
The Bristol Stable,BS1 5UH,51.45069100000000,-2.59847200000000
Tikka Flame,BS1 5UH,51.45069122314450,-2.59847211837769
ZAZA Bazaar,BS1 5UH,51.45069100000000,-2.59847200000000
TrueStart Cafe - RWE,BS1 6AA,51.45269600000000,-2.58974800000000
Subway (Victoria Street),BS1 6AH,51.45165400000000,-2.58779200000000
The Daily Bite,BS1 6AH,51.45152900000000,-2.58766100000000
Hilton Garden Inn Bristol City Centre,BS1 6BF,51.45157700000000,-2.58517100000000
Baxterstorey - Simmons & Simmons,BS1 6BX,51.45335769653320,-2.58889293670654
Friska Victoria Street,BS1 6BY,51.45257000000000,-2.58809200000000
Starbucks Coffee,BS1 6DG,51.45072810000000,-2.58211410000000
Ye Shakespeare,BS1 6DR,51.45147800000000,-2.58692600000000
BELLA VISTA,BS1 6DT,51.4535,-2.5907
CH&Co Catering Ltd,BS1 6DZ,51.45225800000000,-2.58378400000000
Paco Tapas Limited,BS1 6FU,51.4470,-2.5940
Totos By The River,BS1 6HU,51.45194200000000,-2.59127800000000
Bocabar Finzels Reach,BS1 6JQ,51.4541,-2.5895
Le Vignoble Bristol,BS1 6JQ,51.4541,-2.5895
Baxterstorey - Portwall Place,BS1 6NA,51.44953020000000,-2.58791270000000
Pasture Restaurant Limited,BS1 6NB,51.44954040000000,-2.58945260000000
portwall tavern,BS1 6NB,51.44948200000000,-2.58877100000000
Doubletree by Hilton Bristol City Centre,BS1 6NJ,51.44823800000000,-2.58774800000000
Don Giovannis Restaurant,BS1 6PW,51.44793600000000,-2.58322600000000
Sandwi On The Go Ltd,BS1 6QH,51.4492,-2.5828
Yurt Lush,BS1 6QH,51.44899600000000,-2.58349800000000
THE COLOSSEUM,BS1 6SJ,51.44844500000000,-2.59106000000000
Mercure Bristol Holland House Hotel,BS1 6SQ,51.44816700000000,-2.59110000000000
The Ostrich,BS1 6TJ,51.44789886474610,-2.59391689300537
The Louisiana,BS1 6UA,51.44678200000000,-2.59642000000000
The Athenian - Bristol,BS1 6WD,51.4465,-2.5990
Better Food,BS1 6WE,51.4464,-2.5998
Pigsty,BS1 6WE,51.4464,-2.5998
BOX-E,BS1 6WP,51.4470,-2.5991
The Cottage Inn,BS1 6XG,51.44691500000000,-2.61587700000000
Lockside,BS1 6XS,51.4477,-2.6234
Woky Ko Roof Top,BS1 6ZA,51.4472,-2.5986
Dee Wai Tamu Pvt Ltd,BS10 5LW,51.49790700000000,-2.59669900000000
New Balti King Restaurant,BS10 5LZ,51.50084800000000,-2.59299200000000
Costa Coffee 86084 & 86086,BS10 5NB,51.49734100000000,-2.59296100000000
The Occasional kitchen ,BS10 5NB,51.4948,-2.5910
Pizza Hut Delivery,BS10 6AS,51.50327900000000,-2.60293600000000
Southmead Pizza Hut - A&A Capital Ltd,BS10 6AS,51.5033,-2.6029
On A Roll Indo  Mexican Limited,BS10 6AT,51.50373200000000,-2.60225000000000
Grill & Pizza Express,BS10 6JU,51.51253800000000,-2.59817300000000
Henbury Golf Club,BS10 7QB,51.49956800000000,-2.62976900000000
Blaise Café ,BS10 7QS,51.5058,-2.6324
Burger King Drive Thru,BS10 7SR,51.52307000000000,-2.60279400000000
Burger King,BS10 7SR,51.52302169799800,-2.60310006141663
Hollywood Bowl,BS10 7SR,51.52307000000000,-2.60279400000000
KFC,BS10 7SR,51.52307128906250,-2.60279393196106
Nando's Chickenland Ltd,BS10 7SR,51.52307000000000,-2.60279300000000
Pizza Express,BS10 7SR,51.52307000000000,-2.60279400000000
Gourmet Burger Kitchen,BS10 7TL,51.52638244628910,-2.61429691314697
McDonald's Restaurant,BS10 7UA,51.52568500000000,-2.60669100000000
McDonalds,BS10 7UA,51.52568500000000,-2.60669100000000
Elior UK,BS11 0AF,51.50040600000000,-2.65899700000000
Shirehampton park golf club ,BS11 0UL,51.48912300000000,-2.66828200000000
Zion Community Space,BS13 7JW,51.42669700000000,-2.61334700000000
Costa Coffee,BS13 7TJ,51.41571426391600,-2.60037302970886
Subway (Imperial Park),BS13 7TJ,51.41571400000000,-2.60037300000000
Baxterstorey - Computershare Bristol,BS13 8AE,51.42094039916990,-2.63077211380005
Kings Head,BS13 8AE,51.4210,-2.6306
Waterfall Elior Ltd,BS14 0DB,51.40675200000000,-2.55973700000000
Beach Hut Café,BS14 0DE,51.40757700000000,-2.58601900000000
Hengrove Park Leisure Centre,BS14 0DE,51.40757700000000,-2.58601900000000
Medirest Healthcare - Compass Group,BS14 0DE,51.40675200000000,-2.55973700000000
KFC Bristol Hengrove Retail Park,BS14 0HR,51.4163,-2.5872
KFC,BS14 0HR,51.41635600000000,-2.58715200000000
McDonalds Restaurants Limited,BS14 0HR,51.41635600000000,-2.58715200000000
Crispies Fish & Chips,BS14 0SX,51.41420300000000,-2.57150800000000
Cafe Hampton,BS14 8AB,51.41116800000000,-2.54616500000000
Leisure Village,BS14 9EA,51.4258,-2.5618
Blue Ginger restaurant ,BS14 9HY,51.41344900000000,-2.56009600000000
COFFEE CUP (BRISTOL) LIMITED,BS15 1AF,51.46326400000000,-2.51281500000000
Pizza Hut,BS15 1AP,51.46339500000000,-2.51562400000000
Zest restaurant,BS15 3DG,51.44886280000000,-2.51575010000000
Chilli Inn Ltd,BS15 3DP,51.44972500000000,-2.51843400000000
The Italian Kitchen  Hanham,BS15 3DQ,51.44929000000000,-2.51706100000000
The Elm Tree,BS15 3NR,51.43524500000000,-2.51310500000000
The Old Lock And Weir,BS15 3NU,51.42895000000000,-2.50907900000000
The Horseshoe,BS15 4PA,51.46973900000000,-2.48495800000000
RAVENNA COFFEE BAR,BS15 8LJ,51.46263300000000,-2.50686300000000
Boswells Cafe,BS15 8LP,51.46306600000000,-2.50873900000000
McDonalds,BS15 9LA,51.44980400000000,-2.49797200000000
Nandos Chickenland Ltd,BS15 9LA,51.44980400000000,-2.49797200000000
Pizza Hut (UK) Ltd,BS15 9LA,51.44980400000000,-2.49797200000000
The Boston Tea Party Group Limited,BS16 1FT,51.4995,-2.5609
CRUSSH @ UWE,BS16 1QY,51.50107574462890,-2.54745888710022
KFC,BS16 2LA,51.48196000000000,-2.52646100000000
Kingfisher Cafe,BS16 2LE,51.48216400000000,-2.52496500000000
ISTANBUL GRILL MEZZE restaurant,BS16 3AA,51.47716200000000,-2.53750700000000
Mamma Ps Jamaican Cuisine ,BS16 3AA,51.47716200000000,-2.53750700000000
McDonald's Restaurant,BS16 3AF,51.47664790000000,-2.53956300000000
McDonalds,BS16 3AF,51.47664790000000,-2.53956300000000
FAMILY KEBAB HOUSE,BS16 3BA,51.47768000000000,-2.53630400000000
Buzz Bingo,BS16 3BQ,51.47805300000000,-2.53537200000000
LA PIAZZA 1,BS16 3BS,51.48165700000000,-2.52782500000000
subway,BS16 3TE,51.48125200000000,-2.52784900000000
Pizza Hut,BS16 3UH,51.47960000000000,-2.53141600000000
Grounded,BS16 3UP,51.48043500000000,-2.52940900000000
The Cross Hands,BS16 5AA,51.48185300000000,-2.52221100000000
THE CINNAMON TREE ,BS16 5QQ,51.48236000000000,-2.49239300000000
The Duck and Willow,BS16 5UE,51.48686981201170,-2.50757789611816
TIKKA RAAZ DOWNEND LTD,BS16 5UJ,51.48786300000000,-2.50482400000000
Italb restaurant,BS16 6BB,51.48885800000000,-2.50356800000000
Tamarind,BS16 6BB,51.48885800000000,-2.50356800000000
Mezze at The Green Dragon,BS16 6BS,51.49044500000000,-2.50259100000000
Elior UK at Hanover Badminton Gardens,BS16 6FG,51.49703598022460,-2.48951196670532
BOTTEGINOS ,BS16 7AE,51.49287300000000,-2.47448700000000
MEHTA'S FOOD LIMITED,BS16 7AE,51.49287414550780,-2.47448706626892
Subway  Blackhorse,BS16 7AN,51.49648800000000,-2.48309600000000
The Grapevine Brasserie,BS16 9JB,51.48312700000000,-2.48512900000000
Rose and Crown Pucklechurch,BS16 9PS,51.48995208740230,-2.43899607658386
Little Nannie's Cafe and Sunshine Glade Softplay,BS16 9SJ,51.48948800000000,-2.41875600000000
The ILL REPUTE ,BS2 0BH,51.4566,-2.5788
The Old Market Assembly,BS2 0DF,51.45658900000000,-2.57906100000000
Friska The EYE,BS2 0DW,51.45220600000000,-2.58169700000000
The Stag and Hounds,BS2 0EJ,51.45561000000000,-2.58250300000000
Veeno Bristol,BS2 0EL,51.45231600000000,-2.58119500000000
Pasty Emporium,BS2 0QT,51.45130000000000,-2.57761300000000
KFC Bristol Avonmeads,BS2 0SP,51.4480,-2.5598
KFC,BS2 0SP,51.44800600000000,-2.55981400000000
McDonald's Restaurant,BS2 0SP,51.44800600000000,-2.55981400000000
McDonalds Restaurants Limited,BS2 0SP,51.44800600000000,-2.55981400000000
Pizza 1889 Bristol Avonmeads,BS2 0SP,51.4480,-2.5598
Tenpin Bristol,BS2 0SP,51.44800500000000,-2.55981400000000
Beerd,BS2 8DB,51.46096800000000,-2.60232000000000
CJ's Coffee House & Deli,BS2 8DJ,51.45733600000000,-2.59686100000000
Colston Arms,BS2 8DX,51.45808900000000,-2.59905800000000
Costa Coffee (Inside the BRI),BS2 8HW,51.45940800000000,-2.59606700000000
Jamaica street stores,BS2 8JP,51.46265411376950,-2.59069705009460
Kansai Kitchen,BS2 8LT,51.46304800000000,-2.59281800000000
Subway (Montague Street),BS2 8NY,51.46021400000000,-2.59318500000000
Pizza Bianchi,BS2 8QN,51.46162240000000,-2.58965180000000
Milk Teeth,BS2 8SJ,51.46128900000000,-2.58490700000000
The Phoenix,BS2 9DB,51.45842100000000,-2.58318700000000
Better Food,BS2 9LB,51.46887300000000,-2.57874200000000
Bloc Climbing,BS2 9SH,51.46857100000000,-2.57056100000000
The Farm,BS2 9YL,51.47422900000000,-2.57760000000000
The Climbing Academy - The Church,BS2 9YT,51.4721,-2.5754
The coronation ,BS3 1DD,51.44430630000000,-2.60022020000000
North Street Standard,BS3 1EN,51.44120400000000,-2.60218900000000
Really Good Wine Bars Ltd. T/A KASK,BS3 1EN,51.44083690000000,-2.60372970000000
The Spotted Cow,BS3 1EZ,51.44011900000000,-2.60866400000000
Albatross Cafe,BS3 1HJ,51.44096755981450,-2.60446000099182
Sweven Coffee ,BS3 1HT,51.44154739379880,-2.60189199447632
Pizza Workshop,BS3 1JD,51.44115600000000,-2.61149700000000
The Burger Joint,BS3 1JD,51.44115600000000,-2.61149800000000
The Malago,BS3 1JD,51.44115600000000,-2.61149800000000
Tincan Coffee Co,BS3 1JD,51.44115600000000,-2.61149800000000
Hen and Chicken,BS3 1JF,51.44052700000000,-2.60979200000000
Oowee Diner,BS3 1JF,51.44052700000000,-2.60979200000000
Farahway Arts and Crafts Café,BS3 1JJ,51.44117900000000,-2.61226100000000
Fishminster,BS3 1JN,51.44167000000000,-2.61305900000000
Pizza Hut,BS3 1JN,51.44167000000000,-2.61305900000000
Soukitchen,BS3 1JP,51.4422,-2.6143
Steak Me Out,BS3 1JP,51.44223022460940,-2.61431789398193
Coronation Curry House,BS3 1RF,51.44579400000000,-2.61023600000000
Riverside Garden Centre (Bristol) Limited,BS3 1RX,51.4445,-2.6200
Tobacco Factory Cafe Bar,BS3 1TF,51.44236900000000,-2.61350000000000
Pizza Workshop,BS3 2EJ,51.4407,-2.6206
Elior UK Ltd Catering (Babcock),BS3 2HQ,51.43856300000000,-2.62914500000000
KFC Winterstoke Road,BS3 2LF,51.43922600000000,-2.62283800000000
KFC,BS3 2LQ,51.43857600000000,-2.61996600000000
Subway (Winterstoke Road),BS3 2NS,51.43445900000000,-2.61817000000000
REDPOINT CAFE,BS3 2NW,51.43432400000000,-2.61283000000000
The Robins,BS3 2PW,51.43441900000000,-2.62052800000000
The clove ,BS3 3EL,51.43999000000000,-2.61097800000000
The Fix at BV,BS3 3LL,51.43785400000000,-2.60385260000000
Mezzaluna,BS3 3NU,51.4377,-2.6035
Windmill Hill City Farm Cafe,BS3 4EA,51.44315500000000,-2.59345300000000
McDonald's Restaurant,BS3 4EG,51.43868600000000,-2.60064600000000
McDonalds,BS3 4EG,51.43868600000000,-2.60064600000000
The Bubble Play Cafe,BS3 4EW,51.44115300000000,-2.59994400000000
SALA BRISTOL LIMITED,BS3 4EX,51.4415,-2.5979
SUBWAY ,BS3 4EY,51.44181900000000,-2.59812600000000
Snax ,BS3 4EY,51.44181900000000,-2.59812600000000
the toast room,BS3 4HH,51.44282400000000,-2.59495900000000
Grounded,BS3 4HL,51.44386600000000,-2.59344700000000
GANESHA INDIAN RESTAURANT PRIVATE LIMITED,BS3 4HS,51.44437200000000,-2.59287800000000
McDonald's Restaurant,BS3 4JY,51.44376700000000,-2.59512900000000
McDonalds Restaurants Limited,BS3 4JY,51.44376700000000,-2.59512900000000
the rising sun pub,BS3 4LE,51.43851200000000,-2.59414100000000
Florence Restaurant,BS3 4RJ,51.44222300000000,-2.57852000000000
FREEDOG BRISTOL,BS3 4RP,51.44549340000000,-2.58239310000000
The Shakespeare ,BS3 4UD,51.44287400000000,-2.57966500000000
The Hollybush,BS30 5JP,51.45341800000000,-2.46316900000000
WHITE HARTE LIMITED,BS30 5NA,51.45769840000000,-2.46033630000000
The Cross House,BS30 5TF,51.4646,-2.4056
The Pine Tree Coffee Shop,BS30 6HX,51.43029500000000,-2.46900500000000
The Swan in Swineford,BS30 6LN,51.41978600000000,-2.44542800000000
The Upton Inn,BS30 6LY,51.42539700000000,-2.44545300000000
Chief Trading Post Ltd,BS30 6QY,51.43638700000000,-2.47231900000000
Caffe Nero,BS30 7DA,51.44452600000000,-2.49795700000000
Flip Out Bristol,BS30 7DA,51.44444656372070,-2.49765801429749
Subway (Longwell Green),BS30 7DA,51.44452667236330,-2.49795699119568
FIRST CHOICE KEBAB,BS30 8DB,51.44882200000000,-2.47903800000000
Crumbs of Keynsham ,BS31 1DQ,51.41700600000000,-2.49934000000000
Coffee#1,BS31 1DS,51.41560800000000,-2.49821800000000
Dalia Cocina,BS31 1DS,51.41560800000000,-2.49821800000000
Grounded,BS31 1DS,51.4156,-2.4982
Costa Coffee,BS31 1DX,51.41548000000000,-2.49882100000000
Cinnamon Lounge and Dining,BS31 1EA,51.41456500000000,-2.49830700000000
keynsham fish bar,BS31 1EB,51.41472900000000,-2.49776300000000
Temple Street Canteen,BS31 1EH,51.41332626342770,-2.49779105186462
pomegranate canteen,BS31 1FS,51.4141,-2.4970
Haywards at the Grasmere,BS31 1SN,51.41218185424800,-2.48959708213806
KFC Keynsham,BS31 1ST,51.42045700000000,-2.48252300000000
KFC,BS31 1SX,51.41344451904300,-2.47800588607788
La Famiglia ,BS31 1TN,51.41018600000000,-2.47436300000000
Old Manor House Hotel Keynsham Limited,BS31 2BA,51.41760400000000,-2.50049700000000
The Crown Inn,BS31 2WA,51.41811200000000,-2.50565100000000
BIRD IN HAND,BS31 3EJ,51.40488700000000,-2.45245600000000
Jolly Sailor Inn,BS31 3ER,51.41132400000000,-2.44327500000000
Riverside Inn,BS31 3EZ,51.39938700000000,-2.44928200000000
Golden moments at 507 limited,BS31 3HQ,51.40180600000000,-2.45630700000000
Elior at Babcock,BS32 4AQ,51.54518600000000,-2.57107200000000
Elior at EE,BS32 4AQ,51.54518600000000,-2.57107200000000
Elior at LV Bristol,BS32 4AQ,51.54481887817380,-2.57035088539124
SAFFRON,BS32 4JT,51.54889700000000,-2.55283200000000
Elior at EE Parkgate,BS32 4TE,51.54335000000000,-2.57152500000000
Aztec Hotel & Spa,BS32 4TS,51.54196100000000,-2.56869600000000
Lodge at Bristol,BS32 4TS,51.5420,-2.5687
Starbucks Cafe,BS32 4TS,51.54196100000000,-2.56869600000000
Elior at Atkins,BS32 4UD,51.53826000000000,-2.57353800000000
Elior at Tesco,BS32 8EF,51.53428700000000,-2.54879100000000
KFC,BS32 8EF,51.53530700000000,-2.54790900000000
Subway-WillowBrook District Centre,BS32 8EF,51.53428700000000,-2.54879100000000
Pizza Hut (UK) Ltd,BS32 9DF,51.54039900000000,-2.55685300000000
Chandos Deli,BS34 5DG,51.5252,-2.5954
Chopstix Bristol Cribbs Causeway,BS34 5DG,51.52516555786130,-2.59536910057068
Pret a Manger,BS34 5DG,51.52516700000000,-2.59536900000000
Wagamama,BS34 5DG,51.52516700000000,-2.59536900000000
AirHop Bristol,BS34 5TA,51.53025000000000,-2.59305600000000
McDonald's Restaurant ,BS34 5TQ,51.52970500000000,-2.60120900000000
McDonalds,BS34 5TQ,51.52970500000000,-2.60120900000000
Burger King,BS34 5UR,51.52498626708980,-2.59576010704041
Nando's Restaurant,BS34 5UR,51.52516700000000,-2.59536900000000
Patisserie Valerie,BS34 5UR,51.52516700000000,-2.59536900000000
Pizza Hut (UK) Ltd,BS34 5UR,51.52516700000000,-2.59536900000000
SOHO Coffee Shops Limited Cribbs,BS34 5UR,51.52516700000000,-2.59536900000000
Tortilla,BS34 5UR,51.52516555786130,-2.59536910057068
Waterfall Elior at Stoke Lodge Primary - Olympus Academy Trust,BS34 6DW,51.53383636474610,-2.55873799324036
Bristol Bawarchi Indian Restaurant,BS34 7BQ,51.50944720000000,-2.57408710000000
Vigour Cafe,BS34 7BQ,51.50923600000000,-2.57440540000000
KFC,BS34 7BR,51.50900700000000,-2.57413500000000
SUBWAY ,BS34 7BR,51.50840910000000,-2.57492420000000
McDonald's Restaurant ,BS34 7JL,51.50793000000000,-2.56461200000000
McDonalds,BS34 7JL,51.50793000000000,-2.56461200000000
Nando's,BS34 7JL,51.50793000000000,-2.56461200000000
Subway (Abbeywood),BS34 7JL,51.5079,-2.5646
Elior at Airbus,BS34 7PA,51.51006698608400,-2.57636809349060
Subway (Filton),BS34 7ST,51.52188200000000,-2.57248100000000
Costa Coffee,BS34 8PU,51.51420800000000,-2.54327500000000
Aramark at Starbucks Outlet,BS34 8SF,51.51271057128910,-2.55012106895447
Elior at City of Bristol College - AEC at Parkway,BS34 8SF,51.51135400000000,-2.55357300000000
Waterfall Elior at Abbeywood School,BS34 8SF,51.51135400000000,-2.55357300000000
Fox Inn,BS35 5RA,51.54157000000000,-2.62260500000000
Farm Shop Cafe,BS35 5RE,51.5408,-2.6205
The Wave,BS35 5RE,51.54083251953130,-2.62051105499268
Taj Brasserie,BS36 1JG,51.52624400000000,-2.50578200000000
The Globe,BS36 2AB,51.53566600000000,-2.48273200000000
Turtle Bay Restaurants,BS36 2AU,51.53525000000000,-2.49607800000000
The Rising Sun,BS36 2HN,51.53218600000000,-2.47603500000000
The Gingerbread Man coffee shop ,BS36 2JX,51.53301620483400,-2.47353506088257
Frampton Balti ,BS36 2LE,51.53136700000000,-2.47191800000000
Daisy Chain Deli,BS36 2LG,51.53051200000000,-2.47193800000000
The New Inn  Mayshill,BS36 2NT,51.53632500000000,-2.45489800000000
Caffe Voitch LTD,BS36 2TB,51.51828200000000,-2.47882900000000
The Wildwood Cafe,BS36 2TB,51.51828200000000,-2.47882900000000
The Kendleshire Golf Club Ltd,BS36 2UY,51.51476500000000,-2.47049200000000
McDonald's Restaurant ,BS37 4AF,51.54024390000000,-2.40603390000000
Miss Millies Fried Chicken,BS37 4AN,51.54114600000000,-2.41328900000000
Boswells Cafe,BS37 4AP,51.5407,-2.4135
Nando's,BS37 4AS,51.54041200000000,-2.41217200000000
McDonalds,BS37 4AX,51.54051300000000,-2.41422100000000
Chocolate Brownies (Southern) Limited,BS37 4AY,51.5391,-2.4099
Esquires Coffee Yate,BS37 4FT,51.53953550000000,-2.40812750000000
Little Giggles Soft Play,BS37 4FT,51.5398,-2.4083
The Lawns,BS37 5BG,51.54344300000000,-2.41212800000000
The Swan at Nibley,BS37 5JF,51.53886400000000,-2.44465800000000
Henrys Oriental Chinese Restaurant,BS37 6AD,51.5385,-2.3927
The Squire Inn,BS37 6AD,51.53851000000000,-2.39283500000000
The Beaufort Hunt,BS37 6AG,51.53798000000000,-2.39265700000000
The Coffee Bean ,BS37 6AG,51.53798000000000,-2.39265700000000
The Royal Oak,BS37 6AG,51.53798000000000,-2.39265700000000
IL Gusto Chipping Sodbury,BS37 6AR,51.53802890000000,-2.39717390000000
Tudor Raj,BS37 6AS,51.53836822509770,-2.39779305458069
The Hamptons Deli,BS37 6BA,51.53843800000000,-2.39545800000000
Megna catering ltd,BS37 6DA,51.53771600000000,-2.39104000000000
Siam Thai,BS37 6DA,51.53771600000000,-2.39104000000000
The Portcullis Hotel,BS37 6DA,51.53771500000000,-2.39103900000000
The Bell at Old Sodbury,BS37 6LL,51.53356600000000,-2.38138800000000
The Dog Inn,BS37 6LZ,51.53207300000000,-2.35583000000000
Chipping Sodbury Golf Club,BS37 6PU,51.5481,-2.3883
The Wishing Well  Codrington,BS37 6RY,51.50838851928710,-2.39551496505737
The Players Club,BS37 6RZ,51.5112,-2.3894
Sharpak,BS37 7AA,51.53997700000000,-2.40296900000000
Ye Olde Inne,BS37 8QP,51.51481800000000,-2.43586300000000
THE RISING SUN,BS39 4AQ,51.37140000000000,-2.54958400000000
Carpenters Arms,BS39 4BX,51.35648300000000,-2.55324000000000
Travellers Rest,BS39 4JF,51.37709426879880,-2.55249691009521
The Compton Inn,BS39 4JZ,51.37800300000000,-2.51124300000000
RAILWAY INN,BS39 5PD,51.33046500000000,-2.53884600000000
The Hunters Rest Inn,BS39 5QL,51.33835200000000,-2.52876100000000
The Red Lion,BS39 5UT,51.33517300000000,-2.59350600000000
The Haynes ,BS39 6JH,51.32549200000000,-2.51091700000000
The Knowle Pub,BS4 2LL,51.43478200000000,-2.56284600000000
Club 3000 Bingo,BS4 2QU,51.43429000000000,-2.56965800000000
Subway Knowle ,BS4 2QU,51.43443400000000,-2.56802100000000
Viet Kitchen,BS4 2QU,51.43443400000000,-2.56802100000000
Redcatch Community Garden Limited,BS4 2RD,51.43291854858400,-2.57237911224365
Elior,BS4 2UG,51.42989200000000,-2.56451200000000
Burger King,BS4 3BD,51.44297900000000,-2.56176700000000
Bocabar Paintworks,BS4 3EH,51.44332700000000,-2.56793000000000
curry house,BS4 3EU,51.44236000000000,-2.56325600000000
Deli at sandypark ,BS4 3PE,51.44079100000000,-2.55490600000000
Grounded,BS4 3PH,51.44060000000000,-2.55530700000000
The Langton,BS4 4EG,51.45004400000000,-2.54890200000000
St Annes Cafe,BS4 4QH,51.44815900000000,-2.54233200000000
Riverside cafe,BS4 4WW,51.45471100000000,-2.54505800000000
Knowle Golf Club Ltd,BS4 5DF,51.42780000000000,-2.55067800000000
Subway (Brislington),BS4 5NG,51.42932400000000,-2.54399300000000
Starbucks Coffee,BS4 5NL,51.43074500000000,-2.54180900000000
Subway (Bath Road),BS4 5NR,51.43029022216800,-2.54083991050720
McDonalds Restaurant,BS4 5PF,51.43174300000000,-2.53793700000000
Mcdonalds,BS4 5PF,51.43174300000000,-2.53793700000000
The Prince of Waterloo,BS40 8AR,51.3833,-2.6623
The Crown Inn,BS40 8AY,51.37080800000000,-2.66229100000000
The Bear and Swan,BS40 8SL,51.36566700000000,-2.61049100000000
The Pelican,BS40 8SL,51.36566700000000,-2.61049100000000
Salt & Malt Limited,BS40 8TF,51.34709200000000,-2.60141300000000
Chew Valley raj ,BS40 8XE,51.35289800000000,-2.63268000000000
THE WOODFORD LODGE CO LTD,BS40 8XH,51.34360600000000,-2.62498600000000
Dundry Royal British Legion Social Club Ltd,BS41 8JE,51.40006500000000,-2.63834700000000
Winford Arms,BS41 8JP,51.40968100000000,-2.64917900000000
The Dundry Inn,BS41 8LH,51.39829200000000,-2.63536200000000
The Carpenters Tavern,BS41 8NE,51.39444500000000,-2.62668500000000
The Old Library,BS41 9AH,51.42824720000000,-2.66709790000000
Long Ashton Golf Club,BS41 9DW,51.43676757812500,-2.67179489135742
Ashton Courtyard  Café,BS41 9JN,51.44400200000000,-2.63776600000000
The Angel Inn,BS41 9LT,51.43487600000000,-2.64739300000000
The Climbing Academy - The Mothership,BS5 0FD,51.45545900000000,-2.56928900000000
Piri Piri Corner ,BS5 0NP,51.46612300000000,-2.56923500000000
Sharif Cafe and Resturant,BS5 0NR,51.46612200000000,-2.56952300000000
Piri Piri Corner ,BS5 0PU,51.46222360000000,-2.57224130000000
Real Habesha Restaurant,BS5 0PU,51.46219700000000,-2.57230900000000
Pepes piri piri,BS5 0PW,51.46118220000000,-2.57373980000000
Pipal Tree Restaurant,BS5 6AF,51.46298900000000,-2.56281900000000
Msala Library,BS5 6DL,51.46664200000000,-2.56431800000000
The Greenbank ,BS5 6DP,51.46769800000000,-2.56158100000000
Este Kitchen,BS5 6EZ,51.46803800000000,-2.56001600000000
Swagatam Authentic Indian Restaurant,BS5 6JD,51.46894300000000,-2.56449000000000
EASTERN TASTE,BS5 6JH,51.46785500000000,-2.56436200000000
The Thali Cafe,BS5 6JH,51.46785500000000,-2.56436200000000
The African  Village Barbecue,BS5 6NQ,51.46938600000000,-2.56582000000000
Lick'n Chick'n,BS5 6PA,51.4705,-2.5641
Elior Cafe,BS5 6XU,51.47362400000000,-2.56323800000000
Burger King,BS5 6XX,51.47337800000000,-2.56778500000000
KFC,BS5 6XX,51.47310256958010,-2.56713294982910
Bake Box,BS5 7AA,51.4612,-2.5512
Delhi Flavour ,BS5 8AD,51.45943600000000,-2.54984900000000
Fountain cafe,BS5 8AJ,51.45990100000000,-2.54471700000000
The Lord Raglan Ltd,BS5 8LN,51.45693300000000,-2.52909400000000
The Trooper,BS5 8QT,51.45242500000000,-2.52394800000000
Wetherspoons - St Georges Hall,BS5 9HL,51.45948600000000,-2.55455700000000
Grounded,BS5 9HT,51.45970200000000,-2.55261700000000
Bonnies cafe,BS5 9HX,51.45948000000000,-2.55190800000000
The Dark Horse,BS5 9HX,51.45948028564450,-2.55190896987915
Cafe Conscious,BS5 9SX,51.45494700000000,-2.56175600000000
The Cadbury House,BS6 5EW,51.46708800000000,-2.58704000000000
Coral Cafe,BS6 5PA,51.46612500000000,-2.57994500000000
Mr lahey's organic juice bar,BS6 5PZ,51.46551513671880,-2.58840203285217
The Bristolian ltd,BS6 5QA,51.46535200000000,-2.58893300000000
Thali Montpelier,BS6 5QE,51.46637500000000,-2.58740500000000
Sham restaurant and cafe,BS6 5QP,51.46949900000000,-2.59376600000000
The Coconut Tree,BS6 5QP,51.46949768066410,-2.59376597404480
Turtle Bay,BS6 5QP,51.46949900000000,-2.59376500000000
pepe’s piri piri,BS6 5QU,51.46973600000000,-2.59330800000000
Flour & Ash,BS6 5QX,51.46832700000000,-2.59267100000000
The Cloak and Dagger,BS6 5RB,51.46804500000000,-2.59160200000000
The Boston Tea Party Group Limited,BS6 5RL,51.46551600000000,-2.59008600000000
At The Well,BS6 5RR,51.46502900000000,-2.59046900000000
The Social ,BS6 5RW,51.46474500000000,-2.58968700000000
Elia Cafe Bar,BS6 6JX,51.46344300000000,-2.60708900000000
Brewhouse and Kitchen Bristol,BS6 6JY,51.46364500000000,-2.60786900000000
Crying Wolf,BS6 6JY,51.46364500000000,-2.60786900000000
Juboraj,BS6 6JY,51.4636,-2.6079
Muino,BS6 6LA,51.46397800000000,-2.60781600000000
rock salt restaurant ,BS6 6LA,51.46397800000000,-2.60781600000000
Bravas,BS6 6LD,51.46429700000000,-2.60888500000000
Falafel King,BS6 6LF,51.46447700000000,-2.60875800000000
Snobby’s ,BS6 6PE,51.46762900000000,-2.60612200000000
REDLAND TANDOORI LTD,BS6 6PF,51.46794000000000,-2.60500300000000
The Shakespeare,BS6 6SS,51.47032200000000,-2.60677600000000
Koocha Mezze Bar Ltd,BS6 7AD,51.47020300000000,-2.59501300000000
La CAMPAGNUOLA,BS6 7AG,51.47000000000000,-2.59434800000000
Casa Mexicana Ltd,BS6 7AH,51.46971600000000,-2.59529500000000
Harikrishnans kitchen,BS6 7AH,51.46971600000000,-2.59529500000000
Caffe Arabica,BS6 7QA,51.47946400000000,-2.61258600000000
The Gloucester Old Spot,BS6 7YQ,51.48390900000000,-2.59800000000000
the Crafty Cow,BS7 0BJ,51.49189500000000,-2.58361400000000
B Bartlett,BS7 0EQ,51.4932,-2.5707
Elior UK Ltd,BS7 0FD,51.49912300000000,-2.58385000000000
Inn on the Green,BS7 0PA,51.4954,-2.5814
Raj Pavillions,BS7 0PA,51.49545700000000,-2.58141200000000
Compass Group LTD,BS7 0UP,51.49978800000000,-2.58920300000000
Gloucester Rd,BS7 8AD,51.4715,-2.5923
PALOMAR LTD,BS7 8AD,51.47148500000000,-2.59232300000000
Suncraft,BS7 8AD,51.47148500000000,-2.59232300000000
eat a pitta ,BS7 8AD,51.47148400000000,-2.59232200000000
Costa Coffee,BS7 8AE,51.47133600000000,-2.59321400000000
Spicer and Cole  Gloucester Road,BS7 8AE,51.47133600000000,-2.59321300000000
THE PROMANADE CAFE BAR LTD,BS7 8AE,51.4713,-2.5933
reel soul ,BS7 8AE,51.47133600000000,-2.59321400000000
Beat 2 The Soul,BS7 8AL,51.47199700000000,-2.59231500000000
The Gallimaufrey,BS7 8AL,51.47199700000000,-2.59231500000000
The Hobgoblin,BS7 8AS,51.47220900000000,-2.59146900000000
Tincan Coffee Co,BS7 8BA,51.47392800000000,-2.59114500000000
La Fiorentina ,BS7 8BE,51.47454700000000,-2.59129700000000
nectar house,BS7 8BE,51.47454833984380,-2.59129691123962
Atomic Burger ,BS7 8BG,51.47498100000000,-2.59094300000000
Bakers & Co,BS7 8BG,51.47498100000000,-2.59094300000000
Planet Pizza,BS7 8BG,51.47498100000000,-2.59094300000000
Pho Lounge,BS7 8NN,51.47580200000000,-2.59039200000000
mula lounge,BS7 8NT,51.47696900000000,-2.59059400000000
LONA GRILL HOUSE LTD,BS7 8NY,51.47918000000000,-2.58918300000000
Avanalounge limet,BS7 8PB,51.4806,-2.5889
lazz lounge,BS7 8PB,51.4806,-2.5889
Coffee Mine,BS7 8PD,51.48153940000000,-2.58819490000000
Qazi Food Limited T/A Wusar Restaurant ,BS7 8PE,51.48054970000000,-2.58831180000000
The Boston Tea Party Group Limited,BS7 8PE,51.48077600000000,-2.58816700000000
di meo restaurant & pizzeria,BS7 8TJ,51.48245000000000,-2.58784200000000
Deck Cafe,BS7 8TN,51.48310200000000,-2.58688600000000
The Royal Oak,BS7 8TN,51.48310200000000,-2.58688600000000
PER&KOR LTD,BS7 8TP,51.48337900000000,-2.58727800000000
Texas grill,BS7 8TR,51.48412700000000,-2.58685500000000
Cafe Jackalope,BS7 8TS,51.48403930664060,-2.58636498451233
THE KANDYAN,BS7 8TS,51.48412890000000,-2.58639910000000
Grounded,BS7 8TZ,51.48511200000000,-2.58590400000000
The Wellington ,BS7 8UR,51.48889200000000,-2.58533300000000
Sportsman & Annexe,BS7 9EQ,51.47983600000000,-2.58730500000000
THE LAZY DOG,BS7 9JR,51.48172600000000,-2.58329600000000
Mintroom,BS8 1AF,51.4544,-2.6136
Rosemarino ,BS8 1AH,51.45485300000000,-2.61276000000000
ELDON HOUSE,BS8 1BT,51.45491900000000,-2.61042900000000
Ahmed’s Masala Cafe ,BS8 1EA,51.45128200000000,-2.60773300000000
Bare Grills Smokehouse,BS8 1ER,51.45646200000000,-2.60771600000000
Transylvania Nightclub,BS8 1EY,51.4562,-2.6073
Square Club,BS8 1HB,51.45538800000000,-2.60672300000000
Pizza Express,BS8 1HP,51.45560100000000,-2.60553100000000
Dwaraka Limited T/A Krishnas Inn,BS8 1JT,51.45578700000000,-2.60773500000000
The Coconut Tree,BS8 1JT,51.45573300000000,-2.60776400000000
Yoyoburger,BS8 1JT,51.4558,-2.6077
Al Bacio,BS8 1LW,51.45773400000000,-2.61210800000000
Racks,BS8 1LX,51.45901200000000,-2.61021100000000
Allstars Bristol,BS8 1QE,51.45571900000000,-2.60524500000000
Eat a Pitta ,BS8 1QE,51.45571900000000,-2.60524500000000
Pret a Manger,BS8 1QE,51.45571900000000,-2.60524500000000
Queens Rd,BS8 1QE,51.4558,-2.6052
SOHO Coffee Shops Limited Queens Rd,BS8 1QE,51.45580680000000,-2.60549460000000
Wagamama,BS8 1QL,51.45649200000000,-2.60719800000000
Illy caffe bristol,BS8 1QP,51.45664200000000,-2.60743440000000
Bubbleology,BS8 1QQ,51.45622634887700,-2.60660409927368
Caffe Nero,BS8 1QU,51.45745200000000,-2.60746900000000
Five Guys,BS8 1QU,51.45718060000000,-2.60761430000000
Subway (The Triangle),BS8 1QU,51.45745200000000,-2.60747000000000
Cloakroom Cafe,BS8 1US,51.45553060000000,-2.60151860000000
Bristol Lido,BS8 2BJ,51.45955700000000,-2.61075100000000
Bristol Raj ,BS8 2HS,51.46310300000000,-2.61356200000000
Budapest Cafe,BS8 2HS,51.46310300000000,-2.61356200000000
The Alma Tavern and Theatre,BS8 2HY,51.4625,-2.6148
BBC Bristol Club,BS8 2LR,51.46016500000000,-2.60809600000000
Baxterstorey - Computershare Bristol,BS8 2LR,51.46016500000000,-2.60809600000000
brace & browns,BS8 2LS,51.46172000000000,-2.60817400000000
Bakesmiths,BS8 2LY,51.46226700000000,-2.60834000000000
Everyman Cinema,BS8 2NH,51.46341200000000,-2.60952000000000
Starbucks Coffee,BS8 2NN,51.46400800000000,-2.61075200000000
Bar Humbug,BS8 2NT,51.46327200000000,-2.60877000000000
Nomu Bristol Limited,BS8 2NT,51.4633,-2.6088
Thai Classic Restaurant Ltd,BS8 2NT,51.46327200000000,-2.60877100000000
The Boston Tea Party Group Limited,BS8 2NT,51.4633,-2.6088
The Burger Joint,BS8 2NT,51.46327200000000,-2.60877100000000
The Mana House,BS8 2NT,51.46327200000000,-2.60877100000000
Hubbox Bristol,BS8 2PB,51.46407100000000,-2.60911200000000
Subway,BS8 2PB,51.46407100000000,-2.60911200000000
Costa Coffee,BS8 2PL,51.46492200000000,-2.60967100000000
Kuch restaurant ,BS8 2PL,51.4649,-2.6097
The Colombian Company Ltd ,BS8 2PL,51.46492200000000,-2.60967100000000
Clifton Thai,BS8 2QA,51.46579500000000,-2.61113600000000
cafe du jour,BS8 2QA,51.46579500000000,-2.61113600000000
Better Food,BS8 2QX,51.46700300000000,-2.61237600000000
Aqua Restaurant,BS8 2RF,51.46825100000000,-2.61269500000000
Pizza Workshop,BS8 2RF,51.4682,-2.6127
Tradewind Espresso,BS8 2RP,51.46852400000000,-2.61389400000000
The spiny lobster grill and seafood market ltd,BS8 2RS,51.46910500000000,-2.61441900000000
Soukitchen Clifton,BS8 2SW,51.46820800000000,-2.61409100000000
Urban Kohinoor Ltd,BS8 2XS,51.47014700000000,-2.61460600000000
The garden tea room,BS8 3RA,51.46962700000000,-2.65907100000000
The George Inn,BS8 3RP,51.45972824096680,-2.66208100318909
Bristol & Clifton Golf Club,BS8 3TH,51.44484800000000,-2.67298800000000
BAUHINIA BAR RESTAURANT,BS8 4AA,51.45536300000000,-2.61839400000000
East Village Cafe,BS8 4AA,51.45536300000000,-2.61839400000000
Primrose cafe,BS8 4AA,51.45536300000000,-2.61839400000000
The Albion,BS8 4AA,51.45536300000000,-2.61839400000000
Nettle & Rye,BS8 4AB,51.4555,-2.6186
NOA SUSHI RESTAURANT,BS8 4BT,51.45506500000000,-2.62037700000000
Somerset House,BS8 4BX,51.4544,-2.6204
Spicer and Cole  Clifton Village,BS8 4BX,51.4544,-2.6204
Zizzi,BS8 4BX,51.45443600000000,-2.62028200000000
Giggling Squid,BS8 4BZ,51.45437600000000,-2.62144700000000
New MoOn Tapas,BS8 4DP,51.45464000000000,-2.62078800000000
NUTMEG INDIAN RESTAURANT,BS8 4DR,51.45492000000000,-2.62053300000000
The Clifton Club ,BS8 4DS,51.45551100000000,-2.62094400000000
Bar 44 (Clifton) Ltd,BS8 4HG,51.45427700000000,-2.61810600000000
Pizza Express Limited,BS8 4HG,51.45427700000000,-2.61810600000000
Caffe Nero,BS8 4HU,51.45502900000000,-2.61859100000000
Foliage Cafe,BS8 4HW,51.45370100000000,-2.61802600000000
No4 Clifton Village,BS8 4HY,51.4553,-2.6197
THE CLIFTON SAUSAGE,BS8 4JA,51.45568300000000,-2.62088900000000
Emperor Court Restaurant,BS8 4JB,51.45553200000000,-2.62208100000000
Avon Gorge by Hotel du Vin,BS8 4LD,51.45336600000000,-2.62534700000000
The Pump House,BS8 4PZ,51.44990500000000,-2.61833500000000
Grain Barge,BS8 4RU,51.44938000000000,-2.61378000000000
Indian Rassasy ,BS8 4SF,51.45025100000000,-2.61931800000000
The Downs Cafe Bristol Ltd,BS9 1FG,51.47247800000000,-2.61931700000000
The Mill House ,BS9 2DS,51.48707000000000,-2.64304800000000
The Hideaway BS9,BS9 2DW,51.48609580000000,-2.64178730000000
Costa Coffee,BS9 3AA,51.49304100000000,-2.61776600000000
The Post Office Tavern,BS9 3AG,51.49167800000000,-2.61694100000000
NUMBER 7 KITCHEN,BS9 3DF,51.49343500000000,-2.61977400000000
CRESCENT CAFE,BS9 3DZ,51.49452300000000,-2.61800200000000
The White Horse,BS9 3DZ,51.49452400000000,-2.61800300000000
Indian kitchen ,BS9 3ED,51.49446700000000,-2.61859200000000
The British Raj,BS9 3HN,51.49533700000000,-2.61730800000000
Hunters Cafe Bar,BS9 3RW,51.48816700000000,-2.62465700000000
Salkaara,BS9 4HN,51.48040100000000,-2.61223800000000
Westbury Park Pub,BS9 4HP,51.48159600000000,-2.61235600000000
Kondi Brasserie,BS9 4JP,51.48581000000000,-2.61127400000000
Costa Coffee,BS9 4JT,51.48518500000000,-2.61226000000000
Cafe96,BS9 4JZ,51.48480800000000,-2.61201000000000
Henleaze Sultan ,BS9 4NG,51.48883000000000,-2.60814600000000
The Eastfield Inn,BS9 4NQ,51.48985300000000,-2.60839000000000
THE BEEHIVE PUB & DINING,BS9 4QY,51.4919,-2.5964
The Fox and Hounds Inn,GL9 1HW,51.52526200000000,-2.27781100000000
The Compass Inn,GL9 1JB,51.50724200000000,-2.33945600000000
The Northey Arms,SN13 8AE,51.41618500000000,-2.26652200000000
The Old House At Home,SN14 7LT,51.51449584960938,-2.26685047149658
The Bull at Hinton,SN14 8HG,51.48944800000000,-2.38571500000000
Tollgate Catering LTD,SN14 8LF,51.47061920166020,-2.36612010002136
Sweetapples Tea Shop ,SN14 8LR,51.46198300000000,-2.31867900000000
The Catherine wheel,SN14 8LR,51.46198300000000,-2.31868000000000
