name,postcode,lat,lon
Absurd Bird,BA1 1AN,51.37885500000000,-2.35922300000000
Tapas Revolution Bath,BA1 1AN,51.37885500000000,-2.35922300000000
Costa Coffee,BA1 1AP,51.37857000000000,-2.35838800000000
Pizza Express,BA1 1AP,51.37857000000000,-2.35838800000000
Pret A Manger,BA1 1AP,51.37857055664060,-2.35838699340820
Smashburger,BA1 1AQ,51.37885500000000,-2.35922300000000
Thaikhun,BA1 1AQ,51.3790,-2.3595
Comptoir Bath,BA1 1AT,51.37838700000000,-2.35920500000000
Kekolo Coffee,BA1 1BL,51.38320200000000,-2.36092400000000
Caffe Nero,BA1 1BP,51.38286800000000,-2.36133800000000
Bandook ,BA1 1BZ,51.38389968872070,-2.36088800430298
Le Vignoble Bath,BA1 1BZ,51.38393783569340,-2.36097288131714
EASTERN CUISINE BATH LIMITED,BA1 1DG,51.3846,-2.3616
The Oven Pizzeria,BA1 1EN,51.38166700000000,-2.36293800000000
Vino Vino ,BA1 1EN,51.38166700000000,-2.36293800000000
Subway,BA1 1EQ,51.38134800000000,-2.36142700000000
The Garricks Head,BA1 1ET,51.38205500000000,-2.36276900000000
Amarone Restaurant,BA1 1EU,51.38218900000000,-2.36259700000000
Giggling Squid,BA1 1EY,51.38216400146480,-2.36199402809143
Zizzi,BA1 1EY,51.38216400146480,-2.36199402809143
The Raven of Bath Ltd,BA1 1HE,51.38314190000000,-2.36201650000000
Wild Cafe,BA1 1HE,51.38273100000000,-2.36184000000000
Pintxo de Bath,BA1 1HG,51.38254800000000,-2.36281500000000
Thoughtful Bakery,BA1 1HG,51.38254900000000,-2.36281600000000
Pizza Express,BA1 1HQ,51.38227000000000,-2.36274100000000
Green Park Brasserie,BA1 1JB,51.38153800000000,-2.36691700000000
Pizzas of Bath,BA1 1JB,51.3815,-2.3669
The Royal Hotel,BA1 1JP,51.37818900000000,-2.35674700000000
SALATHAI RESTAURANT,BA1 1LA,51.38018300000000,-2.35732200000000
Yak Yeti Yak,BA1 1LA,51.38018300000000,-2.35732200000000
The Green Rocket,BA1 1LB,51.38031900000000,-2.35695000000000
Abbey Hotel Bath Ltd,BA1 1LF,51.38062300000000,-2.35748400000000
Tagine Zhor Ltd,BA1 1LF,51.38062300000000,-2.35748400000000
Mokoko Coffee & Bakery Abbey Churchyard,BA1 1LY,51.3815,-2.3598
The Cornish Bakery,BA1 1LY,51.38152400000000,-2.35983300000000
Searcys at The Bath Pump Room ,BA1 1LZ,51.38113600000000,-2.36011700000000
the Courtyard Cafe,BA1 1ND,51.38061100000000,-2.35841800000000
The Ale House,BA1 1NG,51.38109700000000,-2.35836400000000
The Real Italian Ice Cream Company,BA1 1NG,51.38109700000000,-2.35836400000000
The Real Italian Pizza Company,BA1 1NG,51.38109700000000,-2.35836400000000
hands Georgian Tearoom,BA1 1NN,51.38077926635740,-2.35899400711060
The Colombian Company Ltd ,BA1 1NP,51.38032150268550,-2.35914897918701
Bath bun tea shoppe,BA1 1NW,51.38033200000000,-2.35873200000000
Sally Lunn's ,BA1 1NX,51.38076400000000,-2.35854800000000
Caffe Nero,BA1 1QF,51.38020750000000,-2.36013970000000
Costa Coffee,BA1 1QH,51.38125200000000,-2.36057800000000
Pret A Manger,BA1 1QL,51.38139700000000,-2.36023500000000
Chapel Arts Cafe,BA1 1QR,51.37970600000000,-2.36042200000000
Sweet Little Things Limited,BA1 1QR,51.37969410000000,-2.36042310000000
The Drawing Rooms,BA1 1RD,51.3820,-2.3601
Cascara,BA1 1RG,51.38285240000000,-2.35968630000000
The Whole Bagel,BA1 1RG,51.38277030000000,-2.36008800000000
GOOD DAY CAFE,BA1 1RH,51.38272410000000,-2.36049000000000
SAM WELLERS BATH LTD,BA1 1RH,51.38252000000000,-2.36047300000000
Raphael Restaurant,BA1 1RN,51.38238143920900,-2.36210989952087
SOHO Coffee Shops Limited Bath,BA1 1RR,51.38249020000000,-2.36053130000000
Bonghy Bo,BA1 1RZ,51.3828,-2.3600
FLY FITNESS LTD,BA1 1SB,51.38072586059570,-2.36061811447144
Lulu Caffe,BA1 1SJ,51.38035000000000,-2.36156300000000
Cafe au Lait Bath Ltd,BA1 1SS,51.3781,-2.3583
Caffe Nero,BA1 1SS,51.37823800000000,-2.35835600000000
Chilli family noodles ,BA1 1SS,51.37823800000000,-2.35835600000000
Mokoko Coffee Southgate,BA1 1SS,51.3781,-2.3583
Tivoli Cinema Bath,BA1 1SS,51.37823800000000,-2.35835600000000
Starbucks,BA1 1SU,51.37766647338870,-2.35690093040466
Franco Manca,BA1 1SX,51.37760800000000,-2.35825000000000
Gourmet Burger Kitchen Ltd,BA1 1SX,51.37750244140620,-2.35817790031433
Graze  Bath,BA1 1SX,51.37750640000000,-2.35781270000000
Nando's,BA1 1SX,51.37744200000000,-2.35688500000000
Prezzo,BA1 1SX,51.37744200000000,-2.35688500000000
Costa Coffee,BA1 1TG,51.37942800000000,-2.35991700000000
McDonalds,BA1 1TG,51.37942900000000,-2.35991700000000
Subway,BA1 1TP,51.37816100000000,-2.36006500000000
Hondo Sushi ,BA1 1UL,51.37932600000000,-2.36112300000000
Noya's Kitchen,BA1 1UL,51.37932586669920,-2.36112403869629
Creams Cafe,BA1 1UN,51.38083100000000,-2.36311800000000
Starbucks Coffee,BA1 1UN,51.38083100000000,-2.36311800000000
the black fox,BA1 1UQ,51.37971115112300,-2.36115503311157
The Kingsmead Kitchen,BA1 2AA,51.38147600000000,-2.36365400000000
seafoods  fish and chips restaurant,BA1 2AA,51.38147735595700,-2.36365509033203
Society Cafe ,BA1 2AB,51.38110800000000,-2.36339300000000
The Dark Horse,BA1 2AB,51.38110800000000,-2.36339300000000
The Bath Coffee Company ,BA1 2AD,51.38138700000000,-2.36356800000000
Swoon Gelato,BA1 2AE,51.3815,-2.3631
The Bath Stable,BA1 2AE,51.3815,-2.3631
The Boston Tea Party Group Limited,BA1 2AE,51.38151300000000,-2.36315200000000
Yum Yum Thai Restaurant,BA1 2AE,51.38151550292970,-2.36315202713013
Mission Burrito - Bath,BA1 2AF,51.38127800000000,-2.36375400000000
Subway,BA1 2AG,51.38128400000000,-2.36473100000000
Comins Tea,BA1 2AN,51.38166700000000,-2.36293800000000
New Inn,BA1 2AY,51.38289900000000,-2.36580700000000
The Scallop Shell,BA1 2AY,51.38289900000000,-2.36580700000000
Nando's Chicken Land Ltd,BA1 2BX,51.38083400000000,-2.36489900000000
TGI Fridays,BA1 2BX,51.38083400000000,-2.36489900000000
Apex City of Bath,BA1 2DA,51.38083000000000,-2.36311800000000
Goulash ,BA1 2DR,51.3812,-2.3685
Wagamama,BA1 2EB,51.38487300000000,-2.36132500000000
Adventure cafe,BA1 2ED,51.38524246215820,-2.36128497123718
SAME SAME BUT DIFFERENT LTD,BA1 2ED,51.38524200000000,-2.36128500000000
Sub 13,BA1 2EE,51.38519500000000,-2.36193100000000
Chandos Deli,BA1 2EH,51.38455400000000,-2.36278800000000
Charm Thai Restaurant,BA1 2EH,51.38455400000000,-2.36278800000000
Champagne Plus Fromage- Bath,BA1 2EJ,51.38462829589840,-2.36254501342773
Comptoir Cuisine,BA1 2EJ,51.38462829589840,-2.36254501342773
Comptoir Plus Cuisine,BA1 2EJ,51.38462829589840,-2.36254501342773
CLAYTONS KITCHEN,BA1 2EN,51.38484800000000,-2.36276290000000
Brasserie Blanc Bath ,BA1 2HH,51.38294300000000,-2.36332200000000
MGALLERY FRANCIS HOTEL BATH,BA1 2HH,51.38294300000000,-2.36332200000000
Ole Tapas,BA1 2JL,51.38344100000000,-2.36207600000000
The Salamander,BA1 2JL,51.38344100000000,-2.36207500000000
THE GRAND EASTERN LTD,BA1 2JS,51.38337000000000,-2.36190300000000
Hall & Woodhouse,BA1 2JW,51.38382600000000,-2.36268200000000
Belushi's Bath,BA1 2JY,51.38346400000000,-2.36056700000000
The Circus Restaurant,BA1 2LN,51.38631800000000,-2.36533200000000
Rustico Bistro Italiano,BA1 2LP,51.38666700000000,-2.36576600000000
The Green Bird Cafe,BA1 2LP,51.38666600000000,-2.36576500000000
Topland (Royal Crescent Hotel) LTD,BA1 2LS,51.38745000000000,-2.36808500000000
The Marlborough Tavern,BA1 2LY,51.38828280000000,-2.36974830000000
Brooks Guesthouse Bath,BA1 2NA,51.38397300000000,-2.37025600000000
Bath and County Club Limited,BA1 2NJ,51.38392700000000,-2.36506800000000
Bath on the Beach,BA1 2NR,51.38498600000000,-2.36547900000000
Royal Pavilion Cafe,BA1 2NR,51.38498600000000,-2.36547900000000
Thirsty Meeples,BA1 2NT,51.38410950000000,-2.36314500000000
beckford bottle shop,BA1 2QP,51.38633700000000,-2.36204100000000
The Boston Tea Party Group Limited,BA1 2QU,51.38589859008790,-2.36170697212219
WOODS RESTAURANT,BA1 2QX,51.38579600000000,-2.36245300000000
Dos Dedos,BA1 2QZ,51.38559722900390,-2.36172008514404
Yen sushi,BA1 2QZ,51.38566300000000,-2.36171900000000
The Hop Pole,BA1 3AR,51.38508000000000,-2.37568300000000
Victoria Pub & Kitchen,BA1 3AT,51.38505000000000,-2.37655900000000
8e Chelsea Road,BA1 3DU,51.38510100000000,-2.38853000000000
The Locksbrook Inn,BA1 3EN,51.38294700000000,-2.39259200000000
Rooted Vegetarian Cafe ,BA1 3JX,51.38454950000000,-2.38851180000000
Lansdown Cricket Club,BA1 3NE,51.38768600000000,-2.38978700000000
Bathen House Hotel,BA1 3QA,51.38820450000000,-2.39529710000000
Society Cafe ,BA1 4BB,51.3962,-2.3849
Caffe Nero,BA1 5AJ,51.38241500000000,-2.35945200000000
Society Cafe ,BA1 5AJ,51.38241500000000,-2.35945200000000
Dough pizza ltd,BA1 5AP,51.38225200000000,-2.35978100000000
INDIAN TEMPTATION ,BA1 5AQ,51.38191100000000,-2.35946200000000
Coeur de Lion,BA1 5AR,51.38240500000000,-2.35985400000000
Rosarios Café,BA1 5AR,51.38240500000000,-2.35985400000000
Aqua Restaurant,BA1 5BD,51.38587700000000,-2.35943600000000
Provenist Ltd,BA1 5BD,51.3859,-2.3594
Thai Basil Restaurant,BA1 5BG,51.38729000000000,-2.35907400000000
Walcot House,BA1 5BG,51.38757705688480,-2.35874509811401
The Fine Cheese Co,BA1 5BN,51.38487800000000,-2.35981600000000
Picnic Coffee,BA1 5BR,51.38463500000000,-2.36000100000000
The Pig & Fiddle,BA1 5BR,51.38463500000000,-2.36000100000000
CURRY MAHAL UK LTD,BA1 5HR,51.38832600000000,-2.36135200000000
St Michaels Bath,BA1 5LJ,51.38412000000000,-2.36057200000000
The Broad Street Townhouse,BA1 5LP,51.3841,-2.3601
Mantra Progressive Indian,BA1 5LS,51.38531420000000,-2.36030920000000
The Hare & Hounds,BA1 5TJ,51.40339000000000,-2.37208100000000
Lansdown Tennis Squash & Croquet Club Ltd,BA1 5TN,51.39611100000000,-2.36499300000000
Ma Cuisine,BA1 6RT,51.3968,-2.3451
Larkhall Deli,BA1 6RY,51.39728700000000,-2.34474900000000
Bailbrook House Hotel,BA1 7JD,51.40125500000000,-2.33442900000000
Gather Cafe,BA1 7RA,51.40571785496940,-2.32038348551073
Papermill Tea Garden,BA1 8HG,51.4387,-2.3478
Blathwayt Arms,BA1 9BT,51.41623200000000,-2.39588300000000
F & B caterers,BA1 9BT,51.41623200000000,-2.39588300000000
Lansdown Golf Club Trading Ltd,BA1 9BT,51.41623200000000,-2.39588300000000
Somerset Arms,BA14 6JR,51.34498400000000,-2.14747200000000
The Old Bear Inn,BA14 6PB,51.34481900000000,-2.20837500000000
The Tollgate Inn,BA14 6PX,51.35350300000000,-2.20417900000000
OLD HAM TREE,BA14 6PY,51.35422200000000,-2.20475600000000
The Moonraker Hotel,BA14 9BL,51.32838900000000,-2.22853800000000
The George at Woolley,BA15 1AQ,51.35016200000000,-2.24024800000000
The Bridge Tea Rooms,BA15 1BY,51.34631900000000,-2.25029300000000
Il Ponte Vechio Ltd,BA15 1DA,51.3459,-2.2518
Thai Barn Restaurant,BA15 1DA,51.34586700000000,-2.25181300000000
Timbrell's Yard,BA15 1DE,51.34609900000000,-2.25233100000000
OLEA MEDITERRANEAN ,BA15 1EJ,51.3469,-2.2499
The Weaving Shed,BA15 1EJ,51.34671600000000,-2.24959200000000
COFFEE ETC,BA15 1FG,51.34735400000000,-2.24982500000000
DOGHOUSE,BA15 1FG,51.34735488891600,-2.24982500076294
Pablos Bistro,BA15 1FG,51.34723700000000,-2.24998200000000
THE SHAMBLES COFFEE SHOP,BA15 1JS,51.34776600000000,-2.25058800000000
B.O.A Teapot (UK) LTD,BA15 1JX,51.34763200000000,-2.25025700000000
BEAR INN,BA15 1JY,51.34805600000000,-2.24959900000000
The Bunch of Grapes,BA15 1JY,51.34805600000000,-2.24959900000000
The Canal Tavern,BA15 1LE,51.34190200000000,-2.25150400000000
The Dandy Lion,BA15 1LL,51.34832200000000,-2.25132300000000
The Swan Hotel,BA15 1LN,51.34761800000000,-2.25261200000000
Priory Steps,BA15 1NQ,51.3486,-2.2533
The orchid cafe,BA15 1TS,51.34791700000000,-2.23409100000000
LFH (Woolley Grange) Limited ,BA15 1TX,51.35323100000000,-2.23437700000000
Boathouse,BA15 1UD,51.33532400000000,-2.23645300000000
Widbrook Grange,BA15 1UH,51.33418100000000,-2.24162900000000
The New Inn  Westwood,BA15 2AE,51.33038300000000,-2.26807600000000
The Barge Inn,BA15 2EA,51.34019100000000,-2.25278600000000
Hartley Farm Shop & Kitchen,BA15 2JB,51.3567,-2.2877
The Seven Stars,BA15 2LQ,51.34696600000000,-2.28950900000000
Cumberwell Park,BA15 2PQ,51.36676500000000,-2.25928200000000
Leigh Park Hotel,BA15 2RA,51.35625900000000,-2.24440200000000
Merkins Farm Cafe,BA15 2RW,51.36213900000000,-2.23123400000000
McDonalds,BA2 1EP,51.38076700000000,-2.39109300000000
The Bear Hotel,BA2 3AQ,51.37406600000000,-2.36681400000000
Pizza Hut,BA2 3BQ,51.37983300000000,-2.37153000000000
matty s cafe,BA2 3BT,51.38125800000000,-2.37585200000000
Mintroom,BA2 3EB,51.38099600000000,-2.37333600000000
The Belvoir Castle,BA2 3EH,51.38161900000000,-2.37536600000000
Domino's Pizza,BA2 3PN,51.37710500000000,-2.37826000000000
Subway,BA2 3PN,51.37718150000000,-2.37851710000000
Opa Meze Restaurant,BA2 4AJ,51.38066400000000,-2.35571700000000
La Perla Restaurant,BA2 4AL,51.38068900000000,-2.35659400000000
Bodrum BBQ Bath Ltd,BA2 4AN,51.38269510000000,-2.35820500000000
CAPPADOCIA RESTAURANT (BATH) LTD,BA2 4AN,51.38264846801760,-2.35814690589905
Joya Italian Steakhouse,BA2 4AN,51.38253700000000,-2.35807400000000
Cortado Cafe,BA2 4AS,51.3829,-2.3587
Turtle Bay,BA2 4AS,51.38295800000000,-2.35859400000000
The Bridge Coffee Shop,BA2 4AY,51.38303200000000,-2.35779000000000
ANTICA PULTNEY BRIDGE RESTAURANT,BA2 4BA,51.38338300000000,-2.35750500000000
Chez Dominique,BA2 4BQ,51.38321400000000,-2.35705900000000
The Herd Steak Restaurant,BA2 4BQ,51.38321400000000,-2.35705900000000
No15 Great Pulteney,BA2 4BS,51.38458490000000,-2.35474220000000
Benugo Ltd,BA2 4DB,51.38575000000000,-2.35092800000000
Framptons,BA2 4DF,51.38231200000000,-2.35789900000000
Dexter's coffee shop,BA2 4EN,51.38266754150390,-2.34936809539795
The Bird  Bath,BA2 4EZ,51.38281250000000,-2.35184001922607
Ring O Bells,BA2 4JT,51.3764,-2.3543
Bikanos Indian Cuisine,BA2 4LD,51.37668400000000,-2.35478000000000
Mús Coffee House,BA2 4LD,51.37668400000000,-2.35478000000000
Widcombe Deli ,BA2 4LD,51.37668400000000,-2.35478100000000
The Good Bear Cafe,BA2 4QW,51.37457100000000,-2.36657400000000
THE CROSS KEYS INN,BA2 5RZ,51.35583800000000,-2.36467200000000
Bath Golf Club,BA2 6JG,51.38314520000000,-2.33682660000000
The Roseate Villa Bath,BA2 6LX,51.38685989379880,-2.35559296607971
The barley mow ,BA2 6NZ,51.38674500000000,-2.35211400000000
The Rising Sun Inn,BA2 6PJ,51.38437200000000,-2.35759900000000
The American Museum in Britain,BA2 7BD,51.37536900000000,-2.31132500000000
the hope and anchor,BA2 7DD,51.34470600000000,-2.34399500000000
The Packhorse Inn,BA2 7DU,51.34961600000000,-2.36460900000000
The Wheatsheaf Inn,BA2 7EG,51.33792114257810,-2.38339304924011
Limpley Stoke Hotel,BA2 7FZ,51.34694300000000,-2.31592800000000
Wheelwrights Arms,BA2 7HB,51.35645900000000,-2.32792700000000
Combe Grove Manor,BA2 7HS,51.36076400000000,-2.32863300000000
CASTLE FARM CAFE MIDFORD,BA2 7PU,51.3524,-2.3542
Homewood,BA2 7TB,51.33639600000000,-2.31891300000000
Henrys Oriental Chinese Restaurant,BS37 6AD,51.5385,-2.3928
The Squire Inn,BS37 6AD,51.53851000000000,-2.39283500000000
The Beaufort Hunt,BS37 6AG,51.53798000000000,-2.39265700000000
The Coffee Bean ,BS37 6AG,51.53798000000000,-2.39265700000000
The Royal Oak,BS37 6AG,51.53798000000000,-2.39265700000000
IL Gusto Chipping Sodbury,BS37 6AR,51.53802890000000,-2.39717390000000
Tudor Raj,BS37 6AS,51.53836822509770,-2.39779305458069
The Hamptons Deli,BS37 6BA,51.53843800000000,-2.39545800000000
Megna catering ltd,BS37 6DA,51.53771600000000,-2.39104000000000
Siam Thai,BS37 6DA,51.53771600000000,-2.39104000000000
The Portcullis Hotel,BS37 6DA,51.53771500000000,-2.39103900000000
The Bell at Old Sodbury,BS37 6LL,51.53356600000000,-2.38138800000000
The Dog Inn,BS37 6LZ,51.53207300000000,-2.35583000000000
Chipping Sodbury Golf Club,BS37 6PU,51.5493,-2.3892
The Wishing Well  Codrington,BS37 6RY,51.50838851928710,-2.39551496505737
The Players Club,BS37 6RZ,51.5112,-2.3894
The Fox and Hounds Inn,GL9 1HW,51.52526200000000,-2.27781100000000
The Compass Inn,GL9 1JB,51.50724200000000,-2.33945600000000
Costa Coffee,SN10 1AG,51.35217100000000,-1.99286800000000
1Spice,SN10 1AH,51.35231500000000,-1.99252400000000
Brogans,SN10 1AJ,51.35219800000000,-1.99378800000000
REEVE THE BAKER LTD,SN10 1AJ,51.35219800000000,-1.99378800000000
Massimo's Ristorante Italiano Limited,SN10 1AT,51.35165800000000,-1.99456300000000
The Peppermill (Devizes) Ltd,SN10 1BL,51.35188300000000,-1.99572700000000
Bengal Bite Tandoori,SN10 1DJ,51.35068700000000,-1.99100200000000
Jeffersons ,SN10 1DN,51.35255800000000,-1.99222300000000
The White Bear,SN10 1DN,51.35255800000000,-1.99222300000000
The Raintree,SN10 1DP,51.35314200000000,-1.99375900000000
Castle Hotel Devizes,SN10 1DS,51.35353800000000,-1.99337100000000
Kingfisher Cafe,SN10 1EB,51.3547,-1.9950
Tea Inc Devizes,SN10 1HN,51.35288100000000,-1.99518000000000
The Pelican Inn ,SN10 1HT,51.35253100000000,-1.99648800000000
Devizes Times Square,SN10 1JG,51.3528,-1.9953
New Society ,SN10 1JG,51.35295900000000,-1.99569320000000
Pizza Express,SN10 1JG,51.35278300000000,-1.99532400000000
Times Square,SN10 1JG,51.35278300000000,-1.99532400000000
Costa Coffee,SN10 1JQ,51.35329500000000,-1.99654500000000
Bell by the Green,SN10 1LQ,51.35233300000000,-1.98887700000000
Rowdey Cow Farm Cafe,SN10 2LX,51.36279800000000,-2.01941000000000
The George and Dragon ,SN10 2PN,51.36333500000000,-2.03176300000000
Antica Roma ,SN11 0BJ,51.43834686279300,-2.00551700592041
Infusions Tea Rooms,SN11 0BS,51.43889500000000,-2.00528600000000
Spice of Bengal,SN11 0BZ,51.43997400000000,-2.00498400000000
The Lansdowne Strand Hotel,SN11 0EH,51.43794200000000,-2.00547300000000
Costa Coffee,SN11 0HA,51.43968700000000,-2.00475400000000
The Farmhouse cafe  bakery and deli,SN11 0HA,51.43968700000000,-2.00475400000000
Sampaguita,SN11 0QZ,51.43716000000000,-2.00374700000000
Fay's Bistro,SN11 0RD,51.43821200000000,-2.00489800000000
The Dumb Post Inn,SN11 9JZ,51.4529,-2.0352
Gurkha Baynjan ltd,SN11 9LX,51.4390,-2.0438
Jester's Adventure Play,SN11 9PL,51.45278700000000,-1.99635100000000
Bowood Hotel  Spa & Golf Resort,SN11 9PQ,51.4273,-2.0550
MOJA KHABAR LIMITED,SN12 6ES,51.3709,-2.1394
Henry's of Melksham,SN12 6JU,51.37252800000000,-2.13800700000000
Costa Coffee,SN12 6JY,51.37333120000000,-2.13810510000000
antico caffe ,SN12 6LP,51.37554800000000,-2.13877700000000
The brewery inn,SN12 6PX,51.34847700000000,-2.10136300000000
Springers Cafe,SN12 6SP,51.35652100000000,-2.13110800000000
The Pig and Whistle ,SN12 7AU,51.38169200000000,-2.12794700000000
Lowden Garden Centre Restaurant,SN12 8EZ,51.39088800000000,-2.17828900000000
Il Vello D’Oro at the Golden Fleece ,SN12 8HB,51.39123100000000,-2.17728400000000
THE WHITE HART,SN12 8JR,51.39255800000000,-2.19136000000000
THE BELL ON THE COMMON,SN12 8LX,51.37609300000000,-2.18060200000000
The Pear Tree,SN12 8QX,51.39657200000000,-2.17108100000000
McDonald's Restaurant,SN12 8RP,51.38191700000000,-2.14317900000000
Mcdonalds Restaurant Ltd,SN12 8RP,51.38191700000000,-2.14317900000000
The café Corsham ,SN13 0ES,51.43168000000000,-2.18585600000000
Mother & Wild,SN13 0HB,51.43184300000000,-2.18544000000000
The Methuen Arms,SN13 0HB,51.43184300000000,-2.18544000000000
Grounded,SN13 0HL,51.43190500000000,-2.18613000000000
Hare & Hounds,SN13 0HY,51.43430400000000,-2.19787900000000
DONNINGTON CASTLE CONFERENCES LTD,SN13 0PS,51.43948300000000,-2.21343900000000
The Café at Hartham Park,SN13 0RP,51.4473,-2.2015
The Northey Arms,SN13 8AE,51.41618500000000,-2.26652200000000
The Quarrymans Arms,SN13 8HN,51.42264500000000,-2.23947800000000
Forage  Wadswick,SN13 8JB,51.41013336181640,-2.22421503067017
The Birdhouse Cafe,SN13 8NA,51.41765975952150,-2.25013709068298
THE QUEENS HEAD,SN13 8NH,51.41527100000000,-2.25294200000000
The Greenhouse,SN13 9FN,51.41345596313480,-2.21570491790771
The Great Western,SN13 9JA,51.42769920000000,-2.18353670000000
The Neston Country Inn,SN13 9SN,51.41577700000000,-2.20005600000000
McDonald's Restaurant,SN14 0AF,51.44819500000000,-2.14979000000000
McDonalds Restaurant,SN14 0AF,51.44819500000000,-2.14979000000000
Elior,SN14 0WT,51.44578900000000,-2.14722100000000
The Neeld Arms,SN14 6AP,51.51961800000000,-2.20192400000000
Stanton Manor Hotel,SN14 6DQ,51.51814800000000,-2.13612700000000
The Hullavington Arms,SN14 6DU,51.53573900000000,-2.15498000000000
Burger King,SN14 6LB,51.51180648803710,-2.15824198722839
Costa Coffee (East),SN14 6LB,51.51180800000000,-2.15824100000000
The Bell Inn,SN14 7BG,51.48731800000000,-2.19286600000000
White Horse ,SN14 7DG,51.46083000000000,-2.19723100000000
Manor House Hotel (Castle Combe) Limited,SN14 7HR,51.4938,-2.2322
The Salutation Inn,SN14 7LH,51.51057400000000,-2.23478100000000
The Old House At Home,SN14 7LT,51.51449584960938,-2.26685047149658
The Bull at Hinton,SN14 8HG,51.48944800000000,-2.38571500000000
Tollgate Catering LTD,SN14 8LF,51.47061920166020,-2.36612010002136
Sweetapples Tea Shop ,SN14 8LR,51.46198300000000,-2.31867900000000
The Catherine wheel,SN14 8LR,51.46198300000000,-2.31868000000000
The Raj (Chippenham) Ltd,SN15 1EG,51.4609,-2.1174
Elior UK Ltd,SN15 1ER,51.46094000000000,-2.11525800000000
Prezzo,SN15 1ES,51.46049500000000,-2.11863900000000
Subway ,SN15 1EX,51.45983200000000,-2.11728500000000
Pizza Hut,SN15 1HH,51.46102700000000,-2.11829500000000
La passione,SN15 1HZ,51.46368000000000,-2.11755400000000
Nourishers,SN15 1JX,51.4626,-2.1215
Tale of Spice,SN15 1QA,51.4712,-2.1241
Grounded,SN15 2BB,51.45876900000000,-2.11836100000000
Haveli Indian Bromham ,SN15 2DF,51.37913200000000,-2.03359900000000
The Westbrook Inn,SN15 2EE,51.38965700000000,-2.06581300000000
The Greyhound,SN15 2HA,51.38752400000000,-2.05256000000000
Sign of the Angel,SN15 2LB,51.41620900000000,-2.12186100000000
Waterfall Elior,SN15 2NY,51.43055100000000,-2.11194400000000
The Bell inn,SN15 2PJ,51.41155700000000,-2.10734100000000
Rising Sun Pub,SN15 2PP,51.40985300000000,-2.09166500000000
The George Inn Sandy Lane,SN15 2PX,51.4133,-2.0538
The Packhorse,SN15 3BA,51.45188600000000,-2.10462900000000
Buckles,SN15 3BS,51.45689400000000,-2.11445600000000
The Gladstone Arms (Chippenham) Ltd,SN15 3BW,51.45680300000000,-2.11543500000000
Coffee#1,SN15 3EU,51.45849350000000,-2.11490380000000
Costa Coffee,SN15 3EU,51.45856600000000,-2.11505100000000
Angel Hotel     ,SN15 3HD,51.45791000000000,-2.11500600000000
Sarah-Jaynes Cafe,SN15 3HD,51.45791000000000,-2.11500600000000
Pizza Express,SN15 3HW,51.45735400000000,-2.11356500000000
Boswells Cafe,SN15 3JP,51.45934800000000,-2.11508100000000
Waterfall Elior,SN15 3QD,51.46237200000000,-2.11210900000000
Caffe Nero,SN15 3WL,51.45845600000000,-2.11690700000000
The Peterborough Arms,SN15 4HD,51.52127500000000,-2.00842400000000
The Foxham Inn,SN15 4NQ,51.49590301513672,-2.03692650794983
The Wellesley Arms,SN15 4RD,51.50589600000000,-2.08494200000000
The Bell House Hotel,SN15 4RH,51.5069,-2.0776
La Flambe Restaurant,SN15 4RY,51.50786000000000,-2.07851900000000
The Volunteer Inn,SN15 5EL,51.54219436645508,-2.05377745628357
the new inn,SN15 5HA,51.52512200000000,-2.08105700000000
Chippenham Pit Stop,SN15 5LH,51.51212800000000,-2.10589100000000
Chippenham Golf Club,SN15 5LT,51.47974300000000,-2.13002200000000
