name,postcode,lat,lon
gaboon viper and Puffleg,LL53 6AU,52.932115459135300,-4.553718016746600
gaboon viper and Booted eagles,LL53 6BQ,52.903501790177500,-4.380303619998610
rock snake and amethystine python,LL53 6DJ,52.954120075308100,-4.355659897571950
wall lizard and Vole,LL53 6DP,52.904517633775500,-4.492905079257010
agama and amphisbaena,LL53 6EA,52.935768000000000,-4.523841000000000
rock snake and moloch,LL53 6EN,52.935474353168900,-4.534598759800110
Old World vulture and Perching duck,LL53 6EQ,52.931589000000000,-4.556499000000000
bicycle lizard and River dolphin,LL53 6EW,52.937118909640700,-4.538430492344950
bull snake and adder,LL53 6LA,52.936522835118500,-4.518705995554970
Old World warbler and Peafowl,LL53 6LE,52.937179208354700,-4.518282769291300
python and slowworm,LL53 6LP,52.943023000000000,-4.485057000000000
Jerboa and anole,LL53 6PS,52.919883991533700,-4.335026429375580
Chicken and asp,LL53 6RR,52.919231743199300,-4.408642993882570
Jay and garter snake,LL53 6YZ,52.922583528009900,-4.560848561097700
sea snake and krait,LL53 8PJ,52.916638795965900,-4.471377485567370
Solitaire and Mouse,LL53 8UH,52.911734000000000,-4.547788000000000
bicycle lizard and Duck,LL53 8UT,52.913453735768900,-4.536703512070600
rat snake and rat snake,LL54 5AT,52.976454073568700,-4.404601262453150
constrictor and boa,LL54 5BG,52.967054000000000,-4.350064000000000
viper and Black jay,LL54 5EN,53.035149000000000,-4.346652000000000
Marsh harrier and Mouse,LL54 5HR,52.993572097429900,-4.424925000000000
Armadillo and thorn lizard,LL54 5HY,52.995121489278200,-4.423566318698290
Wallaby and Asiatic leopard,LL54 5NL,53.020287421746500,-4.365139592137810
Partridge and tiger snake,LL54 5NR,53.018797000000000,-4.363716000000000
