name,postcode,lat,lon
diamondback and Mink,LL51 9NQ,52.972596430332700,-4.237925000000000
crocodile and water snake,LL51 9PQ,52.958774917796300,-4.259994746173280
Chicken and boa,LL51 9RQ,52.964787946708100,-4.226773067903400
deaf adder and anaconda,LL52 0BU,52.918858782321900,-4.236478937186120
puff adder and python,LL52 0DD,52.918731961621500,-4.233184900704590
Wader and turtle,LL52 0ND,52.936544023307200,-4.252198440482200
Pheasant and Black jay,LL52 0NU,52.958418000000000,-4.301150653288180
death adder and Night heron,LL52 0TB,52.917643459267700,-4.238945068436110
Dolphin and Parakeet,LL53 5YF,52.903489674927000,-4.399664704392090
boomslang and New World blackbird,LL53 5YG,52.904216000000000,-4.397147000000000
habu and Kestrel,LL53 6AL,52.931415317351700,-4.547382178817990
gavial and Marmoset,LL53 6AW,52.932627000000000,-4.550072000000000
Elephant and Solitaire,LL53 6DE,52.934818595362600,-4.554710644999310
blue racer and Rabbit,LL53 6EW,52.937118909640700,-4.538430492344950
cobra and dugite,LL53 6HG,52.934590575368900,-4.519933096717680
Vulture and Pheasant,LL53 6HR,52.934075075044000,-4.516257125810400
habu and Solitaire,LL53 6JA,52.926005351482100,-4.562285588531260
Marsh harrier and Old World quail,LL53 6LJ,52.933346000000000,-4.345086212419960
Jay and carpet snake,LL53 6LN,52.938757236204800,-4.508298486864410
death adder and slowworm,LL53 6NR,52.960074521355400,-4.451165000000000
Kangaroo and Pratincole,LL53 6PE,52.961099691295900,-4.448912126147730
Diving bird and gavial,LL53 6PG,52.949277231586000,-4.391481356009250
Mink and Crow,LL53 6PT,52.927941058125500,-4.346842688346890
taipan and sea snake,LL53 6RN,52.955011754619300,-4.400939432494140
Coati and Tree warbler,LL53 6SJ,52.914655720726300,-4.296056759067190
Philippine hawk-owl and Chipmunk,LL53 6UF,52.925415298770000,-4.387397966006830
Siskin and Buzzard,LL53 6UH,52.924977695421100,-4.383669221748750
flying lizard and Polecat,LL53 6UW,52.924632000000000,-4.381686000000000
Philippine hawk-owl and Rabbit,LL53 8DQ,52.921869504953600,-4.450436000000000
Kākāriki and Logrunners,LL53 8UY,52.913710705427400,-4.509378868054470
Mink and Mamo,LL54 5AL,52.975504060981300,-4.403347000000000
cayman and cerastes,LL54 5LW,52.993489674753900,-4.427182000000000
Wallaby and Badger,LL54 5PW,53.009113975969500,-4.384354722348320
Cuscus and cayman,LL54 5SF,53.087204484318200,-4.288613720144210
Pheasant and coral snake,LL54 5SG,53.087753346848700,-4.290927755632480
River dolphin and bull snake,LL54 5TH,53.085991815611700,-4.306708374859920
Grouse and agamid,LL54 6BA,53.050019980935300,-4.247474854875880
American sparrow and Vole,LL54 6DD,53.046311729951600,-4.281671468188810
hawksbill and frill-necked lizard,LL54 6EA,53.028792564376800,-4.272991175929430
Cuscus and amethystine python,LL54 6LG,53.060639067948600,-4.248863578118430
horned viper and Pitohui,LL54 7AB,53.072553970058600,-4.248290364382960
hognose snake and Treepie,LL54 7AP,53.082102154919700,-4.250238000000000
Herring gull and blue tongue,LL54 7BN,53.070073033787100,-4.226754725253530
Badger and snake,LL54 7DN,53.075349821348500,-4.267725137490070
green turtle and Night heron,LL54 7DY,53.078724771230400,-4.274143665811740
Hawk and Black jay,LL54 7HD,53.093135300306200,-4.234398062050030
Parrotlet and gavial,LL54 7HP,53.089122657671100,-4.231188303294870
amethystine python and Dorcopsis,LL54 7RA,53.082124578163000,-4.235186329133600
Songlark and Vole,LL54 7RF,53.071098942124100,-4.216596903489750
worm lizard and Partridge,LL54 7TW,53.075560668159000,-4.276455178117370
turtle and lizard,LL54 7UF,53.080015093569100,-4.290770507277450
Scimitar babbler and gecko,LL54 7UP,53.112532670337400,-4.267455685983530
Francolin and dugite,LL54 7UW,53.112711000000000,-4.268565263348140
River dolphin and Asiatic leopard,LL55 4HQ,53.121562273698700,-4.226845661807590
cobra de capello and Viscacha,LL55 4PZ,53.109870421450000,-4.201438469119440
Black cockatoo and Boto,LL55 4ZA,53.111510690307000,-4.205049233369500
