name,postcode,lat,lon
Lewis's of Farndon,CH3 6PU,53.0851,-2.8788
GIFFORD LEA MANAGEMENT LTD,CH3 9DN,53.1207,-2.7924
Carden Park Hotel Ltd,CH3 9DQ,53.0740,-2.8077
ALDERSEY GREEN GOLF CLUB,CH3 9EH,53.1043,-2.8058
The Lakeside Cafe,CH3 9EN,53.0902,-2.8203
The Egerton Arms,CH3 9JW,53.0835,-2.7782
Chandlers Restaurant Limited,CH3 9PF,53.1048,-2.7174
The Pheasant Inn,CH3 9PF,53.1049,-2.7173
The Sportsman’s Arms ,CH3 9QF,53.1217,-2.7649
The Olde Barbridge Inn,CW5 6AY,53.1063,-2.5756
Bhurtpore Inn,CW5 8DQ,53.0184,-2.5830
The Park Wrenbury ,CW5 8EW,53.0249,-2.6053
The Dusty Miller Country Pub & Restaurant,CW5 8HG,53.0279,-2.6127
The Thatch inn,CW5 8JE,53.0720,-2.6179
The Nags Head,CW6 9PB,53.1161,-2.6509
Tillys Coffee Shop,CW6 9QS,53.1147,-2.6523
The Yew Tree Inn,CW6 9RD,53.1104,-2.6542
Peckforton Castle,CW6 9TN,53.1080,-2.6910
rossett hall,LL12 0DE,53.1107,-2.9447
The Nags Head  Lavister,LL12 0DN,53.1172,-2.9388
The Hideout Bistro & Bar,LL12 0HW,53.1085,-2.9462
Buck House Hotel,LL13 0BU,53.0030,-2.9128
Royal Oak,LL13 0BU,53.0030,-2.9128
Two Doves Coffee and Gift Shop Overton,LL13 0EE,52.9690,-2.9348
The Trotting Mare,LL13 0LE,52.9507,-2.9330
Harvey’s grill,LL13 9PS,53.0387,-2.9267
Holt Lodge Hotel,LL13 9SW,53.0671,-2.9159
Baxterstorey  Staff Canteen,LL13 9UT,53.0488,-2.9166
The doghouse coffee lounge ,LL13 9UT,53.0503,-2.9172
Cleopatras Coffee Shop & Bistro,LL13 9YG,53.0793,-2.8814
Two Doves Coffee and Gift Shop Holt,LL13 9YL,53.0784,-2.8819
Bellis Brothers Ltd,LL13 9YU,53.0759,-2.8875
Meze Greek Restaurant,SY12 0AW,52.9082,-2.8932
The vault,SY12 0DE,52.9071,-2.8939
cherry tree cafe,SY12 0DG,52.9065,-2.8957
Black Lion Hotel,SY12 0EG,52.9068,-2.8954
Coco coffee bar ,SY12 0EG,52.9068,-2.8954
The Corner House ,SY12 0EP,52.9071,-2.8932
ELLESMERE CUISINE LTD,SY12 0ET,52.9066,-2.8923
The Red Lion Coaching Inn,SY12 0HD,52.9082,-2.8899
The Boathouse Ellesmere,SY12 0PA,52.9036,-2.8822
Sun Inn,SY12 0PH,52.9095,-2.8408
CHESTERS FISH AND CHIPS,SY13 1AA,52.9692,-2.6816
Jones's coffee house,SY13 1AA,52.9691,-2.6817
Swallow Chinese Restaurant,SY13 1AA,52.9691,-2.6817
The Wheatsheaf Whitchurch Limited,SY13 1AD,52.9693,-2.6818
Benjamins's,SY13 1AW,52.9691,-2.6833
The Black Bear,SY13 1AZ,52.9702,-2.6846
Etzio Italian kitchen ,SY13 1BB,52.9700,-2.6849
Reubens Bar and BBQ,SY13 1BG,52.9693,-2.6847
fiona's coffee shop,SY13 1DP,52.9679,-2.6831
the bulls head,SY13 1DP,52.9679,-2.6831
Cafe Bon Sol,SY13 1DW,52.9686,-2.6835
Nicky bs Cakes and Catering Limited,SY13 1DW,52.9686,-2.6835
The Dodington Lodge,SY13 1EN,52.9655,-2.6799
McDonald's,SY13 1JZ,52.9670,-2.7053
McDonalds @ Whitchurch Services,SY13 1JZ,52.9670,-2.7053
Starbucks,SY13 1JZ,52.9665,-2.7053
Blue Water Spices Indian Ltd,SY13 1QP,52.9697,-2.6786
THAI VINTAGE,SY13 1SH,52.9678,-2.6859
Holly Farm Garden Centre and Nursery,SY13 2DD,52.9105,-2.6609
Bull and Dog,SY13 2RA,52.9044,-2.7015
Midway Truck Stop Ltd,SY13 3JT,52.9377,-2.6616
The Raven Cafe,SY13 3JT,52.9377,-2.6616
Park View Cafe,SY13 4AL,52.9938,-2.5956
White Lion Ash Community Pub Limited,SY13 4DR,52.9527,-2.6387
Willeymoor lock tavern,SY13 4HF,53.0017,-2.6953
The Swan At Marbury,SY13 4LS,53.0075,-2.6542
The Olde Jack Inn,SY13 4PA,52.9328,-2.5948
The Horse & Jockey,SY13 4QJ,52.9835,-2.7129
The Bull,SY14 7BL,53.0373,-2.8382
Cock O'Barton,SY14 7HU,53.0826,-2.8248
Queens Head(Sarn)Ltd,SY14 7LN,52.9962,-2.8354
The Bickerton Poacher,SY14 8BE,53.0856,-2.7130
The Cholmondeley Arms,SY14 8HN,53.0498,-2.6687
Forts Of India Hampton Limited,SY14 8JH,53.0394,-2.7489
The Old Fire Station Cafe Bar,SY14 8NR,53.0209,-2.7664
A Table at Eatons,SY14 8NU,53.0196,-2.7663
