name,postcode,lat,lon
Lewis's of Farndon,CH3 6PU,53.085053000000000,-2.878763000000000
The Lakeside Cafe,CH3 9EN,53.090181000000000,-2.820275000000000
ParcFarm Holiday Park,CH7 4QW,53.095813000000000,-3.184655000000000
Bank Street Social,LL11 1AH,53.045708436803100,-2.992672020685080
King Street Coffee Company,LL11 1LF,53.048035667359900,-2.996230000000000
Heaven Coffee Shop Limited,LL11 1LR,53.047027294548200,-2.995133838853770
M & Ems ltd t/a Subway,LL11 1RR,53.047226261319700,-2.997137340161610
McDonald's,LL11 1SA,53.046726580175200,-2.995752000000000
Lot 11 ,LL11 1SN,53.045960000000000,-2.995903367997090
Rock Suite Limited,LL11 1SN,53.045960000000000,-2.995903367997090
Desserts.wrexham ltd,LL11 1SU,53.045828680461500,-2.995494060520300
Tyn Y Capel Inn & Restaurant ,LL11 3DA,53.059045237576300,-3.091579486091370
Golden Lion ,LL11 3RP,53.050499471926300,-3.068448604337680
The Copper Kettle,LL11 3RY,53.052771039983300,-3.069758029679540
Eat with Kev,LL11 5BT,53.075554000000000,-3.054366000000000
rossett hall,LL12 0DE,53.110687624838400,-2.944734413982760
The Hideout Bistro & Bar,LL12 0HW,53.108466000000000,-2.946272099443810
The Plough Inn,LL12 8NE,53.085236681183600,-2.970678277798580
Buck House Hotel,LL13 0BU,53.003213849608700,-2.912030233434950
The Boat at Erbistock,LL13 0DL,52.967182000000000,-2.961509000000000
The Trotting Mare,LL13 0LE,52.948710000000000,-2.930498000000000
kings mill,LL13 0NS,53.036455753521200,-2.977784490549510
Stables Coffee Shop,LL13 0SP,53.002585793539300,-2.962057320813000
The Haybank Clubhouse & Grill,LL13 0SP,53.002585793539300,-2.962057320813000
Ramada Plaza Wrexham,LL13 7YH,53.049824949584700,-3.011951439382660
Smoke shed,LL13 8AD,53.045863344367600,-2.992421994928040
KFC,LL13 8BY,53.046165000000000,-2.989759000000000
M & Ems ltd t/a Subway,LL13 8DB,53.045484616345200,-2.989205000000000
Sleepy Panda Chinese Restaurant,LL13 8DE,53.047092552134100,-2.987303791896620
Frisky Pudding,LL13 8HY,53.044955955346800,-2.992476000000000
The Bank Wine Bar,LL13 8HY,53.044955955346800,-2.992476000000000
The Fat Boar Wrecsam,LL13 8LW,53.044613393399500,-2.991393878840940
the diner,LL13 8UH,53.043987800361400,-2.979014024486600
Cleopatras Coffee Shop & Bistro,LL13 9YG,53.079297475533500,-2.881392875271480
The Hampden Arms,LL14 3UG,52.982964319379800,-3.069060063584930
THE LITTLE KITCHEN (CYMRU) LIMITED,LL14 3YD,52.974946000000000,-3.070143000000000
 Glyn Wylfa Ltd /Caffi Wylfa,LL14 5BS,52.930709121404300,-3.059842085145720
hand hotel chirk,LL14 5EY,52.932508193769400,-3.056687300816870
Wynnstay Arms,LL14 6BL,52.987549000000000,-3.038819190864650
Duke of Wellington ,LL14 6DE,52.986233754535100,-3.041016512624670
The Swan Inn Pontfadog,LL20 7AR,52.936196000000000,-3.138300000000000
The Mulberry Inn,LL20 7BB,52.925211904653000,-3.156680874996110
PONTCYSYLLTE CHAPEL TEAROOM,LL20 7TR,52.973907397081800,-3.087377177489040
the telford inn,LL20 7TT,52.973324000000000,-3.086394000000000
The Wild Pheasant Hotel & Spa,LL20 8AD,52.973051000000000,-3.179164000000000
The Courtyard Coffee Shop,LL20 8NY,52.970039000000000,-3.170163000000000
THE THREE EAGLES (LLANGOLLEN) ltd,LL20 8PF,52.970101965716700,-3.169107099469080
PRETTY VINTAGE TEAROOMS AND BARISTA COFFEE,LL20 8RP,52.969614159574100,-3.169347075927780
NEMO,LL20 8RU,52.969263848613300,-3.170231058395940
The Carriage Tearoom,LL20 8SN,52.971846371116200,-3.171804884156950
HENLLE HEIGHTS,SY10 7AX,52.911589661259600,-3.033128382499610
The Butchers Arms,SY10 7LH,52.906543000000000,-3.074180000000000
The Lodge Inn - Top House,SY10 7RG,52.913811470886600,-3.066537975884850
Stans Superstore,SY11 3AY,52.923860985997000,-3.007969659688590
Lion Quays Hotel & Spa,SY11 3EN,52.913634794664000,-3.042902955507670
Cave Valley Kitchens,SY11 3EU,52.918955001042400,-3.014028066648800
Black Lion Hotel,SY12 0EG,52.906837939209400,-2.895358322410330
Coco coffee bar ,SY12 0EG,52.906837939209400,-2.895358322410330
The Corner House ,SY12 0EP,52.907133252935400,-2.893148932893150
The Red Lion Coaching Inn,SY12 0HD,52.908236168177700,-2.889930102389580
Sun Inn,SY12 0PH,52.909799000000000,-2.840796577832260
The Bull,SY14 7BL,53.037279160625300,-2.838150740982320
Cock O'Barton,SY14 7HU,53.082633767104500,-2.824491000000000
Queens Head(Sarn)Ltd,SY14 7LN,52.996171979436900,-2.835402438968110
