name,postcode,lat,lon
FINALE THAI TAPAS AND DINING,DE1 1BE,52.9228,-1.4792
The Squashed Tomato,DE1 1BE,52.9228,-1.4792
The Coffee House,DE1 1BS,52.9229,-1.4800
The Wardwick,DE1 1BS,52.9229,-1.4800
Fat Cat Derby,DE1 1BU,52.9235,-1.4825
Okra restaurant ,DE1 1BU,52.9235,-1.4825
The Distillery,DE1 1BU,52.9236,-1.4825
The Spice Lounge at Number 10 ltd,DE1 1BU,52.9236,-1.4825
BISTROT PIERRE - DERBY,DE1 1BX,52.9239,-1.4847
Bean Cafe Limited,DE1 1EE,52.9243,-1.4837
Elements Tea and Coffee House,DE1 1ES,52.9218,-1.4777
Lorentes,DE1 1EX,52.9233,-1.4829
The Dining Room,DE1 1EX,52.9232,-1.4827
The Greyhound,DE1 1FN,52.9245,-1.4889
The Old Road Cafe,DE1 1GA,52.9248,-1.4917
Annies Burger Shack,DE1 1JF,52.9222,-1.4839
YueYing Limited (T/A Moonsha Restaurant),DE1 1JF,52.9222,-1.4839
Himalayan Gurkha Restaurant,DE1 1LF,52.9208,-1.4812
Eastern spice ltd,DE1 1LH,52.9223,-1.4819
MASALA RESTAURANT,DE1 1LH,52.9223,-1.4819
Cafe Ashiana,DE1 1LL,52.9225,-1.4822
Tubbybears Playzone Ltd,DE1 1LR,52.9210,-1.4906
The Bookcafe Derby,DE1 1QH,52.9222,-1.4774
Bombay club,DE1 1RP,52.9207,-1.4781
THAI BORAN STREET FOOD LIMITED,DE1 1RP,52.9207,-1.4781
Pulse Gaming Lounge,DE1 1RS,52.9207,-1.4777
MCDONALDS RESTAURANT,DE1 1SH,52.9210,-1.4765
McDonald's,DE1 1SH,52.9208,-1.4763
Istanbul Derby Ltd,DE1 1SR,52.9197,-1.4757
Hunters Coffee Shop,DE1 1SY,52.9193,-1.4769
The Babington Arms Derby (Wetherspoon),DE1 1TA,52.9191,-1.4764
Subway,DE1 2AA,52.9211,-1.4759
Costa Coffee,DE1 2AB,52.9192,-1.4719
White horse,DE1 2AW,52.9220,-1.4743
Wrapstars,DE1 2AW,52.9221,-1.4744
Derby Entertainment Canter Limited  ,DE1 2AY,52.9221,-1.4723
Holiday Inn Derby - Riverlights,DE1 2AY,52.9221,-1.4723
Costa Coffee,DE1 2AZ,52.9189,-1.4722
Thyme,DE1 2BB,52.9224,-1.4714
Just-Ice,DE1 2DB,52.9225,-1.4759
Subway,DE1 2DG,52.9224,-1.4766
Birds Bakery,DE1 2DS,52.9219,-1.4756
The Tap,DE1 2ED,52.9249,-1.4727
Exeter Arms,DE1 2EU,52.9246,-1.4726
KASPAS,DE1 2HR,52.9188,-1.4752
Grillzilla Grill,DE1 2JA,52.9186,-1.4746
BRITANNIA CAFE,DE1 2JZ,52.9218,-1.4747
VEDI FOOD,DE1 2LH,52.9182,-1.4689
Costa Coffee,DE1 2NL,52.9196,-1.4724
KFC,DE1 2NP,52.9203,-1.4740
Nando's,DE1 2NQ,52.9197,-1.4731
Caruso cafe boutique,DE1 2NR,52.9202,-1.4751
Heavenly Desserts Derby,DE1 2NS,52.9191,-1.4723
Heavenly Desserts,DE1 2NS,52.9191,-1.4723
GELATO DIVINO,DE1 2NZ,52.9189,-1.4745
YI VENTURES LTD,DE1 2NZ,52.9189,-1.4745
Muffin Break Derby,DE1 2PG,52.9194,-1.4725
BEAR intu Derby,DE1 2PL,52.9196,-1.4743
Costa Coffee,DE1 2PL,52.9186,-1.4727
German Doner Kebab Derby,DE1 2PL,52.9196,-1.4743
Rikshaw Indian Street Food Group Limited,DE1 2PL,52.9196,-1.4743
Yangtze Derby,DE1 2PL,52.9196,-1.4743
Yo Sushi,DE1 2PL,52.9194,-1.4740
grand cafe caruso,DE1 2PL,52.9196,-1.4743
Harper's British Classics,DE1 2PQ,52.9194,-1.4727
KFC,DE1 2PQ,52.9194,-1.4727
Pasta4u ,DE1 2PQ,52.9194,-1.4727
Subway,DE1 2PQ,52.9194,-1.4727
Tasty plaice,DE1 2PQ,52.9194,-1.4727
THE OLIVE TREE CAFE,DE1 2PR,52.9209,-1.4743
Anoki,DE1 2QN,52.9154,-1.4674
Pepitos Restaurant LTD,DE1 2QN,52.9154,-1.4674
Brenda’s Cafe Limited,DE1 2QQ,52.9160,-1.4680
XS Restaurant - Stuart Hotel,DE1 2QR,52.9164,-1.4683
The Royal Telegrah,DE1 2QS,52.9173,-1.4703
London Road Community Hospital,DE1 2QY,52.9143,-1.4686
BRUNSWICK INN,DE1 2RU,52.9173,-1.4642
Costa Coffee,DE1 2RU,52.9162,-1.4633
WATERFALL,DE1 2RU,52.9173,-1.4642
Shalimar Gold ,DE1 2SN,52.9153,-1.4664
The Viceroy ,DE1 2SN,52.9153,-1.4664
MANZO STEAK AND GRILL,DE1 2SR,52.9146,-1.4669
Delizia Fast Food Ltd,DE1 2SU,52.9145,-1.4661
Monmos Grill Limited ,DE1 2SU,52.9145,-1.4661
mt everest restaurant & bar ltd,DE1 2SU,52.9145,-1.4661
ACROPOLIS CAFE BAR,DE1 3AE,52.9228,-1.4766
Hide burger bar,DE1 3AF,52.9244,-1.4751
Thyme,DE1 3AF,52.9245,-1.4753
Five Lamps,DE1 3BH,52.9285,-1.4822
Furnace Inn,DE1 3BX,52.9284,-1.4767
AFRIKANA DERBY LIMITED,DE1 3DE,52.9250,-1.4783
BEAR Derby,DE1 3FJ,52.9242,-1.4772
The Standing Order Derby (Wetherspoon),DE1 3GL,52.9240,-1.4777
The Thomas Leaper Derby (Wetherspoon),DE1 3GL,52.9242,-1.4777
Hari Hari,DE1 3GP,52.9243,-1.4783
The European Restaurant,DE1 3GP,52.9243,-1.4783
Woodlark Inn,DE1 3LA,52.9252,-1.4879
Milk and Honey Deli Ltd,DE1 3NF,52.9234,-1.4784
The Kitchen,DE1 3NQ,52.9231,-1.4783
Plant Cafe & Bar,DE1 3NR,52.9230,-1.4795
The Wonky Table Restaurant,DE1 3NR,52.9230,-1.4795
RASK,DE1 3NT,52.9238,-1.4803
THAI DUSIT,DE1 3NT,52.9238,-1.4803
The Forge black Rock steak house ,DE1 3PD,52.9235,-1.4791
The Palfrey ,DE1 3PD,52.9234,-1.4792
Harvey Luke limited trading as Kava Coffee Bar,DE21 2SF,52.9479,-1.4196
Slice of India,DE21 4AW,52.9379,-1.4643
Pizza Hub,DE21 4DG,52.9423,-1.4537
McDonald's Breadsall - Meteor Centre,DE21 4RY,52.9437,-1.4623
KFC,DE21 4RZ,52.9403,-1.4633
KFC,DE21 4SY,52.9411,-1.4651
Fox and Hounds,DE21 5BA,52.9844,-1.4498
Horsley Lodge Ltd,DE21 5BL,52.9934,-1.4342
the coach and horses,DE21 5BQ,52.9963,-1.4358
D&D Baxter,DE21 5DE,52.9679,-1.4601
The Queens Head,DE21 5DF,52.9675,-1.4610
The New Inn,DE21 5DR,52.9658,-1.4629
Damsons Coffee House,DE21 5LL,52.9562,-1.4517
Thyme,DE21 6BF,52.9159,-1.4313
Pizza Hut,DE21 6NA,52.9249,-1.4397
Costa Coffee,DE21 6NZ,52.9175,-1.4346
MCDONALDS RESTAURANT,DE21 6NZ,52.9171,-1.4365
McDonald's,DE21 6NZ,52.9180,-1.4354
Asar business ltd,DE21 6PE,52.9246,-1.4405
Scoops Express,DE21 6PF,52.9237,-1.4382
KFC,DE21 6RS,52.9188,-1.4408
kfc,DE21 6RS,52.9184,-1.4421
Bluebell Dairy ltd,DE21 7AR,52.9225,-1.4074
Just One More Cafe ,DE21 7FH,52.9198,-1.4042
MCDONALDS RESTAURANT,DE21 7HX,52.9017,-1.4247
McDonald's,DE21 7HX,52.9015,-1.4255
Cafe Aroma,DE21 7JQ,52.9218,-1.4047
clock bistro,DE21 7JQ,52.9218,-1.4047
the malt shovel,DE21 7LH,52.9197,-1.4084
Alfies Bar and Restaurant ,DE21 7NE,52.9139,-1.4100
GURKHA JUNCTION RESTAURANT,DE21 7NP,52.9123,-1.4029
The Cottonworks,DE22 1DZ,52.9433,-1.4751
POINTSIX Coffee House ,DE22 1FT,52.9326,-1.4934
The Coach House (Derby),DE22 1JB,52.9395,-1.4846
The Little Shed,DE22 2DR,52.9556,-1.4801
Red Cow,DE22 2DZ,52.9538,-1.4844
The Delicatessen,DE22 2GP,52.9537,-1.4954
COSTA COFFEE,DE22 2QN,52.9441,-1.4960
Costa Coffee,DE22 2QN,52.9444,-1.4959
Fours Seasons Park Farm ,DE22 2QN,52.9441,-1.4960
The Peacock Lounge,DE22 2QN,52.9441,-1.4960
The lemon tree,DE22 2QQ,52.9436,-1.4964
white orchid cafe ,DE22 3AA,52.9254,-1.4906
georgian house hotel mr grundys tavern,DE22 3AD,52.9260,-1.4934
The Buttery Cafe,DE22 3AG,52.9271,-1.4975
Costa Coffee,DE22 3FA,52.9213,-1.5062
Clip n Climb Derby,DE22 3FP,52.9222,-1.5088
Bakes Shakes Cakes,DE22 3FQ,52.9253,-1.4919
Beefeater The Mallard,DE22 3HN,52.9128,-1.5137
Pizza Hut,DE22 3LJ,52.9179,-1.4993
Balti International,DE22 3LL,52.9185,-1.4987
Costa Coffee,DE22 3NE,52.9111,-1.5146
Royal Derby Hospital,DE22 3NE,52.9104,-1.5135
Subway,DE22 3NF,52.9210,-1.5096
FUSION OF INDIA,DE22 3SJ,52.9214,-1.4829
Tastymunch,DE22 3SJ,52.9214,-1.4829
Emily's Steakhouse,DE22 3TX,52.9213,-1.4835
Buttons,DE22 3WP,52.9176,-1.4855
MCDONALDS RESTAURANT,DE22 4AA,52.9288,-1.5061
McDonald's,DE22 4AA,52.9286,-1.5061
The Parlour Tea Rooms,DE22 4NH,52.9377,-1.5105
The Potting Shed,DE22 4NH,52.9377,-1.5105
THE JOINERS ARMS,DE22 5JA,52.9637,-1.5048
Kedleston Country House,DE22 5JD,52.9643,-1.5200
Kedleston park Golf Club,DE22 5JD,52.9643,-1.5200
Wildgoose Catering Ltd,DE22 5JD,52.9643,-1.5200
Mumbai Chill Ltd,DE23 1JB,52.9022,-1.4866
Gates caterers,DE23 6FG,52.9074,-1.5168
Zing Vaa,DE23 6FN,52.9071,-1.5033
Red Chilli Indian Limited,DE23 6FQ,52.9056,-1.5064
THE WHITE SWAN,DE23 6GA,52.9051,-1.5064
Rasoi Hut,DE23 6QB,52.9068,-1.4777
Normanton Cafe ,DE23 6QG,52.9082,-1.4793
Chai Factory Limited t/a Chaiiwala,DE23 6RH,52.9114,-1.4770
Romaneasca Diner,DE23 6US,52.9127,-1.4765
Yum burger ,DE23 6US,52.9127,-1.4765
Veggie Master Derby,DE23 6UT,52.9109,-1.4773
Dixy Chicken,DE23 6UU,52.9098,-1.4781
PEPES PIRI PIRI,DE23 6WE,52.9097,-1.4787
Rajas Peri Peri,DE23 6WE,52.9097,-1.4787
Saifs Grill ltd,DE23 6WE,52.9097,-1.4787
Scoops Diner,DE23 6WE,52.9097,-1.4787
The Grange Banqueting Suite Ltd,DE23 6XX,52.9054,-1.5027
Buttons,DE23 8EZ,52.9097,-1.4750
Cakestarz,DE23 8EZ,52.9097,-1.4750
Tastymunch,DE23 8NQ,52.9052,-1.4753
Powerleague Soccerdome,DE24 8BW,52.9161,-1.4459
Subway,DE24 8BW,52.9161,-1.4459
Seven Restaurant & Cafe Bar,DE24 8SQ,52.9150,-1.4577
Gilberts Kitchen & Deli,DE3 0DA,52.9046,-1.5444
MASONS ARMS,DE3 0DL,52.9036,-1.5475
Ocean Fresh at Steves,DE3 0GB,52.9043,-1.5438
THE HONEYCOMB,DE3 0NR,52.9136,-1.5521
Cinnamon Lounge,DE3 0QF,52.9129,-1.5529
Milly mays coffee shop,DE3 0QF,52.9129,-1.5529
The Great Northern,DE3 9FB,52.9212,-1.5417
British Legion (Mickleover) Club Ltd,DE3 9GB,52.9109,-1.5389
Uppercase Coffee Shop,DE3 9GH,52.9063,-1.5440
Hodgkinsons Hotel & Restaurant,DE4 3NR,53.1198,-1.5632
Riverside Fish Restaurant ,DE4 3NR,53.1198,-1.5632
The Fishpond,DE4 3NR,53.1198,-1.5632
The Restoration Cafe,DE4 3NR,53.1199,-1.5636
Kostas Fish Bar,DE4 3NS,53.1218,-1.5608
Promenade fish bar ,DE4 3NS,53.1218,-1.5609
The Balti Restaurant,DE4 3NT,53.1224,-1.5583
Terrace Cafe at the Heights of Abraham,DE4 3PD,53.1217,-1.5666
Vista Bar & Restaurant at the Heights of Abraham,DE4 3PD,53.1217,-1.5666
New Bath Hotel & Spa,DE4 3PX,53.1152,-1.5612
The Greyhound Hotel Bar & Restaurant,DE4 3QE,53.1089,-1.5602
Alison House,DE4 3RH,53.1060,-1.5536
Arkwrights Cafe,DE4 3RQ,53.1087,-1.5559
Wheatcrofts Wharf Cafe,DE4 3RQ,53.1089,-1.5555
The Coffee Bunker,DE4 4DR,53.0818,-1.5732
Hope and Anchor,DE4 4ET,53.0825,-1.5741
Le Mistral,DE4 4ET,53.0825,-1.5741
Red Lion Hotel Wirksworth,DE4 4ET,53.0825,-1.5741
Sour Cow ,DE4 4ET,53.0825,-1.5741
The Jug and Glass,DE4 5GJ,53.1144,-1.5129
The Family Tree,DE4 5HG,53.0856,-1.5063
The Brown Bear Coffee Shop,DE5 3AB,53.0497,-1.4066
Costa Coffee,DE5 3AJ,53.0499,-1.4052
ripleys fish and chips,DE5 3BN,53.0503,-1.4040
The Red Lion Ripley (Wetherspoon),DE5 3BS,53.0508,-1.4075
KITCHEN KATHMANDU,DE5 3BU,53.0511,-1.4057
Shapla spice ,DE5 3BU,53.0511,-1.4057
Sylhet spice,DE5 3EF,53.0494,-1.4028
Undal,DE5 3EH,53.0491,-1.4032
Seafish Restaurant,DE5 3FP,53.0514,-1.4112
Thorn Tree,DE5 3HA,53.0497,-1.4077
Cookhouse + Pub Butterley Park,DE5 3QP,53.0554,-1.3983
McDonald's Ripley - Butterley Park,DE5 3QP,53.0549,-1.3972
The Dog Inn Pentrich,DE5 3RE,53.0677,-1.4196
The Holly Bush,DE5 8JA,53.0409,-1.4072
the village inn at marehay,DE5 8JF,53.0330,-1.4101
Lumb Farm,DE5 8JN,53.0333,-1.4054
Bourne's Restaurant,DE5 8NX,53.0224,-1.4139
Denby Lodge,DE5 8PH,53.0138,-1.4100
The Bulls Head - Bar & Restaurant,DE5 8PW,53.0202,-1.3914
Jeera Restaurant Limited,DE5 9QB,53.0434,-1.3757
POET & CASTLE,DE5 9QY,53.0444,-1.3743
The Marquis - Pub & Kitchen,DE5 9SP,53.0323,-1.3813
the pantry,DE55 1BG,53.0786,-1.3983
BP SWANWICK SERVICE STATION,DE55 1HJ,53.0875,-1.3945
ISTANBUL BBQ,DE55 2AB,53.1019,-1.3440
Toastie Shack,DE55 2BP,53.1072,-1.3420
The School House Restaurant ,DE55 2BT,53.1080,-1.3389
Brewers Fayre The Castlewood,DE55 2DY,53.1047,-1.3211
McDonald's,DE55 2EG,53.1092,-1.3172
McDonald's,DE55 2EG,53.1093,-1.3169
HOLIDAY INN SOUTH NORMANTON M1 JCT 28,DE55 2EH,53.1034,-1.3238
Burger King,DE55 2ER,53.1074,-1.3091
Harry Ramsdens,DE55 2ER,53.0996,-1.3322
Starbucks Mansfield,DE55 2ER,53.0996,-1.3322
200 Degrees,DE55 2JW,53.1068,-1.3100
Chopstix Derby,DE55 2JW,53.1068,-1.3100
Costa Coffee,DE55 2JW,53.1065,-1.3113
Cowgirl coffee,DE55 2JW,53.1068,-1.3100
SPUDULIKE MANSFIELD,DE55 2JW,53.1070,-1.3105
Subway McArthurglen,DE55 2JW,53.1068,-1.3100
Yorkshire Puddies ,DE55 2JW,53.1070,-1.3105
The Moulder's Arms,DE55 4BX,53.0699,-1.3588
KFC,DE55 4HQ,53.0878,-1.3758
kfc,DE55 4HQ,53.0856,-1.3743
The Landing Pad Cafe,DE55 4JN,53.0847,-1.3749
hilcote country club,DE55 5HR,53.1180,-1.3351
The Red Lion,DE55 6BB,53.1222,-1.4046
The Plough Inn at Brackenfield ,DE55 6DD,53.1246,-1.4608
The Horse & Jockey,DE55 6DW,53.1173,-1.4492
Waggon and Horses Alfreton (Wetherspoon),DE55 7AF,53.0971,-1.3903
made at no 18,DE55 7AH,53.0977,-1.3919
King Alfred,DE55 7BE,53.0974,-1.3867
Subway,DE55 7BN,53.0974,-1.3893
Louby's Ltd,DE55 7DD,53.0958,-1.3913
Costa Coffee,DE55 7DP,53.0976,-1.3875
Costa Coffee,DE55 7DP,53.0978,-1.3868
BrightEyes Softplay and cafe LTD,DE55 7DQ,53.0969,-1.3917
McDonald's,DE55 7FA,53.0882,-1.3760
McDonald's,DE55 7FA,53.0882,-1.3761
Alfreton House Tearooms ,DE55 7HH,53.0974,-1.3850
Pesto at the Peacock,DE55 7LN,53.0999,-1.4205
The White Hart Inn,DE55 7NU,53.1016,-1.4630
The Railside Cafe,DE55 7RG,53.1018,-1.3725
Elior UK At Kilburn Care Centre Nursing Care,DE56 0NR,53.0080,-1.4315
Soi Kitchens,DE56 0QW,53.0019,-1.4802
The Strutt Arms,DE56 0QW,53.0019,-1.4802
Just-Ice,DE56 0RN,53.0058,-1.4814
Makeney Hall Hotel ,DE56 0RS,52.9963,-1.4769
Holly Bush Inn Makeney LTD,DE56 0RX,52.9985,-1.4768
The Spotted Calf,DE56 0TA,52.9998,-1.4587
The Spotted Cow ,DE56 0TA,52.9998,-1.4587
DEAD POETS INN,DE56 0TQ,53.0052,-1.4602
Belfields Bistro,DE56 1AR,53.0220,-1.4843
Laurens courtyard coffee shop ,DE56 1AR,53.0220,-1.4843
The Bookcafe Belper,DE56 1AR,53.0221,-1.4843
The Filling Station,DE56 1AR,53.0220,-1.4843
Georges Tradition,DE56 1AX,53.0242,-1.4846
THE LION HOTEL,DE56 1AX,53.0242,-1.4846
Elaichi restaurant,DE56 1AZ,53.0263,-1.4851
River Garden,DE56 1AZ,53.0263,-1.4851
The Belper Tap ,DE56 1AZ,53.0261,-1.4851
Dot-teas Emporium ,DE56 1BA,53.0263,-1.4857
The Devonshire,DE56 1BA,53.0263,-1.4857
Bengal Blues,DE56 1FZ,53.0233,-1.4790
Cafe G &restaurant ,DE56 1PL,53.0231,-1.4820
Nourish at no44,DE56 1PL,53.0231,-1.4820
Costa Coffee,DE56 1PW,53.0233,-1.4836
The Railway,DE56 1PW,53.0233,-1.4836
Fresh Basil,DE56 1UN,53.0229,-1.4810
I Should Cocoa,DE56 1UN,53.0229,-1.4810
NONNO'S PIZZERIA,DE56 1UN,53.0229,-1.4810
Praan Restaurant,DE56 1UN,53.0229,-1.4810
The Perfect Cuppa,DE56 1UN,53.0229,-1.4810
Rice Bowl,DE56 1US,53.0217,-1.4820
The Tavern,DE56 1UU,53.0172,-1.4845
The Spanker Inn,DE56 2AT,53.0513,-1.4636
Black Boy Inn,DE56 2BN,53.0453,-1.4506
Shottle Hall,DE56 2EB,53.0255,-1.5409
The Hurt Arms,DE56 2EJ,53.0589,-1.4825
THE EXCAVATOR,DE56 2HS,53.0620,-1.4419
The Railway Inn,DE56 2LF,53.0206,-1.5391
The Tiger Inn,DE56 2LH,53.0160,-1.5572
The Black Swan,DE56 2SG,53.0365,-1.5729
Armando's Restaurant at The Talbot Hotel,DE56 2UA,53.0300,-1.4872
The Bluebell Inn,DE56 2UP,53.0188,-1.5011
Croots Farm Shop Ltd,DE56 4AQ,52.9947,-1.5196
Glasshouse Cafe and Gift Shop Limited,DE56 4AQ,52.9929,-1.5151
Angelos Bistro,DE56 4EH,52.9870,-1.4881
Godfreys cafe bistro ,DE56 4EH,52.9870,-1.4881
Viceroy Duffield ,DE56 4ER,52.9873,-1.4894
The White Hart  Duffield,DE56 4GD,52.9859,-1.4876
The Cock Inn Mugginton Ltd,DE6 4PJ,52.9924,-1.5739
The Cowshed Tearooms ltd,DE7 4PH,52.9375,-1.3405
Stanhope Arms,DE7 4QA,52.9377,-1.3092
Pizza Hut,DE7 5NN,52.9659,-1.3043
The Observatory Ilkeston (Wetherspoon),DE7 5QA,52.9715,-1.3081
Star Pizza Express,DE7 5QJ,52.9682,-1.3089
Peony gifts and kitchen ,DE7 6AW,53.0007,-1.4164
Old Black Horse,DE7 6BY,52.9827,-1.3553
Morley Hayes Leisure Ltd,DE7 6DG,52.9826,-1.4061
Gold Diamond D Breadsall Priory 2005 Ltd,DE7 6DL,52.9680,-1.4269
The Bell,DE7 6EF,52.9965,-1.3940
the white hart,DE7 6EX,52.9556,-1.3811
Oakfield farm shop,DE7 6FP,52.9741,-1.3759
The Bottle Kiln,DE7 6HP,52.9744,-1.3579
The Newdigate,DE7 6HW,52.9735,-1.3391
Costa Coffee,DE7 8AG,52.9728,-1.3078
RADHUNI TANDOORI,DE7 8AS,52.9765,-1.3097
KFC,DE7 8DG,52.9781,-1.3055
KFC,DE7 8DG,52.9781,-1.3072
MCDONALDS RESTAURANT,DE7 8DG,52.9781,-1.3072
McDonald's,DE7 8DG,52.9783,-1.3045
Humble Rutland cafe,DE7 8DH,52.9784,-1.3089
The FACTORY KITCHEN ILKESTON LTD,DE7 8DH,52.9784,-1.3089
Harpur and finch tea rooms ltd ,DE7 8FD,52.9737,-1.3086
Georges Tradition,DE7 8FH,52.9768,-1.3090
ilkeston coffee bean,DE7 8FH,52.9768,-1.3090
SJ JHAKHAS SPICE LTD,DE7 8HP,52.9789,-1.3095
Rutland Cottage,DE7 8TE,52.9857,-1.3168
The Mallard,DE7 8TJ,52.9932,-1.3216
PipTree Cafe at Collyers Nurseries,DE72 3FR,52.9061,-1.3655
Caffe Torta,DE72 3JU,52.9065,-1.3808
Katie's Kitchen,DE72 3JW,52.9066,-1.3819
Rajni,DE72 3JW,52.9066,-1.3819
THE WHITE SWAN,DE72 3RB,52.9171,-1.3722
Royal Oak,DE72 3SE,52.9235,-1.3725
Risley Hall Hotel,DE72 3SS,52.9175,-1.3221
The Risley Park,DE72 3SS,52.9172,-1.3223
James’ coffee shop,DE72 3TT,52.9116,-1.3227
Royal Breakfast,DE75 7AA,53.0138,-1.3531
Costa Coffee,DE75 7EX,53.0154,-1.3580
NOBLE HOUSE,DE75 7GE,53.0133,-1.3560
Heanor Garden Centre,DE75 7JB,53.0005,-1.3332
Jolly colliers,DE75 7QL,53.0122,-1.3641
Bennetts Hotel Restaurant and Bar,NG10 1LW,52.9005,-1.2742
The Sportsman,NG10 4HA,52.9021,-1.2783
Chandelier Indian Restaurant ltd ,NG10 4LA,52.9004,-1.2769
Savvy-Sandwich & Salad Bar,NG10 4LS,52.9019,-1.2815
Street Food Kitchen ,NG10 4NN,52.9041,-1.2831
Sirac,NG10 4NZ,52.9015,-1.2965
Torino Pizza,NG10 4QP,52.9008,-1.2768
Buonissima Aperitivo bar,NG10 5BG,52.9227,-1.2870
Appertize Sandwich Bar ,NG10 5HL,52.9218,-1.2963
Bridge Inn,NG10 5LW,52.9154,-1.2900
Java Hotels LLP,NG10 5NL,52.9179,-1.3029
Clifton McDonalds,NG11 8NA,52.9059,-1.1881
KFC,NG11 8NA,52.9060,-1.1882
McDonald's,NG11 8NA,52.9055,-1.1883
kfc,NG11 8NA,52.9059,-1.1881
L'Oreal ,NG15 0DF,53.0683,-1.2586
Mour Hotel,NG15 0EA,53.0680,-1.2520
THE BROOMHILL INN,NG15 6AJ,53.0272,-1.1988
Arunothai,NG15 6DY,53.0299,-1.2074
Green Dragon Hucknall,NG15 6GR,53.0210,-1.2272
Costa Coffee,NG15 7AX,53.0382,-1.2027
Costa Hucknall,NG15 7AX,53.0385,-1.2038
The Pilgrim Oak Hucknall (Wetherspoon),NG15 7AX,53.0381,-1.2025
HALF MOON,NG15 7BS,53.0384,-1.2056
New Era Restaurants Ltd t/a Moda,NG15 7DE,53.0420,-1.2115
Mrs C's Vintage Tea Room,NG15 7HJ,53.0375,-1.2019
Alaskan Ice Ltd,NG15 7LE,53.0376,-1.2030
Lotus Spice,NG15 7SB,53.0318,-1.1957
Pizza Hut,NG15 7SB,53.0314,-1.1956
The Station Hotel,NG15 7TQ,53.0390,-1.1977
McDonald's Hucknall,NG15 7UQ,53.0361,-1.1954
THE HORSE AND GROOM,NG15 8AE,53.0542,-1.2027
Bella Mia Restaurant,NG15 8AY,53.0480,-1.2151
Roses Pantry,NG15 9BD,53.0855,-1.1659
The Larch Farm,NG15 9HA,53.0931,-1.1788
Santini,NG15 9HG,53.0917,-1.1773
Nawaab Saab,NG16 1DP,52.9952,-1.2326
Royal Oak,NG16 1HS,53.0065,-1.2534
Lime Restaurant,NG16 1PT,52.9865,-1.2289
Hayloft,NG16 2GB,53.0086,-1.2851
Eatz Cafe,NG16 2LP,52.9971,-1.2579
Madhatters tearoom,NG16 2LP,52.9971,-1.2579
Simla Restaurant ,NG16 2LP,52.9971,-1.2579
The Dog House at Kimberley,NG16 2NG,52.9971,-1.2553
Rumbletums (Kimberley) Ltd,NG16 2NH,52.9976,-1.2555
Cricketers Rest,NG16 2NP,52.9981,-1.2576
HOGS HEAD HOTEL LTD,NG16 2RN,52.9946,-1.2805
Costa Coffee,NG16 2RP,53.0014,-1.2809
Starbucks Giltbrook,NG16 2RP,53.0029,-1.2821
Subway Giltbrook,NG16 2RP,53.0029,-1.2821
The Lady Chatterley Nottingham (Wetherspoon),NG16 3AL,53.0180,-1.3050
Eats n Treats,NG16 3AN,53.0182,-1.3063
Julie's,NG16 3AQ,53.0187,-1.3079
connies kitchen,NG16 3AW,53.0183,-1.3069
The White Peacock Coffee Shop,NG16 3AY,53.0186,-1.3054
Olive Tree Grill,NG16 3GR,53.0143,-1.2946
GURKHA EXPRESS EASTWOOD LTD,NG16 3NQ,53.0179,-1.3067
Olivers Pub And Kitchen,NG16 3NQ,53.0179,-1.3067
Great Northern,NG16 4AA,53.0200,-1.3238
McDonald's Langley Mill,NG16 4AE,53.0199,-1.3273
Basilia ,NG16 4ED,53.0206,-1.3280
ROYAL GURKHA,NG16 4EW,53.0228,-1.3276
The Thorn Tree,NG16 4HG,53.0363,-1.3614
KFC,NG16 4HY,53.0175,-1.3236
The Headstocks Tearoom and takeaway ,NG16 5AB,53.0342,-1.3131
BRINSLEY LODGE INN,NG16 5AE,53.0326,-1.3094
The Dog and Quayle pub,NG16 5FF,53.0529,-1.2907
1958 Coffee  House,NG16 5FX,53.0548,-1.2895
Red Lion,NG16 5HD,53.0578,-1.2948
The Shepherds Rest (Bagthorpe)Ltd,NG16 5HF,53.0592,-1.3053
Pauline Pantry,NG16 5JW,53.0589,-1.3365
Codnor Park & Ironville Club,NG16 5PJ,53.0583,-1.3506
Grandma's Kitchen,NG16 6JP,53.0957,-1.3167
The boat inn,NG16 6PN,53.0835,-1.3264
SEAFISH RESTAURANT LTD,NG17 1AL,53.1239,-1.2646
Costa Coffee,NG17 1AQ,53.1239,-1.2636
Kings Caffe,NG17 1AT,53.1234,-1.2635
McDonald's,NG17 1BE,53.1245,-1.2587
Duke of Sussex (Sutton in Ashfield) Ltd,NG17 1JN,53.1139,-1.2881
Teamworks Karting East Midlands,NG17 2NB,53.1176,-1.2997
Peppinos ,NG17 5FH,53.1230,-1.2563
Rumbles at The Lawn Community Cafe,NG17 5FU,53.1236,-1.2545
the junction,NG17 5JP,53.1212,-1.2355
Asylum Academy for Extreme Sports,NG17 5LD,53.1229,-1.2336
Coxmoor Golf Club,NG17 5LF,53.1143,-1.2235
The Tea Room,NG17 7AR,53.0992,-1.2475
Through The Looking Glass,NG17 7AS,53.0990,-1.2464
Subway,NG17 7BQ,53.0994,-1.2439
The Regent KirkbyinAshfield (Wetherspoon),NG17 7BQ,53.0987,-1.2441
Ribbons tea room,NG17 7DR,53.0972,-1.2436
FullerFlavour,NG17 7LJ,53.1056,-1.2474
Notts Golf Club Ltd,NG17 7QR,53.0846,-1.2223
EGO at the Old Ashfield,NG17 8HX,53.1141,-1.2681
The Countryman Pub,NG17 9LE,53.0913,-1.2758
KFC,NG19 4AN,53.0195,-1.3248
Costa Coffee,NG2 1RU,52.9328,-1.1656
Cafe Pas Mama ,NG5 1DZ,52.9778,-1.1646
STADIUM LEISURE,NG5 1EG,52.9796,-1.1671
Fox Hotel,NG5 1HY,52.9835,-1.1731
Waterfall Elior,NG5 1JU,52.9819,-1.1746
Maureens coffee shop & cafe ,NG5 5EJ,53.0105,-1.1741
Subway,NG5 9DD,53.0022,-1.1783
Buzz Bingo,NG5 9RU,52.9977,-1.1780
KFC,NG6 8AJ,53.0056,-1.1931
McDonald's Bulwell,NG6 8EP,53.0104,-1.1898
McDonald's,NG6 8EP,53.0101,-1.1906
kfc,NG6 8EP,53.0104,-1.1898
Costa Bulwell,NG6 8EW,53.0018,-1.1960
Costa Coffee,NG6 8EW,53.0018,-1.1961
The William Peverel Nottingham (Wetherspoon),NG6 8EZ,53.0025,-1.1962
limekiln pub,NG6 8GE,53.0052,-1.2084
Red Kangaroo,NG6 8WA,53.0077,-1.2170
Waterfall Elior Group,NG6 9EU,52.9934,-1.1862
Beefeater The Boathouse,NG7 1GX,52.9450,-1.1661
McDonald's,NG7 1GX,52.9449,-1.1629
Avocafe by Nutri2Go,NG7 1RR,52.9513,-1.1730
Sonnets Cafe,NG7 2BY,52.9532,-1.1765
subway,NG7 2DZ,52.9474,-1.1829
savera Restaurant Limited,NG7 2EB,52.9454,-1.1867
Chaska,NG7 2ET,52.9480,-1.1746
higoi japanese restaurant,NG7 2FQ,52.9497,-1.1751
Chartwell Compass Group,NG7 2NR,52.9358,-1.1719
Taste of India Restaurant,NG7 2NZ,52.9425,-1.1801
TV Conferencing Ltd,NG7 2PX,52.9421,-1.1716
Waterfall Elior,NG7 2UH,52.9434,-1.1858
jukebox cafe,NG7 3AD,52.9609,-1.1726
2days grill house limited ,NG7 3AQ,52.9603,-1.1756
UK PIZZA,NG7 3BN,52.9582,-1.1759
The Garden Nottingham Ltd,NG7 3FY,52.9553,-1.1819
White Horse Cafe,NG7 3FY,52.9553,-1.1819
The Sir John Borlase Warren,NG7 3GD,52.9558,-1.1628
MAMAPAPAS WOK,NG7 3HA,52.9558,-1.1695
Aloowala,NG7 3HE,52.9557,-1.1716
Buns Burgers Shakes Fries Nottingham,NG7 3HE,52.9557,-1.1716
Jo's Pancake House,NG7 3HE,52.9557,-1.1716
Pink Petal Tea Room Ltd,NG7 3JE,52.9568,-1.1637
The Falcon Inn,NG7 3JE,52.9565,-1.1632
BOSPHORUS RESTAURANT,NG7 3JL,52.9573,-1.1649
Baklava Bistro,NG7 3JL,52.9572,-1.1648
Spice Hut,NG7 3JR,52.9589,-1.1677
The Compatriot Ltd ,NG7 3JR,52.9589,-1.1676
Nottingnam pizza and Kabab house,NG7 3NG,52.9567,-1.1628
Sans Patrie LTD,NG7 3NG,52.9566,-1.1628
Tipoo Turkish Restaurant ,NG7 3NN,52.9572,-1.1639
COCHIN FORT,NG7 3NS,52.9589,-1.1670
hukka lounge ltd,NG7 3NS,52.9585,-1.1665
Dixy Chicken,NG7 3NU,52.9593,-1.1677
Mamma D's kitchen,NG7 3NW,52.9596,-1.1688
subway,NG7 3NY,52.9559,-1.1832
Lahore Chatkhara,NG7 5DQ,52.9631,-1.1694
Pendy's Caribbean Cuisine ,NG7 5DQ,52.9631,-1.1694
crispy chicken,NG7 5DQ,52.9634,-1.1694
Kabul express ,NG7 5DR,52.9641,-1.1699
Mahmoods ,NG7 5DU,52.9665,-1.1715
Royal chicken and pizza ,NG7 5FW,52.9658,-1.1702
Yumi Ice Cream Parlour Limited ,NG7 5FW,52.9658,-1.1702
ALE BOSCO LTD,NG7 5GT,52.9681,-1.1728
CHAPATI JUNCTION,NG7 5GT,52.9681,-1.1728
Chaiiwala Nottingham,NG7 5JD,52.9650,-1.1715
Freshe cafe,NG7 5JD,52.9650,-1.1715
Happy Haddock,NG7 5JD,52.9650,-1.1716
Royal Sweet Centre,NG7 5JD,52.9650,-1.1715
max's kebab,NG7 5LS,52.9622,-1.1718
KFC,NG7 5NH,52.9642,-1.1801
kfc,NG7 5NH,52.9641,-1.1789
Wafflebox,NG7 6AU,52.9686,-1.1692
AFRICAN BASE RESTAURANT LTD,NG7 7AJ,52.9752,-1.1639
WILLOW TREE INN,NG7 7DA,52.9771,-1.1674
Hajis,NG7 7DG,52.9793,-1.1701
BestOfBoth World ,NG7 7EA,52.9757,-1.1733
McDonald's Valley Road,NG7 7EX,52.9789,-1.1743
Lion Inn,NG7 7FQ,52.9721,-1.1741
The Wollaton,NG8 1GR,52.9587,-1.2112
MR MAN'S RESTAURANT,NG8 2AD,52.9536,-1.2130
Lotus Spice,NG8 2BA,52.9546,-1.2151
Birds Bakery,NG8 2QJ,52.9464,-1.2313
SUDA delicatessen & world Kitchen,NG8 2QJ,52.9464,-1.2313
The Cheesecake Shop Wollaton,NG8 2QJ,52.9464,-1.2313
The Cods Scallops,NG8 2QP,52.9464,-1.2325
Lotus Spice,NG8 3BS,52.9686,-1.2248
Sycamore Dining -Foxton Gardens,NG8 3FR,52.9668,-1.2065
Gurkha kitchen ,NG8 4GY,52.9574,-1.2338
Happy Haddock,NG8 4GY,52.9574,-1.2338
Nuthall Road McDonalds,NG8 5AZ,52.9681,-1.1836
Gingers cob shop,NG8 5BU,52.9762,-1.1894
MAKAMANA LIMITED,NG8 5GB,52.9709,-1.1975
The Indaba Hut Cafe,NG8 5GB,52.9709,-1.1974
5 star wings ,NG8 5RX,52.9728,-1.2092
KFC,NG8 6AD,52.9843,-1.1989
kfc,NG8 6AD,52.9838,-1.1973
Clip'n Climb Nottingham,NG8 6AR,52.9897,-1.2028
Beefeater Millers Barn,NG8 6AS,52.9878,-1.2080
The Nuthall,NG8 6AX,52.9869,-1.2092
Exceptional Hotels & Resorts Uk Ltd,NG8 6AZ,52.9859,-1.2008
Mulberry Tree Cafe,NG8 6PE,52.9745,-1.2478
Nottingham Belfry Hotel and Spa,NG8 6PY,52.9815,-1.2381
Lagan Indian Tapas,NG9 1AA,52.9262,-1.2169
The Last Post Beeston (Wetherspoon),NG9 1AA,52.9264,-1.2168
Japanese kitchen SORA -cafe & Izakaya Tapas,NG9 1EH,52.9239,-1.2184
Latino Restaurant ,NG9 1EH,52.9239,-1.2184
cottage balti restaurant,NG9 1ES,52.9229,-1.2202
Star Inn,NG9 1FX,52.9246,-1.2133
The Victoria Hotel,NG9 1JG,52.9207,-1.2103
RIVERSIDE BAR BEESTON MARINA,NG9 1NA,52.9132,-1.2082
Feed Me! Fully Loaded,NG9 1PX,52.9218,-1.2026
Amores Ristorante Ltd,NG9 2AZ,52.9237,-1.2105
subway,NG9 2FD,52.9273,-1.2042
Birds Bakery,NG9 2JG,52.9264,-1.2153
Costa Beeston,NG9 2JG,52.9264,-1.2156
Costa Coffee,NG9 2JG,52.9264,-1.2157
The Bean,NG9 2LA,52.9284,-1.2141
Cafe 94,NG9 2LF,52.9282,-1.2131
Pizza Hut,NG9 2LF,52.9282,-1.2131
The Circle Eatery Beeston,NG9 2LF,52.9282,-1.2131
Christine's Delights ,NG9 2LH,52.9292,-1.2118
Korea house,NG9 2LH,52.9292,-1.2118
Lucky Restaurant Ltd ,NG9 2LH,52.9292,-1.2118
GORKHA EXPRESS LTD,NG9 2LN,52.9290,-1.2116
Metro Beeston,NG9 2LN,52.9290,-1.2116
Sanchans Thai Restaurant,NG9 2LN,52.9290,-1.2116
Maltshovel,NG9 2LU,52.9278,-1.2134
Yak & yeti Indian and Nepalese cuisine,NG9 2NG,52.9283,-1.2173
Beeston Break ,NG9 2NR,52.9277,-1.2161
The Lobster Pot Beeston,NG9 2NY,52.9281,-1.2152
Cafe Roya,NG9 2PE,52.9300,-1.2188
The Doughmother,NG9 2QS,52.9354,-1.2201
Sirac,NG9 2TP,52.9351,-1.2114
Beeston Fields Golf Club,NG9 3DD,52.9340,-1.2302
Foxwood Academy (Wilson Vale Catering),NG9 3GF,52.9381,-1.2493
The White lion ,NG9 3HH,52.9344,-1.2462
Costa Coffee,NG9 3PL,52.9618,-1.2687
Digg Cafe / Trowell Garden Centre Ltd,NG9 3TG,52.9491,-1.2710
Chilwell Manor Golf Club,NG9 5AE,52.9176,-1.2249
Haveli ,NG9 5JW,52.9116,-1.2376
Costa Coffee,NG9 6DS,52.9038,-1.2449
McDonald's,NG9 6DS,52.9028,-1.2440
Attenborough Nature Centre,NG9 6DY,52.9018,-1.2384
The Manor,NG9 6EF,52.9038,-1.2494
Costa Coffee,NG9 6GX,52.9087,-1.2568
The Admiral Sir John Borlase Warren Nottingham (Wetherspoon),NG9 7AA,52.9276,-1.2782
CINNAMON,NG9 7AY,52.9255,-1.2807
VIVO Restaurant Ltd,NG9 7AY,52.9254,-1.2807
Spice & Suave Ltd,NG9 7AZ,52.9242,-1.2805
The Sanctuary Coffee House,NG9 7HA,52.9289,-1.2743
Lady Jayne's Tearoom,NG9 7JA,52.9197,-1.2644
Gurkha Curry Nights ,NG9 8AA,52.9305,-1.2717
Millysfishbar,NG9 8GQ,52.9395,-1.2728
