name,postcode,lat,lon
tree snake and Parrotlet,LN10 6XS,53.119823628527600,-0.227829756350563
Bronzewing pigeon and Eagle,LN4 3BZ,53.111828000000000,-0.409178000000000
dukite and Capuchin,LN4 3JF,53.092595766408100,-0.423630036075782
amphisbaena and Francolin,LN4 3LR,53.093740141996100,-0.380965539702326
Logrunners and Fulmarine petrel,LN4 3PB,53.108006237483600,-0.401107000000000
perentie and gopher snake,LN4 3PG,53.107084175085100,-0.369319887572108
Warbler and milk snake,LN4 3QD,53.059380759357600,-0.397609297143834
Macaw and Fox,LN4 3RT,53.112827742427800,-0.326355000000000
Ice seal and soft-shelled turtle,LN4 4BF,53.076756441100000,-0.196189000000000
blue tongue and Old World warbler,LN4 4DL,53.060141806132700,-0.281436406160256
Ibex and hognose snake,LN4 4FN,53.081967270068600,-0.289361269255690
pit viper and garter snake,LN4 4JJ,53.088491000000000,-0.221540488476097
Argus and king snake,LN4 4JY,53.108029874773900,-0.166195174101237
viper and sand viper,LN4 4LW,53.105438914559500,-0.193120722355602
Warbler and fer-de-lance,LN4 4PN,53.106188425279600,-0.180943782623533
kabaragoya and cobra de capello,LN4 4QR,53.045045556382800,-0.196900731383402
Old World warbler and rat snake,LN4 4RD,53.111512477807200,-0.157680004205432
anaconda and Schneider python,LN4 4RG,53.109448969616600,-0.162026206153045
Warbler and Coati,LN4 4RJ,53.110532748732500,-0.158274691351138
boomslang and turtle,LN4 4RP,53.110253415418000,-0.155911069267217
Bronzewing pigeon and garter snake,LN4 4SG,53.105090860027500,-0.173849359814796
saltwater crocodile and habu,LN4 4XR,53.054628797913000,-0.159301817056349
sand lizard and Fox,LN4 4XT,53.064101725654500,-0.186627850609330
Ibex and Fox,LN4 4YA,53.082705192835700,-0.185024800428672
smooth snake and Marsh harrier,NG34 0BA,52.911966318657300,-0.381476505401987
Puffleg and Diving bird,NG34 0DA,52.969070083186000,-0.359672530467375
swift and Recurvebill,NG34 0DT,52.911859358662500,-0.408160336913415
Polecat and Jackal,NG34 0EA,52.912305000000000,-0.446570302089712
cycling lizard and Old World vulture,NG34 0EJ,52.922025952424400,-0.452978094822262
Viscacha and harlequin snake,NG34 0JP,52.925986270759300,-0.315793921213944
mountain devil and Stint,NG34 0JS,52.926197652347900,-0.295940058662015
coral snake and Kite,NG34 0JW,52.921802056924100,-0.300381874052043
Viscacha and Eagle,NG34 0PU,52.902401000000000,-0.347442000000000
Moluccan boobook and Gull,NG34 0RW,52.951940527703000,-0.301210063003469
amethystine python and Polecat,NG34 0SR,52.901883632159000,-0.425282499321944
Rat and Magpie,NG34 4AS,52.996401104587900,-0.409359147177485
Asiatic leopard and diamond snake,NG34 7BZ,53.000996362305200,-0.410129093783546
taipan and Mouse,NG34 7FR,52.993080246012300,-0.405741380916785
python and krait,NG34 7GB,52.998446202607800,-0.392966902570816
dukite and Old World quail,NG34 7HH,52.997891567659100,-0.403850515146887
cerastes and cycling lizard,NG34 7LF,52.994572179415300,-0.410409762654043
mud turtle and anaconda,NG34 7LJ,52.993250257157400,-0.414421608481886
bicycle lizard and taipan,NG34 7PJ,52.999324766216100,-0.411516756223222
black snake and horned toad,NG34 7PL,52.992261625060700,-0.420521827904190
mamba and Chipmunk,NG34 7QQ,52.998249195961600,-0.415803118177770
viper and sand lizard,NG34 7RA,52.989883821086400,-0.426970218191404
Kangaroo and hognose snake,NG34 7RZ,52.998781871456300,-0.410582983672361
Argus and mud turtle,NG34 7SF,52.999726390947800,-0.409952220613168
Chipmunk and milk snake,NG34 7WP,52.995544000000000,-0.420477000000000
black snake and bicycle lizard,NG34 7ZX,52.999115026864300,-0.407557000000000
Rat and rock python,NG34 8AB,53.007314742597000,-0.416067377086915
Thicketbird and krait,NG34 8EN,53.037608088947300,-0.457554255206548
ringhals and rattlesnake,NG34 8FY,52.982033449021500,-0.451656000000000
glass snake and snake,NG34 8HQ,52.982449820100000,-0.446724141600000
amethystine python and tokay,NG34 8LL,53.027609472597700,-0.421109597900510
diamondback and giant tortoise,NG34 8NN,53.028326448030900,-0.427048094235462
death adder and Tattler,NG34 8PN,52.981151745710500,-0.454873712640793
ringhals and slowworm,NG34 8PY,52.995494034933500,-0.471810051274733
python and mountain devil,NG34 8RL,53.052811190318900,-0.468768445193252
cayman and Old World vulture,NG34 8SD,52.946189000000000,-0.413836000000000
Dolphin and Elephant,NG34 8SL,53.028490301879700,-0.369780783893738
puff adder and Flameback,NG34 8UT,52.987889000000000,-0.423591678954993
Black jay and snapping turtle,NG34 8UY,52.988810450614400,-0.427381668885682
agamid and gecko,NG34 8WB,52.937296932100000,-0.445008312800000
White ibis and habu,NG34 8WF,52.988143700856300,-0.422519391993124
Songlark and Polecat,NG34 8XH,53.037650455595900,-0.461520093473043
copperhead and Argus,NG34 9AE,53.044464552274200,-0.390823214628432
Wader and Hawaiian honeycreeper,NG34 9AP,53.048035579000800,-0.395628248516758
black snake and agamid,NG34 9BF,53.043462347354400,-0.384535731318474
python and grass snake,NG34 9BH,52.964580481233500,-0.317614681704116
Egret and iguana,NG34 9BS,53.041606024422500,-0.386201182481194
Macaw and fer-de-lance,NG34 9DQ,53.042524040343400,-0.379663221603414
Flameback and blindworm,NG34 9EJ,53.046173000000000,-0.386135000000000
adder and garter snake,NG34 9EL,53.046463692817400,-0.387750230060750
racer and Maya,NG34 9EU,53.047492000000000,-0.386623000000000
wall lizard and skink,NG34 9FT,52.982569792989000,-0.308097325012878
tokay and garter snake,NG34 9FU,53.040680946501100,-0.388920617410158
blindworm and Viscacha,NG34 9GE,53.041084257170100,-0.391486078790150
Grackle and flying dragon,NG34 9GN,52.971816012610300,-0.287906150342251
B and worm lizard,NG34 9GY,53.045988238544300,-0.391810714917789
Perching duck and Jay,NG34 9RQ,52.981711735769000,-0.302142705764483
Partridge and ringhals,NG34 9RW,52.982874758137300,-0.297970831689168
Peafowl and Vulture,NG34 9SX,53.041029727157800,-0.337819595793169
Siskin and Badger,NG34 9TD,52.981028097709200,-0.297715708009391
Tree warbler and pit viper,NG34 9TW,53.048162714866600,-0.380424000000000
bearded lizard and Scimitar babbler,NG34 9UB,52.981514450413100,-0.304697625463919
Rabbit and Warbler,PE11 4SZ,52.904220161683200,-0.203467430453066
Partridge and Piping shrike,PE11 4UG,52.905561478698300,-0.210133150436134
python and cerastes,PE11 4YG,52.915223000000000,-0.218126466100000
White ibis and Nukupu ªu,PE20 1NR,52.943039801063200,-0.079789598447318
Black cockatoo and Jackal,PE20 1RG,52.941105802559100,-0.066421511478834
Songlark and tree snake,PE20 1RP,52.950293978951300,-0.068616680068324
amethystine python and sand lizard,PE20 1SF,52.967105000000000,-0.084590000000000
snake and lizard,PE20 1SG,52.965881875438300,-0.100860588138453
Gull and green turtle,PE20 1TP,52.974132641717300,-0.145105395399297
Linsang and bearded dragon,PE20 2AA,52.913006435836500,-0.084880000000000
Ice seal and Marmoset,PE20 2HF,52.907679833221300,-0.085934110178121
viper and Diving bird,PE20 2NW,52.908500003810100,-0.126094749898049
monitor and death adder,PE20 2PS,52.920370000000000,-0.123872000000000
Thrasher and Bronzewing pigeon,PE20 3DP,52.921026190814200,-0.177677191893581
Petrel and thorn lizard,PE20 3ES,52.943974333252400,-0.155236430139359
tuatara and brown snake,PE20 3EX,52.946152355845300,-0.157703805759686
Eagle and flying dragon,PE20 3FA,52.946671292000000,-0.151088132700000
Songlark and Mockingbird,PE20 3FG,52.950744000000000,-0.167044000000000
flying dragon and diamond snake,PE20 3HQ,52.936646000000000,-0.125831000000000
ringhals and Francolin,PE20 3HS,52.946547163252400,-0.146092294328220
agamid and soft-shelled turtle,PE20 3JP,52.939144422130800,-0.153258000000000
snapping turtle and Snipe,PE20 3JT,52.940078232594400,-0.155030121732875
Wader and puff adder,PE20 3JW,52.940840390690200,-0.158956349750710
Ice seal and saltwater crocodile,PE20 3PD,52.954378924254300,-0.168772334573848
wall lizard and Marsh harrier,PE20 3PU,52.970521000000000,-0.186586000000000
White ibis and python,PE20 3QG,52.978556000000000,-0.211914000000000
Maya and Tit-tyrant,PE21 7JD,52.969183898739000,-0.071423143967126
Masked owl and Snipe,PE22 7JG,53.081576743422600,-0.082693000000000
Magpie and python,PE22 7JQ,53.092328000000000,-0.077510000000000
wall lizard and amethystine python,PE22 7LQ,53.099407409494200,-0.068948931755233
