name,postcode,lat,lon
The Fortescue arms,LN4 4LJ,53.1050,-0.1905
Bar 49,LN4 4LR,53.1021,-0.1916
TSL Caravan,LN4 4LR,53.1021,-0.1916
TSL Food Trailers,LN4 4LR,53.1021,-0.1916
The Giggling Goose,LN4 4LR,53.1021,-0.1916
The Propeller Bar,LN4 4LR,53.1021,-0.1916
The Spitfire Bar,LN4 4LR,53.1021,-0.1916
Agra Coningsby Limited,LN4 4RF,53.1076,-0.1700
THE LEAGATE INN,LN4 4RS,53.1107,-0.1482
Ginger Cow Coffee House,LN4 4SG,53.1051,-0.1738
Puccinis,LN4 4SG,53.1051,-0.1738
Kirton Cottage,PE20 1DR,52.9290,-0.0583
Saffron Indian restaurant ,PE20 1EH,52.9284,-0.0611
THE BLACK BULL,PE20 1JE,52.9256,-0.0628
Rainbow landscaping centre ,PE20 1PX,52.9206,-0.0745
Magnum Inns Limited,PE20 2EZ,52.9027,-0.0957
Supreme Inns Hotel,PE20 3AN,52.9304,-0.1580
concreation garden centre,PE20 3HB,52.9571,-0.1418
The Ivy's Restaurant,PE20 3NG,52.9515,-0.1714
The Wheatsheaf Inn,PE20 3QR,52.9742,-0.1118
Boston West Leisure Limited,PE20 3QX,52.9761,-0.1157
Delfino Caffe,PE21 6EU,52.9780,-0.0226
Boston Spice ,PE21 6HE,52.9767,-0.0228
The Little Kitchen,PE21 6NA,52.9781,-0.0249
CAPTAIN COD TRADITIONAL FISH AND CHIP,PE21 6NF,52.9779,-0.0244
KFC,PE21 6NF,52.9779,-0.0244
Resteuracja Syrenka,PE21 6NH,52.9772,-0.0239
GOODBARNS YARD,PE21 6NP,52.9791,-0.0258
Churches Restaurant,PE21 6NW,52.9778,-0.0250
The Ridge Rooms,PE21 6QQ,52.9781,-0.0208
Eagles Fish Restaurant ,PE21 6ST,52.9780,-0.0178
The Railway Pub Boston Limited ,PE21 7EQ,52.9652,-0.0279
Hammer and Pincers,PE21 7JE,52.9692,-0.0599
Downtown Boston Restaurant ,PE21 7NL,52.9709,-0.0597
Merrimans Lounge & Restaurant,PE21 7PB,52.9771,-0.0697
Benalmedia Limited T/As The Black Sluice Cafe and Bar,PE21 7RA,52.9665,-0.0273
The Quayside Hotel (Boston) Limited,PE21 8AG,52.9698,-0.0266
Sack Store Ltd,PE21 8EA,52.9691,-0.0314
THE ITALIAN CONNECTION,PE21 8QH,52.9760,-0.0255
Samba Brasil ,PE21 8QN,52.9764,-0.0276
WELL SPICY LTD,PE21 8QN,52.9764,-0.0276
rose of bengal restaurant,PE21 8QZ,52.9760,-0.0295
Thai House Restaurant,PE21 8RN,52.9779,-0.0310
The Bus Station Cafe,PE21 8RS,52.9764,-0.0291
White Hart Hotel,PE21 8SH,52.9765,-0.0243
Boston Kebab Limited,PE21 8SP,52.9758,-0.0244
SWOJSKIE JADLO,PE21 8TA,52.9734,-0.0251
CM Restaurants (Holdings) Ltd,PE21 8XZ,52.9757,-0.0316
Boston Lock Cafe,PE21 9JU,52.9836,-0.0319
The Mill Inn,PE21 9QN,52.9881,-0.0072
Johnsons Garden Centre (Boston) Ltd,PE21 9RZ,52.9849,0.0203
kings head freiston,PE22 0NT,52.9766,0.0459
The Castle Inn,PE22 0PF,52.9859,0.0387
Quenchers Smoothies & Bites Ltd,PE22 0RH,53.0043,0.0135
Malcolm Arms,PE22 7BE,53.0090,-0.0621
Ark Wildlife Park,PE22 8BD,53.0972,-0.0032
DUKE OF WELLINGTON,PE22 8HW,53.0989,0.0679
The Old Pottery,PE22 9AS,53.0398,0.1377
The Bricklayers Arms,PE22 9HT,53.0320,0.1133
Butcher's Arms,PE22 9PR,53.0528,0.0836
