name,postcode,lat,lon
cycling lizard and Meadowlark,DG3 4AJ,55.312940000000000,-3.806460000000000
Old World vulture and Chickadee,DG3 5BU,55.323073402860200,-3.783250000000000
Jerboa and American sparrow,DG4 6DB,55.368560102405500,-3.931716046426070
moloch and Logrunners,DG4 6DR,55.368480758128100,-3.921928396532760
anaconda and horned toad,DG4 6EX,55.389256772129500,-3.927815084195120
Jackal and cycling lizard,DG4 6HD,55.393569212368600,-3.935304345893980
Perching duck and Hawk,DG4 6JY,55.372763860469000,-3.947718765661800
giant tortoise and cobra,DG4 6JZ,55.366245596025300,-3.936558000056150
frilled lizard and whip snake,DG4 6LF,55.341215487244300,-4.004533148934120
Jackal and leguaan,DG4 6NA,55.386993566860300,-4.000423519716480
anole and Polecat,DG4 6PL,55.386001118371800,-4.002852040829710
ringhals and American sparrow,DG4 6QP,55.379444945987000,-3.987698597044950
rattlesnake and cycling lizard,DG4 6QU,55.378505336913000,-3.990761006131390
adder and hawksbill,DG4 6RS,55.381900350264900,-3.999708545068910
blind snake and Chipmunk,ML12 6GG,55.458642142090200,-3.642402095793290
bearded dragon and Greenbul,ML12 6RZ,55.491778643557500,-3.691077463633560
Parakeet and slowworm,ML12 6SH,55.497687705843100,-3.763980713357840
carpet snake and Black cockatoo,ML12 6SR,55.496049059029200,-3.772899332671240
sand viper and slowworm,ML12 6UA,55.474246051555800,-3.648873477225470
gaboon viper and snake,ML12 6XJ,55.404098921637000,-3.796560771351280
Booted eagles and Prion,ML12 6XT,55.415530374510100,-3.762607221064550
