name,id,postcode,lat,lon
Goose and tuatara,993269,KA18 4JR,55.391179569182100,-4.170186744660890
Greenbul and gaboon viper,993225,KA18 4EF,55.392337001966200,-4.178887671901140
Goose and Mink,1319698,DG4 6EW,55.371371000000000,-3.903841000000000
boomslang and Peafowl,1319822,DG4 6NE,55.387811000000000,-4.006527000000000
Myna and bearded lizard,1319359,DG4 6RR,55.382184976398500,-3.998791538090050
mud turtle and cobra de capello,993241,KA18 4HA,55.390902789049400,-4.180687783707560
agama and Capuchin,1319677,DG4 6DN,55.364881000000000,-3.929706000000000
sidewinder and anaconda,781585,ML12 6SU,55.475287000000000,-3.822631000000000
Fish eagle and Mamo,993592,KA18 3RG,55.521698571505700,-4.067439114319020
leguaan and blind snake,993591,KA18 3RF,55.520090040835000,-4.071679449050490
bushmaster and krait,1319702,DG4 6HA,55.430115630155900,-3.889077327145670
Tit-tyrant and Hawk,1319360,DG4 6RS,55.381900350264900,-3.999708545068910
boa constrictor and Maya,993226,KA18 4EG,55.392924064413600,-4.177214555828250
Flameback and terrapin,1319681,DG4 6DS,55.367243122637200,-3.921189859043420
Grouse and Jay,1319684,DG4 6DW,55.365686742601200,-3.928136164452500
Logrunners and dukite,1319663,DG4 6BT,55.369852000000000,-3.925056000000000
Bunting and Kangaroo,993238,KA18 4EX,55.391522999264000,-4.178669189703340
cerastes and cobra de capello,1319649,DG4 6AX,55.363718576410500,-3.915825000000000
Magpie and alligator,1319824,DG4 6NJ,55.389233000000000,-4.006386209998360
