name,postcode,lat,lon
The Royal Hotel,KA18 1BP,55.4543,-4.2654
The Coffee Mill,KA18 1BX,55.4530,-4.2635
The Dumfries Arms Hotel,KA18 1BY,55.4527,-4.2638
masala grill restaurant ltd,KA18 1DW,55.4530,-4.2654
The Grub Hub,KA18 1EG,55.4504,-4.2718
Da Vinci's Cafe,KA18 1FF,55.4596,-4.2804
The Coffee Pot,KA18 1LA,55.4544,-4.2642
Boswells Coach House,KA18 2LR,55.4748,-4.3589
The Thistle Inn,KA18 3AB,55.4450,-4.2572
Cumnock Factory Outlet ,KA18 3AJ,55.4411,-4.2519
Lochside House Hotel,KA18 4PN,55.4132,-4.2106
The Fairburn Hotel,KA5 5BU,55.5154,-4.3809
Gemmell's Garden Centre Ltd,KA5 5JD,55.4639,-4.4339
Blackbull Tarbolton,KA5 5PR,55.5106,-4.4841
The Failford Inn ,KA5 5TF,55.5050,-4.4410
THE SORN INN,KA5 6HU,55.5109,-4.2913
The Jaggy Nettle,KA5 6JB,55.5103,-4.2869
ENTERKINE HOUSE HOTEL,KA6 5AL,55.4811,-4.5005
The Kirkton Inn Hotel & Restaurant,KA6 6DF,55.3966,-4.5927
The Hollybush Inn,KA6 6EY,55.4082,-4.5315
Waterfront at Coyle,KA6 6LZ,55.4453,-4.4777
The Bacas,KA6 7QL,55.3230,-4.3987
Costa Coffee,KA8 9BF,55.4790,-4.5951
Subway,KA8 9BF,55.4789,-4.5948
Thyme,KA8 9RT,55.4781,-4.5882
Tim Hortons,KA8 9SH,55.4763,-4.5885
KFC,KA8 9SS,55.4786,-4.5961
Brewers Fayre Monkton Lodge,KA9 2RJ,55.5229,-4.5897
Adamton Country House Hotel,KA9 2SB,55.5149,-4.5771
