name,postcode,lat,lon
Night heron and Old World vulture,KA19 7AF,55.354163817908900,-4.681384521233020
Linsang and Bunting,KA19 7AU,55.349202535822200,-4.682749000000000
Wader and Kestrel,KA19 7BA,55.352055545059900,-4.681194614180470
Asiatic leopard and snake,KA19 7BG,55.351938000000000,-4.681660000000000
krait and Peafowl,KA19 7DD,55.354582895041800,-4.681949307090050
racer and monitor,KA19 7HG,55.358745000000000,-4.674609000000000
Darwin's finches and Kangaroo,KA19 7HH,55.358894832395900,-4.673467678489080
Kākāriki and Boto,KA19 7JL,55.382846045919600,-4.632280657714330
tuatara and Stint,KA19 7JT,55.366734000000000,-4.610693000000000
Tree warbler and rock python,KA19 8DN,55.383915000000000,-4.640246000000000
goanna and Goose,KA19 8ES,55.392447338581400,-4.643057841361000
White ibis and Kestrel,KA26 9LN,55.303009553155200,-4.835190897650270
Scimitar babbler and Tree warbler,KA26 9NQ,55.323865272517500,-4.819668842669620
Grosbeak and blind snake,KA6 6BX,55.426771085811100,-4.606025727970230
copperhead and dukite,KA7 1DL,55.462105798597700,-4.636659853428120
Chipmunk and alligator,KA7 1JX,55.464668000000000,-4.631673000000000
Elephant and Duck,KA7 1LE,55.463296000000000,-4.632768000000000
tiger snake and kabaragoya,KA7 1LR,55.463399972918500,-4.632079080846810
diamondback terrapin and diamondback terrapin,KA7 1SW,55.458551632146300,-4.628054295143990
Partridge and skink,KA7 1TL,55.459950978038500,-4.624841128927430
thorny devil and fer-de-lance,KA7 1TR,55.462349165976500,-4.628275389489900
leguaan and galliwasp,KA7 2DN,55.456448783986800,-4.629701824737820
chameleon and mountain devil,KA7 2LQ,55.448785086444700,-4.616112623714570
Flameback and cycling lizard,KA7 2LW,55.448786893544600,-4.618548261237180
Old World vulture and box turtle,KA7 2NS,55.447949460124700,-4.620295636840790
frill-necked lizard and New World blackbird,KA7 2RG,55.453004109046600,-4.627701018710230
Warbler and goanna,KA7 2RW,55.447447629764900,-4.626509099296810
cobra and fer-de-lance,KA7 2TU,55.449091000000000,-4.633292000000000
Marsh harrier and glass snake,KA7 2UA,55.445843688988300,-4.629201542098880
blue tongue and Gila monster,KA7 2UR,55.456872000000000,-4.636697980661680
Wader and Mole,KA7 3BD,55.457109287363400,-4.620286387574810
Jackal and Lemming,KA7 3DL,55.452429523730900,-4.619707077926480
Marmoset and mountain devil,KA7 3ER,55.452744154928500,-4.618446795581790
Pratincole and tiger snake,KA7 3HH,55.451621986435000,-4.612915831739470
sea snake and Darwin's finches,KA7 3JH,55.456099689386800,-4.605271436671460
thorn lizard and Viscacha,KA7 3JS,55.454622193824400,-4.604161675050720
krait and Francolin,KA7 3LF,55.449439783621200,-4.609450293175740
Stilt and diamond snake,KA7 3LU,55.448130240075700,-4.610581537076220
agama and cobra de capello,KA7 3LW,55.449296153661400,-4.612809449784650
harlequin snake and anole,KA7 3LY,55.449579282977700,-4.606280626691440
Zebra and caiman,KA7 3RD,55.446203900017400,-4.611972403340010
galliwasp and Schneider python,KA7 3RN,55.443206230344300,-4.616802728544890
Marmoset and Tit-tyrant,KA7 3SN,55.444949884979500,-4.618910704934350
frill-necked lizard and death adder,KA7 3TL,55.441167050962400,-4.602421119903750
alligator and Puffleg,KA7 3XF,55.440553268049600,-4.608025478790130
bicycle lizard and tuatara,KA7 3XH,55.439556910824200,-4.607959728998670
Warbler and Greenbul,KA7 3YL,55.439391952578300,-4.612739654910360
sea snake and Parakeet,KA7 4BH,55.445280417307500,-4.646148016876700
Linsang and Marmoset,KA7 4LB,55.429192186453800,-4.686043981761130
amphisbaena and Minke whale,KA7 4LH,55.407789000000000,-4.743158000000000
python and horned toad,KA7 4LP,55.405487540003700,-4.757912144692890
Solitaire and Siskin,KA7 4NQ,55.436494049348800,-4.628421479590630
gecko and Hawaiian honeycreeper,KA7 4PB,55.434208035194800,-4.644394959419230
thorny devil and rat snake,KA7 4UR,55.433524302110900,-4.618106274081050
blue tongue and White ibis,KA7 9AY,55.462653672355800,-4.633662000000000
snapping turtle and anole,KA7 9BP,55.462661424473500,-4.633662000000000
Asiatic leopard and viper,KA7 9TA,55.461471144969000,-4.638579185321610
Francolin and krait,KA7 9TJ,55.461471144969000,-4.638579185321610
blindworm and White ibis,KA7 9UA,55.461471144969000,-4.638579185321610
Fox and chameleon,KA8 0BJ,55.464926638868900,-4.628383672804110
Chicken and Bronzewing pigeon,KA8 0DL,55.464663425304800,-4.622638786212840
flying dragon and black snake,KA8 0DN,55.465113751645300,-4.622178228312650
milk snake and Myna,KA8 0JB,55.465941000000000,-4.620097000000000
Rat and rock python,KA8 0SS,55.458419139799600,-4.611577981407330
Peafowl and Songlark,KA8 8BW,55.469371000000000,-4.632496673415100
Wader and blue tongue,KA8 8LU,55.478115793260500,-4.623659318414770
Tit-tyrant and Kite,KA8 8NP,55.481011138682400,-4.619419986707110
Hawk and Civet,KA8 8NY,55.482069995853700,-4.622861729566850
death adder and Logrunners,KA8 8PN,55.483750186455000,-4.619538508204370
blue racer and Tattler,KA8 9AA,55.473059412666800,-4.623038367628700
hognose snake and Capuchin,KA8 9DJ,55.482080000000000,-4.604755000000000
chuckwalla and glass snake,KA8 9DS,55.481773172977800,-4.611524782285090
Tit-tyrant and wall lizard,KA8 9EX,55.479683294297700,-4.611734679831940
Masked owl and bicycle lizard,KA8 9HX,55.478048285027000,-4.613571000000000
Kestrel and Jay,KA8 9JZ,55.469920123515600,-4.612639422677870
Vulture and Wader,KA8 9LA,55.469127381577300,-4.611036287320880
Vulture and Grouse,KA8 9NJ,55.478464637270900,-4.612397893745640
perentie and cobra,KA8 9PA,55.472699166451500,-4.609199526173120
glass snake and Zebra,KA8 9PP,55.469567080897400,-4.613597106231770
bearded lizard and Tattler,KA8 9PX,55.476419695537500,-4.607973661477250
Night heron and dugite,KA8 9RH,55.472419478138700,-4.600382634891900
Grackle and Pratincole,KA9 1AW,55.502311103171700,-4.608924000000000
Philippine hawk-owl and bearded lizard,KA9 1BE,55.505068946416500,-4.610406979831690
iguana and boa constrictor,KA9 1EQ,55.492752157634900,-4.600377180077660
Warbler and gopher snake,KA9 1GA,55.494726171117800,-4.619507462659550
snake and whip snake,KA9 1PX,55.495251222303200,-4.615552246351530
thorn lizard and Shearwater,KA9 1PY,55.494289770451000,-4.615535985847270
python and Elephant,KA9 1PZ,55.494823849326000,-4.614098888416360
slowworm and diamondback,KA9 1SY,55.492024717250700,-4.614689162528250
viper and Shearwater,KA9 1TN,55.488212379330400,-4.616842767100420
diamondback terrapin and Wallaby,KA9 1TP,55.484852476373400,-4.617173947592800
chameleon and Petrel,KA9 2AH,55.485670216995800,-4.612226000000000
Minke whale and Shearwater,KA9 2AT,55.486468670997700,-4.613893508997210
massasauga and king cobra,KA9 2BG,55.489318191252300,-4.614731403411770
horned toad and Gila monster,KA9 2BL,55.488065552053300,-4.611513882680030
massasauga and Macaw,KA9 2DJ,55.486770325633900,-4.606916524253910
Snipe and flying lizard,KA9 2DL,55.490867286091900,-4.614169146947440
sand lizard and tree snake,KA9 2EW,55.487021040040000,-4.601471629502420
Wader and gopher snake,KA9 2HH,55.492566760399300,-4.607822088548990
Grouse and perentie,KA9 2LX,55.500466332651000,-4.603672964374190
boa constrictor and Fox,KA9 2QJ,55.517506025997200,-4.603388711098240
