name,postcode,lat,lon
Fox and Francolin,NE19 1TF,55.308133471393500,-2.349393472434580
Schneider python and rat snake,NE19 1TQ,55.317700000000000,-2.375783000000000
python and Zebra,NE65 7DD,55.391732000000000,-2.269762000000000
death adder and adder,TD5 8LJ,55.509272284021800,-2.473583202346720
hognose snake and Meadowlark,TD8 6AA,55.478242700632300,-2.555401900640950
amethystine python and Asiatic leopard,TD8 6AE,55.478615605908900,-2.554410400933060
Jackal and Coati,TD8 6BE,55.477250000000000,-2.554487654174490
alligator and chameleon,TD8 6BH,55.478122878045300,-2.556064704105540
Cloud rat and alligator,TD8 6BS,55.478445000000000,-2.556560000000000
B and gecko,TD8 6DW,55.480226667564300,-2.551838218322490
Moluccan boobook and Siskin,TD8 6EJ,55.472840000000000,-2.544227000000000
Coati and jew lizard,TD8 6ER,55.478113187089300,-2.552251666069580
Grosbeak and Old World warbler,TD8 6HA,55.478851000000000,-2.550061050400270
taipan and frill-necked lizard,TD8 6JN,55.472943580931500,-2.550898010620280
Viscacha and sand viper,TD8 6LD,55.474198405291000,-2.549095000000000
Thicketbird and python,TD8 6NF,55.397084000000000,-2.490350000000000
Grosbeak and horned toad,TD8 6NH,55.424851945051400,-2.384156393755020
thorn lizard and gecko,TD8 6NP,55.474604292534200,-2.545241890307000
Gull and goanna,TD8 6NY,55.465767717884900,-2.554071869539190
amphisbaena and Petrel,TD8 6PF,55.445871423370500,-2.554535904135340
Marmoset and Thrasher,TD8 6PP,55.394823096011900,-2.509251667728490
Snipe and Minke whale,TD8 6PS,55.370922191667500,-2.513283560624850
constrictor and Diving bird,TD8 6PY,55.473534107840300,-2.543423708273970
Marsh harrier and bicycle lizard,TD8 6QG,55.470238761263800,-2.556886938025820
swift and Scimitar babbler,TD8 6QY,55.475341083604200,-2.505480507565030
Cloud rat and Macaw,TD8 6SP,55.508109719510300,-2.555632507543400
anaconda and Egret,TD8 6UY,55.513073366192100,-2.593168564641770
perentie and smooth snake,TD9 8JD,55.411853151209500,-2.635480902343630
mountain devil and massasauga,TD9 8RB,55.384673010029000,-2.631667078278440
bandy-bandy and diamondback terrapin,TD9 8TN,55.380712653393100,-2.591690438725030
milk snake and Rat,TD9 8TQ,55.388155571686800,-2.590680000000000
