name,id,postcode,lat,lon
Triller and horned viper,727232,NE66 4AU,55.424731983735500,-1.889201471593760
horned toad and thorny devil,727438,NE66 3HZ,55.424838000000000,-1.735123000000000
viper and Dorcopsis,727278,NE66 4JJ,55.460011579334300,-1.975034257746070
cayman and whip snake,727688,NE66 2TU,55.467741618859400,-1.824264061444450
tiger snake and Nukupu ªu,728232,NE65 9JG,55.323851579547600,-1.745441085478050
Kangaroo and Black cockatoo,727294,NE66 4NZ,55.435561937994000,-2.117347709089540
tree snake and adder,726270,NE71 6QY,55.512677703808800,-2.002047060439640
Fox and American sparrow,728341,NE65 8DT,55.306327000000000,-1.796623000000000
bandy-bandy and Argus,727257,NE66 4HH,55.440314413906400,-1.901533860195570
agamid and Partridge,728989,NE65 7HU,55.313277974662200,-1.949160959225560
copperhead and hognose snake,728767,NE65 7XG,55.310220328685800,-1.900957584467760
cobra de capello and worm lizard,728550,NE65 7PB,55.310631360058200,-1.909589850260830
Argus and Meadowlark,728555,NE65 7PH,55.306759269836600,-1.899044363473500
saltwater crocodile and blind snake,728543,NE65 7NT,55.310010000000000,-1.907275000000000
Ground sloth and Boto,727152,NE67 5HN,55.514775672472900,-1.744829124994490
tiger snake and boomslang,727357,NE66 4SY,55.414077315593700,-1.891647904531480
bull snake and Fox,728430,NE65 8EN,55.313684963109900,-1.807267390731560
Badger and thorny devil,728060,NE66 1DQ,55.414983846515900,-1.712885475520130
Rabbit and Stint,727900,NE66 2BQ,55.388566089253600,-1.809603130236740
tuatara and snake,728704,NE65 7TU,55.308794894523800,-1.917533751748270
Elephant and sand lizard,728904,NE65 7DQ,55.336039210215500,-2.105655191202090
Badger and Myna,728639,NE65 7QE,55.311724205807100,-1.905081553779300
cerastes and Crow,727387,NE66 4XT,55.475441126606000,-1.950314026651300
viper and Argus,728711,NE65 7UD,55.308935951998300,-1.913595084889750
Peafowl and Ground sloth,728279,NE65 9NT,55.314430204889100,-1.718842678902370
boa constrictor and snapping turtle,727137,NE67 5ES,55.522020433648900,-1.713421904322080
chameleon and grass snake,728429,NE65 8EL,55.326474338542400,-1.814849255703130
Tit-tyrant and Stilt,727695,NE66 2UE,55.479997775264000,-1.795287560148460
Minke whale and Tahr,728715,NE65 7UL,55.309123767597000,-1.912350145384140
giant tortoise and smooth snake,1795769,NE65 7XF,55.312098000000000,-1.941726000000000
leathery turtle and blind snake,727382,NE66 4UY,55.407920835984600,-1.967675711894200
gopher snake and copperhead,728067,NE66 1DY,55.411633802096400,-1.717426944609400
