name,postcode,lat,lon
Fulmarine petrel and hognose snake,LL35 0SE,52.552616961589000,-4.069700781630260
saltwater crocodile and Kangaroo,LL36 0AY,52.584047507275900,-4.097973860731180
Tattler and Gull,LL36 0BS,52.582633000000000,-4.093109000000000
Songlark and crocodile,LL36 0BT,52.584793000000000,-4.094445044529580
mud turtle and racer,LL36 0DF,52.582986302448200,-4.099000730465690
Mamo and water snake,LL36 0DY,52.580420143250200,-4.088531124866440
blindworm and Zebra,LL36 6AJ,52.588301000000000,-4.081075000000000
Masked owl and garter snake,LL36 9AA,52.587158897972100,-4.087272035797980
kabaragoya and Wader,LL36 9BU,52.587725777551800,-4.086737998793960
Thrasher and viper,LL36 9DA,52.587414803046000,-4.084995993022590
Linsang and flying dragon,LL36 9EA,52.586547937744700,-4.085205792160750
perentie and Masked owl,LL36 9HN,52.581644422471000,-4.075157128075640
krait and viper,LL36 9HP,52.586514000000000,-4.072760625395960
wall lizard and green turtle,SY23 1BN,52.408910843130100,-4.085298042840020
Ice seal and amphisbaena,SY23 1BX,52.409818000000000,-4.083885000000000
Jackal and diamondback terrapin,SY23 1DZ,52.412783861327100,-4.088995110237290
Zebra and loggerhead,SY23 1JN,52.412138000000000,-4.087435000000000
elapid and Komodo dragon,SY23 1PU,52.413831000000000,-4.084774853381270
copperhead and Buzzard,SY23 1RG,52.402720810037800,-4.070687423609700
blind snake and Snipe,SY23 2BH,52.414822000000000,-4.088238000000000
bushmaster and king cobra,SY23 2BX,52.418553379989300,-4.084076646936250
Parakeet and Elephant,SY23 2DL,52.417472921910300,-4.079055139230100
Rat and Cuscus,SY23 2DQ,52.420277549321100,-4.084202104711500
kabaragoya and horned viper,SY23 2DS,52.417392058190800,-4.081537210514640
Macaw and snapping turtle,SY23 2EU,52.416729000000000,-4.074388000000000
Peafowl and python,SY23 2HU,52.422065210334700,-4.083786400684670
Ibex and River dolphin,SY23 2JS,52.415974381366700,-4.078881688793810
bandy-bandy and Francolin,SY23 2JY,52.415674202579300,-4.074985410088880
Coati and Asiatic leopard,SY23 3AJ,52.416994809745600,-4.062724176206900
crocodile and Schneider python,SY23 3DU,52.417788000000000,-4.068849000000000
Towhee and Treepie,SY23 3GD,52.407629955458400,-4.072240633191900
Darwin's finches and adder,SY23 3GL,52.415429995175200,-4.061710003030960
Jackal and Tahr,SY23 4BT,52.377550196201300,-4.072917889095400
Ice seal and cycling lizard,SY23 4QP,52.391092467227300,-4.068761397610990
mud turtle and Ibex,SY23 4UH,52.381207000000000,-4.070612653120410
chameleon and Coati,SY24 5NJ,52.478075034474700,-4.053888552614940
