name,postcode,lat,lon
The Stiperstones Inn,SY5 0LZ,52.5973,-2.9440
Health & Well Being centre,SY6 6BL,52.5373,-2.8062
Mayfair Community Centre,SY6 6BL,52.5373,-2.8062
Berry's Coffee House,SY6 6BU,52.5387,-2.8077
Heather & Batch Coffee House,SY6 6BW,52.5386,-2.8066
Mr Bun the Baker,SY6 6BW,52.5386,-2.8066
Housmans ,SY6 6BX,52.5379,-2.8081
The Loft coffee house & eatery,SY6 6BX,52.5379,-2.8081
Kings Arms ,SY6 6BY,52.5368,-2.8085
the old coppers malthouse,SY6 6DU,52.5392,-2.8075
The Yew Tree,SY6 6HG,52.5537,-2.7973
The Pound Inn ,SY6 6ND,52.5842,-2.7749
The Ragleth Inn,SY6 6RB,52.5237,-2.8206
The Green Dragon ,SY6 6RE,52.5206,-2.8218
The Royal Oak,SY6 7JZ,52.5522,-2.7307
LLB Parks Limited,SY7 0QD,52.3913,-2.9119
THE SUN INN,SY7 9DF,52.4615,-2.7425
The Tally Ho Inn,SY7 9DP,52.4621,-2.6700
The Swan Inn ,SY7 9ER,52.4766,-2.7208
Raza's pizza and curry house,SY7 9NE,52.4402,-2.8344
Subway Craven Arms,SY7 9PY,52.4421,-2.8353
Grow Cook learn,SY7 9RS,52.4372,-2.8327
Ludlow Kitchen,SY8 2JR,52.3889,-2.7609
The Clive Arms,SY8 2JR,52.3889,-2.7609
Fishmore Hall Hotel ,SY8 3DP,52.3831,-2.7147
INN ON THE GREEN ,SY9 5EF,52.5341,-2.9141
George & Dragon Inn,TF13 6AA,52.5954,-2.5579
The Talbot Inn,TF13 6AA,52.5954,-2.5579
The Copper Kettle ,TF13 6AE,52.5955,-2.5580
The Gaskell Arms Hotel & Restaurant,TF13 6AQ,52.5944,-2.5609
Daisy's Diner,TF13 6BU,52.5959,-2.5589
Raven Hotel (Wenlock) Ltd,TF13 6EN,52.5957,-2.5563
Tea Junction & More Ltd,TF13 6EN,52.5957,-2.5563
Tea on the Square,TF13 6EN,52.5957,-2.5563
Feathers Inn,TF13 6JR,52.5409,-2.6241
The Wenlock Smoothie,TF13 6LX,52.5957,-2.5572
