name,postcode,lat,lon
The Birmingham Stable,B1 1BE,52.477385940000000,-1.902473703000000
Cherry Reds Cafe Bar,B1 1BN,52.476091000000000,-1.900725000000000
Ibis Birmingham Centre Irving Street,B1 1DH,52.472818450000000,-1.901762409000000
No.1 Chinese Cafe & Takeaway,B1 1EG,52.474821420000000,-1.899623216000000
Bonehead Birmingham ,B1 1PU,52.477133530000000,-1.901635040000000
Malmaison Birmingham,B1 1RD,52.476445000000000,-1.904493000000000
Indico Street Kitchen - Mailbox,B1 1RF,52.475922940000000,-1.905392032000000
AC Hotel by Marriott Birmingham,B1 1RL,52.475223000000000,-1.906159000000000
Bardolino's Pizzeria  Bellini & Espresso Bar by Marco Pierre White,B1 1RN,52.474865000000000,-1.907014000000000
Lane7 Birmingham,B1 1RN,52.474865000000000,-1.907014000000000
Marco Pierre White Steakhouse Bar and Grill Birmingham,B1 1RN,52.474865000000000,-1.907014000000000
SHOGUN CUBE LTD,B1 1RN,52.474865000000000,-1.907014000000000
Rodizio Rico,B1 1RS,52.475223000000000,-1.906159000000000
Cocoa by Ali,B1 1SR,52.475619170000000,-1.907792472000000
Costa Coffee,B1 2AA,52.479921690000000,-1.914909957000000
Restaurant Barajee,B1 2DS,52.477733730000000,-1.910541000000000
The Craft Experience Limited,B1 2EA,52.478866840000000,-1.910789343000000
The Alchemist Brindley Place,B1 2HL,52.478094960000000,-1.912469374000000
Celebrity Indian Restaurant ,B1 2HP,52.477727000000000,-1.911307000000000
Pushkar Cocktail Bar & Dining,B1 2HQ,52.476754740000000,-1.911515029000000
Saimais Ltd,B1 2HS,52.477142070000000,-1.912544875000000
Yorks Cafe at Ikon,B1 2HS,52.477142070000000,-1.912544875000000
Hilton Garden Inn Birmingham Brindleyplace,B1 2HW,52.476929000000000,-1.915004000000000
BISTROT PIERRE - BIRMINGHAM,B1 2JT,52.477483000000000,-1.910542000000000
The Gentleman & Scholar Pub and Terrace ,B1 2JZ,52.477993680000000,-1.909289313000000
Vietnamese Street Kitchen,B1 2LP,52.476774570000000,-1.914032627000000
The Prince of Wales,B1 2NP,52.479803640000000,-1.913275816000000
Ristorante Caffe Gustami ,B1 2PZ,52.483602590000000,-1.920689922000000
1000 Trades,B1 3HE,52.485124240000000,-1.911306851000000
Jojolapa Nepalese Restaurant,B1 3HE,52.485124240000000,-1.911306851000000
Frederick Street Townhouse,B1 3HH,52.486491290000000,-1.912084602000000
The Button Factory,B1 3HH,52.486491290000000,-1.912084602000000
SUBWAY,B1 3HN,52.486168130000000,-1.912733196000000
Prestige Bar & Restaurant Ltd,B1 3RB,52.484112710000000,-1.917316874000000
Hotel ibis Birmingham Bordesley Circus,B10 0PD,52.472469000000000,-1.873056000000000
Alsalam cafe,B10 0PR,52.470231000000000,-1.866041000000000
McDonald's Small Heath,B10 0RJ,52.473042790000000,-1.872936657000000
AL-URUBA CAFE LIMITED,B10 0SP,52.470800880000000,-1.861858158000000
MSG BIRMINGHAM LTD,B10 0TH,52.470063000000000,-1.860197000000000
Moka Limited Trading as Chaiiwala,B10 0TH,52.470063000000000,-1.860197000000000
4 FENCES LTD,B10 0UF,52.471340420000000,-1.861974242000000
BADER RESTAURANT LTD,B10 0UF,52.471340420000000,-1.861974242000000
BUBA JOES,B10 0UF,52.471340420000000,-1.861974242000000
Cedars grill palace ltd,B10 0UF,52.471340420000000,-1.861974242000000
M-H.M.Z LTD,B10 0UF,52.471340420000000,-1.861974242000000
MOUCHAK STREET,B10 0UN,52.468833780000000,-1.855740625000000
Mishtidesh Ltd,B10 0UN,52.468833780000000,-1.855740625000000
Panshi Restaurant Birmingham Limited,B10 0UN,52.468833780000000,-1.855740625000000
The Ponchokhana ltd ,B10 0UN,52.468833780000000,-1.855740625000000
NAMAK MANDI AUTHENTIC TASTE OF KPK LTD,B10 0US,52.468156660000000,-1.853402329000000
Alam Birmingham Ltd,B10 0XE,52.472232820000000,-1.864047189000000
URUBA RESTAURANT LIMITED,B11 1AJ,52.464910980000000,-1.876845859000000
Manjaros,B11 1QT,52.460736150000000,-1.873546005000000
CRESCENT FOOD SERVICES LTD,B11 4BS,52.445131110000000,-1.859039956000000
Treatz Sparkhill,B11 4DX,52.447236740000000,-1.860828000000000
SHAHI NAN KABAB ( BIRMINGHAM ) LIMITED,B11 4JY,52.458010000000000,-1.870625000000000
Deepam ltd ta deepalis kitchen,B11 4PB,52.457129550000000,-1.872040518000000
Mylahore,B12 0JD,52.471512760000000,-1.879904218000000
The Old Crown ,B12 0LD,52.474697850000000,-1.882530864000000
Taste of Pakistani ltd,B12 8DP,52.459219380000000,-1.876126000000000
Chaska & Chai,B12 8JA,52.458860320000000,-1.876465344000000
AL BADER LOUNGE LTD,B12 8JS,52.457655600000000,-1.876409842000000
Lahore Village ,B12 8JS,52.457655600000000,-1.876409842000000
SHAHD ASIA LTD,B12 8JS,52.457655600000000,-1.876409842000000
Southern fried chicken & pizza ltd,B12 8JS,52.457655600000000,-1.876409842000000
Artisan Desserts,B12 8JT,52.456307090000000,-1.876398893000000
Baskin Robbins,B12 8JY,52.453764210000000,-1.877642087000000
Flamin' Patties,B12 8JY,52.453764210000000,-1.877642087000000
Shinwari dera ltd,B12 8JY,52.453764210000000,-1.877642087000000
Chaiiwala Ladypool Road,B12 8JZ,52.452254680000000,-1.878411434000000
Fargo's,B12 8LA,52.452434890000000,-1.878808241000000
RHL Group Ltd T/A Truburger ,B12 8LA,52.452434890000000,-1.878808241000000
Sweet. Ladypool Road,B12 8LA,52.452434890000000,-1.878808241000000
TORO's Steakhouse,B12 8LA,52.452434890000000,-1.878808241000000
LP BIRMINGHAM LTD,B12 8LF,52.455085870000000,-1.877770874000000
German Doner Kebab,B12 9AD,52.455363810000000,-1.886040436000000
The MIX Community Cafe,B12 9AH,52.456981440000000,-1.885447612000000
Al Qamar restaurant,B12 9TP,52.458450040000000,-1.888843418000000
Sarehole Mill ,B13 0BD,52.434411420000000,-1.856058770000000
SWEET CHILLIES RESTAURANT LIMITED,B13 0JE,52.422213610000000,-1.873273691000000
Tipu Sultan Birmingham,B13 8AA,52.450656000000000,-1.889157280000000
LA PLANCHA,B13 8DD,52.447185230000000,-1.888489166000000
La Fibule,B13 8EH,52.448306810000000,-1.886205742000000
Sabai Sabai (Moseley) Ltd ,B13 8EH,52.448306810000000,-1.886205742000000
Zindiya Streatery & Bar,B13 8EH,52.448306810000000,-1.886205742000000
Ponte Di Legno,B13 8EJ,52.448064240000000,-1.886368214000000
Chakana,B13 8HS,52.447669910000000,-1.887663999000000
DeMaines of Moseley,B13 8HW,52.446680860000000,-1.887504666000000
I&M Cafe Deli,B13 8HW,52.446680860000000,-1.887504666000000
PALMYRA MEDITERRANEAN LTD,B13 8HW,52.446680860000000,-1.887504666000000
The Cuban Embassy at The Bulls Head,B13 8HW,52.446680860000000,-1.887504666000000
Damascena Coffee House,B13 8JP,52.445918390000000,-1.889286845000000
Little Blackwood,B13 8JP,52.445918390000000,-1.889286845000000
The Dark Horse,B13 8JP,52.445918390000000,-1.889286845000000
The Village Moseley,B13 8JR,52.444896000000000,-1.890569000000000
Hamza Catering Ltd T/A Kobe Sizzlers,B13 9EF,52.445778860000000,-1.884387867000000
The Covered Wagon,B13 9JW,52.438563570000000,-1.870564325000000
McDonalds,B14 4BJ,52.413859380000000,-1.870989363000000
Masala Works,B14 5EZ,52.411539000000000,-1.886109544000000
Millennium Balti,B14 5EZ,52.411539000000000,-1.886109544000000
TMS BIRMINGHAM LIMITED T/A SUBWAY MAYPOLE ,B14 5JF,52.405028460000000,-1.885919994000000
De Vere Catering,B14 6DT,52.423715190000000,-1.891651080000000
Esme’s Eats Caribbean Cuisine Ltd,B14 7BB,52.437867000000000,-1.892439872000000
RA COFFEE HOUSE,B14 7BB,52.437867000000000,-1.892439872000000
Rainbow Restaurant,B14 7BH,52.436652260000000,-1.892090138000000
The Early Bird Bakery,B14 7JT,52.437120450000000,-1.892868617000000
MY SHOP 5 LTD,B14 7JZ,52.435843970000000,-1.892989380000000
Gorilla Coffee Cafe,B14 7LP,52.432264310000000,-1.891203630000000
Griiill,B14 7LR,52.431921990000000,-1.890439650000000
RADHUNI INDIAN AND BANGLADESHI RESTAURANT,B14 7NH,52.427557920000000,-1.906686000000000
Byzantium Tapas Restaurant,B14 7SA,52.434379490000000,-1.893978415000000
Fletchers Bar And Eatery Ltd,B14 7SA,52.434379490000000,-1.893978415000000
Kings indian dining ,B14 7SA,52.434379490000000,-1.893978415000000
Kitchen Garden Cafe Ltd,B14 7SA,52.434379490000000,-1.893978415000000
Sylhet Spice Cuisine ,B14 7SA,52.434379490000000,-1.893978415000000
Bierkeller,B15 1AY,52.475228140000000,-1.913814794000000
Dilbar,B15 1AY,52.475228140000000,-1.913814794000000
Park Regis Birmingham,B15 1DT,52.473045700000000,-1.916792844000000
the food hut,B15 1DT,52.473045700000000,-1.916792844000000
Creams Cafe,B15 1EJ,52.473556410000000,-1.914377484000000
The Bulls Head,B15 1EJ,52.473556410000000,-1.914377484000000
LAGHI'S RESTAURANT LTD,B15 1LD,52.472165000000000,-1.917236145000000
La-Pop!,B15 1LD,52.472165000000000,-1.917236145000000
Hampton by Hilton Birmingham Broad Street,B15 1SU,52.475228140000000,-1.913814794000000
Sugar Leisure Ltd,B15 1SU,52.475228140000000,-1.913814794000000
THE COFFEE HOUSE,B15 2TH,52.453270800000000,-1.938476000000000
Edgbaston Priory Club Limited,B15 2UZ,52.458919610000000,-1.912845782000000
Blue Piano,B15 3AA,52.470837760000000,-1.922081850000000
The Boston Tea Party Group Limited,B15 3AA,52.470837760000000,-1.922081850000000
Loki Wines Edgbaston Limited,B15 3AU,52.469859000000000,-1.922187000000000
THE HIGH FIELD TOWN HOUSE,B15 3DP,52.469265160000000,-1.923070893000000
Simpsons Restaurant (Edgbaston),B15 3DU,52.469238700000000,-1.923865846000000
Three Church Road,B15 3SH,52.465580000000000,-1.921723000000000
Edgbaston Golf Club,B15 3TB,52.460973050000000,-1.918081260000000
The Edgbaston Golf Club Limited,B15 3TB,52.460973050000000,-1.918081260000000
Regards ,B15 3TQ,52.467123970000000,-1.935527568000000
The Distillery,B16 8AE,52.478333000000000,-1.917107000000000
Mr Mulligans Birmingham,B16 8LP,52.473516510000000,-1.921679643000000
Rock Up Birmingham,B16 8LP,52.473516510000000,-1.921679643000000
Subland Ltd. T/A Subway,B16 8LP,52.473516510000000,-1.921679643000000
Best Western Plough & Harrow Hotel,B16 8LS,52.472225600000000,-1.927423315000000
Praza Cocktail Bar & Dining,B16 8LU,52.471614740000000,-1.927954000000000
Starbucks (Five Ways),B16 8PE,52.471675100000000,-1.924038313000000
Meeple Mayhem,B16 8UZ,52.473845870000000,-1.930895062000000
CHARTERMEAD LIMITED,B16 9LQ,52.472687320000000,-1.951389421000000
Akbar's Restaurant,B16 9NY,52.471208260000000,-1.940997898000000
The Edgbaston Palace Hotel,B16 9PQ,52.471362880000000,-1.943971000000000
Foodel Ltd t/a Subway,B16 9RD,52.472084430000000,-1.931928313000000
COLBEH PERSIAN KITCHEN & BAR,B16 9RE,52.472183770000000,-1.932723121000000
Fiesta del Asado Edgbaston,B16 9RP,52.472196030000000,-1.938758916000000
Beef on the block,B17 0AA,52.456311480000000,-1.962164898000000
the new inn,B17 0DJ,52.457108710000000,-1.953967150000000
The Kangxi Imperial ,B17 0DS,52.457800090000000,-1.951832512000000
Hop Garden,B17 0HT,52.459235070000000,-1.944030853000000
OTTO at the Hop Garden,B17 0HT,52.459235070000000,-1.944030853000000
Cafe Reem,B17 0QT,52.449593980000000,-1.956402743000000
COPPER FOX BAR & GRILL,B17 0RP,52.447562680000000,-1.957611225000000
The Boston Tea Party Group Limited,B17 9NJ,52.459651000000000,-1.946150000000000
The Cafe Express ,B17 9NP,52.459129260000000,-1.948608017000000
Damascena Coffee House,B17 9NR,52.459802720000000,-1.946811718000000
The Mela Restaurant,B17 9NR,52.459802720000000,-1.946811718000000
The Plough Harborne,B17 9NT,52.460979030000000,-1.943807886000000
Rustic Table,B17 9PN,52.458904300000000,-1.948122614000000
Sabai Sabai (harborne) Ltd,B17 9PT,52.457910000000000,-1.952760000000000
Harborne Kitchen,B17 9QE,52.458707220000000,-1.949756431000000
umami indian kitchen,B17 9RP,52.458548530000000,-1.957821496000000
CHENNAI DOSA,B18 4HE,52.487689920000000,-1.947514587000000
Black Eagle,B18 5JU,52.498961660000000,-1.927335268000000
The New Soho Tavern,B18 5SR,52.497831000000000,-1.928250000000000
Vee's Deli,B18 6HA,52.490384010000000,-1.912179957000000
COFFEE TALES,B18 6HP,52.486939050000000,-1.909771664000000
24 Carat Bistro ,B18 6JQ,52.487065560000000,-1.910832000000000
Niche Cafe,B18 6JR,52.487667180000000,-1.909696545000000
The Rose Villa Tavern,B18 6JW,52.487192640000000,-1.912259926000000
202KITCHEN,B18 6LJ,52.488901670000000,-1.913537791000000
Horizon Coffee Shop,B18 6LJ,52.488901670000000,-1.913537791000000
THE JQ BAR AND GRILL LTD,B18 6NN,52.487202740000000,-1.913776736000000
Arches Cafe City Hospital,B18 7QH,52.488627000000000,-1.932507000000000
Birmingham Treatment Centre (BTC) City Hospital,B18 7QH,52.488627000000000,-1.932507000000000
Boaters Cafe City Hospital,B18 7QH,52.488627000000000,-1.932507000000000
Lick Your Finger,B18 7QX,52.486488770000000,-1.936294593000000
Coombs Catering at Signet Trading,B19 1DS,52.496462990000000,-1.914612996000000
Mississippi River & Nile Bistro,B19 2XU,52.495448000000000,-1.902066000000000
Comptoir Birmingham,B2 4BF,52.477872372700000,-1.898585878500000
Kitty Cafe Birmingham Ltd,B2 4BF,52.477872372700000,-1.898585878500000
Mowgli Street Food - Birmingham,B2 4BF,52.477872372700000,-1.898585878500000
Pig & Apple Ltd,B2 4BF,52.477872372700000,-1.898585878500000
Super No.7 Ltd     t/a  Super bubble station,B2 4BF,52.477872372700000,-1.898585878500000
Thai Express Birmingham,B2 4BF,52.477872372700000,-1.898585878500000
atpizza Grand central,B2 4BF,52.477872372700000,-1.898585878500000
NI&WANG GROUP LTD T/A TWIST,B2 4BG,52.479029800000000,-1.900894634000000
Tiger Bites Pig ,B2 4BH,52.478130000000000,-1.898659000000000
YAKINORI GRAND CENTRAL LTD,B2 4BH,52.478130000000000,-1.898659000000000
Yorks Cafe & Coffee Roasters,B2 4BH,52.478130000000000,-1.898659000000000
Grant Central Kitchen,B2 4BL,52.478713450000000,-1.898878199000000
CrepeAffaire Birmingham,B2 4BQ,52.477852000000000,-1.898851000000000
Urban Feast,B2 4DD,52.478535020000000,-1.900498205000000
Medicine Bakery & Gallery,B2 4DU,52.479524450000000,-1.901011000000000
Second Cup Coffee Company,B2 4DU,52.479524450000000,-1.901011000000000
Tim Hortons,B2 4EU,52.479154740000000,-1.899804791000000
200 Degrees,B2 4JD,52.478866460000000,-1.899334000000000
McDonald's Stephenson Place,B2 4PY,52.478633000000000,-1.897892000000000
Wasabi Sushi & Bento,B2 4QA,52.477660880000000,-1.898011930000000
Britannia Hotel Birmingham,B2 4RX,52.479026540000000,-1.897066458000000
McDonald's Temple Row,B2 5AL,52.480474470000000,-1.897696231000000
Flight Club Darts,B2 5BN,52.480215220000000,-1.899404835000000
San Carlo Birmingham,B2 5BN,52.480215220000000,-1.899404835000000
Head of Steam (Birmingham),B2 5DP,52.480178760000000,-1.898815952000000
Morridge,B2 5HG,52.481669180000000,-1.896603842000000
Kuula Poke,B2 5HU,52.481804390000000,-1.897133000000000
Land ,B2 5HU,52.481804390000000,-1.897133000000000
Loki Wines Ltd,B2 5HU,52.481804390000000,-1.897133000000000
Sushi Passion Ltd,B2 5HU,52.481804390000000,-1.897133000000000
Gino D'acampo My Restaurant ,B2 5LS,52.480474470000000,-1.897888000000000
Damascena Coffee House,B2 5NY,52.480728230000000,-1.899904000000000
Fumo Birmingham,B2 5PG,52.480404080000000,-1.899492751000000
Sabai Sabai (birmingham) Ltd,B2 5PG,52.480404080000000,-1.899492751000000
Sun on the Hill,B2 5QP,52.479685210000000,-1.899877209000000
The Indian Streatery,B2 5QP,52.479685210000000,-1.899877209000000
Rudys Birmingham,B2 5RS,52.479874670000000,-1.900671879000000
DC Bars Ltd T/A Dirty Martini Birmingham,B2 5ST,52.480307000000000,-1.900876807000000
Purecraft Bar and Kitchen Ltd,B2 5TJ,52.480135970000000,-1.901378052000000
Adam's,B2 5UG,52.479803380000000,-1.901422965000000
Pieminister Birmingham,B2 5UG,52.479803380000000,-1.901422965000000
THE GROVE BIRMINGHAM LTD,B20 2HA,52.512647970000000,-1.933560422000000
Mr singh's Pizza,B20 2HY,52.515452920000000,-1.933733040000000
Titanic restaurant ,B20 3BX,52.514119000000000,-1.901479382000000
Burger Town,B20 3DD,52.513147250000000,-1.901658009000000
McDonald’s ,B21 0AP,52.509215810000000,-1.957522837000000
Amor Desserts,B21 0TU,52.502102530000000,-1.933090119000000
MSK OVERSEAS LIMITED T/A NAKODAR SWEETS & SNACKS,B21 9DP,52.502468950000000,-1.929347736000000
Barsana ,B21 9QL,52.504785850000000,-1.941262532000000
The Farcroft,B21 9QY,52.509739200000000,-1.940888000000000
Big Johns Soho Road,B21 9SF,52.504336360000000,-1.941277861000000
Chandni Chowk (Bham),B21 9SL,52.501217590000000,-1.926447690000000
Chai Factory Three Limited t/a Chaiiwala,B21 9ST,52.502199610000000,-1.930158000000000
pepe's piri piri,B21 9SU,52.502551440000000,-1.932058225000000
Ebony & Ivory Elegant Room B&R Ltd,B23 6DN,52.524465630000000,-1.857474845000000
SUBWAY,B23 6HP,52.525060230000000,-1.858534145000000
Amar bangla ltd T/s Spicemenu,B29 5PT,52.437182560000000,-1.968388715000000
Castle Bingo Barnes Hill,B29 5TY,52.440106390000000,-1.977551467000000
CAFE 55,B29 6AU,52.446283210000000,-1.932026789000000
YAKINORI SELLY OAK LTD,B29 6BD,52.446040110000000,-1.931379799000000
Subway,B29 6BE,52.445340200000000,-1.933690752000000
Dilshad Restaurant ,B29 6BQ,52.444702430000000,-1.934633295000000
IB ENTERPRISES LTD T/A PEPE'S PIRI PIRI,B29 6BQ,52.444702430000000,-1.934633295000000
Sliced N Diced,B29 6HW,52.438484510000000,-1.940673665000000
Bohemia Restaurant,B29 6JE,52.438807640000000,-1.939658218000000
BBC Drama Village,B29 6LT,52.432860670000000,-1.949477000000000
Kimchi,B29 7AE,52.444639000000000,-1.932471000000000
Watan Kashmiri Restaurant Ltd,B29 7HQ,52.447242030000000,-1.913442575000000
Cucina Rustica Ltd,B3 1DX,52.484696440000000,-1.904519174000000
Arch 13 Bar,B3 1EU,52.484541010000000,-1.901338776000000
Itihaas Restuarant,B3 1JL,52.482953640000000,-1.906083797000000
Milan Indian Cuisine,B3 1LH,52.482934110000000,-1.904538000000000
rajdoot tandoori ltd,B3 1PY,52.482831260000000,-1.910589922000000
Saint Kitchen,B3 1QS,52.484500010000000,-1.906198318000000
The Rectory,B3 1QS,52.484500010000000,-1.906198318000000
St Pauls House,B3 1RB,52.485604620000000,-1.904340000000000
Queen's Arms,B3 1RY,52.483628250000000,-1.906538849000000
Pasta di Piazza,B3 1SA,52.484932220000000,-1.907080946000000
Lasan Restaurant,B3 1SD,52.485013530000000,-1.907596177000000
OTTO,B3 1TR,52.486093000000000,-1.907137000000000
Fazenda Rodizio Bar & Grill,B3 2AA,52.480800500000000,-1.900507832000000
GAUCHO Birmingham,B3 2AA,52.480800500000000,-1.900507832000000
200 Degrees,B3 2BH,52.482301000000000,-1.898766593000000
Gusto Italian,B3 2BS,52.482021820000000,-1.898958982000000
OPUS,B3 2DE,52.482286000000000,-1.901579000000000
Zen Metro,B3 2DF,52.482267600000000,-1.902610186000000
The Florence,B3 2ES,52.481637810000000,-1.902007862000000
Urban Cafe Bar Kitchen,B3 2NP,52.482076950000000,-1.900357712000000
Hotel du Vin & Bistro Birmingham,B3 2NR,52.482418180000000,-1.899900471000000
Primitivo,B3 2NT,52.481924070000000,-1.900417000000000
Tattu Birmingham ,B3 2NT,52.481924070000000,-1.900417000000000
Monty's Deli Sandwich Bars Ltd,B3 2QD,52.482218340000000,-1.897486048000000
Dishoom Birmingham,B3 3AX,52.480245000000000,-1.905260000000000
The Colmore,B3 3BD,52.480244080000000,-1.901657570000000
Soul Deli,B3 3HN,52.481523700000000,-1.905409501000000
Asha's ,B3 3LX,52.481207000000000,-1.902068000000000
Purnell's Bistro & Gingers Bar,B3 3NY,52.481430470000000,-1.901316266000000
Knights coffee house,B3 3RJ,52.481872670000000,-1.903376742000000
Subway Newhall St Birmingham,B3 3RJ,52.481872670000000,-1.903376742000000
Rowheath Pavilion Cafe,B30 1HH,52.422337510000000,-1.938915954000000
Manhattan70s ,B30 1JB,52.416822270000000,-1.930998598000000
Kafenion ,B30 2AA,52.431128000000000,-1.933138000000000
Bournville,B30 2AE,52.431856290000000,-1.935740620000000
Akash Tandoori,B30 2JL,52.425654030000000,-1.922175975000000
Tiger Bites Pig ,B30 2JR,52.427524230000000,-1.922584477000000
tierra tacos,B30 2JR,52.427524230000000,-1.922584477000000
Akrams restaurant ,B30 2NW,52.424242080000000,-1.921399060000000
Patiala ,B30 2XU,52.430113000000000,-1.920683097000000
SANTI PIZZA,B30 2YT,52.431397260000000,-1.920062664000000
THE NEW MASALLA MERCHANT RESTAURANT LIMITED,B30 2YT,52.431397260000000,-1.920062664000000
The Bournbrook Inn ,B30 2YT,52.431397260000000,-1.920062664000000
new balti bazaar,B30 2YT,52.431397260000000,-1.920062664000000
Subway Cotteridge,B30 3DJ,52.416416570000000,-1.929058444000000
McLean Restaurants Ltd,B30 3PN,52.408166460000000,-1.919310715000000
Bournville Brasserie,B31 2FR,52.428937924855200,-1.953173000000000
Costa Northfield ,B31 2JU,52.416846980000000,-1.967991451000000
Kezza Kofee ltd,B31 2NG,52.415984650000000,-1.971036000000000
McDonalds,B31 2NG,52.415984650000000,-1.971036000000000
RENUKA MULTINATIONAL LIMITED T/A SUBWAY NORTHFIELD ,B31 2NG,52.415984650000000,-1.971036000000000
Northfield Baptist Church,B31 2NQ,52.415256790000000,-1.972168111000000
The Clock Cafe ,B31 2NS,52.413748000000000,-1.971875000000000
Trader Cafe Ltd,B31 2NS,52.413748000000000,-1.971875000000000
Rumana's,B31 2QT,52.410636290000000,-1.973935111000000
Subway,B31 2UQ,52.394997000000000,-1.984216744239140
M and D Court Catering,B31 4BY,52.397505953069800,-1.973017115719640
The New Talbot,B32 2AY,52.463688300000000,-1.984825350000000
NEW ISLAND INN QUINTON LTD,B32 2PP,52.453663890000000,-1.980796740000000
German Doner Kebab,B4 6AB,52.481157000000000,-1.896089409000000
Wayland's Yard Birmingham,B4 6AF,52.482270960000000,-1.895969266000000
Soul Deli,B4 6EQ,52.495968000000000,-1.894209000000000
Burger hut,B4 6HW,52.486536390000000,-1.900863082000000
Holiday Inn Express Birmingham Snow Hill,B4 6HY,52.485211910000000,-1.897390752000000
MY SHOP 4 LTD,B4 6PH,52.482764600000000,-1.895055152000000
The Boston Tea Party Group Limited,B4 6QD,52.483212140000000,-1.892860039000000
Big Johns City,B4 6SX,52.481415740000000,-1.894646066000000
The Coffee Bar Birmingham ,B4 6SX,52.481415740000000,-1.894646066000000
Chopstix Birmingham Bull Street,B4 7AA,52.480689000000000,-1.895472000000000
brgri,B4 7DP,52.487921620000000,-1.891479036000000
Subway,B4 7LB,52.481417000000000,-1.894646000000000
COFFEE TIME (B'HAM) LIMITED,B4 7LG,52.480732380000000,-1.894500450000000
Makan,B4 7LG,52.480732380000000,-1.894500450000000
McDonald's Kings Parade,B4 7LN,52.480398890000000,-1.893544171000000
Ngopi,B4 7LS,52.480660250000000,-1.894265033000000
The Centenary Lounge Ltd,B4 7UL,52.478691000000000,-1.892105000000000
Veri Peri,B42 1TY,52.525744400000000,-1.904357000000000
The New Bell,B42 2NX,52.541486900000000,-1.918138379000000
Veggie Master,B42 2QS,52.539291600000000,-1.903796604000000
Simla spice,B43 6PL,52.546214730000000,-1.930811000000000
Special spices,B43 6QU,52.542442370000000,-1.957343522000000
Basmati restaurant,B43 7AG,52.557617460000000,-1.937490052000000
Pigeons Parlour,B43 7QP,52.553311940000000,-1.910373415000000
Longbridge Retirement Village Bistro,B45 8TD,52.394681390000000,-1.990932632000000
Lailing restaurant,B45 8UT,52.384891490000000,-2.001380903000000
Subway,B45 9JA,52.393277940000000,-2.017457788000000
Himalaya Restaurant Est 1974 Limited,B45 9QD,52.395589710000000,-1.998045000000000
McDonald’s Longbridge,B45 9UA,52.395877280000000,-1.994253710000000
Bean 47 ,B47 5HD,52.385329000000000,-1.883693309000000
MONSOON RESTAURANT,B47 5PA,52.391095810000000,-1.878858389000000
Westmead Hotel,B48 7AL,52.377844950000000,-1.958206439000000
Grosvenor Casino Birmingham Hill Street,B5 4AH,52.477177830000000,-1.900854614000000
tamatanga,B5 4AX,52.477648000000000,-1.902193000000000
TAKUMI UK LTD,B5 4BD,52.474846940000000,-1.897915362000000
Chaophraya,B5 4BE,52.477604200000000,-1.894875996000000
SOHO Coffee Shops Limited The Bullring,B5 4BL,52.476813520000000,-1.895363736000000
Ming Moon Restaurant Birmingham ,B5 4BN,52.475019000000000,-1.897487163000000
Ooty Station,B5 4BP,52.477836180000000,-1.892902511000000
Archie's Selfridges,B5 4BU,52.477935970000000,-1.893903462000000
SOHO Coffee Shops Limited Bullring 2,B5 4BU,52.477935970000000,-1.893903462000000
The Indian Streatery Express,B5 4BU,52.477935970000000,-1.893903462000000
Wrapchic,B5 4BU,52.477935970000000,-1.893903462000000
TAJ MAHAL RESTAURANT,B5 4EJ,52.476520000000000,-1.897543000000000
Holiday Inn Birmingham City Centre,B5 4EW,52.475729010000000,-1.899150031000000
OTORO SUSHI,B5 4RQ,52.476112050000000,-1.895085663000000
Chung Ying Cantonese Restaurant,B5 4RT,52.475385970000000,-1.897487163000000
LY 968 Limited T/A RuGa Bistro,B5 4RX,52.475976000000000,-1.896362000000000
Wu Shuang,B5 4SZ,52.475673190000000,-1.896956482000000
CAFFE CHINO,B5 4TD,52.474531150000000,-1.896605808000000
HOT SEVEN CHINESE RESTAURANT,B5 4TD,52.474531150000000,-1.896605808000000
Pepper chef,B5 4TD,52.474531150000000,-1.896605808000000
Topokki,B5 4TE,52.474270920000000,-1.897151137000000
XIONGQI LTD ,B5 4TR,52.473617000000000,-1.898448000000000
Khan palace cafe ltd,B5 5BD,52.476531950000000,-1.892154800000000
Clayton Hotel Birmingham,B5 5JE,52.481420550000000,-1.890037261000000
Tin Tin Food Hall,B5 5JE,52.481420550000000,-1.890037261000000
TOPCUP,B5 5JN,52.481601000000000,-1.889330000000000
The Woodman,B5 5LG,52.481705140000000,-1.886752950000000
The Karczma,B5 5PH,52.479200180000000,-1.890204745000000
Fazeley Social,B5 5SE,52.478256280000000,-1.881918000000000
Teamworks Karting Birmingham,B5 5SE,52.478256280000000,-1.881918000000000
Hennessey's Bar,B5 5TJ,52.477599620000000,-1.889825914000000
80'S Canteen Limited,B5 6AB,52.473498000000000,-1.895607000000000
Subside Bar Ltd,B5 6DA,52.475720770000000,-1.889580000000000
Manzil Restaurant ,B5 6DT,52.476269380000000,-1.890123685000000
The loft kitchen ,B5 6RG,52.473255000000000,-1.896211746000000
PINCHUAN LTD ,B5 6SE,52.473128010000000,-1.895799388000000
Quarter Horse Coffee,B5 7AH,52.471575790000000,-1.899321434000000
Big Johns Highgate,B5 7JE,52.466094510000000,-1.892062491000000
McDonald's Bristol Road,B5 7TT,52.465752740000000,-1.902263835000000
Brittons of Birmingham,B6 4JX,52.492364600000000,-1.894104000000000
THE BARTONS ARMS,B6 4UP,52.499235000000000,-1.895104000000000
Adian's Dining,B6 4UU,52.498971000000000,-1.894540000000000
Perfect Subs Ltd t/a Subway,B6 6QR,52.512695000000000,-1.887145000000000
wildmoor oak country pub and dining ,B61 0RB,52.381723000000000,-2.057546000000000
The Little Griddle,B62 8AN,52.458909000000000,-2.042665000000000
BALTI TOWERS,B62 9DJ,52.469959690000000,-2.032577338000000
FAIRFIELD INN,B62 9JA,52.473107950000000,-2.025439609000000
The Why Not Inn,B63 2JH,52.454178900000000,-2.090588767000000
McDonald’s Lye,B63 2RG,52.457989000000000,-2.094423000000000
MAHADEV SINGH LIMITED T/A SUBWAY HALESOWEN,B63 3AW,52.448863150000000,-2.049761979000000
ThinkFresh!,B63 3BG,52.450121570000000,-2.050190114000000
Bangla Lounge ,B63 3BQ,52.449501230000000,-2.050262975000000
A&S Restaurants LTD T/A McDonalds,B63 3JQ,52.447282620000000,-2.045552216000000
Loyal lodge public house,B63 3LY,52.457601360000000,-2.049933764000000
Teamworks Karting Halesowen,B63 3NR,52.456615000000000,-2.046533000000000
Subway Shortcross,B63 3UA,52.452473370000000,-2.057976994000000
Flute,B63 3UD,52.453118980000000,-2.061288751000000
THE HAGLEY ,B63 4QQ,52.444408640000000,-2.059482000000000
Ivan's Fish & Chip Shop,B64 5JT,52.475217260000000,-2.075247070000000
Saliya Indian Restaurant,B64 6AG,52.470122080000000,-2.085322102000000
THE CHERRYWOOD SMOKE HOUSE,B64 6AH,52.470356870000000,-2.083850469000000
The riddins tavern,B64 6DP,52.473046930000000,-2.066542783000000
The Crown Inn,B64 6NT,52.472314040000000,-2.058459550000000
MONTHEILL LIMITED,B64 7HF,52.466466600000000,-2.065944037000000
The Old Bush Revived,B65 0AD,52.476255550000000,-2.049969712000000
The Knights Quest,B65 0EE,52.475844480000000,-2.043903000000000
Raj Spice Restaurant Limited,B65 0HG,52.474982910000000,-2.039647842000000
Dilshad blackheath,B65 0JN,52.476053210000000,-2.038161809000000
Coffee Pot Rowley Regis Hospital,B65 8DA,52.480697000000000,-2.052080000000000
Regis Spice Ltd,B65 8JZ,52.490689730000000,-2.058012736000000
The rowley bar & grill,B65 9AE,52.485488500000000,-2.049361739000000
the brittania inn,B65 9AT,52.481382610000000,-2.042716000000000
Wendy's salt and pepper pot,B65 9BA,52.476189000000000,-2.039280990000000
Four Way Bar And Grill Limited,B65 9DD,52.494375000000000,-2.041492000000000
The Sandwich Shop,B66 2AA,52.496877000000000,-1.968877000000000
A&S Restaurants LTD T/A McDonalds,B66 2SF,52.488014350000000,-1.949355049000000
Uk pizza & Kebab House Ltd,B66 3NU,52.490304200000000,-1.967747131000000
Neelam kebab house ,B66 4AP,52.473151450000000,-1.968068728000000
Casa Italia ,B66 4AX,52.472594010000000,-1.967833582000000
HAWELI RESTAURANT ,B66 4AX,52.472594010000000,-1.967833582000000
Costa Bearwood,B66 4BH,52.474904740000000,-1.969009703000000
Sweet Dreams Desserts,B66 4BJ,52.474149520000000,-1.968774675000000
Subway,B66 4BT,52.474897000000000,-1.969584000000000
Tamu cafe,B66 4BW,52.473232600000000,-1.968981424000000
WNC bearwood LTD,B66 4BW,52.473232600000000,-1.968981424000000
Old Dresser Cafe,B66 4EY,52.479498840000000,-1.969889939000000
Aladdine Cuisine,B66 4PB,52.486588680000000,-1.959031857000000
Nemrut Turkish restaurant ltd,B67 5AZ,52.476316930000000,-1.972115245000000
Jonathans in the Park Ltd,B67 5DP,52.472668000000000,-1.970439000000000
zaalsha,B67 5RD,52.477387520000000,-1.975575000000000
Subway,B68 0BZ,52.463527390000000,-1.996850503000000
A&S Restaurants LTD T/A McDonalds,B68 0LH,52.466879760000000,-1.984912590000000
Big Man's Food,B68 0LH,52.466879760000000,-1.984912590000000
Urban Tea House,B68 0LH,52.466879760000000,-1.984912590000000
Saphari,B68 8LJ,52.484563000000000,-2.014696581000000
big singhs pizza,B69 1QS,52.505133280000000,-2.044934646000000
FLIP OUT SANDWELL,B69 2AP,52.499144310000000,-2.017411941000000
m s bar and grill ,B69 2AS,52.497752000000000,-2.019871000000000
McDonald's,B69 2AW,52.501483000000000,-2.018444000000000
masala Curry House ,B69 2HH,52.505550240000000,-2.034828485000000
The New Cottage Bar and Grill,B69 4NB,52.494857360000000,-2.003756000000000
three friends pub company limited,B69 4NH,52.495837170000000,-2.005936421000000
Ibis Styles Birmingham Oldbury,B69 4RJ,52.490775000000000,-2.021282044000000
McDonald's,B69 4RJ,52.490775000000000,-2.021282044000000
Ramada Birmingham Oldbury,B69 4RJ,52.490775000000000,-2.021282044000000
Crosswells Inn,B69 4SB,52.491827270000000,-2.011208498000000
The Little Oven Limited,B69 4SN,52.491152860000000,-2.012769472000000
 Shanahans,B7 5EP,52.496378860000000,-1.879777713000000
Oodles n Oodles Birmingham,B7 5SA,52.505477740000000,-1.856490137000000
Pepe's Piri Piri ,B7 5SA,52.505477740000000,-1.856490137000000
Shere Khan Star City Birmingham,B7 5SA,52.505477740000000,-1.856490137000000
Zauq Buffet,B7 5SA,52.505477740000000,-1.856490137000000
King Arthur Grill,B70 0HG,52.522525200000000,-2.027207564000000
midland leisure ltd trading as the new hen and chickens,B70 0RT,52.537774620000000,-2.011780721000000
the Dovecote pub & carvery,B70 0SD,52.540606290000000,-2.013108489000000
NEW ISLAND INN LTD,B70 6BB,52.509026000000000,-1.990703000000000
Sarbys Diner,B70 6BW,52.506894650000000,-1.991043000000000
Sportsmans Club West Bromwich Ltd,B70 6PP,52.512962070000000,-1.983836161000000
The Vine,B70 6RD,52.509284420000000,-1.978651000000000
The Prince Albert,B70 7EG,52.512738350000000,-1.996832546000000
The Railway Inn,B70 7JB,52.509429500000000,-2.011669833000000
Gelatos house West Bromwich ltd,B70 7NJ,52.518185990000000,-1.991321000000000
The Smokehouse Bar & Grill,B70 7PE,52.518761080000000,-1.988387817000000
PEPE'S ,B70 7PN,52.519139060000000,-1.993899425000000
Mr singh's Pizza,B70 7PP,52.519500000000000,-1.991188000000000
Sprinkles Gelato- West Bromwich,B70 7PP,52.519500000000000,-1.991188000000000
McDonald's,B70 7QG,52.518195120000000,-1.993929024000000
The Great Western Cafe,B70 7QG,52.518195120000000,-1.993929024000000
THE LITTLE DESERT SHOP WEST BROMWICH,B70 7QZ,52.517808450000000,-1.992101720000000
German Doner Kebab,B70 8EN,52.519633600000000,-1.996434183000000
Subway West Bromwich,B70 8NS,52.520165000000000,-1.995653000000000
Vujon Classical Indian Cuisine,B70 8NS,52.520165000000000,-1.995653000000000
The Soho Oak,B70 8PR,52.519049130000000,-2.006146008000000
The Yew Tree Bar and Restaurant ,B70 8QX,52.515938180000000,-2.011804221000000
The Clock House,B70 9QG,52.522330610000000,-2.000104000000000
MAYUR CATERING SERVICES LTD,B70 9QL,52.522825050000000,-2.000722822000000
Picantes,B70 9QP,52.524245390000000,-2.003700109000000
Shaftesbury Casino Limited,B70 9QW,52.523643110000000,-2.002358834000000
akash balti restaurant,B70 9QW,52.523643110000000,-2.002358834000000
Big Johns West Brom,B70 9RL,52.525352000000000,-2.007090000000000
Harry's Diner,B71 1AN,52.531913650000000,-1.993072210000000
McDonald's,B71 1RG,52.530393990000000,-1.988252150000000
The Red Lion,B71 1RH,52.531328930000000,-1.988237165000000
Greedy Pig 2,B71 2BW,52.537109690000000,-1.991390699000000
CURRY N GRILL HOUSE,B71 3LH,52.546188550000000,-1.982895144000000
Lucarelli Italian Restaurant,B71 4AN,52.522266990000000,-1.986868876000000
Subway,B71 4DL,52.530897340000000,-1.987500222000000
The Lewisham at Dartmouth Golf Course,B71 4DW,52.530519210000000,-1.982945361000000
Hallam Restaurant Sandwell Hospital,B71 4HJ,52.527355370000000,-1.987884444000000
Hawthorns Subway,B71 4JZ,52.510371000000000,-1.969176000000000
De Everest Dine,B73 5AB,52.548346880000000,-1.860951660000000
THE GARDEN ROOM,B73 5BD,52.544433390000000,-1.851158139000000
Chutney ,B73 6RG,52.548941000000000,-1.860493000000000
Indian Nights,B74 2JR,52.571980470000000,-1.885547248000000
The Bracebridge Restaurant,B74 2YR,52.579341870000000,-1.852383000000000
XO LOUNGE,B74 3EH,52.586827000000000,-1.871103000000000
DELHI 6 RESTAURANT LIMITED,B74 3EJ,52.586648110000000,-1.873037081000000
mocha coffee lounge limited,B74 3EJ,52.586648110000000,-1.873037081000000
Spice of Streetly Ltd,B74 3NA,52.579064360000000,-1.885455057000000
Streetly Balti,B74 3NA,52.579064360000000,-1.885455057000000
Spice inn ,B74 3PW,52.579365240000000,-1.889911001000000
CHAIIWALA ALUM ROCK,B8 1NJ,52.488966800000000,-1.852081470000000
Ziryab Executive Buffet,B8 3QD,52.489855060000000,-1.850694120000000
APOCALYPSE COW (NEVER STOP GRILLING),B9 4AA,52.475365140000000,-1.884163000000000
APOCALYPSE COW BIRMINGHAM LTD,B9 4AA,52.475365140000000,-1.884163000000000
Kanteen,B9 4AA,52.475365140000000,-1.884163000000000
Zumhof Biergarten,B9 4AL,52.476433000000000,-1.881849000000000
Roxy Ball Room Birmingham,B9 4AR,52.476416000000000,-1.882865000000000
Le Keux Vintage Salon,B9 4AT,52.474944000000000,-1.884605183912920
Chance & Counters Birmingham,B9 4BG,52.475444000000000,-1.884526000000000
McDonald's Bordesley Green,B9 4SU,52.477308670000000,-1.853578095000000
Bismillah Fast Food Ltd T/A BEMZZAH GRILL,B9 4TS,52.476720110000000,-1.857629000000000
THE OLD GLASSHOUSE PUB COMPANY LTD,DY1 1HA,52.511038000000000,-2.083751000000000
Dudley Spice,DY1 1LP,52.511415047811300,-2.082293296891920
the old priory,DY1 1LU,52.511656947009100,-2.083340000000000
The Coffee Shop,DY1 1PZ,52.509031182297900,-2.084469432894160
PAPAZ PIZZA AND KEBAB,DY1 1QE,52.509245972458400,-2.085810628575470
Twice the spice ,DY1 1QP,52.508174600768000,-2.087797000000000
Subway,DY1 1QQ,52.509714425557800,-2.084456012854900
The Hilly House,DY1 2QH,52.512096696877400,-2.106724921100440
A&S Restaurants LTD T/A McDonalds,DY1 4TA,52.516132356609500,-2.072222592551080
Love Food Italia,DY10 1AF,52.384595385704900,-2.247742235747220
BISTROT PIERRE - KIDDERMINSTER,DY10 1BY,52.386422000000000,-2.249629000000000
The station inn,DY10 1UG,52.383941612890200,-2.237777290637050
Subway ,DY10 2BH,52.388678884369900,-2.246590000000000
Divine Indian Cuisine,DY10 2DU,52.390000000000000,-2.247508000000000
The Old House at Home,DY10 3JE,52.402904295061600,-2.180511299764290
ISLAND POOL,DY10 3RX,52.420634201993900,-2.217021153179700
China Lodge,DY11 6RX,52.387648650921000,-2.257721464380020
A&S Restaurants LTD T/A McDonalds,DY11 6TT,52.388354000732500,-2.251642415959850
La Brasserie,DY11 6UU,52.388076873587200,-2.250906161887900
dy11 6uu,DY11 6UU,52.388076873587200,-2.250906161887900
Cafe Masala,DY11 6XB,52.389323351950300,-2.256555712013110
The Woodman,DY2 0BP,52.480154506896200,-2.086254000000000
Joseph Dubliners,DY2 7AE,52.510697176286000,-2.080376484929380
Birdcage Grill (Fish and Chips),DY2 7AG,52.510373770189900,-2.080037005205280
Costa Coffee,DY2 7BL,52.510373045636600,-2.081097869978210
D-cube Restobar (Restaurant & Bar),DY2 8NY,52.509185572373300,-2.082259651639460
Aksaraa service limited ,DY2 9PS,52.488707288018600,-2.081131520448210
CROWN,DY3 1RJ,52.544283699517300,-2.122168000000000
Subway,DY3 1RP,52.541766055591900,-2.122455975656610
Lime ,DY3 1SR,52.538676628014300,-2.119439640480070
Upper Gornal McDonald's,DY3 1UX,52.527802250104400,-2.116182000000000
LE RAJ RESTAURANT (DUDLEY) LIMITED,DY3 2UA,52.517221465511400,-2.132143000000000
Seven Stars,DY3 3LT,52.539134375532800,-2.128700044145150
The Summerhouse Sedgley Ltd,DY3 4AN,52.540723234175900,-2.146176834895510
The Dudley Arms Pub Company,DY3 4LB,52.518522995630600,-2.175665412014080
Alis kitchen,DY4 7EL,52.530218475573700,-2.035025034965150
Balti nites,DY4 7EL,52.530218475573700,-2.035025034965150
A&S Restaurants LTD T/A McDonalds,DY4 7HJ,52.530785599300100,-2.032490000000000
Ekhaya Bar and Grill ,DY4 7RG,52.518036956249200,-2.058255227624380
Mughal Massala ,DY4 8DB,52.528502160258100,-2.072699905495580
The fountain inn ,DY4 8HE,52.528773506076600,-2.069973379787670
MAJOR CURRY AFFAIR ,DY4 8XE,52.519448435255700,-2.058124467424840
Mad O'Rourkes Pie Factory,DY4 9AB,52.530630916226300,-2.075636898323630
The Barge & Barrel ,DY4 9AU,52.530329000000000,-2.071833000000000
Saltwells Inn,DY5 1AX,52.479820495034200,-2.099078453068160
Royal Adeel Restaurant ,DY5 1LH,52.484808111817700,-2.120530000000000
Burrito Kitchen Merry Hill,DY5 1QX,52.482057848744700,-2.110495206735030
Chopstix Merry Hill Zeto,DY5 1QX,52.482057848744700,-2.110495206735030
Little Dessert Shop Ltd,DY5 1QX,52.482057848744700,-2.110495206735030
SOHO Coffee Shops Limited Merry Hill 2,DY5 1QX,52.482057848744700,-2.110495206735030
Tasty plaice ,DY5 1QX,52.482057848744700,-2.110495206735030
Yangtze Merry Hill,DY5 1QX,52.482057848744700,-2.110495206735030
Blue Ball Restaurant ,DY5 1SE,52.472952795877200,-2.108706000000000
McDonald’s Merry Hill 4,DY5 1SH,52.479794000000000,-2.109650563211110
Harper's British Classics,DY5 1SJ,52.480926000000000,-2.110831000000000
Napoli Pizzeria & Pasta,DY5 1SJ,52.480926000000000,-2.110831000000000
Subway Merry Hill,DY5 1SJ,52.480926000000000,-2.110831000000000
Wrapchic,DY5 1SJ,52.480926000000000,-2.110831000000000
Oopsy Daisies Ltd,DY5 1SS,52.482488646540900,-2.111056000000000
McDonald’s Merry Hill 1,DY5 1SY,52.477815000000000,-2.111369977143630
Triple Two Coffee,DY5 1SY,52.477815000000000,-2.111369977143630
Scallywags soft play,DY5 1UA,52.484147466103400,-2.115463000000000
BRIERLEY HOP HOUSE,DY5 1XD,52.485191961051100,-2.114052005748990
Saucy sausage cafe,DY5 2JW,52.472937619639200,-2.105481635907220
 The Koyla Kitchen,DY5 2JY,52.465700495714200,-2.115488000000000
The Tenth Lock,DY5 2TY,52.475358494773100,-2.121505581158060
The Brierley Sausage,DY5 3BU,52.482856165274400,-2.121629000000000
Zaks plaice,DY5 3BU,52.482856165274400,-2.121629000000000
Il Michelangelo,DY5 3JA,52.486029667115300,-2.129870031228840
J's Diner & Catering Services ,DY5 3LH,52.474344000000000,-2.137786000000000
the new wellington ,DY5 3LQ,52.473883642380600,-2.138299389072930
High Oak,DY5 4ED,52.500644504565000,-2.132402719396710
Hickory's Smokehouse,DY6 0EN,52.501181000000000,-2.182916939076280
Alam International Restaurant Limited,DY6 0NP,52.505761757838300,-2.178693598021120
the bell inn,DY6 8AJ,52.497889116373800,-2.164564935871810
McDonald’s Kingswinford,DY6 8WT,52.500227000000000,-2.151655000000000
Jilly's Coffee Shop,DY6 9JL,52.497028585938200,-2.169157416440850
Robbys,DY6 9JL,52.497028585938200,-2.169157416440850
The Leopard Inn,DY6 9NA,52.496119634640100,-2.169831479897680
Swan inn,DY6 9NW,52.492351000000000,-2.165825106719020
The Park Tavern ,DY6 9QG,52.493437449286600,-2.172030421425170
Sommai Thai Restaurant,DY6 9ST,52.489160511279100,-2.176579132666860
The Mount Pleasant Inn,DY6 9TH,52.488271000000000,-2.171097859632880
Norac Ltd,DY7 5BL,52.465596162648500,-2.234493000000000
Halfpenny Green Wine Estate,DY7 5EP,52.531070904358300,-2.251426356928900
Baci Ristorante,DY7 6HE,52.448903194049200,-2.229034234812360
Kinver Tandoori Limited,DY7 6HE,52.448903194049200,-2.229034234812360
The olde house tearoom ,DY7 6HE,52.448903194049200,-2.229034234812360
Bay Tree Restaurant,DY7 6HL,52.447520565657200,-2.228085404255050
the white harte,DY7 6HL,52.447520565657200,-2.228085404255050
The Vine Inn ,DY7 6LJ,52.450001377006400,-2.223610426393230
Harleys Smokehouse Limited,DY7 6LU,52.454685000000000,-2.209610000000000
Westman Securities Ltd T/A Dunsley Hall Hotel,DY7 6LU,52.454685000000000,-2.209610000000000
cafe express,DY8 1AB,52.456764777507900,-2.147325641894410
stourbridge Institute & social club,DY8 1AD,52.456539513557500,-2.147736944738100
THE PLOUGH & HARROW,DY8 1AX,52.451162274668600,-2.148704790434510
UGARACHANDI BHAGWATI TRADING LIMITED,DY8 1DP,52.456540907618800,-2.146412000000000
Cafe 105,DY8 1EE,52.455419648027500,-2.144598701129080
THE DUKE WILLIAM,DY8 1EP,52.457637427254400,-2.146622000000000
COSTA COFFEE,DY8 1HJ,52.455929955046000,-2.146322157256230
COSTA COFFEE,DY8 1JN,52.460172943791600,-2.146557010568710
McDonald’s Stourbridge,DY8 1JN,52.460172943791600,-2.146557010568710
The Seven Stars,DY8 1NQ,52.448984318750600,-2.135749328347730
FULL OF BEANS CAFE LIMITED,DY8 1PH,52.454449522592300,-2.143948031923090
Coffee Shop Oldswinford Ltd,DY8 1QU,52.449175906259900,-2.141194000000000
Soha’s Royal Cuisine,DY8 1RF,52.448455543906800,-2.142000975107030
BOMBAY PICKLES LTD,DY8 1TA,52.458202767249200,-2.147654220337930
Cellars Indian Cuisine ltd,DY8 1TT,52.458606171039400,-2.148715000000000
Smiths Developments Ltd,DY8 2AA,52.449656392086000,-2.152275209823470
Dilshad Balti house ltd,DY8 2JD,52.447874000000000,-2.140748831889270
Crown Inn,DY8 2RX,52.432307851558800,-2.170394661718500
The Greyhound,DY8 2TA,52.444118059934900,-2.159450320038220
East One Curry House Limited,DY8 3NX,52.460059539855200,-2.164408912537270
The Plough Inn,DY8 3PD,52.459727963003800,-2.170014986520570
Indus Express,DY8 3QG,52.460413564093700,-2.161937679980550
Indiluxe,DY8 4AJ,52.471012676078100,-2.155307978041460
Red Cone Coffee House,DY8 4AZ,52.476188366019700,-2.157225476991130
Khatri's ,DY8 4BA,52.471186291699700,-2.153041000000000
Moons Cafe,DY8 4BS,52.470700701236300,-2.153260657730130
Ruby Cantonese Restaurant,DY8 4HE,52.467427730542600,-2.153735027468040
The Old Wharf Inn,DY8 4LY,52.460980000000000,-2.149047000000000
The Red Forte Indian Restaurant ,DY8 4NJ,52.461941370989600,-2.162296528893080
LITTLE TASTE OF HEAVEN ,DY8 5PG,52.480892034136400,-2.162454713927620
Crystal Balti,DY8 5SE,52.478592629524000,-2.160973866773460
The Robin Hood Inn,DY9 0BW,52.381005000000000,-2.141681000000000
Watering Can,DY9 0EE,52.393455711541400,-2.161912530771600
STATION INN,DY9 0NG,52.419244355816000,-2.144112523030150
HagleyCafeLtd,DY9 0NJ,52.419011081354500,-2.143729462647360
Shen Spice Limited,DY9 0NJ,52.419011081354500,-2.143729462647360
West One (Hagley) LTD,DY9 0NW,52.420881363763300,-2.143441467180830
Sadlers Tap House Limited,DY9 7DG,52.457760000000000,-2.119249000000000
Balti Bazaar,DY9 8DJ,52.457004284187100,-2.118217328743430
Subway,DY9 8DU,52.461933000000000,-2.116994000000000
Maliks Restaurant Lye Ltd,DY9 8ET,52.459648582602200,-2.116973454677350
The Queensway ,DY9 9HN,52.441486516571200,-2.119220197617560
HAGLEY GOLF CLUB,DY9 9JW,52.435362996823700,-2.101390764363250
The Four Stones Restaurant,DY9 9PS,52.415854958609100,-2.110976191222150
The Fountain Inn,DY9 9PU,52.414953052295300,-2.114017325558370
The French Hen,DY9 9PY,52.416419584914200,-2.121857773853930
Ye Olde Horseshoe Inn,DY9 9ST,52.392815424801400,-2.118133540283860
Talbot Inn at Belbroughton,DY9 9TG,52.391583961124700,-2.117953909128170
Holly Bush Inn,DY9 9UG,52.396889000000000,-2.098348000000000
Expressions,WS1 1JQ,52.584763069038100,-1.977817964325340
McDonald's,WS1 1NG,52.585062000000000,-1.983308227876890
Subway,WS1 1NG,52.585062000000000,-1.983308227876890
Jack & Ada's,WS1 1NR,52.585547000000000,-1.982969000000000
Memoirs bar ,WS1 1PL,52.583604367943800,-1.984002475832610
The Black Country Arms ,WS1 1QW,52.583297931451000,-1.979442000000000
DIGBYS CAFE,WS1 1RH,52.583343303849200,-1.981656000000000
zaraza restaurant romanesc,WS1 1SZ,52.587756423503100,-1.976517574657730
Burger King,WS1 1YS,52.584458418407000,-1.984149760805340
COSTA COFFEE,WS1 1YS,52.584458418407000,-1.984149760805340
Subway,WS1 1YT,52.583874063900500,-1.983914000000000
Shimla Peppers at Balloons,WS1 2EU,52.583396222168000,-1.975767183833420
Five Rivers A la Carte,WS1 3NA,52.580889326747400,-1.983117975136800
Rendezvous Walsall ltd,WS1 3QQ,52.581698713313800,-1.985449456943620
Caldmore Restaurant,WS1 3RF,52.577473055104900,-1.982115809079040
Dera Walsall Ltd,WS1 3RF,52.577473055104900,-1.982115809079040
McDonald's,WS1 4SB,52.566409000000000,-1.992256000000000
Park Inn by Radisson Birmingham Walsall,WS1 4SE,52.564375757056200,-1.989320000000000
Buttylicious,WS10 0DX,52.556231402346700,-2.000782569474310
Akropolis Savor,WS10 0ED,52.550990249315000,-1.995326000000000
D's Soulfood Kitchen,WS10 0ED,52.550990249315000,-1.995326000000000
Le bakery ,WS10 0ED,52.550990249315000,-1.995326000000000
The Village Inn,WS10 0QB,52.554073660091800,-2.006342846294020
PARKHILL CAFE,WS10 0TJ,52.557840538625100,-1.996298563931180
island cafe and takeaway ltd,WS10 7AQ,52.551788870962800,-2.018907897246480
seven Bar,WS10 7AQ,52.551788870962800,-2.018907897246480
The Vintage Tea Room and Cafe,WS10 7HB,52.552678444147200,-2.021356521579480
Lamp restaurant ,WS10 7HQ,52.553388698176700,-2.021047148978670
spices restaurany & takeaway wednesbury ltd,WS10 7PA,52.552337000000000,-2.026430000000000
MAC'S DINER LTD,WS10 8BQ,52.570821000000000,-2.023180000000000
churchills bar and restaurant,WS10 9BZ,52.553219000000000,-2.019159000000000
Jamaica Blue Next (Wednesbury) ,WS10 9QY,52.566795000000000,-2.007791000000000
Smashburger,WS10 9QY,52.566795000000000,-2.007791000000000
Hungry Pigs Cafe,WS2 0DU,52.585256949842000,-2.024486770807550
BB's Coffee Shop c/o Boundary Mill Stores,WS2 0LE,52.581672000000000,-2.017873000000000
Subway,WS2 8DH,52.585872000000000,-1.989610000000000
DODO Pizza,WS2 8EJ,52.589312905814800,-1.984281000000000
Subway Restaurant,WS2 8EJ,52.589312905814800,-1.984281000000000
The Littleton Restaurant,WS2 8ES,52.589449000000000,-1.982554000000000
German Doner Kebab,WS2 8EZ,52.587633000000000,-1.983646661770700
McDonald's,WS2 8EZ,52.587633000000000,-1.983646661770700
Royal Punjab,WS2 8EZ,52.587633000000000,-1.983646661770700
COSTA COFFEE,WS2 8LG,52.585510441171500,-1.985891000529990
Pirifino Walsall ,WS2 8LN,52.585267780875700,-1.986009000000000
Dine & Wine Restaurant ,WS2 8LP,52.586481349515700,-1.985979253131340
Creams Cafe Walsall,WS2 8LR,52.585844000000000,-1.987234000000000
The Lockside Steakhouse,WS2 8LR,52.585844000000000,-1.987234000000000
parkbrook bar and grill ltd,WS2 8RJ,52.587488788334700,-2.006908753693570
The Alma Inn ,WS2 8SP,52.591291631279100,-2.003499000000000
McDonald's,WS2 8XD,52.596642000000000,-2.000695000000000
PREMIER DINER,WS2 9NT,52.581539000000000,-1.991161000000000
olive Restaurant and Sweet,WS2 9QL,52.573455872594600,-1.996400630640210
MAC'S DINER LTD,WS2 9QN,52.573493000000000,-1.997183000000000
Calderfields Golf & Country Club Ltd,WS4 2JS,52.587662000000000,-1.955322000000000
The Broadway Bar And Grill,WS5 3AB,52.572533008851600,-1.962198439207570
KAJAL BALTI LIMITED,WS5 3EY,52.571933570961400,-1.946293197242830
King Arthur Grill,WS5 3EY,52.571933570961400,-1.946293197242830
Pacific Nurseries Limited,WS9 0PH,52.589657177843600,-1.888423951978400
Peninsular Cantonese Restaurant,WS9 0PP,52.588075240600800,-1.888708405747800
Waterside Cafe,WS9 0PU,52.595997959879600,-1.891640971682670
Britannia Hotel ,WV1 1DD,52.586462220034900,-2.123525000000000
Baguette about it,WV1 1DG,52.586306219848900,-2.126698301745140
Zuri Coffee,WV1 1EQ,52.586795000000000,-2.124456000000000
Dilshad Indian Restaurant LTD,WV1 1HA,52.586092771236300,-2.124528018432670
Duke of York ,WV1 1HD,52.585957191647300,-2.125339000000000
Apna Dera Ltd,WV1 1HP,52.587270057897400,-2.124885603079070
Jivan’s Balti House,WV1 1HP,52.587270057897400,-2.124885603079070
Cafe 1896 Limited ,WV1 1JY,52.591003000000000,-2.123715000000000
2 Sisters Coffee Lounge ,WV1 1ST,52.585974135078300,-2.126195515863930
Alice's Tea Room,WV1 1TQ,52.585712000000000,-2.128335000000000
SUBWAY,WV1 1TQ,52.585712000000000,-2.128335000000000
Top Nosh,WV1 1TQ,52.585712000000000,-2.128335000000000
THE NEW VICTORIA LTD,WV1 2BA,52.588036033993600,-2.093743579773110
Fresh Bakes Cafe,WV1 2HW,52.583488473670700,-2.102825000000000
subway,WV1 3AE,52.584842381197000,-2.125395000000000
China Cooking,WV1 3EN,52.585505240985700,-2.127522515836260
McDonald’s Dudley St,WV1 3ER,52.584860000000000,-2.126841191229450
Subway Wulfrun Centre,WV1 3HG,52.583421000000000,-2.127487000000000
Oceans Fryer Ltd,WV1 3HH,52.583239721632500,-2.127353000000000
Little Dessert Shop Ltd,WV1 3JW,52.585814025974300,-2.124468000000000
The Queens,WV1 3JW,52.585814025974300,-2.124468000000000
Central Cafe,WV1 3NN,52.584489300725600,-2.128066000000000
Nutmeg,WV1 3NU,52.584496848884300,-2.128936456837730
Delhi 2 Bombay,WV1 4EP,52.585797042087800,-2.139773781124440
Rosso E Nero Restaurant,WV1 4HW,52.585368000000000,-2.131064000000000
MARIGOLD INDIAN RESTAURANT UK LIMITED ,WV1 4LP,52.583836909532600,-2.132801000000000
THE NEW SPICE RESTAURANT LIMITED,WV1 4LR,52.583927515783100,-2.131635663254510
Rocco Italian,WV1 4LY,52.585382671041000,-2.132702708187120
Annabels Bar Cafe,WV1 4QL,52.588359000000000,-2.133036000000000
THE COFFEE HOUSE,WV10 0QP,52.599722000000000,-2.095555000000000
McDonald’s Wednesfield,WV11 1BP,52.596911656231200,-2.090278445155190
The Village Inns Fisherman Limited,WV11 1PB,52.599599494861800,-2.090416864196050
Little Dessert Shop Ltd,WV11 1UJ,52.597891777547100,-2.089970430234250
The cabin cafe,WV11 1XU,52.599265000000000,-2.081794000000000
The Homestead,WV12 4DA,52.596142297541900,-2.030029031124240
Clove (Willenhall) LTD,WV13 2EB,52.585862669998400,-2.043733565646960
YE OLDE TOLL HOUSE,WV13 2ER,52.584925693541600,-2.048913119307870
McDonald’s Willenhall,WV13 2RB,52.585279474733900,-2.040544961035920
Spice Lounge,WV13 3LH,52.583728106702100,-2.070503954248550
Subway Bilston High St,WV14 0EH,52.564566000000000,-2.079118000000000
Bilston McDonald's,WV14 0EZ,52.563522000000000,-2.081698000000000
Purple Flamez,WV14 0LH,52.557856000000000,-2.071406575378240
Britsh Car Auction Wolverhampton Catering,WV14 0QL,52.562242000000000,-2.086313000000000
The Grapes ,WV14 6JG,52.578314227404700,-2.073934000000000
Shan (Midlands) Ltd,WV14 7DW,52.561744846724100,-2.060408000000000
The Golden Cue Snooker Club Limited ,WV14 7LH,52.571386000000000,-2.071650000000000
Fiery Grill & Curry,WV14 8NG,52.555967519456100,-2.053423588122950
triangle bar and grill ,WV14 8PA,52.557109470360900,-2.070121870268160
Coseley McDonald's,WV14 9JH,52.543467954456000,-2.089224741688780
Horse and Jockey,WV14 9SB,52.547570778536400,-2.106737427106830
K Teas Cakes,WV2 1BA,52.582532663547300,-2.124665492350520
Subedi Kitchen LTD at Red Lion Bilston Road,WV2 2HU,52.576347278776000,-2.106704174336240
COFFEE EXPRESS,WV2 2JN,52.575944035319000,-2.105257082887810
SA Food and Grill,WV2 2PD,52.572454427809800,-2.096557979685010
THE ANGEL INN,WV2 2PD,52.572454427809800,-2.096557979685010
VEGGIE SUPREME PIZZA LTD,WV2 3AJ,52.574105780522400,-2.127873019502280
UPPER CRUST CAFE WOLVES LTD,WV2 3BY,52.576498983428600,-2.126094470263960
Lakshmi Sweet Centre LTD,WV2 3DR,52.571332000000000,-2.124634117407370
Dosa Hut,WV2 3JY,52.568160000000000,-2.124034000000000
ORO,WV2 3JY,52.568160000000000,-2.124034000000000
Jack’s Cafe bar ltd,WV2 4DU,52.578737000000000,-2.127709000000000
Kaz Bar Wolves Limited ,WV2 4HJ,52.576842462808800,-2.132603087557670
Desi yew tree,WV2 4HN,52.578121198152400,-2.130762000000000
MEAT AND EAT,WV2 4LD,52.582697241630000,-2.130584000000000
McDonald’s Penn Rd,WV3 0LH,52.577621192269300,-2.135586313781510
KPS Bar & Grill,WV3 0LU,52.576799561165000,-2.138845000000000
kps bar and grill,WV3 0LU,52.576799561165000,-2.138845000000000
Plazacafe,WV3 0RX,52.583541365741600,-2.131265534632410
Subway,WV3 0TT,52.585357656445900,-2.138961000000000
Bella Restaurant Limited,WV3 0TY,52.585778643180200,-2.140127951273930
ISO SUSHI WOK & GRILL,WV3 0TY,52.585778643180200,-2.140127951273930
Fat Daddies Smokeshack Ltd,WV3 0UN,52.582102000000000,-2.148218000000000
Kaptin korma,WV3 7HT,52.576616156254700,-2.155859000000000
Ghale's Coffee Lounge,WV3 8AY,52.580362417426900,-2.170791940509650
The Firs,WV3 8HG,52.577830088078500,-2.186778532329430
Canalside Bar and Grill ,WV3 8JU,52.578633009756000,-2.196137978186950
Penn Tandoori Ltd,WV4 4AD,52.566280827119400,-2.146630766133040
The Roebuck Pub,WV4 4DE,52.561012971151900,-2.153560994836240
CARIBBA RESTAURANT,WV4 4DF,52.560643755848600,-2.154046489636610
Penny's Cafe,WV4 4HU,52.556830548780600,-2.168178000000000
The Springhill,WV4 4LB,52.557580190445500,-2.172163580161490
5 Spice Cuisine Ltd,WV4 4PP,52.568311689055100,-2.167558257545220
Indigo Restaurant,WV4 4QL,52.565877000000000,-2.167607592341780
The Greyhound,WV4 4UN,52.562852698833500,-2.198029486768900
Ramada Resort Park Hall Wolverhampton,WV4 5AJ,52.560789744075500,-2.129649000000000
Beacon Centre for the Blind,WV4 6AZ,52.556753000000000,-2.122409000000000
Indian Street Food,WV4 6BH,52.564136586130000,-2.109447893205390
PARKFIELD CENTRAL GRILL LTD,WV4 6HQ,52.566095651898300,-2.110219933274190
Saturn Coffee Company,WV4 6JX,52.563648597599700,-2.102247651396730
The Bell Inn ,WV5 7JB,52.545964000000000,-2.217330000000000
ROUND OAK INN,WV5 8BU,52.535752196221800,-2.201018102894550
Wombourne Tandoori Restaurant,WV5 9DN,52.534602325664600,-2.183941171371390
Fresh Coffee Shop,WV5 9EJ,52.537224426616300,-2.185824538111470
The new inn,WV5 9EY,52.537454899432600,-2.187889579008280
Farmer & Friends,WV5 9JB,52.535336910697500,-2.185595419106550
Wolverhampton Lawn Tennis & Squash Club,WV6 0LH,52.594806250937100,-2.160529000000000
Pegasus ,WV6 0QQ,52.596646984930200,-2.140398900469370
Kebab House,WV6 0QW,52.594145004537200,-2.142752863108090
Farmer & Friends,WV6 7EZ,52.566569000000000,-2.244651000000000
Fiume Restaurant LTD,WV6 8AB,52.586650471331200,-2.174093103254200
Fieldhouse Inn,WV6 8DP,52.587865000000000,-2.191604000000000
The Mount Hotel Country Manor,WV6 8HL,52.587926651941900,-2.186142541729960
Monsoon ,WV6 8QQ,52.598084270449300,-2.168853000000000
Gluttons For Nourishment (Tettenhall) Limited,WV6 8QS,52.597878746015900,-2.167863144432790
Seats at Robinsons,WV6 8QT,52.597653309989300,-2.168349477866560
