name,postcode,lat,lon
Waterfall Elior Ltd At Harlequin Childcare,CB6 1BL,52.4036,0.2581
Clare's Kitchen,CB6 1EW,52.4653,0.3021
Waterfall Elior Ltd At Millfield Primary School,CB6 1HW,52.4495,0.2960
Swan on the River,CB6 1NT,52.4523,0.3177
Habis Ltd,CB6 1PH,52.4565,0.3059
The Copper Cup Ltd,CB6 1PH,52.4565,0.3059
Station Cafe Littleport ,CB6 1QE,52.4575,0.3092
Apple Green Service Station,CB6 1SG,52.4225,0.2675
Arbuckles,CB6 2FE,52.4102,0.2514
The Village Inn,CB6 2HQ,52.3869,0.2056
Elior UK PLC At Ely College And Bishop Laney,CB6 2SH,52.4107,0.2491
KFC ELY - LEISURE VILLAGE,CB6 2SH,52.4106,0.2492
KFC,CB6 2SH,52.4092,0.2518
MCDONALDS,CB6 2SH,52.4106,0.2492
McDonald's,CB6 2SH,52.4096,0.2521
Elior UK PLC At Downham Feoffees Primary School,CB6 2ST,52.4328,0.2410
Little Downham Anchor,CB6 2ST,52.4328,0.2410
Costa Coffee,CB6 2WH,52.4089,0.2556
Costa Coffee,CB6 2WH,52.4093,0.2512
Elior UK PLC At The Lantern Community Primary School,CB6 2WL,52.4083,0.2592
Apex Coffee Ltd,CB6 3NX,52.3868,0.2280
11a,CB7 4AA,52.3984,0.2677
Daybreaks Cafe,CB7 4AF,52.3983,0.2673
Le Spice,CB7 4AF,52.3983,0.2673
The Royal Standard,CB7 4AF,52.3983,0.2673
Peacocks Tearoom,CB7 4AU,52.3967,0.2703
Riverside Bar & Kitchen,CB7 4BB,52.3957,0.2683
The Cutter Inn,CB7 4BN,52.3939,0.2672
Costa Coffee,CB7 4DJ,52.3914,0.2657
The Old Fire Engine House,CB7 4ER,52.3996,0.2611
Eat Thai Restaurant ,CB7 4ES,52.4000,0.2610
Poets House Hotel,CB7 4EY,52.3989,0.2587
The Prince Albert,CB7 4JF,52.3972,0.2602
Julia’s Tea Rooms Limited ,CB7 4JU,52.3992,0.2644
The Almonry Restaurant Ely,CB7 4JU,52.3992,0.2644
Siam Seasons LTD,CB7 4LZ,52.4000,0.2643
Sylhet,CB7 4LZ,52.4000,0.2643
Lemon Tree Deli Cafe,CB7 4NP,52.3990,0.2668
Tea For Two,CB7 4NY,52.3992,0.2659
Costa Coffee,CB7 4PB,52.3996,0.2654
Costa Coffee,CB7 4PB,52.4000,0.2654
Welney Lamb and Flag LTD,PE14 9RB,52.5215,0.2493
WWT Welney Wetland Centre,PE14 9TN,52.5259,0.2778
KFC,PE15 0GB,52.5627,0.0654
Skylark Country Store & Garden Centre,PE15 0PE,52.5016,0.1163
The Three Tuns,PE15 0SP,52.4952,0.0595
The Anchor Inn,PE15 5BQ,52.5514,0.0868
DEURALI TRADING LIMITED,PE15 8AB,52.5512,0.0876
The Hippodrome March (Wetherspoon),PE15 8AQ,52.5515,0.0873
Diana Tandoori,PE15 8BQ,52.5526,0.0819
KFC MARCH,PE15 8EH,52.5561,0.0752
cook family vintage tea room,PE15 8HL,52.5531,0.0884
The Barn Restaurant,PE15 8LB,52.5514,0.0891
Purple Diamond ,PE15 8LE,52.5520,0.0906
Johanna's,PE15 8TW,52.5508,0.0889
ANNE'S THAI KITCHEN,PE15 8TX,52.5515,0.0884
Costa Coffee,PE15 9JA,52.5494,0.0880
Subway,PE15 9JA,52.5494,0.0878
The acre,PE15 9JD,52.5492,0.0874
The Exchange (March) Ltd,PE15 9JF,52.5490,0.0892
Stotts Fish Restaurant Limited,PE15 9JR,52.5482,0.0881
The spice bank ,PE15 9LD,52.5468,0.0877
Rose and Crown,PE15 9NA,52.5443,0.0911
The Seven Stars,PE15 9PS,52.5390,0.0850
Cross Keys Hotel,PE16 6BA,52.4544,0.0497
Pera Palace,PE16 6BA,52.4544,0.0497
The Old Bakery Tea Room & Restaurant,PE16 6BB,52.4543,0.0502
Islas Emporium & Café ,PE16 6BH,52.4570,0.0480
Spice Lounge ,PE16 6BH,52.4567,0.0481
Costa Coffee,PE16 6RN,52.4642,0.0439
Green Welly Cafe,PE16 6UA,52.4661,0.0413
The Barn Restaurant,PE28 3DE,52.3901,-0.0395
Lakeside Lodge Golf & Country Club,PE28 3DF,52.3947,-0.0300
Rookery Waters,PE28 3DF,52.3948,-0.0300
Chelsea Tea Room,PE28 3DQ,52.3779,0.0067
wildfrostcafe somersham ,PE28 3EE,52.3824,-0.0014
The Windmill,PE28 3ET,52.3774,-0.0235
Hollies Tea Room Limited,PE28 3HW,52.3967,0.0021
