name,postcode,lat,lon
Clare's Kitchen,CB6 1EW,52.4653,0.3021
Swan on the River,CB6 1NT,52.4523,0.3177
Habis Ltd,CB6 1PH,52.4566,0.3059
The Copper Cup Ltd,CB6 1PH,52.4566,0.3059
Station Cafe Littleport ,CB6 1QE,52.4575,0.3092
KFC ELY - LEISURE VILLAGE,CB6 2SH,52.4107,0.2491
MCDONALDS,CB6 2SH,52.4107,0.2491
Little Downham Anchor,CB6 2ST,52.4330,0.2408
Costa Coffee,CB6 2WH,52.4088,0.2556
Apex Coffee Ltd,CB6 3NX,52.3868,0.2282
11a,CB7 4AA,52.3984,0.2677
Daybreaks Cafe,CB7 4AF,52.3983,0.2673
Le Spice,CB7 4AF,52.3983,0.2673
The Royal Standard,CB7 4AF,52.3983,0.2673
Peacocks Tearoom,CB7 4AU,52.3967,0.2703
Riverside Bar & Kitchen,CB7 4BB,52.3957,0.2683
The Cutter Inn,CB7 4BN,52.3937,0.2672
The Old Fire Engine House,CB7 4ER,52.3997,0.2611
Eat Thai Restaurant ,CB7 4ES,52.4000,0.2611
Poets House Hotel,CB7 4EY,52.3989,0.2587
The Prince Albert,CB7 4JF,52.3972,0.2604
Juliaâ€™s Tea Rooms Limited ,CB7 4JU,52.3992,0.2644
The Almonry Restaurant Ely,CB7 4JU,52.3992,0.2644
Siam Seasons LTD,CB7 4LZ,52.4000,0.2645
Sylhet,CB7 4LZ,52.4000,0.2645
Lemon Tree Deli Cafe,CB7 4NP,52.3990,0.2668
Tea For Two,CB7 4NY,52.3991,0.2658
Costa Coffee,CB7 4PB,52.3997,0.2656
Robert's At Feltwell Golf Club,IP26 4AY,52.4827,0.5272
BA RAF,IP27 9PS,52.3950,0.5511
kim's bulgogi,IP27 9RX,52.3896,0.5309
manna 40 cafe,IP27 9RX,52.3896,0.5309
Welney Lamb and Flag LTD,PE14 9RB,52.5215,0.2493
Bedingfeld Arms,PE33 9PS,52.5833,0.5721
The Downham Country Garden store limted,PE38 0AD,52.5990,0.3974
The old white bell,PE38 0NA,52.5262,0.3877
