id,postcode,lat,lon
PPL,LLANABER,52.7404,-4.0762
ADM3,LLANAELHAEARN,52.9812,-4.3832
PPL,LLANAELHAIARN,52.9667,-4.4000
PPL,LLANAFAN,52.3328,-3.9298
PPL,LLANAFANFAWR,52.1901,-3.5102
PPL,LLANALLGO,53.3440,-4.2477
PPL,LLANANNO,52.3614,-3.3320
PPL,LLANARMON,52.9280,-4.3474
PPL,LLANARMONDYFFRYNCEIRIOG,52.8869,-3.2533
PPL,LLANARMONMYNYDDMAWR,52.8500,-3.2833
ADM3,LLANARMONYNIAL,53.0986,-3.1962
PPLA3,LLANARTH,52.1942,-4.3081
PPL,LLANARTHNE,51.8604,-4.1287
ADM3,LLANARTHNEY,51.8495,-4.1609
PPL,LLANASA,53.3222,-3.3435
PPL,LLANBABO,53.3534,-4.4379
PPL,LLANBADARNFAWR,52.4000,-4.0667
PPL,LLANBADARNFYNYDD,52.3833,-3.3167
PPLA3,LLANBADOC,51.6950,-2.9036
PPL,LLANBADRIG,53.4190,-4.4428
PPLA3,LLANBEDR,52.8167,-4.1000
PPL,LLANBEDRDYFFRYNCLWYD,53.1245,-3.2736
PPL,LLANBEDRGOCH,53.3003,-4.2364
PPL,LLANBEDROG,52.8580,-4.4866
PPL,LLANBEDRYCENNIN,53.2000,-3.8667
PPLA3,LLANBERIS,53.1181,-4.1292
PPL,LLANBISTER,52.3513,-3.3107
PPLA3,LLANBOIDY,51.8789,-4.5928
PPL,LLANBRADACH,51.6064,-3.2303
ADM3,LLANBRADACHANDPWLLYPANT,51.6097,-3.2403
PPL,LLANBRYNMAIR,52.6115,-3.6276
PPL,LLANCARFAN,51.4224,-3.3658
PPL,LLANCAYO,51.7227,-2.9155
PPLA3,LLANCILLO,51.9167,-2.9333
PPL,LLANCYNFELYN,52.5000,-4.0000
PPLX,LLANDAFF,51.4931,-3.2198
ADM3,LLANDAFFNORTH,51.5041,-3.2201
PPL,LLANDARCY,51.6423,-3.8566
PPL,LLANDAWKE,51.7732,-4.4913
ADM3,LLANDDANIELFAB,53.2019,-4.2432
PPLA3,LLANDDAROG,51.8272,-4.1744
PPL,LLANDDEINIOL,52.3279,-4.1117
ADM3,LLANDDEINIOLEN,53.1534,-4.1446
PPL,LLANDDERFEL,52.9213,-3.5156
PPLA3,LLANDDEUSANT,51.9059,-3.7790
ADM3,LLANDDEW,51.9683,-3.3625
PPL,LLANDDEWI,51.5784,-4.2190
PPL,LLANDDEWIBREFI,52.1667,-3.9500
PPL,LLANDDEWIRHYDDERCH,51.8118,-2.9436
PPL,LLANDDEWIVELFREY,51.8198,-4.6892
PPL,LLANDDEWIYSTRADENNY,52.3084,-3.3093
ADM3,LLANDDOGEDANDMAENAN,53.1728,-3.7821
PPL,LLANDDOGET,53.1500,-3.8000
PPL,LLANDDONA,53.2926,-4.1365
PPLA3,LLANDDOWROR,51.8017,-4.5314
PPL,LLANDDULAS,53.2899,-3.6422
ADM3,LLANDDULASANDRHYDYFOEL,53.2832,-3.6275
PPL,LLANDDWYWE,52.7799,-4.0969
PPL,LLANDDYFNAN,53.2838,-4.2486
PPL,LLANDECWYN,52.9168,-4.0519
PPL,LLANDEFAELOG,51.7822,-4.2980
PPL,LLANDEFAELOGFCH,51.9833,-3.4167
PPL,LLANDEFALLE,52.0109,-3.3025
PPL,LLANDEGAI,53.2167,-4.1000
PPL,LLANDEGFAN,53.2440,-4.1500
PPLA3,LLANDEGLA,53.0590,-3.1988
PPL,LLANDEGLEY,52.2575,-3.2618
PPL,LLANDEGVETH,51.6548,-2.9556
PPL,LLANDEGWNING,52.8382,-4.5724
PPL,LLANDEILO,51.8846,-3.9915
PPL,LLANDEILORFAN,52.0000,-3.6167
PPL,LLANDELOY,51.8974,-5.1136
PPL,LLANDENNY,51.7309,-2.8469
ADM3,LLANDINABO,51.9542,-2.7006
PPL,LLANDINAM,52.4850,-3.4369
PPL,LLANDISSILIO,51.8583,-4.7290
ADM3,LLANDISSILIOWEST,51.8608,-4.7372
PPL,LLANDOGO,51.7342,-2.6891
PPL,LLANDOUGH,51.4456,-3.4472
PPL,LLANDOVERY,51.9941,-3.7964
PPL,LLANDOW,51.4492,-3.5216
PPLA3,LLANDRILLO,52.9228,-3.4376
PPL,LLANDRILLOYNRHS,53.3000,-3.7500
PPLA2,LLANDRINDODWELLS,52.2416,-3.3787
PPL,LLANDRINIO,52.7492,-3.0514
PPLA3,LLANDUDNO,53.3250,-3.8315
PPL,LLANDUDNOJUNCTION,53.2838,-3.8046
PPL,LLANDUDWEN,52.9014,-4.5684
PPL,LLANDWROG,53.0793,-4.3156
PPL,LLANDYBIE,51.8204,-4.0071
ADM3,LLANDYFAELOG,51.7973,-4.2973
ADM3,LLANDYFRIOG,52.0513,-4.4089
PPL,LLANDYFRYDOG,53.3425,-4.3457
ADM3,LLANDYGAI,53.1724,-4.0729
PPL,LLANDYGWYDD,52.0635,-4.5677
PPL,LLANDYRNOG,53.1750,-3.3365
PPL,LLANDYRY,51.7211,-4.2690
PPL,LLANDYSILIO,52.7647,-3.0851
ADM3,LLANDYSILIOGOGO,52.1540,-4.3382
PPL,LLANDYSSIL,52.5496,-3.1862
PPL,LLANDYSSILIOGOGO,52.1833,-4.4000
PPL,LLANDYSUL,52.0417,-4.3091
ADM3,LLANEDI,51.7409,-4.0442
PPL,LLANEDWEN,53.1931,-4.2359
PPL,LLANEDY,51.7450,-4.0475
PPL,LLANEGRYN,52.6287,-4.0715
PPL,LLANEGWAD,51.8725,-4.1508
ADM3,LLANEILIAN,53.3903,-4.2938
PPL,LLANELIANYNRHS,53.2667,-3.7000
PPL,LLANELIDAN,53.0425,-3.3355
PPL,LLANELLEN,51.7930,-3.0123
PPL,LLANELLI,51.6820,-4.1619
ADM3,LLANELLIRURAL,51.7125,-4.1518
PPL,LLANELLTYD,52.7572,-3.9027
ADM3,LLANELLY,51.8163,-3.1136
ADM3,LLANELWEDD,52.1592,-3.3833
PPL,LLANENDDWYN,52.7889,-4.1030
PPL,LLANENGAN,52.8139,-4.5318
PPL,LLANERCHAERON,52.2000,-4.2333
PPL,LLANERCHYMEDD,53.3306,-4.3770
PPL,LLANERFYL,52.6767,-3.4321
ADM3,LLANEUGRAD,53.3240,-4.2674
PPLA3,LLANFACHRAETH,53.3124,-4.5334
PPL,LLANFACHRETH,52.7853,-3.8513
PPL,LLANFAELOG,53.2282,-4.4935
PPL,LLANFAELRHYS,52.8096,-4.6547
PPL,LLANFAENOR,51.8483,-2.8276
PPL,LLANFAES,53.2667,-4.1000
PPLA3,LLANFAETHLU,53.3524,-4.5342
PPLA3,LLANFAIR,52.8441,-4.1154
PPL,LLANFAIRARYBRYN,52.0456,-3.7366
PPL,LLANFAIRCAEREINION,52.6479,-3.3267
PPL,LLANFAIRCLYDOGAU,52.1424,-4.0109
PPL,LLANFAIRDYFFRYNCLWYD,53.0833,-3.3000
PPL,LLANFAIRFECHAN,53.2578,-3.9742
ADM3,LLANFAIRMATHAFARNEITHAF,53.3128,-4.2322
PPL,LLANFAIRPWLLGWYNGYLL,53.2214,-4.2033
PPL,LLANFAIRTALHAIARN,53.2176,-3.6075
ADM3,LLANFAIRWATERDINE,52.3899,-3.1119
ADM3,LLANFAIRYNNEUBWLL,53.2588,-4.5289
PPL,LLANFALLTEG,51.8475,-4.6787
PPL,LLANFALLTEGWEST,51.8410,-4.6896
PPL,LLANFAREDD,52.1466,-3.3622
ADM3,LLANFARIAN,52.3729,-4.0568
PPLA3,LLANFECHAIN,52.7746,-3.2027
PPL,LLANFECHELL,53.3919,-4.4561
PPL,LLANFERRES,53.1371,-3.2142
PPL,LLANFFESTINIOG,52.9575,-3.9303
PPL,LLANFFLEWYN,53.3729,-4.4820
ADM3,LLANFIHANGEL,52.7248,-3.3794
ADM3,LLANFIHANGELABERBYTHYCH,51.8435,-4.0535
PPL,LLANFIHANGELARARTH,52.0311,-4.2543
PPL,LLANFIHANGELBACHELLAETH,52.8833,-4.5167
PPL,LLANFIHANGELBRYNPABUAN,52.2000,-3.5000
ADM3,LLANFIHANGELCWMDUWITHBWLCHANDCATHEDINE,51.9026,-3.2003
PPL,LLANFIHANGELGENEURGLYN,52.4667,-4.0167
PPL,LLANFIHANGELGLYNMYFYR,53.0167,-3.5000
PPL,LLANFIHANGELNANTBRN,51.9833,-3.5500
PPL,LLANFIHANGELNANTMELAN,52.2154,-3.2002
PPL,LLANFIHANGELRHOSYCORN,51.9833,-4.1167
PPL,LLANFIHANGELRHYDITHON,52.2918,-3.2467
PPL,LLANFIHANGELROGIET,51.5831,-2.8100
PPL,LLANFIHANGELTYNSYLWY,53.3000,-4.1333
PPL,LLANFIHANGELUWCHGWILI,51.8836,-4.1950
PPL,LLANFIHANGELYCREUDDYN,52.3667,-3.9500
PPL,LLANFIHANGELYNGNGWYNFA,52.7333,-3.3667
PPL,LLANFIHANGELYPENNANT,52.9667,-4.2000
ADM3,LLANFIHANGELYSGEIFIOG,53.2224,-4.3001
PPL,LLANFIHANGELYSTRAD,52.1833,-4.1667
ADM3,LLANFOISTFAWR,51.8149,-3.0481
PPL,LLANFOR,52.9169,-3.5810
PPL,LLANFROTHEN,52.9507,-4.0512
PPL,LLANFRYNACH,51.9225,-3.3489
PPL,LLANFUGAIL,53.3190,-4.5113
PPL,LLANFWROG,53.3254,-4.5520
PPLA3,LLANFYLLIN,52.7657,-3.2719
PPLA3,LLANFYNYDD,51.9281,-4.0989
PPL,LLANFYRNACH,51.9508,-4.5892
PPL,LLANGADFAN,52.6866,-3.4637
PPLL,LLANGADOG,51.9381,-3.8829
PPL,LLANGADWALADR,53.1966,-4.4250
PPLA3,LLANGAIN,51.8183,-4.3475
ADM3,LLANGAMARCH,52.0855,-3.5823
PPL,LLANGAMMARCHWELLS,52.1122,-3.5549
PPLA3,LLANGAN,51.4869,-3.5006
PPL,LLANGARRON,51.8833,-2.6833
PPLA3,LLANGATHEN,51.8797,-4.0561
PPL,LLANGATTOCK,51.8518,-3.1478
PPL,LLANGATTOCKLINGOED,51.8756,-2.9293
PPL,LLANGATTOCKNIGHUSK,51.7833,-2.9667
ADM3,LLANGATTOCKVIBONAVEL,51.8506,-2.8107
PPL,LLANGEDWYN,52.8103,-3.2074
PPLA2,LLANGEFNI,53.2556,-4.3106
PPL,LLANGEINOR,51.5756,-3.5690
PPL,LLANGEITHO,52.2187,-4.0268
PPL,LLANGELER,52.0277,-4.3716
PPL,LLANGELYNIN,53.2333,-3.8500
PPL,LLANGENDEIRNE,51.8038,-4.2392
PPL,LLANGENNECH,51.6962,-4.0839
PPL,LLANGENNITH,51.6006,-4.2708
ADM3,LLANGENNITHLLANMADOCANDCHERITON,51.6213,-4.2603
PPL,LLANGENNY,51.8554,-3.1049
PPL,LLANGERNYW,53.1916,-3.6853
PPL,LLANGEWYDD,51.5210,-3.6340
PPL,LLANGIAN,52.8307,-4.5320
PPL,LLANGIWG,51.7333,-3.8500
PPL,LLANGLYDWEN,51.9088,-4.6458
PPLA3,LLANGOED,53.2942,-4.0877
PPL,LLANGOEDMOR,52.0815,-4.6303
PPLA3,LLANGOLLEN,52.9683,-3.1713
ADM3,LLANGOLLENRURAL,52.9714,-3.0853
PPL,LLANGOLMAN,51.9117,-4.7271
ADM3,LLANGORS,51.9359,-3.2746
PPL,LLANGORSE,51.9398,-3.2597
PPL,LLANGOWER,52.8764,-3.6294
ADM3,LLANGRANNOG,52.1581,-4.4326
PPL,LLANGRANOG,52.1596,-4.4707
PPL,LLANGRISTIOLUS,53.2341,-4.3522
PPL,LLANGUNLLO,52.3345,-3.1583
PPL,LLANGUNNOR,51.8583,-4.2815
PPL,LLANGURIG,52.4062,-3.6059
PPLA3,LLANGWM,51.7483,-4.9136
PPL,LLANGWNADL,52.8667,-4.6667
PPL,LLANGWYLLOG,53.2844,-4.3445
PPL,LLANGWYRYFON,52.3158,-4.0564
PPLA3,LLANGYBI,51.6658,-2.9081
ADM3,LLANGYFELACH,51.6767,-3.9670
ADM3,LLANGYNDEYRN,51.7790,-4.2268
ADM3,LLANGYNFELYN,52.5189,-3.9751
PPL,LLANGYNHAFAL,53.1620,-3.3039
PPL,LLANGYNIDR,51.8673,-3.2276
PPL,LLANGYNIEW,52.6707,-3.2928
PPL,LLANGYNIN,51.8507,-4.5432
PPL,LLANGYNLLO,52.0667,-4.4000
PPLA3,LLANGYNOG,52.8333,-3.4000
PPL,LLANGYNWYD,51.5867,-3.6503
ADM3,LLANGYNWYDLOWER,51.5590,-3.6236
ADM3,LLANGYNWYDMIDDLE,51.5802,-3.6475
ADM3,LLANGYWER,52.8705,-3.5683
PPL,LLANHAMLACH,51.9304,-3.3247
PPL,LLANHARAN,51.5380,-3.4391
PPL,LLANHARRY,51.5142,-3.4324
ADM3,LLANHENNOCK,51.6369,-2.9325
ADM3,LLANHILLETH,51.7013,-3.1317
PPL,LLANHOWELL,51.9022,-5.1686
ADM3,LLANIDAN,53.1868,-4.2753
PPL,LLANIDLOES,52.4498,-3.5400
ADM3,LLANIDLOESWITHOUT,52.4605,-3.6076
PPL,LLANIGON,52.0552,-3.1507
PPL,LLANILAR,52.3566,-4.0257
PPL,LLANINA,52.2000,-4.3333
PPLX,LLANISHEN,51.5292,-3.1908
PPL,LLANLLAWDDOG,51.9414,-4.2454
PPL,LLANLLAWER,51.9833,-4.9333
PPL,LLANLLECHID,53.1971,-4.0630
PPL,LLANLLOWELL,51.6828,-2.8795
PPL,LLANLLUGAN,52.6101,-3.3946
PPL,LLANLLWCH,51.8442,-4.3456
PPLA3,LLANLLWCHAIARN,52.1833,-4.3667
ADM3,LLANLLWNI,52.0341,-4.1866
PPL,LLANLLYFNI,53.0436,-4.2853
PPL,LLANMADOC,51.6169,-4.2525
PPL,LLANMAES,51.4178,-3.4669
PPL,LLANMILOE,51.7500,-4.5325
PPL,LLANMORLAIS,51.6314,-4.1271
PPL,LLANNEFYDD,53.2235,-3.5273
ADM3,LLANNERCHYMEDD,53.3274,-4.3838
PPL,LLANNERCHYMR,53.3000,-3.2333
PPL,LLANNON,51.7552,-4.1175
PPL,LLANNOR,52.9068,-4.4499
PPL,LLANOVER,51.7684,-2.9989
PPL,LLANPUMSAINT,51.9425,-4.3078
PPL,LLANREITHAN,51.9156,-5.1081
PPLA3,LLANRHAEADRYMMOCHNANT,52.8251,-3.3022
ADM3,LLANRHAEADRYNGNGHINMEIRCH,53.1293,-3.4419
PPL,LLANRHAIADR,53.1592,-3.3766
PPL,LLANRHAIADRYMMOCHNANT,52.8333,-3.3000
PPLA3,LLANRHIAN,51.9375,-5.1739
PPL,LLANRHIDIAN,51.6064,-4.1698
ADM3,LLANRHIDIANHIGHER,51.6354,-4.1087
ADM3,LLANRHIDIANLOWER,51.6270,-4.1848
PPL,LLANRHUDDLAD,53.3707,-4.5132
PPL,LLANRHWYDRYS,53.4000,-4.5167
PPL,LLANRHYDDLAD,53.3667,-4.5500
PPL,LLANRHYSTUD,52.3059,-4.1447
ADM3,LLANRHYSTYD,52.3090,-4.1270
PPLA3,LLANROTHAL,51.8667,-2.7667
PPL,LLANRUG,53.1479,-4.1960
ADM3,LLANRUMNEY,51.5178,-3.1283
PPL,LLANRUMNEYCOMMUNITY,51.5220,-3.1209
PPL,LLANRWST,53.1402,-3.7953
PPL,LLANSADURNEN,51.7644,-4.4919
PPLA3,LLANSADWRN,51.9500,-3.9000
PPL,LLANSAINT,51.7478,-4.3410
PPL,LLANSAINTFRAEDINELVEL,52.1833,-3.3167
ADM3,LLANSAMLET,51.6630,-3.8977
PPL,LLANSAMLETCOMMUNITY,51.6641,-3.9011
ADM3,LLANSANFFRAIDGLANCONWY,53.2607,-3.7817
PPL,LLANSANNAN,53.1790,-3.5960
ADM3,LLANSANTFFRAED,52.2769,-4.1559
PPL,LLANSANTFFRAID,52.2833,-4.1833
PPL,LLANSANTFFRAIDGLANCONWY,53.2667,-3.8000
PPL,LLANSANTFFRAIDGLYNCEIRIOG,52.9325,-3.1852
PPL,LLANSANTFFRAIDYMMECHAIN,52.7742,-3.1586
PPL,LLANSANTFFREAD,51.9000,-3.2667
PPLA3,LLANSAWEL,52.0000,-4.0167
PPL,LLANSILIN,52.8457,-3.1758
PPL,LLANSOY,51.7195,-2.8097
PPL,LLANSPYDDID,51.9430,-3.4390
PPL,LLANSTADWELL,51.7059,-4.9632
PPLA3,LLANSTEFFAN,51.7722,-4.3914
PPL,LLANSTEPHAN,52.0665,-3.2875
PPL,LLANTARNAM,51.6332,-3.0031
PPL,LLANTEG,51.7619,-4.6353
PPL,LLANTHONY,51.9432,-3.0381
ADM3,LLANTILIOCROSSENNY,51.8374,-2.8540
ADM3,LLANTILIOPERTHOLEY,51.8452,-2.9876
PPL,LLANTOOD,52.0333,-4.7000
PPLA3,LLANTRISANT,51.5403,-3.3739
ADM3,LLANTRISANTFAWR,51.6800,-2.8605
PPL,LLANTWITFARDRE,51.5546,-3.3324
PPL,LLANTWITMAJOR,51.4107,-3.4863
PPL,LLANTYSILIO,52.9867,-3.2048
PPL,LLANUWCHLLYN,52.8547,-3.6679
PPLA3,LLANVACHES,51.6211,-2.8183
PPL,LLANVAIRDISCOED,51.6267,-2.7986
PPL,LLANVAIRWATERDINE,52.3833,-3.1167
PPL,LLANVETHERINE,51.8499,-2.9270
PPLA3,LLANVEYNOE,51.9667,-3.0000
PPL,LLANVIHANGELCRUCORNEY,51.8833,-2.9833
PPL,LLANWARNE,51.9501,-2.7196
PPL,LLANWDDYN,52.7597,-3.4581
PPL,LLANWENARTH,51.8268,-3.0524
PPL,LLANWENOG,52.0866,-4.1992
PPLA3,LLANWERN,51.5889,-2.9136
PPLA3,LLANWINIO,51.9086,-4.5306
PPLA3,LLANWNDA,53.1014,-4.2785
PPL,LLANWNEN,52.1000,-4.1500
ADM3,LLANWNNEN,52.1177,-4.1492
PPL,LLANWNOG,52.5336,-3.4434
PPL,LLANWONNO,51.6504,-3.4030
PPL,LLANWRDA,51.9679,-3.8748
PPL,LLANWRIN,52.6154,-3.7917
PPL,LLANWRTHWL,52.2625,-3.5026
PPL,LLANWRTYD,52.1167,-3.6667
PPL,LLANWRTYDWELLS,52.1066,-3.6392
PPL,LLANYBLODWEL,52.7991,-3.1252
PPL,LLANYBRI,51.7872,-4.4121
PPL,LLANYBYDDER,52.0748,-4.1576
PPL,LLANYCEFN,51.8790,-4.7632
PPL,LLANYCHAER,51.9800,-4.9319
PPL,LLANYCHAIARN,52.3833,-4.0833
PPL,LLANYCIL,52.9008,-3.6159
PPL,LLANYCRWYS,52.0893,-3.9796
PPL,LLANYMAWDDWY,52.7574,-3.6271
PPL,LLANYMYNECH,52.7809,-3.0888
ADM3,LLANYMYNECHANDPANT,52.7887,-3.0701
ADM3,LLANYNYS,53.1438,-3.3506
ADM3,LLANYRAFON,51.6479,-2.9949
PPL,LLANYRE,52.2540,-3.4018
PPL,LLANYSTUMDWY,52.9208,-4.2716
