name,postcode,lat,lon
Linsang and Petrel,TS28 5JH,54.732419745349900,-1.382824269404220
Chicken and Badger,DH7 8DE,54.735038398004500,-1.655961358518650
Vole and Scimitar babbler,DL16 6AZ,54.698469997699000,-1.605206831633110
Parrotbill and Bronzewing pigeon,DH7 7JL,54.767711609851000,-1.636769045362540
Grosbeak and Pheasant,DH1 3LL,54.763961000000000,-1.582362000000000
Mamo and Viscacha,TS21 1HF,54.585537894118400,-1.439929737241090
Jackal and Logrunners,DH1 2DS,54.775235000000000,-1.538968294373360
Thicketbird and Tree warbler,DL16 6ER,54.701887698691600,-1.587142316232210
Grackle and Jackal,DH7 9NZ,54.776090000000000,-1.715165000000000
Grackle and Coati,DH6 3HW,54.748836493423300,-1.445711425805210
Magpie and Wader,DH6 1ND,54.765546776574500,-1.440727346357780
Thicketbird and Stilt,DH6 5EN,54.742169000000000,-1.521603000000000
Shearwater and Flameback,DH1 2PL,54.756151913888700,-1.539899000000000
Duck and Tit-tyrant,TS19 7AP,54.562910364534800,-1.353667535357470
Mink and Stilt,DL14 6DT,54.655432528612500,-1.671435944308580
Asiatic leopard and Partridge,DL14 8NF,54.658953648687000,-1.633662000000000
Marsh harrier and White ibis,DL5 6DA,54.605981030454000,-1.574133395716310
Vulture and Skunk,DL17 8DP,54.686784678423000,-1.550253415242800
B and Hawaiian honeycreeper,TS29 6JS,54.695765912639000,-1.427428484225790
Pratincole and Flameback,TS28 5PP,54.736458768305200,-1.374826613436640
Ice seal and Gull,DH1 2EU,54.774368040326500,-1.547697399371390
River dolphin and Mink,TS21 2AW,54.656947312245300,-1.453673995343740
Polecat and Fish eagle,DH7 8XU,54.757328826406100,-1.615278695513360
Badger and Viscacha,SR8 1QP,54.748296778450000,-1.361501367527710
Hawk and Quetzal,TS22 5TS,54.635715000000000,-1.358415000000000
Magpie and Old World vulture,TS21 3AN,54.653111136080300,-1.444054033209050
Masked owl and Guillemot,DL17 9JJ,54.705818895310300,-1.515357875688480
Duck and Songlark,TS28 5HA,54.717067055040000,-1.364770722693450
Hawk and Cloud rat,DH6 1QL,54.773912767780100,-1.476878887359100
Tit-tyrant and Mouse,TS21 3JQ,54.612783475643500,-1.368144841402670
Viscacha and Jay,DH1 4FL,54.769321000000000,-1.591456000000000
Kākāriki and Towhee,DH7 8HJ,54.753514725649300,-1.605697281590340
Duck and Warbler,TS29 6JT,54.694629281171100,-1.428421917605180
Ibex and Dolphin,DL17 8PS,54.686486456427500,-1.562076598175310
Boto and Grosbeak,DL5 4XD,54.639090040355000,-1.579752707082580
Polecat and Boto,DH6 1PP,54.775573647879000,-1.480681732495530
Logrunners and Bronzewing pigeon,SR8 2DS,54.767346299385000,-1.347555083018420
Crow and Black cockatoo,DL17 9JQ,54.704468100032000,-1.514660117704580
Eagle and Solitaire,TS21 1BW,54.568627474111000,-1.413975861552130
Shearwater and Kangaroo,DL16 7EX,54.691215622187400,-1.620340935769170
Kestrel and Badger,DH1 2HZ,54.779459007665400,-1.544111411847180
Ibex and Wader,TS21 2EB,54.651372521059300,-1.443147850346720
Marsh harrier and Mockingbird,DH6 4NP,54.724004801671600,-1.471559471749830
New World blackbird and Ice seal,DH6 1DL,54.776232111574300,-1.504925107600340
Condor and Skunk,DL16 7QD,54.684035273386700,-1.624347426020040
Philippine hawk-owl and B,DL14 7BE,54.663884374652400,-1.676390759582490
Linsang and Vulture,TS19 8XG,54.579022547421400,-1.360158025134070
Asiatic leopard and Asiatic leopard,SR8 1JD,54.754101336277500,-1.346152071250890
Puffleg and Tattler,DH6 1EH,54.772274457730500,-1.504056277726290
Eagle and Myna,TS19 9BU,54.586852536957100,-1.343803190881860
Wallaby and Asiatic leopard,SR8 1NW,54.748611841825100,-1.341579000000000
Marsh harrier and Dorcopsis,TS29 6HW,54.712261554040600,-1.423082000000000
Rat and Tree warbler,DL17 9LF,54.705167000000000,-1.518485000000000
Elephant and Mouse,DH6 4LR,54.718545067736400,-1.480851682346210
B and Francolin,DL14 9BF,54.639346000000000,-1.702305000000000
Prion and Siskin,DL16 6JY,54.710062603491400,-1.591575837294810
Parakeet and Tree warbler,DH1 2TQ,54.748290045095000,-1.538449238845460
Hawaiian honeycreeper and Logrunners,DH6 3LB,54.742180312276300,-1.417563211394050
Vulture and B,DL5 5AX,54.621150725088000,-1.556583412069950
Pratincole and Thrasher,DH6 2HN,54.760973187295300,-1.392258184590090
Rat and Nukupuʻu,DL16 7AN,54.687328651026200,-1.619942666147590
Dolphin and Asiatic leopard,DL17 8QY,54.690132063422200,-1.539434845524020
Pitohui and Grackle,DL14 8QE,54.665577000000000,-1.648068000000000
Black cockatoo and Towhee,DL17 9JZ,54.701401012570700,-1.523060580851520
Chicken and Civet,TS21 3BT,54.655092522569000,-1.450908904226170
Magpie and Lemming,TS18 5NL,54.555501858935000,-1.358129482963670
Pheasant and Pitohui,DH6 4LA,54.721221923043000,-1.505595522477200
Quetzal and Pratincole,DL14 8UA,54.647389568484200,-1.649046032750670
Vole and Egret,DL5 6PT,54.597574216539000,-1.613085891299840
B and Piping shrike,DL16 7UN,54.694758888931600,-1.602574292971480
Puffleg and Elephant,DL16 7PA,54.700713507311600,-1.654218921924650
Petrel and Old World warbler,SR8 1NF,54.745074561903200,-1.347058609502370
Boto and Peafowl,DL14 8DU,54.673425000000000,-1.630943564044600
Boto and Tit-tyrant,DL2 2XX,54.567526000000000,-1.600038000000000
Polecat and Cuscus,TS29 6EZ,54.711731899603700,-1.428600592889780
Guillemot and Bronzewing pigeon,TS28 5JD,54.736356658509000,-1.384736872068480
Snipe and Tahr,TS19 8NB,54.586169811735700,-1.357260805658830
Rat and Wader,SR8 1DF,54.757633377163900,-1.341215913603510
Dorcopsis and Philippine hawk-owl,DH6 2LN,54.761425403304700,-1.389252106819560
Rat and Prion,DH6 1PS,54.777228000000000,-1.478453000000000
Booted eagles and Thicketbird,DH1 2RZ,54.771116609070800,-1.540971992975580
Capuchin and White ibis,DL17 8EP,54.684299723171500,-1.549008982927930
Rabbit and Mouse,DL16 6FG,54.711028555454400,-1.584923145007000
Black jay and Fish eagle,DL5 6HP,54.604874198324200,-1.566125984542530
Parakeet and Lemming,DL17 8UB,54.690123724221600,-1.551597177567490
Mouse and Mamo,DH1 2RN,54.778849317419100,-1.539718464657630
Fox and Recurvebill,DL16 6SP,54.709997617989700,-1.583040151817260
Songlark and Masked owl,DL1 3NP,54.582767000000000,-1.558423000000000
Macaw and Rabbit,SR8 2BB,54.765756998301700,-1.346135219879710
Tattler and Minke whale,DL14 7RS,54.671253248293500,-1.693605662383110
Francolin and Ground sloth,TS21 2HT,54.630675339778000,-1.460919268146660
Dorcopsis and Grackle,DL5 4TS,54.635553318479500,-1.565613735220110
Buzzard and Macaw,SR8 2LU,54.758824000376900,-1.361631000000000
Jackal and Flameback,DH6 2XE,54.761598037915300,-1.384292084873650
Gull and Vulture,DH1 3WB,54.761755000000000,-1.588781000000000
Chicken and Parrotbill,DL5 7HX,54.628340921614700,-1.595321984953500
Condor and Gull,TS28 5GY,54.736327000000000,-1.380309000000000
Thicketbird and Ibex,DH6 5AH,54.737159853109800,-1.527563000000000
Meadowlark and Piping shrike,SR8 2DW,54.770631000000000,-1.344969000000000
Bunting and Flameback,DL14 7EW,54.663943000000000,-1.674592000000000
Vulture and Kākāriki,DL14 8RB,54.653940819987400,-1.658459639607950
Thrasher and Hawaiian honeycreeper,DL1 3LJ,54.572562559816000,-1.534371000000000
Chipmunk and Tahr,DL14 0RZ,54.647943604080100,-1.701560299817940
Towhee and Vole,DH1 4SR,54.776457620250800,-1.578983872058920
Night heron and Bunting,DL17 0DT,54.672867764103400,-1.529861036902880
Fish eagle and Kangaroo,DL17 8JD,54.690905261616000,-1.549090916473830
Logrunners and Pratincole,DL5 7DG,54.622905109545000,-1.587678641870700
Argus and Rabbit,DL17 9DR,54.697200000000000,-1.482427000000000
Hawk and Songlark,DL14 6LR,54.654271821169500,-1.684433729938770
Black jay and Triller,TS19 8JA,54.589134757213400,-1.352061030587500
American sparrow and Chipmunk,DL5 4QS,54.631382300690600,-1.575432775720900
Philippine hawk-owl and Fish eagle,DL5 6NR,54.607653548372800,-1.617526492830480
Marmoset and Night heron,DL17 0QR,54.662939863981300,-1.551865435913000
Solitaire and Treepie,SR8 2LR,54.756780924344500,-1.353877000000000
Chicken and Flameback,DH1 1JL,54.780183180352000,-1.565139036672830
B and Towhee,TS21 4DL,54.680817843201700,-1.432508782653910
B and Capuchin,DL14 6EG,54.654027896992700,-1.670439817000250
Capuchin and Kite,DL16 7PX,54.702514503026700,-1.655507103964410
Viscacha and Perching duck,DL17 0DW,54.669806012671200,-1.535230213012870
Recurvebill and Elephant,TS19 9HP,54.592391955881200,-1.337833274480370
Fish eagle and Jackal,DH6 1DN,54.776452000000000,-1.505748458248340
Vulture and Grackle,DH1 1QT,54.778300432651100,-1.571237000000000
Eagle and White ibis,DL16 7UU,54.697764000000000,-1.587231000000000
Philippine hawk-owl and Francolin,TS19 7JE,54.568431963499300,-1.367964508062130
Moluccan boobook and Francolin,DH6 3GA,54.747719383558400,-1.441190412523850
Nukupuʻu and Armadillo,TS21 3NT,54.665352921399100,-1.450351988954390
Fish eagle and Tahr,DH6 4QW,54.728585174944800,-1.481313476258080
Booted eagles and Booted eagles,DL5 5NU,54.617595541102400,-1.569908000000000
Mouse and Fish eagle,DH6 3JJ,54.746574969100300,-1.413865049709110
Duck and Guillemot,DL4 1LS,54.627925637256900,-1.643358525190000
Fulmarine petrel and Mole,TS19 8QZ,54.582505602149800,-1.356034256449990
Marsh harrier and Old World quail,DH7 9HR,54.768723498077400,-1.705071619367480
Condor and Vole,DH1 2TY,54.753774605941100,-1.534455931611280
Mockingbird and Chickadee,DL14 7JU,54.660577425511200,-1.673099652774630
Kestrel and Jerboa,DL5 7NR,54.625415059851200,-1.580590564420640
Meadowlark and Partridge,DL4 1PE,54.626467947992700,-1.642736228043860
Buzzard and Thrasher,TS19 0QJ,54.571272393003100,-1.347734775689710
Vole and Perching duck,SR8 2EZ,54.766434331751300,-1.351781739522050
Black cockatoo and Flameback,TS21 4DT,54.680351914583700,-1.430886788830500
Diving bird and Egret,TS19 8QG,54.580380575369100,-1.355263234114280
Cuscus and Skunk,TS19 8EP,54.588083563878200,-1.353795368091530
Maya and Grosbeak,TS21 1HW,54.570618953188600,-1.471781130881420
Siskin and Dolphin,DH7 9LG,54.774365134296000,-1.707999749960600
Nukupuʻu and Goose,DH6 2JN,54.764142123982500,-1.391589064953910
Chickadee and Night heron,DL15 0RU,54.712261712670200,-1.716765213039170
Coati and Civet,DL17 9EY,54.688727000000000,-1.526824000000000
Treepie and Polecat,DH6 5NJ,54.740967615861600,-1.511335044694700
Ice seal and New World blackbird,DH6 2JL,54.764458696082100,-1.395594051985580
Ibex and Chicken,TS19 0TF,54.571760650219200,-1.354997056610490
Thrasher and Scimitar babbler,DH6 2HF,54.761195424086800,-1.391773105529420
Capuchin and Treepie,DL17 0NH,54.652205407748000,-1.563002987798400
Gull and American sparrow,DL16 7GP,54.700990000000000,-1.611700000000000
Zebra and American sparrow,TS19 8AP,54.579804429393700,-1.341719474900560
Triller and Stilt,DH1 3BW,54.776527232374300,-1.570634903780110
Old World quail and Vole,DL15 0UA,54.708525000000000,-1.664318000000000
Vulture and Mole,DH1 2UE,54.760786128068500,-1.551687154385080
Minke whale and Macaw,TS19 0QB,54.572242041303500,-1.339273535525110
Towhee and Pratincole,DL16 7AQ,54.687620527347500,-1.618450783628570
Myna and American sparrow,DH7 9LT,54.777230509010000,-1.715006047311150
B and Old World quail,DL5 6UJ,54.609133165108100,-1.573496704597520
Pheasant and Kite,DH6 2LA,54.761115306405200,-1.386568296944990
Civet and Buzzard,DH1 4AY,54.776221863329200,-1.588858002366030
Jerboa and Polecat,DL5 6SN,54.601615930340600,-1.576222000000000
Rabbit and Lemming,DL14 6QQ,54.648966484091600,-1.686675412001880
River dolphin and Jerboa,DL17 8TJ,54.685987192183800,-1.563664000000000
Grackle and Chicken,DH7 8PE,54.759727416806900,-1.612194660046640
Hawaiian honeycreeper and Linsang,DL4 2AW,54.629299457156900,-1.633928690259960
Philippine hawk-owl and Meadowlark,DL16 7FD,54.698488391747100,-1.615447538620330
Grosbeak and Petrel,DL5 4FH,54.631105000000000,-1.580764000000000
Jay and Wallaby,DH7 9PR,54.772877261456300,-1.698559332670380
Nukupuʻu and Cuscus,TS19 0SL,54.569953418898600,-1.348127047359860
Pratincole and Kangaroo,DL5 4LL,54.621618454668800,-1.576804311412140
Fox and American sparrow,TS21 1FN,54.603558000000000,-1.427960000000000
Cloud rat and Bunting,DL16 6FP,54.705892000000000,-1.572710000000000
Logrunners and Jerboa,DH6 4LU,54.719460792288200,-1.478542389631420
Coati and Macaw,DL14 8PZ,54.666791430076200,-1.645793596187530
Ice seal and Parakeet,DH6 3QX,54.748007503901000,-1.409059502375900
Shearwater and Jerboa,DH7 8TJ,54.749119157898700,-1.640042455666630
Diving bird and Macaw,TS28 5NF,54.713241172936500,-1.361819228957460
Herring gull and Hawaiian honeycreeper,DL15 0GU,54.710968622460100,-1.680951925490750
Badger and Scimitar babbler,TS21 1HS,54.584648404613000,-1.402373347410590
Fox and Pitohui,DL4 2BP,54.632018858571800,-1.632742469545490
Night heron and Hawk,DL16 6RD,54.702478094539900,-1.602467850612630
Gull and Lemming,DH7 7HY,54.768490784969000,-1.651185936961860
Guillemot and Towhee,TS21 4AR,54.683113587128100,-1.435315191242510
Prion and Bunting,DH7 8YD,54.758262350665100,-1.612115420628930
Peafowl and Warbler,TS21 3FB,54.670500135846200,-1.449863863251220
Flameback and Moluccan boobook,DH6 5PN,54.741071848461500,-1.532380559910360
Diving bird and Francolin,DL14 8XQ,54.646874866900100,-1.648198154887150
Francolin and Fish eagle,DL16 7XX,54.693986493548400,-1.605467531988130
Mouse and Duck,DL17 0BH,54.677413246019000,-1.531716062693100
Linsang and Elephant,DH6 4SL,54.713257758596700,-1.503720908538030
Herring gull and Jay,DL5 6GP,54.606154127072400,-1.595805112061410
Quetzal and Quetzal,TS19 8AJ,54.579125002342300,-1.344438000000000
Booted eagles and Macaw,DL16 6JW,54.704866664836000,-1.596454310109630
Kite and Logrunners,TS19 7BB,54.564231177920700,-1.355301448952630
Condor and Old World warbler,DL16 7AH,54.686989573153000,-1.617851736962660
Buzzard and Petrel,DL14 0TT,54.655822803216800,-1.697069642735520
Tree warbler and Viscacha,DL5 5JP,54.614305624230700,-1.580085368894690
Tahr and Boto,DL14 9TF,54.643457965596100,-1.697424920738420
Bunting and River dolphin,DL2 3UR,54.566519000000000,-1.688559401564770
Parrotbill and Masked owl,DL17 8PX,54.685308970485000,-1.564509014997040
Prion and Badger,TS21 4EP,54.680005880575800,-1.435683997243340
Bronzewing pigeon and Old World warbler,DL14 9AP,54.638306549621100,-1.686029126605180
Tahr and Recurvebill,TS19 0XL,54.576555126564600,-1.342452507104510
Hawaiian honeycreeper and Vole,DL15 0XL,54.684274923607700,-1.711934436922790
Recurvebill and Linsang,DH6 2YA,54.762479915628200,-1.395250543780200
Snipe and Grosbeak,DL5 5RN,54.622661690623100,-1.564341650492050
Puffleg and Quetzal,DL16 6QA,54.699633273395800,-1.598213051943590
Snipe and Scimitar babbler,DL16 6HP,54.700056038560400,-1.582366206243250
Asiatic leopard and Marsh harrier,DL14 8JP,54.663752619922300,-1.624456948564570
Mockingbird and Condor,DL14 6AL,54.654340590994000,-1.679814393343960
Ice seal and Parrotbill,DH6 2NH,54.764625879261300,-1.387711935576040
Zebra and Herring gull,DH7 8XL,54.746484000000000,-1.609944000000000
Prion and Skunk,TS21 2AZ,54.654987775004600,-1.451592304604570
Wallaby and Kestrel,DL14 6NW,54.652785526075300,-1.683096844685150
Bronzewing pigeon and Philippine hawk-owl,DL16 7QF,54.698930000000000,-1.616545000000000
Fish eagle and Ground sloth,DL17 8SS,54.686649812301100,-1.538279846619050
Nukupuʻu and Scimitar babbler,DL14 9HB,54.633627848869300,-1.716583307101830
Wader and Dolphin,DL5 6SH,54.594686000000000,-1.576712000000000
Pheasant and Mouse,DL16 6HE,54.702903594286800,-1.576828113955160
Coati and Thrasher,DL14 9PW,54.624325609706600,-1.687407000000000
Nukupuʻu and Vole,DL14 6RX,54.650448486091300,-1.672607000000000
Perching duck and Perching duck,DH1 3RB,54.776001391146000,-1.576998734355130
Macaw and Masked owl,DH6 4SQ,54.712126907172400,-1.501887653844180
Black jay and Booted eagles,DL14 7QQ,54.667180000000000,-1.675264000000000
Siskin and Stilt,DL4 2EY,54.634873846125500,-1.640803566920810
Francolin and Fish eagle,DH6 2AW,54.773959703238300,-1.410640188871630
Night heron and Quetzal,DL5 6AT,54.599191000000000,-1.569808000000000
Treepie and Myna,DH6 5AT,54.733884018728100,-1.524496000000000
Hawk and Quetzal,DL16 7RD,54.722633474269500,-1.645415913925640
Perching duck and Stint,TS19 9HT,54.593167802033300,-1.341674308556190
White ibis and Chicken,DL14 7TH,54.657704417536100,-1.677478373916430
Herring gull and Duck,DL5 4LR,54.622368171157900,-1.575325246629660
Chickadee and Macaw,TS19 9NA,54.592112000000000,-1.347278000000000
Egret and Guillemot,TS18 5LT,54.556305907312700,-1.350493903803410
Thicketbird and Ground sloth,SR8 1LH,54.749276825872600,-1.343075997126050
Flameback and Wader,TS19 8YS,54.581781425590200,-1.350011577773550
Kestrel and New World blackbird,TS19 8PL,54.582471186590300,-1.358015252507780
Kestrel and Argus,DL14 8BW,54.695472794716000,-1.683292060089370
Parrotbill and Prion,DL14 9SS,54.641084380032500,-1.689881315261320
Lemming and Zebra,TS28 5FA,54.715598000000000,-1.367308000000000
Marsh harrier and Kite,TS18 4HT,54.561490380714500,-1.341983465592870
Egret and Badger,TS21 3EP,54.664025000000000,-1.410511000000000
Puffleg and Warbler,TS29 6JH,54.697345573178800,-1.430819750362450
Masked owl and Quetzal,DH6 3JS,54.745240394263700,-1.414785298297470
Siskin and Mole,TS29 6NL,54.698174083570000,-1.394081222286350
New World blackbird and Towhee,DL17 9PB,54.699516562211900,-1.512453760486440
American sparrow and Towhee,DL14 8EE,54.656478000000000,-1.659198000000000
Black jay and River dolphin,TS19 0TY,54.574277535244800,-1.348382922582200
Eagle and Grouse,DL5 5AQ,54.618298068476100,-1.557992639711030
Petrel and Dorcopsis,TS18 4JG,54.564631520274500,-1.337896393910470
Meadowlark and Parrotlet,DL5 4NS,54.620751691170100,-1.575651803624620
Argus and B,TS19 8BE,54.577019108294300,-1.340186384744580
Recurvebill and Ice seal,DH1 4HA,54.775581625985700,-1.588211570791570
Peafowl and Tattler,SR8 2NN,54.756177815926200,-1.351277395344180
Old World vulture and Cloud rat,DL4 2DA,54.632606318856200,-1.636826831211810
Francolin and Moluccan boobook,TS19 0SZ,54.573930000000000,-1.352178000000000
Civet and Songlark,DL14 6RS,54.641469000000000,-1.681759000000000
Fox and Skunk,DH6 2EL,54.773399201308700,-1.424934193979380
Flameback and Moluccan boobook,DL16 7RG,54.714038820384600,-1.641191227400070
Cuscus and River dolphin,DL14 7PA,54.662930425976600,-1.689622064047100
White ibis and Perching duck,DL2 2TZ,54.576841096616100,-1.630593000000000
Pitohui and Mamo,TS29 6HT,54.713890629629600,-1.425201930032980
Polecat and Greenbul,TS21 3BE,54.656258743962800,-1.448475151469690
Grackle and Viscacha,DL4 2GP,54.626009000000000,-1.633324315529640
Towhee and Ice seal,DH6 3RE,54.744038294957000,-1.418965669735610
Cloud rat and Grouse,DL14 0LN,54.650591539773200,-1.711397584028970
Jay and Rabbit,DL17 9ND,54.702760209637000,-1.516806448825330
Philippine hawk-owl and Goose,DH1 4BF,54.777698796242100,-1.594113490744280
Mamo and Minke whale,DL17 8LJ,54.687884378319900,-1.558493752701190
Stint and Flameback,DL16 7BX,54.690278867948100,-1.620581000000000
Moluccan boobook and Kestrel,TS28 5EY,54.717923409052200,-1.365269625959520
Perching duck and Bunting,TS19 8UG,54.578513504827100,-1.362471144551040
Thrasher and Chickadee,DH7 8EX,54.756902634226900,-1.611258253109480
Tree warbler and Logrunners,DH7 8LL,54.760047000000000,-1.610607000000000
Petrel and Fish eagle,DL14 8LZ,54.660591576674800,-1.634019659853650
Chickadee and Dolphin,DL5 5DP,54.615710162551300,-1.560544680747720
Parrotlet and Pitohui,DL4 2EJ,54.633436690678900,-1.641048594202760
Rabbit and Greenbul,DH7 7NW,54.773404829738700,-1.629412004990790
Buzzard and Vole,DL5 5QJ,54.621465656204100,-1.564122117573280
Viscacha and Prion,DL17 8RX,54.705014000000000,-1.539237557231630
Marmoset and Kite,DH7 8TY,54.756525534952800,-1.634507289645040
Crow and Crow,DH7 8HN,54.741921231426100,-1.602703261713650
Masked owl and Night heron,DH6 4ET,54.709953735293300,-1.513352996502270
Treepie and Coati,TS19 7NY,54.569946106121300,-1.356263257099510
Mole and Jackal,TS19 8LL,54.585730773561700,-1.347426546988440
Prion and Cuscus,DL16 7PN,54.702071681003600,-1.657807450419090
Egret and Magpie,DL15 0AH,54.712788416598100,-1.689412000000000
Jay and Recurvebill,TS28 5BA,54.729658161373800,-1.378782277537390
Ice seal and Treepie,DL14 8UW,54.642284977255500,-1.646022000000000
Night heron and Mouse,DH6 2JU,54.766308135792100,-1.400664379974640
Tit-tyrant and Vole,TS18 5LS,54.556486062870100,-1.348898408606560
Greenbul and Dorcopsis,DL5 7NU,54.626216910655400,-1.578584277432110
Asiatic leopard and Petrel,TS18 4PR,54.569573507549100,-1.337738999029330
Fulmarine petrel and Black cockatoo,DH6 3QN,54.750257119257200,-1.404148407570500
Marmoset and Grouse,DL14 6BA,54.652478412212300,-1.679085085802900
Darwin's finches and Prion,TS28 5NG,54.708198773038900,-1.363372782090980
Thicketbird and Tattler,DH7 7JJ,54.767802991185400,-1.640296419885380
B and Treepie,SR8 2DU,54.767263034449400,-1.348784297122350
Eagle and Shearwater,DL14 8ED,54.654476678557000,-1.626836341677520
Darwin's finches and Chipmunk,DH6 2HQ,54.759698680992200,-1.390785450887500
Perching duck and Herring gull,DH7 8DH,54.736204398417500,-1.658343197285160
Treepie and White ibis,DL17 9JT,54.701541311881100,-1.522174442297360
Macaw and Flameback,DH1 1XG,54.779256810475500,-1.572518308734620
Myna and Wallaby,DL17 0BQ,54.678190000000000,-1.532635580470750
Capuchin and Egret,DL5 6SZ,54.603193000000000,-1.573265000000000
Ice seal and Treepie,DL17 9HA,54.698296078657900,-1.515121657196260
New World blackbird and B,DH7 7JR,54.767055557232600,-1.652099730905240
Badger and Kangaroo,DH6 3AQ,54.751163860198600,-1.426336744589090
Wallaby and New World blackbird,TS19 9LX,54.591782241849200,-1.344698957324960
Peafowl and Chipmunk,TS28 5DY,54.726788514992300,-1.378220588870430
Lemming and Mamo,DL17 8NB,54.686666351228300,-1.559639321228450
Old World vulture and Rat,DL17 9DU,54.703792584848700,-1.490195809466680
Night heron and Flameback,TS21 1LR,54.602046376554100,-1.420725236704130
B and Stilt,DH6 3LF,54.740119367749700,-1.416940411351790
Cuscus and Parakeet,TS19 8BN,54.585659218738400,-1.344162778989340
Myna and White ibis,TS28 5NA,54.717277000000000,-1.384374000000000
Ground sloth and Night heron,DL5 6LD,54.598337000000000,-1.564850673190500
Thrasher and Recurvebill,DH6 1HQ,54.773765472518600,-1.486580924232190
Thicketbird and River dolphin,SR8 2DG,54.769872968278600,-1.346146600320540
Cuscus and Rabbit,TS21 2JU,54.632323853801000,-1.488781466037340
Masked owl and Shearwater,DH7 8RH,54.754096864915500,-1.613460360585250
Perching duck and Grackle,TS21 4AB,54.683928101819100,-1.440422448458070
Dolphin and Mink,TS27 4RN,54.718617132803900,-1.341988164756960
Coati and Meadowlark,DL16 6XE,54.704645794563500,-1.589550738664410
Pitohui and Argus,DL5 6JQ,54.608826312340000,-1.548341470396980
Greenbul and Eagle,TS19 8YF,54.581729168949100,-1.350321849588890
Peafowl and Piping shrike,DL14 9EF,54.637351332149200,-1.717858837505530
Piping shrike and Mockingbird,TS19 8SG,54.584816423782300,-1.357947448025240
Thicketbird and Kākāriki,TS21 4AE,54.683689554328600,-1.443264183751670
Perching duck and Lemming,DL17 0JQ,54.661779923245600,-1.559040234752660
Jay and Parrotbill,TS19 7EL,54.568996206147900,-1.350617065808520
New World blackbird and Fish eagle,TS27 4FF,54.737088660406700,-1.357779246164490
Viscacha and Chicken,DL15 9AT,54.742838000000000,-1.678154000000000
Greenbul and Jerboa,TS29 6BA,54.720171863854300,-1.400956769761610
White ibis and Black cockatoo,DL17 8AL,54.685604329415400,-1.547009077538600
Peafowl and Ground sloth,DL4 1ES,54.635356069853700,-1.652077598631720
Francolin and Wallaby,TS19 8FE,54.578249515616400,-1.349897000000000
Rabbit and Mouse,DL17 0JJ,54.662513707635200,-1.563140461547260
Darwin's finches and White ibis,TS18 5AR,54.558059117338500,-1.345626117121230
Maya and Buzzard,DH7 8AQ,54.749460232065000,-1.636885691326410
Mole and Hawaiian honeycreeper,DL17 8RZ,54.702202174011500,-1.544450061632110
Buzzard and Fox,DL14 6PR,54.644747539270300,-1.681625244231790
River dolphin and Ibex,DH1 3ST,54.747586350134000,-1.584969036063770
Elephant and Old World warbler,DL16 6TX,54.707955000000000,-1.608808000000000
Wallaby and Chicken,DH6 5JL,54.734797702804700,-1.590053775892700
Vole and Parrotbill,TS19 7NX,54.567583310007800,-1.362084838276480
Buzzard and Booted eagles,DH7 8AZ,54.746503072087500,-1.636694644710610
Towhee and Perching duck,DL5 7DW,54.618884159576900,-1.589190433613660
Argus and Old World quail,DH6 3DN,54.750546568980400,-1.440405761872070
Parrotbill and Songlark,TS19 9BW,54.586939431906800,-1.339948768385860
Goose and Logrunners,DL5 4PF,54.632287094546200,-1.584981312893890
Cloud rat and Pitohui,TS21 4BJ,54.682701594405800,-1.435615602989080
Pitohui and Black jay,TS18 4PX,54.570299104338800,-1.337309613329870
Guillemot and Mockingbird,DH1 3PR,54.765843594390000,-1.591885036875980
Perching duck and Maya,DL16 6LU,54.707226555512400,-1.598075969128250
Macaw and Marsh harrier,TS19 8DG,54.584587573914600,-1.345417833550670
Logrunners and Pitohui,DL17 8AS,54.683772787425900,-1.542686481398400
Gull and Tit-tyrant,DL16 7TT,54.696682180245100,-1.602617570293190
Tree warbler and Mouse,DH6 4DF,54.714962221509800,-1.502986064954960
Fulmarine petrel and Skunk,DL5 5JH,54.615132220145300,-1.580030410600690
Viscacha and Perching duck,TS29 6HL,54.709123725478300,-1.418719703532150
American sparrow and Stilt,TS21 2JS,54.651336000000000,-1.454726000000000
Cuscus and Tit-tyrant,TS19 9ES,54.581829712840100,-1.339010172828680
Magpie and Towhee,DH7 9JW,54.772772861524500,-1.714866359282820
Polecat and Condor,DH1 4RD,54.777686151486300,-1.580821158111530
Old World warbler and Wader,DL17 9LH,54.703251150086800,-1.522775079963120
Magpie and Skunk,DH1 3EW,54.772453642367400,-1.574983845308000
Towhee and Viscacha,DL5 4AY,54.625613265817400,-1.557975337910820
Zebra and Ibex,DL14 6RU,54.650192559767400,-1.664612665404770
Night heron and Elephant,TS22 5NN,54.640283531574500,-1.351170816442060
Kestrel and Hawaiian honeycreeper,TS29 6EL,54.719243647651900,-1.428355283015660
Peafowl and Fish eagle,TS19 0XF,54.575394769309200,-1.352263450510890
Civet and Stint,TS21 1NE,54.581062055469300,-1.484363826299730
Piping shrike and Partridge,TS29 6EX,54.710479000000000,-1.429505049758940
Fish eagle and Dolphin,DH6 3HB,54.748801000000000,-1.441704000000000
Logrunners and Snipe,SR8 2QB,54.768828000000000,-1.352287000000000
Hawaiian honeycreeper and Darwin's finches,DL4 1NB,54.631806907333200,-1.643014776055980
Wader and Recurvebill,DL14 6JJ,54.650609790593300,-1.676078000000000
Diving bird and Moluccan boobook,DH1 1RG,54.777733958925900,-1.573699000000000
Parakeet and Parrotbill,DL5 4XB,54.638263984950100,-1.579962633171090
Macaw and B,DL15 0DY,54.710852756024000,-1.698910496174510
Grouse and Tahr,DL5 5LQ,54.617309664554600,-1.573070575971890
Parrotbill and Eagle,DH7 8RS,54.751909529728700,-1.618002339152210
Viscacha and Peafowl,SR8 2JS,54.755584098658200,-1.356228045594560
Tattler and Mink,TS29 6EU,54.711519520617600,-1.429302036867170
Jerboa and Jackal,DH6 1RN,54.774148626938600,-1.511930336842680
Perching duck and Tahr,TS19 8ST,54.584224666645500,-1.361608366518460
Marmoset and Triller,DL4 2HE,54.635724302599300,-1.642732612424560
Lemming and B,DL16 6BG,54.706440000000000,-1.575126000000000
Ice seal and Fish eagle,DH7 7NY,54.775600121638100,-1.632066003740890
Parrotlet and Stint,TS21 2AD,54.653005884580400,-1.450534048732950
Scimitar babbler and Gull,DL17 8QH,54.693112007840500,-1.540843938724370
Tahr and Parrotbill,DL5 5PD,54.616442344620200,-1.566715313663100
Buzzard and Perching duck,DL15 0JJ,54.685655041704800,-1.710327013442190
American sparrow and Black jay,DL5 7AT,54.616540713460300,-1.584537545207410
Stint and Armadillo,DL17 0DB,54.674905000000000,-1.531202000000000
Parakeet and Magpie,DH1 4PF,54.770729607343200,-1.593763333811870
Black cockatoo and Ground sloth,DL14 8NZ,54.662322967687200,-1.633011954048150
Pratincole and Tree warbler,TS27 4QZ,54.719019692085200,-1.339994541277000
Zebra and Skunk,SR8 5JT,54.767374524407600,-1.341135465280020
Jerboa and Stilt,DL5 5QW,54.616507000000000,-1.564578000000000
Petrel and Booted eagles,TS21 4AH,54.683076973073100,-1.444901160151700
Greenbul and Goose,DH7 7HD,54.769189605618600,-1.656744403741360
Francolin and Tit-tyrant,TS18 5PH,54.557516672243000,-1.361855326047160
Diving bird and Snipe,DL14 6NH,54.653813486135900,-1.691411890986020
Partridge and Chickadee,DL14 7PG,54.665414000000000,-1.676611000000000
Pitohui and Fish eagle,DH1 2UZ,54.778024154056100,-1.547314606570110
Myna and Night heron,DL14 6DE,54.651663000000000,-1.669591000000000
Condor and Elephant,DL17 0PY,54.657172000000000,-1.547201000000000
Treepie and Prion,DL17 9ED,54.673774000000000,-1.484958000000000
Philippine hawk-owl and Black jay,TS22 5SL,54.639549000000000,-1.361634186747840
Black cockatoo and White ibis,DL5 4RQ,54.628755844207000,-1.567157645739590
Triller and Old World warbler,TS19 9NW,54.588637124295700,-1.346420682459340
Nukupuʻu and Lemming,DL16 6XP,54.710764053011800,-1.610861269733300
Tahr and Viscacha,TS19 7QN,54.560765914930900,-1.357691168480440
Mole and Crow,DL17 0EE,54.656700548659700,-1.562551956389760
Kangaroo and Grosbeak,TS19 8RL,54.583232583342500,-1.354166086329870
Nukupuʻu and Condor,SR8 1PJ,54.747826323633300,-1.357500667070920
Petrel and Armadillo,DL14 8JR,54.662620325442000,-1.624576000000000
White ibis and Tree warbler,TS19 7HT,54.572446298254000,-1.357182761576340
Mockingbird and Parakeet,DH6 4QT,54.728744331510300,-1.478609597672220
Towhee and Eagle,DL5 7QA,54.628413713597800,-1.584958763344440
Chickadee and Pheasant,DL14 8BQ,54.697795863202200,-1.681582748017630
Tit-tyrant and Thrasher,DH6 2PX,54.755236609859800,-1.391644862867840
Philippine hawk-owl and Grackle,DH1 3JX,54.773703772448400,-1.565115218140700
Dolphin and Triller,TS21 4AA,54.683223811937300,-1.439858000000000
Nukupuʻu and Gull,DL5 7AR,54.616596946033500,-1.579008993618190
Flameback and Herring gull,DL5 7NJ,54.626892134143100,-1.578933548391590
Ice seal and Siskin,DL5 4JQ,54.624305736599200,-1.569218299464010
Petrel and Diving bird,TS19 8FP,54.577495315080700,-1.343473894844090
Warbler and B,DL4 1DN,54.630155527712300,-1.643757265124430
Diving bird and Shearwater,DH1 3UP,54.764487416362500,-1.571259611985270
Hawk and Vole,DL5 7BQ,54.616076364928500,-1.590689758423050
Ground sloth and Rabbit,DH6 4DS,54.714084631021700,-1.505946017439320
Jerboa and Stilt,TS19 8RP,54.584315875659700,-1.355077338873790
Recurvebill and Stilt,DL16 7HF,54.684320891086100,-1.595789402518580
Prion and American sparrow,DL4 2DD,54.628423169873800,-1.632418581129800
Maya and Gull,TS29 6LS,54.707605159705100,-1.411307409583730
Kite and Bunting,DH7 8DN,54.738617000000000,-1.669164000000000
Old World vulture and Hawk,DL15 0UP,54.709937283227600,-1.678352564306650
Jackal and Solitaire,DH1 3ES,54.773909741352800,-1.574938000000000
Chicken and Coati,TS21 4EJ,54.679578870569700,-1.436620464249780
Fulmarine petrel and Kangaroo,SR8 1PN,54.746548427905000,-1.360565704699840
Treepie and Grosbeak,DL16 6UL,54.706417130445200,-1.611678818471360
Francolin and Boto,TS19 9JE,54.590739654564300,-1.339717119082040
Treepie and Stint,DL17 8JG,54.690006454761000,-1.549054335992140
Black cockatoo and Recurvebill,DL14 6ET,54.655979000000000,-1.673816527511340
Thicketbird and Bunting,TS19 7AN,54.564369667007500,-1.352623743517100
Ground sloth and Petrel,DL14 9TH,54.641585428808800,-1.692542556717110
Fulmarine petrel and Gull,DH6 1LX,54.765113594601400,-1.438386503114500
Warbler and Grosbeak,SR8 2NH,54.752417891673700,-1.353994314593900
Argus and Puffleg,DH6 2AP,54.770961915239500,-1.405880618737260
Magpie and Towhee,DL4 2JU,54.623076821980600,-1.641681796156330
Rat and Rat,DL14 8UZ,54.642794236850800,-1.635806395649130
Dolphin and Snipe,DH6 3JG,54.745788000000000,-1.414633971253210
Eagle and Piping shrike,DH1 4AT,54.775943256281300,-1.594193051258030
Tree warbler and Rabbit,DL17 9JG,54.703551065399000,-1.514562432614080
Tree warbler and Prion,DL14 8FB,54.654288000000000,-1.656700000000000
Pitohui and Fulmarine petrel,DH7 7PF,54.779214054555100,-1.645776648400890
Francolin and Parrotbill,DL14 7QB,54.666603633996300,-1.681780061749700
Condor and Coati,DL5 5HE,54.614932354743100,-1.569177884923980
Diving bird and Pitohui,TS19 0TX,54.573651321149100,-1.347248204905420
Skunk and Dorcopsis,DH7 8AA,54.745517883024700,-1.610575168331860
Stint and Magpie,DL14 7TE,54.657519559321600,-1.675557767893470
Hawaiian honeycreeper and Civet,TS28 5LJ,54.738073660565300,-1.376044278897340
Jerboa and Asiatic leopard,DL5 6RL,54.595291365401100,-1.621557929749350
Ice seal and Greenbul,DL16 7BD,54.701348027176300,-1.656137671241770
Partridge and Wader,DL16 7EL,54.690939386099800,-1.616480505815050
Dorcopsis and Eagle,DL16 7GA,54.676326000000000,-1.596567000000000
Crow and Mamo,DH6 5EB,54.738492009729200,-1.523821132772840
Flameback and Elephant,DL16 9AQ,54.699314429452700,-1.602235000000000
Dorcopsis and River dolphin,DL17 8HD,54.685137150520200,-1.554320029755580
Logrunners and Marsh harrier,DL2 2UD,54.571790410571300,-1.642131448456370
Bronzewing pigeon and Perching duck,DH6 3HX,54.747626416534200,-1.448368912654310
Thicketbird and Pratincole,TS19 9BX,54.588100778202500,-1.341972626640830
Pratincole and Siskin,DH6 1EE,54.774989357417300,-1.504287361554720
Thicketbird and Masked owl,DH1 2ND,54.761232797514900,-1.550967370073920
Moluccan boobook and Polecat,DH6 5LN,54.726302975052500,-1.548869074749980
Mole and Asiatic leopard,DH1 2PH,54.755857778765800,-1.541082387049530
Recurvebill and Egret,DL17 9NS,54.699538024651600,-1.513322437014140
Kite and Kangaroo,TS18 5LP,54.555462361971800,-1.350599000000000
Treepie and Rat,DL17 9NT,54.697702445669700,-1.510520488143900
Tit-tyrant and Marmoset,DL17 8LS,54.689118559397700,-1.554400532766140
Wallaby and Stilt,SR8 1HB,54.751835372817000,-1.345908905766080
Ice seal and Tit-tyrant,DH7 8XG,54.749892440996000,-1.625338696656690
Darwin's finches and Marmoset,TS21 1ES,54.584141069088600,-1.403371033998560
Viscacha and Treepie,TS28 5AJ,54.724791783226500,-1.379648520004200
Mouse and Kite,DH6 3LW,54.739018735808700,-1.423572773928650
Mole and Old World vulture,TS19 8RB,54.582848279422600,-1.357947436674840
Armadillo and Bunting,DL5 7LS,54.625575837152600,-1.598880780359330
Hawk and White ibis,DH1 2SZ,54.759316000000000,-1.552449000000000
Asiatic leopard and Cloud rat,DL5 7PX,54.627268866104700,-1.589198936276680
Fox and Duck,SR8 2AE,54.761997692587000,-1.342279536118810
Dorcopsis and B,DH7 8EP,54.737428774356200,-1.659124986325410
Asiatic leopard and Old World quail,DH6 4RP,54.740783128439300,-1.461384885659670
Pitohui and Cuscus,DL16 7TP,54.695972588136800,-1.605479306151430
Old World vulture and Boto,SR8 2BA,54.764891972058500,-1.347376963033470
Nukupuʻu and Zebra,TS19 9NS,54.589588348695100,-1.347829159966900
Triller and Mockingbird,DL17 0DN,54.671889214693900,-1.530120431952870
Pratincole and Mamo,TS21 1BE,54.570095558727500,-1.380328320929380
Recurvebill and Dolphin,TS21 3JL,54.604313513039200,-1.379483883452410
Perching duck and Vulture,DL14 8PP,54.664717305231700,-1.637284805639830
Elephant and Kestrel,DL17 0LT,54.657493681936900,-1.574246218765110
Chicken and Zebra,TS19 8QN,54.580584000000000,-1.356111000000000
Dorcopsis and Old World quail,DH7 8RQ,54.753644485745900,-1.615329141590360
Peafowl and Hawk,DL5 5EG,54.612835896737300,-1.560854000000000
Tit-tyrant and Bunting,DH6 4JF,54.724007206160200,-1.515172072641190
Hawaiian honeycreeper and Night heron,TS19 7BE,54.563039024292300,-1.357578130042430
Maya and Capuchin,TS21 1BL,54.562589186200100,-1.417897665110800
Hawaiian honeycreeper and Mouse,TS21 3LA,54.600825330416300,-1.384521214791950
Stint and Puffleg,DH7 8HB,54.756012000000000,-1.608036401142920
Jackal and Quetzal,DL14 9PP,54.614274186269100,-1.710585974656920
Stint and Viscacha,DH1 3RR,54.766423827639300,-1.588071363399550
Mockingbird and Petrel,TS29 6GB,54.706784000000000,-1.429213000000000
Fox and Polecat,DH6 1PT,54.779177000000000,-1.482408000000000
Magpie and Stint,DL16 6SA,54.703498067350800,-1.609378965450340
Armadillo and Ibex,DL14 6HQ,54.653782408399200,-1.676052488690370
Pitohui and Puffleg,DL16 7UL,54.694006469589400,-1.603326337290410
Quetzal and Partridge,TS29 6QB,54.698047603395200,-1.429134180912910
Ground sloth and Night heron,DH7 9LS,54.776848688918700,-1.713143193636720
Mamo and Lemming,SR8 2FA,54.771090000000000,-1.344836000000000
Mamo and Grosbeak,TS19 0QG,54.571647402109200,-1.342299450304950
Chicken and Coati,DH6 1PE,54.772176148492800,-1.478455729011400
Shearwater and Shearwater,DL4 1BW,54.634743838620200,-1.654824888092710
Lemming and Tit-tyrant,TS27 4SR,54.736886257695500,-1.353511398269070
Tattler and Rabbit,SR8 1JS,54.750536763397400,-1.346737717238780
Mamo and Masked owl,DH7 7QP,54.774369833618600,-1.627599945675880
Tree warbler and Grouse,DL16 6LF,54.710411900935200,-1.593900444825820
Chickadee and Greenbul,DL4 2QD,54.620151463474300,-1.628203367385910
Wader and Argus,DH6 4PH,54.719959258669400,-1.471208429739030
Kākāriki and Warbler,DL5 4EY,54.620098628941400,-1.579081086439670
Scimitar babbler and Vulture,TS28 5PR,54.736708855764000,-1.374527675367620
Black cockatoo and Dolphin,DH6 3NJ,54.746286889792000,-1.413760465682430
Argus and Zebra,DL4 1NE,54.633075876918700,-1.643638812585610
Bronzewing pigeon and Pheasant,DL17 8DX,54.690465743976900,-1.544503882702540
Mouse and Nukupuʻu,DH1 4DB,54.775729410498600,-1.578898154589290
Macaw and Grouse,DH6 4NS,54.722782451088900,-1.469463885022650
Bunting and Fox,DL14 9DG,54.638744438196000,-1.706570008874340
Elephant and Vulture,DL5 5HF,54.614608912525600,-1.571736209677530
Old World warbler and Grackle,DH7 8SA,54.746884317088700,-1.626112110732390
Peafowl and Logrunners,DH1 3EX,54.774475004172900,-1.574807217120830
Kite and Condor,DH7 7LP,54.776311981533800,-1.636847513419160
Thrasher and Mouse,DL15 0XF,54.693734389141100,-1.710471206848330
Magpie and Zebra,TS19 7JU,54.573828256430300,-1.361894542189290
Grackle and Greenbul,DH1 3PN,54.776803802474800,-1.575171463738450
Ice seal and Herring gull,SR8 2RL,54.761146000000000,-1.366101000000000
Macaw and Boto,TS19 7PQ,54.568008287264500,-1.360871794407090
Tree warbler and Masked owl,DL16 7TL,54.695971746908100,-1.602469355752210
Goose and Triller,DL14 6GA,54.652148762833200,-1.676778402836050
Ibex and Meadowlark,DL16 6NT,54.699435793149600,-1.595577184122610
Cloud rat and Kākāriki,DL5 6JY,54.595903205465800,-1.563032989272210
Minke whale and Cuscus,TS28 5BN,54.735077833010600,-1.380671755341580
Black cockatoo and Duck,SR8 1HT,54.752953646849600,-1.346636674664870
Gull and Bronzewing pigeon,TS21 3EH,54.659631633545300,-1.451080248100280
Kite and Mouse,TS19 8UX,54.582173769100000,-1.361253611601160
Nukupuʻu and Chicken,DL17 8NJ,54.686290877578600,-1.565165507591200
Crow and Moluccan boobook,DL5 4EX,54.621264058128700,-1.580850049031730
Duck and Parakeet,DH7 8PR,54.755010977017800,-1.629952809285860
Mockingbird and Moluccan boobook,DH1 2SH,54.767122992040900,-1.523718358758330
Cuscus and Dorcopsis,DH1 3BN,54.774281284263000,-1.565777472459930
Pratincole and Tahr,DL17 8HE,54.685667516306000,-1.554360756671700
Tahr and Bunting,DH1 2TP,54.774875283228000,-1.543960831716670
Ground sloth and River dolphin,DH6 2QE,54.757852877917200,-1.384131515403760
Asiatic leopard and Skunk,DL16 7UG,54.693984717514700,-1.610478729386040
Rabbit and Minke whale,DL15 0UG,54.726661293422500,-1.688654347100280
Logrunners and Greenbul,DH6 2AX,54.773439901850200,-1.390905541783220
Grosbeak and Lemming,TS28 5EU,54.717596039819800,-1.366252731024920
Booted eagles and Coati,DL14 6TA,54.646653625761800,-1.662038377904690
Songlark and Francolin,DL5 5JB,54.613119781725300,-1.569955721327690
Thrasher and Towhee,DL17 0QB,54.659715011813700,-1.552241939337750
Gull and Mole,TS21 1LJ,54.595949294082500,-1.414295772787000
Asiatic leopard and Tahr,DL16 6JS,54.705985979979100,-1.595248236448810
Polecat and Magpie,SR8 2EN,54.767918219975700,-1.353669816496440
Moluccan boobook and Skunk,DH6 5JU,54.714845065473600,-1.571193366187580
Mouse and Kākāriki,DL17 8TL,54.684751370187200,-1.564390892539570
Hawk and Black jay,DL5 4BD,54.625437543966200,-1.556614260342230
Pheasant and Bunting,DL14 6JD,54.651872326153200,-1.677586511833400
Shearwater and Stint,DH1 1SW,54.778923086271300,-1.574915000000000
Francolin and Duck,SR8 1EX,54.751642000000000,-1.344918000000000
Linsang and Minke whale,SR8 2BP,54.768558352488600,-1.344007279711950
Nukupuʻu and Marsh harrier,TS19 0QS,54.574114291699400,-1.339815621803880
Piping shrike and Old World vulture,DH7 9LJ,54.776386036753700,-1.711312041938790
Grosbeak and Tattler,DL14 8NU,54.660250187118800,-1.628147612257960
Maya and River dolphin,DL4 1AL,54.632646130473200,-1.650365709035280
Parrotlet and Fish eagle,DH7 8QW,54.755061977449700,-1.626067888807410
Rabbit and Kangaroo,TS21 2EP,54.650191753167000,-1.489285757232180
Parrotbill and Gull,DH7 8YA,54.757596270906800,-1.611779930751220
Partridge and Snipe,DL14 6JB,54.651339106952900,-1.676459360254120
Ground sloth and Black jay,DL17 9AU,54.678874911648400,-1.486537635928050
Fish eagle and Ice seal,DH6 5HA,54.732569978846500,-1.587684747597460
Tit-tyrant and Recurvebill,DL17 9ES,54.700207547376400,-1.521228059513070
Grouse and Condor,DL5 4QD,54.627774348545100,-1.576786918638400
Vulture and Shearwater,DL17 0EY,54.659234706857400,-1.560974438451950
Philippine hawk-owl and Treepie,SR8 1LF,54.749689006462600,-1.344514175252480
Marsh harrier and Stint,DL17 0DH,54.672650708496400,-1.529506895423520
Fish eagle and Snipe,DL4 1JQ,54.631011686153700,-1.653896058257530
Armadillo and Warbler,TS19 9JJ,54.588515089474400,-1.338840082148150
Rat and Bunting,TS22 5SF,54.642705000000000,-1.351363000000000
Bronzewing pigeon and Marsh harrier,DL4 2ES,54.635544892963000,-1.639806155247630
Treepie and Philippine hawk-owl,DL14 9SX,54.641268498537100,-1.691599789784040
Warbler and Kangaroo,DL16 7DS,54.690542476861900,-1.613179940150630
Bronzewing pigeon and Linsang,DL14 8RL,54.649341716937000,-1.640536618432180
Argus and Pheasant,DL5 7PY,54.626408314951400,-1.589842641610460
Solitaire and Chickadee,DH6 5NQ,54.744732128050200,-1.522396518862660
Petrel and Goose,DL17 0AN,54.682184608030900,-1.538594163904040
Perching duck and Mockingbird,DL14 6QA,54.648690471815800,-1.680541000000000
Greenbul and Kestrel,DH6 5HD,54.732864335645000,-1.584405067082850
Jackal and Shearwater,SR8 2HA,54.765481988888500,-1.351828038144980
Towhee and Viscacha,TS29 6DZ,54.713152066876100,-1.422961689688710
Piping shrike and Kite,DL16 7AR,54.687607250708600,-1.622825306049790
Fulmarine petrel and Goose,DL5 4YG,54.634314640461400,-1.561041357358700
Myna and Eagle,TS22 5QT,54.637599458153700,-1.356791094064200
Prion and Peafowl,DL14 8TE,54.643856746131500,-1.648689057364950
Quetzal and Armadillo,DH7 7HN,54.775115857278000,-1.667918114506170
Scimitar babbler and Recurvebill,TS19 0TJ,54.573589000000000,-1.353932000000000
Boto and Jackal,DL15 0TW,54.725361042407200,-1.711612355794660
Goose and Jerboa,DL14 6BQ,54.650646593821600,-1.679641933968780
Peafowl and Wallaby,DL5 5AW,54.621599652562200,-1.558932552449140
Old World vulture and Grosbeak,DL4 2QU,54.641083000000000,-1.619522000000000
Old World quail and Prion,DL5 6PH,54.596888892423500,-1.620877592746790
Guillemot and Black cockatoo,DH6 1JT,54.773270559457800,-1.499334000197620
Goose and Skunk,TS29 6QG,54.700201313852400,-1.432409000000000
Mamo and Elephant,DL5 6GN,54.605973340255200,-1.598190977568970
Thrasher and Mockingbird,TS29 6HP,54.712287271040000,-1.424417473775830
Stint and Meadowlark,DL5 6SG,54.598708719889800,-1.573574630000830
Kestrel and Zebra,DL5 6LX,54.597029126160300,-1.561441000000000
Kākāriki and Songlark,DL5 4JP,54.624620793806600,-1.564336218042380
Vulture and Minke whale,DL5 5EL,54.614840346791500,-1.563558020389140
Fulmarine petrel and Parrotbill,DL16 6XL,54.708825000000000,-1.611343027123530
Rat and Pitohui,TS21 1BS,54.561945833249600,-1.409385903467560
Duck and Asiatic leopard,DH1 2ES,54.775844208052000,-1.545924261266030
Macaw and Francolin,DL16 7UT,54.694680000000000,-1.589341000000000
Wader and New World blackbird,DL16 6HW,54.700538949440800,-1.581678500596700
Diving bird and Wader,DL16 6FA,54.706982000000000,-1.573320000000000
Meadowlark and Treepie,TS28 5EH,54.718493094542700,-1.369390124507870
Vulture and Darwin's finches,DH1 2QH,54.779583195818300,-1.553345095402010
Herring gull and Fulmarine petrel,DL14 0HR,54.642464596701400,-1.720085908559530
Partridge and Solitaire,DL5 5JN,54.614583662573900,-1.577341788798790
Jerboa and Parrotlet,DH7 8AB,54.749837401568500,-1.630838885517420
Skunk and Night heron,TS21 2JE,54.659811201385600,-1.453031027651260
Fox and Argus,DL16 6NG,54.700954491035600,-1.595562087249440
Kākāriki and Partridge,TS28 5HE,54.717536280735700,-1.358305538743840
Marsh harrier and Chipmunk,DH1 4QP,54.774278482177500,-1.580312283721340
Old World warbler and Towhee,DL4 2GH,54.627590000000000,-1.630056000000000
Asiatic leopard and Petrel,DL4 1JD,54.629550588839300,-1.652065152251280
Badger and Pratincole,DL14 6TZ,54.656036723959000,-1.685381000000000
Greenbul and Herring gull,DL15 0DQ,54.710471101856700,-1.690097543474600
Tree warbler and Dolphin,SR8 2DF,54.769701063392100,-1.345931759731510
Grouse and Mink,DH1 3PG,54.775986326103600,-1.575257753619520
Pitohui and Viscacha,DH6 1HD,54.774844891284700,-1.506325585699400
Logrunners and Grosbeak,DL5 4YD,54.634023310647100,-1.560006550043700
Diving bird and Darwin's finches,TS19 8DS,54.587227060511300,-1.349924919740650
Meadowlark and Guillemot,DH7 8XX,54.756773495673700,-1.615858881696930
Duck and Tattler,TS21 2JH,54.650245026390700,-1.454089306346200
Hawk and Gull,DL5 4UG,54.633188540991700,-1.567776731204910
Guillemot and Eagle,TS21 2AT,54.649469000000000,-1.448936000000000
B and Elephant,DL14 6NE,54.652288662743700,-1.689036655861840
Herring gull and Kestrel,TS21 1LB,54.606079000000000,-1.421860000000000
Pratincole and Duck,DH6 4HQ,54.718699121373300,-1.507007664844560
Tit-tyrant and Piping shrike,SR8 2LX,54.756419000000000,-1.362648000000000
Cloud rat and Meadowlark,DL5 5EY,54.615158994803600,-1.567208958894440
Stint and Black jay,DH6 3RQ,54.743120083035600,-1.420516614319590
Old World quail and Snipe,DL15 0RL,54.706715601742800,-1.712365305846140
Parakeet and Black jay,TS19 7BG,54.563913351082700,-1.356373564695980
Jerboa and Civet,SR8 1HE,54.751674714435000,-1.346113472152920
Masked owl and Polecat,DL16 6RE,54.702755603983400,-1.602139264169900
Condor and Bunting,DL14 6NP,54.653694663588200,-1.683663243271600
Scimitar babbler and Songlark,DL14 8EP,54.652000837946300,-1.648200603621600
Triller and White ibis,TS22 5RX,54.637990336073000,-1.359325838930720
Old World vulture and Boto,DL14 8PJ,54.664085837760300,-1.636484267438030
American sparrow and Tit-tyrant,DH6 2HJ,54.759629599861300,-1.391345919045990
Partridge and Piping shrike,TS19 0TS,54.574230333860700,-1.346295335793740
Guillemot and Kestrel,TS28 5NS,54.693336000000000,-1.366941000000000
Chickadee and Magpie,DL16 7AL,54.686908231844900,-1.620567062764260
Triller and Night heron,DL16 7BN,54.685378616650700,-1.622845955054260
Egret and Thrasher,DH6 5NX,54.710103525885500,-1.530595000000000
Duck and Old World warbler,DH7 8JH,54.756197731384300,-1.612834367350530
Argus and Quetzal,DH7 9NL,54.767022272264300,-1.703933844600420
Herring gull and Bronzewing pigeon,TS18 5LE,54.557023609936000,-1.351935994129430
Diving bird and Condor,DL16 6TW,54.710744983094200,-1.580859562715010
Vole and Greenbul,DL16 6XT,54.708686904143900,-1.610477620671300
Siskin and Zebra,DH7 7QT,54.770671538328400,-1.623126181742940
Old World vulture and Jay,SR8 1DZ,54.754359006326100,-1.343941555594050
Chipmunk and Badger,DL16 7DE,54.690248665562600,-1.608435735313410
Viscacha and Prion,DL14 0RA,54.646014829876000,-1.695685873119390
Black cockatoo and Lemming,DL17 8NN,54.686444479824300,-1.565396541273580
Vulture and Shearwater,DL16 7QG,54.700717972039800,-1.652636146643550
Magpie and Piping shrike,DL16 6XZ,54.710921419002400,-1.609493920124210
Herring gull and Parrotlet,DL5 9BH,54.610444000000000,-1.570118000000000
Philippine hawk-owl and Fox,TS22 5NG,54.629903269890000,-1.357841907275800
Mockingbird and Nukupuʻu,DL5 5ED,54.612004365539100,-1.559655582064500
Polecat and Mouse,DH1 4NS,54.768257690640500,-1.596274942705390
Solitaire and Civet,DL16 6JU,54.706613668130600,-1.592153646003260
Tahr and Parakeet,DL15 0EB,54.709112414420600,-1.696533264121870
Armadillo and Stilt,DH6 4LE,54.719603385201800,-1.506173908155410
Mouse and Black cockatoo,TS21 1DT,54.591741162867500,-1.388387793129240
Cloud rat and Skunk,TS21 2AR,54.652993915918800,-1.445931010477890
Fulmarine petrel and Ibex,DH6 1NX,54.778207872330600,-1.511259623482210
Armadillo and Old World warbler,DH6 3LS,54.738001019375700,-1.423105741769110
Boto and Partridge,DH7 8BA,54.745894832743100,-1.637647677804620
Mole and Greenbul,DL15 0DG,54.708479825035100,-1.681142165289220
Prion and Dolphin,TS19 8UU,54.583445393289700,-1.362100197131780
Triller and Petrel,SR8 1JN,54.750802827056100,-1.346080906288290
Skunk and Fulmarine petrel,DL14 6AH,54.653851000000000,-1.677957137944630
B and Zebra,DL16 7NH,54.686389005725400,-1.644971614626270
Hawk and Asiatic leopard,DH7 8YB,54.757957808800400,-1.612429109105970
Rat and Chipmunk,SR8 1DN,54.755281195500300,-1.343305124833650
New World blackbird and Moluccan boobook,DL17 0QY,54.663136695321000,-1.554064663770230
Francolin and Rat,DL17 9NL,54.698801604365800,-1.515689738434980
Duck and Stilt,DH1 4RN,54.779374933930000,-1.585856536416880
Duck and Wallaby,DH1 2JX,54.778474456089700,-1.552424493436860
Fish eagle and Quetzal,DL16 6UB,54.707044000000000,-1.610666142658700
Solitaire and Warbler,TS21 3BL,54.654714950281400,-1.444792000000000
Mockingbird and Fish eagle,DH7 7PA,54.779541906716000,-1.647266316362450
Partridge and Badger,DL5 7LN,54.625668512214300,-1.586349679711610
Philippine hawk-owl and Rat,TS21 3JP,54.603934630390700,-1.380960281828170
Macaw and Pheasant,DH1 2UD,54.753683903681900,-1.536585589427880
Chickadee and Asiatic leopard,DH6 1QN,54.772306126622200,-1.476978000000000
Parrotbill and Guillemot,TS19 8PN,54.582387274372000,-1.357444097535930
Rat and Recurvebill,DL16 6BH,54.698857445548400,-1.602767005006200
Linsang and Thicketbird,TS21 1NA,54.592029711312200,-1.478917166213980
Mink and Peafowl,DL5 6HX,54.609704808175100,-1.572499855529870
Chickadee and Tit-tyrant,DL17 0QH,54.660007664037300,-1.553618363453460
Bronzewing pigeon and Egret,DL16 7WB,54.697472000000000,-1.585946000000000
Jerboa and Parrotlet,DH6 1EB,54.775549445775400,-1.502803670207880
Capuchin and Partridge,TS19 8QA,54.579464968463300,-1.353776980871790
Quetzal and Towhee,DL5 5BD,54.619767264790900,-1.556722336600380
Petrel and Meadowlark,DL16 7LZ,54.690821505200500,-1.617893514210030
Tit-tyrant and Dorcopsis,TS28 5JB,54.736067643128900,-1.380920686685680
Treepie and Piping shrike,DL17 9LL,54.702624611653700,-1.523418662296420
Stint and Thicketbird,DH7 7QF,54.776339475084000,-1.646159302384330
Diving bird and Marmoset,DL15 0LF,54.692063881142500,-1.707147642158260
Flameback and Viscacha,DL17 9AH,54.676194080618000,-1.490138236939030
Marmoset and American sparrow,DH7 8NR,54.751761605482400,-1.634161753234820
Fish eagle and Grackle,DH7 7EW,54.769587519886700,-1.651316401122440
Cuscus and Hawaiian honeycreeper,DH6 2ER,54.773030405248100,-1.424861697763280
Crow and Chickadee,DL17 0QS,54.662593744410700,-1.553047438033370
Towhee and Perching duck,DL16 6DU,54.703779313721600,-1.596465096955550
Masked owl and Bronzewing pigeon,DL4 1FB,54.630955482548000,-1.662648646127660
Piping shrike and Hawaiian honeycreeper,TS29 6FG,54.720493000000000,-1.407470000000000
Stint and Treepie,TS19 9JY,54.593560163592000,-1.341110828534090
Vulture and River dolphin,DL16 7JD,54.673716307079600,-1.595708584121270
Polecat and Old World warbler,DL17 8EW,54.683188971415300,-1.547392000000000
Bronzewing pigeon and Lemming,DL5 4EZ,54.619200034764100,-1.579105841694540
Myna and Piping shrike,DL14 9HG,54.633310603162300,-1.719281002104700
Thicketbird and Tree warbler,DH7 8TH,54.750434385333400,-1.641118321518460
Masked owl and Macaw,DH6 1PJ,54.774870706564900,-1.473959521639780
Mouse and Mockingbird,DL5 4UY,54.627498626886500,-1.572483782052050
Songlark and Petrel,TS19 7SR,54.571920404224200,-1.368250861720300
Hawk and Moluccan boobook,DH1 3JP,54.773283000000000,-1.565244000000000
Coati and Boto,DL4 1HZ,54.629732524416800,-1.649709120380700
Parakeet and Chicken,DL4 2DN,54.634129249335900,-1.641243891198280
Old World quail and Piping shrike,DL5 4ZD,54.637167000000000,-1.582112000000000
Meadowlark and Coati,DL15 0EL,54.712461102027200,-1.691650052770530
Goose and Perching duck,TS28 5NL,54.702950524926300,-1.348154076729180
Capuchin and American sparrow,TS21 4AF,54.684075861621000,-1.445197753566990
Perching duck and Quetzal,DL17 8JJ,54.689783090300400,-1.556828000000000
Cloud rat and Linsang,DL5 6AR,54.592866181138500,-1.573109000000000
Mink and Philippine hawk-owl,DL1 3LZ,54.572383565891400,-1.550476698367500
Rabbit and Old World warbler,DL14 6TD,54.646112661386900,-1.661407516918450
Mole and Flameback,DH7 8UH,54.751511586190700,-1.617618000000000
Marsh harrier and Coati,TS22 5SJ,54.636454848371500,-1.354485234603810
Maya and River dolphin,DL15 0QP,54.709626771316100,-1.690259180051830
Eagle and Perching duck,DL14 7EP,54.664705488605300,-1.674508000000000
Warbler and Herring gull,DH7 9AT,54.761503000000000,-1.718131000000000
Civet and Elephant,DL16 7FW,54.686334000000000,-1.620490000000000
Tit-tyrant and Badger,TS21 2HX,54.617442407432500,-1.440157757490200
Cloud rat and Rabbit,TS21 1JU,54.604549153839200,-1.425426785093080
Dorcopsis and Elephant,DH6 2ES,54.773077985683400,-1.425420638760230
Hawaiian honeycreeper and Hawk,DH6 3EU,54.749835233994100,-1.440104846754660
Old World quail and Grouse,SR8 2NX,54.757091307170000,-1.350687858400380
Asiatic leopard and Greenbul,DL5 4FE,54.630646615526100,-1.583557398534690
Condor and Mouse,DH7 9PJ,54.770256934723100,-1.700070979967830
Masked owl and Masked owl,DH1 2EF,54.773159734163700,-1.544197742875800
Wallaby and Prion,DL15 0LT,54.705447000000000,-1.707624555853850
Jackal and Maya,DL5 4UJ,54.633333250400800,-1.570563653016180
Marsh harrier and Wallaby,DL5 6AU,54.599057885352100,-1.573199502218000
Tahr and Linsang,DH6 3QR,54.747995926309500,-1.401198815598210
Jerboa and American sparrow,DL15 0BJ,54.709230187984100,-1.676045635262610
Flameback and Elephant,DL14 8AJ,54.674318677251400,-1.635478025957890
Vole and Tahr,DL14 9HP,54.631091129224500,-1.719389215689440
Partridge and Stint,TS19 7JN,54.572477361915900,-1.363060304719750
Hawk and Jay,TS19 8GZ,54.591262000000000,-1.355987000000000
Rabbit and Jackal,DL16 6UY,54.709322250380400,-1.595913450578800
Piping shrike and Black cockatoo,DL5 4DA,54.623987057683800,-1.563042004316370
Greenbul and Tree warbler,DL16 7JF,54.674365292402200,-1.596291407836680
Minke whale and Coati,TS21 2DR,54.647851833718800,-1.449518744962050
Quetzal and Hawk,TS29 6ET,54.712145919926400,-1.428734468364670
Coati and Perching duck,TS21 2AA,54.652345950011000,-1.449675017921340
Kākāriki and Boto,DL5 6QJ,54.607744723825800,-1.601207952693070
Moluccan boobook and Skunk,TS29 6DN,54.718178469488800,-1.412318581524220
Grosbeak and Jay,DH1 1TX,54.777899505176500,-1.572423785891340
Parrotlet and Magpie,DL14 9EU,54.635268398828800,-1.714867781474550
Night heron and Lemming,DH6 1LD,54.767290205778100,-1.470793851139890
Maya and Diving bird,DL5 7DD,54.618773000000000,-1.582811000000000
Buzzard and Argus,DL16 6HQ,54.700936755532900,-1.582372682270290
Mouse and Fish eagle,TS29 6AX,54.718002996512700,-1.400336732915300
New World blackbird and Eagle,TS19 7NW,54.566896580488300,-1.363085404571590
Tattler and Mouse,DL16 7DL,54.690083369009600,-1.615759461101570
Old World vulture and Magpie,TS21 1NG,54.598525000000000,-1.514522000000000
Petrel and Jerboa,DL15 9AU,54.758170556204300,-1.696663990177220
Flameback and Chipmunk,DH6 2XD,54.761216453960800,-1.383474234576120
Jerboa and Night heron,TS19 8SH,54.585247624204400,-1.359611791426510
Bronzewing pigeon and Stilt,DH1 4SJ,54.776295112832200,-1.578767914688570
Stint and Herring gull,DL15 0ST,54.720695162104100,-1.685548528602420
Maya and Bunting,TS19 0QT,54.573696622768700,-1.339033451127870
Thrasher and Myna,SR8 2AQ,54.763355997744300,-1.345847543866550
Old World vulture and Skunk,DL17 8SA,54.698772000000000,-1.547312000000000
American sparrow and Grosbeak,DL14 8LE,54.661580054007400,-1.625174569067230
Chipmunk and Francolin,DL5 5NS,54.618622579301600,-1.570764937292710
Vulture and Guillemot,TS21 3BA,54.655253854008700,-1.446861269681520
Macaw and Wader,DH6 5AJ,54.737274316006900,-1.527267775487550
Coati and Shearwater,DH1 3ER,54.773430474618900,-1.573715000000000
Logrunners and Perching duck,DL14 8SW,54.645176359596400,-1.654442151408840
Magpie and Chipmunk,DL5 7AG,54.616891315425000,-1.579361930946740
Grosbeak and Wallaby,DH1 3TF,54.755355056428800,-1.588867343574870
Parrotlet and Vulture,TS29 6AN,54.719454442102600,-1.410437209310610
Dolphin and Jay,TS19 8FB,54.577324600636600,-1.350144360362890
Hawk and Meadowlark,DL14 8PE,54.659249781239600,-1.612872514009680
Kākāriki and Peafowl,DL17 0RA,54.663817777647700,-1.553700000000000
B and Zebra,DL16 6LX,54.708115897540300,-1.597974061427020
Scimitar babbler and Kite,DL14 6XX,54.650004622196800,-1.674796200035120
Piping shrike and Armadillo,DH7 8XB,54.746872094681000,-1.646012151710700
Night heron and Gull,TS19 7QE,54.565896923619400,-1.359280875586850
Capuchin and Fox,SR8 1EY,54.751926253260000,-1.344431440624200
Thicketbird and Night heron,TS21 1EE,54.589454300512500,-1.371771028364890
Rat and Treepie,DL16 9DA,54.699317876954800,-1.602235000000000
Black cockatoo and Dolphin,DH7 7SY,54.770057038738200,-1.622028295061730
Crow and Bunting,DL16 6XF,54.704257000000000,-1.590977000000000
Piping shrike and Nukupuʻu,DL5 4TF,54.635357423821900,-1.563617329149160
Mole and Condor,DL4 1EZ,54.633191893170400,-1.649524499925170
Night heron and Guillemot,TS21 2HN,54.641054000000000,-1.468483000000000
Parakeet and Quetzal,DL17 8JZ,54.686552363619600,-1.557949780580010
Grackle and Maya,DL14 8RW,54.649300591593600,-1.641823269152840
Macaw and Puffleg,SR8 2DD,54.768389286917300,-1.345983994429780
Triller and Piping shrike,DH6 4SB,54.719527039716600,-1.502883681075640
Darwin's finches and Gull,TS19 0UR,54.575054109898700,-1.357482067168310
Greenbul and Skunk,DL5 5NH,54.618579781274400,-1.576479651792980
Chickadee and Grosbeak,DH7 8SB,54.746422000000000,-1.624498376472930
Recurvebill and Boto,DL4 1LR,54.626076277548400,-1.644009724215570
Treepie and Myna,TS19 8BU,54.581567000000000,-1.343362000000000
Songlark and Mink,DL5 7DR,54.617738814555600,-1.590657598809470
Songlark and Tahr,DH1 3SU,54.747659420832200,-1.590607499213670
Vole and Skunk,DL14 7UE,54.657899227013700,-1.683196589929270
Boto and Kākāriki,DL14 0RX,54.651473357524600,-1.704401635625640
