id,postcode,lat,lon
PPL,SOUTERGATE,54.2229,-3.1860
PPL,SOUTHACRE,52.6833,0.6833
PPLX,SOUTHACTON,51.5066,-0.2774
PPL,SOUTHALL,51.5090,-0.3713
PPLX,SOUTHALLBROADWAY,51.5093,-0.3834
PPLX,SOUTHALLGREEN,51.5000,-0.3900
PPL,SOUTHAM,52.2527,-1.3884
ADM2,SOUTHAMPTON,50.9167,-1.3833
ADM2,SOUTHAYRSHIRE,55.2500,-4.6667
PPL,SOUTHBALLACHULISH,56.6828,-5.1859
PPLX,SOUTHBANK,51.5025,-0.1158
PPL,SOUTHBARROW,51.0483,-2.5706
PPL,SOUTHBEACH,52.8823,-4.4139
ADM3,SOUTHBEDBURN,54.6722,-1.8879
ADM3,SOUTHBEDFORDSHIREDISTRICT,51.9167,-0.5667
PPL,SOUTHBELLSDYKE,56.0443,-3.7589
PPL,SOUTHBENFLEET,51.5530,0.5596
PPLX,SOUTHBERMONDSEY,51.4881,-0.0583
PPL,SOUTHBERSTED,50.7965,-0.6747
PPL,SOUTHBOROUGH,51.1604,0.2573
PPL,SOUTHBOURNE,50.8531,-0.9077
PPL,SOUTHBRENT,50.4265,-3.8343
PPL,SOUTHBREWHAM,51.1231,-2.4017
ADM3,SOUTHBUCKSDISTRICT,51.5596,-0.5886
PPL,SOUTHBURGH,52.6041,0.9452
PPL,SOUTHBURN,53.9762,-0.4927
PPLX,SOUTHBURY,51.6530,-0.0609
PPL,SOUTHCADBURY,51.0287,-2.5256
PPLX,SOUTHCAMBERWELL,51.4632,-0.0835
ADM3,SOUTHCAMBRIDGESHIREDISTRICT,52.1792,0.0947
PPL,SOUTHCARLTON,53.2667,-0.5833
PPLA3,SOUTHCAVE,53.7699,-0.6011
PPL,SOUTHCERNEY,51.6732,-1.9310
PPL,SOUTHCHAILEY,50.9383,-0.0210
PPL,SOUTHCHARLTON,55.4758,-1.7421
PPL,SOUTHCHERITON,51.0197,-2.4389
PPL,SOUTHCHURCHVILLAGE,51.5405,0.7294
ADM3,SOUTHCLIFFE,53.8172,-0.6848
PPL,SOUTHCLIFTON,53.2222,-0.7696
PPL,SOUTHCOBBINSHAW,55.8000,-3.7500
PPL,SOUTHCOCKERINGTON,53.3818,0.0760
PPL,SOUTHCOLLINGHAM,53.1333,-0.7667
PPL,SOUTHCORNELLY,51.5111,-3.7035
PPLL,SOUTHCOTE,51.4460,-0.9966
PPL,SOUTHCOVE,52.3706,1.6668
PPL,SOUTHCOWTON,54.4125,-1.5713
PPL,SOUTHCREAKE,52.8849,0.7655
PPL,SOUTHCROSLAND,53.6081,-1.8274
PPL,SOUTHCROSSAIG,55.7000,-5.4500
PPL,SOUTHCROXTON,52.6849,-0.9800
PPLL,SOUTHCROYDON,51.3622,-0.0942
PPL,SOUTHDALTON,53.8955,-0.5301
PPL,SOUTHDARENTH,51.4041,0.2495
ADM4,SOUTHDARLEY,53.1457,-1.6016
PPL,SOUTHDEAN,55.3667,-2.5833
PPL,SOUTHDELL,58.4667,-6.3000
ADM3,SOUTHDERBYSHIREDISTRICT,52.8220,-1.5330
PPL,SOUTHEASE,50.8310,0.0191
PPL,SOUTHELKINGTON,53.3770,-0.0526
PPLA3,SOUTHELMSALL,53.5971,-1.2803
PPLX,SOUTHEND,51.9198,-0.7646
PPLA2,SOUTHENDONSEA,51.5378,0.7143
PPLX,SOUTHERHAM,50.8657,0.0208
ADMD,SOUTHERN,51.3333,-1.5000
PPL,SOUTHERNDOWN,51.4528,-3.6117
PPL,SOUTHERNESS,54.8746,-3.5975
PPL,SOUTHERRADALE,57.6767,-5.7837
PPL,SOUTHERY,52.5271,0.3878
PPL,SOUTHFAWLEY,51.5188,-1.4388
PPL,SOUTHFERRIBY,53.6760,-0.5047
PPLX,SOUTHFIELD,51.5000,-0.2616
PPLX,SOUTHFIELDS,51.4453,-0.2041
PPL,SOUTHFLEET,51.4163,0.3203
PPL,SOUTHGATE,51.5694,-4.0897
PPLX,SOUTHGATEGREEN,51.6188,-0.1266
ADM2,SOUTHGLOUCESTERSHIRE,51.5000,-2.4167
PPLX,SOUTHHACKNEY,51.5404,-0.0461
PPL,SOUTHHAMPSTEAD,51.5433,-0.1839
ADM3,SOUTHHAMSDISTRICT,50.4000,-3.8333
PPL,SOUTHHANNINGFIELD,51.6501,0.5169
PPL,SOUTHHARTING,50.9692,-0.8839
PPL,SOUTHHAYLING,50.7877,-0.9770
ADM4,SOUTHHEIGHTON,50.8062,0.0782
PPL,SOUTHHETTON,54.7991,-1.4067
PPL,SOUTHHIENDLEY,53.6097,-1.4001
PPLA3,SOUTHHILL,50.5333,-4.3500
PPL,SOUTHHINKSEY,51.7341,-1.2637
ADM3,SOUTHHOLLANDDISTRICT,52.8116,-0.0152
ADM4,SOUTHHOLME,54.1876,-0.9269
PPLX,SOUTHHORNCHURCH,51.5235,0.1800
ADM4,SOUTHHUISH,50.2455,-3.8410
PPL,SOUTHHYKEHAM,53.1701,-0.6015
PPL,SOUTHHYLTON,54.9012,-1.4523
PPLA3,SOUTHILL,52.0643,-0.3236
PPL,SOUTHKELSEY,53.4703,-0.4310
PPLX,SOUTHKENSINGTON,51.4944,-0.1732
PPL,SOUTHKESSOCK,57.4931,-4.2400
ADM3,SOUTHKESTEVENDISTRICT,52.8497,-0.5068
PPL,SOUTHKILLINGHOLME,53.5667,-0.2333
PPL,SOUTHKILVINGTON,54.2494,-1.3482
PPL,SOUTHKILWORTH,52.4301,-1.1119
ADM3,SOUTHKIRKBYANDMOORTHORPE,53.5924,-1.3238
PPL,SOUTHKYME,53.0319,-0.2513
ADM3,SOUTHLAKELANDDISTRICT,54.2719,-2.7902
PPLX,SOUTHLAMBETH,51.4778,-0.1235
ADM2,SOUTHLANARKSHIRE,55.5833,-3.8333
PPL,SOUTHLANCING,50.8240,-0.3231
PPL,SOUTHLEIGH,50.7333,-3.1333
PPL,SOUTHLEVERTON,53.3197,-0.8257
PPL,SOUTHLITTLETON,52.1142,-1.8901
PPL,SOUTHLOPHAM,52.3929,0.9998
PPLA3,SOUTHLUFFENHAM,52.6086,-0.6123
PPLX,SOUTHMALLING,50.8832,0.0202
PPL,SOUTHMARSTON,51.5892,-1.7194
PPL,SOUTHMILFORD,53.7767,-1.2461
PPL,SOUTHMILTON,50.2702,-3.8256
PPL,SOUTHMIMMS,51.6959,-0.2327
PPL,SOUTHMINSTER,51.6623,0.8297
PPL,SOUTHMOLTON,51.0167,-3.8333
PPL,SOUTHMOOR,54.8500,-1.7000
PPL,SOUTHMORETON,51.5890,-1.1906
PPL,SOUTHMUNDHAM,50.7957,-0.7555
PPL,SOUTHMUSKHAM,53.1069,-0.8212
PPL,SOUTHNEWBALD,53.8121,-0.6030
PPL,SOUTHNEWINGTON,51.9954,-1.4086
PPL,SOUTHNEWTON,51.1065,-1.8753
ADM3,SOUTHNORFOLKDISTRICT,52.5165,1.3166
PPL,SOUTHNORMANTON,53.1064,-1.3426
ADM3,SOUTHNORTHAMPTONSHIREDISTRICT,52.1179,-1.0172
PPLX,SOUTHNORWOOD,51.3994,-0.0747
PPL,SOUTHNUTFIELD,51.0167,-0.1333
PPL,SOUTHOCKENDON,51.5080,0.2833
PPL,SOUTHOE,52.2655,-0.2675
ADM4,SOUTHOEANDMIDLOE,52.2734,-0.2707
ADM4,SOUTHOLT,52.2773,1.2170
ADM4,SOUTHORMSBYCUMKETSBY,53.2597,0.0441
PPLA3,SOUTHORPE,52.6106,-0.4051
PPL,SOUTHOTTERINGTON,54.2821,-1.4269
PPL,SOUTHOWERSBY,53.4275,-0.4034
PPL,SOUTHOWRAM,53.7099,-1.8318
ADM3,SOUTHOXFORDSHIREDISTRICT,51.6667,-1.0667
PPLX,SOUTHOXHEY,51.6251,-0.3864
PPL,SOUTHPERROTT,50.8582,-2.7513
PPL,SOUTHPETHERTON,50.9483,-2.8071
PPL,SOUTHPETHERWIN,50.6114,-4.3901
PPL,SOUTHPICKENHAM,52.6042,0.7411
PPL,SOUTHPOOL,50.2494,-3.7186
PPLA2,SOUTHPORT,53.6458,-3.0101
ADM4,SOUTHRAUCEBY,52.9918,-0.4874
PPL,SOUTHRAYNHAM,52.7790,0.7849
PPL,SOUTHREPPS,52.8792,1.3502
PPL,SOUTHRESTON,53.3275,0.1047
PPL,SOUTHREY,53.1842,-0.2980
ADM3,SOUTHRIBBLE,53.7167,-2.7333
PPLX,SOUTHRICHMOND,51.4575,-0.2927
PPL,SOUTHROP,51.7300,-1.7120
PPLX,SOUTHRUISLIP,51.5552,-0.4087
PPL,SOUTHSCARLE,53.1666,-0.7361
PPLX,SOUTHSEA,50.7921,-1.0859
PPLA2,SOUTHSHIELDS,54.9986,-1.4323
PPL,SOUTHSHORE,53.7906,-3.0585
PPL,SOUTHSOMERCOTES,53.4225,0.1299
ADM3,SOUTHSOMERSETDISTRICT,50.9838,-2.7079
ADM3,SOUTHSTAFFORDSHIREDISTRICT,52.6255,-2.1767
PPL,SOUTHSTAINLEY,54.0647,-1.5358
ADM4,SOUTHSTAINLEYWITHCAYTON,54.0623,-1.5373
PPLX,SOUTHSTIFFORD,51.4774,0.3025
PPL,SOUTHSTOKE,52.8333,-0.5833
PPLX,SOUTHSTONEHAM,50.9333,-1.3667
PPL,SOUTHTAWTON,50.7338,-3.9098
PPL,SOUTHTHORESBY,53.2713,0.0984
PPL,SOUTHTOWN,52.6000,1.7333
PPL,SOUTHTULLICH,56.2833,-5.1000
PPLX,SOUTHTWICKENHAM,51.4404,-0.3386
ADM2,SOUTHTYNESIDE,54.9500,-1.4167
PPL,SOUTHWAITE,54.7984,-2.8600
PPL,SOUTHWALLS,58.7987,-3.2010
PPL,SOUTHWALSHAM,52.6648,1.4973
ADM3,SOUTHWARK,51.4672,-0.0606
PPL,SOUTHWARNBOROUGH,51.2206,-0.9701
PPL,SOUTHWATER,51.0237,-0.3517
PPLL,SOUTHWEALD,51.6211,0.2675
PPL,SOUTHWELL,53.0780,-0.9554
ADMD,SOUTHWESTERN,51.0000,-3.1667
PPLX,SOUTHWESTLONDON,51.4567,-0.2352
PPL,SOUTHWHEATLEY,53.3500,-0.8500
PPLA3,SOUTHWICK,51.2969,-2.2325
ADM4,SOUTHWICKANDWIDLEY,50.8772,-1.0829
PPL,SOUTHWIDCOMBE,51.3075,-2.6025
PPL,SOUTHWIGSTON,52.5831,-1.1345
PPL,SOUTHWILLINGHAM,53.3342,-0.2080
PPL,SOUTHWIMBLEDON,51.4196,-0.1936
PPL,SOUTHWINGFIELD,53.0959,-1.4400
PPL,SOUTHWIRRAL,53.2584,-2.9272
PPL,SOUTHWITHAM,52.7648,-0.6281
PPL,SOUTHWOLD,52.3272,1.6802
PPL,SOUTHWONSTON,51.1199,-1.3343
PPLX,SOUTHWOODFORD,51.5923,0.0225
PPL,SOUTHWOODHAMFERRERS,51.6454,0.6144
PPL,SOUTHWOOTTON,52.7740,0.4377
PPL,SOUTHWRAXALL,51.3818,-2.2424
PPL,SOUTHZEAL,50.7260,-3.9128
