name,postcode,lat,lon
racer and turtle,BT78 1SJ,54.572536000000000,-7.354435000000000
Kestrel and Tattler,BT78 1SS,54.539009000000000,-7.378604000000000
Fish eagle and goanna,BT78 2LE,54.473584000000000,-7.401839000000000
bicycle lizard and massasauga,BT78 3DG,54.534316000000000,-7.505468000000000
Kākāriki and tortoise,BT78 3EQ,54.519493000000000,-7.436407000000000
gavial and galliwasp,BT78 3HA,54.517968000000000,-7.392312000000000
Myna and Snipe,BT78 3PA,54.462240000000000,-7.467263000000000
Old World quail and Goose,BT78 3PJ,54.481282000000000,-7.403252000000000
tree snake and Elephant,BT78 3QB,54.449291000000000,-7.387271000000000
Siskin and Magpie,BT78 3ST,54.450924000000000,-7.489056000000000
skink and thorn lizard,BT78 3TT,54.481549000000000,-7.540324000000000
Herring gull and constrictor,BT78 4QU,54.613974000000000,-7.489847000000000
Black jay and sand lizard,BT78 4RP,54.583640000000000,-7.560936000000000
Nukupuʻu and gaboon viper,BT78 4SN,54.596878000000000,-7.458545000000000
Argus and amethystine python,BT78 5BZ,54.566037000000000,-7.406157000000000
whip snake and anaconda,BT78 5DH,54.577873000000000,-7.368082000000000
krait and diamond snake,BT78 5LJ,54.589838000000000,-7.374894000000000
Ground sloth and Chicken,BT93 0AS,54.555212000000000,-7.566806000000000
habu and mud turtle,BT93 0AW,54.536471000000000,-7.634267000000000
blind snake and Lemming,BT93 0BD,54.548019000000000,-7.604231000000000
glass snake and Vole,BT93 0BE,54.547046000000000,-7.614486000000000
blindworm and Gull,BT93 0DA,54.547515000000000,-7.573024000000000
iguana and Schneider python,BT93 0DL,54.530615000000000,-7.663159000000000
loggerhead and water snake,BT93 0HZ,54.530921000000000,-7.659309000000000
Stilt and Rat,BT93 0LG,54.553325000000000,-7.672475000000000
Philippine hawk-owl and mountain devil,BT93 1FD,54.562470000000000,-7.738547000000000
king snake and Coati,BT93 1FS,54.566642000000000,-7.690749000000000
Treepie and Fish eagle,BT93 1JX,54.585394000000000,-7.688937000000000
horned toad and Quetzal,BT93 1NS,54.515586000000000,-7.675556000000000
Old World warbler and rat snake,BT93 1TH,54.510669000000000,-7.684966000000000
Tahr and cayman,BT93 1TS,54.523520000000000,-7.723152000000000
mountain devil and sidewinder,BT93 7BQ,54.401988000000000,-7.753828000000000
Maya and Condor,BT94 1AE,54.465783000000000,-7.577143000000000
Ice seal and Eagle,BT94 1AU,54.488811000000000,-7.712879000000000
giant tortoise and Stint,BT94 1EU,54.477593000000000,-7.627882000000000
bull snake and Wallaby,BT94 1FS,54.474244000000000,-7.637537000000000
Treepie and Meadowlark,BT94 1GG,54.466635000000000,-7.625498000000000
Coati and Black jay,BT94 1GH,54.473528000000000,-7.635911000000000
Mockingbird and grass snake,BT94 1GN,54.469377000000000,-7.629098000000000
krait and Mamo,BT94 1HB,54.466263000000000,-7.624453000000000
sand viper and Goose,BT94 1HR,54.503314000000000,-7.665265000000000
elapid and agamid,BT94 1JJ,54.502023000000000,-7.676142000000000
galliwasp and box turtle,BT94 1LB,54.450072000000000,-7.686296000000000
Cloud rat and loggerhead,BT94 1NY,54.431148000000000,-7.684283000000000
gecko and Treepie,BT94 1RX,54.449138000000000,-7.689941000000000
mamba and Mamo,BT94 2AS,54.419147000000000,-7.534769000000000
Marmoset and Ground sloth,BT94 2FU,54.417134000000000,-7.539120000000000
copperhead and Pitohui,BT94 2HH,54.412044000000000,-7.598135000000000
hoop snake and Masked owl,BT94 2HQ,54.413589000000000,-7.600846000000000
Zebra and puff adder,BT94 2JF,54.434922000000000,-7.576198000000000
Gull and thorn lizard,BT94 2LH,54.441092000000000,-7.642408000000000
