name,postcode,lat,lon
Saltwater Brig,BT22 1AR,54.4526,-5.5303
THE NEW QUAYS PORTAVOGIE LTD,BT22 1EB,54.4563,-5.4414
The Crossroads Cafe,BT22 1EP,54.4652,-5.4381
Smyth Catering  ,BT22 1JA,54.4385,-5.4702
Maxemoo Farmyard Cafe ,BT22 2BL,54.6086,-5.5287
Alchemy Coffee,BT22 2NE,54.5352,-5.5606
Wildfowler Inn,BT22 2NE,54.5352,-5.5606
Ballywalter Tea Room ,BT22 2PJ,54.5449,-5.4860
HARRISONS OF GREYABBEY ,BT22 2RB,54.5263,-5.5344
SAMUEL KELLY AND SON,BT22 2SG,54.4858,-5.5290
THE GOLDEN DINER,BT22 2SG,54.4858,-5.5290
Munch,BT22 2SP,54.4885,-5.5345
yer coddin me,BT22 2SP,54.4885,-5.5345
Old Schoolhouse coffee shop ,BT23 4AD,54.5945,-5.6996
Cafolla's at the Square,BT23 4DA,54.5934,-5.6966
Urban,BT23 4DA,54.5934,-5.6966
Little Wing Pizzeria,BT23 4DJ,54.5933,-5.6955
JarrahFoodCompany ,BT23 4JA,54.5940,-5.6962
Del pieros,BT23 4JB,54.5938,-5.6967
Chef & Manager Restaurant,BT23 4JN,54.5930,-5.6969
Molly Browns,BT23 4JT,54.5921,-5.6967
CAFOLLAS,BT23 4LH,54.5939,-5.6983
Romas  Bar and Restaurant,BT23 4LH,54.5939,-5.6983
Balloo House,BT23 6PA,54.4732,-5.6903
Daft Eddyâ€™s ,BT23 6QH,54.4864,-5.6449
Bull and Claw Newtownards,BT23 7DN,54.5938,-5.6945
Haptik,BT23 7DW,54.5934,-5.6944
Hickorys Smokehouse & Grill,BT23 7DY,54.5935,-5.6898
Bob & Berts Newtownards,BT23 7HS,54.5927,-5.6946
Knotts Bakery Ltd,BT23 7HS,54.5927,-5.6946
Mauds ice cream and coffee shop,BT23 7HZ,54.5929,-5.6940
The Parlour Bar,BT23 7JF,54.5923,-5.6927
Alexanders Ards,BT23 7NZ,54.5916,-5.6923
Green Gaze,BT23 7PA,54.5919,-5.6919
Hillmount Ards,BT23 8RP,54.5920,-5.6574
CLOUD 9,BT23 8SG,54.5859,-5.6843
Dufferin Arms,BT30 9QF,54.4007,-5.6519
