name,postcode,lat,lon
Masons arms,CA16 6BN,54.615521000000000,-2.518809000000000
Stag Inn,CA16 6DB,54.620314606490900,-2.482926102307860
Appleby Manor Hotel & garden spa,CA16 6JB,54.578875544054300,-2.476293809443210
Cafe Sixty Six,CA16 6LN,54.561491643721900,-2.444080191458950
Sandfordarms,CA16 6NR,54.539710830442100,-2.420489610132280
Bojangles,CA16 6QH,54.577812000000000,-2.490669000000000
James's temptations cafe,CA16 6QH,54.577812000000000,-2.490669000000000
Tastes of Eden,CA16 6QP,54.577741801769900,-2.492354289256220
The Appleby Hub,CA16 6QR,54.578035897578600,-2.492961185247590
Royal Oak Appleby,CA16 6UN,54.574044186200200,-2.482192992697300
The Tufton Arms Hotel,CA16 6XA,54.577493515363100,-2.491917000000000
Crown and Cushion Appleby,CA16 6XB,54.577314477600100,-2.491359041943790
The Inn at Brough Westmorland Limited,CA17 4AX,54.526712504627500,-2.318672977688280
Augill Castle,CA17 4DE,54.519566074951200,-2.301886823761960
Brough Castle Ice cream Parlour and Tearoom,CA17 4EJ,54.520847765547000,-2.320666511302560
The Bay Horse Winton,CA17 4HS,54.489792918656000,-2.332479573267730
the black bull at nateby,CA17 4JP,54.455064628211900,-2.349303065302820
The Fat Lamb Hotel,CA17 4LY,54.432432000000000,-2.472172000000000
The Black Swan,CA17 4NG,54.429562950178600,-2.428609000000000
King's Head,CA17 4NH,54.433701286473200,-2.427850588753230
Mini Eden,CA17 4QH,54.471765156444700,-2.348380736342750
Costa Coffee Kirkby Stephen ,CA17 4QN,54.472691061381600,-2.348296025526550
Kings Arms Hotel,CA17 4QN,54.472691061381600,-2.348296025526550
the mulberry bush,CA17 4QN,54.472691061381600,-2.348296025526550
Church Gallery,CA17 4QS,54.473822000000000,-2.349248990413900
The Pennine Boutique Hotel,CA17 4QT,54.473356082731400,-2.348301678906120
The White Hare Cafe,CA17 4QW,54.472681000000000,-2.348912163511920
The Tan Hill Inn,DL11 6ED,54.455571304710700,-2.160346312394790
Keld Lodge Hotel,DL11 6LL,54.403831867621800,-2.167815631412260
