name,postcode,lat,lon
The Bridge,CA10 1UZ,54.62081200000000,-2.56529200000000
Lowther Castle Limited,CA10 2HH,54.61085891723633,-2.73193740844727
Askham Hall  Garden Cafe,CA10 2PF,54.60671100000000,-2.75341300000000
Askham Hall,CA10 2PF,54.60671100000000,-2.75341300000000
Punchbowl Inn Askham ,CA10 2PF,54.60671100000000,-2.75341300000000
Queens Head,CA10 2PF,54.60671234130859,-2.75341343879700
Haweswater Hotel,CA10 2RP,54.53089523315430,-2.75946426391602
The White Horse Inn,CA10 3BU,54.58422200000000,-2.58890700000000
The Strickland Arms,CA10 3DF,54.59938049316406,-2.68478441238403
Arms Hotel (Shap) Ltd,CA10 3NU,54.5269,-2.6753
Tebay Services Hotel,CA10 3SB,54.44966200000000,-2.60999900000000
Tebay Services,CA10 3SB,54.44966200000000,-2.60999900000000
J38 Services,CA10 3SS,54.4391,-2.5934
NEW CROWN INN,CA16 6AU,54.60313034057617,-2.56405615806580
Masons arms,CA16 6BN,54.61539459228516,-2.51868534088135
Stag Inn,CA16 6DB,54.62032318115234,-2.48294329643250
Appleby Manor Hotel & garden spa,CA16 6JB,54.57888500000000,-2.47631100000000
Cafe Sixty Six,CA16 6LN,54.56150100000000,-2.44409700000000
Sandfordarms,CA16 6NR,54.53971862792969,-2.42050647735596
Ashiana Appleby Limited,CA16 6QH,54.57782100000000,-2.49068600000000
Bojangles,CA16 6QH,54.57782100000000,-2.49068600000000
James's temptations cafe,CA16 6QH,54.57782000000000,-2.49068500000000
Tastes of Eden,CA16 6QP,54.57775100000000,-2.49237100000000
The Appleby Hub,CA16 6QR,54.57808900000000,-2.49300900000000
Royal Oak Appleby,CA16 6UN,54.57405300000000,-2.48221000000000
The Tufton Arms Hotel,CA16 6XA,54.57750300000000,-2.49154800000000
Crown and Cushion Appleby,CA16 6XB,54.5773,-2.4913
The Fat Lamb Hotel,CA17 4LY,54.4324,-2.4722
The Black Swan,CA17 4NG,54.42957305908203,-2.42907285690308
King's Head,CA17 4NH,54.4337,-2.4278
