name,postcode,lat,lon
Schneider python and Chickadee,CA10 2EZ,54.620227248484400,-2.714898519047240
amethystine python and flying dragon,CA10 2HX,54.601552000000000,-2.709076000000000
Philippine hawk-owl and milk snake,CA10 2NL,54.611892951721400,-2.817640829156090
ringhals and diamondback,CA10 2QR,54.555659499362600,-2.741136520717800
galliwasp and blindworm,CA10 2QS,54.556292690374000,-2.740467656454600
chuckwalla and diamond python,CA10 2RQ,54.556618000000000,-2.751989048155590
hognose snake and dukite,CA10 3DB,54.572173242674000,-2.582621995367390
Mockingbird and Gull,CA10 3ER,54.551907877591700,-2.613470829360080
Mamo and Thicketbird,CA10 3JW,54.522926596599700,-2.587775822457830
Wallaby and Gila monster,CA10 3LA,54.531122671217800,-2.675526772485660
massasauga and Peafowl,CA10 3PJ,54.524054785849100,-2.673030715927320
boa and Grosbeak,CA10 3RQ,54.468546736150300,-2.583894495243760
puff adder and amphisbaena,CA10 3TA,54.443222489465800,-2.619817000000000
grass snake and Mockingbird,CA10 3TH,54.434145532495700,-2.590974369657660
Dorcopsis and sand viper,CA10 3UZ,54.432925025923200,-2.592452132456510
death adder and Tattler,CA10 3XT,54.409332902445300,-2.599999000000000
blue racer and New World blackbird,CA11 0NA,54.621639889078000,-2.879739437946940
Pitohui and Kite,CA11 0NN,54.534585227038200,-2.935850000000000
loggerhead and Stilt,CA16 6BE,54.601683707976700,-2.560335007373030
Hawk and leathery turtle,LA23 1PQ,54.418275000000000,-2.912806239870950
Hawk and taipan,LA8 9JH,54.404815584223800,-2.841707032234010
