name,postcode,lat,lon
The Kirkstile Inn,CA13 0RU,54.577238241585900,-3.331709946754870
wheatsheaf inn,CA13 9UW,54.622467570860900,-3.314074411804670
Bridge Hotel,CA13 9UZ,54.541204739277600,-3.276913315371480
High Stile Kitchen,CA13 9XA,54.538759885508200,-3.270963422668440
Hunday Manor Hotel,CA14 4JF,54.621709760618300,-3.511295000000000
Oily's Limited,CA14 4JG,54.621803000000000,-3.504762000000000
The Galloping Horse Inn Limited,CA14 4NQ,54.613928667587100,-3.545446695303000
The Wild Duck,CA14 4SZ,54.610379094388000,-3.460721384845270
The Royal Yew,CA14 4TJ,54.614198059054700,-3.434486168230940
Pizzaden ,CA14 5HP,54.623410817807700,-3.566422587337500
Bridge Inn,CA19 1UX,54.402357753489200,-3.372437818736090
Woodlands Tea Room,CA19 1UY,54.402263100227800,-3.369692479516800
The Lion and The Lamb,CA20 1AL,54.418704502572200,-3.439023315646470
Gosforth Hall Inn,CA20 1AZ,54.419127106510900,-3.429929658290350
Sella Park Hotel ,CA20 1DW,54.435597000000000,-3.490619000000000
The Kellbank,CA20 1JA,54.417424846536500,-3.429469697712210
The Parkhead Inn,CA22 2RP,54.471887562260500,-3.521783828113950
Parkside Hotel,CA25 5HF,54.524971286168200,-3.494321921936770
Queens Hotel,CA27 0DE,54.491590544418800,-3.590094443371220
The Manor Inn,CA27 0DE,54.491590544418800,-3.590094443371220
Hartleys Tearooms ,CA27 0ES,54.489952962098600,-3.602966000000000
THE SUNNYHILL (WHITEHAVEN) LTD,CA28 6AB,54.554550594018900,-3.579183175250230
The Yellow Earl Limited,CA28 7AH,54.547532250678700,-3.586642335757990
The Rooftop Cafe Dixons Department Store,CA28 7AL,54.547301000000000,-3.587221000000000
Cross's Coffee Shop,CA28 7AU,54.547286000000000,-3.589740000000000
GEORGIAN HOUSE HOTEL ,CA28 7AY,54.547618399561500,-3.588980249236740
La Venue,CA28 7DG,54.547845772968800,-3.588092361796870
The Whittington Cat,CA28 7DG,54.547845772968800,-3.588092361796870
Cafe O'Hare Limited,CA28 7DP,54.548517345615600,-3.588968815119110
Taste at market place ,CA28 7HZ,54.546189364686200,-3.591027280995220
Costa Coffee Whitehaven 2,CA28 7JD,54.547290823200300,-3.590652720121540
Number 11 market place ,CA28 7JD,54.547290823200300,-3.590652720121540
Costa Coffee Whitehaven ,CA28 7JH,54.548078000000000,-3.590359000000000
The Vagabond,CA28 7LL,54.548731000000000,-3.590539000000000
Zest Whitehaven Ltd,CA28 7LR,54.547929732324300,-3.591960835704240
Casa a Roma ,CA28 7QF,54.548215798488900,-3.586607027460350
CLEAVER'S WINE & DINE LTD,CA28 7RB,54.546927191179900,-3.585490234735840
McDonald's Restaurants,CA28 7RW,54.544252000000000,-3.583261875559160
Domino's Pizza - Whitehaven,CA28 7UZ,54.550343702744100,-3.587462724761990
Gaiety Cinema,CA28 7UZ,54.550343702744100,-3.587462724761990
Opera Bingo,CA28 7UZ,54.550343702744100,-3.587462724761990
The Chase Hotel,CA28 8AA,54.542887507270700,-3.580419000000000
The Globe,CA28 8QX,54.536684128720200,-3.567455000000000
Whitehaven golf club,CA28 8UD,54.551627000000000,-3.560763000000000
Summergrove Halls,CA28 8XZ,54.528934255591600,-3.550763818048410
