name,postcode,lat,lon
Amontola,DL10 4AE,54.404821037491600,-1.736509000000000
Nazzarena ,DL10 4AE,54.404821037491600,-1.736509000000000
The Bread Bowl Cafe,DL10 4AE,54.404821037491600,-1.736509000000000
Kerry Marie’s bar & bistro,DL10 4DP,54.404135820353400,-1.739517495733430
The Fleece Hotel (Richmond) Ltd,DL10 4DW,54.404189000000000,-1.738824858376560
Sip Coffee Ltd ,DL10 4HP,54.403906882247000,-1.737116000000000
The Kings Head Hotel,DL10 4HS,54.403618496684200,-1.737179266049240
The Castle Tavern,DL10 4HU,54.403491237600700,-1.736517681598000
Mocha,DL10 4HY,54.403132966860600,-1.737074535951130
Penleys Cafe Bar & Restaurant,DL10 4HY,54.403132966860600,-1.737074535951130
Jeffersons of Richmond,DL10 4JQ,54.403076089496900,-1.735843000000000
RBPT Enterprises LTD,DL10 4LD,54.402820000000000,-1.729051000000000
Granny’s Kitchen,DL10 4QA,54.403550871363600,-1.739151487971030
Black Lion Hotel,DL10 4QB,54.403837988333800,-1.738934001862290
Rustique,DL10 4QE,54.403567380987000,-1.738473580243520
Town Hall Hotel,DL10 4QL,54.402586435332200,-1.737848240375580
cross view restaurant and tearooms,DL10 4QL,54.402586435332200,-1.737848240375580
Barkers Restaurant Ltd,DL10 4QN,54.403034076891400,-1.737059763392300
New Treasure Garden ,DL10 4QP,54.402039498999900,-1.738437078245620
Tandoori night Yorkshire ltd,DL10 4QP,54.402039498999900,-1.738437078245620
The 19th ,DL10 5EX,54.414866397148500,-1.733563000000000
The Coach House ,DL10 6NJ,54.458318895754000,-1.659965606618160
Holiday Inn Darlington - Scotch corner,DL10 6NR,54.442112420552300,-1.671941641154100
BLACK BULL INN,DL10 6QJ,54.428423084060800,-1.636645009100850
The Shoulder of Mutton,DL10 6QX,54.446253980734300,-1.652123848285170
La Piazza Richmond (North Yorks) Ltd,DL10 7AB,54.404819321890900,-1.735600277285080
Couglans at Barningham ,DL11 7DW,54.488510049419700,-1.870408422918390
THE MILBANK ARMS,DL11 7DW,54.488510049419700,-1.870408422918390
Fox Hall Inn,DL11 7PW,54.477401323006200,-1.772355647300070
BROWNLOW ARMS,DL11 7QH,54.515945377605000,-1.753543585436170
Rokeby Inn ,DL11 7QW,54.495620426575300,-1.828422302295990
smallways country inn,DL11 7QW,54.495620426575300,-1.828422302295990
Cricketers Arms,DL12 8BH,54.545702690340400,-1.923418817662490
Fish & Chips at 149,DL12 8BH,54.545702690340400,-1.923418817662490
The Three Horseshoes Hotel,DL12 8EQ,54.544777416428100,-1.924147000000000
The golden lion,DL12 8NB,54.543096889371900,-1.924026506685660
Penny's Tearooms,DL12 8ND,54.542801000000000,-1.924058668075600
Clarendon's,DL12 8NE,54.543168414997700,-1.923439004233480
TURKS HEAD,DL12 8NE,54.543168414997700,-1.923439004233480
Babul's,DL12 8NF,54.542566219413700,-1.923316472685670
The Bowes Museum Enterprise Ltd,DL12 8NP,54.542084745802700,-1.915527196998620
The Old Well Inn,DL12 8PH,54.541939000000000,-1.924044000000000
The Red Well Inn,DL12 8QJ,54.553805515966900,-1.918363363406270
Barnard Castle Golf Club,DL12 8QN,54.557402000000000,-1.919222000000000
The Fox and Hounds,DL12 9PF,54.573550000000000,-1.985643000000000
Thorpe Farm Centre Ltd,DL12 9TY,54.509667539105300,-1.856503364080410
Tea with Alice,DL2 2GL,54.547260000000000,-1.586491612709310
Baydale Beck Limited,DL2 2JX,54.521186393478400,-1.610486351677620
The Spotted Dog,DL2 2LJ,54.532727119536700,-1.652301252012210
Walworth Castle Hotel Limited,DL2 2LY,54.564974337801600,-1.640768280187340
The Bridge  Inn,DL2 2QQ,54.504059902121400,-1.594866953747640
The Crown Inn,DL2 2RF,54.516710738939800,-1.661041000000000
The Burtree Inn,DL2 2XZ,54.562407180948700,-1.596113920034510
Stables Cafe,DL2 3AH,54.593592231456300,-1.808542300941700
Headlam Hall,DL2 3HA,54.566072250899800,-1.723655000000000
The Black Horse,DL2 3HS,54.580496071717400,-1.735594710260430
The Fox Hole,DL2 3SJ,54.538105634986600,-1.676566715337560
Sammies Cafe Piercebridge,DL2 3TS,54.540686381708800,-1.673779655893040
Peartree Hill Cafe,DL3 9AA,54.533472763686400,-1.578658744917880
Douglas's Desserts at the whistle stop cafe,DL4 2JF,54.624911206973700,-1.645104061432970
Steam Machine Brewing Company Ltd,DL5 6EJ,54.612079000000000,-1.580244869771660
Redworth Hall Hotel,DL5 6NL,54.603570000000000,-1.630689664935550
Bayhorse,DL5 6PE,54.595819191387200,-1.617931387148720
George and Dragon,DL5 6PP,54.595466000000000,-1.613726998520110
The Fish Tank,DL5 6YA,54.600086000000000,-1.576532000000000
