name,postcode,lat,lon
Cosa Nostra,YO22 4AS,54.4863,-0.6107
Mister Chips Limited,YO22 4AS,54.48634400000000,-0.61076100000000
Mr Cooper's Coffee House,YO22 4AS,54.48634400000000,-0.61076100000000
Moutreys Restaurant,YO22 4BA,54.4869,-0.6120
Hadley's Fish Restaurant,YO22 4BG,54.4871,-0.6121
THE FOUR SEASONS,YO22 4BG,54.48715000000000,-0.61210800000000
Sanders Yard Bistro,YO22 4BH,54.48765000000000,-0.61184400000000
The Cornish Bakery,YO22 4BH,54.48765000000000,-0.61184400000000
The White Horse and Griffin,YO22 4BH,54.48752830000000,-0.61170900000000
the walrus of whitby,YO22 4BH,54.48765000000000,-0.61184400000000
Abbey Wharf,YO22 4DD,54.48801600000000,-0.61240300000000
Arnies,YO22 4DD,54.48801600000000,-0.61240300000000
Albert's Eatery,YO22 4DE,54.48847540000000,-0.61200110000000
W Hamond Tea Rooms,YO22 4DE,54.48856900000000,-0.61202900000000
marie antoinettes patisserie ltd,YO22 4DE,54.48834350000000,-0.61225260000000
YHA Whitby,YO22 4JT,54.48799200000000,-0.60950100000000
The hare and hounds ,YO22 4LH,54.45470809936523,-0.57012248039246
The windmill inn,YO22 4NT,54.46299400000000,-0.59218900000000
Grosvenor hotel ,YO22 4RA,54.43510300000000,-0.53602200000000
The Bay Hotel,YO22 4SJ,54.43039400000000,-0.53241300000000
The Cove,YO22 4SQ,54.43119049072270,-0.53276997804642
Maid Marion's Fisheries,YO22 4SW,54.4302,-0.5329
The Fylingdales Inn,YO22 4TH,54.43274200000000,-0.54520300000000
YHA Boggle Hole,YO22 4UQ,54.42055800000000,-0.53436800000000
