name,postcode,lat,lon
Astare Restaurant ,CM8 1AA,51.7987,0.6390
Mama Dells Limited,CM8 1AA,51.7987,0.6390
IFRAAZ,CM8 1BA,51.7976,0.6369
Crofters Wine Bar,CM8 2AA,51.7991,0.6415
El Pulpo,CM8 2AF,51.8005,0.6413
LIAN CHINESE RESTAURANT ,CM8 2AF,51.8005,0.6413
Red Lion,CM8 2AF,51.8005,0.6413
White Hart Hotel,CM8 2AF,51.8005,0.6413
haspolen limited,CM8 2AQ,51.8012,0.6412
The Tea Rooms,CM8 2AR,51.8001,0.6403
The Railway,CM8 2DE,51.8060,0.6365
Rivenhall Oaks Golf Centre,CM8 2PS,51.8122,0.6466
Cafe Torque,CM8 3DR,51.8069,0.6466
The Green Man,CM8 3LB,51.7857,0.6797
Benton Hall Golf & Country Club,CM8 3LH,51.7884,0.6498
Western Arms,CM8 3SD,51.8436,0.6290
Five Lakes Resort,CM9 8HX,51.7863,0.8041
Heavenly Desserts Colchester,CO1 1DA,51.8895,0.8969
KAYKEM FAST FOODS LIMITED,CO1 1DA,51.8895,0.8969
KFC Colchester High Street,CO1 1DA,51.8895,0.8969
Colchester High Street McDonalds,CO1 1DH,51.8896,0.9007
Love Thy Burger,CO1 1DH,51.8896,0.9007
Preto,CO1 1DH,51.8896,0.9007
Brook Red Lion Hotel ,CO1 1DJ,51.8896,0.9003
KASPAS DESSERTS COLCHESTER,CO1 1DN,51.8894,0.9027
Three Wise Monkeys Colchester,CO1 1DN,51.8894,0.9027
Colchester Boutique Hotel Ltd,CO1 1DZ,51.8911,0.8967
Middletons Steakhouse & Grill Colchester,CO1 1DZ,51.8911,0.8967
North Hill Noodle Bar,CO1 1DZ,51.8911,0.8967
Debenhams Restaurant Colchester,CO1 1JG,51.8890,0.8980
Loofer's Food & Coffee Place,CO1 1JG,51.8890,0.8980
SLICE CAFE,CO1 1JG,51.8890,0.8980
harpers caffe,CO1 1JG,51.8890,0.8980
BAGEL DOUGH LTD,CO1 1JJ,51.8880,0.8981
Deja brew,CO1 1JJ,51.8880,0.8981
Hsinking ,CO1 1JJ,51.8880,0.8981
RDM Food Ltd,CO1 1JJ,51.8880,0.8981
Tea Rose Cafe,CO1 1JJ,51.8880,0.8981
Cafe Saison,CO1 1JN,51.8885,0.8990
Cafe21,CO1 1JN,51.8885,0.8990
Tymperleys Ltd,CO1 1JN,51.8885,0.8990
cafe med,CO1 1JN,51.8885,0.8990
timbers cafe,CO1 1JN,51.8885,0.8990
Triple TWo Coffee,CO1 1LH,51.8889,0.9023
Aburi restaurant LTD.,CO1 1LN,51.8880,0.9027
Jacquelines tearoom,CO1 1LN,51.8880,0.9027
Caffe Sala Ltd,CO1 1LS,51.8879,0.9006
Chicago Cafe,CO1 1LS,51.8879,0.9006
Small Talk Tearooms,CO1 1LS,51.8879,0.9006
The Purple Dog Pub ,CO1 1LS,51.8879,0.9006
Wild at Spirit,CO1 1LS,51.8879,0.9006
Tanbell Ltd ,CO1 1LX,51.8883,0.9006
Church Street Tavern ,CO1 1NF,51.8889,0.8954
Hudsons,CO1 1NX,51.8894,0.8961
BAGEL BAR LTD,CO1 1NY,51.8892,0.8964
Taco Bell,CO1 1NY,51.8892,0.8964
Ristorante Favoloso ,CO1 1PA,51.8900,0.8958
Piccolo ,CO1 1PY,51.8916,0.8958
The Green Room at The North Hill Hotel,CO1 1PY,51.8916,0.8958
Feast Sandwiches and Buffets,CO1 1QR,51.8921,0.8960
Brunch,CO1 1QT,51.8928,0.8966
Pavilion Lounge and Restaurant,CO1 1QX,51.8935,0.8956
Trotters Bar,CO1 1QX,51.8935,0.8956
Raj Palace,CO1 1RB,51.8953,0.8955
AA RR LIMITED ta PIZZA HOUSE,CO1 1RQ,51.8954,0.8960
Wimpy,CO1 1TB,51.8899,0.9017
MIRRA RESTAURANT,CO1 1TH,51.8898,0.9026
The Castle Pub Colchester Ltd,CO1 1TH,51.8898,0.9026
Mamma Mia Restaurant and Pizzeria(Colchester),CO1 1TN,51.8900,0.9023
Sip & Tuck,CO1 1UE,51.8897,0.9047
GREYFRIARS COLCHESTER,CO1 1UG,51.8901,0.9053
Putt in the  Park ,CO1 1UG,51.8901,0.9053
Cowdray Av McDonalds,CO1 1US,51.8972,0.8980
The Foresters Arms,CO1 1UW,51.8917,0.9063
Coffeelink ,CO1 1XD,51.9008,0.8924
MT COFFEE LTD T/A MUFFIN BREAK,CO1 1XJ,51.8887,0.9002
THE BAMBOO HOUSE,CO1 2AN,51.8831,0.9094
Sushi n Sake,CO1 2HG,51.8808,0.9216
Yak & Yeti Colchester,CO1 2JT,51.8858,0.9046
Miseria E Nobilta' Ltd,CO1 2PG,51.8896,0.9044
Curzon Colchester,CO1 2PH,51.8892,0.9045
Kimchi House,CO1 2PJ,51.8890,0.9040
DICE & A SLICE LTD,CO1 2PQ,51.8884,0.9038
NAKA THAI,CO1 2QX,51.8898,0.9103
Rollerworld Ltd,CO1 2TJ,51.8886,0.9188
The Old Siege House Bar and Brasserie,CO1 2TS,51.8903,0.9165
ROSE AND CROWN HOTEL,CO1 2TZ,51.8907,0.9183
Donkey & Buskins ,CO2 0HU,51.8513,0.8650
The Layer Fox,CO2 0JH,51.8440,0.8573
the hare and hounds,CO2 0PN,51.8339,0.8221
dough&co,CO2 7AD,51.8877,0.8979
Bellapais Restaurant Ltd,CO2 7AH,51.8878,0.8989
Tokyo Sizzle,CO2 7DA,51.8876,0.8998
SONS WAY LIMITED,CO2 7DB,51.8874,0.9002
L'Patisserie,CO2 7EA,51.8871,0.9035
Britannia Gurkha Restaurant & Sport Bar,CO2 7QY,51.8791,0.9035
SUBWAY ,CO2 8FR,51.8799,0.9316
Pizza Hut Colchester South,CO2 8FU,51.8795,0.9278
Bambu,CO2 8GN,51.8793,0.9305
the eat inn diner,CO2 8HG,51.8718,0.9291
Colchester Kawasaki Race Cafe,CO2 8HH,51.8743,0.9310
Quayside Bar and Gurkha Restaurant,CO2 8HT,51.8762,0.9335
Spinnaker ,CO2 8JB,51.8820,0.9261
CESSAC Community Cafe,CO2 9ND,51.8672,0.8795
The Live and Let Live,CO3 0PS,51.8869,0.8404
Colchester Zoo Limited,CO3 0SL,51.8639,0.8357
Mat's Kitchen,CO3 3BZ,51.8856,0.8942
The Nourish Co,CO3 3EN,51.8878,0.8948
The Bull,CO3 3ES,51.8876,0.8951
67 Crouch Street,CO3 3EY,51.8879,0.8925
Kenamchi Ltd,CO3 3EZ,51.8878,0.8917
Tub and Cone ,CO3 3EZ,51.8878,0.8917
Subway,CO3 3GT,51.8924,0.8907
Curry India Tandoori Restaurant,CO3 3HA,51.8878,0.8902
PLAYGOLF COLCHESTER LIMITED,CO3 4AU,51.8969,0.8662
The Lexden Crown,CO3 4DA,51.8900,0.8582
BANQUET CHINESE LIMITED,CO3 8LT,51.8835,0.8141
Stanway Garden Centre,CO3 8LT,51.8835,0.8141
The Barn Plant & Garden Centre Limited,CO3 8ND,51.8909,0.8091
Tollgate McDonalds,CO3 8RG,51.8838,0.8331
Kings cafe,CO3 9DW,51.8895,0.8521
The Cricketers,CO3 9TG,51.9004,0.8264
Greenstead Social Club,CO4 3QD,51.8898,0.9353
Filling station cafe,CO4 3QE,51.8914,0.9369
Bricklayer Arms,CO4 5AA,51.9021,0.8942
Colchester Golf Club,CO4 5AU,51.9067,0.8816
Stadium McDonalds,CO4 5HH,51.9265,0.8952
COSTA COFFEE,CO4 5JL,51.9102,0.8992
Fillpots Garden Centre LLP,CO4 5RB,51.9400,0.9039
SUBWAY ,CO4 5TU,51.9017,0.9015
The Oak Tree Coffee House,CO4 9BB,51.9106,0.9187
KFC Ardleigh,CO4 9HB,51.9176,0.9315
CHEFS EATING HOUSE LTD,CO4 9HT,51.9201,0.9270
Mimosa Restaurant,CO4 9YQ,51.9237,0.9216
The New Times,CO5 0BN,51.8080,0.7416
The Coffee Crate,CO5 0LX,51.8209,0.7339
The Bonnie Blue Oak,CO5 0NF,51.8217,0.7452
Forget Me Not Tea Rooms Llp,CO5 0QA,51.7928,0.7160
Tea Room at the Jam Factory,CO5 0RF,51.8070,0.7538
Jam jar ,CO5 7EA,51.8564,0.9469
The Anchor Rowhedge,CO5 7ES,51.8561,0.9487
The Peldon Rose Inn,CO5 7QJ,51.8057,0.9093
The Whalebone Inn,CO5 8BG,51.7754,0.9267
Coastal Coffee,CO5 8HT,51.7758,0.9125
Cowabunga Pizza,CO5 8HT,51.7758,0.9125
The Victory,CO5 8LS,51.7757,0.9043
The Coast Inn,CO5 8NA,51.7780,0.8994
The Dukes Seafood ,CO5 8NA,51.7780,0.8994
WEST MERSEA YACHT CLUB LTD,CO5 8PB,51.7789,0.8995
Titash Indian Restaurant Limited,CO5 8QA,51.7767,0.9111
The Artcafe (West Mersea) Ltd,CO5 8QE,51.7752,0.9100
The Gilt Rooms LTD,CO5 8QT,51.7779,0.9149
The Fox Inn,CO5 8SA,51.7835,0.9347
Marias Vintage Tea Room ,CO5 8SX,51.7834,0.9549
The Dog and Pheasant ,CO5 8TP,51.7922,0.9800
Mersea Barns,CO5 8TQ,51.7904,0.9686
seafood at dawn,CO5 8TQ,51.7904,0.9686
The Muddy Duck Clubhouse,CO5 8UA,51.7908,0.9848
Somadhan Limited,CO5 9AA,51.8374,0.7013
The Angel,CO5 9AN,51.8330,0.6974
PRESTED HALL LIMITED,CO5 9EE,51.8439,0.7308
Subway feering,CO5 9EL,51.8525,0.7308
THE RAILWAY TAVERN,CO5 9JD,51.8398,0.7043
Sun Inn,CO5 9NH,51.8409,0.7080
The Blue Anchor ,CO5 9PY,51.8433,0.7141
Perrywood Tiptree,CO5 9SX,51.8235,0.7314
THE OLD CROWN (MESSING) LTD,CO5 9TU,51.8381,0.7533
Layer Marney Tower,CO5 9US,51.8226,0.7968
Copford Alma  ,CO6 1BZ,51.8694,0.7989
Marks Tey Hotel ,CO6 1DU,51.8810,0.7905
Bungalow Diner,CO6 1EB,51.8793,0.7837
jhaal indian restaurent ,CO6 1EB,51.8793,0.7837
Poplar Nurseries Ltd,CO6 1HR,51.8774,0.7556
The Barn Brasserie,CO6 1JE,51.8910,0.7491
The Kings Arms Broad Green Ltd,CO6 1RU,51.8755,0.7274
Coggeshall Spice,CO6 1TS,51.8717,0.6862
The Chapel Inn,CO6 1TS,51.8717,0.6862
Swan Inn,CO6 2DD,51.9218,0.7540
Platform Two Cafe,CO6 2DS,51.9248,0.7561
Five Bells,CO6 2HY,51.9404,0.6918
COLNE VALLEY GOLF CLUB,CO6 2LT,51.9311,0.6926
The Essex Golf & Country Club Ltd,CO6 2NS,51.9084,0.6830
The Lion,CO6 2PA,51.9279,0.6988
The Drapers,CO6 2PB,51.9275,0.7006
The Crown Wormingford,CO6 3AB,51.9491,0.8054
White Hart ,CO6 3DD,51.9196,0.8483
Queens Head West Bergholt,CO6 3HE,51.9097,0.8475
The Half Butt Inn,CO6 4ET,51.9278,0.8826
The Anchor Inn,CO6 4JL,51.9708,0.8733
The Stoke by Nayland Club Ltd,CO6 4PZ,51.9979,0.8657
The Crown,CO6 4SE,51.9884,0.8958
Cafe chic,CO7 0AB,51.8111,1.0252
Vibes Bistro ltd,CO7 0AE,51.8108,1.0268
The Rosebud,CO7 0EH,51.8099,1.0326
No1 Harbour Square,CO7 0GE,51.8059,1.0225
Azura Blue Ltd,CO7 0JE,51.8152,1.0223
Tiptree Tea room at The Essex Rose,CO7 6DE,51.9590,0.9926
The Sun Inn Dedham,CO7 6DF,51.9590,0.9922
Boathouse Restaurant ,CO7 6DH,51.9614,0.9940
The Marlborough,CO7 6DH,51.9614,0.9940
Le Talbooth,CO7 6HP,51.9610,0.9684
milsoms,CO7 6HW,51.9602,0.9746
Hall Farm Cafe Restaurant,CO7 6LS,51.9723,0.9862
The Carriers Arms ,CO7 6RA,51.9783,1.0194
Hare and Hounds,CO7 6RL,51.9785,1.0219
The Spice,CO7 7AD,51.8806,0.9963
The Kings Arms,CO7 7DJ,51.8690,1.0350
Jubilee Cafe/Restaurant,CO7 7QJ,51.9338,0.9479
Dragonfly Colchester,CO7 7QY,51.9232,0.9374
SORANO'S RESTAURANT,CO7 8JG,51.8427,1.0258
The Greyhound ,CO7 9AZ,51.8563,0.9591
THE BLACK BUOY TRADING COMPANY LIMITED,CO7 9BS,51.8546,0.9601
The Horse and Groom,CO7 9QL,51.8665,0.9622
The Lamarsh Lion community Pub Ltd,CO8 5EP,51.9855,0.7549
Buzy Beanz Bistro,CO9 1HT,51.9437,0.6348
Coffee Kavern ,CO9 1HT,51.9437,0.6348
The Locomotive Pub and Restaurant,CO9 1LL,51.9447,0.6324
IMJAI THAI RESTAURANT,CO9 2AA,51.9447,0.6380
CURRY COTTAGE HALSTEAD LIMITED,CO9 2AU,51.9461,0.6408
HALSTEAD CAFE,CO9 2JG,51.9439,0.6354
Aimes Ltd t/a Costa Coffee Halstead,CO9 2JN,51.9434,0.6359
Fox and Herb,CO9 2JQ,51.9436,0.6356
The Kings Head Pebmarsh,CO9 2NH,51.9691,0.6954
BABA MAA ENTERPRISE LIMITED,CO9 2SE,51.9790,0.6701
