name,postcode,lat,lon
CHUN ON TSANG T/A YOKO AT THE JET CENTRE,BT51 3AW,55.1209,-6.6771
Table Table The Riverside,BT51 3AW,55.1195,-6.6751
The Giddy Goat ,BT51 3DT,55.1320,-6.6792
The Giddy Goat,BT51 3DT,55.1320,-6.6792
The Courthouse,BT51 3HP,55.1341,-6.6812
Dunluce Restaurants Ltd. ta McDonalds ,BT51 3NA,55.1218,-6.6744
McDonald's,BT51 3NA,55.1222,-6.6738
Subway Riverside,BT51 3NA,55.1218,-6.6744
Moran's Centra & Service Station,BT51 3QJ,55.1070,-6.6938
Hullabaloos Restaurant LTD,BT51 3QQ,55.1201,-6.6722
Bushtown Hotel,BT51 3QT,55.1020,-6.6931
The Brown Trout Golf and Country inn,BT51 4AD,55.0347,-6.6022
Coffee Hut,BT51 4RA,55.1657,-6.7875
The Surf Shack - Castlerock,BT51 4RA,55.1666,-6.7895
Bertha's Bar,BT51 4RE,55.1660,-6.7861
Crusoes Coffee Shop,BT51 4TN,55.1644,-6.7870
Coleraine Post Office and Mauds Cafe,BT52 1AD,55.1305,-6.6701
INFUSE Artisan Tea,BT52 1AF,55.1305,-6.6697
new society Cafe,BT52 1AF,55.1305,-6.6697
Moores of Coleraine ,BT52 1AN,55.1314,-6.6700
Heralds at 22,BT52 1AR,55.1319,-6.6694
Lost and Found,BT52 1BE,55.1325,-6.6718
Bob & Berts Coleraine ,BT52 1DP,55.1312,-6.6715
Rocca ,BT52 1DR,55.1318,-6.6729
Martha's House,BT52 1DS,55.1310,-6.6721
KFC,BT52 1EB,55.1294,-6.6731
The Water Margin,BT52 1EB,55.1302,-6.6735
Coopers ,BT52 1HD,55.1298,-6.6697
CULTURE COFFEE (COLERAINE),BT52 1LB,55.1319,-6.6675
Pear Tree,BT52 1LE,55.1319,-6.6665
Lodge Hotel ,BT52 1NF,55.1262,-6.6587
Sorriso Coleraine Ltd,BT52 1PD,55.1320,-6.6657
Subway Coleraine,BT52 1PD,55.1320,-6.6658
The Sandwich Co,BT52 1PD,55.1320,-6.6658
Ground Espresso Bars Ltd,BT52 1PQ,55.1338,-6.6632
Lenny's Cafe,BT52 1PQ,55.1338,-6.6632
The Crannagh Coffee Shop & Bistro,BT52 1SD,55.1586,-6.6930
The Newbridge,BT52 1TP,55.1169,-6.6325
The Boatyard Coffee Shop,BT52 1UD,55.0924,-6.6153
The Mount Charles Group Limited AVX,BT52 2DA,55.1318,-6.6576
Canteen at WD Meats,BT52 2JR,55.1323,-6.6485
Strawberry Fayre,BT52 2PG,55.1565,-6.6308
Ground Espresso Bars Ltd,BT53 6AG,55.0706,-6.5176
Boyds Cafe,BT53 6AH,55.0708,-6.5169
The clocktower restaurant ,BT53 6AH,55.0707,-6.5169
A Bite Above ,BT53 6AN,55.0691,-6.5165
Bob & Berts Ballymoney,BT53 6AN,55.0691,-6.5165
Subway,BT53 6AN,55.0691,-6.5165
Montys,BT53 6DL,55.0707,-6.5162
Cunningham's Catch,BT53 6DX,55.0725,-6.5174
Zinc,BT53 6JJ,55.0708,-6.5083
The Sizzlin Sausage ,BT53 6QN,55.0837,-6.5487
Founded Coffee,BT53 7ND,55.0479,-6.5493
3hree Kings Coffee Co,BT55 7AD,55.1867,-6.7192
Coffee Hut,BT55 7AD,55.1872,-6.7197
Warke's Deli,BT55 7AD,55.1867,-6.7192
Molly browns ,BT55 7AE,55.1852,-6.7189
Bob & Berts Portstewart,BT55 7AF,55.1842,-6.7186
CULTURE COFFEE (PORTSTEWART),BT55 7AF,55.1842,-6.7186
Guilt Trip Coffee & Donuts,BT55 7AF,55.1840,-6.7184
Morelli's of Portstewart Ltd,BT55 7AF,55.1840,-6.7184
THE ANCHOR COMPLEX,BT55 7AG,55.1828,-6.7186
Portstewart Catering Ltd t/a Amici Ristorante,BT55 7BE,55.1882,-6.7166
The York,BT55 7DA,55.1878,-6.7110
me and mrs jones Portstewart Ltd,BT55 7EA,55.1822,-6.7172
Lost and Found Portstewart,BT55 7PA,55.1789,-6.7244
CROMORE HALT INN LTD,BT55 7PU,55.1835,-6.6991
Causeway Boats foodie tours,BT56 8AX,55.2089,-6.6570
Bob & Berts Portrush LImited,BT56 8BL,55.2063,-6.6528
Earls Coffee house,BT56 8BL,55.2063,-6.6528
Portrush Atlantic Hotel - Port Kitchen,BT56 8BL,55.2063,-6.6528
Spinnaker restaurant ,BT56 8BL,55.2063,-6.6528
The Cookie Box,BT56 8BL,55.2063,-6.6528
Adelphi Portrush,BT56 8BN,55.2075,-6.6543
Kiwis Brew Bar,BT56 8BN,55.2075,-6.6543
The Port Hotel,BT56 8BN,55.2075,-6.6543
The Whitehouse Portrush ,BT56 8BN,55.2076,-6.6541
ocho tapas bistro,BT56 8BN,55.2075,-6.6543
Ramore Restaurant,BT56 8DF,55.2073,-6.6587
Avenue Cafe / Goldrush Portrush,BT56 8DW,55.2030,-6.6519
Urban,BT56 8DW,55.2028,-6.6520
Indigo Cafe,BT56 8DX,55.2045,-6.6524
MAUDS ICE-CREAM CAFE PORTRUSH,BT56 8DX,55.2042,-6.6524
The Quays Bar,BT56 8DZ,55.2028,-6.6528
Golflinks Hotel,BT56 8JQ,55.1996,-6.6352
Royal Portrush Golf Club,BT56 8JQ,55.1996,-6.6352
The Tides Portrush,BT56 8LR,55.1972,-6.6745
Inn on the Coast,BT56 8LT,55.1966,-6.6788
North Coast Leisure Ltd T/A Two Twenty Coffee House,BT56 8NE,55.1983,-6.6009
Royal Court Hotel,BT56 8NF,55.2017,-6.6075
Magherabuoy House Hotel,BT56 8NX,55.1873,-6.6502
ZOE HOUSTON T/A DORAS TEAROOMS,BT56 8NX,55.1873,-6.6502
THE FRENCH ROOMS LTD,BT57 8QA,55.2069,-6.5238
Lillys at the Diamond Ltd,BT57 8QD,55.2050,-6.5230
Tartine at Distillers Arms,BT57 8QE,55.2034,-6.5225
Bushmills Inn Hotel,BT57 8QG,55.2062,-6.5250
Bayview Hotel Portballintrae Ltd,BT57 8RZ,55.2153,-6.5465
