name,postcode,lat,lon
hawksbill and Crow,BT47 3AD,55.027540000000000,-7.174569000000000
Solitaire and Stint,BT47 3BW,55.030288000000000,-7.132757000000000
Dorcopsis and perentie,BT47 3EL,55.021059000000000,-7.127249000000000
elapid and flying dragon,BT47 3XF,55.020433000000000,-7.177872000000000
horned toad and Parakeet,BT47 3XX,55.036496000000000,-7.197066000000000
gaboon viper and indigo snake,BT47 3YG,55.033170000000000,-7.104436000000000
Partridge and galliwasp,BT49 0AG,55.045939000000000,-6.947753000000000
Condor and deaf adder,BT49 0BJ,55.054502000000000,-6.947808000000000
Bronzewing pigeon and Herring gull,BT49 0BT,55.051881000000000,-6.944201000000000
gopher snake and Ibex,BT49 0BU,55.053708000000000,-6.944513000000000
Tree warbler and Shearwater,BT49 0BX,55.052506000000000,-6.942573000000000
Duck and puff adder,BT49 0DF,55.053143000000000,-6.937471000000000
Cloud rat and taipan,BT49 0JB,55.117614000000000,-6.953766000000000
frill-necked lizard and Nukupuʻu,BT49 0PG,55.001377000000000,-6.879438000000000
Argus and Masked owl,BT49 0PJ,55.005850000000000,-6.872798000000000
sand lizard and Lemming,BT49 0QQ,55.035716000000000,-6.931285000000000
Petrel and glass snake,BT49 0QW,55.056814000000000,-6.887782000000000
Nukupuʻu and Snipe,BT49 0SJ,55.042393000000000,-6.933563000000000
Flameback and Siskin,BT49 0UL,55.048617000000000,-6.926027000000000
Partridge and hawksbill,BT49 9BQ,55.043586000000000,-6.951975000000000
jew lizard and agamid,BT49 9DQ,55.037916000000000,-6.948399000000000
blue racer and Logrunners,BT49 9JF,55.023375000000000,-7.065675000000000
whip snake and Coati,BT49 9JJ,55.017666000000000,-7.050813000000000
blindworm and taipan,BT49 9LX,55.024397000000000,-6.981183000000000
Minke whale and alligator,BT49 9NX,55.086626000000000,-7.003735000000000
Snipe and Stint,BT49 9PY,55.045791000000000,-7.039306000000000
hawksbill and bull snake,BT51 4SA,55.156079000000000,-6.822206000000000
Rat and Kangaroo,BT51 4SD,55.166135000000000,-6.831323000000000
