name,postcode,lat,lon
Tree warbler and water snake,DG2 0TG,55.168112688375500,-3.808585761932240
Pheasant and Magpie,DG2 8QX,55.030162095697300,-3.784277948910260
bandy-bandy and Fox,DG2 8RJ,55.019654000000000,-3.818397000000000
Cloud rat and Pitohui,DG2 8RX,55.035319000000000,-3.830211000000000
Diving bird and glass snake,DG3 4DD,55.223964517172700,-3.803587000000000
tortoise and racer,DG3 4DE,55.218831845356400,-3.794992711209560
gecko and black snake,DG3 4HU,55.197866997619600,-3.922169030511550
Guillemot and Rat,DG3 4JU,55.221647938989200,-3.854264847020020
diamond python and Moluccan boobook,DG7 3DU,55.094507365493500,-3.934726154337180
turtle and grass snake,DG7 3DZ,55.104220965703200,-4.016303677169790
Herring gull and Chickadee,DG7 3EB,55.085876548790600,-4.004001000000000
anaconda and green turtle,DG7 3HA,55.000732563570400,-3.895200000000000
Francolin and Hawk,DG7 3HL,55.017188000000000,-3.907818000000000
Fox and Minke whale,DG7 3JF,55.005975901005600,-3.868114073765060
green turtle and Piping shrike,DG7 3LU,55.011133522200700,-3.855873691141090
swift and whip snake,DG7 3NE,55.009754070087600,-4.042885039699630
diamondback turtle and River dolphin,DG7 3PZ,55.077752000000000,-4.083541000000000
thorny devil and habu,DG7 3QA,55.086448053981200,-4.101559360105260
sea snake and Darwin's finches,DG7 3RB,55.073462314528500,-4.140462000000000
loggerhead and bull snake,DG7 3RH,55.074049926761500,-4.140556000000000
python and gavial,DG7 3RW,55.071504143775600,-4.141078572893980
Rabbit and Lemming,DG7 3UA,55.146998000000000,-4.169430000000000
