name,id,postcode,lat,lon
milk snake and Darwin's finches,1321962,DG11 2AY,55.123807000000000,-3.359141000000000
Warbler and Duck,1321366,DG12 5RJ,55.012656435185500,-3.338019315501350
fer-de-lance and elapid,1321917,DG11 3HJ,55.114804202443700,-3.173909381209080
New World blackbird and Masked owl,1322089,DG11 2HL,55.118045438066000,-3.350274543499320
Treepie and Cuscus,1320954,DG13 0LW,55.149377504468100,-2.987222386760910
Elephant and Partridge,1321751,DG11 2QY,55.194349151984900,-3.292514460055160
hognose snake and sea snake,1320833,DG13 0HL,55.213506459555400,-2.978200000000000
Flameback and krait,1320951,DG13 0LS,55.121276320900600,-3.054848471871080
Cloud rat and American sparrow,1321196,DG12 6RW,55.028817500319500,-3.230499322504810
tokay and bandy-bandy,1320950,DG13 0LR,55.134999883058400,-3.076292230655480
Chickadee and bearded dragon,1322048,DG11 1AQ,55.069708266755200,-3.305484706131210
tree snake and Hawaiian honeycreeper,1321914,DG11 3HF,55.129544575379500,-3.143428974867120
rat snake and viper,1320784,DG16 5HQ,55.010746000000000,-3.084017000000000
Chipmunk and Gila monster,1322110,DG11 2JQ,55.129483141861500,-3.350503783032830
Recurvebill and elapid,1321753,DG11 2RB,55.108222309569300,-3.352749175122570
Perching duck and Petrel,1322056,DG11 1AZ,55.030386385656600,-3.320868163945790
Buzzard and Condor,1322094,DG11 2HT,55.122076859062900,-3.348983589133530
Maya and Elephant,1321543,DG11 3PD,55.058664126608500,-3.198834175383220
Hawk and Coati,1320961,DG13 0NL,55.220988814746500,-3.153250145048010
bushmaster and mud turtle,1321275,DG13 0AE,55.151503459277900,-3.000911439664570
Mamo and elapid,1320956,DG13 0NE,55.180602000000000,-3.015052000000000
Rat and Tahr,1322023,DG11 2GD,55.119358000000000,-3.351918000000000
Logrunners and Songlark,1321066,DG14 0UR,55.079656424619100,-2.952781898526760
gaboon viper and Marmoset,1321308,DG13 0DP,55.148652259894000,-3.001216628708790
horned viper and rock python,1321548,DG11 3PJ,55.054814192213500,-3.209192138846830
Lemming and Marsh harrier,1321761,DG11 2RQ,55.132137000000000,-3.347111000000000
Mouse and mountain devil,1321303,DG13 0DG,55.147906467182800,-2.999016924281670
gecko and Elephant,1494700,CA6 5XL,55.011476344177100,-2.980969285558630
frill-necked lizard and New World blackbird,1321636,DG11 2LZ,55.129310769957400,-3.349839226609310
sidewinder and thorn lizard,1321074,DG14 0XD,55.094677391620100,-2.968150960380520
Old World quail and agamid,1320832,DG13 0HJ,55.207787762195700,-2.988463409736220
Piping shrike and Eagle,1322005,DG11 2EJ,55.121048692547400,-3.359016110282340
Myna and asp,1322039,DG11 1AD,55.084658758538200,-3.296571826242130
