name,postcode,lat,lon
Molly Mayâ€™s Tea Room,DG1 1BG,55.0698,-3.6107
The Back Street Restaurant,DG1 1BH,55.0701,-3.6114
hideout scot ltd,DG1 1BT,55.0704,-3.6107
Earls seafood,DG1 1EX,55.0686,-3.6100
Kings Coffee & Books,DG1 1EX,55.0686,-3.6099
Mrs Green's Tea Lounge,DG1 1EX,55.0686,-3.6099
Casa Mia Dumfries,DG1 1JW,55.0799,-3.6102
Station Hotel,DG1 1LT,55.0719,-3.6049
Waverley Bar,DG1 1LX,55.0716,-3.6053
Ae Cafe,DG1 1QB,55.1893,-3.5972
Dalscone farm fun,DG1 1SE,55.0880,-3.5935
Heathhall Garden Centre,DG1 1SE,55.0879,-3.5935
The Lochar Inn,DG1 1TZ,55.0975,-3.5857
Cavens Arms Limited,DG1 2AH,55.0698,-3.6144
The India Palm,DG1 2AH,55.0698,-3.6143
R Barbour & Sons Ltd,DG1 2AL,55.0694,-3.6154
Starbucks Dumfries,DG1 2BA,55.0695,-3.6115
Starbucks,DG1 2BA,55.0693,-3.6112
Cairndale Hotel,DG1 2DF,55.0696,-3.6056
The Hitching Post ,DG1 2EQ,55.0677,-3.5955
Costa Coffee,DG1 2JA,55.0673,-3.6096
Buzz Bingo,DG1 2JJ,55.0689,-3.6067
Burns Coffee House,DG1 2NX,55.0680,-3.6122
The Corner Eatery and Bar Store,DG1 2NX,55.0680,-3.6122
La Dolce Vita,DG1 2PB,55.0680,-3.6114
Bob & Berts Dumfries  ,DG1 2QT,55.0687,-3.6111
Cafe Piccolo,DG1 2RR,55.0688,-3.6155
The Bank Bar and Tapas,DG1 2RS,55.0676,-3.6123
The Frothy Bike Co,DG1 2RT,55.0671,-3.6116
Domino's Pizza - Dumfries,DG1 2RX,55.0657,-3.6099
Bruno's Restaurant,DG1 3BE,55.0719,-3.5955
Tarff coffee shop ,DG1 3PF,55.0754,-3.5814
Starbucks Coffee,DG1 3SE,55.0685,-3.5510
Cornerstone Cafe,DG1 4EJ,55.0639,-3.5868
The Jolly Harvester,DG1 4HB,55.0606,-3.5815
Hetland Garden Nursery Ltd,DG1 4JX,55.0364,-3.4204
Hetland House Hotel,DG1 4JX,55.0347,-3.4188
The Farmers Inn,DG1 4NF,55.0038,-3.4221
Drummuir Farm Ice Cream,DG1 4PX,55.0535,-3.5005
Nith Hotel,DG1 4RE,55.0022,-3.5734
The Boathouse Glencaple,DG1 4RE,55.0022,-3.5734
The Swan,DG1 4SU,55.0461,-3.6061
Easterbrook Bistro ,DG1 4TL,55.0524,-3.5905
Hoddom Castle Coach House,DG11 1AS,55.0398,-3.3196
Costa Coffee,DG11 1HD,55.2159,-3.4160
McDonalds,DG11 1HD,55.2159,-3.4160
Lochmaben Golf Club,DG11 1NT,55.1270,-3.4406
Crown Hotel,DG11 1PD,55.1284,-3.4452
Townhead Hotel Ltd,DG11 2AG,55.1244,-3.3568
Somerton House Hotel,DG11 2DR,55.1136,-3.3557
Somerton House Limited,DG11 2DR,55.1136,-3.3557
Just Be Coffeeshop & Bistro,DG11 2JH,55.1212,-3.3559
SURE QUEENS HOTEL BEST WESTERN LOCKERBIE,DG11 2RB,55.1082,-3.3528
dryfesdale hotel,DG11 2SF,55.1420,-3.3709
Lockerbie Lorry Park,DG11 2SL,55.1967,-3.4088
Cressfield Hotel,DG11 3DR,55.0574,-3.2607
McDonalds Restaurants Ltd,DG2 0DY,55.0785,-3.6286
McDonalds,DG2 0DY,55.0785,-3.6286
KFC,DG2 9BF,55.0763,-3.6275
