name,postcode,lat,lon
Chipmunk and dugite,CA6 5NE,55.044299000000000,-2.962666213408660
Moluccan boobook and Parrotlet,CA6 5NT,55.012368616324500,-2.969434732807450
Old World warbler and Vulture,CA6 5PT,55.008384798474000,-2.974279668991120
tokay and Fox,CA6 5QE,55.093813000000000,-2.850593000000000
lizard and Egret,CA6 5RE,55.093909869433900,-2.841663757252620
Cloud rat and Night heron,CA6 5RP,55.038744130499800,-2.894335320102170
Mouse and Meadowlark,CA6 5XE,55.011219590768600,-2.963621189077590
Peafowl and Recurvebill,CA6 6JJ,55.029543650112400,-2.803956571963710
Gull and monitor,CA6 6JN,55.027390604505600,-2.782716661683040
tree snake and grass snake,CA6 6LQ,55.043507122195400,-2.756520501668460
diamond python and jew lizard,CA6 6LZ,55.047657967423700,-2.768133743146150
tiger snake and Bunting,CA6 6NG,55.067867000000000,-2.761349000000000
Dolphin and anaconda,CA6 6NJ,55.052891000000000,-2.760689000000000
horned toad and Wallaby,DG11 3BJ,55.018307905115600,-3.085518921477010
Crow and Tahr,DG13 0AU,55.152334153299700,-3.003709826998610
Pratincole and cobra,DG13 0EE,55.146853309154600,-2.990423647002610
cycling lizard and iguana,DG13 0EN,55.150173000000000,-2.998807000000000
Macaw and Petrel,DG13 0NZ,55.181369796738100,-3.049525916254300
Puffleg and green turtle,DG13 0PZ,55.153281679831200,-3.010842526580350
Songlark and gavial,DG14 0SZ,55.080496000000000,-2.958096000000000
kabaragoya and Solitaire,DG14 0TP,55.068741000000000,-3.044555000000000
Pratincole and cycling lizard,DG16 5HY,55.004451953150200,-3.062958702867910
