name,postcode,lat,lon
Chipmunk and dugite,CA6 5NE,55.044299000000000,-2.962666213408660
Moluccan boobook and Parrotlet,CA6 5NT,55.012368616324500,-2.969434732807450
Old World warbler and Vulture,CA6 5PT,55.008384798474000,-2.974279668991120
tokay and Fox,CA6 5QE,55.093813000000000,-2.850593000000000
lizard and Egret,CA6 5RE,55.093909869433900,-2.841663757252620
Cloud rat and Night heron,CA6 5RP,55.038744130499800,-2.894335320102170
Mouse and Meadowlark,CA6 5XE,55.011219590768600,-2.963621189077590
grass snake and amphisbaena,DG11 2QJ,55.147131712673000,-3.217600497298620
brown snake and snake,DG11 3AA,55.055311563303000,-3.191564011713400
sand lizard and Rat,DG11 3AH,55.076711000000000,-3.161704000000000
Hawk and indigo snake,DG11 3BH,55.015858120131400,-3.104094844996690
horned toad and Wallaby,DG11 3BJ,55.018307905115600,-3.085518921477010
lizard and goanna,DG11 3JR,55.083139000000000,-3.181018000000000
Black jay and Hawk,DG11 3NQ,55.015572237252200,-3.131299364784810
jew lizard and White ibis,DG11 3NZ,55.060492583646900,-3.192923534187430
Fish eagle and tokay,DG11 3PZ,55.060595022109600,-3.195306444373040
Crow and Tahr,DG13 0AU,55.152334153299700,-3.003709826998610
Pratincole and cobra,DG13 0EE,55.146853309154600,-2.990423647002610
cycling lizard and iguana,DG13 0EN,55.150173000000000,-2.998807000000000
anaconda and thorn lizard,DG13 0LT,55.123216928613000,-3.089617945739600
Macaw and Petrel,DG13 0NZ,55.181369796738100,-3.049525916254300
Puffleg and green turtle,DG13 0PZ,55.153281679831200,-3.010842526580350
Songlark and gavial,DG14 0SZ,55.080496000000000,-2.958096000000000
kabaragoya and Solitaire,DG14 0TP,55.068741000000000,-3.044555000000000
Pratincole and cycling lizard,DG16 5HY,55.004451953150200,-3.062958702867910
