name,postcode,lat,lon
boa and thorny devil,NE26 2EE,55.037836244448900,-1.436833112210960
New World blackbird and Stint,NE26 2PN,55.038863343428200,-1.433532713639680
Vulture and Grackle,NE30 1DQ,55.009333417417900,-1.437185461305990
amphisbaena and mamba,NE30 2LU,55.021351964696300,-1.430291642281020
wall lizard and Old World warbler,NE30 2NE,55.023087957104100,-1.430642429760750
mountain devil and gopher snake,NE30 2PY,55.021725720293800,-1.435291444144070
elapid and Kākāriki,NE30 2RP,55.018656330953500,-1.432269175865540
chuckwalla and flying dragon,NE30 2SA,55.016796953041900,-1.430874000000000
Philippine hawk-owl and Kangaroo,NE30 4AT,55.015179162814400,-1.430457312486680
Linsang and Thrasher,NE30 4BL,55.017012217721600,-1.424691790277300
pit viper and Parakeet,NE30 4BS,55.017296000000000,-1.423828000000000
thorny devil and water snake,NE30 4EG,55.018095935731100,-1.423925582773130
Pitohui and Hawk,NE30 4EY,55.019698418391900,-1.424543862787010
Bronzewing pigeon and frilled lizard,NE30 4HG,55.019345333571600,-1.422093434761480
Polecat and smooth snake,NE30 4JQ,55.026782314120700,-1.430856017188190
Argus and crocodile,NE30 4PB,55.034105665810700,-1.434616774522900
pit viper and Shearwater,NE30 4PG,55.036351292763200,-1.436353238205440
Scimitar babbler and cobra,NE30 4PR,55.015205299012600,-1.426453511243600
horned viper and bearded dragon,NE33 2BP,55.003044008900200,-1.431598452626860
Old World warbler and box turtle,NE33 2EE,55.001408968096700,-1.429776860112910
flying lizard and elapid,NE33 2JN,55.001070933531900,-1.424669000000000
