name,postcode,lat,lon
Crow and puff adder,NE15 9HF,55.000887316476400,-1.754053547680260
Rat and Songlark,NE15 9RD,55.017835000000000,-1.758188000000000
coral snake and jew lizard,NE18 0AY,55.034118901893900,-1.815556279558860
Asiatic leopard and tuatara,NE18 0BH,55.019705000000000,-1.840052000000000
brown snake and New World blackbird,NE18 0NE,55.062595000000000,-1.862316538732570
Peafowl and Parakeet,NE18 0PS,55.039505883343300,-1.859204080657060
Marmoset and Perching duck,NE19 1BL,55.216140000000000,-2.118727000000000
gopher snake and skink,NE19 2AY,55.110711211155600,-2.009046417648210
Masked owl and adder,NE19 2DH,55.096766488714800,-1.956188411382550
racer and Myna,NE19 2HA,55.031661153732300,-1.994572000000000
Black jay and worm lizard,NE19 2HS,55.031157792330900,-1.992100787081250
gopher snake and Elephant,NE19 2LS,55.088928774096600,-2.012817078825570
diamondback turtle and cobra de capello,NE19 2PF,55.133590000000000,-1.983910000000000
Coati and tokay,NE20 0BA,55.090389464650200,-1.782646675119200
bandy-bandy and tree snake,NE20 0BT,55.030063000000000,-1.797628000000000
Marmoset and Gull,NE20 0DR,55.102931191018300,-1.819518553589270
Old World quail and Shearwater,NE20 0DS,55.101806417538000,-1.837624719563030
viper and boomslang,NE20 0EA,55.072906458610100,-1.817930849707960
Pratincole and diamond python,NE20 0EQ,55.041912000000000,-1.953174000000000
tiger snake and python,NE20 0EZ,55.109891466613500,-1.865211534479010
brown snake and Argus,NE20 0HG,55.126898247155000,-1.888253610788640
Jerboa and tortoise,NE20 2BZ,55.051088000000000,-1.748376000000000
Snipe and elapid,NE20 9AD,55.039876236522100,-1.766740089015490
Argus and tokay,NE20 9AE,55.040033591032300,-1.764454589589410
Mouse and bushmaster,NE20 9AT,55.038818571686900,-1.772926940338660
Vole and boomslang,NE20 9AW,55.036254183537800,-1.775976822494600
black snake and taipan,NE20 9DN,55.038505000000000,-1.754465000000000
sidewinder and Cuscus,NE20 9HP,55.044003363581200,-1.772819398919290
whip snake and cayman,NE20 9HT,55.041686693701600,-1.778325000000000
amethystine python and Kangaroo,NE20 9HZ,55.050045363788400,-1.747132008723350
Tattler and blindworm,NE20 9LQ,55.028126000000000,-1.768498500780490
Marmoset and Pheasant,NE20 9LW,55.029196436440700,-1.764518078766830
chameleon and Wader,NE20 9ND,55.024158678319700,-1.775887784708990
Elephant and Badger,NE20 9NX,55.048081752173900,-1.744906275014190
Fish eagle and Prion,NE20 9PQ,55.041234414695800,-1.758172575440070
hoop snake and Myna,NE20 9RR,55.029446389629100,-1.759072597848090
dugite and hoop snake,NE20 9RW,55.030238005295900,-1.754984760503590
Ice seal and Mole,NE20 9SF,55.050893000000000,-1.748363000000000
diamondback terrapin and Perching duck,NE20 9UN,55.054699392897600,-1.742469251713380
thorny devil and Gull,NE20 9UU,55.056281455412100,-1.742709574846330
asp and black snake,NE46 4AX,55.036980431822400,-2.124078920765480
Gull and sea snake,NE46 4HF,55.012473016875100,-2.084926017259590
Buzzard and Pratincole,NE46 4NF,55.010402998230800,-2.038153542176640
Magpie and lizard,NE46 4TF,55.044880525480100,-2.113555488427320
Linsang and bushmaster,NE46 4TW,55.072352258297100,-2.062063681363250
Jackal and rattlesnake,NE48 4BY,55.053213427720200,-2.119996834134180
Guillemot and Grackle,NE5 1PA,55.012704791179200,-1.724942994048640
habu and cycling lizard,NE5 1PY,55.001141195900300,-1.725662975228390
Maya and Mamo,NE5 1QX,55.001602820798000,-1.727144954464120
racer and Egret,NE5 1TR,55.002362000000000,-1.713130858876560
deaf adder and indigo snake,NE5 1UX,55.003476051310100,-1.717126725797470
flying dragon and taipan,NE5 1UZ,55.003435175160800,-1.718877978857310
cerastes and Masked owl,NE61 3DR,55.222656287381000,-1.725887354843300
Perching duck and diamondback turtle,NE61 3FD,55.184063000000000,-1.714327000000000
leguaan and Maya,NE61 3PS,55.168511893640400,-1.732035493483370
fer-de-lance and Booted eagles,NE61 3SW,55.164063126365800,-1.832365125275980
diamondback and Mole,NE61 4BH,55.165704517699500,-1.983457450167120
habu and iguana,NE61 4DZ,55.135645581383700,-1.892699514978270
tortoise and frilled lizard,NE61 4JE,55.173951961984300,-1.847631000000000
Philippine hawk-owl and Tit-tyrant,NE61 6BU,55.126242000000000,-1.715790000000000
Chipmunk and Cloud rat,NE61 6FZ,55.122396000000000,-1.713353000000000
