name,postcode,lat,lon
 Broccoli Pizza & Pasta,SN1 1AG,51.560914000000000,-1.786026000000000
Taste of India Swindon ,SN1 1AG,51.560914000000000,-1.786026000000000
NEW COFFEE INCEPTION LTD t/a Second Cup Swindon,SN1 1BB,51.561861776067800,-1.784388491456720
JRC SWINDON,SN1 1BE,51.563197721839900,-1.787252982722610
HOLIDAY INN EXPRESS Swindon city centre,SN1 1BT,51.563279817122100,-1.787901777480500
The Octagon Cafe,SN1 1EA,51.563648975467900,-1.783254799659390
McDonalld's Brunel,SN1 1LD,51.561004000000000,-1.786425444634020
Triple Two coffee Swindon ,SN1 1LE,51.560334680592700,-1.784800000000000
Chopstix Swindon,SN1 1LF,51.560416603258400,-1.785866000000000
Fillerz,SN1 1LF,51.560416603258400,-1.785866000000000
Franklins Catering Ltd,SN1 1LF,51.560416603258400,-1.785866000000000
Subway,SN1 1LF,51.560416603258400,-1.785866000000000
The Burger Priest Swindon,SN1 1LF,51.560416603258400,-1.785866000000000
Boswells Cafe,SN1 1LL,51.561077000000000,-1.787277000000000
MCCTAFFS CAKES LTD,SN1 1LL,51.561077000000000,-1.787277000000000
Rudis Bar,SN1 1PN,51.559123572026600,-1.781776100995970
Subway,SN1 1PN,51.559123572026600,-1.781776100995970
Swindon Rendezvous,SN1 1QN,51.559167509264400,-1.781227746135920
Da Vinci ristorante italiano,SN1 1RA,51.562038573910800,-1.787966000000000
ELITE KEBAB LIMITED T/A KORKYS TAKEAWAY,SN1 1RE,51.562801000000000,-1.785899000000000
Abes cakes,SN1 1RZ,51.559681283759800,-1.786807769133920
MOMO KING,SN1 1SD,51.559482000000000,-1.785280000000000
Kutting Chai,SN1 1SG,51.559324981339100,-1.783722501580330
Kaspas.swindon Ltd,SN1 2DN,51.565301000000000,-1.781083000000000
Chennai Dosa,SN1 3AJ,51.558329244330200,-1.780121068972310
Longs Bar,SN1 3BB,51.554664100966900,-1.777124220315240
The Victoria,SN1 3BD,51.553315184998500,-1.777015420441970
Mela contemporary Indian cuisine ,SN1 3BH,51.553280313242400,-1.777434000000000
Gaetanos Restaurant,SN1 3BU,51.555015991574800,-1.777771562436400
Lamaya Lebanese Restaurant and Bar,SN1 3DQ,51.557834857270800,-1.780195572241100
Subway,SN1 3RA,51.551173138917200,-1.775771000000000
Biplob restaurant ,SN1 4AB,51.552557553951500,-1.775778761622330
Mackenzies (Swindon) Ltd,SN1 4AB,51.552557553951500,-1.775778761622330
The Kings Arms,SN1 4AB,51.552557553951500,-1.775778761622330
Mario's Trattoria,SN1 4AN,51.552323944872300,-1.775866444946040
Old Town Thai,SN1 4AN,51.552323944872300,-1.775866444946040
Fabio restaurant t/a fabio (swindon)ltd,SN1 4AS,51.552355134941900,-1.777813000000000
dottys old town cafe,SN1 4BD,51.552020900619400,-1.777266925086580
The Core,SN1 4BJ,51.551723722100600,-1.777023191949440
Yak The Himalayan Kitchen ,SN1 4BJ,51.551723722100600,-1.777023191949440
Royal Oak,SN1 4BQ,51.549682364213500,-1.776860096974600
KENZO 72,SN1 4BS,51.551576260170000,-1.775134569185290
siamthai restaurant,SN1 4BS,51.551576260170000,-1.775134569185290
The Runner,SN1 4NQ,51.554535679173800,-1.800735948788510
Aby's Indian Experience,SN1 5AR,51.561483555295300,-1.789151000000000
Love Brownies Swindon,SN1 5AR,51.561483555295300,-1.789151000000000
IBIS BUDGET SWINDON,SN1 5BX,51.562318995102100,-1.788598683021170
Diwali Restaurant,SN1 5DL,51.558660348974200,-1.794140285078850
La Carbonara Limited,SN1 5HW,51.556174373095000,-1.796805493398850
The Rolleston Arms,SN1 5NX,51.558997708501200,-1.786681137965530
BARISTOCATS LTD,SN1 5PL,51.558866557274800,-1.783796797146270
Copacabana restaurant,SN1 7BY,51.542032000000000,-1.791076000000000
Antica Roma ,SN11 0BJ,51.438399587724900,-2.005504000000000
Infusions Tea Rooms,SN11 0BS,51.438885150210400,-2.005274312640250
Spice of Bengal,SN11 0BZ,51.439964151096500,-2.005087000000000
The Lansdowne Strand Hotel,SN11 0EH,51.438077000000000,-2.005461223430950
The Farmhouse cafe bakery and deli,SN11 0HA,51.439676434357100,-2.004670147236650
Sampaguita,SN11 0QZ,51.437149841658300,-2.003605000000000
Fay's Bistro,SN11 0RD,51.438201809383600,-2.004885788910960
The White Horse Inn,SN11 8RG,51.448485415156200,-1.947053784117840
The Dumb Post Inn,SN11 9JZ,51.452933709053100,-2.035195601313860
Gurkha Baynjan ltd,SN11 9LX,51.438966903957400,-2.043831340584950
Jester's Adventure Play,SN11 9PL,51.452760000000000,-1.996756000000000
Bowood Hotel Spa & Golf Resort,SN11 9PQ,51.427264357943300,-2.054996000000000
The Raj (Chippenham) Ltd,SN15 1EG,51.460927480982600,-2.117376304546540
Subway ,SN15 1EX,51.459821626648500,-2.117272707017180
La passione,SN15 1HZ,51.463669730765100,-2.117541697109470
Nourishers,SN15 1JX,51.462631619622200,-2.121540665619830
Grounded,SN15 2BB,51.458759541632800,-2.118536000000000
Sign of the Angel,SN15 2LB,51.416198868373300,-2.121848617503310
The Bell inn,SN15 2PJ,51.411546454278200,-2.107328472857220
The George Inn Sandy Lane,SN15 2PX,51.413300775337900,-2.053771215672790
The Packhorse,SN15 3BA,51.451876119534600,-2.104243000000000
Buckles,SN15 3BS,51.456884196342900,-2.114559000000000
The Gladstone Arms (Chippenham) Ltd,SN15 3BW,51.456822000000000,-2.115451000000000
Angel Hotel     ,SN15 3HD,51.457899700946600,-2.114879000000000
Sarah-Jaynes Cafe,SN15 3HD,51.457899700946600,-2.114879000000000
Boswells Cafe,SN15 3JP,51.459338271870100,-2.115069281900020
The Peterborough Arms,SN15 4HD,51.520853000000000,-2.008138000000000
The Foxham Inn,SN15 4NQ,51.495894586523900,-2.036914294502230
Spice of Asia,SN15 4PB,51.512801533666100,-1.973710541677980
The Wellesley Arms,SN15 4RD,51.505886032136500,-2.084929923524340
The Bell House Hotel,SN15 4RH,51.506915981569500,-2.077569000000000
La Flambe Restaurant,SN15 4RY,51.507870000000000,-2.078435000000000
CROWNS CAFE,SN15 4XX,51.505701694200000,-1.969219538500000
The Volunteer Inn,SN15 5EL,51.542184940882400,-2.053491000000000
The Somerford Arms,SN15 5JP,51.559263404498800,-2.044712097795350
Chippenham Pit Stop,SN15 5LH,51.512119000000000,-2.105874000000000
Michael's Butchers Bistro Deli,SN16 0AH,51.585563867864200,-2.101171873346820
The Radnor Arms,SN16 0HD,51.555299936338900,-2.110047188635020
The Kings Arms Hotel,SN16 9AA,51.583039910801300,-2.098106584178050
the whole hog,SN16 9AS,51.584218087948000,-2.097733876072270
Summer Café ,SN16 9AU,51.583318955701100,-2.097731941944200
LA CAMPAGNA MALMESBURY LTD,SN16 9AX,51.584147020339400,-2.096839000000000
Jackdaws Coffee House,SN16 9BZ,51.583815000000000,-2.096997000000000
Spice Merchant,SN16 9HX,51.586514639855800,-2.093120095611080
the rose and crown,SN16 9PA,51.577742407273800,-2.060734005180260
Vale of the White Horse Inn,SN16 9QY,51.612861204801500,-1.955990976125470
Menu Brazil,SN2 1AA,51.570515982367700,-1.777162234283570
McDonald's Cockleberry,SN2 1US,51.568525973128400,-1.780389356705750
Rio 40 Cafe,SN2 2AA,51.562932199136700,-1.799776000000000
Aya Sushi,SN2 2DY,51.562463000000000,-1.798364000000000
SOHO Coffee Shops Limited Swindon,SN2 2DY,51.562463000000000,-1.798364000000000
Subway (Swindon),SN2 2DY,51.562463000000000,-1.798364000000000
STARBUCKS ,SN2 2DZ,51.562587469609400,-1.797714000000000
STARBUCKS ,SN2 2FZ,51.566860000000000,-1.802763000000000
Subway (Barnfield),SN2 2FZ,51.566860000000000,-1.802763000000000
sanneth foods  ltd T/A CAFE AROMA,SN2 2PJ,51.571859635124300,-1.804642686818810
Cafe Nexus,SN2 2PN,51.573507175168700,-1.811446309500650
The Moonrakers,SN2 5AA,51.586391884086300,-1.775670190772160
Penhill Service Station,SN2 7AS,51.592341276956900,-1.774168513973590
The Kingsdown Inn,SN2 7PE,51.593311181094800,-1.759973436997840
O'Grady's Cafe Bar and Grill,SN2 8AF,51.571423198475800,-1.776681655442470
Gorse Hill Tearooms,SN2 8AH,51.573545689793000,-1.776959855693320
Freedog Swindon,SN2 8HB,51.576887000000000,-1.765226000000000
Trenchers,SN2 8YZ,51.579095432147900,-1.764204426908560
The Tawny Owl,SN25 1WR,51.596491220847400,-1.824459790242700
McDonald's Orbital ,SN25 4AN,51.597122000000000,-1.807364000000000
ABBEYMEADS,SN25 4YX,51.598898000000000,-1.794016000000000
heart in hand,SN26 7AG,51.613017493858400,-1.786558313181650
Blunsdon House Hotel Limited,SN26 7AS,51.613587854542000,-1.788721957334050
Broome Manor Golf Club,SN3 1RG,51.538375000000000,-1.764242000000000
Subway ,SN3 3FS,51.559988000000000,-1.763192000000000
McDonald's  Greenbridge,SN3 3SG,51.570911863312500,-1.754723852500280
Subway,SN3 4FH,51.582596580000000,-1.750836667500000
The White Hart Inn,SN3 4JD,51.575861096245500,-1.735822598846710
Grange Leisure Centre,SN3 4JY,51.579245760323100,-1.745746112025190
The Crown Inn,SN3 4NL,51.584098903357900,-1.748908696389790
BMW MINI Plant Swindon,SN3 4PE,51.577297000000000,-1.759120000000000
The Rat Trap,SN3 4TF,51.589042760108300,-1.748260796084500
The Sun Inn,SN3 6AA,51.543299778700700,-1.735001000000000
Incredible Street Food,SN3 6PG,51.553991501459400,-1.730742385075840
Three Trees Farm Shop & Cafe,SN4 0HT,51.511460077809000,-1.725618000000000
Chiseldon House Hotel,SN4 0NE,51.515083777196200,-1.729962847572710
The Brown Jack,SN4 0RT,51.522140287930500,-1.790787963340580
Chillies Indian Cuisine,SN4 7AA,51.540955228806300,-1.906169916573950
Bella Vita,SN4 7AB,51.541080450018100,-1.905347769609310
Ganges,SN4 7AB,51.541080450018100,-1.905347769609310
Subway ,SN4 7AF,51.542149702694400,-1.904293000000000
Oriental Aroma,SN4 7AQ,51.543173505303500,-1.902964174558700
Taylors cafe ,SN4 7AQ,51.543173505303500,-1.902964174558700
The Angel hotel,SN4 7AQ,51.543173505303500,-1.902964174558700
The Five Bells,SN4 7BD,51.542322389807200,-1.906758313165410
The Royal Wootton Bassett,SN4 7HT,51.551780692580000,-1.895301983732440
H5 Adventure,SN4 7RX,51.504997783996200,-1.885107426968040
Bolingbroke Arms & Hotel Ltd.,SN4 8DZ,51.565299604627500,-1.890769859749140
The School House Hotel & Restaurant,SN4 8EF,51.561645530771500,-1.877983058203010
Sally Pussey Inn,SN4 8ET,51.544950000000000,-1.861790000000000
Iron Horse ,SN4 9EJ,51.526610258667100,-1.796605406018190
The Fox & Hounds,SN4 9JT,51.523547109080500,-1.798305426392200
crown inn,SN4 9PA,51.486965610379200,-1.849478754763460
La Strada,SN4 9PF,51.486755510602200,-1.840032000000000
The Winterbourne,SN4 9QB,51.474755474883400,-1.856933951420440
Butterfly Cafe,SN4 9QT,51.537610000000000,-1.851835000000000
Garden Restaurant,SN4 9QT,51.537610000000000,-1.851835000000000
Soft Play Cafe,SN4 9QT,51.537610000000000,-1.851835000000000
The Sun Inn,SN5 3LU,51.570682390557200,-1.862188577292770
THE BELL INN,SN5 4JG,51.614038060678600,-1.869625305827110
BENGAL SQUARE,SN5 5DJ,51.577193931774500,-1.835602266723600
Village Inn,SN5 5PY,51.567800394431200,-1.837352975223740
Costa Coffee,SN5 7DL,51.558357000000000,-1.828757766659880
Domino's Pizza,SN5 7DL,51.558357000000000,-1.828757766659880
The Ridge Bar and Grill,SN5 7DN,51.560798000000000,-1.831334000000000
McDonald's Bridgemead,SN5 7FQ,51.560379275900000,-1.814126134300000
The Weighbridge Steakhouse,SN5 7JL,51.558710139009400,-1.802449000000000
Campanile Swindon,SN5 7XG,51.556465481493300,-1.815194803542650
bartlett mitchell,SN5 8AT,51.547657464667000,-1.856345319256070
Subway ,SN5 8UB,51.548103000000000,-1.852349000000000
Doubletree by Hilton Swindon ,SN5 8UZ,51.546943065185400,-1.853045159273170
The Freke Arms,SN6 7RN,51.624648238652800,-1.735900794310760
Stanton House Hotel,SN6 7SD,51.609045561883100,-1.742763923743530
Pino’s Ristorante Ltd,SN8 1AH,51.421621645064600,-1.728572000000000
Hilliers Small Plates and Wine,SN8 1BE,51.419875000000000,-1.730740376474180
Bunce's,SN8 1HD,51.419053521357200,-1.733620389293000
The Marlborough,SN8 1HF,51.418147238429400,-1.734445337159100
The Food Gallery,SN8 1HQ,51.418225748743800,-1.733380728001430
saint peters coffee shop limited,SN8 1HQ,51.418225748743800,-1.733380728001430
Biteme Burger Marlborough,SN8 1HU,51.422040462033500,-1.730439076337300
Tea Inc Marlborough,SN8 1HU,51.422040462033500,-1.730439076337300
Rah indian cuisine ,SN8 1JE,51.421777988603100,-1.729692776477050
The Polly Tearooms,SN8 1LW,51.419615002667400,-1.731978000000000
Dan's at The Crown,SN8 1NE,51.420939224271100,-1.728590357596370
The Lamb Inn,SN8 1NE,51.420939224271100,-1.728590357596370
Zaika Inn Restaurant,SN8 1PH,51.420843863934800,-1.726104000000000
The Bell at West Overton,SN8 1QD,51.413983289416800,-1.813353336284090
The Roebuck ,SN8 2AJ,51.419648404697500,-1.715094312879490
The Oddfellows,SN8 4HW,51.415228274906100,-1.756707358372510
