name,postcode,lat,lon
Duke of York,CM11 2PR,51.6127,0.4343
copperfield bakeries ltd,CM11 2RB,51.6136,0.4302
The magic mushroom restaurant ,CM11 2UD,51.6012,0.4454
Tiptree Tea Rooms at Barleylands,CM11 2UF,51.5982,0.4461
The shepherd and dog public house,CM11 2YA,51.6035,0.4731
Gandhi Restaurant,CM12 9AP,51.6248,0.4162
La Toscana Italian Restaurant,CM12 9BY,51.6240,0.4166
Wimpy Billericay,CM12 9BY,51.6240,0.4166
Pasha,CM12 9UN,51.5949,0.4285
Bonnies cafe,CM13 1SN,51.6249,0.3834
Essex quality food and wine ltd TA Masons Restaurant & Bar,CM13 2AA,51.6128,0.3189
The Fat Turk,CM13 3AE,51.6011,0.2919
Warley Park Ltd,CM13 3DX,51.5886,0.3072
Virgin Active Clearview,CM13 3EN,51.5726,0.3156
Thatchers Arms,CM13 3HU,51.5933,0.2842
De Rougemont Manor,CM13 3JP,51.5880,0.2908
Peri UK Ltd,CM13 3LB,51.5766,0.2995
The Halfway House,CM13 3LL,51.5799,0.3548
South Essex Golf Club,CM13 3LW,51.5846,0.3622
The Green Man,CM13 3PZ,51.5965,0.3509
Cafe Amoore,CM14 4AG,51.6202,0.3046
Las Tapas,CM14 4AN,51.6199,0.3013
WHITTAKERS,CM14 4AN,51.6199,0.3013
BALTI HOUSE,CM14 4AP,51.6195,0.2992
Lemongrass,CM14 4AP,51.6195,0.2992
ROOSTERS PIRI PIRI,CM14 4AP,51.6195,0.2992
Subway,CM14 4AP,51.6195,0.2992
MEAT STOP,CM14 4BA,51.6192,0.3009
Hey Joe music & coffee,CM14 4BX,51.6195,0.3022
The Raj Restaurant Essex Ltd,CM14 4DJ,51.6181,0.2983
CKN Bar & Kitchen,CM14 4EG,51.6150,0.2992
The Spread Eagle,CM14 4HD,51.6182,0.3035
Marygreen Manor Hotel,CM14 4NR,51.6127,0.2786
Rossi ,CM14 4RG,51.6213,0.3047
cafe 89 Ltd t/a Eightea9,CM14 4RR,51.6202,0.3003
eastern oriental chinese restaurant ltd,CM14 4RW,51.6204,0.3016
Chick N Shack,CM14 4RX,51.6198,0.2990
Bardswell Social Club and Institute Limited,CM14 4TJ,51.6213,0.2969
The Essex Arms,CM14 5HA,51.6118,0.2990
Ubaid Limited,CM14 5HA,51.6118,0.2990
Juboraj Tandoori,CM14 5HR,51.6124,0.2986
dw cafe & sports bar ,CM14 5LF,51.6049,0.3005
The Bull Brentwood,CM14 5LZ,51.6118,0.2736
mizu ,CM14 5NA,51.6094,0.2658
THE BRENTWOOD KITCHEN,CM15 8AA,51.6214,0.3071
Woodland coffee shop,CM15 9AU,51.6220,0.3053
SOULSUB LIMITED,DA1 1AS,51.4465,0.2168
Dartford Dosahouse ,DA1 1BE,51.4449,0.2168
Le Tre Sorelle,DA1 1BX,51.4452,0.2164
The Coffee House,DA1 1DE,51.4441,0.2195
Efes Turkish Restaurant ,DA1 1DS,51.4439,0.2198
Esquires Coffee Dartford,DA1 1DT,51.4441,0.2181
Royal Victoria & Bull Hotel,DA1 1DU,51.4443,0.2172
The Royal Victoria and Bull Hotel,DA1 1DU,51.4443,0.2172
Sedir Restaurant,DA1 1EW,51.4430,0.2164
New York Deli ,DA1 1EX,51.4438,0.2186
Cafe in the Park,DA1 1JP,51.4389,0.2174
Hawley kitchen ,DA1 1PX,51.4275,0.2260
McDonald's,DA1 1YT,51.4376,0.2372
The Jafflong,DA1 2DT,51.4448,0.2138
Sunflower cafe,DA1 2HL,51.4438,0.2154
McDonald's,DA1 2HR,51.4440,0.2161
Dartford Priory KFC Store ,DA1 2HS,51.4437,0.2163
KAANAA LTD,DA1 5FP,51.4615,0.2267
Europa Worldwide group,DA1 5PZ,51.4611,0.2470
COSTA COFFEE - GRAVESEND ,DA11 0AA,51.4427,0.3677
Coffee Republic Gravesend ,DA11 0AA,51.4427,0.3677
Sultan Sofrasi,DA11 0AB,51.4426,0.3664
Burger King,DA11 0AF,51.4423,0.3678
McDonald's,DA11 0AF,51.4423,0.3678
Pad Thai Live,DA11 0AZ,51.4432,0.3696
The sausage shop,DA11 0AZ,51.4432,0.3696
Marie's Tea Room,DA11 0BA,51.4438,0.3695
Northman Coffee Limited,DA11 0BB,51.4437,0.3691
Three Daws Riverside Inn,DA11 0BJ,51.4450,0.3694
Julius Caesar Italian ,DA11 0BQ,51.4445,0.3696
Gandhi restaurant ,DA11 0BS,51.4451,0.3673
Galms Ltd (McDonald's),DA11 0DQ,51.4442,0.3606
Sie's Pie & Mash,DA11 0TA,51.4430,0.3668
Eastgate coffee shop limited,DA11 8AD,51.4331,0.3318
The Six Bells,DA11 8BT,51.4322,0.3471
Gingers Cafe and Sandwich Bar ,DA11 8RA,51.4339,0.3531
Northfleet Fishbar,DA11 8RA,51.4339,0.3531
Kimberley Clark,DA11 9AD,51.4446,0.3400
COSTA COFFEE - EBBSFLEET,DA11 9BJ,51.4489,0.3213
White Eagle Pl Ltd,DA11 9EX,51.4435,0.3363
Hot Rod Diner Ltd,DA11 9HJ,51.4454,0.3289
Ye Olde Leather Bottel,DA11 9PH,51.4415,0.3379
The Marlin Plaice ,DA12 1AD,51.4417,0.3696
sukhothai restaurant ,DA12 1AD,51.4417,0.3696
Alto Gusto ,DA12 1AS,51.4404,0.3694
CHINA GARDEN,DA12 1AS,51.4404,0.3694
The invicta Bar,DA12 1AS,51.4404,0.3694
Twin Dynasty,DA12 1BA,51.4397,0.3692
The Pantry,DA12 1ER,51.4400,0.3710
Tufail Indian Restaurant,DA12 1EZ,51.4382,0.3723
prince of orange,DA12 1NJ,51.4327,0.3707
FirstPort - Nelson Court,DA12 1PL,51.4334,0.3737
No.84,DA12 1QF,51.4318,0.3753
PANTHEON GRAVESEND LTD,DA12 2EB,51.4425,0.3703
reliance fish restaurant,DA12 2EE,51.4428,0.3714
SHIP AND LOBSTER,DA12 2QB,51.4431,0.3964
Moove Lubricants Limited,DA12 2QX,51.4399,0.3923
Rasoighar,DA12 2RE,51.4421,0.3717
Creams,DA12 2RF,51.4415,0.3745
V's Punjabi Grill at the Canal Tavern,DA12 2RS,51.4425,0.3823
Rose & Crown Public House,DA12 3EA,51.4142,0.4307
Inn on the Lake hotel,DA12 3HB,51.4030,0.4073
Southern Valley Golf Course Ltd,DA12 4LT,51.4193,0.4045
Best Western Manor Hotel,DA12 5UQ,51.4114,0.3769
Kohinoor Restaurant ,DA13 9JF,51.4060,0.3529
The Ship Inn Southfleet ,DA13 9NS,51.4159,0.3202
Millbrook Garden Centre - The Mill,DA13 9PA,51.4208,0.3115
Stone valley lodge Ltd,DA2 6PD,51.4466,0.2476
Thermo Fisher,DA2 6PT,51.4573,0.2522
COSTA COFFEE - DARTFORD ,DA2 6QE,51.4529,0.2537
Campanile Dartford,DA2 6QN,51.4585,0.2544
Laing O Rourke,DA2 6SN,51.4554,0.2543
Green Spice ,DA2 8DP,51.4135,0.2776
Subway Restaurant,DA9 9BT,51.4525,0.2752
McDonald's,DA9 9HY,51.4486,0.2798
Ori Caffe,DA9 9SA,51.4405,0.2715
The Daily Grind,DA9 9SE,51.4398,0.2692
Bluewater KFC Store ,DA9 9SF,51.4392,0.2733
Galms Ltd (McDonald's),DA9 9SF,51.4392,0.2733
SIZZLED,DA9 9SF,51.4392,0.2733
Shawa Bluewater,DA9 9SF,51.4392,0.2733
Wingstop Bluewater,DA9 9SF,51.4392,0.2733
Costa at Showcase Cinema de Lux Bluewater,DA9 9SG,51.4377,0.2704
Cocoba,DA9 9SH,51.4391,0.2721
Coffee Republic,DA9 9SQ,51.4380,0.2703
Comptoir Bluewater,DA9 9ST,51.4394,0.2729
Gravity - Bluewater,DA9 9ST,51.4394,0.2729
SPUDULIKE BLUEWATER,DA9 9ST,51.4394,0.2729
Tapas Revolution Bluewater,DA9 9ST,51.4394,0.2729
Wasabi Sushi & Bento,DA9 9ST,51.4394,0.2729
Yangzte Blue Water,DA9 9ST,51.4394,0.2729
Zabardast,DA9 9ST,51.4394,0.2729
New Shad Restaurant,ME2 4HY,51.4011,0.5004
NAZ'S RASOI LIMITED,ME2 4JB,51.4017,0.5014
Ship Tavern Inn,ME2 4UY,51.4105,0.5292
Medway Yacht Club,ME2 4XB,51.4128,0.5320
The Kings Arms,ME2 4XG,51.4063,0.5256
Tudor Rose,ME2 4XG,51.4063,0.5256
Six Bells Public House Cliffe,ME3 7QD,51.4618,0.4984
The Horseshoe and Castle,ME3 8DJ,51.4560,0.5306
The Red Dog,ME3 8SF,51.4485,0.5615
Pink Paprika,ME3 9AD,51.4201,0.5622
Curry Cook House,ME4 3ED,51.4010,0.5346
THEPICKNGO,ME4 3ED,51.4010,0.5346
the panini brothers,ME4 3ED,51.4010,0.5346
Friendly Phils,ME4 4LL,51.4012,0.5322
SUBWAY,ME4 4LL,51.4012,0.5322
Villagio,ME4 4LL,51.4012,0.5322
Fireaway Chatham ,ME4 4ZJ,51.4021,0.5342
Flip Out Chatham,ME4 4ZJ,51.4021,0.5342
Starbucks Chatham,ME4 4ZJ,51.4021,0.5342
Sweet Maritime LTD,ME4 4ZJ,51.4021,0.5342
The Broadwick,ME4 4ZJ,51.4021,0.5342
Taco Bell,ME4 4ZL,51.4021,0.5352
Thai River Restaurant,RM11 1RL,51.5630,0.2200
MOTHER INDIA (HORNCHURCH) LTD,RM11 1SU,51.5676,0.2203
Tarantino LTD,RM11 1TP,51.5633,0.2153
Uraswamy's,RM11 1TP,51.5633,0.2153
Nes' CAFE,RM11 1TS,51.5633,0.2173
OLIMBOS LIMITED,RM11 1TS,51.5633,0.2173
Wimpy,RM11 1TX,51.5627,0.2196
Passage to india ,RM11 3XB,51.5594,0.2351
Tandoori Lounge,RM11 3XS,51.5618,0.2213
Tops cafe / asya top ltd,RM11 3XS,51.5618,0.2213
MANDARIN PALACE,RM11 3XT,51.5616,0.2236
Umberto restaurant ,RM11 3XT,51.5616,0.2236
Sukhothai Hornchurch,RM11 3YD,51.5622,0.2206
COSTA COFFEE - HORNCHURCH 1,RM12 4UH,51.5625,0.2183
The Rising Sun Pub,RM12 4UW,51.5627,0.2170
Tea Island,RM12 6AF,51.5614,0.2211
Da Vinci's,RM12 6JL,51.5608,0.2210
vertigo lounge ,RM12 6JL,51.5608,0.2210
Fireaway Pizza ,RM12 6NB,51.5604,0.2204
ONYX RESTAURANT & BAR ,RM12 6NB,51.5604,0.2204
Pride Of Hornchurch Ltd,RM12 6NB,51.5604,0.2204
SUBWAY,RM12 6NJ,51.5613,0.2205
Mustard Rainham limited,RM12 6QP,51.5612,0.2228
Taste of Bengal,RM12 6QP,51.5612,0.2228
COSTA COFFEE - HORNCHURCH 2,RM12 6QX,51.5620,0.2200
Starbucks Hornchurch,RM12 6QX,51.5620,0.2200
Can's Meze Bar ,RM14 1RQ,51.5687,0.2676
Upminster Garden Centre,RM14 1TS,51.5945,0.2554
Spice of India,RM14 1XJ,51.5615,0.2675
Ginger Lounge,RM14 2AA,51.5525,0.2477
Lefke ,RM14 2AD,51.5534,0.2473
Roots,RM14 2AD,51.5534,0.2473
Caffe Gelato,RM14 2AH,51.5533,0.2479
THE TEACOSY LIMITED,RM14 2AH,51.5533,0.2479
ACE CREAMS & TAPAS,RM14 2SJ,51.5569,0.2491
COSTA COFFEE - UPMINSTER 2,RM14 2SJ,51.5569,0.2491
Sorrento restaurant,RM14 2SJ,51.5569,0.2491
The Station Pantry,RM14 2SU,51.5586,0.2496
COSTA COFFEE - UPMINSTER 1,RM14 2TR,51.5577,0.2502
WIMPY,RM14 2TR,51.5577,0.2502
Barracuda Fish and Chips ,RM14 2TU,51.5580,0.2503
The Fete Lounge ltd,RM14 2UB,51.5567,0.2498
Masala Grill Original LTD,RM14 3BL,51.5564,0.2508
T&K COFFEE LTD,RM14 3BL,51.5564,0.2508
cafe le raj/raj essex ltd,RM14 3BL,51.5564,0.2508
SWEET ROSE CAKERY LIMITED,RM14 3BS,51.5561,0.2507
Samihah limited t/a kushoom bugh,RM14 3BT,51.5562,0.2521
The Jobber's Rest,RM14 3LT,51.5577,0.2731
Jaxons eating house,RM14 3NU,51.5604,0.2837
Top Meadow Golf Centre ,RM14 3PR,51.5420,0.2989
The Old White Horse,RM14 3PS,51.5405,0.2961
Langdon Hills Golf & Country Club Ltd,RM14 3TY,51.5447,0.3953
MingLong Essex Limited,RM15 4BB,51.4990,0.2558
Sir Henry’s,RM15 4XB,51.5130,0.2512
The Raj Ockendon,RM15 5DX,51.5107,0.2821
Woody's,RM15 6DU,51.5131,0.2940
Subway,RM16 3BG,51.4923,0.2723
Voujon restaurant ,RM16 3BL,51.5054,0.3827
Cafe Sartoria,RM16 3HS,51.5147,0.3709
Garden Brasserie,RM16 3HS,51.5147,0.3709
The Whitmore Arms,RM16 3LB,51.5127,0.3698
kushi,RM16 6EW,51.4862,0.2883
pepes piri piri,RM17 5DD,51.4787,0.3236
MEMEL,RM17 5HF,51.4798,0.3254
New Delhi,RM17 5HJ,51.4794,0.3259
Village Indiya,RM17 5RY,51.4889,0.3409
Bombay Restaurant,RM17 5RZ,51.4889,0.3390
Orchard Cafe,RM17 5SY,51.4846,0.3421
the bull public house,RM17 6EY,51.4769,0.3423
THEOBALD ARMS,RM17 6HR,51.4737,0.3232
KFC Grays,RM17 6LU,51.4779,0.3228
Nagawa ,RM17 6LU,51.4779,0.3228
Izgara Meze,RM17 6LY,51.4775,0.3225
Subway,RM17 6NB,51.4774,0.3233
Gurkha Cookhouse ,RM17 6NQ,51.4760,0.3219
Break Bar,RM17 6QE,51.4771,0.3238
Burger King,RM17 6QE,51.4771,0.3238
The Snack Shack,RM17 6QE,51.4771,0.3238
Wimpy ,RM17 6QE,51.4771,0.3238
THE DOCK CAFE & RESTAURANT,RM18 7BJ,51.4625,0.3550
McDonald's Tilbury,RM18 7HZ,51.4711,0.3433
THE ROYAL HOTEL,RM19 1QA,51.4832,0.2307
Best Western Thurrock Hotel ,RM19 1YN,51.4888,0.2655
McDonald's 289 - West Thurrock,RM20 1TX,51.4890,0.2756
Partyman World Lakeside,RM20 1WN,51.4860,0.2762
Flip Out Lakeside,RM20 2AD,51.4881,0.2817
Nickelodeon Adventure Lakeside,RM20 2AD,51.4881,0.2817
Puttshack Lakeside,RM20 2AD,51.4881,0.2817
McDonald's 510 - Lakeside 2,RM20 2ZF,51.4874,0.2831
McDonald's 357 - Lakeside 1,RM20 2ZH,51.4874,0.2838
Chopstix Lakeside,RM20 2ZJ,51.4876,0.2835
KFC Lakeside,RM20 2ZJ,51.4876,0.2835
Shake Shack Lakeside,RM20 2ZJ,51.4876,0.2835
Thai Express Lakeside,RM20 2ZJ,51.4876,0.2835
Spreads cafe,RM20 2ZL,51.4868,0.2824
OO&O Lakeside Limited,RM20 2ZN,51.4873,0.2814
Caffe Rizzoli Prosecco Bar,RM20 2ZP,51.4871,0.2835
Chiktopia,RM20 2ZP,51.4871,0.2835
German Doner Kebab (GDK),RM20 2ZP,51.4871,0.2835
La Tasca - Lakeside,RM20 2ZP,51.4871,0.2835
Rock Up Lakeside,RM20 2ZP,51.4871,0.2835
Wasabi Sushi & Bento,RM20 2ZP,51.4871,0.2835
Wimpy Lakeside ,RM20 2ZP,51.4871,0.2835
Creams Cafe Intu Lakeside,RM20 2ZQ,51.4877,0.2832
SPICY TOP LTD T/A SHAMPAAN,RM20 3HL,51.4760,0.2811
KFC Thurrock,RM20 3WE,51.4839,0.2770
the ship inn,RM20 4AR,51.4765,0.2909
McDonald's Gallows Corner,RM3 0AP,51.5916,0.2182
KUZINE,RM3 0BS,51.5939,0.2344
The Deers Rest,RM3 7LL,51.6161,0.2174
CAFE ESPRESSO,RM3 9AA,51.6126,0.2217
Cafe Espresso ,RM3 9AA,51.6126,0.2217
THE BARGE INN,SS11 7RE,51.6237,0.5688
Nicemeal Spice LTD T/A Marcopolo Indian,SS11 8AB,51.6141,0.5236
Huttons at wickford ,SS11 8JE,51.6173,0.5348
Carpenters Arms,SS11 8TZ,51.5987,0.5728
The Lillies cafe ,SS12 0JX,51.6107,0.4965
THE BEKASH RESTAURANT,SS12 0PZ,51.5993,0.5135
PLUSH RESTAURANT,SS12 9AE,51.6129,0.5204
Tony's,SS12 9AT,51.6116,0.5203
Subway,SS12 9AZ,51.6128,0.5210
Partyman World Basildon,SS13 1LJ,51.5850,0.5005
The Gun Pub,SS13 2DU,51.5653,0.5267
McDonald's ,SS13 3AX,51.5652,0.5062
KFC Pitsea,SS13 3BB,51.5652,0.5074
Mine Cafe Pitsea Ltd ,SS13 3BG,51.5642,0.5040
Donut king,SS14 1AE,51.5693,0.4608
Muscovado Coffee Shop,SS14 1AE,51.5693,0.4608
McDonald's Restaurant Eastgate Shopping Centre,SS14 1AF,51.5693,0.4608
Subway,SS14 1AF,51.5693,0.4608
The Chef Bakery,SS14 1BZ,51.5690,0.4589
Towngate Theatre Café Bar,SS14 1DL,51.5708,0.4547
Burger King,SS14 1EB,51.5699,0.4615
ESQUIRES COFFEE HOUSE (BASILDON),SS14 1EB,51.5699,0.4615
HABIBA FOODS LIMITED T/A  Muffin Break ,SS14 1EB,51.5699,0.4615
James Breslaw,SS14 1EB,51.5699,0.4615
Papa's Crepes,SS14 1EB,51.5699,0.4615
Miracles cafe ,SS14 1EU,51.5700,0.4623
Poppins Restaurants,SS14 1EU,51.5700,0.4623
Cafe Cinco,SS14 1HH,51.5702,0.4605
Jodhpur Indian Kitchen,SS14 1HH,51.5702,0.4605
Tasty Buds,SS14 2HB,51.5780,0.4738
The Coriander (Basildon) Ltd,SS14 2HB,51.5780,0.4738
Subway Whitmore Way,SS14 2NL,51.5778,0.4762
Campanile Basildon,SS14 3AE,51.5845,0.4425
Burger King,SS14 3AF,51.5812,0.4435
KFC Mayflower,SS14 3HZ,51.5908,0.4795
McDonald's Restaurant Mayflower Retail Park,SS14 3HZ,51.5908,0.4795
Basil Spice,SS14 3JF,51.5856,0.4890
360 Play (Basildon) Limited,SS14 3WB,51.5852,0.4632
AROMA,SS14 3WB,51.5852,0.4632
Legends Basildon,SS14 3WB,51.5852,0.4632
Mr Mulligans Basildon,SS14 3WB,51.5852,0.4632
Sprinkles Gelato Basildon,SS14 3WB,51.5852,0.4632
Villagio,SS14 3WB,51.5852,0.4632
McDonald's Restaurant Festival Leisure Park,SS14 3WE,51.5840,0.4660
McDonald's Restaurant Laindon,SS15 4DP,51.5857,0.4267
KFC Laindon,SS15 6NE,51.5704,0.4213
stay and play,SS15 6PH,51.5697,0.4192
Basildon Golf Course Ltd,SS16 5JP,51.5583,0.4596
Knosh cafe,SS16 5TL,51.5635,0.4489
Montys Curry Centre,SS17 0AH,51.5141,0.4288
efe's,SS17 0HF,51.5154,0.4274
Green Palace Ltd T/A Panahar Restaurant  ,SS17 0HL,51.5152,0.4255
railway tavern,SS17 0HL,51.5152,0.4255
Subway,SS17 0LD,51.5143,0.4201
Paulettes bakery,SS17 7NA,51.5247,0.4483
STANFORD CURRY LTD,SS17 7NA,51.5247,0.4483
The Springhouse,SS17 7QT,51.5244,0.4502
Swan pub,SS17 8LD,51.5241,0.4060
The Bell Inn & Ostlers,SS17 8LD,51.5241,0.4060
swan pub,SS17 8LD,51.5241,0.4060
RT Inn Ltd,SS17 9AA,51.5266,0.4596
Kings Fish Restaurant,SS6 7EA,51.5867,0.6057
Subway,SS6 7EA,51.5867,0.6057
La Romantica LTD,SS6 7EW,51.5871,0.6072
Squires Coffee Shop,SS6 7EW,51.5871,0.6072
rayleigh indian ltd,SS6 7EW,51.5871,0.6072
Oyster Wharf,SS6 7JD,51.5853,0.6055
Amira Enterprise Ltd,SS6 7JQ,51.5845,0.6059
Marco's Bar Ltd,SS6 7JQ,51.5845,0.6059
TOB BURGERS ,SS6 7JQ,51.5845,0.6059
Gambero D'Oro Restaurant Rayleigh,SS6 7QA,51.5846,0.6039
McDonald's,SS6 7UP,51.5758,0.6023
Base Jump (London) Ltd,SS6 7XL,51.5772,0.6094
Barrington Grill,SS6 8EB,51.5886,0.6106
MPG REMEDY LIMITED t/a Remedy Tea Rooms,SS6 9ES,51.5977,0.5781
Cafe No.11,SS6 9HN,51.5915,0.6024
The Bagelry,SS6 9QG,51.6059,0.6101
Grubs Up,SS6 9RL,51.6007,0.5915
Mumtaz Mahal ,SS7 1LT,51.5452,0.5661
Gambero D'Oro Restaurant,SS7 1NA,51.5453,0.5623
BOYCE HILL GOLF CLUB,SS7 1PD,51.5497,0.5688
Boyce Hill Golf & Country Club ,SS7 1PD,51.5497,0.5688
VILLAGE INDIYA,SS7 1QB,51.5567,0.5986
Runnymede Leisure Centre,SS7 1TF,51.5618,0.5849
Castle Spice,SS7 2BN,51.5527,0.6115
Crystal cafe,SS7 2BN,51.5527,0.6115
Maison Noir,SS7 2BN,51.5527,0.6115
ADANA 01 LTD,SS7 2NA,51.5553,0.6105
GALLO D' ORO LIMITED,SS7 2PA,51.5533,0.6081
Fattys Bar ,SS7 2PB,51.5534,0.6060
McDonald's,SS7 2PB,51.5534,0.6060
Latino's Restaurant & Tapas Bar,SS7 2RD,51.5540,0.6087
Natural Bake,SS7 2RF,51.5536,0.6097
Fredericks,SS7 3NZ,51.5740,0.6038
Tandoori Parlour,SS7 3PB,51.5688,0.5798
By George of Thundersley Limited,SS7 3PS,51.5698,0.5836
Virgin Active Thundersley,SS7 3YN,51.5629,0.5987
Asia Benfleet ,SS7 5HA,51.5537,0.5591
TASTY BITES ,SS7 5HA,51.5537,0.5591
SUBWAY KENTS HILL,SS7 5HB,51.5542,0.5586
Marksmart Ltd/ta akash balti tandoori restaurant ,SS7 5HZ,51.5525,0.5611
Enjoy cafe,SS7 5LA,51.5532,0.5609
Cafe Max,SS7 5LN,51.5493,0.5628
KFC Tarpots,SS7 5SQ,51.5670,0.5526
J D Hubbard LTD t/a Benfleet Wimpy,SS7 5UH,51.5676,0.5516
MALAYA,SS7 5XR,51.5662,0.5615
The Bar,SS8 0DB,51.5144,0.5807
Canvey Island Conservative Club Ltd,SS8 0JA,51.5201,0.5910
JONES CORNER CAFE,SS8 0JR,51.5203,0.5773
KIRSTYS CAFE,SS8 0PQ,51.5213,0.5568
McDonald's,SS8 0PS,51.5268,0.5372
Rio Coffee,SS8 7AD,51.5224,0.5932
SUBWAY,SS8 7AE,51.5221,0.5920
kushi,SS8 7AG,51.5217,0.5927
Douro Valley,SS8 7AJ,51.5212,0.5923
MEZ Turkish ,SS8 7AJ,51.5212,0.5923
THE HAYSTACK,SS8 7AJ,51.5212,0.5923
Rio Bingo Canvey Island,SS8 7AL,51.5196,0.5926
PARADISE INDIAN RESTAURANT ,SS8 7AT,51.5199,0.5932
JIMMY MAC'S,SS8 7DN,51.5129,0.5982
The Labworth Restaurant ,SS8 7DW,51.5118,0.5946
Spice Lounge,SS8 7FJ,51.5126,0.5967
oysterbay sports bar,SS8 7FJ,51.5126,0.5967
KFC Canvey,SS8 7RD,51.5230,0.5960
The Corner Club,SS8 7RQ,51.5228,0.6029
The Fountain,SS8 8HE,51.5255,0.6042
Castlepoint Golf Course,SS8 9FG,51.5337,0.5748
Oysterfleet Hotel,SS8 9PA,51.5238,0.5930
Waterside Farm Leisure Centre,SS8 9RA,51.5341,0.5668
