name,postcode,lat,lon
isis(GB)ltd,GU25 4DW,51.4033,-0.5675
Rose & Olive Branch,GU25 4LH,51.4127,-0.5747
East Pan Asian Restaurant,HA0 1HQ,51.5372,-0.3020
MASTI BAR RESTAURANT AND CLUB,HA0 2AA,51.5522,-0.2980
KRISHNA  RESTAURANT ,HA0 2AF,51.5522,-0.2998
SAVANNAH LOUNGE LTD,HA0 2AJ,51.5525,-0.2994
MASALA CANTEEN,HA0 2DH,51.5520,-0.2979
Roshni catering limited t/a BOMBAY vada pav and DABELI ,HA0 2DH,51.5520,-0.2979
DOSA EXPRESS,HA0 2DJ,51.5519,-0.2998
Arena Lounge,HA0 2HA,51.5515,-0.3105
Crystal Corporate Catering Limited,HA0 3DJ,51.5567,-0.3115
DURGA MAHAL LTD,HA0 3EP,51.5566,-0.3168
HIMALAYAN  CLUB,HA0 3EP,51.5566,-0.3168
PARTYMAN WORLD WEMBLEY LTD,HA0 3HG,51.5582,-0.3164
CHICKEN LAND,HA0 3NG,51.5625,-0.3056
THAYA RESTAURANT LTD t/a Palm Beach,HA0 4AA,51.5516,-0.2987
Jalaram Sweetmart,HA0 4BN,51.5472,-0.2973
Everfresh limited T/A Sakonis Restaurant,HA0 4BP,51.5457,-0.2970
CAFE RACE LTD,HA0 4LR,51.5403,-0.2963
Opulence Lounge,HA0 4PE,51.5399,-0.2988
Desi dhaba limited ,HA0 4PJ,51.5419,-0.2974
Pizza Parlour Wembley Ltd,HA0 4QG,51.5446,-0.2972
Ashers africana,HA0 4QL,51.5435,-0.2976
Maru's Bhajia House,HA0 4QL,51.5435,-0.2976
Gana Restaurant,HA0 4TL,51.5514,-0.2990
KEBABISH,HA0 4TL,51.5514,-0.2990
Saravanaa Bhavan,HA0 4TL,51.5514,-0.2990
KFC ST ANN'S,HA1 1AR,51.5810,-0.3368
Indi T/A Rollover,HA1 1AS,51.5810,-0.3370
Subway,HA1 1AS,51.5810,-0.3370
Dabeli Hut - Indian Street Food,HA1 1AT,51.5807,-0.3365
Balkan Taste,HA1 1BA,51.5799,-0.3350
Kebabland Harrow Ltd,HA1 1BE,51.5802,-0.3360
Lokma Restaurant,HA1 1BE,51.5802,-0.3360
Two Buns,HA1 1BE,51.5802,-0.3360
two buns ltd,HA1 1BE,51.5802,-0.3360
McDonald’s Restaurants limited ,HA1 1HS,51.5814,-0.3388
Starbucks Harrow - St Georges Centre,HA1 1HS,51.5814,-0.3388
Wafflemeister,HA1 1HS,51.5814,-0.3388
Waffling Ltd t/a Bru,HA1 1HS,51.5814,-0.3388
COCO CORNER,HA1 2AT,51.5787,-0.3341
McDonald’s Restaurants limited ,HA1 2AW,51.5795,-0.3343
Saburi Limited,HA1 2AW,51.5795,-0.3343
le comptoir,HA1 2DD,51.5787,-0.3335
STEAKOUT HARROW LIMITED,HA1 2DE,51.5797,-0.3337
STEAKOUT STREETFOOD,HA1 2DE,51.5797,-0.3337
Shakeout Dessert,HA1 2DE,51.5797,-0.3337
envi patisserie ltd,HA1 2DE,51.5797,-0.3337
Station Catering Limited ,HA1 2EA,51.5820,-0.3324
Subway,HA1 2EA,51.5820,-0.3324
EVERY FISH BAR (FISH & CHIPS),HA1 2JN,51.5828,-0.3312
MANOUSH EXPRESS LIMITED,HA1 2JN,51.5828,-0.3312
Kenton Restaurants Limited Trading as Taste of China,HA1 2RH,51.5847,-0.3317
NIK FOOD LIMITED,HA1 2RH,51.5847,-0.3317
Noodle City,HA1 2TB,51.5831,-0.3321
SB Time Ltd,HA1 2TB,51.5831,-0.3321
Taste of Lahore Limited,HA1 2TB,51.5831,-0.3321
Tex Ann,HA1 2TB,51.5831,-0.3321
Yummy Wings Cottage,HA1 2TB,51.5831,-0.3321
Sakonis Harrow,HA1 2TR,51.5861,-0.3326
Radhika Authentic Indian Food,HA1 2TY,51.5872,-0.3324
SHREE KRISHNA REFRESHMENTS (UK) LTD,HA1 2TY,51.5872,-0.3324
SKVP KITCHENS UK LIMITED,HA1 2TY,51.5872,-0.3324
Lahore Restaurant ,HA1 2UA,51.5880,-0.3325
SKIPPERS FISH & CHIPS,HA1 2UA,51.5880,-0.3325
Kingsfield Arms,HA1 3DF,51.5750,-0.3431
COFFEE 2 COCKTAILS LTD,HA1 3HT,51.5716,-0.3383
Grove on the Hill,HA1 3HT,51.5716,-0.3383
THE CONNOISSEUR RESTAURANT,HA1 3HT,51.5716,-0.3383
The Doll's House on the Hill ,HA1 3LL,51.5717,-0.3388
Eighty Six Restaurant Bar,HA1 3LW,51.5707,-0.3399
Little Lionhearts School Cafeteria,HA1 3QF,51.5605,-0.3340
Rising Sun Hotel (UK) Ltd,HA1 3QL,51.5597,-0.3341
CHICKEN LAND,HA1 3QN,51.5578,-0.3357
Ruusi Ltd ,HA1 3QN,51.5578,-0.3357
The Catch ,HA1 3QS,51.5574,-0.3354
Enter Pl Ltd,HA1 3RA,51.5572,-0.3361
Mumbai Junction,HA1 3TU,51.5682,-0.3218
BLUE ZENZER,HA1 3TZ,51.5723,-0.3233
Ashutosh Vegetarian Restaurant ,HA1 3UA,51.5654,-0.3215
COSTA COFFEE,HA1 3UJ,51.5754,-0.3220
Falafel Bar Harrow ,HA1 4HF,51.5828,-0.3549
Desi Hype,HA1 4JD,51.5814,-0.3487
secret of mari masala,HA1 4JD,51.5814,-0.3487
AARYA FOODS LIMITED,HA1 4JJ,51.5820,-0.3505
King's Coffee,HA1 4UD,51.5933,-0.3391
Barracuda ,HA1 4UW,51.5924,-0.3457
McDonald’s Restaurants limited ,HA2 0AG,51.5722,-0.3530
Delhi Darbaar,HA2 0DW,51.5690,-0.3479
Them street food,HA2 0EU,51.5651,-0.3529
The White Horse,HA2 0HL,51.5701,-0.3458
Salt Bar & Dining Room,HA2 0JY,51.5693,-0.3454
Mamma V's Caribbean and English Cuisine ,HA2 0NQ,51.5643,-0.3508
Twist Ice Cream,HA2 6DZ,51.5867,-0.3613
WARREN FOODS LIMITED,HA2 6ED,51.5869,-0.3625
Blue Room Restaurant,HA2 6LY,51.5990,-0.3568
Harrow Garden Centre,HA2 6NB,51.6029,-0.3581
Om Sai Food Ltd T/A Mystic Masala,HA2 7HJ,51.5760,-0.3703
Silver Dollar Pizza,HA2 7HJ,51.5760,-0.3703
Veechu Restaurant,HA2 7LU,51.5776,-0.3703
Gana Restaurant ,HA2 7LX,51.5772,-0.3702
Sairam's food limited ,HA2 7LX,51.5772,-0.3702
GOLDEN KITCHEN FISH BAR,HA2 7SE,51.5862,-0.3605
JAI THURKA LIMITED,HA2 7SJ,51.5843,-0.3621
sagar restaurant ,HA2 7SR,51.5852,-0.3622
Red Cup Cafe,HA2 7SU,51.5857,-0.3616
Vivid Cafe,HA2 7SU,51.5857,-0.3616
222 Cafe,HA2 8DU,51.5647,-0.3537
KFC SOUTH HARROW,HA2 8DY,51.5639,-0.3548
Grill Food london ltd,HA2 8EE,51.5631,-0.3559
Curry Mahal Restaurant,HA2 8ES,51.5614,-0.3578
Dehkadeh Restaurant Ltd,HA2 8EX,51.5606,-0.3588
Golden Sip Northolt Ltd.,HA2 8HA,51.5580,-0.3617
HAMRO CHAUTARI,HA2 8HB,51.5586,-0.3611
Kebabish,HA2 8HN,51.5647,-0.3528
Sambal Kitchen & Diner,HA2 8HR,51.5642,-0.3536
Jaflong Restaurant ,HA2 8JA,51.5626,-0.3556
Sweet Shack,HA2 8JB,51.5622,-0.3561
Sezer Cafe Limited,HA2 8JE,51.5604,-0.3581
MEDITALIA ,HA2 8JN,51.5577,-0.3610
Chennai chutney,HA2 9BU,51.5652,-0.3660
POSTO,HA2 9EF,51.5722,-0.3717
Posto,HA2 9EF,51.5722,-0.3717
Natraj Restaurant,HA2 9RY,51.5747,-0.3712
KFC RAYNERS LANE,HA2 9SE,51.5739,-0.3715
SARAVANAA BHAVAN,HA2 9SG,51.5731,-0.3717
Ruby M's,HA2 9TL,51.5744,-0.3705
Bamboo House,HA2 9TW,51.5735,-0.3709
RASA BOJUN LIMITED,HA2 9TW,51.5735,-0.3709
Balkh Restaurant,HA3 0AN,51.5811,-0.3183
Jasmine's house Ltd ,HA3 0AN,51.5811,-0.3183
Sham Lounge,HA3 0AN,51.5811,-0.3183
Sevaa pure vegetarian ,HA3 0AZ,51.5816,-0.3174
Subway,HA3 0AZ,51.5816,-0.3174
Costa Coffee,HA3 0PS,51.5723,-0.2950
Wings Restaurant ,HA3 0QA,51.5730,-0.2943
BLUE GINGER,HA3 0XS,51.5868,-0.3050
Subway Wealdstone,HA3 5BY,51.5938,-0.3356
WOODY GRILL,HA3 5DL,51.5969,-0.3361
Masa Banqueting ,HA3 5QH,51.5940,-0.3365
Nana's Kitchen,HA3 5QH,51.5940,-0.3365
RIO'S PIRI PIRI (WEALDSTONE) LTD,HA3 5QH,51.5940,-0.3365
Sundaes gelato ,HA3 5QH,51.5940,-0.3365
sundaes gelato Harrow ,HA3 5QH,51.5940,-0.3365
Mazar Pizza Limited,HA3 5QX,51.5944,-0.3360
The Seven Harrow,HA3 6AW,51.6107,-0.3306
Kemps BBQ Restaurant,HA3 6EL,51.6049,-0.3403
Bombay Central,HA3 6HS,51.6045,-0.3395
The Hare,HA3 6SD,51.6206,-0.3430
Grims Dyke Hotel,HA3 6SH,51.6194,-0.3440
Chicken Village ,HA3 7AA,51.5932,-0.3348
Red Brick Cafe (HAD),HA3 7AE,51.5941,-0.3350
Super Pizza ,HA3 7AH,51.5960,-0.3350
Shobha's Rasoi,HA3 7AL,51.5970,-0.3355
Masa Restaurant,HA3 7EE,51.6015,-0.3326
Spiceklub Harrow ,HA3 7QU,51.5942,-0.3318
PREMIER BANQUETING LONDON LIMITED,HA3 7TS,51.5943,-0.3348
Kenton kebab Ltd,HA3 8AL,51.5819,-0.3178
CHENNAI SRILALITHA VEG RESTAURANT,HA3 8BX,51.5842,-0.3139
Ice n spice ,HA3 8DN,51.5874,-0.3037
KFC KENTON,HA3 8DQ,51.5872,-0.3054
The Cardamom Club ,HA3 8RF,51.6017,-0.3186
Kenton Lane Cafe,HA3 8RP,51.5958,-0.3129
Papa Johns - HARROW WEALD,HA3 8RQ,51.6010,-0.3170
BELMONT TANDOORI,HA3 8SB,51.6009,-0.3192
DAWAT BAR & KITCHEN,HA3 9BX,51.5955,-0.2971
Satyanarayan Restaurant Ltd,HA3 9BY,51.5955,-0.2958
Warsi Restaurant,HA3 9BY,51.5955,-0.2958
Costa Coffee Ruislip Manor,HA4 0AH,51.5717,-0.4125
Manor Pizza,HA4 0AL,51.5709,-0.4117
Regal Spice,HA4 0HD,51.5581,-0.3970
Costa Coffee South Ruislip,HA4 0HG,51.5576,-0.3971
Hotel Top Ltd T/A Ramada Ruislip,HA4 0HN,51.5585,-0.3942
Namaste Mumbai,HA4 0QL,51.5587,-0.3797
Barn Hotel,HA4 6JB,51.5702,-0.4219
FNS LEISURE GROUP LTD,HA4 6LS,51.5626,-0.4140
MASALA & COAL,HA4 6LS,51.5626,-0.4140
Pooja's Street Side Indian Vegetarian,HA4 6LS,51.5626,-0.4140
McGovern Park,HA4 6QX,51.5495,-0.3996
POPINN CAFE,HA4 6RU,51.5545,-0.4031
Papa Johns - RUISLIP,HA4 7AA,51.5748,-0.4256
Mamma Rosa,HA4 7AN,51.5759,-0.4265
The Hop & Vine,HA4 7AN,51.5759,-0.4265
Priory Cafe,HA4 7AU,51.5763,-0.4264
Zaza Ruislip,HA4 7AU,51.5763,-0.4264
The White Bear,HA4 7DF,51.5718,-0.4312
Arens Bar and Grill,HA4 7TP,51.5895,-0.4369
Lakeside Cafe,HA4 7TY,51.5910,-0.4328
Red Onion Cafe ,HA4 8JB,51.5741,-0.4240
Kho Kho Kitchen and Bar,HA4 8JN,51.5735,-0.4233
Melisi,HA4 8JY,51.5727,-0.4225
RAJDOOT,HA4 8PU,51.5742,-0.4132
SPICE RESTAURANT,HA4 9BH,51.5717,-0.4116
ORA BRASSERIE ,HA4 9BN,51.5709,-0.4110
Remos Village,HA4 9NJ,51.5761,-0.3968
Venue 5,HA4 9PB,51.5689,-0.3898
Daisys in the Park Pinner,HA5 1AE,51.5916,-0.3867
	VIRUNDHU RESTAURANT LIMITED,HA5 1QG,51.5801,-0.3996
Amore Dessert cafe,HA5 1QG,51.5801,-0.3996
LAHORE EASTCOTE,HA5 1QG,51.5801,-0.3996
Ilze's Chocolat and Macaroons Cafe,HA5 1QH,51.5793,-0.3991
Costa Coffee,HA5 1QL,51.5785,-0.3990
subway eastcote,HA5 1QR,51.5778,-0.3983
BUCKET LIST COFFEE,HA5 1QZ,51.5768,-0.3974
CHAII ROOM,HA5 1QZ,51.5768,-0.3974
TAG Drinks Limited,HA5 1QZ,51.5768,-0.3974
Pisces,HA5 1RH,51.5781,-0.3995
SHAPLA TANDOORI,HA5 1RH,51.5781,-0.3995
Aroma Lounge,HA5 1RJ,51.5787,-0.4002
Cake Villa,HA5 1RJ,51.5787,-0.4002
Rina Sahil Ltd,HA5 2AF,51.5978,-0.3939
THE BLACK HORSE EASTCOTE,HA5 2EN,51.5847,-0.4063
The Case Is Altered,HA5 2EQ,51.5896,-0.4048
Subway Reading Station,HA5 2HR,51.5923,-0.4015
Jungle Monkeyz,HA5 2PZ,51.5868,-0.4065
K5 Tandoori Ltd,HA5 3EE,51.5951,-0.3822
Zaza Pinner,HA5 3EF,51.5950,-0.3828
AHIMSA THE VEGAN CAFE,HA5 3JD,51.5945,-0.3826
Nayaways Ltd,HA5 3JE,51.5942,-0.3823
BrOOK'S,HA5 3JF,51.5952,-0.3838
CKC cafe ,HA5 3JF,51.5952,-0.3838
CKC cafe,HA5 3JF,51.5952,-0.3838
Pinner Hill Golf Club,HA5 3YA,51.6130,-0.4005
Minori Pizzeria,HA5 4HP,51.6075,-0.3759
Chingon,HA5 4HR,51.6079,-0.3746
Costa Coffee,HA5 4HR,51.6079,-0.3746
Inspired Indian Limited,HA5 4HR,51.6079,-0.3746
Izgara,HA5 4HR,51.6079,-0.3746
Social Dhaba,HA5 4HR,51.6079,-0.3746
The Steak Restaurant,HA5 4HR,51.6079,-0.3746
zufa,HA5 4HR,51.6079,-0.3746
Coriander,HA5 4HS,51.6082,-0.3733
B AND K SALT BEEF BAR AND RESTAURANTS LIMITED,HA5 4JN,51.6081,-0.3725
Caffe Pascucci,HA5 4JN,51.6081,-0.3725
Dona Theresa ,HA5 4JR,51.6075,-0.3740
Casa Mia,HA5 4JS,51.6073,-0.3748
Costa Coffee,HA5 5EH,51.5756,-0.3712
Augustina’s Tearoom,HA5 5LU,51.5936,-0.3812
Silver grill cafe,HA5 5LU,51.5936,-0.3812
Costa Coffee Pinner,HA5 5PB,51.5916,-0.3816
SAKEE BAR & RESTAURANT,HA5 5PB,51.5916,-0.3816
Queen's Head,HA5 5PJ,51.5943,-0.3809
Starbucks Pinner - High Street,HA5 5PJ,51.5943,-0.3809
Bina Tandoori,HA6 1BJ,51.6078,-0.4155
RED KLOVE,HA6 1BL,51.6070,-0.4162
DARWIN WELLNESS LIMITED,HA6 1HR,51.6030,-0.4185
MY THAI NORTHWOOD LTD,HA6 1LL,51.5995,-0.4102
Namaste Lounge Limited,HA6 1LL,51.5995,-0.4102
Subway,HA6 1LL,51.5995,-0.4102
Ruby M's,HA6 1LW,51.5999,-0.4095
KFC NORTHWOOD HILL,HA6 1NU,51.6020,-0.4091
Krave Dessert Cafe ,HA6 1NU,51.6020,-0.4091
Quay fish and chips ,HA6 1NU,51.6020,-0.4091
SWAADELICIOUS LIMITED,HA6 1NU,51.6020,-0.4091
zufa,HA6 1NU,51.6020,-0.4091
Fabros Trading ltd t/a The Hubb Restaurant,HA6 1PA,51.6014,-0.4098
Papa Johns - NORTHWOOD HILLS,HA6 1PA,51.6014,-0.4098
Pepe's Grill Northwood Hills,HA6 1PA,51.6014,-0.4098
Costa Coffee,HA6 1PF,51.6023,-0.4096
Sahib's,HA6 1PF,51.6023,-0.4096
Melisi Northwood,HA6 2PX,51.6121,-0.4259
Maharaja ,HA6 2QB,51.6118,-0.4264
Piazza do Northwood T/A as Northwood Piazza,HA6 2QB,51.6118,-0.4264
Costa Coffee,HA6 2QF,51.6115,-0.4254
Village Express,HA6 2QF,51.6115,-0.4254
Northwood Golf Club,HA6 2QW,51.6087,-0.4307
Mahi Restaurant,HA6 2XN,51.6109,-0.4233
Taylor Made Northwood Ltd,HA6 2XW,51.6112,-0.4233
lomito,HA6 3AE,51.6119,-0.4250
Bnova Indian Restaurant and Bar,HA7 1AR,51.6062,-0.3008
FUSION VIBES LTD,HA7 1AR,51.6062,-0.3008
Everest The Honeypot ,HA7 1EE,51.5938,-0.2903
KEBABISH,HA7 1EY,51.5953,-0.2948
Purple Flame,HA7 1JJ,51.5963,-0.2951
Stanmore Golf Club,HA7 2RL,51.6103,-0.3140
Everest Abercorn ,HA7 3BU,51.6214,-0.3159
SAHARA LOUNGE,HA7 3DP,51.6179,-0.3121
The Agra,HA7 3DS,51.6187,-0.3131
Squire's Garden Centre Stanmore,HA7 3JF,51.6225,-0.3460
3 Star Sub Ltd,HA7 4AH,51.6167,-0.3133
Spice Rack,HA7 4AR,51.6175,-0.3124
Oak Caffe,HA7 4AW,51.6173,-0.3118
Barracuda Stanmore limited,HA7 4EB,51.6180,-0.3113
Indulge Stanmore ,HA7 4EB,51.6180,-0.3113
FLAVOURS,HA8 0AP,51.6037,-0.2707
Mama Cass Restaurant UK,HA8 0AS,51.6029,-0.2699
Costa Coffee,HA8 0AX,51.6018,-0.2684
zams chicken,HA8 0EJ,51.6030,-0.2635
Farsi London Limited,HA8 0LT,51.6015,-0.2654
Istanbul kebab house 159 ltd,HA8 5EH,51.6032,-0.2711
pepes peri peri (Burntoak) ,HA8 5EN,51.6018,-0.2693
MERT OZ LTD,HA8 5JZ,51.5998,-0.2670
Twist Ice Cream,HA8 5JZ,51.5998,-0.2670
CHICKEN LAND,HA8 5NN,51.5949,-0.2847
Regency Club (UK) Ltd,HA8 5NR,51.5940,-0.2846
Starmall Limited T/A Sugar & Spice Lounge,HA8 5NR,51.5940,-0.2846
SRIRATHIGA RESTAURANT,HA8 5QH,51.5982,-0.2786
The Hive Bar,HA8 6AG,51.6015,-0.2889
EDGWARE KEBAB HOUSE,HA8 6LD,51.6096,-0.2809
Trilogy Bar & Restaurant,HA8 6LR,51.6094,-0.2824
Papa Johns - EDGWARE,HA8 6NL,51.6106,-0.2800
MADONNA HALLEY'S HOTEL,HA8 6QN,51.6090,-0.2839
THE SHISHA GARDEN LTD,HA8 6QN,51.6090,-0.2839
Cannon tandoori,HA8 6RW,51.6077,-0.2959
Melissa Restaurant,HA8 6RW,51.6077,-0.2959
London BBQ,HA8 7AB,51.6110,-0.2785
JADESY LTD TRADING AS SUSHIMANIA,HA8 7AR,51.6145,-0.2754
Jollofzone Limited,HA8 7AU,51.6152,-0.2753
PIZAZA EDGWARE,HA8 7AX,51.6160,-0.2748
SOYO,HA8 7AX,51.6160,-0.2748
Aviv Restaurant ,HA8 7DB,51.6114,-0.2806
Malibu Club Edgware,HA8 7DB,51.6114,-0.2806
Zanzi Bar,HA8 7DB,51.6114,-0.2806
Charcoal Edgware,HA8 7EJ,51.6103,-0.2784
Yum Yums Cafe,HA8 7HE,51.6111,-0.2794
FALAFEL,HA8 7HX,51.6124,-0.2777
Jenny's Café & Restaurant,HA8 7HX,51.6124,-0.2777
LAHORE TIKA MASALA (LONDON) LIMITED,HA8 7HX,51.6124,-0.2777
Creams Cafe,HA8 7JG,51.6138,-0.2764
Starbucks Edgware - Station Road,HA8 7JG,51.6138,-0.2764
Subway,HA8 7JG,51.6138,-0.2764
Izgara restaurant ,HA8 7JU,51.6148,-0.2761
Trio Cafe,HA8 7JX,51.6152,-0.2760
UNOSTAR LTD TRADING AS THAI EDGE,HA8 7JX,51.6152,-0.2760
Amaretto Ristorante & Pizzaria,HA8 7JZ,51.6160,-0.2760
GRODZ,HA8 7JZ,51.6160,-0.2760
Metsuyan,HA8 7JZ,51.6160,-0.2760
Amigo’s Palace,HA8 8AE,51.6213,-0.2933
McDonald’s Restaurants limited ,HA8 8AF,51.6217,-0.2920
Gideon's,HA8 8JS,51.6216,-0.2753
KENYA KITCHEN ,HA8 9NY,51.6164,-0.2607
Wembley (Hotel Trading) Ltd TA Hilton London Wembley,HA9 0BU,51.5575,-0.2839
Big Moe's Diner,HA9 0FD,51.5566,-0.2840
Warrens Bakery,HA9 0FJ,51.5590,-0.2817
Pasta Remoli Wembley Park,HA9 0FU,51.5564,-0.2849
Argentinian Grill,HA9 0JT,51.5605,-0.2804
Boki Coffee ,HA9 0JT,51.5605,-0.2804
Boki Hospitality Ltd ,HA9 0JT,51.5605,-0.2804
Drums & Flats,HA9 0JT,51.5605,-0.2804
Gabagools,HA9 0JT,51.5605,-0.2804
HOLA GUACAMOLE WEMBLEY LIMITED,HA9 0JT,51.5605,-0.2804
Kabab Boxpark,HA9 0JT,51.5605,-0.2804
Longboys,HA9 0JT,51.5605,-0.2804
Mama Jacq's,HA9 0JT,51.5605,-0.2804
Mitsuryu,HA9 0JT,51.5605,-0.2804
Nanny Bill's,HA9 0JT,51.5605,-0.2804
Oatopia,HA9 0JT,51.5605,-0.2804
SMOKY BOYS,HA9 0JT,51.5605,-0.2804
Spice Shack (Boxpark),HA9 0JT,51.5605,-0.2804
Thai Express Wembley,HA9 0JT,51.5605,-0.2804
The Athenian - Wembley Boxpark,HA9 0JT,51.5605,-0.2804
UDDERLICIOUS ICE CREAM,HA9 0JT,51.5605,-0.2804
Yamagoya,HA9 0JT,51.5605,-0.2804
ZIA LUCIA,HA9 0JT,51.5605,-0.2804
TRUE FOX TRADING,HA9 0LB,51.5576,-0.2693
Bread Ahead Bakery ,HA9 0NP,51.5620,-0.2791
Blue Check,HA9 0RQ,51.5613,-0.2828
Treatz Dessert Parlour Wembley ,HA9 0TG,51.5571,-0.2838
Wrapchic ,HA9 0TG,51.5571,-0.2838
Lahori zaika,HA9 6AA,51.5534,-0.2922
Urban Chocolatier ,HA9 6AA,51.5534,-0.2922
Chicco Nero,HA9 6AH,51.5538,-0.2919
Cross Restaurant ,HA9 6AS,51.5539,-0.2906
YOUNGS PEKING RESTAURANT,HA9 6BA,51.5531,-0.2861
Arena Restaurant UK Limited,HA9 6BD,51.5526,-0.2853
Kanishkaa,HA9 6BD,51.5526,-0.2853
M2H HOSPITALITY LIMITED,HA9 6BD,51.5526,-0.2853
Papa Johns - WEMBLEY,HA9 6BD,51.5526,-0.2853
Taste Of Peshawar,HA9 6PL,51.5469,-0.2743
Fatburger,HA9 6QU,51.5536,-0.2864
TOLW Ltd,HA9 7AB,51.5533,-0.2942
Creams Cafe- Wembley,HA9 7AF,51.5526,-0.2959
NEW CHICKEN LIMITED,HA9 7AF,51.5526,-0.2959
The Yellow Chilli,HA9 7AJ,51.5522,-0.2962
Mcdonald's Wembley High Road,HA9 7BH,51.5533,-0.2952
Aroma Lounge,HA9 7LT,51.5621,-0.3024
American charcoal grill kebab house ,HA9 8AF,51.5538,-0.2870
El Bandido Limited,HA9 8AF,51.5538,-0.2870
THE GREEN MAN PUB AND HOTEL,HA9 8DF,51.5570,-0.2894
Holiday Inn London Wembley,HA9 8DS,51.5557,-0.2852
Ecco'la Pizzeria,HA9 8HF,51.5620,-0.2834
Beats and Burgers Limited,HA9 8HG,51.5621,-0.2825
Ni Hao,HA9 8HG,51.5621,-0.2825
Spice of India Tandoori Restaurant,HA9 8HG,51.5621,-0.2825
The Wembley Tavern Limited,HA9 8HG,51.5621,-0.2825
Fast food restaurant ,HA9 8HQ,51.5622,-0.2814
KHANAL LIMITED,HA9 8HQ,51.5622,-0.2814
Lahore Flavours Ltd,HA9 8HQ,51.5622,-0.2814
Moulin Grill Restaurant ,HA9 8HQ,51.5622,-0.2814
Club 182,HA9 8PA,51.5704,-0.2945
The blue oyster fish bar,HA9 8PA,51.5704,-0.2945
The Nest Restaurant Ltd,HA9 8RB,51.5710,-0.3081
Costa Coffee,HA9 9AB,51.5645,-0.2779
Subway,HA9 9AG,51.5637,-0.2785
mcdonald's Wembley Asda ,HA9 9EX,51.5647,-0.2756
The Lounge Cafe,HA9 9FX,51.5639,-0.2766
David Jennings (UK) Ltd,HP9 2UR,51.6096,-0.6089
Crown Plaza Gerrards Cross,HP9 2XE,51.5954,-0.5973
The Three Horseshoes,HP9 2XX,51.6182,-0.6074
The Jolly Cricketers,HP9 2YG,51.6179,-0.6054
The Cheeky Pea,KT1 1BJ,51.4098,-0.3046
Paul UK Ltd - Kingston,KT1 1BP,51.4096,-0.3036
Coffee Break,KT1 1BW,51.4100,-0.3030
McDonalds Kingston-Upon-Thames,KT1 1DJ,51.4101,-0.3021
Spuds ,KT1 1EE,51.4092,-0.3032
Twelves and Eights ,KT1 1HH,51.4078,-0.3083
Cintra’s Grill Ltd,KT1 1HN,51.4072,-0.3081
RIVERSIDE VEGETARIA LIMITED,KT1 1HN,51.4072,-0.3081
Stein's Kingston Limited,KT1 1HN,51.4072,-0.3081
Bonne Bouche Kingston,KT1 1JE,51.4093,-0.3058
Fortunella ,KT1 1JE,51.4093,-0.3058
Pokie & Roll,KT1 1JE,51.4093,-0.3058
Terrace Eatery Ltd,KT1 1JE,51.4093,-0.3058
36 Streets Food Ltd,KT1 1JT,51.4091,-0.3068
Chezlalee ,KT1 1JT,51.4091,-0.3068
Poor Boys,KT1 1JT,51.4091,-0.3068
Alforno Restaurant Kingston,KT1 1LY,51.4066,-0.3078
Wheelwrights Arms,KT1 1NP,51.4105,-0.3018
Wafflemeister,KT1 1NR,51.4107,-0.3030
itsu Kingston Clarence Street,KT1 1NX,51.4107,-0.3044
Ultimate Cafe Kingston,KT1 1PE,51.4105,-0.3067
kungfu ,KT1 1QJ,51.4117,-0.2994
Busaba Kingston,KT1 1QN,51.4108,-0.3077
Comptoir Kingston,KT1 1QN,51.4108,-0.3077
Hache Kingston,KT1 1QN,51.4108,-0.3077
KRW MANAGMENT LIMITED ,KT1 1QN,51.4108,-0.3077
The Gazebo,KT1 1QN,51.4108,-0.3077
KFC - Kingston,KT1 1QT,51.4114,-0.3009
Subway ,KT1 1QT,51.4114,-0.3009
Montys tandoori restaurant ,KT1 1SF,51.4121,-0.3019
TINOK LTD,KT1 1SF,51.4121,-0.3019
Warrens Bakery / Baked / Popadums,KT1 1SF,51.4121,-0.3019
le val restaurant ,KT1 1SP,51.4119,-0.3016
KOKORO,KT1 1SS,51.4114,-0.3016
Moulin rouge cafe,KT1 1SS,51.4114,-0.3016
Yoriya,KT1 1SS,51.4114,-0.3016
Ysjoa ltd,KT1 1SS,51.4114,-0.3016
STONE,KT1 1SU,51.4117,-0.3024
CAPPODOCIA,KT1 1SW,51.4121,-0.3012
Huffkins at John Lewis Kingston,KT1 1TE,51.4116,-0.3069
McDonalds Bentalls Centre Kingston,KT1 1TR,51.4118,-0.3047
Farm Fresh Burger,KT1 2BZ,51.4050,-0.3038
Bagels & Dough Ltd,KT1 2HG,51.4017,-0.3039
RAKA FC,KT1 2HT,51.4012,-0.3043
MASIL,KT1 2HX,51.4020,-0.3054
Ginger Bees Café,KT1 2LZ,51.4030,-0.3075
The Albion,KT1 2PY,51.4093,-0.2978
Noura Lebanese Restaurant,KT1 3RT,51.4087,-0.2742
Pomegranate Bistro,KT1 4DA,51.4122,-0.3111
Taberu Kingston,KT1 4DA,51.4122,-0.3111
The Swan,KT1 4DB,51.4129,-0.3110
The Foresters Arms,KT1 4DG,51.4140,-0.3126
Harrys hotdogs,KT12 2EG,51.4012,-0.3974
The Weir Hotel,KT12 2JB,51.4016,-0.4111
Burger King,KT16 8PN,51.4051,-0.5123
Canbury Secret Cafe,KT2 5AJ,51.4169,-0.3041
deea Bangladeshi cuisine,KT2 5BZ,51.4188,-0.3020
Roosters Piri Piri,KT2 5EB,51.4130,-0.3005
The Grey Horse,KT2 5EE,51.4142,-0.3005
ABETTA LIMITED AKBAR RESTAURANT,KT2 5EH,51.4148,-0.3007
GINSENG,KT2 5EL,51.4154,-0.3009
Hawkers Bar & Brasserie - DoubleTree Kingston upon Thames ,KT2 5FJ,51.4139,-0.3056
Boho Cafe,KT2 5JF,51.4187,-0.2968
Costa Coffee,KT2 5PU,51.4307,-0.3068
The Cardinal Peppe restaurant Kingston,KT2 5QG,51.4270,-0.2993
Saqui Tandoori,KT2 5QU,51.4308,-0.3074
The Pottery Bar,KT2 6BE,51.4163,-0.2882
The Wych Elm,KT2 6HT,51.4168,-0.2946
The Willoughby Arms,KT2 6LN,51.4155,-0.2921
Canbury Arms,KT2 6LQ,51.4136,-0.2951
The Norbiton,KT2 6PW,51.4139,-0.2886
JAX Sandwich bar Ltd,KT2 6QF,51.4106,-0.2992
Thai on Thames ,KT2 6QF,51.4106,-0.2992
Terra Mia,KT2 6QJ,51.4106,-0.2927
Black Horse,KT2 6QP,51.4132,-0.2877
Fish! Kitchen Kingston,KT2 7AF,51.4123,-0.2872
Coombe Hill Holdings (1946) Ltd,KT2 7DF,51.4180,-0.2622
Rozana   ,KT2 7NH,51.4147,-0.2858
Coombe Wood Golf Club Limited,KT2 7NS,51.4187,-0.2761
Tae Entertainment Ltd (CHOI'CE CAKE&COFFEE),KT3 3NX,51.4007,-0.2646
Genghis Khan,KT3 3PA,51.4003,-0.2633
MOKSHA OF NEW MALDEN LIMITED,KT3 3RJ,51.4028,-0.2730
 Al Forno ,KT3 4BP,51.4005,-0.2561
K J Restaurant ,KT3 4BT,51.4015,-0.2565
McDonalds New Malden,KT3 4BT,51.4015,-0.2565
The Treestone Kitchen,KT3 4BT,51.4015,-0.2565
YAMI RESTAURANT,KT3 4BT,51.4015,-0.2565
CAFE KIKO LTD,KT3 4BY,51.4026,-0.2569
Cake&Bingsoo,KT3 4BY,51.4026,-0.2569
Nori,KT3 4BY,51.4026,-0.2569
Han Bar & Restaurant,KT3 4DQ,51.4031,-0.2572
Ha Ru,KT3 4EZ,51.4019,-0.2559
Chick and Beers,KT3 4QE,51.4045,-0.2574
k-town group ltd,KT3 4QE,51.4045,-0.2574
Royal Oak,KT3 4RD,51.4076,-0.2585
New Anarkali,KT8 0HP,51.4004,-0.3564
Pizzeria Averna LTD,KT8 0HP,51.4004,-0.3564
The Mute Swan,KT8 9BN,51.4048,-0.3424
CAFFE LA FIAMMA LIMITED,KT8 9BY,51.4069,-0.3386
Courtside cafe,KT8 9DX,51.4057,-0.3577
Casa Mia ,KT8 9ER,51.4020,-0.3456
Mezzet,KT8 9ER,51.4020,-0.3456
Henry's Kitchen,KT8 9EU,51.4028,-0.3444
The Blacksheep Caffe and Bakery LTD,KT8 9EU,51.4028,-0.3444
Istanblu Restaurant,KT8 9HA,51.4025,-0.3442
Vai's Kitchen,KT8 9HA,51.4025,-0.3442
Ham CT Management Ltd,KT8 9HB,51.4020,-0.3439
Sam's Chicken,NW10 0AD,51.5601,-0.2511
Spice Grill London,NW10 0AD,51.5601,-0.2511
H&A RESTAURANTS LTD,NW10 0NX,51.5517,-0.2617
zams chicken,NW10 1BD,51.5507,-0.2409
Dollis Hill Fish and Grill T/A Dollis Hill Food Ltd,NW10 1NU,51.5528,-0.2381
Costa Coffee,NW10 1QR,51.5601,-0.2525
Tonys bar ltd,NW10 2EG,51.5488,-0.2414
THE NEW GOLDEN DUCK CHINESE RESTAURANT,NW10 2JN,51.5489,-0.2429
WOOD FIRED PIZZERIA LIMITED,NW10 2PB,51.5477,-0.2352
Coco B's,NW10 2PN,51.5473,-0.2323
Oatalaia Event cafe,NW10 2PR,51.5472,-0.2298
WOODY GRILL NW10 LMT,NW10 2QA,51.5475,-0.2278
Costa Coffee,NW10 2QD,51.5476,-0.2271
Dempsey’s cafe,NW10 2QG,51.5477,-0.2252
Siirgista Bros,NW10 2TE,51.5475,-0.2258
Witch Cafe/ Dorota Staniak,NW10 2TE,51.5475,-0.2258
CURRY NIGHTS LIMITED,NW10 3JH,51.5319,-0.2176
The Whippet Inn,NW10 3JJ,51.5323,-0.2181
Morso (Kensal Rise),NW10 3NB,51.5315,-0.2170
Sacro Cuore,NW10 3NB,51.5315,-0.2170
Mineiro Cafe and Restaurante,NW10 3ND,51.5339,-0.2185
Paradise Plantbased,NW10 3ND,51.5339,-0.2185
Shishlique,NW10 3ND,51.5339,-0.2185
Taste of Chamberlayne ,NW10 3ND,51.5339,-0.2185
The Chamberlayne Pub,NW10 3ND,51.5339,-0.2185
Costa Coffee,NW10 3NS,51.5351,-0.2196
Flavourz Africana ,NW10 4AB,51.5383,-0.2494
RUBIO,NW10 4JD,51.5372,-0.2414
Bigger Bite ,NW10 4JH,51.5366,-0.2449
STAR EXPRESS,NW10 4JH,51.5366,-0.2449
Burger King,NW10 4JJ,51.5369,-0.2460
Requinte Brazil ,NW10 4LX,51.5372,-0.2491
One Stop Caribbean,NW10 4NE,51.5367,-0.2480
DAARUL FAIZ WORLDWIDE LTD,NW10 4PP,51.5339,-0.2398
LAHORE KEBAB (LONDON) LIMITED,NW10 4SJ,51.5357,-0.2465
BRAZIL AVENUE LTD,NW10 4SY,51.5338,-0.2419
Netos bakery,NW10 4SY,51.5338,-0.2419
Mind the brew,NW10 4TD,51.5332,-0.2408
OH MAMMA MIA LTD,NW10 4TD,51.5332,-0.2408
Pizzarium ,NW10 4TD,51.5332,-0.2408
Triangle Club,NW10 4TD,51.5332,-0.2408
Uncles Gourmet ,NW10 4TD,51.5332,-0.2408
Chasing Dragon,NW10 4TR,51.5354,-0.2434
Safari Restaurant,NW10 4TR,51.5354,-0.2434
The Royal Oak,NW10 4TS,51.5361,-0.2446
Mineiro Cafe,NW10 4UX,51.5332,-0.2465
Sonora Cafe And Kitchen,NW10 5ES,51.5336,-0.2260
Kensal Pfc ,NW10 5ET,51.5336,-0.2255
The Island,NW10 5HA,51.5354,-0.2266
Urban Soul,NW10 5HD,51.5356,-0.2262
William IV,NW10 5JX,51.5290,-0.2190
Parlour,NW10 5LG,51.5287,-0.2168
Pasha London ltd,NW10 5NA,51.5326,-0.2357
BEHESHT RESTAURANT,NW10 5NL,51.5320,-0.2324
Touro Brazilian Steakhouse - Kensal Green,NW10 5NT,51.5307,-0.2289
Crazy Baker Ltd,NW10 5NY,51.5304,-0.2291
Espresso,NW10 5RT,51.5340,-0.2202
Arthurs Cafe Ltd,NW10 5RU,51.5342,-0.2198
Comptoir V,NW10 5RU,51.5342,-0.2198
Eat Sushi ,NW10 5RX,51.5340,-0.2195
LEVANT BOOK CAFE LTD,NW10 6EU,51.5283,-0.2634
The Collective Bar & Kitchen,NW10 6FF,51.5290,-0.2504
Little Beirut,NW10 6HJ,51.5292,-0.2643
Giants Diner,NW10 6RS,51.5265,-0.2400
Grand Junction Arms,NW10 7AD,51.5345,-0.2606
Beit El Zaytoun,NW10 7AE,51.5338,-0.2633
Abbey Point Cafe,NW10 7DD,51.5345,-0.2755
Caffe Kix FC200,NW10 7FQ,51.5301,-0.2850
SPICE SHACK,NW10 7JJ,51.5295,-0.2681
Subway Park Royal,NW10 7JJ,51.5295,-0.2681
Ahwangy bakery and restaurant,NW10 7LF,51.5269,-0.2674
Bamboo Lounge ,NW10 7LT,51.5269,-0.2700
THE COFFEE HOUSE,NW10 7NS,51.5309,-0.2692
Kiara lounge ltd,NW10 7QE,51.5280,-0.2779
Cafe Royal,NW10 7RE,51.5299,-0.2702
Ace Cafe London Ltd,NW10 7UD,51.5405,-0.2787
Matthew Clark,NW10 7XN,51.5327,-0.2655
SHAYONA RESTAURANTS LTD,NW10 8HD,51.5483,-0.2613
Reggie’s Caribbean Cuisine,NW10 8LY,51.5409,-0.2614
Amigos Burgers and Shakes,NW10 8QD,51.5400,-0.2532
Morley’s fried chicken ,NW10 8SE,51.5382,-0.2500
vybz bar,NW10 8SE,51.5382,-0.2500
HARLESDEN PIZZA LIMITED,NW10 8UR,51.5369,-0.2562
LAHORI TIKA MASALA LIMITED,NW10 8UR,51.5369,-0.2562
ONE ASHBOURNE ,NW11 0AD,51.5863,-0.2002
Lavash ,NW11 0AL,51.5879,-0.2001
FINLAW THIRTY-TWO LIMITED,NW11 8HB,51.5739,-0.2004
Hotcut,NW11 8HB,51.5739,-0.2004
MAXIM RESTAURANT,NW11 8HB,51.5739,-0.2004
Met Su Yan,NW11 8HB,51.5739,-0.2004
NEWPLATE RESTAURANT LTD TRADING AS SUSHIMANIA,NW11 8HB,51.5739,-0.2004
PITA,NW11 8HB,51.5739,-0.2004
Soyo Diner,NW11 8HB,51.5739,-0.2004
Spicygrill,NW11 8HB,51.5739,-0.2004
pizaza,NW11 8HB,51.5739,-0.2004
soyo,NW11 8HB,51.5739,-0.2004
Huangs Grill Ltd T/A Taisho,NW11 8HE,51.5748,-0.2018
Novellino Bistro Ltd,NW11 8HR,51.5734,-0.2005
The District,NW11 8HR,51.5734,-0.2005
Khorasan Restaurant,NW2 1EX,51.5571,-0.2144
Sams Chicken,NW2 1EX,51.5571,-0.2144
La Esquina cafe ,NW2 1HD,51.5576,-0.2135
Sky Pizza,NW2 1HD,51.5576,-0.2135
Tasty Burger,NW2 1LJ,51.5721,-0.2266
Beacon Bingo Cricklewood,NW2 3DU,51.5584,-0.2164
Peri Peri Grill,NW2 3EB,51.5573,-0.2156
Clayton Crown Hotel,NW2 3ED,51.5567,-0.2149
Elemtree Ltd ,NW2 3EJ,51.5553,-0.2132
ZAYTOON RESTAURANT LIMITED,NW2 3EL,51.5547,-0.2127
Flavours of spice ,NW2 3EP,51.5542,-0.2121
TOLC London TA Taste of Lahore,NW2 3ET,51.5536,-0.2114
Papa Johns - CRICKLEWOOD,NW2 3HS,51.5574,-0.2166
BURGER KING-Cricklewood Broadway,NW2 3HY,51.5560,-0.2148
Saaqi Ltd,NW2 3HY,51.5560,-0.2148
Chicos burgers,NW2 3JG,51.5551,-0.2138
036RNB,NW2 3JX,51.5531,-0.2115
NEWDAY 2016 LIMITED,NW2 3JX,51.5531,-0.2115
The underground restaurant,NW2 3QJ,51.5492,-0.2039
SPICE 6 RESTAURANT,NW2 4NH,51.5496,-0.2211
Sanzio,NW2 4NH,51.5496,-0.2211
Spasso Restaurant,NW2 4QR,51.5498,-0.2206
Costa Coffee,NW2 4QU,51.5488,-0.2217
BEER & BURGER WILLESDEN LIMITED,NW2 4QY,51.5487,-0.2213
XOXO COFFEE & PATISSERIE,NW2 4RA,51.5482,-0.2221
DELICE CAFE LTD,NW2 4RS,51.5496,-0.2201
Habaneros Willesden Green,NW2 5SJ,51.5480,-0.2239
Parkway 329 Limited,NW2 6JP,51.5623,-0.2220
Reindeer Cafe,NW2 6LN,51.5673,-0.2292
Wing Tai Restaurant,NW2 6LN,51.5673,-0.2292
Whitefish restaurant,NW4 2AD,51.5863,-0.2190
SENATOR LOUNGE LTD,NW4 2BP,51.5868,-0.2190
LAHORE RESTAURANT (LONDON) LIMITED,NW4 2DR,51.5875,-0.2206
Hummus Bar Express,NW4 2DX,51.5874,-0.2213
Mr. Baker,NW4 2DX,51.5874,-0.2213
Prime Cuisine Limited T/A White House Express,NW4 2EA,51.5860,-0.2204
pizaza,NW4 2EA,51.5860,-0.2204
Bagels Bar,NW4 2ES,51.5850,-0.2190
K COOK,NW4 3AL,51.5841,-0.2280
Amaretto Ristorante & Pizzaria,NW4 3AS,51.5831,-0.2267
COSTA COFFEE,NW4 3AS,51.5831,-0.2267
Costa Coffee,NW4 3AS,51.5831,-0.2267
The Arena Club,NW4 3AS,51.5831,-0.2267
Three Restaurant,NW4 3FN,51.5764,-0.2238
KFC Brent Cross,NW4 3FP,51.5764,-0.2238
Pizza authority ltd,NW4 3FP,51.5764,-0.2238
Shake Shack Brent Cross,NW4 3FP,51.5764,-0.2238
Tomelis,NW4 3FP,51.5764,-0.2238
You Me Sushi  ,NW4 3FP,51.5764,-0.2238
TOHUM CULTURAL CENTRE,NW4 3JH,51.5838,-0.2286
Papa Johns - HENDON,NW4 3JS,51.5829,-0.2277
Gringos,NW4 3NS,51.5824,-0.2263
Tea Garden,NW4 3PN,51.5780,-0.2338
Jin Sushi,NW4 4AX,51.5874,-0.2299
SKY BLUE CAFE LIMITED T/A BELLA MIA,NW4 4AX,51.5874,-0.2299
NU NOSH,NW4 4DP,51.5897,-0.2227
KAIFENG KOSHER LIMITED,NW4 4DU,51.5898,-0.2238
Soor Restaurant,NW4 4UJ,51.5931,-0.2337
the Alliance,NW6 1NR,51.5510,-0.2013
GERMAN DONER KEBAB,NW6 2DB,51.5442,-0.2005
fayrouse ,NW6 2QH,51.5466,-0.2030
Wingmans- Kilburn,NW6 2QN,51.5452,-0.2015
Costa Coffee,NW6 6NH,51.5359,-0.2052
Mr Fish,NW6 6NJ,51.5349,-0.2046
Queen's Indian Restaurant,NW6 6NJ,51.5349,-0.2046
The Alice House Queens Park,NW6 6NJ,51.5349,-0.2046
The Salusbury Pub,NW6 6NN,51.5355,-0.2055
Planet Organic Queen's Park,NW6 6RG,51.5381,-0.2069
Aroma Pizza Limited,NW6 6RN,51.5402,-0.2088
WOODY GRILL,NW6 7JR,51.5437,-0.2004
king of naan,NW6 7JR,51.5437,-0.2004
0live3 ltd,NW6 7QE,51.5461,-0.2032
Vijay India restaurant ,NW6 7RF,51.5408,-0.2013
Anjanaas ,NW6 7RL,51.5407,-0.2022
BagelBaby,NW6 7SX,51.5412,-0.2008
silver service cafe,NW7 1LB,51.6055,-0.2075
Cake Create Ltd,NW7 1LY,51.6013,-0.2089
Blvck enterprise ltd,NW7 2QJ,51.6025,-0.2358
Baw Pan Asian Cafe,NW7 3BU,51.6151,-0.2462
Bluebelles of Portobello ,NW7 3DA,51.6147,-0.2477
MILL & BREW,NW7 3DA,51.6147,-0.2477
MILL HILL TANDOORI RESTAURANT LIMITED ,NW7 3LL,51.6141,-0.2482
Mani & Nick's,NW7 3LL,51.6141,-0.2482
El Vaquero,NW7 3NX,51.6141,-0.2508
Yummies Deli Limited,NW7 3TG,51.6157,-0.2456
The Good Earth,NW7 4RN,51.6166,-0.2455
Chong's Oriental Food Court Ltd T/AS COCONUT TREE,NW9 0AS,51.5942,-0.2606
CARLTON LOUNGE,NW9 0BH,51.5834,-0.2630
Sheikhan Restaurant,NW9 0BT,51.5841,-0.2648
CHILLI MASSALA INDIAN CUISINE LTD,NW9 0BY,51.5844,-0.2654
CMS UK Trading ltd (Janchi Korean Kitchen),NW9 0FH,51.5936,-0.2603
Cafe la Viet ,NW9 0FH,51.5936,-0.2603
Choke-D Limited t/as Little Thai Silk,NW9 0FH,51.5936,-0.2603
Four Seasons,NW9 0FH,51.5936,-0.2603
Fresh Fry Gourmet Ltd t/as Longji,NW9 0FH,51.5936,-0.2603
Hakka,NW9 0FH,51.5936,-0.2603
Ichiban,NW9 0FH,51.5936,-0.2603
JIANG HU BAK KUT TEH,NW9 0FH,51.5936,-0.2603
Manila Food Ltd,NW9 0FH,51.5936,-0.2603
New Oriental Catering UK Ltd,NW9 0FH,51.5936,-0.2603
Oishi Tasty Food Limited,NW9 0FH,51.5936,-0.2603
RG Dim Sum Ltd t/as Royal China One 68 Dim Sum,NW9 0FH,51.5936,-0.2603
Tiger Hill,NW9 0FH,51.5936,-0.2603
Uncle Chilli,NW9 0FH,51.5936,-0.2603
Veggie Wok,NW9 0FH,51.5936,-0.2603
YAKI YA! LTD,NW9 0FH,51.5936,-0.2603
Taco Bell - 130 Colindale Ave NW9 4AX,NW9 4AX,51.6042,-0.2432
Chandos Arms,NW9 5DS,51.5931,-0.2559
Delisquared,NW9 5EN,51.5963,-0.2430
Mibento Taiwanese Cafe,NW9 5HG,51.5958,-0.2524
Spaccanapoli,NW9 5HG,51.5958,-0.2524
ITJL,NW9 5WU,51.5958,-0.2512
Prime star restaurant ,NW9 6LH,51.5849,-0.2481
GELGEL 46 LIMITED,NW9 6LP,51.5871,-0.2516
zams chicken,NW9 6LP,51.5871,-0.2516
Oriental Express,NW9 6NB,51.5892,-0.2539
Jakarta Restaurant ,NW9 6RS,51.5882,-0.2516
Going Greek,NW9 6SG,51.5885,-0.2521
Chicken valley,NW9 7AA,51.5760,-0.2376
ALADIN KEBABISH INDIAN CUISINE LIMITED,NW9 7EA,51.5769,-0.2393
CHICKEN LAND,NW9 8RS,51.5647,-0.2626
Milverdene Hotel Trading Limited,NW9 8TR,51.5814,-0.2585
Al-Sultan Gardens ,NW9 9DT,51.5857,-0.2750
SimSim Bakery & Restaurant,NW9 9DT,51.5857,-0.2750
ESHANWAYS LTD,NW9 9EG,51.5849,-0.2786
LEZZIZ CHARCOAL GRILL,NW9 9EG,51.5849,-0.2786
Chaiiwala Kingsbury,NW9 9EL,51.5846,-0.2804
Everfresh Sakonis Limited ,NW9 9EL,51.5846,-0.2804
Rose Vegetarian,NW9 9HH,51.5857,-0.2776
Bombay spicy ltd,NW9 9HJ,51.5854,-0.2783
Riya Restaurant Ltd,NW9 9HJ,51.5854,-0.2783
TEAM KAVEET LIMITED,NW9 9HJ,51.5854,-0.2783
Costa Coffee Kingsbury,NW9 9HN,51.5851,-0.2799
Patiala Xpress,NW9 9PE,51.5846,-0.2686
Spice Paradise Iver ltd ,SL0 9AE,51.5053,-0.5024
the tower arms,SL0 9AE,51.5053,-0.5024
north star restaurant,SL0 9AH,51.5041,-0.4915
HSA Takeaway Ltd,SL1 1BD,51.5074,-0.5852
Kabul palace ,SL1 1BD,51.5074,-0.5852
STEAKHOUSE ,SL1 1BD,51.5074,-0.5852
Millions of  burgers,SL1 1BN,51.5079,-0.5879
PLV ENTERPRISES LTD t/a KFC,SL1 1DG,51.5095,-0.5925
Oodles Chinese,SL1 1DH,51.5095,-0.5947
ROOSTERS PIRI PIRI,SL1 1EL,51.5097,-0.5963
Soul Deli,SL1 1FQ,51.5081,-0.5940
Swagath South Indian Restaurant,SL1 1HL,51.5090,-0.5946
Starbucks Slough High Street,SL1 1JP,51.5085,-0.5923
The Brickhouse,SL1 1JU,51.5075,-0.5884
Treatz Slough,SL1 1JU,51.5075,-0.5884
Cafe Lava,SL1 1LE,51.5086,-0.5889
Biryani Nation,SL1 1PS,51.5070,-0.5918
SKVP (SLOUGH) LIMITED,SL1 1RB,51.5069,-0.5891
Milkshake World ,SL1 1XW,51.5109,-0.5907
Caffe Kix The Urban Building,SL1 2BE,51.5048,-0.5922
Creams Cafe Slough,SL1 2EJ,51.5086,-0.5962
Champinos Pizza,SL1 2LX,51.5062,-0.6032
Servier,SL2 4HD,51.5466,-0.5833
Stoke Place Hotel,SL2 4HT,51.5306,-0.5808
Rose and Crown,SL2 4PW,51.5497,-0.5836
Aromat Kuchni,SL2 5AH,51.5139,-0.5936
Holiday Inn Express Slough,SL2 5DD,51.5122,-0.5900
Golden Cross ,SL3 0BN,51.4712,-0.5179
Riverside Cafe,SL3 0EH,51.4846,-0.5117
Village cafe(colnbrook)ltd,SL3 0QD,51.4820,-0.5160
Art Hotels UK Ltd t/a Pinewood Hotel,SL3 6AP,51.5267,-0.5563
San Remo Catering at Black Park Ltd,SL3 6DS,51.5362,-0.5507
Black Horse    ,SL3 6HD,51.5607,-0.5614
Prop House Coffee Shop,SL3 6NB,51.5389,-0.5763
Wexham Park Golf and Leisure Centre Limited,SL3 6ND,51.5400,-0.5738
Panjab Restaurant,SL3 7HS,51.4997,-0.5631
Reds Cafe,SL3 8HF,51.5040,-0.5426
HOLIDAY INN EXPRESS LONDON HEATHROW T5,SL3 8QB,51.4891,-0.5365
COSTA COFFEE DATCHET,SL3 9BJ,51.4839,-0.5806
Spices Indian Cuisine ,SL3 9BJ,51.4839,-0.5806
nibbles ,SL3 9EB,51.4832,-0.5796
Liquid Leisure Ltd,SL3 9HY,51.4751,-0.5603
ROYAL STAG,SL3 9JH,51.4842,-0.5797
Subway ,SL4 1BB,51.4808,-0.6107
The Jelly Lounge,SL4 1BB,51.4808,-0.6107
The Corner Ale & Cider House,SL4 1BG,51.4806,-0.6061
Meimo Restaurant,SL4 1DE,51.4806,-0.6117
Antalya Restaurant,SL4 1DG,51.4809,-0.6120
Creams Cafe Windsor,SL4 1DG,51.4809,-0.6120
Enzo's Restaurant Limited,SL4 1DH,51.4810,-0.6117
Meze Grill Limited,SL4 1DH,51.4810,-0.6117
Foggs Windsor,SL4 1DP,51.4820,-0.6097
Heidi Windsor,SL4 1DP,51.4820,-0.6097
Le Suquet,SL4 1DP,51.4820,-0.6097
Starbucks Windsor,SL4 1DS,51.4824,-0.6084
KOKORO WINDSOR,SL4 1DT,51.4822,-0.6082
opito restaurant,SL4 1JD,51.4772,-0.6102
THE TWO BREWERS,SL4 1LB,51.4807,-0.6046
A la Russe / Cornucopia,SL4 1LD,51.4811,-0.6065
Clairmonts  cafe ,SL4 1LD,51.4811,-0.6065
Meat at the Parish,SL4 1LD,51.4811,-0.6065
Esquires Coffee,SL4 1LH,51.4823,-0.6078
MGALLERY CASTLE HOTEL WINDSOR,SL4 1LJ,51.4818,-0.6075
chippy of windsor,SL4 1LR,51.4823,-0.6072
1423 CHINA KITCHEN,SL4 1PA,51.4820,-0.6064
Latino Taverna,SL4 1PA,51.4820,-0.6064
Queen Charlotte,SL4 1PA,51.4820,-0.6064
THE PRINCE HARRY,SL4 1PB,51.4823,-0.6072
Bluegrass BBQ,SL4 1PD,51.4826,-0.6069
Clarence Brasserie,SL4 1PE,51.4824,-0.6065
Drury House,SL4 1PE,51.4824,-0.6065
Nell Gwynn Tearoom,SL4 1PE,51.4824,-0.6065
Cattle grid,SL4 1PJ,51.4829,-0.6096
Cinnamon Cafe,SL4 1PJ,51.4829,-0.6096
Drchocs Windsor Chocolate Factory,SL4 1PL,51.4836,-0.6088
Tapas Revolution Windsor,SL4 1PL,51.4836,-0.6088
Thai Terrace ,SL4 1PL,51.4836,-0.6088
Viva Chinese Restaurant Ltd,SL4 1PL,51.4836,-0.6088
Choi Kai Ltd,SL4 1PR,51.4846,-0.6076
Lebanese Delicacy limited trading as lebanese nights,SL4 1PR,51.4846,-0.6076
Thai Square Windsor,SL4 1PR,51.4846,-0.6076
Mango Lounge Windsor,SL4 1QB,51.4853,-0.6071
BOATMAN,SL4 1QN,51.4861,-0.6069
The Real Greek,SL4 1QT,51.4844,-0.6083
Charley’s Horse,SL4 1RH,51.4828,-0.6103
Sebastian’s Italian Limited,SL4 1RH,51.4828,-0.6103
The Royal Adelaide Hotel,SL4 2AG,51.4775,-0.6064
The Windsor Castle,SL4 2AP,51.4743,-0.6057
De Vere Beaumont Estate,SL4 2JJ,51.4503,-0.5731
Good Day Cafe,SL4 2QH,51.4625,-0.5855
Punto ,SL4 2QH,51.4625,-0.5855
Aslan & hume ltd( t/a monty cafe),SL4 3BN,51.4797,-0.6121
AL FASSIA RESTAURANT LTD,SL4 3BP,51.4790,-0.6124
Viceroy of Windsor,SL4 3BP,51.4790,-0.6124
COSTA COFFEE ETON,SL4 6AA,51.4864,-0.6086
Gilbey's Bar Restaurant & Townhouse,SL4 6AF,51.4871,-0.6092
The Crown and Cushion,SL4 6AF,51.4871,-0.6092
The George Inn,SL4 6AF,51.4871,-0.6092
The Christopher Hotel,SL4 6AN,51.4890,-0.6094
Tudors,SL4 6AS,51.4899,-0.6091
GOLDEN CURRY (BERKSHIRE) LTD,SL4 6BL,51.4873,-0.6088
Flaming Cow,SL4 6BT,51.4860,-0.6088
Soul Deli,SL9 0BG,51.5967,-0.5458
The Lytton,SL9 0LX,51.6195,-0.5428
Gerrards Cross Golf Club Ltd,SL9 0QA,51.5978,-0.5487
Dumb Bell ,SL9 0QY,51.6225,-0.5305
Luna Rossa Restaurant,SL9 7DA,51.5875,-0.5538
Fego Restaurant Gerrards Cross,SL9 7QE,51.5868,-0.5545
Di Paolo ,SL9 8BR,51.5887,-0.5509
Hillmart Ltd,SL9 8BR,51.5887,-0.5509
Thai Rack,SL9 8BR,51.5887,-0.5509
Gerrard cross subway,SL9 8EB,51.5884,-0.5528
Jack and Alice,SL9 8EB,51.5884,-0.5528
Huddle,SL9 8ES,51.5881,-0.5510
The White Oak,SL9 8NL,51.5975,-0.5569
lomito,SL9 8PE,51.5878,-0.5542
one4six coffee,SL9 8PQ,51.5892,-0.5524
Crumbs Cafe shop,SL9 9DX,51.6073,-0.5575
Spice ,SL9 9EA,51.6069,-0.5587
Delhi Spice,SL9 9EH,51.6069,-0.5574
The Jolly Farmer,SL9 9HH,51.6032,-0.5656
The Madeira Coffee Shop & Restaurant,SL9 9QE,51.6065,-0.5563
LA BODEGA TAPAS LTD,SL9 9QL,51.6079,-0.5556
Greyhound Inn,SL9 9RA,51.6074,-0.5567
Alma Cafe (Barnes),SW13 0DB,51.4743,-0.2388
Arte chef,SW13 0DQ,51.4748,-0.2407
Church Road,SW13 0DQ,51.4748,-0.2407
oka restaurant ,SW13 0DQ,51.4748,-0.2407
Dolce Crema ,SW13 0NY,51.4703,-0.2557
Orange Pekoe Ltd,SW13 0PX,51.4705,-0.2553
No.40 Cafe & Bistro,SW13 0PZ,51.4687,-0.2549
SPICE OF NIGHT LONDON LIMITED,SW13 9DH,51.4854,-0.2331
The Bridge in Barnes ,SW13 9DW,51.4858,-0.2326
Olympic Studios,SW13 9HL,51.4750,-0.2414
The Waterman's Arms - Barnes,SW13 9PY,51.4745,-0.2505
The Plough,SW14 7AF,51.4606,-0.2712
The Tapestry Bar,SW14 7EZ,51.4691,-0.2690
Lal Bagh Restaurant,SW14 7JU,51.4644,-0.2740
Cafe Al Fresco,SW14 7PR,51.4640,-0.2712
Mamma Mia ,SW14 7PR,51.4640,-0.2712
Leonardo Winebar,SW14 7PS,51.4640,-0.2717
FAANOOS LTD,SW14 7PU,51.4640,-0.2728
The Victoria,SW14 7RT,51.4611,-0.2756
Boutique cafe,SW14 8AE,51.4657,-0.2666
La Plata Steakhouse,SW14 8AE,51.4657,-0.2666
Just So Italian Ltd t/a Valentina,SW14 8AH,51.4651,-0.2648
Rosona Spice,SW14 8DS,51.4653,-0.2598
Forty Four Sheen Lane Restaurant,SW14 8LP,51.4659,-0.2673
Pig and Whistle,SW14 8LP,51.4659,-0.2673
Artisan East Sheen,SW14 8LR,51.4641,-0.2666
Leonardo Cafe,SW14 8QN,51.4646,-0.2658
11 Coffee & Co Sheen,SW14 8QR,51.4648,-0.2644
Lupo Bros,SW14 8QR,51.4648,-0.2644
Kozy Coffee and Food,SW14 8QS,51.4648,-0.2628
ANNAPURNA East Sheen ,SW14 8QT,51.4649,-0.2613
Asiatique Restaurant,SW14 8QT,51.4649,-0.2613
RICK STEIN,SW14 8SN,51.4705,-0.2574
79 Collective,SW15 1ET,51.4671,-0.2186
Hudsons Restaurant,SW15 1EX,51.4677,-0.2218
Chook Chook Indian Railway Kitchen ,SW15 1EZ,51.4679,-0.2228
Millennium Pizza Bar,SW15 1HJ,51.4683,-0.2269
The Spencer Pub ,SW15 1HJ,51.4683,-0.2269
Thai Square Putney Bridge,SW15 1JN,51.4672,-0.2166
JULIA DOMNA CAFE,SW15 1JP,51.4673,-0.2188
Social Brew Cafe,SW15 1JP,51.4673,-0.2188
BOSA KITCHEN,SW15 1LL,51.4678,-0.2210
Blades Restaurant,SW15 1LL,51.4678,-0.2210
Calowries,SW15 1LY,51.4686,-0.2266
Blabar,SW15 1NH,51.4641,-0.2162
Artisans of Sardinia,SW15 1NL,51.4648,-0.2179
Kashmir Restaurant ,SW15 1NL,51.4648,-0.2179
Chalet Ciro ,SW15 1RB,51.4636,-0.2159
CASA MANOLO ,SW15 1RG,51.4627,-0.2164
Kokoro Putney,SW15 1RS,51.4614,-0.2172
Lost Society,SW15 1RS,51.4614,-0.2172
Il Gusto Italiano,SW15 1RT,51.4613,-0.2166
PUTNEY PIES,SW15 1SL,51.4656,-0.2146
Putney Pantry Ltd,SW15 1SN,51.4657,-0.2137
Preto,SW15 1SP,51.4644,-0.2149
Subway,SW15 1SP,51.4644,-0.2149
KFC PUTNEY,SW15 1SQ,51.4650,-0.2150
YellowBox Britain Ltd t/a Foodilic,SW15 1SR,51.4637,-0.2154
The Mac Factory,SW15 1TW,51.4637,-0.2165
Yumsa,SW15 2DT,51.4599,-0.2099
The Dynamo,SW15 2NA,51.4643,-0.2128
Voodoo Chicken & Spice,SW15 2NU,51.4639,-0.2086
MEIWEI LONDON,SW15 2PP,51.4642,-0.2132
Hotaru ,SW15 2PT,51.4634,-0.2116
YAMIRO KOREAN RESTAURANT,SW15 2PT,51.4634,-0.2116
East Putney Tavern,SW15 2SP,51.4599,-0.2119
The Prince of Wales,SW15 2SP,51.4599,-0.2119
Zaga cicchetti,SW15 2SP,51.4599,-0.2119
Home SW15,SW15 2SW,51.4602,-0.2135
Taj Mahal ,SW15 2SW,51.4602,-0.2135
GAZETTE PUTNEY,SW15 2TX,51.4605,-0.2162
PATA NEGRA,SW15 2TX,51.4605,-0.2162
Don Emilio,SW15 3PS,51.4350,-0.2578
RHYTHM & BREWS CAFE LIMITED,SW15 3PU,51.4334,-0.2580
Richmond Park Golf Course,SW15 3SA,51.4421,-0.2424
cafe Joy,SW15 4DQ,51.4494,-0.2421
Jerk Shack,SW15 4HJ,51.4501,-0.2399
The village cafe,SW15 4HL,51.4505,-0.2395
Roehampton Club,SW15 5LR,51.4651,-0.2442
Al forno Putney,SW15 5QJ,51.4644,-0.2376
Munal Tandoori,SW15 5QL,51.4645,-0.2388
kabab king,SW15 6SE,51.4608,-0.2180
Artisan Putney,SW15 6SG,51.4611,-0.2192
ITALIAN TAVERNA RESTAURANT ,SW15 6SP,51.4627,-0.2263
The Arab Boy,SW15 6SP,51.4627,-0.2263
CAPPUCCINO,SW15 6TD,51.4612,-0.2178
Holy Cow Restaurant and Bar,SW15 6TG,51.4614,-0.2190
MA GOA RESTAURANT,SW15 6TG,51.4614,-0.2190
Hare and Tortoise,SW15 6TH,51.4620,-0.2210
Papa Johns - LONDON - Putney,SW15 6TH,51.4620,-0.2210
Tomoe,SW15 6TH,51.4620,-0.2210
Palm Riverside,SW18 1PP,51.4623,-0.2007
Putt in the  Park ,SW18 1PP,51.4623,-0.2007
BOSA KITCHEN,SW18 5LR,51.4448,-0.2044
Olive Garden,SW18 5LR,51.4448,-0.2044
Thai Girder,SW18 5LR,51.4448,-0.2044
Salt & Pepper,SW18 5LY,51.4457,-0.2005
Wahaca Wimbledon,SW19 1QD,51.4196,-0.2037
Diba restaurant ,SW19 1QE,51.4194,-0.2024
Mai Thai Restaurant,SW19 1QE,51.4194,-0.2024
The Adega Restaurant and Tapas Bar Ltd.,SW19 1QE,51.4194,-0.2024
Wafflemeister Wimbledon,SW19 1RE,51.4202,-0.2041
OKI,SW19 1RF,51.4204,-0.2046
Taco Bell - 2 The Broadway SW19 1RF,SW19 1RF,51.4204,-0.2046
GRILANDIA 2,SW19 1RH,51.4196,-0.2009
Wimbledon Smash,SW19 1RH,51.4196,-0.2009
Yori,SW19 1RH,51.4196,-0.2009
Aya Lebanese Cuisine (The Broadway),SW19 1RQ,51.4200,-0.2028
Cafe Mori,SW19 1RQ,51.4200,-0.2028
Dip and Flip,SW19 1RQ,51.4200,-0.2028
The Old Frizzle,SW19 1RQ,51.4200,-0.2028
Touro Brazilian Steakhouse - Wimbledon,SW19 1RQ,51.4200,-0.2028
Waffle Jack's American Diner,SW19 3NT,51.4112,-0.2082
Sanjunana,SW19 3PZ,51.4114,-0.2101
itsu Wimbledon,SW19 3RU,51.4203,-0.2071
SUBWAY WIMBLEDON (VPSP LTD),SW19 3TA,51.4203,-0.2062
Justin James Hotel / Lu-Ma Cafe,SW19 4JZ,51.4204,-0.2112
Justin James Hotel Trading Limited,SW19 4JZ,51.4204,-0.2112
FH WIMBLEDON LTD,SW19 4QW,51.4227,-0.2174
Light house ,SW19 4ST,51.4211,-0.2201
Hotel du Vin & Bistro Wimbledon,SW19 4UE,51.4243,-0.2294
Fox and Grapes,SW19 4UN,51.4266,-0.2307
Royal Wimbledon Golf Club,SW19 4UW,51.4260,-0.2322
Wimbledon Common Golf Club,SW19 4UW,51.4260,-0.2322
The Wimbledon Club,SW19 5AG,51.4362,-0.2153
Light on the common ,SW19 5AX,51.4253,-0.2210
Cent Anni,SW19 5BY,51.4252,-0.2194
Brew Wimbledon,SW19 5DX,51.4246,-0.2166
Maison St Cassien,SW19 5EE,51.4256,-0.2186
Rajdoot Tandoori Restaurant ,SW19 5EE,51.4256,-0.2186
Paul UK Ltd - Wimbledon,SW19 5EF,51.4260,-0.2196
Carmona Steak & Tapas,SW19 5EG,51.4251,-0.2166
Megan's in the Village,SW19 5EG,51.4251,-0.2166
Windmill Tearooms,SW19 5NQ,51.4371,-0.2257
coffee,SW19 6NS,51.4421,-0.2090
NYEAT Restaurant & Cocktail Bar,SW19 7BD,51.4273,-0.2010
The 1955 Club,SW19 7BD,51.4273,-0.2010
Wacka Espresso,SW19 7BD,51.4273,-0.2010
Buenos Aires Argentine Steakhouse ,SW19 7PA,51.4224,-0.2091
Sticks 'n' Sushi Wimbledon,SW19 7PA,51.4224,-0.2091
Al Forno,SW19 8QN,51.4206,-0.2019
KOKORO Wimbledon,SW19 8YE,51.4217,-0.2041
Babylon,SW20 0AX,51.4096,-0.2323
FINDIJAK LIMITED,SW20 0AY,51.4099,-0.2339
HATAY RESTAURANT,SW20 0AY,51.4099,-0.2339
Kapak Turkish Resturant ,SW20 0AY,51.4099,-0.2339
Kitchenetta ltd,SW20 0LA,51.4097,-0.2310
The Olive,SW20 0LA,51.4097,-0.2310
SUNGHWA LIMITED T/A GAYA,SW20 0TW,51.4106,-0.2327
Mora Meza bar & Restaurant ,SW20 8BA,51.4089,-0.2285
Park bistro grill ,SW20 8BA,51.4089,-0.2285
Taste of Cochin,SW20 8BA,51.4089,-0.2285
Whistlestop fish and chips,SW20 8BA,51.4089,-0.2285
Costa Coffee,SW20 8JX,51.4101,-0.2124
Raka Indian cuisine ,SW20 8LX,51.4092,-0.2130
sai restaurant,SW20 8RE,51.4109,-0.2282
House Of Spice,SW20 8SF,51.4109,-0.2192
MCDONALD'S 25,SW6 1NG,51.4827,-0.2009
LA VECCHIA NAPOLI LTD,SW6 1NL,51.4852,-0.2027
SELEKT Chicken,SW6 1NN,51.4849,-0.2019
Afrik'N'Fusion,SW6 1NQ,51.4831,-0.2009
Joe & Co. Burgers,SW6 1NR,51.4832,-0.2006
Pizza at Home,SW6 1TL,51.4858,-0.2021
The Lily Tandoori,SW6 1TL,51.4858,-0.2021
IRO SUSHI ,SW6 1UD,51.4855,-0.2020
fishers fish and chips,SW6 3JH,51.4709,-0.2107
Mien Tay (Fulham) Ltd,SW6 3JJ,51.4700,-0.2101
Pappa Ciccia,SW6 3JJ,51.4700,-0.2101
Pure Fine Indian food ltd,SW6 3JJ,51.4700,-0.2101
Eight Bells,SW6 3JS,51.4681,-0.2101
Cafe Plum ,SW6 3JW,51.4687,-0.2099
The Hurlingham Club,SW6 3PR,51.4663,-0.2006
The Climbing Hangar London,SW6 4HH,51.4762,-0.2006
District,SW6 4HU,51.4749,-0.2010
Amuse Bouche,SW6 4JA,51.4749,-0.2006
Megan's by the Green,SW6 4JA,51.4749,-0.2006
Hally's,SW6 4LS,51.4727,-0.2011
Primavera Restaurant,SW6 4LY,51.4721,-0.2042
Rude Health Cafe,SW6 4NZ,51.4694,-0.2095
Cocotte,SW6 4RD,51.4722,-0.2021
nuovi sapori,SW6 4RE,51.4721,-0.2030
Meridionale,SW6 4RF,51.4720,-0.2038
Sukho fine Thai cuisine,SW6 5HJ,51.4745,-0.2065
The Little Blue Door ,SW6 5HP,51.4740,-0.2069
Boys 'N' Berry,SW6 5HQ,51.4749,-0.2062
Jack and Beyond,SW6 5RP,51.4769,-0.2034
Pappa Ciccia,SW6 5RQ,51.4761,-0.2092
the hive sw6 ,SW6 5RX,51.4756,-0.2062
MONTY SHRESTHA LIMITED t/a Monty Tandoori,SW6 5SA,51.4747,-0.2068
The Brown Cow,SW6 5SA,51.4747,-0.2068
LA PIZZICA RESTAURANT LTD,SW6 5SJ,51.4723,-0.2102
Cafe Plum ,SW6 6AW,51.4784,-0.2122
Locale,SW6 6AY,51.4788,-0.2111
Lamour,SW6 6BA,51.4799,-0.2117
Mil Kitchen,SW6 6BH,51.4822,-0.2134
BELLILLO LIMITED,SW6 6BW,51.4819,-0.2137
CONVIVIUM RESTAURANT,SW6 6BX,51.4795,-0.2120
Cafe 209,SW6 6BX,51.4795,-0.2120
Glasshouse Cafe,SW6 6EE,51.4736,-0.2132
Bishops,SW6 6TA,51.4745,-0.2136
The Mitre,SW6 7DU,51.4802,-0.2037
The Rylston ,SW6 7LW,51.4837,-0.2078
The Captain Cook,SW6 7QY,51.4811,-0.2096
VeganE,SW6 7SR,51.4853,-0.2031
Virgin Active Fulham,SW6 7ST,51.4845,-0.2088
GIL Group Ltd,SW6 7SX,51.4847,-0.2035
M Twickenham,TW1 1AX,51.4500,-0.3321
The Ailsa Tavern,TW1 1NJ,51.4603,-0.3231
Il Gusto,TW1 1PP,51.4641,-0.3235
Holly & Co,TW1 1RG,51.4559,-0.3210
Ristorante Del Posto ,TW1 1RG,51.4559,-0.3210
A Cena ,TW1 2EB,51.4561,-0.3089
QURONFLEH LIMITED,TW1 2EB,51.4561,-0.3089
tangawizi,TW1 2EB,51.4561,-0.3089
La Crêperie Bretonne,TW1 2LH,51.4550,-0.3199
St Margaret's Fish Bar Limited,TW1 2LH,51.4550,-0.3199
The Crown,TW1 2NH,51.4512,-0.3186
The Rising Sun,TW1 2NP,51.4532,-0.3135
Royal Oak,TW1 3AB,51.4487,-0.3248
Wags N Tales,TW1 3AW,51.4494,-0.3233
The Stables Cafe,TW1 3DJ,51.4470,-0.3200
WHITE SWAN (TWICKENHAM) LIMITED,TW1 3DN,51.4472,-0.3212
BRULA RESTAURANT LTD,TW1 3EJ,51.4532,-0.3185
Green Bottle Cafe,TW1 3EJ,51.4532,-0.3185
Atithi Indian Cuisine Ltd,TW1 3JZ,51.4475,-0.3274
Kathmandu Tandoori Ltd,TW1 3JZ,51.4475,-0.3274
Panas Nepalese and Indian Restaurant,TW1 3LP,51.4481,-0.3261
Naz balti,TW1 3NJ,51.4469,-0.3271
masaniello restaurant,TW1 3NJ,51.4469,-0.3271
Osteria Pulcinella,TW1 3NR,51.4467,-0.3271
TSARETTA SPICE,TW1 3NR,51.4467,-0.3271
Twickenham Tandoori ,TW1 3NR,51.4467,-0.3271
Avocado & Lemon,TW1 3RR,51.4478,-0.3285
Starbucks Twickenham,TW1 3RZ,51.4467,-0.3285
Esquires Coffee House Twickenham ,TW1 3SG,51.4452,-0.3295
SHEESH MAHAL,TW1 3SX,51.4470,-0.3285
VALENTINO & BELLISSIMO ,TW1 3SX,51.4470,-0.3285
Subway,TW1 3SZ,51.4482,-0.3294
The Press Room,TW1 3SZ,51.4482,-0.3294
CHUBA RASA,TW1 4BW,51.4454,-0.3345
Euro Cafe 2,TW1 4BW,51.4454,-0.3345
LITTLE MUMBAI ,TW1 4BW,51.4454,-0.3345
Ballaro,TW1 4BZ,51.4456,-0.3310
The Three Kings,TW1 4BZ,51.4456,-0.3310
The Albany Pub & Dining Room,TW1 4EZ,51.4482,-0.3321
Panayis Ltd t/a Fine Grind,TW1 4PP,51.4390,-0.3391
Pembroke Lodge,TW10 5HX,51.4443,-0.2941
L'Amandine,TW10 5LF,51.4313,-0.3067
ThE Dukes Head Inn,TW10 6AZ,51.4583,-0.3005
L'Amandine,TW10 6NQ,51.4552,-0.2967
Richmond Hill Bakery,TW10 6NQ,51.4552,-0.2967
Richmond Hill Hotel Operation Ltd,TW10 6RW,51.4518,-0.2971
Thai Elephant,TW10 6SD,51.4588,-0.3048
The Green Hill Kitchen,TW10 6UA,51.4579,-0.3048
The Retreat Kitchen,TW10 6UA,51.4579,-0.3048
Love Food,TW10 6UB,51.4574,-0.3040
Richmond cafe,TW10 6UB,51.4574,-0.3040
Swagat India Limited,TW10 6UB,51.4574,-0.3040
Taj Mahal Restaurant,TW10 6UH,51.4571,-0.3045
pier 1 richmond ltd,TW10 6UH,51.4571,-0.3045
GAUCHO Richmond,TW10 6UJ,51.4564,-0.3046
Caffe Paola ,TW10 6UQ,51.4579,-0.3054
Chez Lindsay,TW10 6UQ,51.4579,-0.3054
Stein's Ltd,TW10 6UX,51.4537,-0.3023
The Dysart Petersham,TW10 7AA,51.4464,-0.3006
Petersham Nurseries Cafe,TW10 7AB,51.4465,-0.3013
Petersham Nurseries Teahouse,TW10 7AB,51.4465,-0.3013
Fox & Duck,TW10 7AD,51.4452,-0.3028
The Richmond Golf Club Limited,TW10 7AS,51.4398,-0.2969
The New Inn (Ham) Limited,TW10 7DB,51.4372,-0.3049
RAILWAY PUB,TW11 0BB,51.4240,-0.3327
The Pheasantry Cafe,TW11 0EW,51.4158,-0.3313
The Shack 68,TW11 8DE,51.4308,-0.3337
Cafe Benedict,TW11 8EW,51.4270,-0.3329
Milos Cafe Limited,TW11 8EW,51.4270,-0.3329
Shambles Italian Restaurant ,TW11 8HG,51.4274,-0.3296
The Kings Head ,TW11 8HG,51.4274,-0.3296
BMG TEDDINGTON LTD,TW11 8JB,51.4272,-0.3280
One One Four,TW11 8JB,51.4272,-0.3280
The Fallow Deer Ltd,TW11 8JB,51.4272,-0.3280
ISLAY COFFEE&CAKE,TW11 8JD,51.4271,-0.3296
Starbucks  Teddington - High Street,TW11 8JD,51.4271,-0.3296
La Dolce Vita Teddington LTD,TW11 8LX,51.4326,-0.3387
The Waldegrave Arms ltd ,TW11 8LX,51.4326,-0.3387
Itabashi Limited,TW11 8PF,51.4270,-0.3374
BAR ESTILO,TW11 8QY,51.4259,-0.3369
The Hogarth,TW11 8QY,51.4259,-0.3369
Wimpy Teddington,TW11 8QY,51.4259,-0.3369
Costa Coffee,TW11 8QZ,51.4262,-0.3384
Woof Coffee,TW11 8QZ,51.4262,-0.3384
Golden Boys 88 t/a Ribs and Burgers ,TW11 8RF,51.4259,-0.3390
The Red Lion,TW11 8UD,51.4309,-0.3451
imperial  china,TW11 8UE,51.4324,-0.3456
The Lion,TW11 9DN,51.4181,-0.3187
Cafe Verde,TW11 9JD,51.4212,-0.3193
IL Preferito,TW11 9JD,51.4212,-0.3193
L'Amandine,TW11 9JD,51.4212,-0.3193
NEW HAWELI OF TEDDINGTON,TW11 9JP,51.4244,-0.3214
Lensbury Limited,TW11 9NU,51.4279,-0.3189
LA FAMILIA,TW12 1NH,51.4251,-0.3578
PIAZZA FIRENZE ,TW12 1NJ,51.4263,-0.3567
Costa Coffee,TW12 1NL,51.4283,-0.3550
Benton's Cafe,TW12 1NT,51.4288,-0.3541
Beech House Hampton Hill,TW12 1NY,51.4275,-0.3549
Costa Coffee,TW12 1NY,51.4275,-0.3549
KFC HAMPTON HILL,TW12 1NY,51.4275,-0.3549
Unico 28,TW12 1PD,51.4256,-0.3568
MONAFS,TW12 2AL,51.4156,-0.3715
THE BIG PEAR T/A PLENTY LIMITED,TW12 2AL,51.4156,-0.3715
The Bell Inn,TW12 2EA,51.4130,-0.3619
Mahirah limited,TW12 2JN,51.4220,-0.3758
The Jolly Coopers,TW12 2SJ,51.4141,-0.3612
Hampton Ale House,TW12 3RA,51.4262,-0.3760
KTM ROX ,TW13 4AB,51.4435,-0.4111
McDonald's Feltham,TW13 4AE,51.4472,-0.4096
Costa Coffee,TW13 4AU,51.4466,-0.4111
Starbucks  Feltham The Longford Centre,TW13 4BH,51.4464,-0.4112
Golden Empire,TW13 4BS,51.4457,-0.4107
KFC FELTHAM,TW13 4DX,51.4407,-0.4152
Mama Cook Restaurant,TW13 4EA,51.4413,-0.4168
100 High Street,TW13 4EX,51.4429,-0.4128
Namaste Gurkha Restaurant,TW13 4HJ,51.4399,-0.4158
KFC HANWORTH,TW13 6AW,51.4402,-0.3881
Lisboa Loja ,TW14 0JG,51.4556,-0.4092
West Kebab,TW14 0JG,51.4556,-0.4092
Nido's,TW14 0JJ,51.4564,-0.4089
BP Hattoncross ,TW14 0PR,51.4658,-0.4233
BEDFONT CAFE,TW14 8BL,51.4536,-0.4278
Rosa jose trading as o calhau ltd ,TW14 8BT,51.4535,-0.4301
Merck Serano,TW14 8HA,51.4470,-0.4464
GREGG & EVE UK LTD,TW14 8PA,51.4508,-0.4393
The Orchard Cafe and Restaurant LLP,TW14 8RU,51.4472,-0.4560
Hyderabad Express,TW14 9BP,51.4484,-0.4124
NEPALESE FOOD ZONE LIMITED,TW14 9BP,51.4484,-0.4124
nepalese food zone limited,TW14 9BP,51.4484,-0.4124
Hounslow Lahori Karahi,TW14 9DF,51.4505,-0.4072
Porto Madeira Cafe/Restaurant,TW14 9DF,51.4505,-0.4072
The Flame,TW14 9ED,51.4572,-0.4124
Papadam ltd Trading as Indian Ocean,TW15 1RP,51.4224,-0.4416
Soaltee nepalese cuisine ,TW15 2PL,51.4325,-0.4597
Kouchin ,TW15 2RX,51.4356,-0.4682
Pebbles Gelato ,TW15 2TS,51.4331,-0.4622
SHAPPI OF ASHFORD LTD,TW15 2TX,51.4328,-0.4627
Cafe and Grill ltd,TW15 2UF,51.4344,-0.4658
M2 Pizza Pasta,TW15 2UG,51.4351,-0.4661
Tamannas Restaurant,TW15 2UP,51.4355,-0.4665
Subway,TW15 2UT,51.4347,-0.4653
Two Brothers London Ltd T/A Two brothers fish house,TW15 2UY,51.4340,-0.4647
Ashford & St Peters,TW15 3AA,51.4440,-0.4728
MLS Operations Limited t/a McDonald's,TW15 3AE,51.4419,-0.4765
Kempton's Corner Cafe,TW16 5NG,51.4167,-0.4072
Indian Zest,TW16 5QF,51.4068,-0.4044
The Shahin Restaurant,TW16 5QF,51.4068,-0.4044
The White Horse,TW16 5QF,51.4068,-0.4044
The Flower Pot,TW16 6AA,51.4042,-0.4120
Moon in Moon,TW16 6AD,51.4064,-0.4063
The Phoenix,TW16 6AF,51.4060,-0.4069
Five Star Fish Bar,TW16 6JP,51.4124,-0.4274
YUm Yum Eatery,TW16 7AB,51.4198,-0.4203
Subway ,TW16 7AZ,51.4192,-0.4212
Costa Coffee,TW16 7BB,51.4187,-0.4220
KFC SUNBURY CROSS,TW16 7BB,51.4187,-0.4220
LONGACRES SHEPPERTON,TW17 0RQ,51.4055,-0.4470
the bell inn,TW17 8BT,51.4006,-0.4475
Sunbury Golf Club,TW17 8QA,51.4051,-0.4414
MAA DURGA LTD T/A SUBWAY ,TW18 1AT,51.4286,-0.4952
Cavo’s Coffee Shop Limited,TW18 1RZ,51.4102,-0.4870
The Three Horseshoes,TW18 1SE,51.4082,-0.4892
Wheatsheaf & Pigeon,TW18 2LL,51.4210,-0.5083
The Retreat ,TW18 2RT,51.4195,-0.4974
Notcutts Staines,TW18 2SF,51.4163,-0.4948
Caffe Gusto,TW18 4BJ,51.4344,-0.5120
Purple lounge ,TW18 4BY,51.4353,-0.5087
MLS Operations Limited t/a McDonald's,TW18 4DY,51.4342,-0.5115
SAFA ASSOCIATES LIMITED,TW18 4DY,51.4342,-0.5115
Starbucks Staines - High Street,TW18 4DY,51.4342,-0.5115
creams staines,TW18 4EE,51.4338,-0.5129
CHOBAB SUSHI NARA ,TW18 4EN,51.4342,-0.5147
 De Forest Ltd,TW18 4PA,51.4350,-0.5067
CHICKEN CHICKING,TW18 4PA,51.4350,-0.5067
DUCK KING-STAINES FOOD COURT,TW18 4PA,51.4350,-0.5067
Dim Sum Inn,TW18 4PA,51.4350,-0.5067
Eat Japan London Ltd,TW18 4PA,51.4350,-0.5067
Euro China Ltd T/A Staines Food Court,TW18 4PA,51.4350,-0.5067
Hui Tong International Trading Limited T/A Taste of Sichuan,TW18 4PA,51.4350,-0.5067
Koguryo Korean Restaurant,TW18 4PA,51.4350,-0.5067
Lulu Kitchen,TW18 4PA,51.4350,-0.5067
Nisa Thai Kitchen,TW18 4PA,51.4350,-0.5067
Tea plus Me ltd,TW18 4PA,51.4350,-0.5067
mb staines limited,TW18 4QB,51.4335,-0.5098
FORA MEDITERRANEAN,TW18 4QY,51.4332,-0.5135
momo cafe ,TW18 4SU,51.4338,-0.5145
MLS Operations Limited t/a McDonald's,TW18 4WA,51.4371,-0.5137
The Little Green Boat Company - Staines,TW18 4XZ,51.4360,-0.5193
the bells public house,TW18 4ZB,51.4358,-0.5184
Karellies,TW19 5DA,51.4566,-0.5547
The Perseverance,TW19 5DB,51.4568,-0.5549
The George Inn,TW19 5DE,51.4572,-0.5591
The Anchor,TW19 6AQ,51.4618,-0.5015
The Stanwell Heathrow Hotel,TW19 7PW,51.4553,-0.4826
Arthur's,TW2 5AB,51.4447,-0.3413
CAFE PERA,TW2 5AH,51.4442,-0.3467
Twickenham Cafe,TW2 5AN,51.4429,-0.3512
The Sussex Arms,TW2 5BG,51.4441,-0.3461
Brouge,TW2 5NG,51.4366,-0.3500
Squire's Garden Centre Twickenham,TW2 5PA,51.4353,-0.3519
Sopa Thai Restuarnt,TW2 5SQ,51.4389,-0.3398
Copper haandi ,TW2 6EH,51.4493,-0.3786
Stella and Sons,TW2 6EH,51.4493,-0.3786
Coffee 091,TW2 7AZ,51.4532,-0.3572
The White Hart Inn,TW2 7DY,51.4559,-0.3565
Jollys ,TW2 7EX,51.4544,-0.3584
CAFE VENICE,TW2 7LB,51.4520,-0.3577
SPICE OF INDIA,TW2 7LB,51.4520,-0.3577
Your Bakery,TW2 7LS,51.4513,-0.3583
The Runnymede on Thames Hotel and Spa,TW20 0AG,51.4375,-0.5375
Megna Tandoori restaurant ,TW20 0DB,51.4293,-0.5726
The Holly Tree,TW20 0DB,51.4293,-0.5726
The Beehive,TW20 0JQ,51.4299,-0.5608
The Barley Mow ,TW20 0NX,51.4328,-0.5750
Fox and Hounds UK Ltd,TW20 0XU,51.4395,-0.5906
subway thorpe lea road,TW20 8HP,51.4249,-0.5318
The Rose & Crown,TW20 8QL,51.4041,-0.5497
Red Lion Pub & Restaurant,TW20 8UE,51.4083,-0.5333
Golden Cafe,TW20 9DT,51.4317,-0.5516
The Red Lion,TW20 9EW,51.4319,-0.5484
Eggham On Toast,TW20 9HE,51.4329,-0.5448
KASPAS DESSERTS - EGHAM,TW20 9HN,51.4321,-0.5459
VILLA ROSA RESTAURANT,TW20 9HN,51.4321,-0.5459
Bar 163,TW20 9HP,51.4316,-0.5477
Caffe Gondola ,TW20 9HP,51.4316,-0.5477
Great Fosters Hotel,TW20 9UR,51.4170,-0.5446
KFC - Hounslow High Street,TW3 1BQ,51.4692,-0.3612
Thakers ,TW3 1BQ,51.4692,-0.3612
Adam's Cafe ,TW3 1DA,51.4684,-0.3617
Costa Coffee,TW3 1EA,51.4682,-0.3641
Mall Cafe,TW3 1ES,51.4682,-0.3630
Minoffles Ltd,TW3 1ES,51.4682,-0.3630
SOFRESH KITCHEN,TW3 1ES,51.4682,-0.3630
Georginos Caffe Italiano,TW3 1HB,51.4684,-0.3652
McDonald's Hounslow,TW3 1HE,51.4688,-0.3631
Georginos Coffee,TW3 1HG,51.4687,-0.3640
Starbucks Hounslow High Street,TW3 1HL,51.4690,-0.3622
BULSTRODE PUB LTD,TW3 1JG,51.4704,-0.3666
Ra'z al gul,TW3 1LR,51.4695,-0.3605
Costa Coffee,TW3 1NA,51.4698,-0.3591
MADRAS FLAVOURS PURE INDIAN VEGETARIAN RESTAURANT,TW3 1NA,51.4698,-0.3591
Momo and Roti,TW3 1NP,51.4710,-0.3554
Crispy Dosa Hounslow Limited,TW3 1QL,51.4693,-0.3594
SKVP (UK) LTD,TW3 1QL,51.4693,-0.3594
ARM GROUP LTD T/A SAHARA GRILL,TW3 1QT,51.4696,-0.3579
CASA DE GOA,TW3 1QT,51.4696,-0.3579
CHAMAA LIMITED,TW3 1RH,51.4704,-0.3547
Creams Hounslow,TW3 1RH,51.4704,-0.3547
FLAVORS OF INDIA LTD,TW3 1RH,51.4704,-0.3547
Hounslow indian restaurant ,TW3 1RH,51.4704,-0.3547
Bab-E-Khybar Restaurant,TW3 1RS,51.4708,-0.3531
Hounslow Lahori Karahi,TW3 1RS,51.4708,-0.3531
Shorsh ltd/ chnarok restaurant ,TW3 1UA,51.4694,-0.3575
TASTE OF LAHORE HOUNSLOW Limited,TW3 1UA,51.4694,-0.3575
Bombay wok,TW3 1UF,51.4683,-0.3602
Jamo cafe,TW3 1UF,51.4683,-0.3602
India India Whitton,TW3 2EN,51.4580,-0.3628
HungryAF,TW3 2HH,51.4593,-0.3575
hyderabadi indian cuisine limited,TW3 3DA,51.4711,-0.3801
Coffee Republic,TW3 3EB,51.4682,-0.3676
Vegology,TW3 3EB,51.4682,-0.3676
HENNY PENNY PERI PERI LTD,TW3 3JJ,51.4658,-0.3768
Ahaa Dosa ,TW3 3LF,51.4670,-0.3693
Kathmanduzone Restaurant ,TW3 3LF,51.4670,-0.3693
Dragons Peri Peri,TW3 3LL,51.4665,-0.3733
IL BEBO'S ,TW3 3LZ,51.4672,-0.3678
HONEYMOON Srilankan Ltd,TW3 3NX,51.4657,-0.3644
Aaqa foods ltd ,TW3 3PB,51.4662,-0.3644
The Royal Albion,TW3 3RP,51.4643,-0.3690
SANTOS PIZZA LIMITED,TW3 3TR,51.4660,-0.3631
CHATPATTA,TW3 4AH,51.4743,-0.3577
FLAM GR EATS LTD,TW3 4AJ,51.4750,-0.3586
Slownge,TW3 4AJ,51.4750,-0.3586
Urban kitchen ,TW3 4BD,51.4770,-0.3578
K KARAHI LTD,TW3 4EZ,51.4771,-0.3633
HANDI ROTI ,TW4 5BD,51.4643,-0.3817
ORIGINAL TASTE OF PAKISTAN LTD,TW4 5LF,51.4584,-0.3715
Jacques cafe,TW4 6AH,51.4640,-0.3902
KINGSWAY BANQUETING,TW4 7DF,51.4723,-0.3847
TAKAA TAK LTD,TW4 7DF,51.4723,-0.3847
KFC - Hounslow West,TW4 7DJ,51.4724,-0.3855
Sams Chicken,TW4 7DJ,51.4724,-0.3855
Chicken cottage ,TW4 7DN,51.4728,-0.3866
Paleta Kitchen Ltd,TW4 7EZ,51.4685,-0.3865
Karahi express,TW4 7HT,51.4736,-0.3894
Chini Chor,TW4 7HW,51.4732,-0.3879
Khan Curry Ltd ,TW4 7HW,51.4732,-0.3879
SANGEETHA VEGETARIAN RESTAURANTS LIMITED,TW4 7HW,51.4732,-0.3879
Heritage Kitchen and Bar Limited,TW4 7NW,51.4695,-0.3967
Mr Singhs Pizza,TW5 0BY,51.4785,-0.3659
T & G Gurkha Cuisine Ltd,TW5 0BY,51.4785,-0.3659
Avanti Pizza And Pasta ,TW5 0DR,51.4828,-0.3810
Heston Hyde Hotel,TW5 0EP,51.4861,-0.3811
Mimis Coffee and Dessert lounge,TW5 0PA,51.4783,-0.3721
CHACHA G LTD T/A LALA PESHAWARI,TW5 0TA,51.4795,-0.3642
Flamin grillicious ,TW5 9AW,51.4766,-0.3849
The queens head cranford,TW5 9PB,51.4850,-0.4053
Doubletree by Hilton London Heathrow,TW5 9QE,51.4802,-0.4113
Saloio Restaurant Ltd,TW5 9TL,51.4780,-0.4057
CAVIAR HOUSE & PRUNIER,TW6 1EW,51.4697,-0.4496
LEON,TW6 1EW,51.4697,-0.4496
Wondertree ,TW6 1EW,51.4697,-0.4496
Fortnum’s Bar at Heathrow Terminal 5,TW6 1QG,51.4708,-0.4583
Doug Sherry (Heathrow) Limited,TW6 2DT,51.4801,-0.4363
Amadeus,TW6 2FL,51.4805,-0.4395
CAVIAR HOUSE & PRUNIER,TW6 2GA,51.4715,-0.4873
Giraffe Stop ,TW6 2GA,51.4715,-0.4873
Pilots Bar & Kitchen,TW6 2GA,51.4715,-0.4873
Plane Food,TW6 2GA,51.4715,-0.4873
Hilton Garden Inn London Heathrow,TW6 2SQ,51.4705,-0.4145
Ballucci Coffee Bar ,TW7 4BX,51.4750,-0.3379
The Milford Arms ,TW7 4EY,51.4736,-0.3458
The Indian Gymkhana Club Ltd,TW7 4NQ,51.4807,-0.3485
MEMORIES OF INDIA OSTERLEY,TW7 4QG,51.4830,-0.3476
ORIENTAL THAI CUISINE LTD,TW7 4QG,51.4830,-0.3476
ThaiatBridgeInn,TW7 5AA,51.4751,-0.3359
Ayhan Catering Limited ,TW7 5NQ,51.4838,-0.3297
Heisenberg Coffee Co LTD,TW7 5NQ,51.4838,-0.3297
MVF RESTAURANTS LTD,TW7 5NQ,51.4838,-0.3297
Grasshoppers RFC,TW7 5PN,51.4869,-0.3364
Osterley Garden Centre,TW7 5PR,51.4916,-0.3393
Wyke Green Golf Club,TW7 5PT,51.4887,-0.3366
Papa Johns - ISLEWORTH,TW7 5XF,51.4764,-0.3300
THE CINNAMON LOUNGE (ISLEWORTH) LIMITED,TW7 6AB,51.4722,-0.3285
M&S SIMPLY FOOD,TW7 6AF,51.4736,-0.3244
TWICKENHAM SPICE,TW7 6DH,51.4705,-0.3287
The Royal Oak Pub & Dining House,TW7 6EP,51.4672,-0.3391
Town Wharf,TW7 6RJ,51.4693,-0.3228
GREEDIES ,TW7 7AA,51.4687,-0.3278
Sizlers,TW7 7DE,51.4683,-0.3255
Ing Thai Restaurant,TW8 0AH,51.4845,-0.3024
The Watermans Arms,TW8 0AW,51.4840,-0.3010
FRANCISCO PEREIRA t/a Guru Tandoori Watermans,TW8 0DS,51.4858,-0.2981
Costa Coffee,TW8 0EB,51.4882,-0.2906
The Express Tavern,TW8 0EW,51.4890,-0.2882
Rada cafe,TW8 0GD,51.4901,-0.3028
The Griffin Pub,TW8 0NP,51.4872,-0.3032
The Brook Freehouse,TW8 0NU,51.4887,-0.3033
La Rosetta,TW8 8AH,51.4834,-0.3080
China Banquet,TW8 8AQ,51.4830,-0.3107
Feather & Heart,TW8 8AQ,51.4830,-0.3107
SIRACUSA BRENTFORD LIMITED,TW8 8AQ,51.4830,-0.3107
Santa Maria,TW8 8AT,51.4829,-0.3082
Kings Arms,TW8 8EA,51.4879,-0.3109
Verdict Bakery Ltd,TW8 8EQ,51.4835,-0.3095
the Magpie and Crown ,TW8 8EW,51.4825,-0.3099
Holiday Inn Brentford Lock,TW8 8GA,51.4829,-0.3124
Holy Spice,TW8 8JB,51.4822,-0.3128
Ability Hotels (Syon Park) Ltd,TW8 8JF,51.4777,-0.3124
Birdie's Kitchen at  Syon Park,TW8 8JQ,51.4809,-0.3155
Pizza to Go A4,TW8 9AA,51.4913,-0.3058
Subway ,TW8 9DZ,51.4858,-0.3218
The Globe,TW8 9NA,51.4907,-0.3101
The Lord Nelson,TW8 9NY,51.4918,-0.3085
Whole Foods Market - Richmond,TW9 1AB,51.4608,-0.3031
AMORINO,TW9 1BP,51.4620,-0.3032
Don Fernando Restaurant,TW9 1DN,51.4623,-0.3026
Pizzeria Rustica,TW9 1DN,51.4623,-0.3026
Buenos Aires Argentine Steakhouse ,TW9 1EA,51.4616,-0.3029
Tap Tavern Richmond,TW9 1ED,51.4615,-0.3027
Ole & Steen Richmond,TW9 1HE,51.4604,-0.3055
The Britannia Richmond,TW9 1HH,51.4610,-0.3052
la creperie cinq maisons,TW9 1HH,51.4610,-0.3052
No.1A Duke Street,TW9 1HP,51.4615,-0.3042
VENCHI UK RICHMOND,TW9 1HY,51.4607,-0.3042
itsu Richmond,TW9 1HY,51.4607,-0.3042
The Angel & Crown,TW9 1JL,51.4605,-0.3041
Lassaggino,TW9 1LZ,51.4603,-0.3068
Alianti (Bonne Bouche),TW9 1ND,51.4600,-0.3069
Quality Fish Restaurant,TW9 1ND,51.4600,-0.3069
Sebastians Italian Restaurant ,TW9 1ND,51.4600,-0.3069
White Swan,TW9 1PG,51.4617,-0.3103
Diba restaurant ,TW9 1RX,51.4597,-0.3034
Rincón bar español,TW9 1RX,51.4597,-0.3034
Richmond Vault Beer Cellar and Restaurant,TW9 1SX,51.4590,-0.3063
Antipodea Richmond ,TW9 1TW,51.4586,-0.3056
UNA,TW9 1UR,51.4624,-0.2948
Butter Beans,TW9 2ND,51.4636,-0.3016
Madmax pizza,TW9 2ND,51.4636,-0.3016
Subway,TW9 2ND,51.4636,-0.3016
jojo's peri peri ,TW9 2ND,51.4636,-0.3016
Bacco restaurant   ,TW9 2NQ,51.4640,-0.3018
Thai Square Richmond,TW9 2NQ,51.4640,-0.3018
Caffe Mamma Limited,TW9 2PQ,51.4659,-0.2981
Chatora Restaurant,TW9 2PQ,51.4659,-0.2981
QBru Coffee,TW9 2PQ,51.4659,-0.2981
Rock & Rose,TW9 2PQ,51.4659,-0.2981
The Library Pot,TW9 2PQ,51.4659,-0.2981
Treviso restaurant,TW9 2PQ,51.4659,-0.2981
Katherine & Scott Clarke T/A Sun Inn,TW9 2RG,51.4633,-0.3029
Royal Mid Surrey Golf Club,TW9 2SB,51.4670,-0.3070
Richmond Events,TW9 2SF,51.4661,-0.3037
GREYHOUND PUB ,TW9 3AP,51.4853,-0.2861
Newens The Original Maids of Honour,TW9 3DU,51.4813,-0.2878
Q Verde Restaurant,TW9 3LU,51.4743,-0.2864
Rara Nepalese Dining,TW9 3LU,51.4743,-0.2864
Antipodea kew ,TW9 3QB,51.4775,-0.2857
Le petit bistrot ,TW9 3QB,51.4775,-0.2857
Tanu's Kitchen,UB1 1DW,51.5075,-0.3794
Jalebi Junction ,UB1 1LN,51.5114,-0.3807
Al Haad Limited,UB1 1LP,51.5118,-0.3826
TKC Chaudhry's ,UB1 1LR,51.5120,-0.3835
Dawat Restaurant Southall,UB1 1LX,51.5122,-0.3847
Mirch Masala Southall,UB1 1LX,51.5122,-0.3847
Spice Village ,UB1 1LX,51.5122,-0.3847
WATAN LTD,UB1 1LX,51.5122,-0.3847
Creams cafe southall,UB1 1NN,51.5124,-0.3836
Gifto Lahore Karahi,UB1 1NN,51.5124,-0.3836
KEBABISH ORIGINAL SOUTHALL LTD,UB1 1NN,51.5124,-0.3836
Aahar Indian Vegetarian Restaurant,UB1 1PS,51.5115,-0.3757
Chaat house limited ,UB1 1QF,51.5118,-0.3808
Moti Mahal Ltd,UB1 1QF,51.5118,-0.3808
chandni chowk London ltd,UB1 1QF,51.5118,-0.3808
Chini Chor,UB1 1RD,51.5088,-0.3775
Chicken Cottage - Southall,UB1 1RQ,51.5093,-0.3772
CHICK FILLER,UB1 1RT,51.5107,-0.3763
SARAVANAA BHAVAN,UB1 1SQ,51.5081,-0.3774
Wok & Karahi,UB1 1SU,51.5105,-0.3756
Madhus Southall,UB1 1SW,51.5097,-0.3761
PUNJABI JUNCTION FOODS LTD,UB1 2HD,51.5254,-0.3649
ali baba's,UB1 2NN,51.5283,-0.3727
Ali's fast food ltd,UB1 2PT,51.5189,-0.3755
Delicious Chicken Ltd,UB1 3DA,51.5109,-0.3748
chaiiwala,UB1 3DA,51.5109,-0.3748
TOPS PIZZA,UB1 3HA,51.5113,-0.3740
Churchills Uxbridge,UB10 0AD,51.5391,-0.4735
Vine Inn,UB10 0JQ,51.5354,-0.4612
Gumbarestaurant,UB10 0LH,51.5308,-0.4483
Zaza's Lebanese Cuisine,UB10 0LH,51.5308,-0.4483
GIA CORP FOODS UK LTD,UB10 0LJ,51.5314,-0.4493
Star of India,UB10 0LZ,51.5291,-0.4446
Tamara Lounge Limited,UB10 0NA,51.5289,-0.4439
Tropics Grill and Bites LTD,UB10 0NS,51.5286,-0.4446
KFC HILLINGDON,UB10 0PD,51.5298,-0.4473
Wonder Cafe,UB10 0PH,51.5313,-0.4517
Uxbridge Golf Club,UB10 8AQ,51.5680,-0.4690
Burgerbey,UB10 8DG,51.5649,-0.4462
DARJEELING TANDOORI,UB10 8LH,51.5689,-0.4399
PANGS CHINESE RESTAURANT,UB10 9JY,51.5509,-0.4494
Swallow Tavern Ltd.,UB10 9NR,51.5538,-0.4488
Soul Deli,UB11 1AF,51.5117,-0.4430
Mehfil ,UB2 4AR,51.5035,-0.3800
Lahori Savour Limited,UB2 4BG,51.5035,-0.3810
NEW ASIAN TANDOORI CENTRE LIMITED,UB2 4BQ,51.5025,-0.3818
The Plough Pub,UB2 4LG,51.4951,-0.3660
NAGMA RESTAURANT,UB2 5AB,51.5022,-0.3843
Rivercity Curry and Pizza ,UB2 5AS,51.5029,-0.3880
THE SCOTSMAN,UB2 5DE,51.5023,-0.3924
brilliant restaurant ,UB2 5DZ,51.5006,-0.3881
Prince of Wales,UB2 5ED,51.4993,-0.3914
Mercure London Heathrow,UB3 1LP,51.4942,-0.4307
The great western ,UB3 1NF,51.4973,-0.4306
Papa Johns - HAYES,UB3 2AA,51.5075,-0.4188
Ali Pizza and Grill Ltd,UB3 2HW,51.5075,-0.4181
Subway,UB3 2HW,51.5075,-0.4181
Royal Peri Peri & Pizza,UB3 3EP,51.5079,-0.4163
Nandini Foods,UB3 3ES,51.5087,-0.4154
 P P LOUNGE & BAR LTD,UB3 3HE,51.5104,-0.4137
PIND PUNJABI LTD,UB3 3HF,51.5108,-0.4134
Southall ,UB3 3NF,51.5046,-0.4078
Loaded Burgers Hayes,UB3 4BQ,51.5040,-0.4196
Costa Coffee,UB3 4DA,51.5066,-0.4193
The Village Cafe ,UB3 4FE,51.5037,-0.4190
Takka tak hayes,UB3 4FL,51.5033,-0.4191
CURRY DELIGHT LTD,UB3 4JA,51.5010,-0.4239
Madhus Heathrow,UB3 5BP,51.4815,-0.4367
The White Hart,UB3 5DP,51.4892,-0.4358
HEATHROW TANDOORI LTD,UB3 5DU,51.4855,-0.4349
The flying egg cafe,UB3 5DU,51.4855,-0.4349
Dawley chicken,UB4 0JH,51.5150,-0.3951
Desi Tadka Uk Ltd,UB4 0JH,51.5150,-0.3951
G.K Trading LTD,UB4 0NG,51.5166,-0.3919
CHACHA CHAIWALA,UB4 0RJ,51.5228,-0.4212
DAWAT LIMITED,UB4 0RJ,51.5228,-0.4212
Ye Olde Crowne ,UB4 0RJ,51.5228,-0.4212
Karahi Junction,UB4 0RU,51.5206,-0.4148
HAJVERI KEBAB AND GRILL,UB4 0RW,51.5220,-0.4185
Coco Kitchens,UB4 0RX,51.5202,-0.4139
KFC Hayes End,UB4 0RY,51.5196,-0.4124
sarasas hayes ltd,UB4 0RY,51.5196,-0.4124
Big boy pizza,UB4 0SE,51.5181,-0.4074
the carpenters arms,UB4 8JJ,51.5264,-0.4371
Millenium Restaurant,UB4 9AD,51.5268,-0.3997
Lock & Quay,UB4 9TA,51.5222,-0.3838
The codfather,UB5 4RU,51.5512,-0.3505
KFC NORTHOLT,UB5 5BJ,51.5451,-0.3728
WISH LOUNGE,UB5 5QJ,51.5459,-0.3623
Blue Orchid Restaurant & Bar,UB5 6AT,51.5323,-0.3759
Tyme on the Waterfront,UB5 6FP,51.5291,-0.3783
SAIVA FOODS LIMITED,UB6 0HH,51.5499,-0.3394
Brokengate cafe,UB6 0HY,51.5560,-0.3368
Chicken Cottage Sudbury Hill ,UB6 0HY,51.5560,-0.3368
Odeon Tandoori LTD T/A Sundarban,UB6 0LZ,51.5518,-0.3191
McDonald's Greenford,UB6 0UW,51.5419,-0.3403
Amasi Lounge Ltd,UB6 7JD,51.5364,-0.3149
Kluseczka Ltd,UB6 7LA,51.5382,-0.3164
Royal Nawaab London,UB6 8DW,51.5338,-0.3189
Bake Station LTD,UB6 8PP,51.5411,-0.3475
Punjabi kitchen ,UB6 8SH,51.5289,-0.3513
Costa Coffee,UB6 9BE,51.5269,-0.3529
Subway,UB6 9PZ,51.5286,-0.3549
KOZ OCAKBASI RESTAURANT ,UB6 9RU,51.5308,-0.3641
CINTIAS CAFE,UB7 0AE,51.4898,-0.4745
Crown Harmondsworth,UB7 0AJ,51.4886,-0.4780
Hyatt Place Heathrow,UB7 0DG,51.4833,-0.4673
Kitchen Palace Limited,UB7 0DH,51.4820,-0.4754
Sipson Public House Limited,UB7 0HW,51.4935,-0.4579
hollywood pizza & chicken,UB7 7BD,51.5141,-0.4732
go sing Chinese restaurant,UB7 7BY,51.5091,-0.4742
KFC Yiewsley,UB7 7DS,51.5125,-0.4722
PALACE TANDOORI WD LTD,UB7 7LT,51.5074,-0.4716
REGAL SUB LTD,UB7 7QL,51.5138,-0.4736
Riverside Hotel,UB7 7RT,51.5146,-0.4818
Hooked Fish and Chips,UB7 8EY,51.5137,-0.4715
SMOKY BOYS,UB7 8HP,51.5112,-0.4629
Novotel London Heathrow,UB7 9HJ,51.4975,-0.4559
Martins Place,UB8 1AB,51.5454,-0.4806
The Raj Restaurant ,UB8 1AB,51.5454,-0.4806
windsor cafe,UB8 1AB,51.5454,-0.4806
Caffe Kix The Clubhouse,UB8 1DH,51.5559,-0.4803
Wrapchic Uxbridge,UB8 1GA,51.5456,-0.4767
JAVITRI,UB8 1JA,51.5498,-0.4822
Coffee break ,UB8 1JN,51.5453,-0.4783
Kokoro Hana Ltd,UB8 1JN,51.5453,-0.4783
Subway Uxbridge,UB8 1JX,51.5477,-0.4805
Pop-In Franks coffee shop Uxbridge Station ,UB8 1JZ,51.5463,-0.4786
Cocina,UB8 1LB,51.5451,-0.4766
Subway Uxbridge,UB8 1LD,51.5444,-0.4747
PERI PERI COTTAGE,UB8 1LE,51.5441,-0.4741
Granny Cafe,UB8 1LG,51.5446,-0.4767
Popiandy's,UB8 1LH,51.5460,-0.4808
KFC THE PAVILLION,UB8 1LN,51.5470,-0.4816
Crown & Treaty,UB8 1LU,51.5500,-0.4844
Gooey Waffle,UB8 1QS,51.5477,-0.4793
Creams Cafe Uxbridge,UB8 1QT,51.5480,-0.4785
NABRASA Limited,UB8 1RG,51.5468,-0.4788
The 3 Steps ,UB8 2DX,51.5299,-0.4824
Herbies Pizza & Burgers,UB8 2EN,51.5279,-0.4812
Lady Marmalade Cafe,UB8 2HL,51.5226,-0.4812
The WatersEdge Restaurant,UB8 2JS,51.5200,-0.4831
MJ’s Fish Bar,UB8 2LX,51.5395,-0.4814
S E Punjabi Flavours ,UB8 2NL,51.5310,-0.4821
THE DOLPHIN,UB8 2UB,51.5441,-0.4879
The General Eliott Limited ,UB8 2UR,51.5410,-0.4910
A M SAHARA CITY LTD,UB8 3HX,51.5333,-0.4560
Jinli Chinese Restaurant,UB8 3NJ,51.5260,-0.4585
KFC Uxbridge,UB9 4DW,51.5582,-0.4920
The King Denham,UB9 5AE,51.5686,-0.5012
Da remo restaurant,UB9 5BE,51.5727,-0.4986
David Brench T/A The Falcon Inn,UB9 5BE,51.5727,-0.4986
The Green Man,UB9 5BH,51.5731,-0.4986
The Swan Inn ,UB9 5BH,51.5731,-0.4986
DENHAM GROVE HOTEL,UB9 5DG,51.5984,-0.5117
Monk Restaurant ,UB9 5ET,51.5798,-0.4996
The Riverside Cafe,UB9 5PG,51.5703,-0.4853
The Kings Arms (Harefield) Limited,UB9 6BJ,51.6046,-0.4836
NABAB RESTAURANT,UB9 6BU,51.6035,-0.4825
The Harefield,UB9 6BY,51.6020,-0.4832
BREAKSPEAR ARMS LIMITED,UB9 6LT,51.5793,-0.4484
The Bear on the Barge,UB9 6PE,51.5888,-0.4817
Grill Guys,W10 4AE,51.5290,-0.2163
The Paradise by Way of Kensal Rise,W10 4AE,51.5290,-0.2163
Ida restaurant,W10 4AT,51.5318,-0.2112
Asian Bistro Cafe ,W10 5AP,51.5255,-0.2113
Flora,W10 5BU,51.5265,-0.2150
The Eagle,W10 5LP,51.5227,-0.2129
CAFE FLUENCE,W10 5NE,51.5174,-0.2098
SNAPS & RYE,W10 5NL,51.5215,-0.2088
Zayane ,W10 5NL,51.5215,-0.2088
Panella London ,W10 5NY,51.5236,-0.2061
Laylow,W10 5PE,51.5242,-0.2059
MARAMIA CAFE,W10 5PR,51.5226,-0.2077
POLOK LONDON LIMITED,W10 5PR,51.5226,-0.2077
Golborne Deli ,W10 5PS,51.5218,-0.2090
Babajani ,W10 5RU,51.5214,-0.2099
Bluebelles of Portobello ,W10 5RU,51.5214,-0.2099
345 Portobello Road,W10 5SA,51.5214,-0.2106
Lowry&Baker ,W10 5SA,51.5214,-0.2106
Lisa's Italian Kitchen & Bar,W10 5TD,51.5192,-0.2078
THAI RICE,W10 5TD,51.5192,-0.2078
Streetorganic ,W10 5TZ,51.5183,-0.2067
Ritto's,W10 6HJ,51.5174,-0.2103
Roosters Piri Piri,W10 6HJ,51.5174,-0.2103
PORTOBELLO HOUSE LTD,W10 6HQ,51.5194,-0.2115
Garden Bar,W10 6SZ,51.5124,-0.2180
CARACTERE,W11 1EA,51.5177,-0.2011
Conscience Kitchen,W11 1HE,51.5184,-0.2043
THE ITALIAN JOB NOTTING HILL,W11 1HE,51.5184,-0.2043
The Chipping Forecast,W11 1HE,51.5184,-0.2043
The Little Yellow Door,W11 1HH,51.5179,-0.2035
BLAKES ,W11 1LA,51.5165,-0.2052
The Distillery,W11 1LA,51.5165,-0.2052
Made in Greece Ltd,W11 1LJ,51.5172,-0.2058
TASTE OF JAPAN LTD,W11 1LL,51.5179,-0.2064
Portobello Garden,W11 1LR,51.5178,-0.2067
Saporitalia,W11 1LR,51.5178,-0.2067
Brown Rice ,W11 1LU,51.5163,-0.2055
E&O,W11 1NN,51.5159,-0.2056
Good Life Eatery,W11 1NN,51.5159,-0.2056
Mikes Cafe ,W11 1NN,51.5159,-0.2056
ESSENZA LIMITED,W11 1NR,51.5162,-0.2061
FEZ MANGAL,W11 1PY,51.5165,-0.2090
Pizzaiolo Portobello road Ltd,W11 1QR,51.5179,-0.2053
Trailer Happiness,W11 2DY,51.5142,-0.2042
Eggslut,W11 2ED,51.5155,-0.2051
Electric House and Diner,W11 2ED,51.5155,-0.2051
Tonkotsu Notting Hill,W11 2EE,51.5157,-0.2054
Mediterraneo,W11 2EU,51.5152,-0.2059
Orasay Restaurant,W11 2EU,51.5152,-0.2059
Osteria Basilico,W11 2EU,51.5152,-0.2059
Earl of Lonsdale,W11 2QA,51.5133,-0.2034
Bodyism Global Ltd,W11 2RH,51.5145,-0.2005
Chucs Westbourne Grove,W11 2RH,51.5145,-0.2005
Daylesford Organic Notting Hill,W11 2RH,51.5145,-0.2005
LA PICCOLA DELI HOLLAND PARK LTD,W11 3AA,51.5072,-0.2069
MELT CHOCOLATES LIMITED,W11 3AA,51.5072,-0.2069
Farm Girl - Notting Hill,W11 3DB,51.5119,-0.2009
BELUGA Persian Grill,W11 3LF,51.5084,-0.2001
cottons Notting hill gate ,W11 3LF,51.5084,-0.2001
Paul UK Ltd - Holland Park,W11 3RB,51.5073,-0.2064
JULIES RESTAURANT,W11 4LW,51.5100,-0.2106
Hilton London Kensington,W11 4UL,51.5051,-0.2133
Bridgeo Co Ltd,W12 0BJ,51.5155,-0.2467
Proud Marys Cafe,W12 0JD,51.5074,-0.2369
LITTLE NAPOLI,W12 0NR,51.5066,-0.2379
Wild Thyme,W12 0PQ,51.5082,-0.2387
QPR CAFE,W12 7DA,51.5115,-0.2346
Albertine Wine Bar & Restaurant,W12 7DP,51.5065,-0.2249
Butterscotch London White City,W12 7FQ,51.5141,-0.2271
Flying Horse Coffee,W12 7FR,51.5108,-0.2352
Homeslice White City,W12 7FR,51.5108,-0.2352
Kricket TVC Limited,W12 7FR,51.5108,-0.2352
Patty and Bun,W12 7FR,51.5108,-0.2352
White City House,W12 7FR,51.5108,-0.2352
Balans,W12 7GA,51.5072,-0.2232
Busaba Westfield London,W12 7GA,51.5072,-0.2232
Pastaio Restaurant,W12 7GA,51.5072,-0.2232
Beltane&Pop,W12 7GB,51.5076,-0.2213
Cabana White City,W12 7GB,51.5076,-0.2213
Snog Frozen Yogurt,W12 7GB,51.5076,-0.2213
The Real Greek,W12 7GB,51.5076,-0.2213
Wahaca White City,W12 7GB,51.5076,-0.2213
CAFFE CONCERTO - WESTFIELD BALCONY,W12 7GE,51.5081,-0.2237
CAFFE CONCERTO - WESTFIELD VILLAGE,W12 7GE,51.5081,-0.2237
Catch Me,W12 7GE,51.5081,-0.2237
Comptoir Westfield,W12 7GE,51.5081,-0.2237
CrepeAffaire Westfield Shepherds Bush,W12 7GE,51.5081,-0.2237
Dirty Vegan,W12 7GE,51.5081,-0.2237
Seoul Bird Westfield London Ltd,W12 7GE,51.5081,-0.2237
THE GRAND CAFE - WESTFIELD,W12 7GE,51.5081,-0.2237
Indigo Rasoi,W12 7GF,51.5081,-0.2237
Kernel & Roast,W12 7GF,51.5081,-0.2237
Master Bao,W12 7GF,51.5081,-0.2237
Morty and Bobs,W12 7GF,51.5081,-0.2237
Pan-N-Ice Ltd,W12 7GF,51.5081,-0.2237
Pizza Pilgrims Westfield London,W12 7GF,51.5081,-0.2237
Puttshack White City,W12 7GF,51.5081,-0.2237
SOHO Coffee Shops Limited Westfield,W12 7GF,51.5081,-0.2237
Snowflake Gelato Westfield,W12 7GF,51.5081,-0.2237
SushiDog,W12 7GF,51.5081,-0.2237
Wafflemeister White City,W12 7GF,51.5081,-0.2237
itsu Westfield White City,W12 7GF,51.5081,-0.2237
All Star Lanes - White City,W12 7HB,51.5065,-0.2291
Ichiba UK Ltd,W12 7HB,51.5065,-0.2291
Westwood Sports Pub & Kitchen,W12 7HB,51.5065,-0.2291
Barino,W12 7HT,51.5065,-0.2291
Ole & Steen Westfield,W12 7HT,51.5065,-0.2291
Al Dimashqi Ltd,W12 7JA,51.5062,-0.2296
Crispy Plus,W12 7JA,51.5062,-0.2296
German Doner Kebab,W12 7JD,51.5059,-0.2274
Creams Cafe,W12 7JP,51.5055,-0.2255
Prairie Fire at The Wood Lane Arches,W12 7LH,51.5065,-0.2317
Esarn Kheaw,W12 7LJ,51.5066,-0.2317
Dutch Kebab House,W12 7LL,51.5066,-0.2341
BA White city ,W12 7RQ,51.5120,-0.2223
Spaghetti House,W12 7SL,51.5096,-0.2241
Tapas Revolution Westfield White City,W12 7SL,51.5096,-0.2241
You Me Sushi  ,W12 7SL,51.5096,-0.2241
The Athenian - White City,W12 7TU,51.5134,-0.2279
Amigos Burgers and Shakes,W12 8AA,51.5051,-0.2231
LA CREMA,W12 8AA,51.5051,-0.2231
MEZE HARANA LTD,W12 8AA,51.5051,-0.2231
Siirgista Bros,W12 8AA,51.5051,-0.2231
Falafel Hut,W12 8DG,51.5044,-0.2267
Jasmine Thai Restaurant ,W12 8DH,51.5028,-0.2253
SXG WEST LONDON LIMITED,W12 8DH,51.5028,-0.2253
Swallow Coffee Shop,W12 8EG,51.5021,-0.2274
KATHMANDU INN,W12 8ET,51.4998,-0.2376
Fait Maison 2 ltd,W12 8EU,51.4991,-0.2410
www.bertotti.co.uk,W12 8HD,51.5021,-0.2293
Rajput Restaurant ,W12 8HH,51.5018,-0.2306
ABU ZAAD RESTAURANT ,W12 8LH,51.5056,-0.2276
woody grill,W12 8LJ,51.5050,-0.2255
Chop Chop Noodle Bar,W12 8LP,51.5046,-0.2198
Costa Coffee,W12 8LP,51.5046,-0.2198
KFC SHEPHERD'S BUSH,W12 8LR,51.5048,-0.2210
Nepal Authentic Dining,W12 8NL,51.5062,-0.2332
MRBAKLAWA LTD,W12 8NR,51.5061,-0.2314
Vine Leaves Taverna,W12 8NR,51.5061,-0.2314
Bagel Bite,W12 8PH,51.5039,-0.2194
Belushi's Bar Shepherds Bush,W12 8PH,51.5039,-0.2194
Roosters Piri Piri (Shepherds Bush) Branch,W12 8PH,51.5039,-0.2194
AROMA,W12 8PP,51.5039,-0.2192
SHIKUMEN,W12 8QE,51.5041,-0.2247
Bocconi restaurant ,W12 8QQ,51.5027,-0.2245
GOOD TASTY LTD,W12 8QQ,51.5027,-0.2245
Ho-ja,W12 8QQ,51.5027,-0.2245
Mikawa Japanese,W12 8QQ,51.5027,-0.2245
Cafe louche ,W12 9AU,51.5022,-0.2423
Som Tam Thai Restaurant,W12 9AU,51.5022,-0.2423
FERDOWSI LIMITED,W12 9BJ,51.5038,-0.2438
Beirut meza,W12 9BL,51.5028,-0.2434
Costa Coffee,W12 9BL,51.5028,-0.2434
Happy Sky Bakery Ltd,W12 9BL,51.5028,-0.2434
MONKEY TEMPLE,W12 9BL,51.5028,-0.2434
The Orchard Tavern,W12 9BP,51.5019,-0.2423
The Princess Victoria,W12 9DH,51.5063,-0.2403
KFC ACTON VALE,W12 9RA,51.5062,-0.2382
Kingston 20 Caribbean mix cuisine limited ,W12 9RA,51.5062,-0.2382
Yasham,W13 0SR,51.5110,-0.3200
ABU ZAAD RESTAURANT ,W13 0SU,51.5107,-0.3222
BURGER KING-Broadway London,W13 0SU,51.5107,-0.3222
GERMAN DONER KEBAB,W13 0SU,51.5107,-0.3222
Subway,W13 0SU,51.5107,-0.3222
Costa Coffee,W13 0SY,51.5102,-0.3250
The old hat ,W13 0SY,51.5102,-0.3250
UK FAST FOOD LTD,W13 0SY,51.5102,-0.3250
Ealing Balti House,W13 0TL,51.5098,-0.3279
Papa Johns - WEST EALING,W13 0TL,51.5098,-0.3279
Mumbai Avenue,W13 8JR,51.5153,-0.3199
Molana Restaurant,W13 8RA,51.5117,-0.3150
EALING MANGAL,W13 9AA,51.5110,-0.3178
Haweli,W13 9AU,51.5113,-0.3160
Persian Palace Ltd,W13 9AU,51.5113,-0.3160
ERAM SHISHLIK,W13 9BD,51.5114,-0.3146
Laguna Restaurant,W13 9BD,51.5114,-0.3146
KFC WEST EALING,W13 9BE,51.5094,-0.3274
BURGER HOUSE EALING LTD,W13 9BP,51.5099,-0.3246
Darachan Yakorn,W13 9EP,51.5060,-0.3211
Sikulo Restaurant,W13 9QR,51.5034,-0.3171
MIRAL LTD,W13 9QT,51.5023,-0.3160
PAPAYA ,W13 9QT,51.5023,-0.3160
Patri Northfields,W13 9QT,51.5023,-0.3160
broneks fish restaurant ,W13 9QT,51.5023,-0.3160
maxim restaurant,W13 9QT,51.5023,-0.3160
PASTA DI PIAZZA,W13 9QU,51.5005,-0.3151
Mamas,W13 9RL,51.5046,-0.3192
Kathmandu Nepalese Cuisine,W13 9RR,51.5040,-0.3184
Monty’s Tandoori Restaurant,W13 9RR,51.5040,-0.3184
Patri Cafe,W13 9RR,51.5040,-0.3184
Spice Magic,W13 9RT,51.5028,-0.3169
Happy Coffee and tea house,W13 9SB,51.5015,-0.3160
Coterie Catering Ltd,W14 0EE,51.5027,-0.2185
Chez abir,W14 0HA,51.4972,-0.2131
The Jameson London Ltd,W14 0HR,51.4971,-0.2162
Wraps and Wings,W14 0PP,51.4972,-0.2122
L'Elysee Artisan Cafe,W14 0QH,51.4946,-0.2120
Nang Thai Restaurant,W14 0QL,51.4940,-0.2138
The Melody Restaurant,W14 0QL,51.4940,-0.2138
INDIAN EXPRESS TAKEAWAY LTD,W14 0SJ,51.4933,-0.2089
Wassouf Lounge,W14 0SJ,51.4933,-0.2089
THE CROWN AND SCEPTRE,W14 8BA,51.4976,-0.2070
Hilton London Olympia Hotel,W14 8NL,51.4965,-0.2078
Samad Al-Iraqi Restaurant,W14 8NZ,51.4983,-0.2019
Chapata Exquisite Indian Cuisine,W14 8PS,51.4952,-0.2030
Warwick Arms,W14 8PS,51.4952,-0.2030
Fitaly ,W14 8QA,51.4961,-0.2064
Hare and Tortoise,W14 8QZ,51.4968,-0.2050
The Cumberland Arms,W14 8SZ,51.4941,-0.2099
AB BAR LTD,W14 8TQ,51.4922,-0.2069
Pergola Olympia,W14 8UX,51.4966,-0.2106
cedarberry stirling limited,W14 8UX,51.4966,-0.2106
Espress-Mo,W14 8UZ,51.4952,-0.2108
Cafe Del Mundo ,W14 8XJ,51.4958,-0.2084
MIRAN MASALA,W14 8XJ,51.4958,-0.2084
C'est ici Ltd,W14 9EB,51.4892,-0.2129
Cafe Continente,W14 9EP,51.4912,-0.2073
Costa Coffee,W14 9EX,51.4898,-0.2066
New Mangal,W14 9EX,51.4898,-0.2066
Albalou restaurant ,W14 9NH,51.4916,-0.2071
Bonjour Brioche ,W14 9NL,51.4901,-0.2062
Coffee Underground,W14 9NL,51.4901,-0.2062
222 Vegan Cuisine,W14 9NU,51.4859,-0.2030
Pitanga,W14 9NX,51.4868,-0.2036
The Elm Pub,W14 9NX,51.4868,-0.2036
The Grill House & Pizza,W14 9NX,51.4868,-0.2036
Colton Arms,W14 9SD,51.4866,-0.2105
Stone’s Fish & Grill ,W3 0BU,51.5190,-0.2658
Costa Coffee Park Royal,W3 0PA,51.5253,-0.2813
KFC PARK ROYAL,W3 0PA,51.5253,-0.2813
Subway Park Royal,W3 0PA,51.5253,-0.2813
Basrah Lounge,W3 0SL,51.5250,-0.2831
Buono,W3 6AY,51.5085,-0.2658
Hungry Pizza ltd,W3 6AY,51.5085,-0.2658
Taj Indian Restaurant ,W3 6BY,51.5084,-0.2693
hasu sushi,W3 6BY,51.5084,-0.2693
Roasted,W3 6DH,51.5085,-0.2686
Zio Tim's Pizzeria LTD,W3 6DH,51.5085,-0.2686
Fed & Watered,W3 6EB,51.5089,-0.2650
chicking,W3 6LP,51.5069,-0.2707
The Coffee house   (Trading Name),W3 6LY,51.5066,-0.2689
COFFEE AND RESTAURANT KOD PIRKETA,W3 6ND,51.5065,-0.2658
Alnakhlah Lounge Limited,W3 6NG,51.5064,-0.2646
London Guest House,W3 6PP,51.5138,-0.2699
Costa Coffee,W3 6QX,51.5069,-0.2686
Holiday Inn London West,W3 6RT,51.5217,-0.2611
Costa Coffee,W3 6UL,51.5226,-0.2591
Papa Johns - ACTON,W3 6UU,51.5213,-0.2573
Jeton,W3 7LD,51.5080,-0.2549
Putt in the  Park ,W3 7LL,51.5093,-0.2618
LEWIS COFFEE SHOP LTD,W3 7RH,51.5064,-0.2552
More Munchies,W3 7RQ,51.5064,-0.2540
chapati club,W3 7RQ,51.5064,-0.2540
Grill Shack and Tiki Bar,W3 7SH,51.5065,-0.2470
Nonna Lina Pizzeria,W3 7TZ,51.5142,-0.2511
AQUARIUM PERSIAN RESTAURANT LIMITED,W3 8HR,51.5023,-0.2815
Casereccio,W3 8HR,51.5023,-0.2815
Jubraj Indian Cuisine,W3 9BD,51.5014,-0.2852
PERI PERI ORIGINAL,W3 9BY,51.5080,-0.2744
Lahore Local Limited,W3 9QU,51.5082,-0.2779
Big gun,W3 9RH,51.5082,-0.2806
The Post Room Cafe,W4 1LD,51.4964,-0.2561
Lara Restaurant,W4 1LS,51.4955,-0.2550
WAFT COFFEE,W4 1PD,51.4928,-0.2582
Michael Nadra Brasserie Chiswick,W4 1PE,51.4935,-0.2562
TARANTELLA,W4 1PE,51.4935,-0.2562
Nikki's bakery,W4 1PP,51.4928,-0.2558
Hare and Tortoise,W4 1PR,51.4929,-0.2545
High Road House Club and Brasserie,W4 1PR,51.4929,-0.2545
Angies Little Food Shop,W4 1PU,51.4930,-0.2529
D grande,W4 1PU,51.4930,-0.2529
The Roebuck,W4 1PU,51.4930,-0.2529
Buenos Aires Argentine Steakhouse ,W4 1QP,51.4934,-0.2551
Foubert's,W4 1QP,51.4934,-0.2551
Chief Coffee,W4 1QU,51.4940,-0.2548
You Me Sushi  ,W4 1RG,51.4934,-0.2555
Pizza treat ,W4 1RP,51.4942,-0.2555
KFC CHISWICK,W4 1SH,51.4931,-0.2510
Piano restaurant ,W4 1SY,51.4934,-0.2495
Villa di Geggiano,W4 1SY,51.4934,-0.2495
Shams Limited,W4 1TE,51.4936,-0.2470
Kalamari,W4 1TH,51.4936,-0.2456
Ngon,W4 2DR,51.4922,-0.2571
No.197 Chiswick Fire Station,W4 2DR,51.4922,-0.2571
CHATEAU,W4 2DW,51.4923,-0.2594
ANNAPURNA RESTAURANT (CHISWICK) LTD,W4 2ED,51.4927,-0.2533
PARLE PANTRY,W4 2ED,51.4927,-0.2533
Outsider Tart,W4 2EF,51.4927,-0.2521
RESTAURANT NAPOLI ON THE ROAD,W4 2EU,51.4919,-0.2561
THE ITALIAN JOB CHISWICK,W4 2EU,51.4919,-0.2561
Urban Pantry,W4 2EU,51.4919,-0.2561
Ok Bridal ltd,W4 2HD,51.4918,-0.2557
Vinoteca Chiswick,W4 2HD,51.4918,-0.2557
Zio Tim's Pizzeria LTD,W4 2NW,51.4918,-0.2479
George and Devonshire,W4 2QE,51.4864,-0.2521
Chiswick House Cafe,W4 2RP,51.4861,-0.2574
The Chiswick Pavilion,W4 2SP,51.4791,-0.2585
Virgin Active Chiswick Riverside,W4 2SX,51.4755,-0.2563
Bridge Cafe,W4 3AG,51.4898,-0.2856
Cluck Yeah!,W4 3AG,51.4898,-0.2856
Rowans Cafe Bar,W4 3AG,51.4898,-0.2856
Little Bird Chiswick,W4 3HD,51.4816,-0.2677
PEPPERS CHISWICK LIMITED,W4 3JY,51.4866,-0.2714
Yupa's Thai,W4 3JY,51.4866,-0.2714
the copper cow,W4 3JY,51.4866,-0.2714
La Vera Napoli pizzeria ,W4 3NQ,51.4881,-0.2869
The Strand Restaurant Limited,W4 3NQ,51.4881,-0.2869
Annies,W4 3QS,51.4846,-0.2775
The Coffee Traveller,W4 3RE,51.4864,-0.2804
Cafe Grove Park Ltd,W4 3RS,51.4819,-0.2700
RiCE Persian Kitchen,W4 4HH,51.4926,-0.2676
The Catch of Chiswick (Fish N' Chips),W4 4HH,51.4926,-0.2676
Queens Head Chiswick,W4 4LD,51.4892,-0.2702
Cafe Plum ,W4 4PH,51.4918,-0.2618
Subway,W4 4PU,51.4922,-0.2619
OSCKARS ,W4 5DG,51.5018,-0.2655
Yuma Sushi Limited,W4 5EB,51.4944,-0.2677
The Swan,W4 5HH,51.4979,-0.2656
Le Vacherin,W4 5LF,51.4964,-0.2644
The Gunnersbury Pub,W4 5RP,51.4925,-0.2759
Clayton Hotel Chiswick,W4 5RY,51.4925,-0.2785
AMAR CAFE,W4 5TF,51.4928,-0.2655
Crepeaffaire,W4 5TF,51.4928,-0.2655
Wild Bunch juicery ,W4 5TF,51.4928,-0.2655
CHISWICK HOTHOUSE LIMITED,W4 5TT,51.4930,-0.2683
FAANOOS 2 LTD,W4 5TT,51.4930,-0.2683
Kuyamoto ,W4 5TT,51.4930,-0.2683
MALENI LTD T/A CAFE PARADISO,W4 5TT,51.4930,-0.2683
Wine Food Market London Limited,W4 5TT,51.4930,-0.2683
Maggie and Rose (Chiswick) Ltd,W4 5UJ,51.4929,-0.2644
QVC UK,W4 5XU,51.4957,-0.2737
DS CHISOU EXPRESS LTD.,W4 5YA,51.4947,-0.2760
HH Street Hotel LTD,W4 5YA,51.4947,-0.2760
WOLFCO CP ONE LTD,W4 5YA,51.4947,-0.2760
bartlett mitchell,W4 5YB,51.4940,-0.2754
International S O S Assistance UK,W4 5YE,51.4953,-0.2764
Source Foods,W4 5YF,51.4959,-0.2756
Mcdonald's Alperton,W5 1DN,51.5332,-0.2968
Nosh 'n' Go ltd,W5 1EE,51.5315,-0.2924
saray palace restaurant,W5 1EE,51.5315,-0.2924
 GOURMANDISE,W5 1ET,51.5295,-0.2932
Crown hotel ltd,W5 1HG,51.4966,-0.2560
ONE ONE FOUR THE LANE LTD,W5 1QP,51.5265,-0.3128
Atlantis Greek Restaurant,W5 1QX,51.5261,-0.3142
Pizza house and Mediterranean Restaurant ,W5 1QX,51.5261,-0.3142
Cafe Rendezvous,W5 2HL,51.5133,-0.3089
The Haven Arms,W5 2HZ,51.5170,-0.2999
Curious Roo Ealing,W5 2NH,51.5138,-0.3034
Bagel Bite,W5 2NT,51.5147,-0.3026
Subway (Ealing Broadway),W5 2NT,51.5147,-0.3026
Electric Coffee Co,W5 2NX,51.5155,-0.3020
Hare and Tortoise,W5 2NX,51.5155,-0.3020
Laroash,W5 2NX,51.5155,-0.3020
Rosa's Thai Cafe,W5 2NX,51.5155,-0.3020
Sidi Bou,W5 2NX,51.5155,-0.3020
Steak On The Green,W5 2NX,51.5155,-0.3020
WA Japanese Patisserie,W5 2NX,51.5155,-0.3020
Wine and Mousaka Restaurant,W5 2NY,51.5160,-0.3016
Fireaway pizza ealing,W5 2PJ,51.5143,-0.3003
KFC EALING,W5 2PJ,51.5143,-0.3003
Monty's Broadway Ltd,W5 2PJ,51.5143,-0.3003
No.17 Dickens Yard,W5 2TD,51.5133,-0.3081
Pasta Remoli Ealing Broadway,W5 2TD,51.5133,-0.3081
Reineta,W5 2TD,51.5133,-0.3081
Riding Wine Co,W5 2TD,51.5133,-0.3081
W5 Bistro ,W5 2UQ,51.5141,-0.3081
Artisan Ealing,W5 2XA,51.5133,-0.3063
Tonkotsu Ealing,W5 2XA,51.5133,-0.3063
Lorient Indian cuisine ,W5 3EL,51.5268,-0.2849
DoubleTree by Hilton Hotel London - Ealing,W5 3HN,51.5116,-0.2907
11 Coffee & Co Ealing,W5 3HU,51.5169,-0.2907
Leila Moroccan & Lebanese Cuisine,W5 3NN,51.5096,-0.2863
Ta Ke Sushi,W5 3NN,51.5096,-0.2863
The Corner Terrace Restaurant,W5 3NN,51.5096,-0.2863
Costa Coffee,W5 3NT,51.5099,-0.2872
MIRROR PALACE ,W5 3QS,51.5289,-0.2921
THE ASHBOURNE,W5 3QS,51.5289,-0.2921
a little me time,W5 3TA,51.5139,-0.3000
saneh thai ltd.,W5 3TA,51.5139,-0.3000
Coda di volpe pizzeria,W5 3TJ,51.5134,-0.2981
A L'oro Di Napoli,W5 4EE,51.4984,-0.3062
NORONHA LIMITED T/A ZAYKA INDIAN AND NEPALESE CUISINE,W5 4QA,51.5035,-0.3072
EALING SPICE,W5 4QL,51.4980,-0.3059
Flame & Fire,W5 4QP,51.4984,-0.3056
Town Bites,W5 4QP,51.4984,-0.3056
lentil ,W5 4RH,51.4974,-0.3054
La Rueda De Tapas,W5 5AA,51.5123,-0.3062
Creams ealing,W5 5AH,51.5126,-0.3068
 Noor Palace,W5 5AL,51.5124,-0.3083
Rangrez,W5 5AL,51.5124,-0.3083
TWO BUNS EALING LIMITED,W5 5AL,51.5124,-0.3083
Hustle Bombay Eating House,W5 5AP,51.5124,-0.3058
Pho Saigon Ltd,W5 5AS,51.5119,-0.3056
AMORINO,W5 5DA,51.5110,-0.3052
Beehive ,W5 5DA,51.5110,-0.3052
INMOOV LTD,W5 5DA,51.5110,-0.3052
PICCOLA ITALIA,W5 5DA,51.5110,-0.3052
Parks Kitchen ,W5 5DA,51.5110,-0.3052
PULCINELLA PIZZERIA,W5 5DB,51.5122,-0.3045
Sowa Restaurant,W5 5DB,51.5122,-0.3045
The Kings Arms,W5 5DX,51.5110,-0.3025
Arepas Aglae,W5 5EU,51.5061,-0.3055
Oscar,W5 5EU,51.5061,-0.3055
south ealing conservative and unionist club ltd,W5 5EX,51.5047,-0.3064
Wasabi Sushi & Bento,W5 5JY,51.5125,-0.3032
itsu Ealing,W5 5JY,51.5125,-0.3032
kanenas,W5 5LL,51.5111,-0.3014
Siirgista Bros,W5 5LS,51.5138,-0.3017
Red Lion Ealing,W5 5RA,51.5080,-0.3050
Santa Maria,W5 5RA,51.5080,-0.3050
Soul Deli,W5 5SL,51.5120,-0.3105
Alma Cafe (Hammersmith),W6 0DA,51.4937,-0.2262
If Panzerotto & Co,W6 0DA,51.4937,-0.2262
pekoe mellow tea house,W6 0DH,51.4969,-0.2307
The Andover Arms,W6 0DL,51.4968,-0.2328
Blanche Eatery,W6 0EA,51.4933,-0.2255
La Petite Bretagne Hammersmith,W6 0EA,51.4933,-0.2255
thatched house pub,W6 0ET,51.4978,-0.2349
The Dartmouth Castle,W6 0LS,51.4946,-0.2286
Bertotti Hammersmith Grove ,W6 0NQ,51.4977,-0.2276
Patri Hammersmith,W6 0NQ,51.4977,-0.2276
The Brackenbury Wine Rooms,W6 0NQ,51.4977,-0.2276
The Grove Bar & Restaurant,W6 0NQ,51.4977,-0.2276
KFC HAMMERSMITH,W6 0QW,51.4927,-0.2303
Taco Bell,W6 0QW,51.4927,-0.2303
FASHIONFOOD21LTD(yoshisushI),W6 0RA,51.4931,-0.2358
Il Gusto London Ltd,W6 0RA,51.4931,-0.2358
LOCAL BOY LTD,W6 0RA,51.4931,-0.2358
Pho District,W6 0RA,51.4931,-0.2358
Shilpa Indian Restaurant ,W6 0RA,51.4931,-0.2358
Indian Zing Ltd,W6 0RF,51.4935,-0.2374
Lowiczanka Restaurant,W6 0RF,51.4935,-0.2374
101 Thai kitchen,W6 0RX,51.4936,-0.2443
Artisan Stamford Brook,W6 0RX,51.4936,-0.2443
Papa Johns - HAMMERSMITH,W6 0RX,51.4936,-0.2443
The Raven,W6 0SA,51.4941,-0.2447
Sugarcane Thai Bar and Restaurant,W6 0SP,51.4937,-0.2397
The Caketail Club,W6 0SP,51.4937,-0.2397
The Anglesea Arms,W6 0UR,51.4992,-0.2359
Duchess pub,W6 0XF,51.4972,-0.2443
Belushi's Bar Hammersmith,W6 7AB,51.4935,-0.2243
WING WING,W6 7AF,51.4935,-0.2243
Villagio,W6 7DH,51.4932,-0.2226
Draft House Hammersmith,W6 7NL,51.4956,-0.2243
Chiswick Wood Oven Pizza Ltd.,W6 7PB,51.4978,-0.2228
Costa Coffee,W6 7PB,51.4978,-0.2228
LE PETIT CITRON,W6 7PD,51.4993,-0.2225
PIZZA FRESCO 2018 LTD,W6 7PJ,51.5020,-0.2228
PIzza Fresco ,W6 7PJ,51.5020,-0.2228
L'Oreal,W6 8AZ,51.4926,-0.2221
The Gentlemen Baristas Hammersmith,W6 8DA,51.4929,-0.2198
Cozco Latte,W6 8JA,51.4885,-0.2226
Soul Deli,W6 8JA,51.4885,-0.2226
Carbon Kopi,W6 8LS,51.4863,-0.2147
Ksara,W6 8QX,51.4842,-0.2195
Brasserie Blanc Fulham Reach,W6 9AN,51.4922,-0.2412
the Cross Keys,W6 9BG,51.4923,-0.2427
Riverside Studios,W6 9BN,51.4897,-0.2273
Kindred,W6 9BW,51.4918,-0.2246
The Old City Arms ,W6 9DA,51.4893,-0.2289
Blue Anchor,W6 9DJ,51.4898,-0.2319
Sam's Riverside,W6 9DN,51.4893,-0.2289
Wasabi Sushi & Bento,W6 9HW,51.4925,-0.2279
Brown Rice ,W6 9JG,51.4924,-0.2303
Toro Gordo,W6 9JG,51.4924,-0.2303
Kamasutra Indian Restaurant Hammersmith,W6 9JR,51.4924,-0.2327
COFFEE STATION,W6 9JT,51.4925,-0.2333
EAT TOKYO,W6 9JT,51.4925,-0.2333
MAHDI RESTAURANT,W6 9JT,51.4925,-0.2333
The Hampshire,W6 9JT,51.4925,-0.2333
sagar restaurant ,W6 9JT,51.4925,-0.2333
Anarkali Restaurant,W6 9NH,51.4933,-0.2408
Haweli Indian Cuisine,W6 9NH,51.4933,-0.2408
Potli ,W6 9NH,51.4933,-0.2408
Saigon Saigon,W6 9NH,51.4933,-0.2408
Divina Caffe ,W6 9NJ,51.4933,-0.2435
Antipode,W6 9PH,51.4904,-0.2238
Rangrez ,W6 9PH,51.4904,-0.2238
The Duke of Cornwall ,W6 9PH,51.4904,-0.2238
Biryanipot,W6 9PL,51.4883,-0.2229
Kenta,W6 9PL,51.4883,-0.2229
Mezza & Grill Limited,W6 9PL,51.4883,-0.2229
REUN THAI,W6 9PL,51.4883,-0.2229
Cafe Plum ,W6 9RL,51.4887,-0.2271
The Elder Press Cafe,W6 9TJ,51.4904,-0.2423
Mari Deli& Dining,W6 9TN,51.4898,-0.2440
Chez Maiss,W6 9YD,51.4922,-0.2246
Pure Hammersmith ,W6 9YD,51.4922,-0.2246
Simya Restaurant,W6 9YD,51.4922,-0.2246
Sprigs Vietnamese,W6 9YD,51.4922,-0.2246
The Craft Beer Co Hammersmith,W6 9YD,51.4922,-0.2246
Chopstix Hammersmith,W6 9YE,51.4922,-0.2246
Wasabi Sushi & Bento,W6 9YE,51.4922,-0.2246
Hassoun Grill,W7 1HA,51.5161,-0.3374
POLISH PARADISE RESTAURANT ,W7 1HA,51.5161,-0.3374
No.6 Coffee,W7 2DG,51.4969,-0.3257
Wings London,W7 2DG,51.4969,-0.3257
broadway fish bar,W7 3ST,51.5089,-0.3363
Kings Arms,W7 3SU,51.5086,-0.3368
Toddy Pubs Limited t/a The Viaduct Pub,W7 3TD,51.5086,-0.3421
A L'oro Di Napoli Hanwell,W7 3TH,51.5089,-0.3389
Hanwell Cafe,W7 3TH,51.5089,-0.3389
Royal Coffee,W7 3TT,51.5082,-0.3381
The Green W7,W7 3TX,51.5071,-0.3394
Holland Park Cafe,W8 6LU,51.5015,-0.2036
Cafe Tarte,W8 6ND,51.4988,-0.2006
enoteca rosso ltd,W8 6ND,51.4988,-0.2006
KENSINGTON HIGH STREET RESTAURANTS LIMITED,W8 6NW,51.4974,-0.2030
Romulo Cafe & Restaurant,W8 6NW,51.4974,-0.2030
Cacciari's,W8 6NX,51.4945,-0.2011
322 LAVENDER GARDEN LIMITED,W9 3EF,51.5328,-0.2051
Cafe noir ltd,W9 3EF,51.5328,-0.2051
SOOR CUISINE,W9 3NA,51.5246,-0.2028
CRYSTAL FISH BAR AND KEBAB,W9 3NF,51.5252,-0.2039
Alis cafe ltd,W9 3NW,51.5232,-0.2015
Costa Coffee,W9 3RA,51.5239,-0.2014
CARPENDERS PARK GARDEN CENTRE - EVERGREEN CAFE,WD19 5BA,51.6225,-0.3703
The Rose and Crown Rickmansworth LTD,WD3 1PP,51.6221,-0.4702
BA Align ,WD3 9XN,51.6136,-0.5150
The Oaks ,WD3 9XP,51.6132,-0.5105
