name,postcode,lat,lon
Rat and Gila monster,IV14 9AG,57.585951000000000,-4.543687000000000
cobra de capello and Duck,IV14 9BB,57.587642666166500,-4.543570717012000
agamid and Philippine hawk-owl,IV15 9AD,57.608896363321000,-4.431094024869090
Logrunners and Treepie,IV15 9HG,57.594896158857900,-4.424234300935370
Elephant and Moluccan boobook,IV15 9HJ,57.595224612279400,-4.426783208350080
brown snake and cycling lizard,IV15 9HW,57.595142576108100,-4.426376092914380
Booted eagles and Grouse,IV15 9JJ,57.594896158857900,-4.424234300935370
Hawk and snapping turtle,IV15 9JR,57.590436239240400,-4.423920686185530
Gull and constrictor,IV15 9LE,57.599890000000000,-4.429471000000000
Parrotlet and Pitohui,IV15 9LZ,57.602274076895100,-4.430282836642060
blue tongue and Zebra,IV15 9NE,57.595797578954800,-4.433431978115240
Asiatic leopard and diamondback turtle,IV15 9NR,57.596331357101800,-4.444412959076500
Civet and krait,IV15 9NS,57.594759719048700,-4.436927216434780
gecko and Vole,IV15 9SE,57.594948252289400,-4.428538726147000
Kite and Armadillo,IV15 9SL,57.599693000000000,-4.443433000000000
boa and Logrunners,IV15 9TH,57.590952166599500,-4.435869222110190
anaconda and lizard,IV15 9TY,57.633594291697900,-4.404666552781850
Jay and harlequin snake,IV15 9UF,57.615446000000000,-4.458641000000000
Chipmunk and rock python,IV15 9WQ,57.609419744333600,-4.418806954070680
chameleon and bandy-bandy,IV15 9XE,57.589713451241500,-4.425529131028640
diamond python and cobra de capello,IV16 9UL,57.661841092232100,-4.344117414699650
Fox and Eagle,IV16 9UU,57.657956978299200,-4.357294625979890
turtle and garter snake,IV16 9UW,57.660744784502400,-4.340240978802780
Vulture and Schneider python,IV16 9XW,57.672024000000000,-4.400503000000000
Thrasher and adder,IV16 9XY,57.665980210056400,-4.338951912998860
Chicken and Kangaroo,IV16 9YT,57.668624386234900,-4.335902639510540
Goose and Eagle,IV23 2PH,57.685379726706800,-4.684239935819050
racer and Hawk,IV4 7BP,57.483538990867600,-4.461561624268550
Francolin and Armadillo,IV4 7BX,57.483658912398900,-4.459100399123830
Zebra and turtle,IV4 7EY,57.480883000000000,-4.495183000000000
gopher snake and viper,IV5 7NX,57.476879180283500,-4.412821287284130
grass snake and terrapin,IV5 7QE,57.476882115820900,-4.410319316734290
Elephant and giant tortoise,IV6 7AF,57.517043000000000,-4.461814000000000
Kangaroo and Guillemot,IV6 7PD,57.523249000000000,-4.471170000000000
Pheasant and Tattler,IV6 7QR,57.517173283682400,-4.462959754604280
cayman and Boto,IV6 7RG,57.537582499113000,-4.434143811946840
Chickadee and loggerhead,IV6 7SR,57.515040974598100,-4.457104983802130
dukite and elapid,IV6 7TQ,57.520469597970800,-4.457971281882100
horned viper and gecko,IV6 7WA,57.504329000000000,-4.447420000000000
Armadillo and elapid,IV6 7WH,57.516989000000000,-4.466838000000000
green turtle and cerastes,IV6 7WJ,57.516465000000000,-4.466091484906940
Hawk and harlequin snake,IV7 8AQ,57.556533970214500,-4.432265766908610
Linsang and caiman,IV7 8AS,57.552181504507800,-4.398159953692290
sea snake and black snake,IV7 8BA,57.565566708870400,-4.435426847622380
Chicken and diamond python,IV7 8BT,57.567186817064300,-4.436220714219910
amethystine python and tokay,IV7 8HL,57.563896914723300,-4.437672963367060
Moluccan boobook and Pratincole,IV7 8JB,57.579998000000000,-4.360194000000000
