name,postcode,lat,lon
A Special Treat,AB42 1BS,57.5050,-1.7788
Waverley Hotel,AB42 1BU,57.5045,-1.7776
Simpsons tearoom ltd,AB42 1BY,57.5048,-1.7770
Peterhead Football Club Ltd,AB42 1EQ,57.5113,-1.7927
Pops candy store ,AB42 1HR,57.5129,-1.7893
Murdoch Allan,AB42 1HY,57.5052,-1.7775
Mariner's Cafe,AB42 1JN,57.5046,-1.7741
Palace Hotel (Peterhead) Limited ,AB42 1PL,57.5057,-1.7809
SYMPOSIUM coffee house Ltd,AB42 1TN,57.5062,-1.7797
Subway,AB42 1TN,57.5062,-1.7797
NikiMax cafe,AB42 1TQ,57.5069,-1.7802
Asha’s Indian aroma,AB42 1TS,57.5064,-1.7792
Wheelie World Peterhead,AB42 1TS,57.5064,-1.7792
LETTUCE EAT HEALTHY,AB42 1TT,57.5077,-1.7819
Albert Hotel,AB42 1TU,57.5077,-1.7828
SYMPOSIUM coffee house LTD t/a Asda Peterhead,AB42 2FY,57.4966,-1.8053
SYMPOSIUM coffee house LIDO,AB42 2UP,57.4960,-1.7963
PETERHEAD MOTORS LTD,AB42 2XX,57.5011,-1.7935
KFC,AB42 2XZ,57.5003,-1.7992
Waterside Hotel ,AB42 3BN,57.5243,-1.8186
McDonald's Restaurant,AB42 3JL,57.4873,-1.8039
Cafe Nineteen ,AB42 3JY,57.5072,-1.8412
The Saplinbrae Hotel and Lodges ,AB42 4LP,57.5258,-2.0477
SYMPOSIUM coffee house LONGSIDE,AB42 4XQ,57.5167,-1.9409
Country Park Inn,AB42 5EB,57.5263,-2.0201
MACBI CAFE LIMITED,AB42 5GP,57.5238,-2.0099
The Davron Hotel Limited,AB43 7JB,57.6971,-2.1137
The Davron Hotel,AB43 7JB,57.6971,-2.1137
Mason’s Arms Hotel,AB43 7JJ,57.6951,-2.1101
SYMPOSIUM coffee house CRIMOND,AB43 8QP,57.6015,-1.9164
BAN-CAR HOTEL LTD,AB43 8RL,57.6194,-1.9699
Dunes Cafe & Coffee Shop,AB43 8TL,57.6803,-1.9987
Carlton Bingo Fraserburgh,AB43 9AJ,57.6927,-2.0062
B RAJ TANDOORI,AB43 9AU,57.6917,-2.0046
Flagstaff Restaurant,AB43 9BB,57.6902,-2.0049
The Captains Table,AB43 9BB,57.6902,-2.0049
The Flagstaff Restaurant,AB43 9BB,57.6902,-2.0049
SYMPOSIUM coffee house Fraserburgh,AB43 9DA,57.6941,-2.0047
MRS MAITLANDS RESTAURANT,AB43 9EQ,57.6932,-2.0069
Peartree Coffee House & Bistro,AB43 9ET,57.6939,-2.0083
Wimpy,AB43 9HQ,57.6936,-2.0083
The beach cafe ,AB43 9TB,57.6892,-2.0011
findlays bar & Restaurant,AB43 9WL,57.6800,-2.0268
