name,postcode,lat,lon
Black jay and Pratincole,PA31 8QW,56.210399170692900,-5.507495986744230
copperhead and bushmaster,PA34 4BG,56.411241675945700,-5.472098998303850
Greenbul and Coati,PA34 4DB,56.412219714260800,-5.476015609829830
Buzzard and Kestrel,PA34 4EW,56.410111148659900,-5.464309066707960
Maya and Maya,PA34 4HG,56.396233000000000,-5.489179000000000
whip snake and Francolin,PA34 4JR,56.401120238836400,-5.466896155899550
hawksbill and Bronzewing pigeon,PA34 4JX,56.398635000000000,-5.467043000000000
anaconda and fer-de-lance,PA34 4LB,56.407297419247200,-5.486414768111160
loggerhead and giant tortoise,PA34 4LD,56.404322845074200,-5.472603302455690
Prion and smooth snake,PA34 4LS,56.410836089191000,-5.480786955689820
Kestrel and Vole,PA34 4NQ,56.409573165532300,-5.476455144154370
milk snake and slowworm,PA34 4RF,56.294507493697900,-5.640981073560810
Ice seal and Rat,PA34 4TL,56.303350000000000,-5.594405000000000
bearded dragon and slowworm,PA34 5AB,56.419100297896600,-5.476220000000000
Coati and skink,PA34 5BB,56.422511697217300,-5.475771203045810
sand lizard and bushmaster,PA34 5DP,56.415292615608700,-5.469986867623640
gaboon viper and Diving bird,PA34 5DY,56.414884118274400,-5.464986617530840
Viscacha and python,PA34 5JT,56.417999744640600,-5.464167200112220
deaf adder and mud turtle,PA34 5NY,56.417029535117400,-5.473454048723030
Skunk and Armadillo,PA34 5PT,56.416298071869600,-5.473890124839460
thorn lizard and tree snake,PA34 5PZ,56.415663000000000,-5.473459000000000
Mole and Thicketbird,PA34 5SD,56.414410953834900,-5.472069000000000
amethystine python and slowworm,PA34 5TN,56.413986299920700,-5.461726066099350
boa constrictor and soft-shelled turtle,PA63 6AH,56.381772284217800,-5.715871917672480
