name,postcode,lat,lon
The Tormaukin Hotel ,FK14 7JY,56.22786900000000,-3.64692800000000
Subway,FK15 0NB,56.23187900000000,-3.89819500000000
Cromlix,FK15 9JT,56.2329,-3.9729
Braco Coffee,FK15 9PX,56.2652,-3.8789
Cafe Kisa,PH3 1AA,56.29614600000000,-3.70768400000000
Glendevon Hotel,PH3 1AF,56.29499400000000,-3.71109100000000
SHERAY PUNJAB,PH3 1BJ,56.29615400000000,-3.70645600000000
Jon and Fernandas Restaurant,PH3 1DB,56.29710100000000,-3.70295900000000
Delivino ,PH3 1DF,56.2978,-3.7007
M R Catering at Auchterarder Golf Club ,PH3 1LS,56.29088300000000,-3.72302500000000
Cairn Lodge,PH3 1LX,56.29136400000000,-3.72529300000000
Andrew Fairlie at Gleneagles,PH3 1NF,56.28339300000000,-3.75220300000000
Duchally House Leisure Ltd,PH3 1PN,56.26792100000000,-3.71750400000000
Highland Spring Ltd ,PH4 1QA,56.2606,-3.7790
Auchingarrich Wildlife Centre,PH6 2JE,56.3542,-3.9608
Red Squirrel Cafe (formerly Stenhouse Gallery & Cafe),PH7 3AF,56.3726,-3.8376
KBâ€™s Italian Restaurant ,PH7 3BS,56.3728,-3.8394
MurrayPark Hotel,PH7 3DJ,56.37861900000000,-3.83155700000000
yann's at glenearn house,PH7 3EQ,56.37482390000000,-3.83243490000000
Craobh,PH7 3EY,56.37255920000000,-3.84094060000000
The Square Bar ,PH7 3EY,56.37300109863280,-3.84190988540649
Delivino Ltd,PH7 3HA,56.37244200000000,-3.84147800000000
The Quaich,PH7 3HT,56.37247700000000,-3.83914800000000
The Crieff Food Company,PH7 3HU,56.37270400000000,-3.84013000000000
The Tower Hotel,PH7 3JA,56.37312480000000,-3.83431270000000
Crieff Hydro Hotel,PH7 3LQ,56.37968600000000,-3.83779500000000
Crieff Golf Club,PH7 3LR,56.37901600000000,-3.82715400000000
The Steading,PH7 3SD,56.3678,-3.8424
Lounge Restaurant,PH7 4AU,56.37362300000000,-3.84245800000000
The Meadow Inn,PH7 4DT,56.37287500000000,-3.84561200000000
Crieff Visitor Centre,PH7 4HQ,56.36338000000000,-3.85196800000000
