name,postcode,lat,lon
1B Westport ,KY15 4AN,56.3188,-3.0192
THE BOUDINAGIT,KY15 4BU,56.3197,-3.0127
The Courtyard,KY15 4BU,56.3197,-3.0127
Wee Kingdom,KY15 4DT,56.3212,-3.0173
BaxterStorey,KY15 4JB,56.3191,-3.0308
INDOS CUPAR ltd,KY15 4LF,56.3190,-3.0168
Caulders Cupar,KY15 4RB,56.3229,-2.9930
Fisher & Donaldson(Crossgate),KY15 5HA,56.3191,-3.0120
Shehnai Indian Restaurant,KY15 5HA,56.3191,-3.0120
The Press Cupar LTD,KY15 5HA,56.3191,-3.0120
AANGAN RESTAURANT,KY15 5HS,56.3179,-3.0114
Fisher & Donaldson(Ceres Rd),KY15 5JT,56.3128,-3.0087
The Cupar Tearoom ltd,KY15 5JU,56.3185,-3.0112
The Peat Inn,KY15 5LH,56.2774,-2.8849
The Ceres Inn,KY15 5NE,56.2925,-2.9708
Falkland Stewardship Trust,KY15 7AF,56.2540,-3.2174
The Stag Inn,KY15 7BT,56.2532,-3.2092
Campbell's coffee house and eatery,KY15 7BU,56.2529,-3.2081
The Hayloft Tearoom,KY15 7BX,56.2526,-3.2068
Lomond Hills Hotel,KY15 7EY,56.2484,-3.1590
The Gardeners Rest,KY15 7HY,56.2524,-3.1428
The Kettlebridge Inn  Bar & Italian Restaurant Ltd ,KY15 7QD,56.2555,-3.1168
Pitlessie Village Inn and Pantry,KY15 7SU,56.2741,-3.0735
Muddy Boots,KY15 7TJ,56.2626,-3.1001
Drumoig golf hotel,KY16 0DS,56.4142,-2.9095
St Michaels Inn ,KY16 0DU,56.3945,-2.9052
St Michaels Golf Club,KY16 0DX,56.3895,-2.8975
Commercial Arms,KY16 0HE,56.3822,-2.8866
Eden Coffee Shop ( Malcolm Antiques),KY16 0UD,56.3600,-2.8769
Dukeâ€™s Clubhouse,KY16 8NS,56.3252,-2.8353
The Tavern at Strathkinness,KY16 9RS,56.3368,-2.8781
Clayton Caravan Park Ltd,KY16 9YB,56.3537,-2.9241
Devine Cakes,KY6 3AX,56.2002,-3.2163
REYA TANDOORI,KY6 3DQ,56.2033,-3.2074
Balgeddie House Hotel,KY6 3QA,56.2120,-3.1954
The Laurelbank,KY7 6DB,56.2038,-3.1344
Balbirnie House Hotel,KY7 6NE,56.2094,-3.1458
Gilvenbank Hotel,KY7 6RA,56.2159,-3.1640
Agenda ,KY8 4SE,56.2029,-2.9966
h c bar and catering at scoonie golf club,KY8 4SP,56.2016,-2.9899
Bonnybank Inn,KY8 5SX,56.2203,-3.0384
The Old Manor Hotel,KY8 6AJ,56.2128,-2.9606
The Upper Largo Hotel & Restaurant,KY8 6EJ,56.2199,-2.9294
Kilconquhar Castle Estate Limited,KY9 1EZ,56.2159,-2.8259
HORN MILK BAR ,PH2 7SR,56.4228,-3.2205
