name,postcode,lat,lon
racer and Songlark,KY10 2BB,56.205849354415100,-2.760506217635350
boomslang and krait,KY10 2BD,56.205155630612300,-2.766634002054500
cerastes and blind snake,KY10 2BG,56.206037871209900,-2.769246905452030
hognose snake and Scimitar babbler,KY10 2BU,56.205466864799100,-2.765705276406800
Kite and bicycle lizard,KY10 2DG,56.224774259391500,-2.806796796598910
Old World quail and king cobra,KY10 2DQ,56.210896901873700,-2.750270000000000
Gull and ringhals,KY10 2DW,56.207342748716700,-2.770353104940900
Macaw and lizard,KY10 2LD,56.212986000000000,-2.728692000000000
sand viper and rock python,KY10 2NU,56.212233151708900,-2.732950441319310
Komodo dragon and thorny devil,KY10 2QU,56.215742294324100,-2.735113527641520
Vulture and mud turtle,KY10 2RH,56.236235000000000,-2.787789223269710
ringhals and rock python,KY10 2SA,56.263616063738900,-2.763443000000000
pit viper and gaboon viper,KY10 3BT,56.227855054477700,-2.688007104261550
Snipe and B,KY10 3BW,56.227015989697600,-2.693459641525160
agama and Coati,KY10 3DF,56.223534247292300,-2.700897000000000
Songlark and saltwater crocodile,KY10 3DW,56.223074448761600,-2.704112826415230
sidewinder and skink,KY10 3FG,56.228251148415400,-2.689481949953400
Hawk and Quetzal,KY10 3FJ,56.225986336152000,-2.687151410303990
Minke whale and Treepie,KY10 3JN,56.234623641113200,-2.684192323040890
Minke whale and rock python,KY10 3JP,56.236510476300100,-2.687420212158620
Chicken and tortoise,KY10 3JR,56.238242975501100,-2.676287041844620
Condor and habu,KY10 3JS,56.225223322613900,-2.706990740976890
blind snake and Pheasant,KY10 3LG,56.233701269503300,-2.686885943196240
Pitohui and slowworm,KY10 3QZ,56.260174223883100,-2.628585574476190
constrictor and Viscacha,KY10 3RA,56.259250290221000,-2.628296009075740
bicycle lizard and Mouse,KY10 3RQ,56.258513457870800,-2.628316215635780
Triller and boa constrictor,KY10 3SG,56.260734291351700,-2.629757030092280
Parakeet and adder,KY10 3ST,56.258497211036000,-2.627976973422380
gavial and goanna,KY10 3SZ,56.259242757951000,-2.631540432887640
Pheasant and rattlesnake,KY10 3UR,56.262645085102200,-2.628561522943390
amphisbaena and indigo snake,KY10 3WJ,56.264274000000000,-2.624536000000000
kabaragoya and Diving bird,KY10 3XG,56.273054090308200,-2.648497256268430
taipan and Wader,KY15 5UB,56.321864201223500,-2.918710624765110
fer-de-lance and goanna,KY16 0AZ,56.376911848878900,-2.928503812028640
Grosbeak and bearded lizard,KY16 0BJ,56.391318000000000,-2.930377000000000
Mamo and Logrunners,KY16 0EB,56.375786157456600,-2.932443396718590
moloch and Siskin,KY16 0HS,56.384227862791200,-2.878849058003320
Peafowl and gaboon viper,KY16 0XJ,56.371072000000000,-2.894234000000000
Quetzal and asp,KY16 8AS,56.336382000000000,-2.798462329821620
Gull and thorny devil,KY16 8DG,56.298388328680700,-2.661562743673290
smooth snake and loggerhead,KY16 8JN,56.334192000000000,-2.797993000000000
thorn lizard and Treepie,KY16 8LT,56.291367373235400,-2.758649724375160
agama and mountain devil,KY16 8LX,56.280619213417500,-2.742786329303480
Minke whale and snapping turtle,KY16 8NN,56.317743102475400,-2.806040632123040
Songlark and tortoise,KY16 8PL,56.326265000000000,-2.765729000000000
iguana and habu,KY16 8RU,56.333119084444100,-2.808273273544200
anaconda and Pitohui,KY16 8ST,56.299015581991400,-2.656014616118420
python and flying dragon,KY16 8SY,56.327545627290300,-2.811486695732620
New World blackbird and Goose,KY16 8XR,56.327735879155200,-2.822147539527540
kabaragoya and Old World quail,KY16 8YL,56.329916303428100,-2.829310156274040
flying lizard and goanna,KY16 9AE,56.341051541464900,-2.795920202794010
Parakeet and Chickadee,KY16 9AR,56.342764537054800,-2.793286000000000
krait and king cobra,KY16 9AT,56.342872401601400,-2.800568729981140
Pitohui and brown snake,KY16 9BQ,56.341187010256500,-2.791603809969850
snake and Grackle,KY16 9EZ,56.337160168458200,-2.800271155269260
hoop snake and fer-de-lance,KY16 9HL,56.341066535768100,-2.801825000000000
Mole and Wader,KY16 9HP,56.342047427925900,-2.804482509351130
Masked owl and snake,KY16 9LS,56.334498453869500,-2.815952000000000
Wallaby and viper,KY16 9NU,56.340171017767100,-2.794526870499220
tuatara and Civet,KY16 9PW,56.340710378012900,-2.790267453846430
Wallaby and worm lizard,KY16 9QZ,56.338956113421800,-2.787804798022520
giant tortoise and hoop snake,KY16 9TS,56.338010806439900,-2.794175000000000
mamba and gaboon viper,KY16 9TZ,56.339817558980900,-2.834620531895030
Hawaiian honeycreeper and saltwater crocodile,KY16 9UY,56.340047674931200,-2.799733092635070
tuatara and frilled lizard,KY16 9WB,56.332659916425500,-2.802894048697080
tree snake and giant tortoise,KY16 9WG,56.332659916425500,-2.802894048697080
Wader and goanna,KY16 9WH,56.339138709378400,-2.812607000000000
American sparrow and Herring gull,KY16 9XQ,56.339213688045000,-2.800880313864920
bandy-bandy and snapping turtle,KY16 9YF,56.355934758574500,-2.913736340445460
Piping shrike and gecko,KY8 6BY,56.214087170140400,-2.942089350145540
saltwater crocodile and bearded dragon,KY8 6DA,56.211648687737000,-2.944915457210150
harlequin snake and Rat,KY8 6EL,56.220349021927600,-2.929100210030580
bicycle lizard and Mole,KY8 6HG,56.212900043585900,-2.945768520265110
thorn lizard and Badger,KY8 6JG,56.221117000000000,-2.884449000000000
sea snake and Zebra,KY9 1HX,56.257328359038600,-2.864929361854170
krait and Warbler,KY9 1PA,56.210622926219500,-2.829940657670690
