name,postcode,lat,lon
Buzz Bingo,GU11 1DJ,51.25050400000000,-0.76533600000000
Burger King,GU11 1SD,51.25055300000000,-0.76236800000000
Potters International Hotel,GU11 2ET,51.25978200000000,-0.77202400000000
Army Golf Club - Half Way House,GU11 2HF,51.2675,-0.7778
Army Golf Club- Bar and Dining Room,GU11 2HF,51.26752300000000,-0.77785200000000
Pizza Hut,GU14 0EN,51.29246400000000,-0.76728000000000
Crab and anchor,GU14 0NA,51.29133200000000,-0.78720200000000
Holiday Inn Farnborough,GU14 6AZ,51.27413200000000,-0.75574200000000
Il Colosseo Restaurant,GU14 6DA,51.27529500000000,-0.75000500000000
Aviator ,GU14 6EL,51.27956300000000,-0.75479300000000
Gurkha Palace,GU14 6TH,51.28208600000000,-0.75271700000000
The Swan,GU14 6TL,51.28394200000000,-0.75316800000000
Burger King,GU14 6YA,51.29196100000000,-0.75798600000000
Subway Farnborough,GU14 6YA,51.29196100000000,-0.75798600000000
360 Play (Farnborough) Limited,GU14 7GL,51.29243087768550,-0.75643801689148
MLS Operations Limited t/a McDonald's,GU14 7JT,51.29218600000000,-0.75383400000000
McDonalds,GU14 7JT,51.29218600000000,-0.75383400000000
KFC,GU14 7PH,51.29320700000000,-0.75845400000000
Cafe Pausa @ Dunelm,GU14 7QU,51.28761672973630,-0.76482897996903
Starbucks,GU14 7RT,51.29188400000000,-0.75661100000000
Wimpy Resturant,GU14 7RZ,51.29125100000000,-0.75540900000000
the lemonplaice,GU14 7RZ,51.2912,-0.7554
CAFE DELI,GU14 7SE,51.29110300000000,-0.75587200000000
POPPINS RESTAURANT,GU14 7SE,51.29110300000000,-0.75587200000000
Prezzo,GU14 7SJ,51.29176100000000,-0.75440500000000
Pick A Bap Korean Restaurant,GU14 7SL,51.29192740000000,-0.75488760000000
Cove Football and Social Club,GU14 8PF,51.29966000000000,-0.76579600000000
Snow Goose,GU14 9DX,51.30363200000000,-0.77584600000000
Cove Tandoori Restaurant,GU14 9EF,51.31218900000000,-0.77635000000000
Popadoms,GU14 9LY,51.30575000000000,-0.77973500000000
Plough And Horses,GU14 9RG,51.29600200000000,-0.78574500000000
Pizza Hut,GU15 2QN,51.32649680000000,-0.75515790000000
Pronto Italiano Ristorante & Pizzeria,GU15 2QN,51.32639770000000,-0.75514620000000
Ascot Brewing Company,GU15 3DL,51.3305,-0.7709
Gravity Force Camberley,GU15 3DT,51.3296,-0.7717
Chilli Spice,GU15 3HQ,51.33591530000000,-0.76058780000000
ROOSTERS PIRI PIRI,GU15 3HZ,51.33531290000000,-0.76314490000000
TANDOORI TREATS,GU15 3HZ,51.33526860000000,-0.76320350000000
McDonalds,GU15 3JA,51.33466339111330,-0.76535898447037
KFC Camberley,GU15 3JE,51.33338110000000,-0.76925450000000
KFC,GU15 3JE,51.33338110000000,-0.76925450000000
Tiffin wala ,GU17 9AA,51.33119000000000,-0.77898800000000
W T blackwater,GU17 9AD,51.3314,-0.7779
Compass Group At MacDonalds Mess/Main Kitchen,GU17 9LP,51.31801900000000,-0.81957500000000
Compass Group At Sergeants Mess,GU17 9LP,51.31801900000000,-0.81957500000000
Bushe Cafe Limited,GU17 9LQ,51.32273800000000,-0.83917200000000
The Crown & Cushion,GU17 9UA,51.30621100000000,-0.80264700000000
The Casa Hotel,GU46 6BT,51.33362900000000,-0.82663800000000
Cafe 46,GU46 7LR,51.34197200000000,-0.82833400000000
Dog & Partridge,GU46 7LR,51.34197200000000,-0.82833500000000
KFC,GU46 7LR,51.34197200000000,-0.82833500000000
Cinnamon Bay,GU46 7SB,51.34323120117190,-0.83024102449417
SHORT AND SWEET,GU46 7SB,51.3433,-0.8303
Bistro19,GU46 7SZ,51.34817700000000,-0.83282900000000
Zee Dining,GU46 7UH,51.34175109863280,-0.82074600458145
Pizza Hut Delivery,GU46 7UN,51.34090510000000,-0.81878620000000
The Bird in Hand,GU47 8LQ,51.35495500000000,-0.80590200000000
Wellington Arms,GU47 9BN,51.34571900000000,-0.79089300000000
The Shenai,GU47 9BT,51.34530030000000,-0.79739410000000
The Village Inn,GU47 9DX,51.34682800000000,-0.80339900000000
Burger King,GU51 1AA,51.29553940000000,-0.85600810000000
KFC North Side,GU51 1AA,51.29612200000000,-0.85572100000000
KFC,GU51 1AA,51.29553940000000,-0.85600810000000
McDonalds,GU51 1AA,51.29612200000000,-0.85572100000000
Pizza Express,GU51 1AA,51.29553940000000,-0.85600810000000
Starbucks Drive Thru North,GU51 1AA,51.29612200000000,-0.85572100000000
Starbucks North Main & Kiosk,GU51 1AA,51.29612200000000,-0.85572100000000
Starbucks South Kiosk,GU51 1AA,51.29612200000000,-0.85572100000000
Starbucks,GU51 1AA,51.29553940000000,-0.85600810000000
North Hants Golf Club,GU51 1RF,51.29532500000000,-0.83240500000000
Starbucks Fleet Drive Through,GU51 2SH,51.29368972778320,-0.80499601364136
The Falkners Arms,GU51 2XF,51.29497900000000,-0.82386600000000
KFC,GU51 3BL,51.28187700000000,-0.84101900000000
La Casa,GU51 3BL,51.28187800000000,-0.84101900000000
MLS Operations Limited t/a McDonald's,GU51 3BL,51.28187800000000,-0.84101900000000
McDonalds,GU51 3BL,51.28187800000000,-0.84101900000000
Cantine,GU51 3BT,51.27961890000000,-0.84371470000000
Daisy's Tea Room Limited,GU51 3BT,51.27964700000000,-0.84362800000000
Gurkha Inn ,GU51 3BU,51.27869590000000,-0.84495660000000
Gurkha Square Neplease Restaurent ,GU51 3BU,51.2789,-0.8447
Costa Coffee,GU51 3LA,51.28079700000000,-0.84173500000000
MENU THAI FLEET LIMITED,GU51 3NT,51.27835800000000,-0.84515100000000
Costa Coffee,GU51 4BE,51.28153420000000,-0.84188880000000
Frankie's cafe & restaurant ,GU51 4BE,51.28167200000000,-0.84201400000000
Greenplus one Ltd t/a The Gulshan,GU51 4BU,51.2786,-0.8458
El Castello,GU51 4BY,51.27979660034180,-0.84424000978470
HART PERI PERI LIMITED,GU51 4BY,51.27986700000000,-0.84415200000000
Pizza Express,GU51 4BY,51.27990300000000,-0.84410900000000
Prezzo,GU51 4BY,51.27986700000000,-0.84415200000000
Subway Fleet,GU51 4BY,51.27979660034180,-0.84424000978470
Starbucks Fleet,GU51 4DA,51.28073900000000,-0.84317000000000
Starbucks,GU51 4DA,51.28073900000000,-0.84317000000000
Compass Group At Fleet Hospital (Canteen),GU51 4LZ,51.28756500000000,-0.84869200000000
The Lismoyne Hotel,GU51 4NE,51.28429900000000,-0.84574800000000
Water Sky,GU51 5DJ,51.27782600000000,-0.84592400000000
The Spice Merchant,GU51 5SJ,51.26626700000000,-0.86308400000000
The Exchequer,GU51 5SU,51.26121700000000,-0.86611800000000
Poppy’s ,GU52 6ED,51.26607894897460,-0.82589399814606
Sorrento,GU52 7QP,51.27716780000000,-0.84228510000000
JJH RETAILS LTD,GU52 7UL,51.26928810000000,-0.84020340000000
PIZZA FLEET LTD,GU52 7UL,51.2694,-0.8404
The Tweseldown,GU52 8DY,51.25959800000000,-0.82688900000000
THE WYVERN,GU52 8JY,51.2602,-0.8384
The Foresters,GU52 9EP,51.2673,-0.8174
Valpy Street Bar and Bistro,RG1 1AR,51.45722200000000,-0.96900300000000
Veeno Reading ,RG1 1AR,51.45722198486330,-0.96900302171707
Caffe Nero at Apex Plaza,RG1 1AX,51.45841600000000,-0.96975400000000
Treatz Reading,RG1 1DP,51.4570,-0.9731
Shed,RG1 1DT,51.45738800000000,-0.97350500000000
Subway Friar Street,RG1 1DX,51.45694300000000,-0.97404700000000
Maza Doner T/A German Doner Kebab,RG1 1EP,51.45643150000000,-0.97510470000000
McDonalds,RG1 1EP,51.45647100000000,-0.97460500000000
Memory of Sichuan,RG1 1EP,51.45647100000000,-0.97460500000000
Caffe Nero,RG1 1EX,51.45653600000000,-0.97279000000000
Malmaison Reading,RG1 1JX,51.4574,-0.9719
Starbucks Coffee Shop at Malmaison Hotel,RG1 1JX,51.45740800000000,-0.97177700000000
Costa Coffee at Reading Rail Station Concourse,RG1 1LT,51.45904400000000,-0.97171100000000
Subway Reading Station,RG1 1LT,51.4584,-0.9715
Burger King at Reading Rail Station Concourse,RG1 1LZ,51.45904400000000,-0.97171100000000
Anonymous Coffee Co.,RG1 1NH,51.45909420000000,-0.97625430000000
Soul Deli,RG1 1NU,51.45777870000000,-0.97595260000000
Reading Coffee Makers Ltd T/a CUP Specialty Coffee & Tea,RG1 1PJ,51.45714600000000,-0.97054500000000
Nibsy's coffee shop,RG1 1SN,51.45613900000000,-0.97161800000000
itsu Reading,RG1 1SY,51.45619000000000,-0.97232200000000
Sapana Home,RG1 1TG,51.45633000000000,-0.97188700000000
Beijing Palace,RG1 1TT,51.4561,-0.9755
Thai Corner,RG1 1TZ,51.4561,-0.9762
rafina coffee lounge,RG1 1TZ,51.4561,-0.9762
KFC - Reading Broad Street,RG1 2AF,51.45573500000000,-0.97473600000000
KFC,RG1 2AF,51.45573500000000,-0.97473600000000
Pret a Manger,RG1 2AF,51.45573500000000,-0.97473600000000
Caffe Nero at The Oracle,RG1 2AG,51.45365500000000,-0.97132900000000
Krispy Kreme Doughnuts at The Oracle,RG1 2AG,51.45365500000000,-0.97132900000000
Lemoni Reading Ltd,RG1 2AG,51.45365500000000,-0.97132900000000
McDonalds at The Oracle,RG1 2AG,51.45365500000000,-0.97132900000000
Mission Burrito - Reading,RG1 2AG,51.45365500000000,-0.97132900000000
Nando's Chickenland at The Oracle,RG1 2AG,51.45365500000000,-0.97132900000000
Osaka Restaurant,RG1 2AG,51.45365500000000,-0.97132900000000
Patisserie Valerie at The Oracle,RG1 2AG,51.45365500000000,-0.97132900000000
Pizza Express at The Oracle,RG1 2AG,51.45365500000000,-0.97132900000000
Pizza Hut Restaurant at The Oracle,RG1 2AG,51.45365500000000,-0.97132900000000
River Garden Club / Reading Beach Bar,RG1 2AG,51.4529,-0.9710
Starbucks Coffee Shop at The Oracle,RG1 2AG,51.45365500000000,-0.97132900000000
TGI Fridays at The Oracle,RG1 2AG,51.45365500000000,-0.97132900000000
Wok to Walk ,RG1 2AG,51.45365500000000,-0.97132900000000
Zizzi at The Oracle,RG1 2AG,51.45365500000000,-0.97132900000000
Caffe Nero at House of Fraser at The Oracle,RG1 2AH,51.45365500000000,-0.97132900000000
Costa Coffee at The Oracle,RG1 2AH,51.45365500000000,-0.97132900000000
Five Guys at The Oracle,RG1 2AH,51.45365500000000,-0.97132900000000
Starbucks Coffee Shop at The Oracle,RG1 2AH,51.45365500000000,-0.97132900000000
Caffe Nero,RG1 2AP,51.45533400000000,-0.97411200000000
Chopstix Reading,RG1 2AP,51.45534970000000,-0.97479790000000
WOLF ITALIAN STRETT FOOD,RG1 2AP,51.45534300000000,-0.97419800000000
BB's Bakers & Baristas,RG1 2AQ,51.45365500000000,-0.97132900000000
Buenasado Argentine Steakhouse,RG1 2AQ,51.45365500000000,-0.97132900000000
Pret a Manger at The Oracle,RG1 2AQ,51.45365500000000,-0.97132900000000
Costa Coffee at Debenhams at The Oracle,RG1 2AT,51.45365500000000,-0.97132900000000
Franco Manca at The Oracle,RG1 2AT,51.45365500000000,-0.97132900000000
The Real Greek,RG1 2AT,51.45365500000000,-0.97132900000000
Ori Caffe,RG1 2BB,51.45532500000000,-0.97209700000000
Insomnia Coffee House,RG1 2BD,51.4552,-0.9712
Starbucks Reading King Street,RG1 2BH,51.4556,-0.9706
Costa Coffee Store,RG1 2DP,51.45535300000000,-0.97016800000000
Tasty Greek Souvlaki,RG1 2EG,51.45570373535160,-0.96902298927307
Starbucks Coffee Shop,RG1 2HB,51.45526900000000,-0.96981000000000
Bhel Puri House,RG1 2HE,51.45486450195310,-0.96980500221252
Dickens Bar & Restaurant ,RG1 2HE,51.45486450195310,-0.96980500221252
Honest Burgers,RG1 2HE,51.45486450195310,-0.96980500221252
Prezzo,RG1 2HF,51.45468900000000,-0.97025500000000
Little Dessert Shop,RG1 2HG,51.4546,-0.9696
Pho at Kings Walk,RG1 2HG,51.45463800000000,-0.96960800000000
The SOJU,RG1 2HG,51.45463800000000,-0.96960800000000
Anonymous Coffee Co.,RG1 2HX,51.45510200000000,-0.97326800000000
Tasting House,RG1 2HX,51.45510200000000,-0.97326800000000
Bluegrass BBQ,RG1 2JR,51.45394800000000,-0.97292000000000
Reading Smash,RG1 2JR,51.45382400000000,-0.97307620000000
7 Bone Burger Co - Reading,RG1 2LG,51.45497800000000,-0.97450800000000
Coffee Under Pressure,RG1 2LG,51.45490400000000,-0.97442300000000
Pizza Express,RG1 2LG,51.45490400000000,-0.97442300000000
Burger King Reading,RG1 2LN,51.45460700000000,-0.97533700000000
Zerodegrees - Microbrewery & Restaurant,RG1 2LR,51.45389400000000,-0.97299300000000
CURA CATERING LIMITED,RG1 2QU,51.4495,-0.9691
La’De Kitchen Pangbourne,RG1 2QU,51.4495,-0.9691
Pau Brasil Ltd,RG1 2TF,51.44774500000000,-0.96600800000000
House Of Flavours,RG1 3AA,51.45472300000000,-0.96705900000000
AR FOODS LTD,RG1 3BJ,51.4546,-0.9648
Zizzi,RG1 3BJ,51.45456500000000,-0.96537900000000
The Thirsty Bear,RG1 3BY,51.45465500000000,-0.96341900000000
The jolly anglers ,RG1 3EA,51.45694300000000,-0.95168000000000
The Reading Room,RG1 3EJ,51.45621300000000,-0.96875200000000
Baxterstorey at Prudential,RG1 3ES,51.45522400000000,-0.96165000000000
McDonalds at Forbury Retail Park,RG1 3HS,51.45770300000000,-0.95929100000000
KFC - Reading Forbury,RG1 3JD,51.45794500000000,-0.96327300000000
KFC at Forbury Retail Park,RG1 3JD,51.45794500000000,-0.96327300000000
Compass Group Uk and Ireland Ltd,RG1 3JH,51.45819854736330,-0.96766698360443
la romani,RG1 3NY,51.4535,-0.9472
Lyndhurst Arms,RG1 4DG,51.45372000000000,-0.96038900000000
London Street Brasserie,RG1 4PN,51.4539,-0.9682
Great expectations ,RG1 4PS,51.45270000000000,-0.96808300000000
Royal Tandoori Indian Restaurant,RG1 4RY,51.45470700000000,-0.96923300000000
Bakery House Ltd,RG1 4SJ,51.45137700000000,-0.96789700000000
VVVS 1 LTD,RG1 5BA,51.45260700000000,-0.94950500000000
PIWNICA LIMITED,RG1 5BY,51.45230100000000,-0.95545600000000
Monty's Cafe,RG1 5PZ,51.44843040000000,-0.94992890000000
LA FANTASTICA STORIA LTD,RG1 7HT,51.4563,-0.9825
Creams Reading,RG1 7LA,51.45551100000000,-0.97687100000000
New York Gourmet ,RG1 7LT,51.45539700000000,-0.97822700000000
Boswells Cafe,RG1 7QE,51.45481900000000,-0.97590800000000
MEXVIEW LTD TRADING AS SUSHIMANIA,RG1 7QF,51.4544,-0.9764
Pepe Sale Restaurant,RG1 7QF,51.45437300000000,-0.97637900000000
Subway Broad Street Mall,RG1 7QG,51.45502000000000,-0.97632100000000
Taco Bell,RG1 7QH,51.45499520000000,-0.97538150000000
Sweeney and Todd,RG1 7RD,51.45362400000000,-0.97499900000000
Brewdog,RG1 7SB,51.45338800000000,-0.97474600000000
Pepes Piri Piri,RG1 7UD,51.45484720000000,-0.98006230000000
TGI Fridays,RG1 8AJ,51.46132600000000,-0.97452500000000
Cozze Restaurant,RG1 8AN,51.46163800000000,-0.97533800000000
Standard Tandoori ,RG1 8AU,51.46291300000000,-0.97602900000000
Riverspice restaurant,RG1 8AZ,51.4639,-0.9764
The Gorge Cafe,RG1 8BB,51.46388400000000,-0.97705800000000
The Moderation,RG1 8BB,51.46388400000000,-0.97705800000000
Crowne Plaza Reading,RG1 8BD,51.46529700000000,-0.97820700000000
Crucible Sports Reading,RG1 8EQ,51.4637,-0.9849
Thames Lido,RG1 8FR,51.4601,-0.9653
The Green Man,RG10 0BP,51.45979100000000,-0.84974800000000
Elephant and Castle,RG10 0EH,51.46144900000000,-0.86027200000000
The Shurlock Inn,RG10 0PS,51.46237945556640,-0.80277001857758
The castle inn ,RG10 0SJ,51.45060500000000,-0.85567800000000
Dragonfly Cafe,RG10 0TH,51.44208800000000,-0.86850900000000
Heron on the Ford LTD,RG10 0UE,51.46554183959960,-0.88009399175644
Fuego,RG12 1BD,51.4131,-0.7518
Mason and Rye,RG12 1BD,51.4131,-0.7518
Blue's Smokehouse,RG12 1DS,51.41706900000000,-0.75202500000000
Brown Bag,RG12 1EA,51.41644750000000,-0.75025810000000
McDonalds,RG12 1EA,51.41650009155270,-0.75015598535538
Hollywood Bowl,RG12 1EN,51.41479500000000,-0.75464600000000
Pizza Hut,RG12 1EN,51.41479500000000,-0.75464600000000
Starbucks Bracknell,RG12 1LS,51.41547012329100,-0.75061601400375
Starbucks,RG12 1LS,51.41547012329100,-0.75061601400375
Maxis,RG12 1RF,51.4168,-0.7674
Balti King,RG12 7BN,51.40469400000000,-0.75607100000000
Elior Catering at 3M,RG12 8HT,51.41646500000000,-0.77834300000000
COPPID BEECH HOTEL,RG12 8TF,51.41521100000000,-0.79006800000000
Sultan Balti House Ltd,RG12 8UX,51.39941900000000,-0.77087600000000
The Look In Community Cafe,RG12 8UX,51.3994,-0.7708
BJs Bingo,RG2 0BS,51.43233000000000,-0.97180800000000
Gooi Nara,RG2 0EG,51.44541900000000,-0.96526900000000
Dhaulagiri Kitchen Cafe and Restaurant,RG2 0ER,51.43993800000000,-0.96674500000000
voco Reading,RG2 0FL,51.42233400000000,-0.98350900000000
Comptoir Reading,RG2 0FP,51.4308,-0.9737
Nando's,RG2 0GG,51.41763305664060,-0.97407400608063
Hilton Reading,RG2 0GQ,51.4306,-0.9764
FIDGET & BOB,RG2 0GX,51.43125500000000,-0.97525500000000
Subway Brunel Retail Park ,RG2 0HS,51.4352,-0.9737
Costa Coffee Store at Reading Gate Retail Park,RG2 0QG,51.42327100000000,-0.98064000000000
KFC - READING Gate,RG2 0QG,51.4232,-0.9808
KFC at Reading Gate Retail Park,RG2 0QG,51.42327100000000,-0.98064000000000
McDonalds at Reading Gate Retail Park,RG2 0QG,51.42327100000000,-0.98064000000000
Pizza Hut Restaurant at Reading Gate Retail Park,RG2 0QG,51.42327100000000,-0.98064000000000
Holiday Inn Reading South,RG2 0SL,51.4213,-0.9705
Benugo Cafe at Verizon at Reading International Business Park,RG2 6DA,51.41518200000000,-0.97590200000000
Wolf Italian Street Food,RG2 6UG,51.42016700000000,-0.98762600000000
Zest at Lime Square,RG2 6UP,51.41987500000000,-0.98713000000000
KungFu Kitchen / UK Yipin LTD,RG2 7AZ,51.44278900000000,-0.95568800000000
SIZZLING SPICE,RG2 7AZ,51.44278900000000,-0.95568800000000
The Queens Head,RG2 7AZ,51.44278900000000,-0.95568800000000
Dilwar Pindi Express,RG2 7PT,51.43853200000000,-0.96236000000000
China Garden,RG2 8EY,51.42631100000000,-0.94707400000000
COSTA SHINFIELD,RG2 8HA,51.42799900000000,-0.94581200000000
KFC - READING Shinfield Road,RG2 8HA,51.4280,-0.9458
KFC,RG2 8HA,51.42799900000000,-0.94581200000000
Pizza Hut,RG2 8HD,51.42700500000000,-0.94625200000000
L'Ortolan Restaurant,RG2 9BY,51.40797424316410,-0.95281398296356
the six bells shinfield,RG2 9DA,51.41101000000000,-0.95743300000000
Dobbies Garden Centres Plc,RG2 9ER,51.39556100000000,-0.95332800000000
The Restaurant at Henry Street,RG2 9JY,51.39141200000000,-0.91726100000000
Bull Inn,RG2 9QD,51.39762100000000,-0.90709500000000
Holiday Inn Basingstoke,RG21 3EE,51.25376700000000,-1.07995500000000
Crowne Plaza Basingstoke Hotel,RG21 3PR,51.26289800000000,-1.07138800000000
Elior UK At ENI Engineering,RG21 4YY,51.26853500000000,-1.08033400000000
Nannysues kitchen ,RG21 5RG,51.27752800000000,-1.07938000000000
Yamazaki Sushi Bar,RG21 7AS,51.26324000000000,-1.08630200000000
Subway The Malls Shopping Centre  Basingstoke,RG21 7AW,51.26645200000000,-1.08761400000000
Yogoo! ,RG21 7BA,51.26448400000000,-1.08551700000000
Coal Kitchen,RG21 7BB,51.26551900000000,-1.08449300000000
Festival Street Kitchen ,RG21 7BB,51.26551900000000,-1.08449300000000
Nandos,RG21 7BB,51.26551900000000,-1.08449300000000
Pizza Express,RG21 7BB,51.26551900000000,-1.08449300000000
Wagamama,RG21 7BB,51.26551900000000,-1.08449300000000
Caffe Nero At Waterstones,RG21 7BE,51.26557200000000,-1.08548100000000
Gourmet Burger Kitchen,RG21 7BE,51.26557200000000,-1.08548100000000
Pizza Hut Restaurant,RG21 7BE,51.26557200000000,-1.08548100000000
The Sushi Maki,RG21 7BE,51.26557159423830,-1.08548200130463
Starbucks Basingstoke - Festival Place ,RG21 7BF,51.26557200000000,-1.08548100000000
Starbucks,RG21 7BF,51.26557200000000,-1.08548100000000
ottoman restaurant,RG21 7DZ,51.26261000000000,-1.08847800000000
Agra Balti House,RG21 7EY,51.26240100000000,-1.08941400000000
KFC,RG21 7FH,51.26630400000000,-1.08831900000000
Burger King ,RG21 7JR,51.26389312744140,-1.08683395385742
Burger King,RG21 7JR,51.26389312744140,-1.08683395385742
Wimpy Basingstoke,RG21 7JR,51.26389200000000,-1.08683300000000
Caffe Nero,RG21 7JT,51.26514800000000,-1.08653600000000
Pizza Hut,RG21 7LG,51.26565400000000,-1.08795900000000
Pret A Manger,RG21 7LG,51.26565400000000,-1.08795900000000
Dum Dum Donnutterie,RG21 7LJ,51.26486100000000,-1.08780300000000
Cafe Giardino - Basingstoke,RG21 7LN,51.26465900000000,-1.08726200000000
Chi Street Food,RG21 7LN,51.2646,-1.0871
Granary Bakehouse and Cafe,RG21 7LN,51.26452380000000,-1.08716340000000
Patisserie Valerie,RG21 7LN,51.26452380000000,-1.08716340000000
SESAME-UK LTD (KOKORO Basingstoke),RG21 7LN,51.26452380000000,-1.08716340000000
Delhi Brothers Limited TA Spicy Tadka,RG21 7LS,51.26486100000000,-1.08780300000000
Mr Munch,RG21 7LS,51.26486100000000,-1.08780300000000
Chennai Express Limited,RG21 7NE,51.26329600000000,-1.08653000000000
Karma Gurkha Kitchen,RG21 7NT,51.26224700000000,-1.08576200000000
Tuli Indian Cuisine ,RG21 7NT,51.26224700000000,-1.08576200000000
Zizzi,RG21 7NT,51.26224700000000,-1.08576200000000
Duck and Tipple,RG21 7NW,51.26346480000000,-1.08671700000000
the lime leaf restaurant,RG21 7PG,51.26217500000000,-1.08467400000000
McDonald's,RG21 7QA,51.26263100000000,-1.08665800000000
McDonalds,RG21 7QA,51.26263100000000,-1.08665800000000
Poppins Restaurant & Cafe,RG21 7QA,51.26263100000000,-1.08665800000000
The Olive House Restaurant,RG21 7QQ,51.2636,-1.0879
Flip Out Basingstoke,RG21 7QU,51.2664,-1.0899
Reliable foods ,RG21 8UR,51.2609,-1.0954
King of Wessex,RG21 8YS,51.2584,-1.0967
Spices and Spirits,RG21 8YT,51.25810270000000,-1.09634800000000
McDonald's,RG22 4AN,51.25094200000000,-1.10886900000000
McDonalds,RG22 4AN,51.25094200000000,-1.10886900000000
Pizza Hut Restaurant,RG22 4AN,51.25094223022460,-1.10887002944946
Regentwell Entertainment Ltd,RG22 5EE,51.2624,-1.1305
The Spice (Basingstoke) Limited t/a The Spice,RG22 5HN,51.25210400000000,-1.13547000000000
Pizza Express,RG22 6HL,51.25030400000000,-1.11371000000000
The red rose tandoori ,RG22 6JW,51.25029300000000,-1.11810900000000
Buzz Bingo,RG22 6PG,51.26487700000000,-1.11705460000000
Hollywood Bowl,RG22 6PG,51.26497268676760,-1.11767101287842
KFC,RG22 6PG,51.26497300000000,-1.11767100000000
McDonald's,RG22 6PG,51.26497300000000,-1.11767100000000
McDonalds,RG22 6PG,51.26497300000000,-1.11767100000000
Milestones Museum,RG22 6PG,51.2650,-1.1178
THE BOLTON ARMS,RG24 7DA,51.27608300000000,-1.04491600000000
Oliver's,RG24 7JE,51.26353700000000,-1.04570600000000
All seasons catering,RG24 8AG,51.28133500000000,-1.05829900000000
Subway Chineham,RG24 8BQ,51.28420600000000,-1.05974600000000
The Hampshire Court Hotel,RG24 8FY,51.28365800000000,-1.05749100000000
Charlie’s cafe,RG24 8NT,51.27162000000000,-1.06228200000000
TEAGETHER LIMITED,RG24 8TF,51.27627563476560,-1.05757105350494
Youngs Fish Bar,RG24 9DR,51.28711900000000,-1.08350500000000
The Ark Conference Centre Ltd,RG24 9NN,51.28062400000000,-1.10988700000000
the gamekeepers,RG25 2LU,51.25950500000000,-1.02023700000000
The Pelican,RG26 3EA,51.35789500000000,-1.12461900000000
cafe retreat,RG26 3LG,51.35482200000000,-1.14195400000000
Pleasant Hospitality Ltd t/a Tadley Tandoori,RG26 4JH,51.35460500000000,-1.14303500000000
Falcon Garage Ltd,RG26 4QY,51.36051000000000,-1.14881400000000
bramley inn ,RG26 5BT,51.33014000000000,-1.06226600000000
Little Roses,RG26 5QW,51.32285600000000,-1.12385100000000
The Wellington Arms,RG27 0AS,51.33765792846680,-0.99936497211456
The New Inn,RG27 0LE,51.33762300000000,-0.96011700000000
Highfield Park Managment (Hampshire) Limited,RG27 0LG,51.34091300000000,-0.96203800000000
Wellington Riding,RG27 0LJ,51.35476200000000,-0.97249600000000
Wellington Farm Shop,RG27 0LT,51.3586,-0.9747
THE CHEQUERS,RG27 0NS,51.34818700000000,-0.85762700000000
The White Hart,RG27 0PJ,51.35419000000000,-0.88904300000000
The Talley Ho,RG27 0RR,51.35693400000000,-0.88731100000000
The Winchfield Inn,RG27 8BX,51.28536500000000,-0.90723800000000
THE BARLEY MOW,RG27 8DE,51.27933120727539,-0.88705003261566
The Leather Bottle,RG27 8JU,51.31098600000000,-0.94978600000000
Baristas Coffee House and Bistro ,RG27 8NS,51.30654400000000,-0.89986200000000
FAMAA LTD,RG27 8NW,51.3078,-0.8987
Monsoon Restaurant ,RG27 8NW,51.30761900000000,-0.89844600000000
Cafe Courtyard Limited,RG27 8NY,51.30665300000000,-0.89899900000000
Costa Coffee,RG27 8NY,51.30665300000000,-0.89900000000000
Waggon & Horses,RG27 8NY,51.30665300000000,-0.89899900000000
Hartley Wintney Golf Club Ltd,RG27 8PT,51.30754600000000,-0.89735700000000
Cricketers pub ltd,RG27 8QB,51.30621000000000,-0.89879500000000
The Cricketers,RG27 8QB,51.30621000000000,-0.89879500000000
MAMA MIA RESTAURANT LIMITED,RG27 8RT,51.29698400000000,-0.91222600000000
The Phoenix Inn,RG27 8RT,51.29698400000000,-0.91222600000000
 THE QUEENS HEAD PUB,RG27 8SY,51.26978683471680,-0.87463700771332
Old House at Home,RG27 9AH,51.28199386596680,-0.98936200141907
Tylney Hall Hotel & Gardens,RG27 9AZ,51.29180900000000,-0.98379700000000
The Coach & Horses,RG27 9BG,51.30140304565430,-0.97953897714615
The Falcon,RG27 9BL,51.30242700000000,-0.97329100000000
Hook House Hotel,RG27 9EQ,51.28768539428710,-0.95066201686859
Hook Hampshire Limited t/a Hook Tandoori,RG27 9HE,51.2809,-0.9625
The Hogget,RG27 9JJ,51.27525200000000,-0.97725200000000
Basingstoke Country Hotel,RG27 9JS,51.27386200000000,-0.98817800000000
Cafe Baristas Hook LTD,RG27 9LE,51.2806,-0.9670
Hartletts Cafe,RG27 9NN,51.28396900000000,-0.95435900000000
Fox and Goose,RG29 1BY,51.25689800000000,-0.97199900000000
The Mill House,RG29 1ET,51.26322700000000,-0.95253700000000
Newlyns Farm Shop,RG29 1HA,51.26768400000000,-0.94720400000000
The Derby Inn,RG29 1HD,51.2679,-0.9549
El Castello Odiham,RG29 1LB,51.25379600000000,-0.93988300000000
The Red Lion,RG29 1LP,51.25451700000000,-0.94002400000000
Costa Coffee at Tesco,RG30 1AH,51.45968200000000,-0.99549000000000
Subway Tesco,RG30 1AP,51.45771600000000,-0.99901700000000
The White Eagle,RG30 1AQ,51.45740000000000,-0.99780000000000
McDonalds,RG30 1AS,51.45516500000000,-0.99092600000000
Lamamaia kitchen,RG30 1AY,51.4561,-0.9938
Farmhouse Pizza,RG30 1HD,51.45708600000000,-0.99789300000000
yaadgaar,RG30 1HD,51.4571,-0.9979
BETTY'S BISTRO LP,RG30 1HF,51.45745100000000,-0.99961200000000
Avilah Foods Limited,RG30 1HJ,51.45777100000000,-1.00123200000000
Pizza Hut Delivery,RG30 1HJ,51.45777100000000,-1.00123200000000
Red Kangaroo (Reading) Ltd,RG30 1JT,51.46084000000000,-1.00580000000000
KFC - READING Oxford Road,RG30 1PR,51.46086400000000,-1.01394700000000
KFC at Reading Retail Park,RG30 1PR,51.46086400000000,-1.01394700000000
THE SPREAD EAGLE ,RG30 2EG,51.45381200000000,-1.00095800000000
Out to lunch,RG30 3RP,51.45352172851563,-0.96301001310349
The Hatch Gate & Burghfield Spices,RG30 3TH,51.41137700000000,-1.04164100000000
BP Garage Shop At Moto Reading Services  Eastbound,RG30 3UQ,51.42619705200195,-1.03498768806458
BP Garage Shop At Moto Reading Services  Westbound,RG30 3UQ,51.42619500000000,-1.03498800000000
Burger King At Moto Hospitality,RG30 3UQ,51.42619500000000,-1.03498800000000
Burger King At Moto Services Reading  Westbound,RG30 3UQ,51.42619705200195,-1.03498768806458
Costa Coffee At Moto Hospitality,RG30 3UQ,51.42619500000000,-1.03498800000000
Costa Coffee At Moto Services Reading  Westbound,RG30 3UQ,51.42619500000000,-1.03498800000000
Costa Drive Through at Moto Hospitality,RG30 3UQ,51.42619500000000,-1.03498800000000
Eat & Drink At Moto Hospitality,RG30 3UQ,51.42619500000000,-1.03498800000000
KFC @ Moto Services Westbound,RG30 3UQ,51.42619500000000,-1.03498700000000
WH Smith At Moto Hospitality  Eastbound,RG30 3UQ,51.42619500000000,-1.03498800000000
WHSmith At Moto Reading Services  Westbound,RG30 3UQ,51.42619500000000,-1.03498800000000
The Grove Cafe,RG30 4AA,51.44971400000000,-1.01722300000000
THE VICTORIA,RG30 6BP,51.46014000000000,-1.03398400000000
LILA FOODS LIMITED,RG31 5AR,51.4606,-1.0366
Spice Master ,RG31 5HU,51.45562400000000,-1.04907700000000
TASTE OF TANDOORI,RG31 5HY,51.45558620000000,-1.04985110000000
Asian Spice Limited,RG31 6PR,51.46968600000000,-1.04458100000000
McDonalds Restaurant,RG31 7QN,51.44123500000000,-1.04999400000000
Starbucks Coffee Co At Sainsburys,RG31 7QN,51.44123500000000,-1.04999400000000
Calcot Golf Club Ltd,RG31 7RN,51.44541000000000,-1.03592100000000
Pausa Coffee Shop At Dunelm Mill,RG31 7SD,51.44235700000000,-1.06542400000000
THAI TABLE RESTAURANT,RG4 7AD,51.46757400000000,-0.97853000000000
Lebanese Village ,RG4 8AA,51.46688700000000,-0.97703400000000
Spice Oven Restaurant,RG4 8AT,51.46757500000000,-0.97660200000000
Costa Coffee Store,RG4 8BA,51.46738900000000,-0.97486400000000
Costa Coffee,RG4 8BA,51.46738900000000,-0.97486400000000
Vegivores,RG4 8BA,51.46738900000000,-0.97486400000000
Bina Tandoori,RG4 8JB,51.46827900000000,-0.97172000000000
Quattro Restaurant LTD,RG4 8JG,51.46798300000000,-0.97287800000000
Spitiko Greek Restaurant,RG4 8JG,51.4680,-0.9729
The Baron Cadogan ,RG4 8JG,51.46798300000000,-0.97287800000000
Tipsy Bean,RG4 8JG,51.46798300000000,-0.97287800000000
The Last Crumb,RG4 8JN,51.46907500000000,-0.97116900000000
Sultan Balti Palace,RG40 1AL,51.41014800000000,-0.83447300000000
Nando's,RG40 1AP,51.40982900000000,-0.83399200000000
PAD THAI/ RED LION,RG40 1AP,51.40982900000000,-0.83399200000000
Piccolo Arco ltd,RG40 1AS,51.41033900000000,-0.83377800000000
Costa Coffee,RG40 1AT,51.41066800000000,-0.83339600000000
Pizza Express,RG40 1AU,51.41152400000000,-0.83534400000000
Zizzi Ristorante,RG40 1AU,51.41152400000000,-0.83534400000000
Hilton St Anne's Manor,RG40 1ST,51.41041500000000,-0.79854800000000
Baranda restaurant ,RG40 1XG,51.41077900000000,-0.83191200000000
Pizza Hut,RG40 1XG,51.41090500000000,-0.83188000000000
BOISHAKHI RESTAURANT,RG40 1XH,51.41142200000000,-0.83051500000000
Wokingham Tree Ltd,RG40 1XH,51.4114,-0.8305
Pan Restaurant,RG40 1XJ,51.41103370000000,-0.83039430000000
The Tamarind Tree,RG40 1XQ,51.41114900000000,-0.83108300000000
BAR 56 LTD ,RG40 1XU,51.4118,-0.8320
Ruchetta,RG40 1XU,51.41177900000000,-0.83205900000000
Caffe Nero,RG40 1YJ,51.41020200000000,-0.83264500000000
Station fish bar ,RG40 2AE,51.41114100000000,-0.84119100000000
Burger King (UK) Limited,RG40 2AT,51.40667800000000,-0.83814100000000
Far East Catering UK LTD,RG40 2AY,51.4090,-0.8355
Sanpa,RG40 2AY,51.40901700000000,-0.83553700000000
Aroma,RG40 2BB,51.40912800000000,-0.83500200000000
Rossini Restaurant ,RG40 2BB,51.40912800000000,-0.83500200000000
The Lord Raglan,RG40 2BB,51.40882540000000,-0.83531020000000
Giggling Squid,RG40 2LD,51.40960500000000,-0.83592500000000
Costa Coffee,RG40 2NS,51.40485700000000,-0.83765500000000
Brown Bag,RG40 2SL,51.4092,-0.8355
The White Horse Pub,RG40 3AF,51.40124200000000,-0.81524900000000
Squire's Garden Centre Wokingham,RG40 3AS,51.38540267944340,-0.81469500064850
The Grange Chocolate Cafe Ltd,RG40 3AW,51.39421463012700,-0.81573200225830
The Crooked Billet,RG40 3BJ,51.39326095581050,-0.81542599201202
Sports and Leisure Management/Everyone Active,RG40 3DH,51.39236420000000,-0.78421670000000
Wokingham Family Golf ,RG40 3HG,51.39152526855470,-0.84257698059082
Sand Martins Golf Club Limited,RG40 3RQ,51.39142700000000,-0.85272800000000
The Queens Oak,RG40 4LS,51.36941400000000,-0.86104900000000
Wilson Vale Catering,RG40 4TS,51.39276123046880,-0.89622998237610
Cantley House Hotel,RG40 5QG,51.42089700000000,-0.83756500000000
The Farm Cafe ,RG40 5QY,51.43258400000000,-0.83456400000000
EMMBROOK INN,RG41 1HG,51.42187881469730,-0.85482597351074
The Dog & Duck ,RG41 1JT,51.42245400000000,-0.84776500000000
Compass Group at Windmill Primary School,RG41 3DR,51.41376000000000,-0.85510200000000
Bearwood Lakes Golf Club Limited,RG41 4SJ,51.40975700000000,-0.87823600000000
Walter Arms,RG41 5BP,51.42230987548830,-0.88374000787735
Nirvana Spa & Leisure Ltd,RG41 5DJ,51.41849517822270,-0.89208501577377
Costa at Showcase Cinema de Lux Reading,RG41 5HG,51.43634414672850,-0.89968299865723
WInnersh Garden Centre,RG41 5HG,51.43634300000000,-0.89968300000000
Costa Coffee Drive Thru,RG41 5HQ,51.43614578247070,-0.89294099807739
MERIDIAN READING LTD,RG41 5TS,51.4382,-0.8875
Compass Group at Wheatfield Primary School,RG41 5UU,51.42876400000000,-0.86955800000000
The Admiral Cunningham Hotel ,RG42 1TU,51.42102500000000,-0.76391100000000
Koh I Noor Restaurant,RG42 1UD,51.42159652709960,-0.76434201002121
Daruchini Restaurant,RG42 4AJ,51.42571700000000,-0.78698500000000
The Stag & Hounds,RG42 4HA,51.43266300000000,-0.78124900000000
Amir Restaurant,RG42 4JF,51.43083400000000,-0.79047500000000
Robyn's Nest Cafe,RG42 6EJ,51.44532394409180,-0.75132697820663
Cumin Garden,RG45 6DS,51.3676,-0.8175
Kabirs,RG45 6LZ,51.37042700000000,-0.79328800000000
Two Sisters Cafe Ltd,RG45 7AF,51.36818970000000,-0.79344770000000
Beatons Tearoom & Bookshop,RG45 7AH,51.36701900000000,-0.79415300000000
Villa Roma ,RG45 7AH,51.36726140000000,-0.79411850000000
The Rolling Feast,RG45 7AP,51.36688960000000,-0.79468850000000
Costa Coffee,RG45 7AT,51.36854300000000,-0.79369700000000
Costa Coffee,RG45 7AX,51.3687,-0.7935
The Waterside,RG5 3EZ,51.44396972656250,-0.90837800502777
Costa Coffee,RG5 3JP,51.45283100000000,-0.90606600000000
Cozze Restaurant,RG5 3JP,51.45287500000000,-0.90606500000000
Crumbs,RG5 3LX,51.45295300000000,-0.90472400000000
Prodeep Ltd T/A Red Rose Restaurant,RG5 4JE,51.45391070000000,-0.90097940000000
Brown Bag,RG5 4JZ,51.45405600000000,-0.90438100000000
Pizza Hut Delivery,RG5 4UL,51.45511000000000,-0.88839500000000
Choose cafe ltd ,RG5 4UX,51.45415200000000,-0.88782800000000
Benugo  The Waterfront,RG6 1AD,51.45796400000000,-0.93236900000000
Miah's Garden Of Gulab,RG6 1JL,51.45040000000000,-0.94007200000000
The Palmer Tavern,RG6 1JL,51.45040000000000,-0.94007200000000
Rizouq,RG6 1LH,51.4485,-0.9368
The Original Gourmet Burger ,RG6 1LH,51.44855400000000,-0.93680500000000
VVVS 2 Ltd,RG6 1LH,51.4485,-0.9368
The Three Tuns,RG6 1LT,51.44297100000000,-0.93195600000000
The Roebuck Pub,RG6 1NY,51.44737100000000,-0.93323500000000
CH&CO Catering @ Aker Solutions,RG6 1PT,51.46046829223630,-0.93279999494553
Keis Peking Restaurant ,RG6 3HD,51.42844400000000,-0.91373900000000
RAJMONI,RG6 3HD,51.4283,-0.9135
Waterfall Restaurant,RG6 7NZ,51.43671300000000,-0.92601700000000
MIAHS LTD,RG7 1AE,51.39592600000000,-0.97324200000000
The Farriers Arms,RG7 1AE,51.39592600000000,-0.97324200000000
The Bull at Riseley ,RG7 1QL,51.36209600000000,-0.96595400000000
The Crown,RG7 1QY,51.37835100000000,-0.95856200000000
The George and Dragon,RG7 1TJ,51.37595367431640,-0.94363099336624
The Elm Tree,RG7 2AZ,51.37187600000000,-1.00290000000000
Active Tots,RG7 2DL,51.3419,-1.0415
The Iron Duke Strafield Saye Ltd ,RG7 2EH,51.34986400000000,-1.02105400000000
The Red Lion,RG7 2HU,51.37215042114260,-1.09090304374695
The Calleva Arms,RG7 2PH,51.35496500000000,-1.10343500000000
De Vere Wokefield Estate,RG7 3AE,51.38585600000000,-1.03043200000000
CINNAMON TREE,RG7 3NR,51.37340900000000,-1.03782200000000
The Horse and Groom,RG7 3RD,51.37618637084960,-1.05961394309998
F & K CATERING LIMITED,RG7 3SE,51.3770,-1.0647
The Turners Arms ,RG7 3TW,51.37586800000000,-1.07400500000000
The Butt Inn,RG7 4LA,51.39878500000000,-1.13841600000000
Rosebourne,RG7 4LD,51.38656234741210,-1.15392100811005
Aldermaston Recreational Society,RG7 4PR,51.36336800000000,-1.14122000000000
Elior at The Hive,RG7 4SA,51.43575540000000,-1.06165650000000
The Bull,RG7 5AH,51.43778600000000,-1.07520000000000
SPICE LOUNGE,RG7 5AN,51.43741800000000,-1.07527900000000
La Baguetterie,RG7 5AW,51.43727700000000,-1.07565600000000
The Volunteer,RG7 5BX,51.43622207641600,-1.08115899562836
Cobbs at Englefield,RG7 5EA,51.44171600000000,-1.09137900000000
The Spring Inn,RG7 5HP,51.42218800000000,-1.10567400000000
QUEENS HEAD,RG7 6EY,51.43188095092770,-1.14396202564240
The Greyhound at Tidmarsh,RG8 8ER,51.46914000000000,-1.08663000000000
Bird Hills (UK) Ltd,SL6 3ST,51.46753300000000,-0.75040400000000
