name,postcode,lat,lon
Pret A Manger,RG14 1AA,51.40202800000000,-1.32460600000000
Starbucks,RG14 1AA,51.40202800000000,-1.32460500000000
Caffe Nero,RG14 1AE,51.40341400000000,-1.32480100000000
McDonald's,RG14 1AE,51.40341400000000,-1.32480100000000
McDonalds,RG14 1AE,51.40341400000000,-1.32480100000000
Soyami,RG14 1AE,51.4033,-1.3247
Lebanese House restaurant ,RG14 1AL,51.40365900000000,-1.32520000000000
Lusso,RG14 1AL,51.40365900000000,-1.32520000000000
Weavers Coffee Shop,RG14 1AL,51.40365900000000,-1.32520000000000
Thai Golden Horse,RG14 1AN,51.40482700000000,-1.32511100000000
GURKHA CHEF LTD,RG14 1AU,51.40586900000000,-1.32489300000000
Red Peppers,RG14 1AU,51.40586900000000,-1.32489400000000
Kings Cafe,RG14 1BA,51.40532600000000,-1.32429800000000
FUSION DELI NEWBURY,RG14 1BS,51.4019,-1.3274
Costa Coffee,RG14 1DJ,51.40323900000000,-1.32412800000000
victoria park cafe ,RG14 1EH,51.4049,-1.3212
Waterfall Elior Ltd at Willows Edge,RG14 1HJ,51.40830200000000,-1.31646200000000
Chequers Hotel,RG14 1JB,51.40610800000000,-1.32576700000000
bacon arms,RG14 1JB,51.40610800000000,-1.32576700000000
restaurant Valle D'Oro,RG14 1JG,51.40593600000000,-1.32717900000000
The Hare and Hounds Hotel,RG14 1QY,51.41029357910160,-1.34570395946503
Northcroft Leisure Centre,RG14 1RS,51.40285600000000,-1.33106200000000
Mrs B's Kitchen Cafe,RG14 2AD,51.40332794189450,-1.31745600700378
Caffe Pausa At Dunelm Mill,RG14 2BP,51.40317600000000,-1.30567000000000
Pizza Hut,RG14 2BX,51.40541000000000,-1.31551300000000
CH&Co at Vodafone,RG14 2FN,51.41669200000000,-1.31975900000000
DONNINGTON GROVE,RG14 2LA,51.41765100000000,-1.33961900000000
Grass Valley,RG14 2NX,51.40947200000000,-1.29838600000000
Waterfall Elior Ltd at Birchwood Care Home,RG14 2PP,51.40744018554690,-1.29815804958344
The Castle,RG14 3AA,51.41789300000000,-1.32851300000000
Donnington Valley Hotel,RG14 3AG,51.42165100000000,-1.32828500000000
Donnington Valley Golf Club,RG14 3BG,51.42926700000000,-1.33142500000000
Pizza Express,RG14 5AA,51.40080000000000,-1.32366000000000
The Spare Wheel,RG14 5AA,51.40059060000000,-1.32338820000000
The Sushi Maki,RG14 5AA,51.40073480000000,-1.32345800000000
Ask Italian,RG14 5AG,51.40139100000000,-1.32332100000000
Teashop by the canal,RG14 5AS,51.40136300000000,-1.32161100000000
Arigato Japanese Restaurant and Sushi Bar,RG14 5BE,51.40132522583010,-1.32455801963806
Taj of India,RG14 5BX,51.39961400000000,-1.32222600000000
The Catherine Wheel,RG14 5DB,51.39987100000000,-1.32328600000000
Mio Fiore,RG14 5DP,51.39882900000000,-1.32492600000000
The Flower Pot Cafe,RG14 5DP,51.3989,-1.3249
The Dolphin ,RG14 5DT,51.39882700000000,-1.32610400000000
Jaipur Indian cuisine,RG14 5DY,51.39830700000000,-1.32640000000000
KHONKAEN THAI CUISINE,RG14 5DY,51.39830600000000,-1.32639900000000
Boswells Cafe,RG14 5EN,51.40002900000000,-1.32407400000000
Nando's Chickenland Ltd,RG14 5EN,51.40002900000000,-1.32407400000000
7 Bone Burger Co - Newbury,RG14 5EX,51.40150300000000,-1.32400900000000
Caffe Nero plc,RG14 5HB,51.40082900000000,-1.32404800000000
The Newbury ,RG14 5HB,51.40082900000000,-1.32404800000000
Big Tongue Oriental Cafe,RG14 5LL,51.40049900000000,-1.32466900000000
The Ugly Duckling Pottery Painting Coffee House,RG14 5LL,51.40000152587890,-1.32525300979614
Indogo Bay Restaurant ,RG14 5QA,51.39822900000000,-1.32693300000000
KFC - Newbury,RG14 5QP,51.40051700000000,-1.32132100000000
KFC,RG14 5QP,51.40051700000000,-1.32132100000000
Crucible Sports Newbury,RG14 5UT,51.39904400000000,-1.30646500000000
The Gun,RG14 6NE,51.38256900000000,-1.34032500000000
NuMee LTD,RG14 6QW,51.38253700000000,-1.34090000000000
FAIRCLOSE DAY CENTRE,RG14 7BH,51.3964,-1.3256
Waterfall Elior Ltd at Phoenix Resource Centre,RG14 7EB,51.38867800000000,-1.32195600000000
Costa Coffee At Tesco Extra,RG14 7HU,51.38506800000000,-1.31804400000000
Pizza Hut Restaurant,RG14 7HU,51.38506698608400,-1.31804394721985
Starbucks,RG14 7HU,51.38631760000000,-1.31820980000000
Burger King (UK) Limited,RG14 7HZ,51.39728900000000,-1.31981700000000
Plough on the Green,RG14 7JF,51.39307680000000,-1.31622630000000
Chartwell & Starbucks @ Newbury College,RG14 7TD,51.38252500000000,-1.32305300000000
The Pantry,RG18 0UF,51.46667500000000,-1.20623900000000
The Royal Oak,RG18 0UF,51.4666,-1.2060
West Berkshire Brewery Taproom & Kitchen,RG18 0XT,51.46286392211910,-1.20264899730682
Waterfall Elior Ltd at Walnut Close,RG18 3GF,51.40482900000000,-1.26694300000000
Regency Park Hotel ,RG18 3RP,51.41334500000000,-1.26989900000000
Domino's Pizza,RG18 4GE,51.40320205688480,-1.24731695652008
The Bunk Inn,RG18 9DS,51.44656800000000,-1.29322700000000
The Spotted Dog,RG18 9PR,51.42378700000000,-1.26326000000000
The Castle Inn,RG18 9PS,51.42464447021480,-1.26517403125763
Fox Inn,RG18 9RB,51.45508300000000,-1.26821200000000
Hillier Garden Centre Newbury,RG18 9TG,51.45370200000000,-1.28051000000000
Arlos At Moto Services Chieveley,RG18 9XX,51.45110900000000,-1.30848300000000
Burger King At Moto Services Chieveley,RG18 9XX,51.45111000000000,-1.30848400000000
Costa Coffee,RG18 9XX,51.45111000000000,-1.30848400000000
Lakeside Superbowl,RG19 3AL,51.40219300000000,-1.28706800000000
Costa Coffee,RG19 3HN,51.40277700000000,-1.25671100000000
Paggies bar,RG19 3HN,51.40258900000000,-1.25677200000000
The White Hart,RG19 3JD,51.40331400000000,-1.25909000000000
A & A RESTAURANT LTD,RG19 3JG,51.4035,-1.2589
AR SPICE LIMITED,RG19 3JG,51.40350000000000,-1.25862700000000
Szechuan inn,RG19 3JG,51.40350000000000,-1.25862700000000
Elior UK Plc @ Forterra Building Products Ltd,RG19 4AN,51.39837300000000,-1.23466100000000
Baxterstorey At GIST,RG19 4BQ,51.39912800000000,-1.23046500000000
Baxterstorey Ltd At Motor Insurance Repair Research Centre,RG19 4NR,51.39731500000000,-1.22678700000000
4 Kingdoms Ltd,RG19 8JY,51.36434400000000,-1.26791900000000
The Craven Arms,RG20 0HG,51.38093566894530,-1.38756394386292
The Whte Hart Inn,RG20 0HW,51.3866,-1.4056
Yew Tree Cafe,RG20 0NG,51.36770100000000,-1.38752500000000
The Furze Bush Inn,RG20 0NQ,51.36598200000000,-1.39238900000000
Royal Oak,RG20 4UH,51.33181300000000,-1.28561900000000
The Crown,RG20 5QU,51.32526100000000,-1.24725800000000
Watermill Theatre Restaurant,RG20 8AE,51.42150878906250,-1.35246348381042
The Blackbird,RG20 8AQ,51.42096000000000,-1.34923500000000
The Woodspeen Restaurant & Cookery School,RG20 8BN,51.41532200000000,-1.35250800000000
Bell at Boxford,RG20 8DD,51.44012100000000,-1.39110400000000
Five Bells,RG20 8HH,51.44425582885740,-1.43382799625397
Deanwood Park Golf Club,RG20 8JP,51.41239400000000,-1.35955200000000
The Vineyard Hotel,RG20 8JU,51.41332200000000,-1.36656900000000
New Stockcross Village Stores Ltd,RG20 8LJ,51.41461200000000,-1.37576900000000
The Red House,RG20 8LY,51.40505218505860,-1.38547420501709
Crab & Boar,RG20 8UE,51.46407300000000,-1.34568600000000
Ye Olde Red Lion,RG20 8XB,51.45883900000000,-1.31550600000000
The Swan Inn,RG20 9BH,51.37245200000000,-1.31656400000000
McDonalds,RG20 9BX,51.34859500000000,-1.34132900000000
Starbucks,RG20 9BX,51.34859500000000,-1.34132900000000
The Carpenter's Arms,RG20 9JY,51.34316100000000,-1.33761600000000
The Dew Pond Restaurant,RG20 9LH,51.32003021240230,-1.33383095264435
The Pheasant  Highclere,RG20 9SE,51.32740100000000,-1.38102900000000
Rampant Cat (Newbury) LTD,RG20 9TP,51.35899500000000,-1.37363800000000
Holiday Inn Basingstoke,RG21 3EE,51.25376700000000,-1.07995500000000
Crowne Plaza Basingstoke Hotel,RG21 3PR,51.26289800000000,-1.07138800000000
Raj of Blackdam ,RG21 3QN,51.25854900000000,-1.07172000000000
Elior UK At ENI Engineering,RG21 4YY,51.26853500000000,-1.08033400000000
Nannysues kitchen ,RG21 5RG,51.27752800000000,-1.07938000000000
Yamazaki Sushi Bar,RG21 7AS,51.26324000000000,-1.08630200000000
Subway The Malls Shopping Centre  Basingstoke,RG21 7AW,51.26645200000000,-1.08761400000000
Yogoo! ,RG21 7BA,51.26448400000000,-1.08551700000000
Coal Kitchen,RG21 7BB,51.26551900000000,-1.08449300000000
Festival Street Kitchen ,RG21 7BB,51.26551900000000,-1.08449300000000
Nandos,RG21 7BB,51.26551900000000,-1.08449300000000
Pizza Express,RG21 7BB,51.26551900000000,-1.08449300000000
Wagamama,RG21 7BB,51.26551900000000,-1.08449300000000
Caffe Nero At Waterstones,RG21 7BE,51.26557200000000,-1.08548100000000
Gourmet Burger Kitchen,RG21 7BE,51.26557200000000,-1.08548100000000
Pizza Hut Restaurant,RG21 7BE,51.26557200000000,-1.08548100000000
The Sushi Maki,RG21 7BE,51.26557159423830,-1.08548200130463
Starbucks Basingstoke - Festival Place ,RG21 7BF,51.26557200000000,-1.08548100000000
Starbucks,RG21 7BF,51.26557200000000,-1.08548100000000
Bengal Dynasty ,RG21 7DY,51.26256900000000,-1.08783400000000
ottoman restaurant,RG21 7DZ,51.26261000000000,-1.08847800000000
Agra Balti House,RG21 7EY,51.26240100000000,-1.08941400000000
KFC,RG21 7FH,51.26630400000000,-1.08831900000000
Burger King ,RG21 7JR,51.26389312744140,-1.08683395385742
Burger King,RG21 7JR,51.26389312744140,-1.08683395385742
Wimpy Basingstoke,RG21 7JR,51.26389200000000,-1.08683300000000
Caffe Nero,RG21 7JT,51.26514800000000,-1.08653600000000
Pizza Hut,RG21 7LG,51.26565400000000,-1.08795900000000
Pret A Manger,RG21 7LG,51.26565400000000,-1.08795900000000
Dum Dum Donnutterie,RG21 7LJ,51.26486100000000,-1.08780300000000
Cafe Giardino - Basingstoke,RG21 7LN,51.26465900000000,-1.08726200000000
Chi Street Food,RG21 7LN,51.2645,-1.0871
Granary Bakehouse and Cafe,RG21 7LN,51.26452380000000,-1.08716340000000
Patisserie Valerie,RG21 7LN,51.26452380000000,-1.08716340000000
SESAME-UK LTD (KOKORO Basingstoke),RG21 7LN,51.26452380000000,-1.08716340000000
Delhi Brothers Limited TA Spicy Tadka,RG21 7LS,51.26486100000000,-1.08780300000000
Mr Munch,RG21 7LS,51.26486100000000,-1.08780300000000
Chennai Express Limited,RG21 7NE,51.26329600000000,-1.08653000000000
Karma Gurkha Kitchen,RG21 7NT,51.26224700000000,-1.08576200000000
The Tea Bar Limited,RG21 7NT,51.26224700000000,-1.08576200000000
Tuli Indian Cuisine ,RG21 7NT,51.26224700000000,-1.08576200000000
Zizzi,RG21 7NT,51.26224700000000,-1.08576200000000
Duck and Tipple,RG21 7NW,51.26346480000000,-1.08671700000000
MAYFLOWER Chinese Restaurant,RG21 7NX,51.26293800000000,-1.08562000000000
the lime leaf restaurant,RG21 7PG,51.26217500000000,-1.08467400000000
McDonald's,RG21 7QA,51.26263100000000,-1.08665800000000
McDonalds,RG21 7QA,51.26263100000000,-1.08665800000000
Poppins Restaurant & Cafe,RG21 7QA,51.26263100000000,-1.08665800000000
The Olive House Restaurant,RG21 7QQ,51.2636,-1.0879
Flip Out Basingstoke,RG21 7QU,51.2663,-1.0913
Reliable foods ,RG21 8UR,51.2609,-1.0954
King of Wessex,RG21 8YS,51.2584,-1.0967
Spices and Spirits,RG21 8YT,51.25810270000000,-1.09634800000000
McDonald's,RG22 4AN,51.25094200000000,-1.10886900000000
McDonalds,RG22 4AN,51.25094200000000,-1.10886900000000
Pizza Hut Restaurant,RG22 4AN,51.25094223022460,-1.10887002944946
Regentwell Entertainment Ltd,RG22 5EE,51.2624,-1.1305
The Spice (Basingstoke) Limited t/a The Spice,RG22 5HN,51.25210400000000,-1.13547000000000
Pizza Express,RG22 6HL,51.25030400000000,-1.11371000000000
The red rose tandoori ,RG22 6JW,51.25029300000000,-1.11810900000000
Buzz Bingo,RG22 6PG,51.26487700000000,-1.11705460000000
Hollywood Bowl,RG22 6PG,51.26497268676760,-1.11767101287842
KFC,RG22 6PG,51.26497300000000,-1.11767100000000
McDonald's,RG22 6PG,51.26497300000000,-1.11767100000000
McDonalds,RG22 6PG,51.26497300000000,-1.11767100000000
Milestones Museum,RG22 6PG,51.2649,-1.1178
The Fox Inn,RG23 7HH,51.25942000000000,-1.16474000000000
THE BOLTON ARMS,RG24 7DA,51.27608300000000,-1.04491600000000
Oliver's,RG24 7JE,51.26353700000000,-1.04570600000000
All seasons catering,RG24 8AG,51.28133500000000,-1.05829900000000
Subway Chineham,RG24 8BQ,51.28420600000000,-1.05974600000000
The Hampshire Court Hotel,RG24 8FY,51.28365800000000,-1.05749100000000
Charlieâ€™s cafe,RG24 8NT,51.27162000000000,-1.06228200000000
TEAGETHER LIMITED,RG24 8TF,51.27627563476560,-1.05757105350494
Youngs Fish Bar,RG24 9DR,51.28711900000000,-1.08350500000000
The Ark Conference Centre Ltd,RG24 9NN,51.28062400000000,-1.10988700000000
The Pelican,RG26 3EA,51.35789500000000,-1.12461900000000
cafe retreat,RG26 3LG,51.35482200000000,-1.14195400000000
Pleasant Hospitality Ltd t/a Tadley Tandoori,RG26 4JH,51.35460500000000,-1.14303500000000
Falcon Garage Ltd,RG26 4QY,51.36051000000000,-1.14881400000000
bramley inn ,RG26 5BT,51.33014000000000,-1.06226600000000
Little Roses,RG26 5QW,51.32285600000000,-1.12385100000000
SANDFORD SPRINGS,RG26 5RT,51.32136000000000,-1.21731500000000
The Vine Inn,RG26 5TX,51.29373300000000,-1.22624700000000
The Hatch Gate & Burghfield Spices,RG30 3TH,51.41137700000000,-1.04164100000000
BP Garage Shop At Moto Reading Services  Eastbound,RG30 3UQ,51.42619705200195,-1.03498768806458
BP Garage Shop At Moto Reading Services  Westbound,RG30 3UQ,51.42619500000000,-1.03498800000000
Burger King At Moto Hospitality,RG30 3UQ,51.42619500000000,-1.03498800000000
Burger King At Moto Services Reading  Westbound,RG30 3UQ,51.42619705200195,-1.03498768806458
Costa Coffee At Moto Hospitality,RG30 3UQ,51.42619500000000,-1.03498800000000
Costa Coffee At Moto Services Reading  Westbound,RG30 3UQ,51.42619500000000,-1.03498800000000
Costa Drive Through at Moto Hospitality,RG30 3UQ,51.42619500000000,-1.03498800000000
Eat & Drink At Moto Hospitality,RG30 3UQ,51.42619500000000,-1.03498800000000
KFC @ Moto Services Westbound,RG30 3UQ,51.42619500000000,-1.03498700000000
WH Smith At Moto Hospitality  Eastbound,RG30 3UQ,51.42619500000000,-1.03498800000000
WHSmith At Moto Reading Services  Westbound,RG30 3UQ,51.42619500000000,-1.03498800000000
THE VICTORIA,RG30 6BP,51.46014000000000,-1.03398400000000
LILA FOODS LIMITED,RG31 5AR,51.4606,-1.0366
Spice Master ,RG31 5HU,51.45562400000000,-1.04907700000000
TASTE OF TANDOORI,RG31 5HY,51.45558620000000,-1.04985110000000
Asian Spice Limited,RG31 6PR,51.46968600000000,-1.04458100000000
McDonalds Restaurant,RG31 7QN,51.44123500000000,-1.04999400000000
Starbucks Coffee Co At Sainsburys,RG31 7QN,51.44123500000000,-1.04999400000000
Calcot Golf Club Ltd,RG31 7RN,51.44541000000000,-1.03592100000000
Pausa Coffee Shop At Dunelm Mill,RG31 7SD,51.44235700000000,-1.06542400000000
Active Tots,RG7 2DL,51.3420,-1.0414
The Red Lion,RG7 2HU,51.37215042114260,-1.09090304374695
The Calleva Arms,RG7 2PH,51.35496500000000,-1.10343500000000
De Vere Wokefield Estate,RG7 3AE,51.38585600000000,-1.03043200000000
CINNAMON TREE,RG7 3NR,51.37340900000000,-1.03782200000000
The Horse and Groom,RG7 3RD,51.37618637084960,-1.05961394309998
F & K CATERING LIMITED,RG7 3SE,51.3770,-1.0645
The Turners Arms ,RG7 3TW,51.37586800000000,-1.07400500000000
The Butt Inn,RG7 4LA,51.39878500000000,-1.13841600000000
Rosebourne,RG7 4LD,51.38656234741210,-1.15392100811005
Aldermaston Recreational Society,RG7 4PR,51.36336800000000,-1.14122000000000
La Capanna Restaurant,RG7 4RN,51.36188300000000,-1.18646300000000
Out to lunch,RG7 4RS,51.3641,-1.1882
Elior at The Hive,RG7 4SA,51.43575540000000,-1.06165650000000
The Bull,RG7 5AH,51.43778600000000,-1.07520000000000
SPICE LOUNGE,RG7 5AN,51.43741800000000,-1.07527900000000
La Baguetterie,RG7 5AW,51.43727700000000,-1.07565600000000
The Volunteer,RG7 5BX,51.43622207641600,-1.08115899562836
Cobbs at Englefield,RG7 5EA,51.44171600000000,-1.09137900000000
The Spring Inn,RG7 5HP,51.42218800000000,-1.10567400000000
The Angel,RG7 5RT,51.39741500000000,-1.17546900000000
The Rowbarge,RG7 5SH,51.39446800000000,-1.17849800000000
Mercure Newbury West Grange Hotel  Bar & Restaurant,RG7 5UP,51.39984400000000,-1.21776000000000
The Coach and Horses,RG7 5UX,51.39825300000000,-1.21244000000000
QUEENS HEAD,RG7 6EY,51.43188095092770,-1.14396202564240
The Bull Inn,RG7 6LS,51.44135600000000,-1.17269300000000
The Bladebone,RG7 6PD,51.42333300000000,-1.18117300000000
The Greyhound at Tidmarsh,RG8 8ER,51.46914000000000,-1.08663000000000
Esseborne Manor Hotel,SP11 0ER,51.29013700000000,-1.42456600000000
