name,postcode,lat,lon
Buzz Bingo,GU11 1DJ,51.25050400000000,-0.76533600000000
Burger King,GU11 1SD,51.25055300000000,-0.76236800000000
Potters International Hotel,GU11 2ET,51.25978200000000,-0.77202400000000
Army Golf Club - Half Way House,GU11 2HF,51.2675,-0.7779
Army Golf Club- Bar and Dining Room,GU11 2HF,51.26752300000000,-0.77785200000000
Gold Valley Lake House Limited,GU11 2PT,51.25695520000000,-0.73548830000000
P&R Cafe,GU12 4SY,51.25047500000000,-0.74315600000000
Spice of India ,GU12 5AZ,51.25759200000000,-0.72039000000000
The Lion Brewery,GU12 6BT,51.25169300000000,-0.70808800000000
Fine Dining Food,GU12 6DF,51.2528,-0.7042
Willow park fishery ,GU12 6RE,51.25024100000000,-0.72738600000000
Pizza Hut,GU14 0EN,51.29246400000000,-0.76728000000000
Crab and anchor,GU14 0NA,51.29133200000000,-0.78720200000000
Holiday Inn Farnborough,GU14 6AZ,51.27413200000000,-0.75574200000000
Il Colosseo Restaurant,GU14 6DA,51.27529500000000,-0.75000500000000
Diwali Indian Restaurant ,GU14 6DN,51.27685900000000,-0.74832800000000
Dolce Italia,GU14 6EB,51.27812000000000,-0.74515400000000
EVEREST TANDOORI,GU14 6EJ,51.27480000000000,-0.74827000000000
Aviator ,GU14 6EL,51.27956300000000,-0.75479300000000
Rushmoor cafe shop,GU14 6EN,51.27570300000000,-0.74784400000000
The Teashop Around the Corner,GU14 6EP,51.27625000000000,-0.74771400000000
YUMI YUMI,GU14 6HD,51.27536900000000,-0.74264900000000
Daisy cafe restaurant ,GU14 6JR,51.27724000000000,-0.74440400000000
Gurkha Palace,GU14 6TH,51.28208600000000,-0.75271700000000
The Swan,GU14 6TL,51.28394200000000,-0.75316800000000
Burger King,GU14 6YA,51.29196100000000,-0.75798600000000
Subway Farnborough,GU14 6YA,51.29196100000000,-0.75798600000000
Melford House,GU14 7AT,51.29005300000000,-0.74933200000000
360 Play (Farnborough) Limited,GU14 7GL,51.29243087768550,-0.75643801689148
MLS Operations Limited t/a McDonald's,GU14 7JT,51.29218600000000,-0.75383400000000
McDonalds,GU14 7JT,51.29218600000000,-0.75383400000000
KFC,GU14 7PH,51.29320700000000,-0.75845400000000
Cafe Pausa @ Dunelm,GU14 7QU,51.28761672973630,-0.76482897996903
Starbucks,GU14 7RT,51.29188400000000,-0.75661100000000
Wimpy Resturant,GU14 7RZ,51.29125100000000,-0.75540900000000
the lemonplaice,GU14 7RZ,51.2912,-0.7554
CAFE DELI,GU14 7SE,51.29110300000000,-0.75587200000000
POPPINS RESTAURANT,GU14 7SE,51.29110300000000,-0.75587200000000
Prezzo,GU14 7SJ,51.29176100000000,-0.75440500000000
Pick A Bap Korean Restaurant,GU14 7SL,51.29192740000000,-0.75488760000000
Costa Coffee,GU14 8BL,51.30753700000000,-0.74878500000000
McDonalds,GU14 8BL,51.30753700000000,-0.74878500000000
Cove Football and Social Club,GU14 8PF,51.29966000000000,-0.76579600000000
Snow Goose,GU14 9DX,51.30363200000000,-0.77584600000000
Cove Tandoori Restaurant,GU14 9EF,51.31218900000000,-0.77635000000000
Popadoms,GU14 9LY,51.30575000000000,-0.77973500000000
Plough And Horses,GU14 9RG,51.29600200000000,-0.78574500000000
Mehdi,GU15 1AX,51.32970890000000,-0.70237880000000
Wheatsheaf,GU15 1AX,51.32971890000000,-0.70166090000000
Pizza Hut,GU15 2QN,51.32649680000000,-0.75515790000000
Pronto Italiano Ristorante & Pizzeria,GU15 2QN,51.32639770000000,-0.75514620000000
Ascot Brewing Company,GU15 3DL,51.3305,-0.7709
Gravity Force Camberley,GU15 3DT,51.3290,-0.7705
Camberley Tenpin,GU15 3GP,51.33745193481450,-0.74878901243210
Nando's,GU15 3GP,51.33711850000000,-0.74861140000000
Starbucks Coffee Company,GU15 3GP,51.33741280000000,-0.74838800000000
Wagamama,GU15 3GP,51.33708500000000,-0.74884200000000
Chilli Spice,GU15 3HQ,51.33591530000000,-0.76058780000000
ROOSTERS PIRI PIRI,GU15 3HZ,51.33531290000000,-0.76314490000000
TANDOORI TREATS,GU15 3HZ,51.33526860000000,-0.76320350000000
McDonalds,GU15 3JA,51.33466339111330,-0.76535898447037
KFC Camberley,GU15 3JE,51.33338110000000,-0.76925450000000
KFC,GU15 3JE,51.33338110000000,-0.76925450000000
El Pic Tapas Bar and Restaurant,GU15 3JS,51.33919570000000,-0.74777960000000
Sanjha,GU15 3PE,51.33652030000000,-0.74733560000000
Caffe Nero,GU15 3PG,51.33711390000000,-0.74734820000000
7 Bone Burger Co - Camberley,GU15 3PL,51.33890310000000,-0.74851600000000
ROTISSERIE CORNER LTD,GU15 3PL,51.33810580000000,-0.74844090000000
The Ruby Play Cafe,GU15 3PL,51.33899230000000,-0.74856370000000
Wildwood Restaurant,GU15 3PL,51.33829498291020,-0.74844998121262
Chiquito,GU15 3PQ,51.3388,-0.7480
Mimosa Restaurant and Bar,GU15 3PT,51.3365,-0.7479
Pizza Express,GU15 3PT,51.33720300000000,-0.74810660000000
Starbucks Camberley - The Atrium,GU15 3PT,51.3365,-0.7479
Creams Cafe Camberley,GU15 3QL,51.33707809448240,-0.74980401992798
Camberley tandoori ,GU15 3RB,51.33753250000000,-0.74361860000000
MLS Operations Limited t/a McDonald's,GU15 3RB,51.33815620000000,-0.74391740000000
McDonalds,GU15 3RB,51.33815620000000,-0.74391740000000
Poppins Restaurant & Cafe,GU15 3RB,51.33860350000000,-0.74453680000000
Soho Caffe Camberley Limited,GU15 3RB,51.3382,-0.7442
Jenny's Restaurant & Cafe ,GU15 3RS,51.33791190000000,-0.74461310000000
Frenchies Dessert Parlour,GU15 3SG,51.33826640000000,-0.74748910000000
Sorelles Bar,GU15 3SG,51.33821450000000,-0.74767710000000
Patisserie Valerie,GU15 3SL,51.33809080000000,-0.74620180000000
Costa Coffee,GU15 3SN,51.33790790000000,-0.74595310000000
Kokoro Camberley,GU15 3SN,51.33827209472660,-0.74556499719620
W&AZ Coffee Ltd,GU15 3SN,51.33790790000000,-0.74595310000000
ERTURK68 LTD,GU15 4DQ,51.3484,-0.7262
Potters,GU16 6DD,51.2873,-0.7208
Eat Well Cafe,GU16 6EG,51.29326210000000,-0.72600990000000
Spice Lounge,GU16 6EG,51.29272830000000,-0.72611010000000
Mias italian ,GU16 6EZ,51.29582850000000,-0.72738610000000
Lakeside International Hotel,GU16 6JR,51.30384063720700,-0.72137099504471
The Old Wheatsheaf,GU16 6LA,51.30464200000000,-0.72880900000000
d'Orville Catering Ltd,GU16 7HF,51.3143,-0.7480
NIMONTRON INDIAN RESTAURANT LTD,GU16 7HY,51.3141,-0.7433
Subway ,GU16 7HY,51.31413070000000,-0.74322440000000
Villa Bianca Restaurant Ltd,GU16 7JF,51.31385040283200,-0.74466699361801
Pine Ridge Golf Club,GU16 9NX,51.32120360000000,-0.70009310000000
Tiffin wala ,GU17 9AA,51.33119000000000,-0.77898800000000
W T blackwater,GU17 9AD,51.3315,-0.7775
Compass Group At MacDonalds Mess/Main Kitchen,GU17 9LP,51.31801900000000,-0.81957500000000
Compass Group At Sergeants Mess,GU17 9LP,51.31801900000000,-0.81957500000000
Bushe Cafe Limited,GU17 9LQ,51.32273800000000,-0.83917200000000
The Crown & Cushion,GU17 9UA,51.30621100000000,-0.80264700000000
Randalls Coffee & Wine ,GU18 5SS,51.35068893432620,-0.66488099098206
Roost Bagshot,GU19 5AH,51.36165900000000,-0.69265700000000
roka the square ltd,GU19 5AX,51.36164230000000,-0.69196800000000
Pennyhiill Park Limited,GU19 5EU,51.35631942749020,-0.70985698699951
The Mogul,GU19 5HJ,51.36234860000000,-0.69389200000000
Jack's Fish & Chips,GU19 5HL,51.36253870000000,-0.69251700000000
Windlesham Golf Club,GU19 5HY,51.36696624755860,-0.68311101198196
CAFFE AMORE ,GU19 5JB,51.37314260000000,-0.68224420000000
White Hart,GU19 5JW,51.36109860000000,-0.68757390000000
the Half Moon ,GU20 6BN,51.36521930000000,-0.66770100000000
Rashoi ,GU20 6DX,51.36596190000000,-0.65649270000000
The Surrey Cricketers ,GU20 6HE,51.36660420000000,-0.65134550000000
Hillier Garden Centre Sunningdale,GU20 6LQ,51.38436800000000,-0.65401380000000
Valentino’s Coffee Juice Bar,GU21 2DR,51.31753900000000,-0.61783000000000
LINKS TO BUSINESS LIMITED,GU21 2EG,51.31871500000000,-0.61469500000000
Ernie's cafe and bakery,GU21 2PD,51.31849400000000,-0.61569200000000
Baxterstorey Cafe @ Sainsbury's Brookwood,GU21 2QT,51.31159000000000,-0.61409000000000
Chobham Golf Club Limited,GU21 2TZ,51.32969000000000,-0.61496700000000
EAST WEST INDIAN RESTAURANT ,GU24 0AS,51.30470275878910,-0.63814198970795
Starbucks Outlet,GU24 0DT,51.30411800000000,-0.66398100000000
The Cricketers on The Green,GU24 0JT,51.29451000000000,-0.64248800000000
The Inn West End,GU24 9PW,51.34006940000000,-0.64451520000000
The Hare and Hounds,GU24 9QG,51.34001120000000,-0.64837480000000
The Royal Oak,GU3 3DA,51.25003100000000,-0.62600200000000
Merrist Wood Golf Club,GU3 3PB,51.26588200000000,-0.61743100000000
Rokers Farmhouse,GU3 3PB,51.26588200000000,-0.61743000000000
The Casa Hotel,GU46 6BT,51.33362900000000,-0.82663800000000
Cafe 46,GU46 7LR,51.34197200000000,-0.82833400000000
Dog & Partridge,GU46 7LR,51.34197200000000,-0.82833500000000
KFC,GU46 7LR,51.34197200000000,-0.82833500000000
Cinnamon Bay,GU46 7SB,51.34323120117190,-0.83024102449417
SHORT AND SWEET,GU46 7SB,51.3432,-0.8303
Bistro19,GU46 7SZ,51.34817700000000,-0.83282900000000
Zee Dining,GU46 7UH,51.34175109863280,-0.82074600458145
Pizza Hut Delivery,GU46 7UN,51.34090510000000,-0.81878620000000
The Bird in Hand,GU47 8LQ,51.35495500000000,-0.80590200000000
Wellington Arms,GU47 9BN,51.34571900000000,-0.79089300000000
The Shenai,GU47 9BT,51.34530030000000,-0.79739410000000
The Village Inn,GU47 9DX,51.34682800000000,-0.80339900000000
Burger King,GU51 1AA,51.29553940000000,-0.85600810000000
KFC North Side,GU51 1AA,51.29612200000000,-0.85572100000000
KFC,GU51 1AA,51.29553940000000,-0.85600810000000
McDonalds,GU51 1AA,51.29612200000000,-0.85572100000000
Pizza Express,GU51 1AA,51.29553940000000,-0.85600810000000
Starbucks Drive Thru North,GU51 1AA,51.29612200000000,-0.85572100000000
Starbucks North Main & Kiosk,GU51 1AA,51.29612200000000,-0.85572100000000
Starbucks South Kiosk,GU51 1AA,51.29612200000000,-0.85572100000000
Starbucks,GU51 1AA,51.29553940000000,-0.85600810000000
North Hants Golf Club,GU51 1RF,51.29532500000000,-0.83240500000000
Starbucks Fleet Drive Through,GU51 2SH,51.29368972778320,-0.80499601364136
The Falkners Arms,GU51 2XF,51.29497900000000,-0.82386600000000
KFC,GU51 3BL,51.28187700000000,-0.84101900000000
La Casa,GU51 3BL,51.28187800000000,-0.84101900000000
MLS Operations Limited t/a McDonald's,GU51 3BL,51.28187800000000,-0.84101900000000
McDonalds,GU51 3BL,51.28187800000000,-0.84101900000000
Cantine,GU51 3BT,51.27961890000000,-0.84371470000000
Daisy's Tea Room Limited,GU51 3BT,51.27964700000000,-0.84362800000000
Gurkha Inn ,GU51 3BU,51.27869590000000,-0.84495660000000
Gurkha Square Neplease Restaurent ,GU51 3BU,51.2789,-0.8447
Kathmandu fleet Restaurant,GU51 3BU,51.27888200000000,-0.84457800000000
Costa Coffee,GU51 3LA,51.28079700000000,-0.84173500000000
MENU THAI FLEET LIMITED,GU51 3NT,51.27835800000000,-0.84515100000000
Costa Coffee,GU51 4BE,51.28153420000000,-0.84188880000000
Frankie's cafe & restaurant ,GU51 4BE,51.28167200000000,-0.84201400000000
Greenplus one Ltd t/a The Gulshan,GU51 4BU,51.2785,-0.8458
California Steak House ,GU51 4BY,51.2798,-0.8441
El Castello,GU51 4BY,51.27979660034180,-0.84424000978470
HART PERI PERI LIMITED,GU51 4BY,51.27986700000000,-0.84415200000000
Pizza Express,GU51 4BY,51.27990300000000,-0.84410900000000
Prezzo,GU51 4BY,51.27986700000000,-0.84415200000000
Subway Fleet,GU51 4BY,51.27979660034180,-0.84424000978470
Starbucks Fleet,GU51 4DA,51.28073900000000,-0.84317000000000
Starbucks,GU51 4DA,51.28073900000000,-0.84317000000000
Compass Group At Fleet Hospital (Canteen),GU51 4LZ,51.28756500000000,-0.84869200000000
The Lismoyne Hotel,GU51 4NE,51.28429900000000,-0.84574800000000
Water Sky,GU51 5DJ,51.27782600000000,-0.84592400000000
The Spice Merchant,GU51 5SJ,51.26626700000000,-0.86308400000000
The Exchequer,GU51 5SU,51.26121700000000,-0.86611800000000
Poppy’s ,GU52 6ED,51.26607894897460,-0.82589399814606
Sorrento,GU52 7QP,51.27716780000000,-0.84228510000000
JJH RETAILS LTD,GU52 7UL,51.26928810000000,-0.84020340000000
PIZZA FLEET LTD,GU52 7UL,51.2694,-0.8403
The Tweseldown,GU52 8DY,51.25959800000000,-0.82688900000000
THE WYVERN,GU52 8JY,51.2602,-0.8384
The Foresters,GU52 9EP,51.2673,-0.8174
Valpy Street Bar and Bistro,RG1 1AR,51.45722200000000,-0.96900300000000
Veeno Reading ,RG1 1AR,51.45722198486330,-0.96900302171707
Caffe Nero at Apex Plaza,RG1 1AX,51.45841600000000,-0.96975400000000
Treatz Reading,RG1 1DP,51.4569,-0.9731
Shed,RG1 1DT,51.45738800000000,-0.97350500000000
Subway Friar Street,RG1 1DX,51.45694300000000,-0.97404700000000
Maza Doner T/A German Doner Kebab,RG1 1EP,51.45643150000000,-0.97510470000000
McDonalds,RG1 1EP,51.45647100000000,-0.97460500000000
Memory of Sichuan,RG1 1EP,51.45647100000000,-0.97460500000000
Caffe Nero,RG1 1EX,51.45653600000000,-0.97279000000000
Malmaison Reading,RG1 1JX,51.4573,-0.9719
Starbucks Coffee Shop at Malmaison Hotel,RG1 1JX,51.45740800000000,-0.97177700000000
Costa Coffee at Reading Rail Station Concourse,RG1 1LT,51.45904400000000,-0.97171100000000
Subway Reading Station,RG1 1LT,51.4584,-0.9715
Burger King at Reading Rail Station Concourse,RG1 1LZ,51.45904400000000,-0.97171100000000
Anonymous Coffee Co.,RG1 1NH,51.45909420000000,-0.97625430000000
Soul Deli,RG1 1NU,51.45777870000000,-0.97595260000000
Reading Coffee Makers Ltd T/a CUP Specialty Coffee & Tea,RG1 1PJ,51.45714600000000,-0.97054500000000
Nibsy's coffee shop,RG1 1SN,51.45613900000000,-0.97161800000000
Starbucks Reading Queen Victoria Street,RG1 1SX,51.4316,-0.9713
itsu Reading,RG1 1SY,51.45619000000000,-0.97232200000000
Sapana Home,RG1 1TG,51.45633000000000,-0.97188700000000
Beijing Palace,RG1 1TT,51.4560,-0.9755
Thai Corner,RG1 1TZ,51.4560,-0.9761
rafina coffee lounge,RG1 1TZ,51.4560,-0.9761
KFC - Reading Broad Street,RG1 2AF,51.45573500000000,-0.97473600000000
KFC,RG1 2AF,51.45573500000000,-0.97473600000000
Pret a Manger,RG1 2AF,51.45573500000000,-0.97473600000000
Caffe Nero at The Oracle,RG1 2AG,51.45365500000000,-0.97132900000000
Krispy Kreme Doughnuts at The Oracle,RG1 2AG,51.45365500000000,-0.97132900000000
Lemoni Reading Ltd,RG1 2AG,51.45365500000000,-0.97132900000000
McDonalds at The Oracle,RG1 2AG,51.45365500000000,-0.97132900000000
Mission Burrito - Reading,RG1 2AG,51.45365500000000,-0.97132900000000
Nando's Chickenland at The Oracle,RG1 2AG,51.45365500000000,-0.97132900000000
Osaka Restaurant,RG1 2AG,51.45365500000000,-0.97132900000000
Patisserie Valerie at The Oracle,RG1 2AG,51.45365500000000,-0.97132900000000
Pizza Express at The Oracle,RG1 2AG,51.45365500000000,-0.97132900000000
Pizza Hut Restaurant at The Oracle,RG1 2AG,51.45365500000000,-0.97132900000000
River Garden Club / Reading Beach Bar,RG1 2AG,51.4529,-0.9710
Starbucks Coffee Shop at The Oracle,RG1 2AG,51.45365500000000,-0.97132900000000
TGI Fridays at The Oracle,RG1 2AG,51.45365500000000,-0.97132900000000
Wok to Walk ,RG1 2AG,51.45365500000000,-0.97132900000000
Zizzi at The Oracle,RG1 2AG,51.45365500000000,-0.97132900000000
Caffe Nero at House of Fraser at The Oracle,RG1 2AH,51.45365500000000,-0.97132900000000
Costa Coffee at The Oracle,RG1 2AH,51.45365500000000,-0.97132900000000
Five Guys at The Oracle,RG1 2AH,51.45365500000000,-0.97132900000000
Starbucks Coffee Shop at The Oracle,RG1 2AH,51.45365500000000,-0.97132900000000
Caffe Nero,RG1 2AP,51.45533400000000,-0.97411200000000
Chopstix Reading,RG1 2AP,51.45534970000000,-0.97479790000000
WOLF ITALIAN STRETT FOOD,RG1 2AP,51.45534300000000,-0.97419800000000
BB's Bakers & Baristas,RG1 2AQ,51.45365500000000,-0.97132900000000
Buenasado Argentine Steakhouse,RG1 2AQ,51.45365500000000,-0.97132900000000
Pret a Manger at The Oracle,RG1 2AQ,51.45365500000000,-0.97132900000000
Costa Coffee at Debenhams at The Oracle,RG1 2AT,51.45365500000000,-0.97132900000000
Franco Manca at The Oracle,RG1 2AT,51.45365500000000,-0.97132900000000
The Real Greek,RG1 2AT,51.45365500000000,-0.97132900000000
Ori Caffe,RG1 2BB,51.45532500000000,-0.97209700000000
Insomnia Coffee House,RG1 2BD,51.4552,-0.9712
Starbucks Reading King Street,RG1 2BH,51.4556,-0.9707
Costa Coffee Store,RG1 2DP,51.45535300000000,-0.97016800000000
Tasty Greek Souvlaki,RG1 2EG,51.45570373535160,-0.96902298927307
Starbucks Coffee Shop,RG1 2HB,51.45526900000000,-0.96981000000000
Bhel Puri House,RG1 2HE,51.45486450195310,-0.96980500221252
Dickens Bar & Restaurant ,RG1 2HE,51.45486450195310,-0.96980500221252
Honest Burgers,RG1 2HE,51.45486450195310,-0.96980500221252
Prezzo,RG1 2HF,51.45468900000000,-0.97025500000000
Little Dessert Shop,RG1 2HG,51.4546,-0.9697
Pho at Kings Walk,RG1 2HG,51.45463800000000,-0.96960800000000
The SOJU,RG1 2HG,51.45463800000000,-0.96960800000000
Anonymous Coffee Co.,RG1 2HX,51.45510200000000,-0.97326800000000
Tasting House,RG1 2HX,51.45510200000000,-0.97326800000000
Bluegrass BBQ,RG1 2JR,51.45394800000000,-0.97292000000000
Reading Smash,RG1 2JR,51.45382400000000,-0.97307620000000
7 Bone Burger Co - Reading,RG1 2LG,51.45497800000000,-0.97450800000000
Coffee Under Pressure,RG1 2LG,51.45490400000000,-0.97442300000000
Pizza Express,RG1 2LG,51.45490400000000,-0.97442300000000
Burger King Reading,RG1 2LN,51.45460700000000,-0.97533700000000
Zerodegrees - Microbrewery & Restaurant,RG1 2LR,51.45389400000000,-0.97299300000000
NAMASTE KITCHEN LIMITED,RG1 2ND,51.44979000000000,-0.97361700000000
CURA CATERING LIMITED,RG1 2QU,51.4495,-0.9692
La’De Kitchen Pangbourne,RG1 2QU,51.4495,-0.9692
Pau Brasil Ltd,RG1 2TF,51.44774500000000,-0.96600800000000
House Of Flavours,RG1 3AA,51.45472300000000,-0.96705900000000
AR FOODS LTD,RG1 3BJ,51.4546,-0.9648
Zizzi,RG1 3BJ,51.45456500000000,-0.96537900000000
The Thirsty Bear,RG1 3BY,51.45465500000000,-0.96341900000000
Wild Lime,RG1 3DB,51.4546,-0.9628
The jolly anglers ,RG1 3EA,51.45694300000000,-0.95168000000000
The Reading Room,RG1 3EJ,51.45621300000000,-0.96875200000000
Baxterstorey at Prudential,RG1 3ES,51.45522400000000,-0.96165000000000
McDonalds at Forbury Retail Park,RG1 3HS,51.45770300000000,-0.95929100000000
KFC - Reading Forbury,RG1 3JD,51.45794500000000,-0.96327300000000
KFC at Forbury Retail Park,RG1 3JD,51.45794500000000,-0.96327300000000
Compass Group Uk and Ireland Ltd,RG1 3JH,51.45819854736330,-0.96766698360443
la romani,RG1 3NY,51.4536,-0.9473
Jamaica Blue Royal Berkshire Hospital,RG1 4AN,51.4536,-0.9612
Lyndhurst Arms,RG1 4DG,51.45372000000000,-0.96038900000000
London Street Brasserie,RG1 4PN,51.4539,-0.9682
Great expectations ,RG1 4PS,51.45270000000000,-0.96808300000000
Royal Tandoori Indian Restaurant,RG1 4RY,51.45470700000000,-0.96923300000000
Bakery House Ltd,RG1 4SJ,51.45137700000000,-0.96789700000000
VVVS 1 LTD,RG1 5BA,51.45260700000000,-0.94950500000000
PIWNICA LIMITED,RG1 5BY,51.45230100000000,-0.95545600000000
Monty's Cafe,RG1 5PZ,51.44843040000000,-0.94992890000000
LA FANTASTICA STORIA LTD,RG1 7HT,51.4563,-0.9825
Creams Reading,RG1 7LA,51.45551100000000,-0.97687100000000
New York Gourmet ,RG1 7LT,51.45539700000000,-0.97822700000000
Boswells Cafe,RG1 7QE,51.45481900000000,-0.97590800000000
MEXVIEW LTD TRADING AS SUSHIMANIA,RG1 7QF,51.4544,-0.9764
Pepe Sale Restaurant,RG1 7QF,51.45437300000000,-0.97637900000000
Subway Broad Street Mall,RG1 7QG,51.45502000000000,-0.97632100000000
Taco Bell,RG1 7QH,51.45499520000000,-0.97538150000000
Sweeney and Todd,RG1 7RD,51.45362400000000,-0.97499900000000
Brewdog,RG1 7SB,51.45338800000000,-0.97474600000000
Pepes Piri Piri,RG1 7UD,51.45484720000000,-0.98006230000000
TGI Fridays,RG1 8AJ,51.46132600000000,-0.97452500000000
Cozze Restaurant,RG1 8AN,51.46163800000000,-0.97533800000000
Standard Tandoori ,RG1 8AU,51.46291300000000,-0.97602900000000
Riverspice restaurant,RG1 8AZ,51.4639,-0.9764
The Gorge Cafe,RG1 8BB,51.46388400000000,-0.97705800000000
The Moderation,RG1 8BB,51.46388400000000,-0.97705800000000
Crowne Plaza Reading,RG1 8BD,51.46529700000000,-0.97820700000000
Crucible Sports Reading,RG1 8EQ,51.4637,-0.9849
Thames Lido,RG1 8FR,51.4602,-0.9654
The Black Boy,RG1 9BP,51.4607,-0.9748
The Green Man,RG10 0BP,51.45979100000000,-0.84974800000000
Elephant and Castle,RG10 0EH,51.46144900000000,-0.86027200000000
The Shurlock Inn,RG10 0PS,51.46237945556640,-0.80277001857758
The castle inn ,RG10 0SJ,51.45060500000000,-0.85567800000000
Dragonfly Cafe,RG10 0TH,51.44208800000000,-0.86850900000000
Heron on the Ford LTD,RG10 0UE,51.46554183959960,-0.88009399175644
Hilton Bracknell,RG12 0QJ,51.39445200000000,-0.74263600000000
Fuego,RG12 1BD,51.4178,-0.7499
Mason and Rye,RG12 1BD,51.4178,-0.7499
BAR TORINO LIMITED,RG12 1DL,51.41627400000000,-0.74832200000000
Blue's Smokehouse,RG12 1DS,51.41706900000000,-0.75202500000000
Brown Bag,RG12 1EA,51.41644750000000,-0.75025810000000
McDonalds,RG12 1EA,51.41650009155270,-0.75015598535538
Hollywood Bowl,RG12 1EN,51.41479500000000,-0.75464600000000
Pizza Hut,RG12 1EN,51.41479500000000,-0.75464600000000
Starbucks Bracknell,RG12 1LS,51.41547012329100,-0.75061601400375
Starbucks,RG12 1LS,51.41547012329100,-0.75061601400375
Maxis,RG12 1RF,51.4177,-0.7710
SAMBAVI PETROLEUM LIMITED,RG12 2TB,51.41497802734380,-0.73327201604843
Balti King,RG12 7BN,51.40469400000000,-0.75607100000000
South Hill Park Arts Centre,RG12 7PA,51.39373800000000,-0.74984200000000
Starbucks Coffee Shop,RG12 7SS,51.39270100000000,-0.74037000000000
Elior Catering at 3M,RG12 8HT,51.41646500000000,-0.77834300000000
COPPID BEECH HOTEL,RG12 8TF,51.41521100000000,-0.79006800000000
Sultan Balti House Ltd,RG12 8UX,51.39941900000000,-0.77087600000000
The Look In Community Cafe,RG12 8UX,51.3994,-0.7708
KFC,RG12 9SE,51.40479400000000,-0.74778700000000
Costa Coffee,RG12 9TZ,51.40910300000000,-0.72703600000000
SUBWAY,RG12 9TZ,51.40910339355470,-0.72703599929810
BJs Bingo,RG2 0BS,51.43233000000000,-0.97180800000000
Gooi Nara,RG2 0EG,51.44541900000000,-0.96526900000000
Dhaulagiri Kitchen Cafe and Restaurant,RG2 0ER,51.43993800000000,-0.96674500000000
voco Reading,RG2 0FL,51.42233400000000,-0.98350900000000
Comptoir Reading,RG2 0FP,51.4308,-0.9737
Nando's,RG2 0GG,51.41763305664060,-0.97407400608063
Hilton Reading,RG2 0GQ,51.4305,-0.9764
FIDGET & BOB,RG2 0GX,51.43125500000000,-0.97525500000000
Subway Brunel Retail Park ,RG2 0HS,51.4352,-0.9734
Costa Coffee Store at Reading Gate Retail Park,RG2 0QG,51.42327100000000,-0.98064000000000
KFC - READING Gate,RG2 0QG,51.4232,-0.9807
KFC at Reading Gate Retail Park,RG2 0QG,51.42327100000000,-0.98064000000000
McDonalds at Reading Gate Retail Park,RG2 0QG,51.42327100000000,-0.98064000000000
Pizza Hut Restaurant at Reading Gate Retail Park,RG2 0QG,51.42327100000000,-0.98064000000000
Holiday Inn Reading South,RG2 0SL,51.4213,-0.9705
Benugo Cafe at Verizon at Reading International Business Park,RG2 6DA,51.41518200000000,-0.97590200000000
Wolf Italian Street Food,RG2 6UG,51.42016700000000,-0.98762600000000
Zest at Lime Square,RG2 6UP,51.41987500000000,-0.98713000000000
KungFu Kitchen / UK Yipin LTD,RG2 7AZ,51.44278900000000,-0.95568800000000
SIZZLING SPICE,RG2 7AZ,51.44278900000000,-0.95568800000000
The Queens Head,RG2 7AZ,51.44278900000000,-0.95568800000000
Dilwar Pindi Express,RG2 7PT,51.43853200000000,-0.96236000000000
China Garden,RG2 8EY,51.42631100000000,-0.94707400000000
COSTA SHINFIELD,RG2 8HA,51.42799900000000,-0.94581200000000
KFC - READING Shinfield Road,RG2 8HA,51.4280,-0.9458
KFC,RG2 8HA,51.42799900000000,-0.94581200000000
Pizza Hut,RG2 8HD,51.42700500000000,-0.94625200000000
L'Ortolan Restaurant,RG2 9BY,51.40797424316410,-0.95281398296356
the six bells shinfield,RG2 9DA,51.41101000000000,-0.95743300000000
Dobbies Garden Centres Plc,RG2 9ER,51.39556100000000,-0.95332800000000
The Restaurant at Henry Street,RG2 9JY,51.39141200000000,-0.91726100000000
Bull Inn,RG2 9QD,51.39762100000000,-0.90709500000000
the gamekeepers,RG25 2LU,51.25950500000000,-1.02023700000000
The Wellington Arms,RG27 0AS,51.33765792846680,-0.99936497211456
The New Inn,RG27 0LE,51.33762300000000,-0.96011700000000
Highfield Park Managment (Hampshire) Limited,RG27 0LG,51.34091300000000,-0.96203800000000
Wellington Riding,RG27 0LJ,51.35476200000000,-0.97249600000000
Wellington Farm Shop,RG27 0LT,51.3582,-0.9743
THE CHEQUERS,RG27 0NS,51.34818700000000,-0.85762700000000
The White Hart,RG27 0PJ,51.35419000000000,-0.88904300000000
The Talley Ho,RG27 0RR,51.35693400000000,-0.88731100000000
The Winchfield Inn,RG27 8BX,51.28536500000000,-0.90723800000000
THE BARLEY MOW,RG27 8DE,51.27933120727539,-0.88705003261566
The Leather Bottle,RG27 8JU,51.31098600000000,-0.94978600000000
Baristas Coffee House and Bistro ,RG27 8NS,51.30654400000000,-0.89986200000000
FAMAA LTD,RG27 8NW,51.3078,-0.8987
Monsoon Restaurant ,RG27 8NW,51.30761900000000,-0.89844600000000
Cafe Courtyard Limited,RG27 8NY,51.30665300000000,-0.89899900000000
Costa Coffee,RG27 8NY,51.30665300000000,-0.89900000000000
Waggon & Horses,RG27 8NY,51.30665300000000,-0.89899900000000
The Taj,RG27 8PE,51.30520200000000,-0.90343800000000
Hartley Wintney Golf Club Ltd,RG27 8PT,51.30754600000000,-0.89735700000000
Cricketers pub ltd,RG27 8QB,51.30621000000000,-0.89879500000000
The Cricketers,RG27 8QB,51.30621000000000,-0.89879500000000
MAMA MIA RESTAURANT LIMITED,RG27 8RT,51.29698400000000,-0.91222600000000
The Phoenix Inn,RG27 8RT,51.29698400000000,-0.91222600000000
 THE QUEENS HEAD PUB,RG27 8SY,51.26978683471680,-0.87463700771332
Old House at Home,RG27 9AH,51.28199386596680,-0.98936200141907
Tylney Hall Hotel & Gardens,RG27 9AZ,51.29180900000000,-0.98379700000000
The Coach & Horses,RG27 9BG,51.30140304565430,-0.97953897714615
The Falcon,RG27 9BL,51.30242700000000,-0.97329100000000
Hook House Hotel,RG27 9EQ,51.28768539428710,-0.95066201686859
Hook Hampshire Limited t/a Hook Tandoori,RG27 9HE,51.2809,-0.9625
The Hogget,RG27 9JJ,51.27525200000000,-0.97725200000000
Basingstoke Country Hotel,RG27 9JS,51.27386200000000,-0.98817800000000
Cafe Baristas Hook LTD,RG27 9LE,51.2806,-0.9670
Hartletts Cafe,RG27 9NN,51.28396900000000,-0.95435900000000
Fox and Goose,RG29 1BY,51.25689800000000,-0.97199900000000
The Mill House,RG29 1ET,51.26322700000000,-0.95253700000000
Newlyns Farm Shop,RG29 1HA,51.26768400000000,-0.94720400000000
The Derby Inn,RG29 1HD,51.2679,-0.9548
El Castello Odiham,RG29 1LB,51.25379600000000,-0.93988300000000
Kings Restaurant Odiham,RG29 1LF,51.25400900000000,-0.93843100000000
The Red Lion,RG29 1LP,51.25451700000000,-0.94002400000000
R TANDOORI LIMITED,RG30 1AD,51.45656800000000,-0.99413400000000
Costa Coffee at Tesco,RG30 1AH,51.45968200000000,-0.99549000000000
Subway Tesco,RG30 1AP,51.45771600000000,-0.99901700000000
The White Eagle,RG30 1AQ,51.45740000000000,-0.99780000000000
McDonalds,RG30 1AS,51.45516500000000,-0.99092600000000
Lamamaia kitchen,RG30 1AY,51.4561,-0.9938
Farmhouse Pizza,RG30 1HD,51.45708600000000,-0.99789300000000
yaadgaar,RG30 1HD,51.4571,-0.9979
BETTY'S BISTRO LP,RG30 1HF,51.45745100000000,-0.99961200000000
Avilah Foods Limited,RG30 1HJ,51.45777100000000,-1.00123200000000
Pizza Hut Delivery,RG30 1HJ,51.45777100000000,-1.00123200000000
Red Kangaroo (Reading) Ltd,RG30 1JT,51.46084000000000,-1.00580000000000
KFC - READING Oxford Road,RG30 1PR,51.46086400000000,-1.01394700000000
KFC at Reading Retail Park,RG30 1PR,51.46086400000000,-1.01394700000000
THE SPREAD EAGLE ,RG30 2EG,51.45381200000000,-1.00095800000000
Out to lunch,RG30 3RP,51.45352172851563,-0.96301001310349
The Grove Cafe,RG30 4AA,51.44971400000000,-1.01722300000000
THAI TABLE RESTAURANT,RG4 7AD,51.46757400000000,-0.97853000000000
Lebanese Village ,RG4 8AA,51.46688700000000,-0.97703400000000
Spice Oven Restaurant,RG4 8AT,51.46757500000000,-0.97660200000000
Costa Coffee Store,RG4 8BA,51.46738900000000,-0.97486400000000
Costa Coffee,RG4 8BA,51.46738900000000,-0.97486400000000
Vegivores,RG4 8BA,51.46738900000000,-0.97486400000000
Bina Tandoori,RG4 8JB,51.46827900000000,-0.97172000000000
Quattro Restaurant LTD,RG4 8JG,51.46798300000000,-0.97287800000000
Spitiko Greek Restaurant,RG4 8JG,51.4680,-0.9729
The Baron Cadogan ,RG4 8JG,51.46798300000000,-0.97287800000000
Tipsy Bean,RG4 8JG,51.46798300000000,-0.97287800000000
The Last Crumb,RG4 8JN,51.46907500000000,-0.97116900000000
Sultan Balti Palace,RG40 1AL,51.41014800000000,-0.83447300000000
Nando's,RG40 1AP,51.40982900000000,-0.83399200000000
PAD THAI/ RED LION,RG40 1AP,51.40982900000000,-0.83399200000000
Piccolo Arco ltd,RG40 1AS,51.41033900000000,-0.83377800000000
Costa Coffee,RG40 1AT,51.41066800000000,-0.83339600000000
Pizza Express,RG40 1AU,51.41152400000000,-0.83534400000000
Zizzi Ristorante,RG40 1AU,51.41152400000000,-0.83534400000000
Hilton St Anne's Manor,RG40 1ST,51.41041500000000,-0.79854800000000
Baranda restaurant ,RG40 1XG,51.41077900000000,-0.83191200000000
Pizza Hut,RG40 1XG,51.41090500000000,-0.83188000000000
BOISHAKHI RESTAURANT,RG40 1XH,51.41142200000000,-0.83051500000000
Wokingham Tree Ltd,RG40 1XH,51.4116,-0.8303
Pan Restaurant,RG40 1XJ,51.41103370000000,-0.83039430000000
The Tamarind Tree,RG40 1XQ,51.41114900000000,-0.83108300000000
BAR 56 LTD ,RG40 1XU,51.4118,-0.8320
Ruchetta,RG40 1XU,51.41177900000000,-0.83205900000000
Caffe Nero,RG40 1YJ,51.41020200000000,-0.83264500000000
Station fish bar ,RG40 2AE,51.41114100000000,-0.84119100000000
Burger King (UK) Limited,RG40 2AT,51.40667800000000,-0.83814100000000
Far East Catering UK LTD,RG40 2AY,51.4089,-0.8356
Sanpa,RG40 2AY,51.40901700000000,-0.83553700000000
Aroma,RG40 2BB,51.40912800000000,-0.83500200000000
Rossini Restaurant ,RG40 2BB,51.40912800000000,-0.83500200000000
The Lord Raglan,RG40 2BB,51.40882540000000,-0.83531020000000
Giggling Squid,RG40 2LD,51.40960500000000,-0.83592500000000
Costa Coffee,RG40 2NS,51.40485700000000,-0.83765500000000
Brown Bag,RG40 2SL,51.4092,-0.8356
The White Horse Pub,RG40 3AF,51.40124200000000,-0.81524900000000
Squire's Garden Centre Wokingham,RG40 3AS,51.38540267944340,-0.81469500064850
The Grange Chocolate Cafe Ltd,RG40 3AW,51.39421463012700,-0.81573200225830
The Crooked Billet,RG40 3BJ,51.39326095581050,-0.81542599201202
Sports and Leisure Management/Everyone Active,RG40 3DH,51.39236420000000,-0.78421670000000
Wokingham Family Golf ,RG40 3HG,51.39152526855470,-0.84257698059082
Sand Martins Golf Club Limited,RG40 3RQ,51.39142700000000,-0.85272800000000
The Queens Oak,RG40 4LS,51.36941400000000,-0.86104900000000
Wilson Vale Catering,RG40 4TS,51.39276123046880,-0.89622998237610
Cantley House Hotel,RG40 5QG,51.42089700000000,-0.83756500000000
The Farm Cafe ,RG40 5QY,51.43258400000000,-0.83456400000000
EMMBROOK INN,RG41 1HG,51.42187881469730,-0.85482597351074
The Dog & Duck ,RG41 1JT,51.42245400000000,-0.84776500000000
Compass Group at Windmill Primary School,RG41 3DR,51.41376000000000,-0.85510200000000
Bearwood Lakes Golf Club Limited,RG41 4SJ,51.40975700000000,-0.87823600000000
Walter Arms,RG41 5BP,51.42230987548830,-0.88374000787735
Nirvana Spa & Leisure Ltd,RG41 5DJ,51.41849517822270,-0.89208501577377
Costa at Showcase Cinema de Lux Reading,RG41 5HG,51.43634414672850,-0.89968299865723
WInnersh Garden Centre,RG41 5HG,51.43634300000000,-0.89968300000000
Costa Coffee Drive Thru,RG41 5HQ,51.43614578247070,-0.89294099807739
MERIDIAN READING LTD,RG41 5TS,51.4385,-0.8874
Compass Group at Wheatfield Primary School,RG41 5UU,51.42876400000000,-0.86955800000000
The Admiral Cunningham Hotel ,RG42 1TU,51.42102500000000,-0.76391100000000
Koh I Noor Restaurant,RG42 1UD,51.42159652709960,-0.76434201002121
Costa Coffee,RG42 3JP,51.42626200000000,-0.73137800000000
Daruchini Restaurant,RG42 4AJ,51.42571700000000,-0.78698500000000
The Stag & Hounds,RG42 4HA,51.43266300000000,-0.78124900000000
Amir Restaurant,RG42 4JF,51.43083400000000,-0.79047500000000
A1 Spices Ltd T/A Spice Lounge,RG42 6AE,51.43452500000000,-0.74726200000000
The Yorkshire Rose,RG42 6AE,51.43451690673830,-0.74723297357559
Plough & Harrow,RG42 6AU,51.4319,-0.7372
Robyn's Nest Cafe,RG42 6EJ,51.44532394409180,-0.75132697820663
Compass Group UK,RG42 6EY,51.45274700000000,-0.74847600000000
Stirrups Hotel,RG42 6LD,51.44447326660160,-0.71190798282623
Don Beni Winkfield,RG42 6NH,51.43165600000000,-0.70901800000000
Cumin Garden,RG45 6DS,51.3675,-0.8176
Kabirs,RG45 6LZ,51.37042700000000,-0.79328800000000
Two Sisters Cafe Ltd,RG45 7AF,51.36818970000000,-0.79344770000000
Beatons Tearoom & Bookshop,RG45 7AH,51.36701900000000,-0.79415300000000
Villa Roma ,RG45 7AH,51.36726140000000,-0.79411850000000
The Rolling Feast,RG45 7AP,51.36688960000000,-0.79468850000000
Costa Coffee,RG45 7AT,51.36854300000000,-0.79369700000000
Costa Coffee,RG45 7AX,51.3688,-0.7935
The Waterside,RG5 3EZ,51.44396972656250,-0.90837800502777
California Steak House,RG5 3JP,51.4526,-0.9060
Costa Coffee,RG5 3JP,51.45283100000000,-0.90606600000000
Cozze Restaurant,RG5 3JP,51.45287500000000,-0.90606500000000
Crumbs,RG5 3LX,51.45295300000000,-0.90472400000000
Prodeep Ltd T/A Red Rose Restaurant,RG5 4JE,51.45391070000000,-0.90097940000000
Brown Bag,RG5 4JZ,51.45405600000000,-0.90438100000000
Pizza Hut Delivery,RG5 4UL,51.45511000000000,-0.88839500000000
Choose cafe ltd ,RG5 4UX,51.45415200000000,-0.88782800000000
Benugo  The Waterfront,RG6 1AD,51.45796400000000,-0.93236900000000
Miah's Garden Of Gulab,RG6 1JL,51.45040000000000,-0.94007200000000
The Palmer Tavern,RG6 1JL,51.45040000000000,-0.94007200000000
Rizouq,RG6 1LH,51.4485,-0.9368
The Original Gourmet Burger ,RG6 1LH,51.44855400000000,-0.93680500000000
VVVS 2 Ltd,RG6 1LH,51.4485,-0.9368
The Three Tuns,RG6 1LT,51.44297100000000,-0.93195600000000
The Roebuck Pub,RG6 1NY,51.44737100000000,-0.93323500000000
CH&CO Catering @ Aker Solutions,RG6 1PT,51.46046829223630,-0.93279999494553
Keis Peking Restaurant ,RG6 3HD,51.42844400000000,-0.91373900000000
RAJMONI,RG6 3HD,51.4285,-0.9137
Waterfall Restaurant,RG6 7NZ,51.43671300000000,-0.92601700000000
MIAHS LTD,RG7 1AE,51.39592600000000,-0.97324200000000
The Farriers Arms,RG7 1AE,51.39592600000000,-0.97324200000000
The Bull at Riseley ,RG7 1QL,51.36209600000000,-0.96595400000000
The Crown,RG7 1QY,51.37835100000000,-0.95856200000000
The George and Dragon,RG7 1TJ,51.37595367431640,-0.94363099336624
The Elm Tree,RG7 2AZ,51.37187600000000,-1.00290000000000
The Iron Duke Strafield Saye Ltd ,RG7 2EH,51.34986400000000,-1.02105400000000
Ginger Dog Company T/A The Rose and Crown,SL4 2DP,51.43027000000000,-0.66636200000000
The Duke of Edinburgh ,SL4 2DP,51.43027000000000,-0.66636200000000
The Old Hatchet,SL4 2EE,51.43330383300780,-0.67444497346878
The Alma,SL4 3PP,51.47463300000000,-0.61861700000000
The Prince Albert,SL4 4BS,51.47119200000000,-0.63035500000000
Gurkha Royale Restaurant & Bar,SL4 4DE,51.47318267822270,-0.63700497150421
The Winning Post,SL4 4SW,51.44651900000000,-0.70566300000000
Pizza Express,SL5 0DQ,51.39256200000000,-0.62936900000000
The Broomhall Hutt,SL5 0DQ,51.39256200000000,-0.62936900000000
THE TABLESPOON BRASSERIE,SL5 0DS,51.3928,-0.6279
Fego Restaurant Sunningdale,SL5 0DU,51.39273000000000,-0.62832900000000
ELIANE,SL5 0EP,51.39146900000000,-0.63280800000000
PAZZIA RESTAURANT,SL5 0PN,51.40649100000000,-0.63632900000000
Bluebells Restaurant,SL5 0PU,51.40911740000000,-0.62483280000000
dukes head,SL5 7AG,51.40346100000000,-0.65579800000000
Dog and Partridge,SL5 7AQ,51.40261500000000,-0.65812300000000
Fego Caffe Ascot,SL5 7HD,51.41016800000000,-0.67225200000000
VALL DE CAVALL,SL5 7HE,51.41019600000000,-0.67159000000000
Ascot Spices,SL5 7HG,51.41096100000000,-0.67402700000000
Starbucks Ascot High Street,SL5 7HP,51.4107,-0.6723
Starbucks,SL5 7HP,51.41074900000000,-0.67196200000000
RAGC Ltd,SL5 7LJ,51.4165,-0.6674
The thatched tavern,SL5 7QG,51.41695400000000,-0.64371100000000
DRAWING ROOM,SL5 7SE,51.40706000000000,-0.61582300000000
RESTAURANT COWORTH PARK,SL5 7SE,51.40706000000000,-0.61582300000000
THE BARN RESTAURANT,SL5 7SE,51.40706000000000,-0.61582300000000
Lavender Park Golf Centre,SL5 8BD,51.41142000000000,-0.70708600000000
Royal Foresters,SL5 8DR,51.41233480000000,-0.70689770000000
Mill Ride Golf Club,SL5 8LT,51.42059000000000,-0.69629900000000
MAYA,SL5 9NE,51.40172700000000,-0.65521600000000
Rajbhoog Restaurant,SL5 9NE,51.40172576904300,-0.65521699190140
The Courtyard,SL5 9NF,51.40096100000000,-0.65582900000000
THE SUN CAFE,SL5 9NG,51.4010,-0.6563
Sunningdale Heath Golf Club,SL5 9RX,51.38792100000000,-0.63774300000000
Bird Hills (UK) Ltd,SL6 3ST,51.46753300000000,-0.75040400000000
