name,postcode,lat,lon
ASK Italian,BR1 1AB,51.41302700000000,0.02659400000000
Branded Two Ltd ta Bird & Bun,BR1 1AB,51.40452700000000,0.01413900000000
COSTA COFFEE   BROMLEY,BR1 1DD,51.4039,0.0166
Cafe Giardino - Bromley 2,BR1 1DD,51.4039,0.0166
Caffe Nero,BR1 1DD,51.40390100000000,0.01657000000000
Patisserie Valerie,BR1 1DD,51.40390100000000,0.01657000000000
Cafe Giardino - Bromley 1,BR1 1DN,51.4039,0.0166
McDonalds,BR1 1DN,51.40390100000000,0.01657000000000
Quiznos,BR1 1DN,51.40389020000000,0.01660760000000
Wagamama,BR1 1DN,51.40389020000000,0.01660760000000
Direct Line Insurance (CH&CO Catering Group Ltd ),BR1 1DP,51.39919700000000,0.01659300000000
PRIVE LOUNGE,BR1 1DS,51.3998,0.0163
Caffe Nero,BR1 1EA,51.40042114257810,0.01661800034344
German Doner Kebab,BR1 1EA,51.40015610000000,0.01673090000000
Oceans Fresh ltd ,BR1 1EA,51.4005,0.0167
Subway,BR1 1EA,51.40042000000000,0.01661800000000
Studio Gusto Italian Restaurant ,BR1 1EG,51.40160500000000,0.01567800000000
Pret A Manger,BR1 1EY,51.40301200000000,0.01492100000000
Insomnia Coffee House,BR1 1HE,51.40521800000000,0.01424100000000
JS ENC LTD,BR1 1HG,51.4037,0.0148
Smoque Bromley,BR1 1HT,51.40153100000000,0.01423700000000
BURGER KING-High Street Bromley,BR1 1JQ,51.40348900000000,0.01540200000000
Burger King,BR1 1JQ,51.40348900000000,0.01540200000000
KFC,BR1 1JY,51.40206300000000,0.01621600000000
Papayaya,BR1 1LE,51.40140100000000,0.01658900000000
Over The Moon,BR1 1LF,51.40053500000000,0.01722700000000
urban in bromley Limited,BR1 1LF,51.4005,0.0172
Armi (kent)ltd,BR1 1LG,51.4009,0.0170
Starbucks Coffee,BR1 1LG,51.40093400000000,0.01702900000000
Hot Spot Creamery Limited,BR1 1LR,51.4026,0.0167
CrepeAffaire Bromley,BR1 1NA,51.40557300000000,0.01552100000000
Five Guys,BR1 1NA,51.40550670000000,0.01568670000000
McDonalds,BR1 1NA,51.40580330000000,0.01465010000000
Starbucks Coffee,BR1 1NA,51.40557400000000,0.01552200000000
STONEHENGE CAFE,BR1 1NJ,51.40541300000000,0.01492500000000
ATH Catering Limited,BR1 1NN,51.4061,0.0139
Havet Restaurant,BR1 1NN,51.40605000000000,0.01394700000000
sanxiarenjia,BR1 1NZ,51.4069,0.0124
BOWL O PHO,BR1 1PQ,51.40643300000000,0.01258300000000
KEKIK KITCHEN,BR1 1PQ,51.40643300000000,0.01258300000000
Texas Jacks Restaurant,BR1 1PQ,51.40643300000000,0.01258300000000
The Diners Inn,BR1 1PW,51.40596771240230,0.01339200045913
Aqua Brasserie Bromley Limited,BR1 1QN,51.40757500000000,0.01630000000000
Cow & Pig Bromley,BR1 1QQ,51.40740700000000,0.01607700000000
The Railway Tavern ,BR1 1QQ,51.40740700000000,0.01607700000000
NAM THAI ,BR1 1QU,51.40713100000000,0.01646800000000
MISO LTD,BR1 1QX,51.40644200000000,0.01573300000000
BLK 1971 LTD T/A TREASURE OF CHINA CHINESE RESTAURANT,BR1 1RF,51.40741600000000,0.01453900000000
1917chillcafe,BR1 1RL,51.4062,0.0161
Gourmet Burger Kitchen,BR1 1RL,51.40620200000000,0.01606700000000
Nando's,BR1 1RL,51.40620300000000,0.01606700000000
Pizza Express,BR1 1RL,51.40620300000000,0.01606700000000
Zizzi,BR1 1RL,51.40620300000000,0.01606700000000
Terrace cafe ,BR1 1RW,51.40626900000000,0.01690400000000
Franco Manca,BR1 1RY,51.40577400000000,0.01692600000000
Mission Cafe,BR1 1TS,51.40231500000000,0.01671500000000
Nick's Cafe,BR1 1TS,51.40231600000000,0.01671600000000
THE OAK,BR1 2RH,51.40584700000000,0.03406800000000
The Oak public house,BR1 2RH,51.40584700000000,0.03406800000000
TAMASHA LIMITED,BR1 3AX,51.40665600000000,0.03096900000000
Sundridge Park Golf Club Limited ,BR1 3NE,51.41765800000000,0.02504200000000
CINNAMON CULTURE,BR1 3PA,51.41427900000000,0.01965800000000
The Lavender House Café Ltd,BR1 3PA,51.41427900000000,0.01965800000000
montagues sandwich bar,BR1 3QR,51.40936000000000,0.01078500000000
KEKIK KITCHEN,BR1 3RU,51.4078,0.0091
Civic Cafe,BR1 3UH,51.40388900000000,0.02036500000000
The Court Hotel (Bromley) Ltd,BR1 4JD,51.41672600000000,0.00181800000000
McDonalds Bromley Garden Gate,BR1 4JY,51.4219,-0.0042
Downham KFC Store,BR1 4PB,51.4237,-0.0040
Shortlands Golf Club,BR2 0BP,51.4079,0.0001
Bridge Cafe Shortlands Ltd,BR2 0DW,51.4066,0.0032
Truffles kitchen ,BR2 0TY,51.39242600000000,0.00241000000000
COSTA COFFEE   WESTMORELAND ROAD,BR2 0TZ,51.39198100000000,0.00111100000000
Daisy Grey Keston,BR2 6BP,51.36359400000000,0.02857500000000
The Greyhound  ,BR2 6BP,51.36359400000000,0.02857500000000
Metropolitan Police Hayes Sports Club Ltd,BR2 7AL,51.37063000000000,0.00857000000000
The New Inn,BR2 7EA,51.37600708007810,0.01126299984753
COSTA COFFEE   HAYES,BR2 7EB,51.37640700000000,0.01149600000000
Costa Coffee,BR2 7EB,51.37640700000000,0.01149600000000
MUMBAI CENTRAL,BR2 7EH,51.37722600000000,0.01041100000000
ELACHI (HAYES) LIMITED,BR2 7EJ,51.37666000000000,0.01090400000000
Elachi (Hayes) ltd t/a Ginger,BR2 7EJ,51.3766,0.0109
tugra restaurant ltd,BR2 7EJ,51.37661400000000,0.01091600000000
Hayes Street Kitchen ,BR2 7LD,51.37900900000000,0.01761700000000
Hello Burger Hayes,BR2 7LD,51.37900900000000,0.01761700000000
Old Village Cafe,BR2 7LD,51.37900900000000,0.01761700000000
McDonalds,BR2 8NH,51.37510800000000,0.04496200000000
Yasmin Restaurant,BR2 8NQ,51.37441700000000,0.04540500000000
The darjeeling,BR2 9HT,51.39715700000000,0.02328900000000
Crown of Bromley,BR2 9JG,51.39562000000000,0.02481700000000
DonGiovanni Restaurant,BR2 9LB,51.3972,0.0293
Pizza Hut Delivery,BR2 9LD,51.39690000000000,0.02933000000000
Rosie lee cafe & Deli,BR2 9LD,51.39690000000000,0.02933000000000
Pink Garlic,BR2 9QN,51.39273200000000,0.03473700000000
The Fireball Pizza Company,BR2 9QN,51.39273200000000,0.03473600000000
Virgin Active Bromley,BR2 9RB,51.39694976806640,0.03890600055456
Q BAR and Kitchen,BR3 1AE,51.40638100000000,-0.02874300000000
Zizzi,BR3 1AE,51.40638100000000,-0.02874300000000
Koz Restaurant,BR3 1AG,51.40701100000000,-0.02772400000000
Prezzo,BR3 1AG,51.40650500000000,-0.02821010000000
EATWELL BECKENHAM LTD,BR3 1AH,51.4064,-0.0302
Nando's,BR3 1AH,51.40644300000000,-0.03030800000000
Pizza Express,BR3 1AH,51.40644300000000,-0.03030800000000
Kelsey House Bar & Kitchen ,BR3 1AN,51.40751200000000,-0.02599100000000
Branded one ltd,BR3 1AW,51.40790300000000,-0.02515500000000
Junction Restaurant,BR3 1AW,51.40800100000000,-0.02509300000000
My Place,BR3 1AW,51.40789180000000,-0.02511650000000
Beckenham Fine Foods Limited,BR3 1AY,51.40959700000000,-0.02544560000000
Ems Kitchen,BR3 1AY,51.40960800000000,-0.02548400000000
Fee and Brown,BR3 1AY,51.40960800000000,-0.02548400000000
poached,BR3 1AZ,51.41063690185550,-0.02516599930823
Hisar meze bar,BR3 1BN,51.40664800000000,-0.03183700000000
WILD MANGO (UK) LTD,BR3 1BN,51.40664800000000,-0.03183700000000
Dizzys restaurant bar Ltd,BR3 1DZ,51.40677600000000,-0.03033700000000
Subway,BR3 1DZ,51.40677600000000,-0.03033700000000
Wimpy Restaurant ,BR3 1DZ,51.40677600000000,-0.03033700000000
Miso noodle bar,BR3 1EB,51.40782000000000,-0.02613600000000
Agora Greek Restaurant,BR3 1ED,51.40834000000000,-0.02549500000000
Bocca Social Limited,BR3 1ED,51.40834000000000,-0.02549500000000
Cosy kitchen,BR3 1ED,51.4083,-0.0255
PIER LUIGI'S RESTAURANT LIMITED,BR3 1ED,51.4083,-0.0255
Rendez-vous cafe,BR3 1ED,51.40834000000000,-0.02549500000000
SAPORE VERO MANAGEMENT LIMITED,BR3 1ED,51.40834000000000,-0.02549500000000
Bigcatch,BR3 1EN,51.4067,-0.0289
Starbucks Beckenham,BR3 1EN,51.40670600000000,-0.02887200000000
Starbucks Coffee,BR3 1EN,51.40670600000000,-0.02887200000000
Caffe Nero,BR3 1EW,51.40749200000000,-0.02797600000000
Village Bistro Cafe,BR3 1EW,51.40749200000000,-0.02797600000000
DE FOOD & LEISURE LIMITED,BR3 1SD,51.4124,-0.0239
The Langley Quarter ,BR3 3DE,51.39074200000000,-0.02767600000000
The Amber Fort,BR3 3DY,51.39154200000000,-0.03888200000000
Agra Beckenham,BR3 3HG,51.39078300000000,-0.02901100000000
Baturello Cafe Pizzeria,BR3 3HG,51.39078300000000,-0.02901100000000
Lugana ,BR3 3HN,51.39875200000000,-0.04037100000000
The Coach & Horses,BR3 3LA,51.40616600000000,-0.02668200000000
7 Village Way,BR3 3NA,51.40526580810550,-0.02930900081992
Leo’s Kitchen,BR3 3PP,51.40632100000000,-0.03267100000000
Meant2bean ,BR3 3PS,51.4027,-0.0368
TIYA’S CAFE LIMITED,BR3 3PS,51.40266800000000,-0.03683900000000
Beckenham Curry Club,BR3 3QZ,51.39855400000000,-0.04305300000000
Goodfella Vapes Limited,BR3 3RA,51.39882900000000,-0.04232300000000
Kemer Ltd,BR3 3RB,51.39882600000000,-0.04157500000000
Our Kitchen,BR3 3RB,51.39882600000000,-0.04157500000000
Spice Society,BR3 3RB,51.39882600000000,-0.04157500000000
Zi Teresa Ristorante Italiano Ltd,BR3 3RB,51.39882500000000,-0.04157500000000
Novi & Co.Limited,BR3 4EP,51.40695560000000,-0.03254750000000
500 DEGREES CLOCK HOUSE LTD,BR3 4PR,51.40828900000000,-0.03849600000000
El Molino,BR3 4RP,51.40994200000000,-0.04596100000000
SE Twenty,BR3 4SY,51.40557690000000,-0.05663300000000
ASK Italian,BR3 5JE,51.40836100000000,-0.02411400000000
The Chancery,BR3 5NP,51.40687290000000,-0.01749650000000
SAJNA RESTAURANT LIMITED,BR3 5NT,51.4067,-0.0158
Daisy Grey Beckenham,BR3 6QH,51.4006,-0.0185
Parc Franglaises Ltd,BR3 6QH,51.40062400000000,-0.01855300000000
Langley Park Golf Club Limited,BR3 6SZ,51.38765716552730,-0.00854900013655
PRIMA DONNAS,BR4 0EL,51.38051900000000,-0.01394600000000
RAIFE'S LTD,BR4 0EL,51.38038580000000,-0.01408510000000
Miller & Carter,BR4 0HH,51.38480200000000,0.00227800000000
Marmaris Restaurant ,BR4 0JH,51.37929500000000,-0.01704600000000
Blue Hook Limited,BR4 0LP,51.3757,-0.0155
Ollie Polly play cafe ,BR4 0LP,51.37574860000000,-0.01585180000000
Pizza Express,BR4 0LP,51.37571800000000,-0.01557700000000
Caffe Nero,BR4 0LR,51.37594900000000,-0.01700400000000
IL PRIMO (WW) LIMITED ,BR4 0LS,51.37636500000000,-0.01878200000000
SUPER FOOD ENTERPRISE LTD,BR4 0LS,51.37644360000000,-0.01919850000000
Corza Cafe Bar,BR4 0LT,51.37669100000000,-0.02000300000000
Harpers,BR4 0LT,51.37669200000000,-0.02000300000000
Indian Diner,BR4 0LT,51.37669200000000,-0.02000300000000
KFC,BR4 0LZ,51.37732315063480,-0.02115399949253
Topolino Italian Restaurant,BR4 0LZ,51.37732300000000,-0.02115400000000
DINESTYLE LTD,BR4 0ND,51.3771,-0.0200
Hisar Meze Bar ,BR4 0NH,51.37645600000000,-0.01775800000000
Prayosha enterprises ltd ,BR4 0NH,51.3764,-0.0177
Pizza Hut Delivery,BR4 0RL,51.37512600000000,-0.01143500000000
SONARGAON TANDOORI,BR4 0RL,51.37512600000000,-0.01143500000000
Coneys cafe,BR4 9HZ,51.37023000000000,0.00198700000000
Smoque Coney,BR4 9HZ,51.3702,0.0020
Thai Elephant,BR4 9HZ,51.37023000000000,0.00198700000000
Arabica Coffee House,BR5 1DF,51.38914100000000,0.07288200000000
BAY LEAF ENN LIMITED,BR5 1DF,51.3891,0.0729
Oakley Coffee,BR5 1DF,51.38914100000000,0.07288200000000
Queensway Tearooms and Bakery ,BR5 1DG,51.38952000000000,0.07180700000000
RAJDOOT,BR5 1DG,51.38952000000000,0.07180700000000
Thai Moom,BR5 1DG,51.38952000000000,0.07180700000000
As u like it,BR5 1DQ,51.38848400000000,0.07289600000000
COSTA COFFEE  PETTSWOOD 2,BR5 1DQ,51.38842900000000,0.07295000000000
Cafe Dolce Vita,BR5 1DQ,51.38848400000000,0.07289600000000
Uskudar restaurant,BR5 1DQ,51.38848400000000,0.07289600000000
Atlas Restaurant,BR5 1LA,51.39009400000000,0.07390300000000
saigon bar and grill,BR5 1LA,51.39009400000000,0.07390300000000
Vault and Vine Ltd,BR5 1LU,51.3897,0.0744
Cafe Maz,BR5 1NA,51.38960900000000,0.07439800000000
Coffee X LTD,BR5 1NA,51.38961029052730,0.07439800351858
Desperados Petts Wood,BR5 1NA,51.38960900000000,0.07439800000000
Little India Restaurant,BR5 1NA,51.38960900000000,0.07439800000000
Village Cuisine,BR6 7AZ,51.35971900000000,0.07271700000000
The Woodman,BR6 7BA,51.35922900000000,0.06993700000000
Change Of Horses,BR6 7BB,51.35953800000000,0.06768100000000
HIGH ELMS GOLF COURSE,BR6 7JL,51.34187100000000,0.06491900000000
Dakshin Indian Cuisine,BR6 7US,51.33667000000000,0.05383200000000
The Queens Head,BR6 7US,51.33667000000000,0.05383200000000
George and Dragon,BR6 7UT,51.33621400000000,0.05368200000000
Santuary Brassiere,BR6 8ND,51.36572400000000,0.05961400000000
Chapter One,BR6 8NF,51.36578750610350,0.05295100063086
The British Queen,BR6 8NL,51.36671300000000,0.05450000000000
COSTA COFFEE   LOCKSBOTTOM,BR6 8NN,51.3674,0.0549
CYPRIANIS LOCKBOTTOM ,BR6 8NN,51.3674,0.0549
CYPRIANIS LOCKS BOTTOM,BR6 8NN,51.36743400000000,0.05489200000000
ISTANBUL LOCKSBOTTOM LTD,BR6 8NN,51.3674,0.0549
KOYANA,BR6 8NN,51.3674,0.0549
The Bank Restaurant,BR6 8NN,51.36742500000000,0.05493110000000
Bank House Chislehurst,BR7 5AB,51.41697390000000,0.06828250000000
Giggling Squid,BR7 5AB,51.41674200000000,0.06872300000000
Joëlle’s of Chislehurst,BR7 5AE,51.41763880000000,0.06780920000000
The Chestnut Cafe,BR7 5AE,51.41750400000000,0.06785100000000
Zizzi,BR7 5AE,51.41750400000000,0.06785100000000
The Broadwick,BR7 5AF,51.41801600000000,0.06732800000000
Nene Cafe Bistro,BR7 5AG,51.41920400000000,0.06580000000000
Prezzo,BR7 5AG,51.41920400000000,0.06580000000000
Shaon Restaurant,BR7 5AG,51.41920400000000,0.06580000000000
Caffe Nero,BR7 5AN,51.41823200000000,0.06784100000000
Mountain View,BR7 5AN,51.41823200000000,0.06784100000000
Chislehurst Golf Club Ltd,BR7 5HJ,51.41123400000000,0.06538300000000
Imperial Courtyard Ltd,BR7 5LZ,51.40877900000000,0.06077100000000
Santipur Ltd T/A Gurkha square ,BR7 6AN,51.42040700000000,0.06947800000000
Moonlight Cuisine,BR7 6NR,51.41173070000000,0.07491950000000
Costa Coffee,CR0 0JB,51.3421,-0.0158
KFC New Addington,CR0 0JB,51.34208679199220,-0.01572700031102
Aqua Croydon Mediterranean meze bar and grill ,CR0 1BE,51.36690139770510,-0.09877900034189
Bangkok Inn,CR0 1BE,51.36690139770510,-0.09877900034189
The Chinese Gourmet ,CR0 1BE,51.36690139770510,-0.09877900034189
Tre Fratelli Restaurant ,CR0 1BE,51.36690139770510,-0.09877900034189
ABSHAR RESTAURANT,CR0 1BF,51.36548660000000,-0.09877060000000
Ayat Kitchen Lounge Ltd,CR0 1BF,51.36616130000000,-0.09878580000000
The Store Croydon ,CR0 1BF,51.3656,-0.0987
Yumn Brasserie,CR0 1BF,51.36565780639650,-0.09875799715519
Zizzi,CR0 1BF,51.36565780639650,-0.09875799715519
Apatura,CR0 1DL,51.36710357666020,-0.09918700158596
 Croydon E foods ltd,CR0 1DP,51.36574935913090,-0.09928599745035
Bagatti's Italian,CR0 1DP,51.36574935913090,-0.09928599745035
Navaratna Southindian Restaurant Ltd,CR0 1DP,51.36574935913090,-0.09928599745035
Tree House ,CR0 1DP,51.36574935913090,-0.09928599745035
Nando's,CR0 1GT,51.37290191650390,-0.10062800347805
Turtle Bay Restaurants Limited,CR0 1GT,51.37290191650390,-0.10062800347805
Wagamama,CR0 1JA,51.37380981445310,-0.09735699743032
Elior UK At LV Croydon,CR0 1JD,51.37146377563480,-0.09581699967384
Caffe Nero,CR0 1LB,51.37432861328130,-0.09775300323963
German Doner Kebab,CR0 1LB,51.37432861328130,-0.09775300323963
Triple Two coffee ,CR0 1LB,51.37432861328120,-0.09775300323963
Argentinian Grill,CR0 1LD,51.37463760375980,-0.09512499719858
Bao Bao Taiwanese,CR0 1LD,51.37463760375980,-0.09512499719858
Big Mikes Calypso Kitchen,CR0 1LD,51.37463760375980,-0.09512499719858
Caffe Nero,CR0 1LD,51.37463760375980,-0.09512499719858
Chilango-Boxpark Croydon,CR0 1LD,51.3748,-0.0947
Coqfighter,CR0 1LD,51.37463760375980,-0.09512499719858
Greek on the Street,CR0 1LD,51.37463760375980,-0.09512499719858
Honest Burgers,CR0 1LD,51.37463760375980,-0.09512499719858
K & K Street Food,CR0 1LD,51.37489170000000,-0.09369700000000
Kanji Korean BBQ,CR0 1LD,51.3748,-0.0947
Koshary Kitchen,CR0 1LD,51.37463760375980,-0.09512499719858
MEATLiquor,CR0 1LD,51.3748,-0.0947
Noodle Bar,CR0 1LD,51.37463760375980,-0.09512499719858
Oatopia,CR0 1LD,51.37463760375980,-0.09512499719858
POPTATA CROYDON,CR0 1LD,51.37463760375980,-0.09512499719858
Pret A Manger,CR0 1LD,51.37463760375980,-0.09512499719858
Raveoli Croydon,CR0 1LD,51.3748,-0.0947
Thai Express Croydon,CR0 1LD,51.3748,-0.0947
The Breakfast Club Croydon,CR0 1LD,51.37463760375980,-0.09512499719858
The Gnarbecue,CR0 1LD,51.37463760375980,-0.09512499719858
Thela,CR0 1LD,51.37463760375980,-0.09512499719858
Tinseltown ,CR0 1LD,51.37463760375980,-0.09512499719858
What the Pitta Croydon,CR0 1LD,51.37463760375980,-0.09512499719858
Wine&Deli,CR0 1LD,51.37463760375980,-0.09512499719858
Yumn,CR0 1LD,51.37463760375980,-0.09512499719858
tashi sushi ltd,CR0 1LD,51.37463760375980,-0.09512499719858
Starbucks Trailer,CR0 1LE,51.37533569335940,-0.09669099748135
Burger King,CR0 1LF,51.37498855590820,-0.09289799630642
Caffe Nero,CR0 1LF,51.37498855590820,-0.09289799630642
McDonalds,CR0 1LG,51.37453842163090,-0.09630700200796
Fillings Croydon,CR0 1LH,51.37494920000000,-0.09668340000000
Food Care Limited ,CR0 1LH,51.3749,-0.0967
Memory Box,CR0 1NA,51.3711,-0.1006
Ponte Nuovo Ristorante,CR0 1NA,51.37118530273440,-0.10065600275993
CROWN AND PEPPER,CR0 1NF,51.36890411376950,-0.09990300238132
Paratha Inn,CR0 1NF,51.36890411376950,-0.09990300238132
Saravanaa Bhavan,CR0 1PA,51.37365341186520,-0.09946200251579
Basil & Grape,CR0 1PB,51.37365722656250,-0.09857100248337
Croydon Kokoro Ltd,CR0 1PB,51.3737,-0.0986
Taco Bell,CR0 1PB,51.37365722656250,-0.09857100248337
Pepe’s Piri Piri Croydon ,CR0 1PD,51.37392807006840,-0.09751100093126
Pizza Express,CR0 1PD,51.37392807006840,-0.09751100093126
Comamos ,CR0 1PE,51.37397384643550,-0.09581299871206
Five Guys,CR0 1QB,51.37295532226560,-0.10003700107336
The Ludoquist Limited,CR0 1QE,51.37121582031250,-0.09997899830341
Funhouse ,CR0 1QF,51.37094879150390,-0.09997600317001
Wei Dao,CR0 1QG,51.37019729614260,-0.09967699646950
Annas Thai,CR0 1QH,51.36829757690430,-0.09902299940586
Atesh Turkish Restaurant,CR0 1QR,51.36951828002930,-0.09898599982262
Cafe Montego ,CR0 1RB,51.37368011474610,-0.10311000049114
COFFEE TIME,CR0 1RD,51.37401580810550,-0.10459099709988
Dog &  Bull,CR0 1RG,51.37286376953130,-0.10160700231790
BURGER KING-Croydon,CR0 1RH,51.3732,-0.1027
Burger King,CR0 1RH,51.37321472167970,-0.10271299630404
MCDONALD'S RESTAURANT LIMITED-CROYON CHURCH STREET,CR0 1RH,51.3732,-0.1027
Mr Fox,CR0 1RJ,51.37297058105470,-0.10109899938106
KFC - CROYDON,CR0 1RY,51.37351608276370,-0.10086099803448
KFC,CR0 1RY,51.37351608276370,-0.10086099803448
Pizza Hut Restaurant,CR0 1TG,51.37521743774410,-0.10147999972105
OVERPROOF CROYDON,CR0 1TN,51.3774,-0.1025
kaspas west croydon ltd,CR0 1TP,51.37796783447270,-0.10300499945879
Cafe Giardino - Croydon,CR0 1TY,51.37546920776370,-0.10215999931097
Caffe Nero,CR0 1TY,51.37546920776370,-0.10215999931097
Frozen Yogoo ,CR0 1TY,51.3763,-0.1022
Saj's Kitchen,CR0 1TY,51.3763,-0.1022
Starbucks Coffee Company,CR0 1TY,51.37546920776370,-0.10215999931097
Yo Sushi House Of Fraser,CR0 1TY,51.37546920776370,-0.10215999931097
Zabardast,CR0 1TY,51.37546920776370,-0.10215999931097
Zafron Restaurant,CR0 1TY,51.3763,-0.1022
MCDONALD'S RESTAURANT LIMITED- CROYDON WHITGIFT,CR0 1UJ,51.37643432617190,-0.10121399909258
tashi dhondup limited,CR0 1UP,51.37668609619140,-0.10012599825859
Costa Coffee,CR0 1UY,51.37617492675780,-0.10059300065041
Bishops wine bar,CR0 1UZ,51.37546157836910,-0.10039299726486
Uncle Lim's Malaysian Kitchen,CR0 1UZ,51.37546157836910,-0.10039299726486
Mecca Bingo,CR0 1XX,51.37709808349610,-0.10279600322247
The Lunch Box,CR0 1XX,51.37709808349610,-0.10279600322247
The Dutchie,CR0 1YB,51.37253189086910,-0.10062900185585
Central Cafe and Restaurant ,CR0 1YL,51.37330020000000,-0.09758510000000
THE WINDMILL ,CR0 2BW,51.38153457641600,-0.09340099990368
Krunk burgers ,CR0 2JJ,51.38587951660160,-0.09740299731493
Zabardast,CR0 2NA,51.37497970000000,-0.09468480000000
Olive Dining Ltd At Elmwood Infant School & Nursery,CR0 2PL,51.38735198974610,-0.10563500225544
KFC,CR0 2RE,51.37872314453130,-0.10363499820232
Mazi restaurant ,CR0 2RF,51.37969207763670,-0.10458599776030
TIMBER GARDENS RESTAURANT LTD,CR0 2RJ,51.38176345825200,-0.10702999681234
DOSA KADA,CR0 2RL,51.38333892822270,-0.10818599909544
Pizza Hut,CR0 2TA,51.37894821166990,-0.10312200337648
SPICE LAND ,CR0 2TE,51.3818,-0.1057
La Pasta,CR0 2TL,51.3825,-0.1043
Che bar and restaurant,CR0 2XP,51.38518905639650,-0.10095299780369
famous fried chicken,CR0 3JJ,51.38249588012700,-0.11516200006008
KERALA TASTE LTD,CR0 3PA,51.38508224487300,-0.10986799746752
MCDONALD'S RESTAURANT LIMITED-WADDON,CR0 4NX,51.3687,-0.1181
McDonalds,CR0 4NX,51.36873245239260,-0.11806900054216
La Pizzeria Purley Way Ltd,CR0 4NY,51.37081527709960,-0.11750999838114
An Nam Restaurant ,CR0 4NZ,51.3673,-0.1192
KFC,CR0 4RQ,51.35685410000000,-0.11550190000000
MCDONALD'S RESTAURANT LIMITED-CROYDON COLONNADES,CR0 4RQ,51.3570,-0.1143
Nando's,CR0 4RQ,51.35686492919920,-0.11553899943829
Pizza Hut Restaurant,CR0 4RQ,51.35686492919920,-0.11553899943829
Spice Village Croydon,CR0 4RR,51.3572,-0.1206
TGI Fridays,CR0 4RS,51.35545349121090,-0.11665099859238
Powerleague Croydon Community Club,CR0 4RW,51.35696100000000,-0.12383700000000
MCDONALD'S RESTAURANT LIMITED- ASDA WALLINGTON,CR0 4XS,51.37716540000000,-0.13046000000000
Burger King,CR0 4YA,51.37813186645510,-0.12453799694777
Jenab Limited,CR0 4YA,51.3781,-0.1245
MCDONALD'S RESTAURANT LIMITED- VALLEY PARK,CR0 4YA,51.37813186645510,-0.12453799694777
Nando's,CR0 4YA,51.37813186645510,-0.12453799694777
Pizza Express,CR0 4YA,51.37813186645510,-0.12453799694777
Pausa Coffee Shop At Dunelm Soft Furnishings Ltd,CR0 4YJ,51.37913513183590,-0.12656599283218
Addington Palace Golf Club,CR0 5BB,51.35528945922850,-0.04420800134540
Royal garden restaurant ,CR0 5HQ,51.36228179931640,-0.05192599818110
The chateau restaurant ,CR0 5RE,51.36211013793950,-0.06769099831581
MEL'S CAFE,CR0 6AA,51.38045501708980,-0.08789899945259
The Orchard,CR0 6BA,51.37797546386720,-0.09025900065899
Casablanca,CR0 6BB,51.37966537475590,-0.08745799958706
Aishwarya Limited,CR0 6PQ,51.3808,-0.0879
KFC,CR0 6RD,51.38077545166020,-0.07243800163269
Saucy Sausage Café Ltd,CR0 6RD,51.38077545166020,-0.07243800163269
The Tram Stop,CR0 6RD,51.38077545166020,-0.07243800163269
Zafran,CR0 6RG,51.38254547119140,-0.06800899654627
CURRY ON NAANSTOP LIMITED,CR0 6SG,51.37524890000000,-0.08362390000000
The Cricketers ,CR0 6SG,51.37525177001950,-0.08382000029087
Welcome Friends Chinese Restaurant,CR0 7AA,51.37994766235350,-0.07349299639463
Waterfall Elior At Oasis Academy Shirley Park,CR0 7AL,51.38606643676760,-0.06222699955106
Shirley Park Golf Club ,CR0 7LB,51.3758,-0.0614
Olive Dining At Monks Orchard Primary School,CR0 7UF,51.39078140258790,-0.04881799966097
Lorenzo,CR0 8BE,51.37417602539060,-0.05124799907207
MCDONALD'S RESTAURANT LIMITED- SHIRLEY POPPY,CR0 8DN,51.37673950195310,-0.03294799849391
McDonalds,CR0 8DN,51.37673950195310,-0.03294799849391
Goodfella Vapes Limited,CR0 8TE,51.37464660000000,-0.05042820000000
Q Cafe,CR0 8TE,51.37469100952150,-0.05027800053358
Q Kitchen,CR0 8TE,51.37469100952150,-0.05027800053358
Addington Court Golf Club,CR0 9AA,51.34609985351560,-0.03397300094366
Jurys Inn,CR0 9XY,51.37604522705080,-0.09770999848843
Coco And Nut Coffee Co,CR2 0PH,51.34827400000000,-0.09432730000000
Sanderstead Tandoori ,CR2 0PH,51.34820938110350,-0.09420999884605
Taste Of Bengal,CR2 0PH,51.34820938110350,-0.09420999884605
Purley Downs Golf Club Ltd,CR2 0RB,51.34143066406250,-0.09987600147724
Chat House Tandoori Restaurant ,CR2 6AA,51.36329269409180,-0.09871300309896
Amera Rani,CR2 6AH,51.35342025756840,-0.09820199757814
SOUTH CROYDON KRUNK BURGERS LTD,CR2 6AH,51.35342025756840,-0.09820199757814
Pizza Hut,CR2 6AJ,51.35153961181640,-0.09928499907255
ARIYAAN LTD  t/a Chennai Dosa,CR2 6EA,51.36162567138670,-0.09793400019407
Amba's Kitchen Restaurant,CR2 6EG,51.35632324218750,-0.09752199798822
Gurkha Spice  Himalayan Nepalese Restaurant / Takeaway,CR2 6EQ,51.35208129882810,-0.09835799783468
BOB'S YOUR UNCLE COFFEE,CR2 6PA,51.36344870000000,-0.09787810000000
yellowbox britain ltd  t/a littlebay ,CR2 6PB,51.36207580566410,-0.09626399725676
Boulevard Restaurant ,CR2 6PW,51.36276626586910,-0.09672400355339
Spice N Ice Restaurant,CR2 7DY,51.36505889892580,-0.09019300341606
Croham Hurst Golf Club ,CR2 7HJ,51.35842895507810,-0.07837399840355
Fatboyz cafe,CR2 8JJ,51.3514,-0.0398
Planet Spice,CR2 8JT,51.35066986083980,-0.03999599814415
COSTA COFFEE   SELSDON,CR2 8LB,51.34366226196290,-0.06193400174379
Costa Coffee (Goldex Investments Ltd),CR2 8LB,51.34366226196290,-0.06193400174379
Favorite Chicken & Ribs,CR2 8LB,51.34366226196290,-0.06193400174379
KFC SELSDON,CR2 8LB,51.34366226196290,-0.06193400174379
KFC,CR2 8LB,51.34366226196290,-0.06193400174379
Royal Tandoori,CR2 8LD,51.34433746337890,-0.06046900153160
Star express ,CR2 8LD,51.34433746337890,-0.06046900153160
Shaw’s Pie & Eel House,CR2 8LH,51.34418020000000,-0.06187330000000
Priscilla’s Kitchen at Trinity Sanderstead Sports and Social Club,CR2 9AS,51.32993698120120,-0.06961800158024
RAJEEV’S indian fine dinning ,CR2 9BX,51.31981277465820,-0.06525000184774
Rajbhavan Ltd T/A Panahar,CR2 9BX,51.31981277465820,-0.06525000184774
Priscilla’s Tea Room ,CR2 9EA,51.33481979370120,-0.07775399833918
COSTA COFFEE   SANDERSTEAD,CR2 9LA,51.33411026000980,-0.07669200003147
Costa Coffee,CR2 9LA,51.33411026000980,-0.07669200003147
The Med Kitchen,CR2 9LA,51.33411026000980,-0.07669200003147
Filtr by Coromandel Coast,CR2 9LB,51.33306540000000,-0.07606610000000
Royal Tandoori,CR3 0EL,51.30924900000000,-0.07965500000000
Brookwood by CH&Co Group Ltd,CR3 5ED,51.29473980000000,-0.08501070000000
MAMMA MIA LONDON LTD at Caterham Arms,CR3 5NF,51.2878,-0.0981
La Fiaba del Mediterraneo,CR3 5UA,51.28666900000000,-0.08901500000000
OLIVI MEDITERRANEAN RESTAURANT LIMITED,CR3 5UA,51.2867,-0.0890
Pizza Hut,CR3 5UB,51.28552500000000,-0.08837400000000
The ARC Caterham Ltd,CR3 5XY,51.29219000000000,-0.10668600000000
The Harrow,CR3 6AJ,51.27101700000000,-0.09818000000000
KFC,CR3 6QA,51.28220700000000,-0.07683900000000
BUA THAI RESTAURANT,CR3 6QB,51.28343100000000,-0.07803600000000
Caffe Bambino,CR3 6QB,51.2835,-0.0781
Casa Lola,CR3 6QB,51.28343100000000,-0.07803600000000
Pizza Express,CR3 6QB,51.28343100000000,-0.07803600000000
Caffe Nero,CR3 6RA,51.28134000000000,-0.07554200000000
Crown & Pepper Caterham,CR3 6RA,51.28134000000000,-0.07554200000000
Bollywood Indian Restaurent ,CR3 6RE,51.28061500000000,-0.07575900000000
CATERHAM CAFE,CR3 6RE,51.28061500000000,-0.07575900000000
Costa Coffee,CR3 6RT,51.28150300000000,-0.07727000000000
Chartwells / Compass Group UK & Ireland,CR3 6YA,51.27263700000000,-0.08663000000000
Elifs cafe ,CR4 2AP,51.41361999511720,-0.15347200632095
Daniel R Ltd t/a Gino's Restaurant,CR4 2PA,51.40475100000000,-0.16314600000000
afia's cuisine,CR4 2PE,51.40570449829100,-0.16323800384998
HUI BEN XIN COMPANY LTD,CR4 3AA,51.40619000000000,-0.16491400000000
Eberechi Restaurant,CR4 3HB,51.4082,-0.1635
Bistro przy rondzie ,CR4 3LD,51.41070500000000,-0.16200200000000
KFC MITCHAM,CR4 3NH,51.40481400000000,-0.16428000000000
KFC,CR4 3NH,51.40481400000000,-0.16428000000000
VALLEY CATERING LIMITED,CR4 3NH,51.4048,-0.1643
Casuarina Tree,CR4 4BG,51.39796000000000,-0.17220200000000
Crown of mitcham,CR4 4HJ,51.39011900000000,-0.15907500000000
The Ravensbury,CR4 4JA,51.39766300000000,-0.15789500000000
Pistachios in the Park,CR5 1EA,51.3072,-0.1207
Pizza Hut,CR5 2NA,51.32282257080080,-0.13606600463390
Caffe Nero,CR5 2ND,51.32138824462890,-0.13793300092220
Cyco Cafe,CR5 2ND,51.32138824462890,-0.13793300092220
Papa Johns - COULSDON,CR5 2NE,51.32051086425780,-0.13894400000572
Bella Art Caffe,CR5 2NF,51.31937500000000,-0.13938290000000
Mirch masala coulsdon,CR5 2NF,51.3195,-0.1394
La Scarpetta ,CR5 2NG,51.32244873046880,-0.13580900430679
Los Arcos,CR5 2NH,51.32000350952150,-0.13866899907589
Pizza Express,CR5 2NJ,51.32153701782230,-0.13713799417019
Woodcote Park Golf Club Limited ,CR5 2QQ,51.32867900000000,-0.15093000000000
Valley Cafe,CR5 2RA,51.32085800170900,-0.13923199474812
Olive Dining Ltd At Chipstead Valley Primary School,CR5 3BW,51.31706900000000,-0.15949000000000
Dottys Tea Garden,CR5 3DR,51.3133,-0.1544
CHIPSTEAD GOLF CLUB,CR5 3LN,51.30810400000000,-0.16297600000000
The White Hart,CR5 3QW,51.29997000000000,-0.16845100000000
The Well House Inn,CR5 3SQ,51.28260600000000,-0.19687400000000
The Horseshoe,CR6 9EG,51.30936400000000,-0.05227400000000
COFFEE AT 412,CR6 9LA,51.30917200000000,-0.05426200000000
Chez Vous Restaurant,CR6 9LA,51.30917200000000,-0.05426200000000
Asian Dinning Limited,CR6 9NA,51.30937700000000,-0.05629100000000
TIKKA MASALA LIMITED,CR6 9NA,51.3094,-0.0563
The Bull inn,CR6 9PB,51.31397200000000,-0.03211800000000
the White Bear,CR6 9PH,51.32516700000000,-0.00699500000000
Botley Hill Farmhouse,CR6 9QH,51.28123200000000,0.00171400000000
Taperia LTD,CR7 6AW,51.39481353759770,-0.11498700082302
GRILL FATHER,CR7 6BD,51.39238357543950,-0.11646600067615
Laaghas,CR7 6BD,51.39238357543950,-0.11646600067615
KFC THORNTON HEATH,CR7 6JA,51.39367294311520,-0.11389800161123
KFC,CR7 6JA,51.39367294311520,-0.11389800161123
MCDONALD'S RESTAURANT LIMITED- THORNTON HEATH ,CR7 6XJ,51.39841461181640,-0.11687999963760
Urban Guj,CR7 7PA,51.39550018310550,-0.11468499898911
Costa Coffee @ Croydon University Hospital,CR7 7YE,51.38913726806640,-0.10879500210285
Medirest Healthcare Retail - Compass Group,CR7 7YE,51.38913726806640,-0.10879500210285
Village Venues Limited,CR7 8DB,51.40714645385740,-0.10191199928522
Hotrocks,CR7 8JF,51.40396118164060,-0.09994500130415
Costa Coffee,CR7 8LF,51.39871978759770,-0.09513100236654
Blue and Orange restaurant ,CR7 8RY,51.39860153198240,-0.09667400270700
Nino Mirch masala,CR7 8RY,51.39860153198240,-0.09667400270700
Subway,CR7 8RY,51.39860153198240,-0.09667400270700
Yah-so Bar and Grill,CR7 8SB,51.39699554443360,-0.09242799878120
Las Fuentes,CR8 2AA,51.33820343017580,-0.11537200212479
Lupita Coffee House,CR8 2AA,51.33820343017580,-0.11537200212479
Ege Restaurant,CR8 2AB,51.3395,-0.1144
KFC,CR8 2AB,51.33933258056640,-0.11472199857235
The Next Level Cafe,CR8 2AP,51.33768463134770,-0.11460299789905
Costa Coffee,CR8 2BA,51.34538269042970,-0.10501100122929
O farol,CR8 2BP,51.33913421630860,-0.11570700258017
Dan Thai Restaurant,CR8 2HA,51.3380,-0.1163
THE JOLLY FARMERS,CR8 2HA,51.33806228637700,-0.11625300347805
4 Locos Steakhouse,CR8 2LA,51.33929061889650,-0.11710699647665
AAKK LIMITED,CR8 2LA,51.3395,-0.1171
TULSI CATERING SERVICES LIMITED,CR8 2LE,51.33928298950200,-0.11766800284386
COSTA COFFEE   PURLEY,CR8 2LP,51.33911895751950,-0.11655399948359
Costa Coffee,CR8 2LP,51.33911895751950,-0.11655399948359
Dal catering ,CR8 2LP,51.3390,-0.1166
Pizza Express,CR8 2LP,51.33911895751950,-0.11655399948359
Zen Lounge,CR8 2PG,51.34470748901370,-0.10509599745274
The Lord Roberts on the Green,CR8 3HF,51.33415603637700,-0.13842099905014
purley sports club,CR8 3PF,51.34491400000000,-0.13920500000000
Polly's Cafe,CR8 4DG,51.33077880000000,-0.12417890000000
SAFFRON INDIAN RESTAURANT (UK) LIMITED,CR8 5AA,51.32566833496090,-0.10055600106716
TOP CAFE,CR8 5JE,51.32898330688480,-0.10751000046730
Elior UK At Metropolitan Police Station Croydon,CR9 1BP,51.37090682983400,-0.09591200202703
Benugo,CR9 2ER,51.37633132934570,-0.09662599861622
Nando's,CR9 2NS,51.37485130000000,-0.09453210000000
Hilton Croydon ,CR9 4HH,51.35779190063480,-0.11561600118875
Medirest Healthcare Compass Group At Shirley Oaks Hospital,CR9 8AB,51.38230895996090,-0.05636399984360
Pho,KT1 1BB,51.40888500000000,-0.30559200000000
The Cheeky Pea,KT1 1BJ,51.4097,-0.3046
Caffe Nero,KT1 1BP,51.40956600000000,-0.30358200000000
Paul UK Ltd - Kingston,KT1 1BP,51.40956600000000,-0.30358200000000
Coffee Break,KT1 1BW,51.4099,-0.3028
McDonalds Kingston-Upon-Thames,KT1 1DJ,51.41007500000000,-0.30206800000000
Spuds ,KT1 1EE,51.40920000000000,-0.30316500000000
Zizzi,KT1 1ET,51.40885700000000,-0.30616800000000
Wagamama,KT1 1EY,51.40883000000000,-0.30675900000000
Wildwood,KT1 1EY,51.40882900000000,-0.30675800000000
Twelves and Eights ,KT1 1HH,51.40785400000000,-0.30831900000000
Gourmet Burger Kitchen,KT1 1HL,51.40820600000000,-0.30778800000000
Cintra’s Grill Ltd,KT1 1HN,51.4072,-0.3081
RIVERSIDE VEGETARIA LIMITED,KT1 1HN,51.40717600000000,-0.30809900000000
Stein's Kingston Limited,KT1 1HN,51.40717600000000,-0.30809900000000
Bonne Bouche Kingston,KT1 1JE,51.40932000000000,-0.30582000000000
Fortunella ,KT1 1JE,51.40932000000000,-0.30582000000000
Pokie & Roll,KT1 1JE,51.40932000000000,-0.30582000000000
Terrace Eatery Ltd,KT1 1JE,51.40932000000000,-0.30582000000000
36 Streets Food Ltd,KT1 1JT,51.40896400000000,-0.30677720000000
Chezlalee ,KT1 1JT,51.4091,-0.3065
Patisserie Valerie,KT1 1JT,51.40913300000000,-0.30658900000000
Poor Boys,KT1 1JT,51.40911600000000,-0.30671900000000
Giggling Squid,KT1 1LL,51.40790710000000,-0.30743410000000
Pret A Manger,KT1 1LP,51.40807342529300,-0.30733299255371
Nando's,KT1 1LQ,51.40631900000000,-0.30785800000000
Pizza Express,KT1 1LQ,51.40631900000000,-0.30785800000000
Alforno Restaurant Kingston,KT1 1LY,51.4066,-0.3078
Wheelwrights Arms,KT1 1NP,51.41053800000000,-0.30179200000000
Wafflemeister,KT1 1NR,51.41055600000000,-0.30301300000000
itsu Kingston Clarence Street,KT1 1NX,51.41069300000000,-0.30446000000000
Local Hero Kingston Ltd,KT1 1PE,51.41053700000000,-0.30669500000000
Ultimate Cafe Kingston,KT1 1PE,51.4105,-0.3066
Five Guys,KT1 1QJ,51.41171700000000,-0.29937600000000
Tenpin Megabowl,KT1 1QJ,51.41171700000000,-0.29937600000000
kungfu ,KT1 1QJ,51.41171700000000,-0.29937600000000
Busaba Kingston,KT1 1QN,51.41076800000000,-0.30772200000000
Comptoir Kingston,KT1 1QN,51.41076660156250,-0.30772200226784
Hache Kingston,KT1 1QN,51.41076660156250,-0.30772200226784
KRW MANAGMENT LIMITED ,KT1 1QN,51.4107,-0.3078
KRW Management limited ,KT1 1QN,51.4107,-0.3078
The Gazebo,KT1 1QN,51.41076800000000,-0.30772200000000
KFC - Kingston,KT1 1QT,51.4114,-0.3008
KFC,KT1 1QT,51.41159600000000,-0.30090400000000
Subway ,KT1 1QT,51.41159600000000,-0.30090400000000
Pizza Hut Restaurant,KT1 1QY,51.41112600000000,-0.30136800000000
Starbucks Cafe,KT1 1QY,51.41112600000000,-0.30136800000000
Pret A Manger,KT1 1RB,51.41097800000000,-0.30295500000000
Montys tandoori restaurant ,KT1 1SF,51.41212300000000,-0.30190600000000
TINOK LTD,KT1 1SF,51.4121,-0.3019
Warrens Bakery / Baked / Popadums,KT1 1SF,51.41231180000000,-0.30136140000000
le val restaurant ,KT1 1SP,51.4119,-0.3016
KOKORO,KT1 1SS,51.41142654418950,-0.30164399743080
Moulin rouge cafe,KT1 1SS,51.41142600000000,-0.30164400000000
Yoriya,KT1 1SS,51.41142600000000,-0.30164400000000
Ysjoa ltd,KT1 1SS,51.41142600000000,-0.30164400000000
STONE,KT1 1SU,51.41174300000000,-0.30236600000000
CAPPODOCIA,KT1 1SW,51.41210300000000,-0.30118800000000
Caffe Nero,KT1 1SZ,51.41136300000000,-0.30353000000000
Huffkins at John Lewis Kingston,KT1 1TE,51.4116,-0.3069
Starbucks Coffee Company,KT1 1TP,51.41172790527340,-0.30502700805664
McDonalds Bentalls Centre Kingston,KT1 1TR,51.41172790527340,-0.30502700805664
Tortilla,KT1 1TR,51.41172700000000,-0.30502600000000
Caffe Nero,KT1 1TX,51.41172700000000,-0.30502700000000
Pret A Manger,KT1 1UJ,51.41265106201170,-0.30115300416946
Jack 'n' Grill,KT1 2BF,51.39952090000000,-0.30860610000000
Farm Fresh Burger,KT1 2BZ,51.40497500000000,-0.30383900000000
The Corner Place - Elior UK PLC,KT1 2EE,51.40361300000000,-0.30358700000000
The Picton Room - Elior UK PLC,KT1 2EE,51.40305840000000,-0.30322820000000
Bagels & Dough Ltd,KT1 2HG,51.40111190000000,-0.30357320000000
RAKA FC,KT1 2HT,51.40125800000000,-0.30427800000000
Tasty bite pizza ,KT1 2HT,51.4012,-0.3043
MASIL,KT1 2HX,51.4020,-0.3054
Ginger Bees Café,KT1 2LZ,51.4030,-0.3075
The Albion,KT1 2PY,51.40925700000000,-0.29781300000000
Noura Lebanese Restaurant,KT1 3RT,51.40884000000000,-0.27416100000000
Pomegranate Bistro,KT1 4DA,51.41216400000000,-0.31104900000000
Taberu Kingston,KT1 4DA,51.41216400000000,-0.31104900000000
The Swan,KT1 4DB,51.41292190551760,-0.31103700399399
The Foresters Arms,KT1 4DG,51.4137,-0.3122
Rocksalt ,KT17 1BD,51.3355,-0.2634
Delicious Feast,KT17 1FB,51.3398,-0.2550
Los amigos cafe & sandwich bar ltd,KT17 1HH,51.33483700000000,-0.26359100000000
All Things Nice,KT17 1RE,51.34779700000000,-0.25039200000000
Mandalina Limited,KT17 1RE,51.34779700000000,-0.25039200000000
Hanedan restaurant ,KT17 1RW,51.34904800000000,-0.24933900000000
I’ll Capriccio ,KT17 1RX,51.34774000000000,-0.24963300000000
LA FAMILIA RESTAURANT,KT17 1RX,51.34774000000000,-0.24963300000000
The Famous Green Man,KT17 1RX,51.34774000000000,-0.24963300000000
Dhansiri,KT17 1SP,51.34901970000000,-0.24871480000000
June 8 Cafe & Bistro,KT17 2HP,51.36269000000000,-0.24509900000000
Peri  Village,KT17 2HP,51.3626,-0.2450
Taste of Bengal,KT17 2HS,51.36236200000000,-0.24539900000000
Stoneleigh Brasserie,KT17 2JA,51.36344600000000,-0.24755500000000
Superfish,KT17 2PR,51.35364600000000,-0.24586100000000
Amani restaurant ltd,KT17 3LB,51.32513400000000,-0.23351500000000
Drift Bridge Cafe,KT17 3LB,51.32513300000000,-0.23351400000000
Le Raj Restaurant,KT17 3LB,51.32513400000000,-0.23351500000000
Ye Olde Kings Head,KT17 4QB,51.33087200000000,-0.26062500000000
Miniature Restaurant,KT17 4QY,51.33434900000000,-0.26284800000000
  Cafe Moka,KT18 5AB,51.3323,-0.2673
Muffin Break Epsom,KT18 5BA,51.3294,-0.2656
BAMBOO BASKET ,KT18 5DA,51.33243900000000,-0.26932200000000
Costa Coffee,KT18 5DA,51.33244000000000,-0.26932300000000
Starbucks  Epsom - Ashley Center,KT18 5DA,51.3326,-0.2690
Moka,KT18 5DB,51.3322,-0.2686
Starbucks,KT18 5DB,51.33244000000000,-0.26932300000000
Holiday Inn Express London - Epsom Downs,KT18 5LG,51.31324400000000,-0.25984300000000
The Rubbing House,KT18 5LJ,51.31310400000000,-0.25829900000000
Chillies ,KT18 5QB,51.30987100000000,-0.24116000000000
El Rincon,KT18 5QB,51.30987100000000,-0.24116000000000
The Cock Inn,KT18 6LE,51.27976800000000,-0.27411300000000
The Grumpy Mole Epsom,KT18 7AS,51.32396316528320,-0.26829299330711
Woodcote Park Clubhouse,KT18 7EW,51.31532800000000,-0.27553400000000
Lava Lounge,KT18 7JU,51.32577400000000,-0.27586000000000
Indian flame,KT18 7PF,51.33226600000000,-0.27096600000000
Pizza Express,KT18 7PF,51.33226600000000,-0.27096600000000
Sicily Restaurant ,KT18 7PF,51.33226600000000,-0.27096600000000
The Jolly Coopers,KT18 7SD,51.33080300000000,-0.28157100000000
Surrey Palace,KT19 0AA,51.36048200000000,-0.25318400000000
DASTAAN INDIAN RESTAURANT,KT19 0DB,51.36874500000000,-0.26582800000000
BAYLEAVES (EWELL) LIMITED,KT19 0DT,51.3682,-0.2639
OOTTUPURA RESTAURANT,KT19 0DT,51.3682,-0.2639
Topo Gigio Restaurant,KT19 0SF,51.36131900000000,-0.25325300000000
pizzeria roma,KT19 0SF,51.36131900000000,-0.25325300000000
Everest Spice Nepalese And Indian Restaurant,KT19 8AG,51.33430300000000,-0.26642400000000
Peri  Village,KT19 8AG,51.33430300000000,-0.26642400000000
McDonalds,KT19 8AH,51.33429800000000,-0.26488900000000
OSQS Ltd T/A McDonald's Epsom ,KT19 8AH,51.3342,-0.2650
Zig Zag cafe,KT19 8AH,51.33429800000000,-0.26488900000000
Creams Cafe Epsom,KT19 8AJ,51.33388330000000,-0.26584060000000
Blacks Burgers Limited  Epsom,KT19 8AS,51.33424900000000,-0.26704400000000
Dia y Noche Lounge ,KT19 8AS,51.33424758911130,-0.26704400777817
Nandos,KT19 8AS,51.33424900000000,-0.26704400000000
NY CAFE ONE LIMITED,KT19 8BJ,51.33326700000000,-0.26936300000000
Prezzo,KT19 8DA,51.33386800000000,-0.26437300000000
KFC EPSOM,KT19 8DD,51.33384750000000,-0.26496980000000
KFC,KT19 8DD,51.33384750000000,-0.26496980000000
Pret A Manger,KT19 8DR,51.33309040000000,-0.26722280000000
Cafe Nero,KT19 8EH,51.33274900000000,-0.26954100000000
Pizzerium T/A Anedottica limited ,KT19 8EH,51.33274900000000,-0.26954100000000
Costa Coffee,KT19 8EU,51.33442000000000,-0.26822900000000
BLUE MINT,KT19 8EX,51.33565400000000,-0.26835500000000
Pizza Hut,KT19 8EX,51.33565400000000,-0.26835500000000
Hobbledown,KT19 8PT,51.34672800000000,-0.28575700000000
Horton Park Golf Club Ltd,KT19 8QG,51.35588500000000,-0.27553400000000
Jess and the beanstalk ,KT19 8RA,51.34050400000000,-0.27289500000000
The Blenheim Arms,KT19 8RA,51.34057430000000,-0.27125480000000
Luna coffee house ,KT19 9XF,51.3531,-0.2680
Tamarind Spice,KT19 9XF,51.35315800000000,-0.26806800000000
Canbury Secret Cafe,KT2 5AJ,51.41695600000000,-0.30408500000000
Pizza Hut (Zain Hut Ltd),KT2 5BW,51.41412290000000,-0.30099230000000
deea Bangladeshi cuisine,KT2 5BZ,51.41884200000000,-0.30203100000000
Roosters Piri Piri,KT2 5EB,51.41292900000000,-0.30048100000000
The Grey Horse,KT2 5EE,51.41421508789060,-0.30049100518227
ABETTA LIMITED AKBAR RESTAURANT,KT2 5EH,51.41481300000000,-0.30074200000000
GINSENG,KT2 5EL,51.41544400000000,-0.30087700000000
The Oak Pub Kingston ,KT2 5EN,51.41613900000000,-0.30105200000000
Boho Cafe,KT2 5JF,51.41872980000000,-0.29685170000000
Costa Coffee,KT2 5PU,51.43073600000000,-0.30682600000000
The Cardinal Peppe restaurant Kingston,KT2 5QG,51.42696700000000,-0.29929900000000
Saqui Tandoori,KT2 5QU,51.43078900000000,-0.30739900000000
The Bistro,KT2 5QU,51.43078900000000,-0.30739900000000
The Pottery Bar,KT2 6BE,51.41627600000000,-0.28824800000000
The Wych Elm,KT2 6HT,51.41683600000000,-0.29458400000000
The Willoughby Arms,KT2 6LN,51.41553200000000,-0.29211600000000
Canbury Arms,KT2 6LQ,51.41358900000000,-0.29515000000000
The Norbiton,KT2 6PW,51.41388100000000,-0.28861100000000
JAX Sandwich bar Ltd,KT2 6QF,51.41066100000000,-0.29905500000000
Thai on Thames ,KT2 6QF,51.41066100000000,-0.29905500000000
Terra Mia,KT2 6QJ,51.41061400000000,-0.29273000000000
Black Horse,KT2 6QP,51.41317300000000,-0.28758700000000
Fish! Kitchen Kingston,KT2 7AF,51.41229600000000,-0.28723200000000
Sham Grill,KT2 7AF,51.41229600000000,-0.28723200000000
Coombe Hill Holdings (1946) Ltd,KT2 7DF,51.41806100000000,-0.26282600000000
Rozana   ,KT2 7NH,51.4147,-0.2858
LM Kingston 1 Ltd t/a Kingston Lodge Hotel,KT2 7NP,51.41843600000000,-0.27912100000000
Coombe Wood Golf Club Limited,KT2 7NS,51.4187,-0.2761
Costa Coffee Shop,KT2 7QB,51.41429500000000,-0.28310200000000
Haweli of Tadworth,KT20 5PU,51.29676300000000,-0.23718600000000
The Grumpy Mole Tadworth,KT20 5RX,51.29164800000000,-0.22540600000000
The Chalet Bakery Coffee Shop,KT20 5SD,51.28802300000000,-0.23128200000000
The Bridge ,KT20 5SP,51.29173660278320,-0.23535600304604
The Coffee House  ,KT20 5SR,51.29123590000000,-0.23519460000000
New Khyber,KT20 6EB,51.29537400000000,-0.21436100000000
No 12 Restaurant,KT20 6EB,51.2954,-0.2144
Waterhouse Cafe,KT20 6EB,51.29537400000000,-0.21436100000000
SURREY DOWNS GOLF CLUB,KT20 6JS,51.28954300000000,-0.18950400000000
KINGSWOOD GOLF & COUNTRY CLUB LIMITED,KT20 6NE,51.28484700000000,-0.20635200000000
The Sportsman,KT20 7ES,51.26368800000000,-0.22413200000000
DESTINATION BIKE LIMITED,KT20 7JE,51.25300900000000,-0.27924200000000
Baxterstorey Ltd At Pfizer Baxterstorey,KT20 7NT,51.26575800000000,-0.25108700000000
Fox & Hounds,KT20 7RU,51.28300700000000,-0.24693300000000
SPAGHETTI TREE,KT20 7RW,51.28372000000000,-0.24234600000000
Walton Heath Golf Club,KT20 7TP,51.27808700000000,-0.24390900000000
The Blue Ball PH,KT20 7UE,51.28265300000000,-0.24078000000000
Ashtead Charcoal Grill Ltd,KT21 1AA,51.31009900000000,-0.29861500000000
The street thai ,KT21 1AA,51.31009900000000,-0.29861500000000
The Leg of Mutton and Cauliflower,KT21 1AZ,51.30923900000000,-0.29945000000000
Ex Cellar,KT21 1QJ,51.3169,-0.3047
Mogul Dynasty,KT21 1QL,51.31651400000000,-0.30440500000000
ASHTEAD BALTI,KT21 2BA,51.30821700000000,-0.29967500000000
Superfish,KT21 2BE,51.31086800000000,-0.30010800000000
Rye cafe and juice bar,KT21 2DB,51.31346200000000,-0.31034300000000
The Star,KT22 0DP,51.32716900000000,-0.32743700000000
Leatherhead Golf Club Limited,KT22 0EE,51.32091000000000,-0.33059200000000
Charlie & Ginger,KT22 7AX,51.29521770000000,-0.33008300000000
Pizza Hut,KT22 7SR,51.30221600000000,-0.33006500000000
Layla's Coffee House,KT22 8AB,51.2955,-0.3282
Piazza Firenze,KT22 8AG,51.29561100000000,-0.32725000000000
THAI PINTO RESTAURANT LIMITED,KT22 8AJ,51.29537200000000,-0.32687100000000
Amici Cafe,KT22 8AN,51.29517000000000,-0.32849900000000
L'ultimo,KT22 8AN,51.29517000000000,-0.32849900000000
Nurestani Fresh Food Ltd T/A Subway,KT22 8AN,51.29517000000000,-0.32849900000000
Five Rivers Leatherhead,KT22 8BZ,51.29487200000000,-0.33150800000000
Prezzo,KT22 8DN,51.29464300000000,-0.32870500000000
Preto,KT22 8DW,51.29453400000000,-0.32925400000000
KARAHI HOUSE,KT22 8ED,51.29519100000000,-0.32614600000000
Tyrrells Wood Golf Club,KT22 8QP,51.28553300000000,-0.29687000000000
BaxterStorey at Esso House,KT22 8UX,51.29744600000000,-0.30350100000000
Clarks Cafe,KT22 9AL,51.29203100000000,-0.33729000000000
Zen garden cuisine limited ,KT22 9AL,51.29203100000000,-0.33729000000000
Tae Entertainment Ltd (CHOI'CE CAKE&COFFEE),KT3 3NX,51.40064650000000,-0.26442830000000
Genghis Khan,KT3 3PA,51.40028100000000,-0.26335600000000
WuDi Restaurant ,KT3 3PB,51.3999,-0.2617
MOKSHA OF NEW MALDEN LIMITED,KT3 3RJ,51.40281600000000,-0.27302200000000
IL Villaggio Deli,KT3 4AD,51.40048900000000,-0.25493800000000
Imone Korean Restaurant,KT3 4BH,51.39955000000000,-0.25592300000000
KFC,KT3 4BH,51.39962387084960,-0.25602099299431
Nando's,KT3 4BH,51.39955000000000,-0.25592200000000
Palace Korean Restaurant ,KT3 4BH,51.3995,-0.2559
Pizza Express,KT3 4BH,51.39955000000000,-0.25592200000000
SALT & VINEGAR,KT3 4BH,51.39955000000000,-0.25592200000000
 Al Forno ,KT3 4BP,51.40051600000000,-0.25615900000000
K J Restaurant ,KT3 4BT,51.40147300000000,-0.25638100000000
McDonalds New Malden,KT3 4BT,51.40147200000000,-0.25638100000000
McDonalds Restaurant,KT3 4BT,51.40147200000000,-0.25638100000000
The Treestone Kitchen,KT3 4BT,51.40150690000000,-0.25635900000000
YAMI RESTAURANT,KT3 4BT,51.40147300000000,-0.25638100000000
Caffe Nero,KT3 4BW,51.40071360000000,-0.25623100000000
CAFE KIKO LTD,KT3 4BY,51.4026,-0.2569
Cake&Bingsoo,KT3 4BY,51.40262300000000,-0.25695500000000
Nori,KT3 4BY,51.40262222290040,-0.25695601105690
Han Bar & Restaurant,KT3 4DQ,51.40338600000000,-0.25745900000000
Sorabol Korean Restaurant,KT3 4ES,51.39922600000000,-0.25525900000000
scj bibimbap & chimaek,KT3 4ES,51.39922600000000,-0.25525900000000
Ha Ru,KT3 4EZ,51.40196900000000,-0.25593100000000
Chimac,KT3 4NL,51.4001,-0.2389
Curry Leaves UK Limited,KT3 4NL,51.40000700000000,-0.23901300000000
Jingogae ,KT3 4NL,51.4001,-0.2389
You me korean restaurant,KT3 4NT,51.39886300000000,-0.24960900000000
Bok Restaurant,KT3 4NU,51.3987,-0.2516
SINABRO TRADING LTD,KT3 4NU,51.39863300000000,-0.25173100000000
Taksim Lounge ,KT3 4NU,51.3987,-0.2516
Chick and Beers,KT3 4QE,51.40448200000000,-0.25741700000000
k-town group ltd,KT3 4QE,51.40448200000000,-0.25741700000000
Royal Oak,KT3 4RD,51.40762500000000,-0.25830400000000
HOME BENTO,KT3 5AF,51.39955100000000,-0.26387200000000
WOODIES FREEHOUSE,KT3 5DX,51.39221200000000,-0.26739900000000
GGM,KT3 5PD,51.38545600000000,-0.26298300000000
ECKLEE GRILL,KT3 6JF,51.39489800000000,-0.23824600000000
MOTSPUR TANDOORI,KT3 6JF,51.3949,-0.2383
Terrazzino Cafe,KT4 7NL,51.38481700000000,-0.25145300000000
OSAKA JAPANESE RESTAURANT,KT4 7NW,51.38536000000000,-0.25226600000000
Miller & Carter,KT4 7RD,51.38443756103520,-0.25487300753593
The Brook ,KT4 8DR,51.37974200000000,-0.24405900000000
Costa Coffee,KT4 8DT,51.37915700000000,-0.24342000000000
Pizza Express,KT4 8DY,51.37863500000000,-0.24220500000000
Colombo Kitchen Restaurant,KT4 8EG,51.37708700000000,-0.23910300000000
Park grill ltd,KT4 8HH,51.37948300000000,-0.24297700000000
Caffe Nero,KT4 8HL,51.37952900000000,-0.24306100000000
WORCESTER PARK GATE LTD,KT4 8HQ,51.37986200000000,-0.24365100000000
KFC,KT4 8HT,51.37888860000000,-0.24181350000000
Aqua Viva Catering Ltd,KT4 8HX,51.3781,-0.2403
Kyosen Restaurant,KT4 8HX,51.37813900000000,-0.24026900000000
The Chef Restaurant,KT4 8HX,51.37813900000000,-0.24026900000000
Royal India,KT4 8QJ,51.37693900000000,-0.23705400000000
Rumbles Coffee Shop ,KT4 8RW,51.37172600000000,-0.22886300000000
Smokin Grill Steakhouse ,KT4 8RW,51.37172600000000,-0.22886300000000
La bella Luna ,KT4 8TL,51.37126900000000,-0.22899600000000
Surbiton Racket & Fitness Club Ltd,KT5 8JT,51.39366900000000,-0.29008400000000
The Berrylands,KT5 8LS,51.39843800000000,-0.28041800000000
Hollywood Bowl,KT5 9PB,51.37781906127930,-0.28047201037407
Gordon Bennett bar and  kitchen,KT6 4AG,51.39466200000000,-0.30831700000000
Cento Uno,KT6 4AW,51.39524700000000,-0.30774900000000
No 97,KT6 4AW,51.3952,-0.3077
The Antelope,KT6 4AW,51.39524700000000,-0.30774900000000
Mata Taste Ltd,KT6 4JL,51.39153900000000,-0.30874800000000
Surbeanton,KT6 4JL,51.39137890000000,-0.30897780000000
Cafe Nero,KT6 4JU,51.39303500000000,-0.30522900000000
Kokoro Surbiton,KT6 4JU,51.39303500000000,-0.30522900000000
Hotel Bosco Ltd,KT6 4LQ,51.3937,-0.3037
McDonalds Restaurant,KT6 4NR,51.39220400000000,-0.30625100000000
McDonalds Surbiton,KT6 4NR,51.39220400000000,-0.30625100000000
Starbucks Coffee Company,KT6 4NR,51.39220400000000,-0.30625100000000
fee-ka,KT6 4PE,51.39246610000000,-0.30393570000000
Pickled Pantry,KT6 4PJ,51.39340900000000,-0.30313100000000
Nay Thai Restaurant,KT6 4QH,51.39337200000000,-0.30556100000000
Clock Tower Cafe T/A Ghina Aqua int'l Ltd,KT6 4QR,51.39438900000000,-0.30445400000000
The Press Room,KT6 4QR,51.39372700000000,-0.30458500000000
Pizza Express,KT6 4RB,51.39298200000000,-0.30408100000000
WAGGON AND HORSES,KT6 4TW,51.39898900000000,-0.30158700000000
Squire's Garden Centre Long Ditton,KT6 5HN,51.37886100000000,-0.31882900000000
JOY indian cuisine,KT6 5LR,51.39143500000000,-0.31026100000000
KFC Surbiton,KT6 5LR,51.39143500000000,-0.31026100000000
KFC,KT6 5LR,51.39143500000000,-0.31026100000000
Pizza Hut,KT6 5LR,51.39143500000000,-0.31026100000000
THALI HO,KT6 5LR,51.39143500000000,-0.31026100000000
Chicken Land,KT6 5LX,51.39096800000000,-0.30910000000000
Wags N Tales,KT6 5LX,51.39096800000000,-0.30910000000000
BLACK LION,KT6 5PL,51.39192100000000,-0.31030100000000
Ex Cellar,KT6 5PQ,51.39150200000000,-0.30932400000000
Red Rose Surbiton,KT6 5PQ,51.39150200000000,-0.30932400000000
360 Restaurant - Crowne Plaza London Kingston,KT6 5QQ,51.39109300000000,-0.32024900000000
360restaurant,KT6 5QQ,51.39109300000000,-0.32024900000000
masaniello pizzeria,KT6 6AL,51.38953400000000,-0.29759700000000
Positano (2017)LTD ,KT6 6AW,51.38856700000000,-0.29728800000000
CH&Co Catering Group Ltd,KT6 6DF,51.39192500000000,-0.30121600000000
Niku Bar & Restaurant ,KT6 6EX,51.39076200000000,-0.29855700000000
Agra Restaurant (Surbiton) Limited,KT6 6HE,51.38902800000000,-0.29803200000000
Royal Oak Surbiton,KT6 7AA,51.38536200000000,-0.29513600000000
Bulgarian House Restaurant,KT6 7AQ,51.38443600000000,-0.29337300000000
Kookoo Grill & Seafood,KT6 7AQ,51.38443700000000,-0.29337400000000
IL MULINO ,KT6 7BE,51.38251170000000,-0.28684680000000
SORRENTO RESTAURANT,KT6 7DE,51.38295100000000,-0.28648800000000
Chicken Land,KT6 7DJ,51.38131200000000,-0.28258300000000
Superfish,KT6 7DJ,51.38131200000000,-0.28258300000000
MWM United Ltd t/a Spice House,KT6 7DQ,51.38173700000000,-0.28335800000000
Costa Coffee,KT6 7DW,51.38062700000000,-0.28191900000000
Laxmi,KT6 7HT,51.37980800000000,-0.28186300000000
Le Tran Pho Vietnamese Restaurant,KT6 7HT,51.37980800000000,-0.28186300000000
Waffle & Shake,KT6 7HT,51.37980800000000,-0.28186300000000
the angel inn,KT7 0AU,51.38558000000000,-0.32904500000000
Maisie Restaurant,KT7 0QQ,51.39362800000000,-0.33343800000000
Costa Coffee,KT7 0RY,51.39006800000000,-0.33346600000000
DITTO,KT7 0SF,51.39155300000000,-0.33234900000000
Tian-Ming UK Ltd t/a HanFu Restaurant,KT7 0SF,51.3915,-0.3323
The Limping Fox,KT7 0UX,51.38596900000000,-0.32411600000000
Rachels kitchen,KT7 0XE,51.39105300000000,-0.32250700000000
THE FERRY,KT7 0XY,51.38960300000000,-0.32546300000000
NEW REGENT CHINESE RESTAURANT,KT9 1DR,51.37460600000000,-0.30375400000000
Saffron Summer,KT9 1DR,51.37460500000000,-0.30375400000000
Pizza Hut,KT9 1EL,51.36694600000000,-0.30639300000000
Chicken Land,KT9 1NU,51.36711200000000,-0.30726300000000
Red Rose Chessington ,KT9 1NU,51.36711200000000,-0.30726300000000
A star coffee ltd,KT9 1QF,51.36426100000000,-0.29853400000000
KFC,KT9 1QF,51.36426100000000,-0.29853400000000
The Well,KT9 2GZ,51.36225200000000,-0.31448100000000
Barwell Cafe,KT9 2HU,51.35759000000000,-0.31175100000000
Sedum Restaurant,KT9 2NG,51.34356200000000,-0.31737800000000
Starbucks Coffee Co UK Ltd,RH1 3AL,51.28600100000000,-0.15449400000000
Quality cafe ,RH1 3EF,51.26348100000000,-0.15149700000000
Reigate Hill Golf Club Limited,RH2 0TU,51.26205000000000,-0.17954800000000
The Running Horses,RH5 6DU,51.26749300000000,-0.32420000000000
BGK House Ltd t/a Gurkha Kitchen,RH8 0AX,51.2577,-0.0029
The Deli Oxted,RH8 0AX,51.25763100000000,-0.00286500000000
Deep Blue Restaurants,RH8 0BD,51.25698200000000,-0.00118800000000
Subway,RH8 0BD,51.25698200000000,-0.00118800000000
Coffee at Kiwi House,RH8 0DR,51.25901500000000,0.01394900000000
The Bull Inn Limpsfield,RH8 0DR,51.2590,0.0140
Ber-Gur Lt t/a Brisk,RH8 0PG,51.25780800000000,-0.00217000000000
COSTA COFFEE   OXTED ,RH8 0PG,51.25780800000000,-0.00217000000000
Costa Coffee,RH8 0PG,51.25780800000000,-0.00217000000000
Cucina Italiana,RH8 0PG,51.25780800000000,-0.00217000000000
Caffe Nero,RH8 0QE,51.25842500000000,-0.00456500000000
Pizza Express,RH8 0QE,51.25842500000000,-0.00456500000000
Billy's Bistro,RH8 0SJ,51.25776600000000,0.01914000000000
Limpsfield Chart Golf Club,RH8 0SL,51.25657100000000,0.02376000000000
Everyman Oxted,RH8 9EE,51.25763400000000,-0.00566000000000
Contessa Trading Ltd t/a Thai Pad,RH8 9HR,51.25751700000000,-0.00459000000000
Freedom Leisure Ltd,RH8 9HT,51.25600000000000,-0.00583100000000
The Crown Inn,RH8 9LN,51.25263500000000,-0.01524900000000
The George Inn,RH8 9LP,51.25277600000000,-0.01561500000000
Costa Coffee,SE10 8DA,51.47292360000000,-0.01578660000000
The Guildford Arms,SE10 8JY,51.47435770000000,-0.01486750000000
The Kitchen SE12,SE12 0AA,51.4493,0.0131
Baring Hall Hotel,SE12 0DU,51.4328,0.0210
Bubble & squeak,SE12 0EF,51.4296,0.0210
The Summerfield tavern,SE12 0PS,51.4432,0.0147
Milk,SE12 8LP,51.4516,0.0054
Lee cafe ,SE12 8RA,51.4511,0.0126
Ristorante & Bar Luciano,SE12 8RA,51.4511,0.0126
rhubarb & CUSTARD Cafe,SE12 8RG,51.4556,0.0118
The Old Tigers Head ,SE12 8RU,51.4574,0.0092
JRK Bros (Lee),SE12 8SS,51.4557,0.0124
Lewisham Bowl,SE13 5AU,51.4626,-0.0091
Vinothec Social,SE13 5FL,51.4651,-0.0127
ALPHA LOUNGE RESTAURANT AND BAR,SE13 5JH,51.4629,-0.0108
SAJEE RESTURANT,SE13 5LD,51.4625,-0.0089
Gogan Ltd,SE13 5ND,51.4532,-0.0006
SAPORE VERO HITHER GREEN LTD,SE13 5ND,51.4532,-0.0006
PANAS GURKHA RESTAURANT,SE13 5PJ,51.4585,0.0045
Elements bar,SE13 5PQ,51.4589,0.0045
THE DARJEELING,SE13 5PR,51.4595,-0.0042
Corte Coffee,SE13 6AA,51.4603,-0.0108
Levante Pide,SE13 6AA,51.4603,-0.0108
Suttons Radio,SE13 6AA,51.4603,-0.0108
SOMETHING FISHY,SE13 6AT,51.4619,-0.0098
Bella Roma ,SE13 6BG,51.4618,-0.0095
Levante Restaurant ,SE13 6BG,51.4618,-0.0095
Burger King,SE13 6JG,51.4620,-0.0108
McDonalds Lewisham,SE13 6JL,51.4604,-0.0114
Kerala Gardens Limited,SE13 6JU,51.4588,-0.0128
LUH COFFEE LTD T/A MUFFIN BREAK ,SE13 6LQ,51.4544,-0.0166
Himalaya Restaurant,SE13 6NZ,51.4511,-0.0165
Star cafe,SE13 6NZ,51.4511,-0.0165
Subway ,SE13 6NZ,51.4511,-0.0165
Good Hope,SE13 6RT,51.4507,-0.0062
Arlo & Moe,SE13 6SN,51.4508,-0.0008
Muffin Break Lewisham Centre,SE13 7EP,51.4618,-0.0117
Sparrow,SE13 7HD,51.4635,-0.0111
Ladywell Tavern,SE13 7HS,51.4563,-0.0214
Maggie's Cafe and Restaurant,SE13 7PA,51.4659,-0.0114
Alla Salute! Trattoria Pizzeria Social,SE13 7QD,51.4729,-0.0217
Chicha Lewisham,SE13 7SW,51.4662,-0.0196
Starbucks Lewisham,SE13 7UB,51.4637,-0.0232
Mamma Dough Ladywell,SE13 7UZ,51.4564,-0.0202
CALABAR KITCHEN 1 LONDON LTD,SE14 5AA,51.4749,-0.0469
New Cross Craft Beer Ltd,SE14 5AA,51.4749,-0.0469
Skehans Freehouse,SE14 5TW,51.4676,-0.0486
The Rose Pub & Kitchen,SE14 6AA,51.4749,-0.0397
The Fat Walrus,SE14 6NP,51.4741,-0.0344
Paranhodu,SE14 6QJ,51.4728,-0.0317
The Copper Tea,SE14 6QP,51.4718,-0.0300
Royal Albert,SE14 6TJ,51.4749,-0.0275
Kudu Kitchen Ltd,SE15 2EZ,51.47396100000000,-0.05948400000000
Mamma Dough Peckham,SE15 2ND,51.4736,-0.0571
Ivy House Community Pub Limited,SE15 3BE,51.45850000000000,-0.05279800000000
The Waverley Arms,SE15 3BU,51.46065400000000,-0.04663100000000
Four Hundred Rabbits Nunhead,SE15 3HB,51.46610100000000,-0.05670700000000
28 Well Hung Ltd,SE15 3QE,51.46463300000000,-0.05986500000000
Napura,SE15 3QF,51.4653,-0.0582
Peckham Bazaar,SE15 3RU,51.46789500000000,-0.06188600000000
The Round Peckham Rye,SE15 3UA,51.45869445800780,-0.06290899962187
The Montpelier,SE15 4AR,51.46755000000000,-0.07098600000000
Tonkotsu Peckham,SE15 4BQ,51.46995770000000,-0.06712100000000
forza wine,SE15 4BQ,51.46995770000000,-0.06712100000000
CROSSROADS CAFE,SE15 4BW,51.46685900000000,-0.07321800000000
Made Of Dough PECKHAM,SE15 4BW,51.46685800000000,-0.07321700000000
Made of Dough,SE15 4BW,51.46685800000000,-0.07321700000000
The Beggingbowl,SE15 4BW,51.4668,-0.0732
ARTUSI,SE15 4DH,51.46688200000000,-0.07246800000000
2 Girls'Cafe,SE15 4JR,51.46539306640630,-0.06677199900150
Banh Banh,SE15 4JR,51.46539400000000,-0.06677100000000
One & All Cafe,SE15 4JR,51.46539400000000,-0.06677100000000
The White Horse ,SE15 4JR,51.46556500000000,-0.06672200000000
Two Hundred Rye Lane,SE15 4NF,51.46720200000000,-0.06676800000000
Zelaa Limited ,SE15 4NF,51.4671,-0.0666
Greek2Go (Peckham),SE15 4PU,51.4679,-0.0743
Honest burgers,SE15 4QL,51.46943664550780,-0.07030200213194
Larrys Restaurant Limited T/A Larrys,SE15 4QL,51.4695,-0.0701
Levan ,SE15 4QL,51.46943664550780,-0.07030200213194
Coal Rooms,SE15 4RX,51.47003600000000,-0.06908100000000
Burger shakes,SE15 4RZ,51.46902400000000,-0.06817400000000
Cafe spice london ltd,SE15 4RZ,51.46902400000000,-0.06817400000000
Flamin Mangal Ltd,SE15 4RZ,51.46902300000000,-0.06817300000000
Miss Tapas ,SE15 4SE,51.46821100000000,-0.06849600000000
bar OM,SE15 4SE,51.46821100000000,-0.06849600000000
BOXWALLAH LTD,SE15 4ST,51.47074350000000,-0.06819520000000
Ipanema Grill,SE15 4ST,51.46990585327150,-0.06821300089359
John The Unicorn,SE15 4TL,51.46860300000000,-0.06724100000000
Four Quarters (Peckham),SE15 4TP,51.46768500000000,-0.06660300000000
Mr Bao,SE15 4UA,51.46573410000000,-0.06581470000000
Voodoo Ray's Peckham ,SE15 4UA,51.46593490000000,-0.06573190000000
KFC,SE15 5BS,51.47225600000000,-0.07005300000000
Ali's Restaurant,SE15 5BY,51.4712,-0.0698
Ganapati Restaurant ltd,SE15 5DF,51.46972900000000,-0.07165700000000
Burger King,SE15 5DP,51.47321400000000,-0.07089100000000
TOLA,SE15 5DP,51.47321400000000,-0.07089100000000
Tiwa N Tiwa African Restaurant Ltd,SE15 5DP,51.47321400000000,-0.07089000000000
McDonalds Peckham,SE15 5DQ,51.47055600000000,-0.06947600000000
Mcdonalds,SE15 5DQ,51.47055600000000,-0.06947600000000
Persepolis,SE15 5DT,51.47339300000000,-0.07245300000000
Delta Express Pizza,SE15 5EB,51.47371600000000,-0.07241000000000
Nando's,SE15 5EW,51.47273680000000,-0.06865530000000
LEVELSIX,SE15 5HQ,51.47142028808590,-0.06836000084877
White Men Can't Jerk,SE15 5JA,51.4733,-0.0654
M.Manze,SE15 5RS,51.47383600000000,-0.06930900000000
CHICK CHICKEN LONDON LTD,SE15 5SE,51.47411700000000,-0.06836200000000
Olive Dining Ltd,SE18 4LH,51.47196960449220,0.05274600163102
The Great Southern,SE19 1QH,51.42311859130860,-0.08370299637318
Manuel Restaurant and Bar,SE19 1QS,51.42742900000000,-0.08601100000000
500 DEGREES,SE19 1RX,51.41964721679690,-0.08144599944353
Caffe Nero,SE19 1RX,51.41964721679690,-0.08144599944353
Joanna's Restaurant,SE19 1RX,51.41964721679690,-0.08144599944353
Palace Spice,SE19 1RX,51.41964721679690,-0.08144599944353
Tamnag Thai,SE19 1RX,51.41964721679690,-0.08144599944353
The Sparrowhawk Pub,SE19 1RX,51.41964721679690,-0.08144599944353
Chicken  cottage c p ltd,SE19 1SB,51.41962051391600,-0.07930400222540
Chicken Cottage CP Ltd,SE19 1SB,51.41962051391600,-0.07930400222540
Escape Bar & Restaurant ,SE19 1SB,51.41962051391600,-0.07930400222540
Thai Crystal,SE19 1TQ,51.42011100000000,-0.08229000000000
The Faber Fox,SE19 1TQ,51.42011100000000,-0.08229000000000
Walker Briggs,SE19 1TQ,51.42010879516600,-0.08229000121355
Lorenzo ,SE19 1TX,51.41990100000000,-0.07936400000000
Westow House,SE19 1TX,51.41990100000000,-0.07936400000000
Cafe St Germain,SE19 1UA,51.4204,-0.0787
Hill 44,SE19 2AE,51.41799500000000,-0.07448200000000
Mozart London,SE19 2AS,51.41648000000000,-0.07257600000000
FOUR BOROUGHS,SE19 2ET,51.41932678222660,-0.07934500277042
Brown and Green Cafe,SE19 2PR,51.41674804687500,-0.08117900043726
Yak & Yeti Restaurant,SE19 2PR,51.41674804687500,-0.08117900043726
The Alma Crystal Palace,SE19 2TA,51.41759900000000,-0.08051100000000
Everyman Cinema,SE19 2TE,51.41901420000000,-0.07910410000000
La Bruschetta,SE19 3AF,51.4174,-0.0821
Urban Orient,SE19 3AF,51.41743469238280,-0.08208499848843
Baba G's Reunion,SE19 3AH,51.4191,-0.0831
Four Hundred Rabbits Crystal Palace,SE19 3AH,51.41909790039060,-0.08316600322723
The Conquering Hero,SE19 3HF,51.4210,-0.1061
Olive Dining Limited At All Saints C Of E Primary School,SE19 3LG,51.41223907470700,-0.08658800274134
LA CUCINA DI DAFFY,SE19 3NG,51.42244720458980,-0.10530599951744
Mi Cocina Es Tuya ,SE19 3RW,51.41786575317380,-0.08188000321388
Costa Coffee,SE20 7EX,51.41481399536130,-0.05278500169516
KFC,SE20 7EX,51.41478400000000,-0.05274800000000
McDonalds Penge,SE20 7EZ,51.41530900000000,-0.05342600000000
McDonalds,SE20 7EZ,51.41530900000000,-0.05342600000000
Pizza Hut Delivery,SE20 7EZ,51.41530900000000,-0.05342600000000
Penge Masala Indian and Bangladeshi Restaurant and Takeaway,SE20 7HW,51.41712700000000,-0.05677100000000
friends of flavours,SE20 7JA,51.41476300000000,-0.05031400000000
The Alexandra ,SE20 7JH,51.41619800000000,-0.04960500000000
bizim mangal,SE20 7PF,51.41334300000000,-0.05090600000000
Sicilian Art Pizzeria,SE20 7QB,51.41152700000000,-0.04882600000000
Goldsmith Arms,SE20 7TJ,51.41294000000000,-0.05263500000000
Get stuffed cafe,SE20 7UN,51.40415600000000,-0.06852200000000
Anerley Arms,SE20 8AG,51.4125,-0.0663
creperie chez yves,SE20 8HU,51.41523100000000,-0.05521200000000
Blue Belle Cafe,SE20 8JB,51.41449300000000,-0.05517200000000
SHAHI FOOD ZONE LTD,SE20 8JB,51.41451900000000,-0.05514200000000
Circus Bros ltd,SE20 8TW,51.4087,-0.0664
Belair House,SE21 7AB,51.44242500000000,-0.08855000000000
Romeo Jones,SE21 7AJ,51.44949700000000,-0.08550600000000
Pizza express,SE21 7AQ,51.44893990000000,-0.08553380000000
The Real Greek,SE21 7AQ,51.44847800000000,-0.08589400000000
Rocca di Papa,SE21 7BJ,51.44921760000000,-0.08491770000000
The Dulwich Clock Cafe,SE21 7BQ,51.4467,-0.0850
CELLAR 107,SE21 8EZ,51.43683242797850,-0.09468200057745
Caffe Salva,SE21 8EZ,51.43723050000000,-0.09487210000000
Indigo,SE21 8EZ,51.43679700000000,-0.09474100000000
The Rosendale,SE21 8EZ,51.43679700000000,-0.09474100000000
Lorenzo,SE22 0RR,51.45343300000000,-0.06231200000000
The Herne Tavern,SE22 0RR,51.45343300000000,-0.06231200000000
Zainab Mahal (omrith),SE22 0RS,51.45198440551760,-0.06021400168538
Starbucks coffee company,SE22 8BB,51.46188400000000,-0.08518900000000
Hisar restaurant,SE22 8EP,51.45858400000000,-0.07479000000000
LUX THAI RESTAURANT LTD,SE22 8EP,51.45858400000000,-0.07479000000000
Palmerston,SE22 8EP,51.45858400000000,-0.07479000000000
Signoria,SE22 8EP,51.45858400000000,-0.07479000000000
Tandoori Nights Dulwich,SE22 8EP,51.4586,-0.0748
Poached LTD,SE22 8EQ,51.46165900000000,-0.07860500000000
500 DEGREES SMAKAJ LTD,SE22 8EW,51.45985500000000,-0.07496700000000
East Dulwich Tavern,SE22 8EW,51.45985500000000,-0.07496700000000
Franco manca,SE22 8EW,51.45985500000000,-0.07496700000000
MEATLiquor,SE22 8EW,51.45985500000000,-0.07496700000000
The Lordship Pub,SE22 8HA,51.45492900000000,-0.07674300000000
148 Chinese Restaurant,SE22 8HB,51.45504400000000,-0.07717000000000
MARIAS TORTILLA LTD,SE22 8HD,51.45600500000000,-0.07651100000000
Maria's tortilla,SE22 8HD,51.45600500000000,-0.07651100000000
yamamomo,SE22 8HF,51.4575,-0.0757
Memsaab indian cuisine,SE22 8HJ,51.45925800000000,-0.07529400000000
Terroirs East Dulwich,SE22 8HJ,51.4592,-0.0753
dulwich tandoori,SE22 8HJ,51.45925800000000,-0.07529400000000
Caffe nero,SE22 8HN,51.46016100000000,-0.07550100000000
Oru Space Ltd,SE22 8HN,51.4602,-0.0755
Gourmet burger kitchen,SE22 8HU,51.45716300000000,-0.07531000000000
Olivelli,SE22 8HU,51.45716300000000,-0.07531000000000
BOULANGERIE JADE ,SE22 8HX,51.45611200000000,-0.07590100000000
Firezza Dulwich,SE22 8HX,51.45611200000000,-0.07590100000000
Spinach,SE22 8HX,51.45611200000000,-0.07590100000000
franklins,SE22 8HX,51.45611200000000,-0.07590100000000
HARRI’S KITCHEN,SE22 8JN,51.44869900000000,-0.07358430000000
Kamara'sCakes ,SE22 8JY,51.4443,-0.0684
Piece of Cake Cafe,SE22 8PR,51.45885500000000,-0.07924100000000
Crumbs,SE22 9EE,51.45750170000000,-0.07021960000000
The South East Cakery & Cafe,SE22 9EF,51.45712490000000,-0.06918470000000
Bat&Alt LTD,SE22 9ET,51.4575,-0.0732
fifty seven,SE22 9ET,51.4575,-0.0732
Crussh juice bars,SE22 9HB,51.45972600000000,-0.07151700000000
The Blue Brick Cafe,SE22 9HH,51.45688100000000,-0.07346500000000
MONKLAN LTD,SE22 9QA,51.4597,-0.0665
RAILWAY TELEGRAPH,SE23 1BS,51.4422,-0.0491
Hattush Restaurant Ltd,SE23 1DY,51.4494,-0.0432
Mamma Dough HOP,SE23 1DY,51.4494,-0.0432
Two Spoons,SE23 1DY,51.4494,-0.0432
Donde - At The Hop,SE23 1DZ,51.4490,-0.0433
GROUNDS AND GRAPES ,SE23 1DZ,51.4490,-0.0433
Big Mammas Pizza ,SE23 1HH,51.4425,-0.0469
Insel Ali T/A Ince's Cafe,SE23 1HN,51.4432,-0.0457
Junction876,SE23 1HP,51.4424,-0.0434
Special grill cafe ,SE23 1JG,51.4433,-0.0427
Babur Restaurant,SE23 1JP,51.4475,-0.0421
Chandos Hotel,SE23 1LN,51.4482,-0.0406
Sfizio Italian tapas limited ,SE23 2AR,51.4392,-0.0526
PIAZZA DELA CUCINA LTD,SE23 2NE,51.4394,-0.0519
Big Cheeks Thai,SE23 3EP,51.4404,-0.0546
The Signal,SE23 3HE,51.4394,-0.0539
Canvas and Cream ,SE23 3HF,51.4396,-0.0552
THE GUAVA KITCHEN LIMITED,SE23 3HF,51.4396,-0.0552
The Teapot,SE23 3HF,51.4396,-0.0552
BB AND FRIENDS,SE23 3HN,51.4378,-0.0541
Bona Sourdough,SE23 3HN,51.4378,-0.0541
The Archie Parker Cafe,SE23 3HN,51.4378,-0.0541
The Dartmouth Arms,SE23 3HN,51.4378,-0.0541
THE HORNIMAN CAFE LIMITED,SE23 3PQ,51.4411,-0.0608
The India Gate (Shree Kanthuganesh ltd),SE23 3TY,51.4396,-0.0567
Dip and Flip,SE24 0JF,51.4626,-0.1015
Llewelyn's,SE24 0JP,51.45337295532230,-0.10275900363922
The Agile Rabbit Herne Hill limited,SE24 0JT,51.45295790000000,-0.10256550000000
	500 Degrees Herne Hill,SE24 0NG,51.45278500000000,-0.10302800000000
Little Ochi International Ltd,SE24 0NG,51.45278600000000,-0.10302800000000
The Prince Regent,SE24 0NJ,51.45425300000000,-0.10757300000000
Four Hundred Rabbits Herne  Hill,SE24 0PA,51.4544,-0.1091
Park's Edge Bar & Kitchen,SE24 9AA,51.45054200000000,-0.10050200000000
Saray Restaurant,SE24 9AA,51.45054200000000,-0.10050200000000
The Parlour,SE24 9AA,51.45210730000000,-0.10119180000000
Umana Yana,SE24 9DA,51.45018200000000,-0.09938000000000
Cafe Lulu Ltd,SE24 9DL,51.44770900000000,-0.10051900000000
Peachy Goat ,SE24 9HU,51.45260200000000,-0.09943800000000
The Roome,SE24 9JU,51.45316400000000,-0.10026400000000
Wilson vale catering,SE24 9LY,51.45557100000000,-0.09843600000000
Pizza Express,SE24 9QH,51.45329000000000,-0.10138100000000
Portland cafe,SE25 4PQ,51.39705657958980,-0.07097700238228
The Portland Arms,SE25 4PT,51.39424590000000,-0.06747780000000
The Gold Coast Bar and Restaurant,SE25 4QB,51.39242935180660,-0.06677299737930
CHICKEN EXPRESS,SE25 4UY,51.39495468139650,-0.06731399893761
Mamma Dough South Norwood,SE25 5AH,51.39800310000000,-0.07610320000000
YEHANOHACAFE,SE25 5AH,51.3978,-0.0756
banana island bar and restaurant,SE25 6EB,51.39901351928710,-0.07517900317907
Shelverdine Goathouse,SE25 6EP,51.39861297607420,-0.07648999989033
Buckys restaurant,SE25 6RD,51.39823150634770,-0.09157200157642
The Dutchie Express,SE25 6RD,51.39823150634770,-0.09157200157642
Costa Coffee,SE25 6XP,51.39829210000000,-0.07726990000000
Costa Coffee,SE25 6XS,51.3983,-0.0773
McDonalds Sydenham ,SE26 4PR,51.4310,-0.0337
The Greyhound ,SE26 4QB,51.4268,-0.0550
Mamma Dough Sydenham,SE26 4QD,51.4283,-0.0568
Cobb's Corner cafe,SE26 4RS,51.4265,-0.0556
ON THE HOOF BISTRO,SE26 5EX,51.4265,-0.0527
The Dolphin,SE26 5HB,51.4259,-0.0475
The Golden Lion Sydenham ,SE26 5JX,51.4256,-0.0486
Trattoria Raffaele,SE26 5JX,51.4256,-0.0486
Zigghy Cafe ,SE26 5JX,51.4256,-0.0486
The Bell Public House,SE26 5SJ,51.4288,-0.0368
Subway - trading as Priyal Ltd,SE26 5UA,51.4262,-0.0502
Otter Trading Limited,SE27 0HS,51.4310,-0.1041
The Great Northwood,SE27 0HS,51.43099500000000,-0.10410300000000
Pizza Hut Delivery,SE27 0HY,51.43267000000000,-0.10417800000000
Sweet Carolina Kitchen and Bar,SE27 0HY,51.43267000000000,-0.10417800000000
SORRENTO RESTAURANT,SE27 9AA,51.43414700000000,-0.10433300000000
BT FOOD UK LIMITED,SE27 9AF,51.43526300000000,-0.10440100000000
Knowles of Norwood,SE27 9AF,51.43526300000000,-0.10440100000000
New maem's Chicken Limited,SE27 9AF,51.43526300000000,-0.10440200000000
La casa degli amici,SE27 9AU,51.43971500000000,-0.10663500000000
SIAM NIYOM,SE27 9BQ,51.44032900000000,-0.10571700000000
The Railway Tavern,SE27 9BW,51.43989700000000,-0.10572000000000
KFC - Norwood,SE27 9DJ,51.4359,-0.1040
KFC,SE27 9DJ,51.43595123291020,-0.10404200106859
Papa Johns - WEST NORWOOD,SE27 9DJ,51.4359,-0.1040
Four Rabbits West Norwood,SE27 9DL,51.43478200000000,-0.10355800000000
Caffe Luna,SE27 9QY,51.42753900000000,-0.08783300000000
Pomodoro,SE27 9RB,51.42719900000000,-0.08743000000000
Pizzeria Volare,SE27 9TB,51.42830600000000,-0.10017200000000
Avocado Garden,SE3 0BN,51.4670,0.0073
MADELEINE'S,SE3 0BU,51.4663,0.0081
Saffron Club,SE3 0BU,51.4663,0.0081
Laicram Thai,SE3 0DD,51.4662,0.0094
Aqua Brasserie Blackheath Ltd,SE3 0TA,51.4669,0.0087
Tziganos,SE3 0TA,51.4669,0.0087
Everest Inn,SE3 0TJ,51.4674,0.0080
Zerodegrees - Microbrewery & Restaurant,SE3 0TJ,51.4674,0.0080
Buenos Aires Cafe,SE3 0TL,51.4674,0.0075
taste of raj,SE3 0TL,51.4674,0.0075
Blueberry's,SE3 9DS,51.4577,0.0112
Back-a-Yard Grill Restaurant Café,SE3 9EX,51.4614,0.0235
Age Exchange,SE3 9LA,51.46567660000000,0.00949710000000
ARTIS BAR LTD,SE3 9LJ,51.4650,0.0080
Bianco43 Blackheath,SE3 9RQ,51.4648,0.0095
Urban Yak ,SE4 1BH,51.4669,-0.0355
The Orchard Bar & Kitchen,SE4 1LW,51.4639,-0.0344
Maiz Azul Ltd,SE4 1XY,51.4610,-0.0311
Masala Wala Cafe LTD,SE4 2AB,51.4654,-0.0361
Arlo & Moe ,SE4 2BT,51.4560,-0.0367
The Crofton Park Tavern,SE4 2BT,51.4560,-0.0367
FREDS LONDON LTD,SE4 2BY,51.4546,-0.0377
Jerome's wine bar & shop,SE4 2PH,51.4546,-0.0371
Coqfighter,SE4 2RS,51.4639,-0.0359
Villa Toscana,SE4 2RS,51.4639,-0.0359
Baba G's parlez,SE4 2RW,51.4642,-0.0373
parlez local,SE4 2RW,51.4642,-0.0373
Brickfields Bar,SE4 2SA,51.4603,-0.0339
The Tiger,SE5 7AA,51.47379900000000,-0.09233600000000
noodels city,SE5 7AA,51.47379800000000,-0.09233600000000
POMEGRANATE CAFE,SE5 8BB,51.46889495849610,-0.08875399827957
Baxterstorey limited,SE5 8LU,51.47279100000000,-0.08571100000000
I Go Chop,SE5 8QZ,51.47355270385740,-0.08877500146627
Maloko,SE5 8QZ,51.47355200000000,-0.08877500000000
The Dutchie,SE5 8QZ,51.47355200000000,-0.08877500000000
Lamoon ,SE5 8RS,51.47171000000000,-0.09274000000000
Mono,SE5 8RS,51.4717,-0.0927
OOK LTD,SE5 8RS,51.4717,-0.0927
Parseh,SE5 8RS,51.47184550000000,-0.09275380000000
Reem Labanese Restaurant,SE5 8RS,51.47171000000000,-0.09274000000000
Viet Cafe,SE5 8RS,51.47171000000000,-0.09274000000000
McDonalds Camberwell,SE5 8RW,51.47343200000000,-0.09245200000000
Mcdonalds restaurant ltd,SE5 8RW,51.47343200000000,-0.09245200000000
Cafe Toscana,SE5 8RX,51.47059249877930,-0.09317500144243
Nando's,SE5 8RX,51.47059300000000,-0.09317500000000
Subway ,SE5 8RZ,51.47317100000000,-0.09355800000000
The Crooked Well,SE5 8SY,51.4734,-0.0904
Theo's,SE5 8SY,51.47340800000000,-0.09043700000000
Good Neighbour,SE5 8TR,51.47411470000000,-0.09072960000000
SILK ROAD RESTAURANT,SE5 8TR,51.47406000000000,-0.08960400000000
The Camberwell Arms,SE5 8TR,51.47406000000000,-0.08960400000000
Baxterstorey,SE5 8UF,51.47404098510740,-0.08066699653864
Corner Store,SE5 8UH,51.4741,-0.0811
Crane's Kitchen,SE5 8UH,51.4741,-0.0811
Wagamama Limited,SE5 9JR,51.47250366210940,-0.09942200034857
Geek Retreat London Camberwell ,SE5 9NR,51.47108740000000,-0.09369250000000
The Sun,SE5 9NS,51.46968200000000,-0.09576200000000
Latin House Ltd,SE5 9PR,51.47160400000000,-0.09396800000000
Monsoon ,SE6 1AE,51.4453,-0.0041
Subway Shell Catford ,SE6 1TP,51.4339,0.0092
McDonalds Catford,SE6 2DD,51.4445,-0.0180
La Pizzeria Italiana Limited,SE6 2EF,51.4458,-0.0187
TURKUAZ CATERING LTD,SE6 2NZ,51.4366,-0.0180
Mekan restaurant,SE6 2TS,51.4430,-0.0198
The Fellowship,SE6 3BT,51.4327,-0.0202
parkview cafe,SE6 3BT,51.4327,-0.0202
Southend fried chicken,SE6 3ND,51.4272,-0.0302
German Doner Kebab (GDK),SE6 4AA,51.4464,-0.0184
A2 Lounge,SE6 4AF,51.4475,-0.0178
Costa Coffee,SE6 4AF,51.4475,-0.0178
Grill Kebab House,SE6 4AF,51.4475,-0.0178
KASPAS DESSERTS CATFORD,SE6 4AF,51.4475,-0.0178
Sema’s Cafe,SE6 4DT,51.4389,-0.0334
Catford KFC Store,SE6 4HQ,51.4462,-0.0197
Tai Won Mein,SE6 4HW,51.4474,-0.0188
Bella v,SE6 4JD,51.4483,-0.0179
Catford Mews,SE6 4JU,51.4462,-0.0207
Compound Coffee,SE6 4JU,51.4462,-0.0207
The Black Cat,SE6 4JU,51.4462,-0.0207
Mr beigel,SE6 4QZ,51.4447,-0.0237
Mye Green Mango Limited,SE6 4RE,51.4447,-0.0245
Pristine Eats Catering ,SE6 4RE,51.4447,-0.0245
CATFORD CAFE LTD,SE6 4SP,51.4451,-0.0225
Costa Coffee,SE6 4SP,51.4451,-0.0225
The Brookmill,SE8 4EJ,51.4714,-0.0234
Jin Jiang Chinese Restaurant ,SE8 4PQ,51.4744,-0.0246
Le spice,SE9 1BA,51.45064400000000,0.05905360000000
Ziyafet Restaurant,SE9 1BA,51.4507,0.0591
Kaspa's Desserts Eltham,SE9 1BD,51.45059790000000,0.05860540000000
Eltham KFC Store,SE9 1BJ,51.4505,0.0560
KFC,SE9 1BJ,51.45047730000000,0.05524660000000
Rox Restaurant Bar Club,SE9 1BJ,51.4505,0.0560
Scorpio Wine House Limited,SE9 1BL,51.45033240000000,0.05734130000000
Spice Island,SE9 1BT,51.45090410000000,0.05089020000000
Wavefresh Fish and Chips,SE9 1BT,51.45076170000000,0.05131560000000
Legends (Eltham) Ltd,SE9 1BW,51.45055740000000,0.05373880000000
B&S NARIN LTD,SE9 1DD,51.45035030000000,0.05324020000000
McDonalds Eltham,SE9 1TD,51.45092773437500,0.05363000184298
Wimpy Eltham,SE9 1TD,51.45093180000000,0.05392830000000
Burger King,SE9 1TQ,51.4511,0.0554
Prezzo,SE9 1TS,51.45096320000000,0.05829080000000
Two Happy Chefs,SE9 1TX,51.45097430000000,0.05970180000000
Star of india ,SE9 1TY,51.45093550000000,0.06344220000000
CHOI CATERING LIMITED,SE9 2EB,51.43921530000000,0.07020900000000
Waterfall Elior Limited,SE9 3JN,51.43294906616210,0.05735599994659
Mint Leaves-Real Indian Food,SE9 3NS,51.43425870000000,0.06469020000000
Zavi Restaurant ,SE9 3SA,51.43460670000000,0.06516210000000
Pope Street Bar and Kitchen ,SE9 3TU,51.43728600000000,0.07200670000000
Mems Fish Bar Limited,SE9 4DZ,51.42731800000000,0.04614100000000
Mem' Cafe,SE9 4QZ,51.43703600000000,0.04427300000000
Jolpai Indian cuisine ,SE9 4RQ,51.43784400000000,0.04488500000000
Royal Blackheath golf club,SE9 5AF,51.4465,0.0531
K.HUSS CATERING LIMITED,SE9 5DA,51.4500,0.0545
Park Tavern,SE9 5DA,51.44976610000000,0.05445580000000
The Fabulous Tearoom,SE9 5DN,51.45044380000000,0.05816670000000
Eltham GPO,SE9 5DQ,51.44995498657230,0.05370200052857
RAYMONDS PIE AND MASH,SE9 5DQ,51.44994590000000,0.05374020000000
Mecca Bingo,SE9 5ED,51.45120620727540,0.04761200025678
FOOD DHABA LIMITED,SE9 5ER,51.4456,0.0404
McDonald's Restaurants,SE9 5LN,51.45271350000000,0.03484340000000
Coco’s,SE9 5PR,51.45000310000000,0.05201560000000
Pizza Hut,SE9 6BZ,51.45988690000000,0.04932730000000
Fresh Ground Coffee House Eltham,SE9 6DH,51.45518510000000,0.04010260000000
The Tudor Barn,SE9 6SZ,51.45795059204100,0.04966999962926
ARA FAST FOOD LIMITED,SE9 6TY,51.4675,0.0527
CAFE KIKO LTD,SM1 1AY,51.3647,-0.1945
GS COFFEE HOUSES LTD T/A ESQUIRES COFFEE,SM1 1AY,51.3647,-0.1945
Sowa Patisserie,SM1 1AY,51.3647,-0.1945
Dallas chicken and ribs ,SM1 1DE,51.35969200000000,-0.19168000000000
Nando's,SM1 1DF,51.36007500000000,-0.19198100000000
Zizzi,SM1 1DF,51.36007500000000,-0.19198100000000
Shinner and Sudtone,SM1 1DT,51.36164000000000,-0.19260900000000
Riva Bingo,SM1 1EH,51.3626,-0.1942
Finnigans Fish and Grill ,SM1 1EZ,51.36182900000000,-0.19202700000000
GERMAN DONER KEBAB,SM1 1EZ,51.36161940000000,-0.19195480000000
KD CATERING (LONDON) LTD,SM1 1EZ,51.3619,-0.1920
Morgan's Bar & Grill ltd t/a Lobster and Grill,SM1 1HN,51.36015500000000,-0.19134600000000
Starbucks (PLATFORM 1),SM1 1JA,51.35963000000000,-0.19115100000000
Caffe Nero,SM1 1JF,51.36318000000000,-0.19333900000000
Warrens Bakery / Baked / Popadums,SM1 1JF,51.36318000000000,-0.19333800000000
GJC Sutton UK Ltd,SM1 1JU,51.3656,-0.1944
Taco Bell,SM1 1JU,51.36607490000000,-0.19455200000000
Bangkok Pad Thai ,SM1 1LT,51.36314392089840,-0.19275100529194
Patisserie Valerie,SM1 1LU,51.36349000000000,-0.19303900000000
Sutton Green Cafe Ltd,SM1 1LW,51.36987304687500,-0.19523000717163
Starbucks Sutton - High Street,SM1 1LX,51.36442200000000,-0.19336200000000
Costa Coffee,SM1 1NL,51.36530600000000,-0.19354200000000
McDonalds Sutton,SM1 1NL,51.36530600000000,-0.19354200000000
KFC Sutton,SM1 1NR,51.36591400000000,-0.19392100000000
KFC,SM1 1NR,51.36591400000000,-0.19392100000000
M.Manze,SM1 1NT,51.36675600000000,-0.19430400000000
Tim’s Cafe,SM1 1NT,51.36675600000000,-0.19430400000000
Lahore Spices ,SM1 1PQ,51.36882600000000,-0.19498400000000
Roti Masters,SM1 1PQ,51.36848200000000,-0.19494580000000
Everest Spice - Nepalese and Indian Restaurant,SM1 1SN,51.36108800000000,-0.19293300000000
Yummys Sutton Limited ,SM1 1SN,51.3611,-0.1929
OSQS Ltd T/A McDonald's Oldfields Road,SM1 2NB,51.3730,-0.2070
Savoy Cafe ,SM1 2UE,51.37103000000000,-0.20968100000000
Bulgarian Restaurant 681,SM1 3HE,51.38359700000000,-0.18998910000000
KFC - Sutton,SM1 3HE,51.38333700000000,-0.19011600000000
KFC,SM1 3HE,51.38333700000000,-0.19011600000000
Simon's Cafe & Diner,SM1 3HH,51.37798100000000,-0.19565800000000
The Little Windsor,SM1 4BY,51.36403800000000,-0.18655300000000
Caffe Nero,SM1 4RA,51.36107800000000,-0.19172600000000
Spaghetti tree sutton,SM2 5AD,51.35888200000000,-0.19103700000000
RELX Quadrant House (Elior),SM2 5AS,51.35909100000000,-0.19005200000000
NOOR JAHAN,SM2 5BQ,51.35852100000000,-0.19149700000000
Sutton Tennis & Squash Club,SM2 5HH,51.35253640000000,-0.18612260000000
Baxterstorey At ICR,SM2 5NG,51.34615000000000,-0.19459700000000
Curryzma Indian restaurant ,SM2 6BG,51.34394500000000,-0.19979500000000
Haweli of belmont,SM2 6BS,51.34377200000000,-0.20080700000000
Casa Nostra Limited,SM2 6LE,51.35910500000000,-0.19209100000000
Heens,SM2 6LE,51.35910500000000,-0.19209100000000
iima sushi,SM2 6LE,51.35910500000000,-0.19209100000000
Flame Blue Catering,SM2 7BJ,51.35443400000000,-0.21707800000000
Banstead Downs Golf Club,SM2 7DD,51.33978700000000,-0.20367700000000
The Grumpy Mole Cheam,SM3 8AA,51.35540300000000,-0.22223900000000
Cheam Cottage ,SM3 8AY,51.35824500000000,-0.21631300000000
Piggies Cheam,SM3 8AY,51.35824500000000,-0.21631300000000
MOROCCAN WAY LIMITED t/a American Way,SM3 8BD,51.35891140000000,-0.21650810000000
Songkran Thai restaurant,SM3 8BD,51.35914700000000,-0.21653600000000
Superfish,SM3 8BD,51.35914700000000,-0.21653600000000
Caffe Nero,SM3 8BG,51.35780810000000,-0.21669460000000
Chim's,SM3 8BH,51.35817680000000,-0.21669460000000
Wildwood,SM3 8BH,51.35818700000000,-0.21671700000000
La Villa Restaurant,SM3 8BU,51.3578,-0.2176
MIMI E COCO LTD,SM3 8BU,51.35779600000000,-0.21756500000000
Pizza Express,SM3 8BU,51.35779600000000,-0.21756500000000
Costa Coffee,SM3 8HW,51.37156200000000,-0.22695800000000
Thai Cafe,SM3 8HW,51.37144530000000,-0.22707000000000
El Desperado Mexican ,SM3 8JR,51.37144300000000,-0.22810450000000
YANGTZE,SM3 8JR,51.37158270000000,-0.22782610000000
Cheam Park Cafe,SM3 8QS,51.36151540000000,-0.22157820000000
Beijing Garden,SM3 8QW,51.36120100000000,-0.21851100000000
beijing garden ,SM3 8QW,51.36120100000000,-0.21851100000000
MILI'S KITCHEN,SM3 8RE,51.35826100000000,-0.21504800000000
SAMSARA RESTAURANT,SM3 8RE,51.35815410000000,-0.21520170000000
LOVE CREPE LTD,SM3 8RL,51.35754400000000,-0.21580800000000
Costa Coffee,SM3 8RQ,51.35796600000000,-0.21573500000000
Tasha's Tearoom,SM3 8RW,51.35794500000000,-0.21491700000000
Lal Akash Indian Restaurant,SM3 8SD,51.3568,-0.2160
Lal Akash Restaurant,SM3 8SD,51.35681900000000,-0.21602300000000
Sushi Tama,SM3 8SD,51.35681900000000,-0.21602300000000
The star,SM3 8SD,51.35681900000000,-0.21602300000000
Prezzo,SM3 8SQ,51.35657500000000,-0.21649300000000
Pizza Hut,SM3 9AA,51.37211900000000,-0.22571600000000
Starbucks,SM3 9AA,51.37208470000000,-0.22415740000000
IL ANGOLO,SM3 9AG,51.37366960000000,-0.22548980000000
OSQS Ltd T/A McDonald's North Cheam ,SM3 9AG,51.37323600000000,-0.22595200000000
Hotrocks Flame Grill,SM3 9BY,51.3762,-0.2219
India cottage,SM3 9DL,51.37691300000000,-0.22219700000000
SUTTON CAFE,SM3 9HE,51.38511700000000,-0.21292600000000
The Emperor,SM3 9HJ,51.38371600000000,-0.21362700000000
Perfect Chicken,SM3 9PL,51.38316767326430,-0.20475412870961
CAFE ROYALE,SM4 4PD,51.38599800000000,-0.21234500000000
CH&CO Catering Ltd at Aragon Primary School,SM4 4QU,51.38919300000000,-0.22139000000000
Blue Diamond Lower Morden Garden Centre,SM4 4SJ,51.39095600000000,-0.21729700000000
Metronome,SM4 5BL,51.4018,-0.1961
Morden Cafe,SM4 5BQ,51.40316200000000,-0.19281300000000
Superfish,SM4 5BQ,51.40316200000000,-0.19281300000000
Blue Junction Bar & Restaurant,SM4 5DA,51.40164000000000,-0.19674000000000
Chicken Land,SM4 5HJ,51.3997,-0.1967
New Galito's Piri Piri,SM4 5HJ,51.39973300000000,-0.19671500000000
PRINCESS OF INDIA,SM4 5HJ,51.39973300000000,-0.19671500000000
Pizza Hut,SM4 5HJ,51.39973300000000,-0.19671500000000
Verona Italian Restaurant ,SM4 5HJ,51.39973300000000,-0.19671500000000
BELLADONA LIMITED,SM4 5HP,51.4007,-0.1957
Roosters Grill,SM4 5HP,51.40068900000000,-0.19571400000000
Tower limited trading as Ganleys Irish bar,SM4 5HP,51.4007,-0.1957
CAFFE LA LAVELLA ,SM4 5HT,51.40252100000000,-0.19318300000000
Instagrab Pretzel,SM4 5HT,51.40288480000000,-0.19243750000000
KFC Morden,SM4 5HT,51.40252100000000,-0.19318300000000
KFC,SM4 5HT,51.40252100000000,-0.19318300000000
Restaurant Deja Vu,SM4 5LQ,51.4024,-0.1926
Mecca Bingo,SM4 6BP,51.38555100000000,-0.18849100000000
Costa Coffee,SM5 1AG,51.38311400000000,-0.18851500000000
Rosehill Cafe (Carshalton) Ltd,SM5 1AG,51.3830,-0.1884
Pick N Pay,SM5 1HA,51.38473800000000,-0.17666600000000
Subway,SM5 1HA,51.38473892211910,-0.17666700482368
George's Cafe T/a Mr T Kocabas,SM5 1JF,51.38452900000000,-0.17365700000000
Pizza Hut,SM5 2DW,51.37246600000000,-0.16760000000000
The Sun,SM5 2HU,51.36743900000000,-0.16418000000000
The Hope,SM5 2PR,51.36736800000000,-0.16715600000000
Dottys Teahouse,SM5 3AE,51.36565800000000,-0.15900700000000
Indian Oasis,SM5 3AE,51.36565800000000,-0.15900800000000
ROAST & GROUND CAFE SANDWICH BAR,SM5 3AE,51.36563300000000,-0.15909500000000
Sassis in the grove ,SM5 3AL,51.3662,-0.1621
Costa Coffee,SM5 3AX,51.36570800000000,-0.16049900000000
Spotlight at Cryerarts,SM5 3BB,51.36619949340820,-0.15985399484634
Sakura Indian ,SM5 3LF,51.35688400000000,-0.17006000000000
ABN Godstone Ltd,SM5 3NW,51.3576,-0.1736
Beeches Cafe ,SM5 3NW,51.35758700000000,-0.17366600000000
Honeywood Tea Room,SM5 3NX,51.36526000000000,-0.16511500000000
Oaks Sports Centre Ltd,SM5 4AN,51.34143100000000,-0.16925400000000
Henry's,SM6 0BW,51.36666200000000,-0.15306300000000
Jerk n Jollof Bar & Grill ,SM6 0BW,51.36666200000000,-0.15306300000000
KORYKOS RESTAURANT,SM6 0BW,51.36666200000000,-0.15306300000000
El Nido Restaurant,SM6 0DE,51.36197900000000,-0.15036400000000
Rumblin tums cafe,SM6 0HU,51.35917300000000,-0.15034800000000
Cactus Grill,SM6 0LH,51.35934600000000,-0.14936400000000
KFC,SM6 0LH,51.35893240000000,-0.14944410000000
Ginger frog  ,SM6 0LT,51.35813700000000,-0.14918890000000
MAZ GRILL LTD,SM6 0NN,51.3599,-0.1502
Woodcote Green Garden Centre,SM6 0SU,51.34683227539060,-0.14841799438000
The Grange Restaurant Ltd,SM6 7BT,51.37178300000000,-0.15163600000000
Asia Tandoori Restaurant ,SM6 7HW,51.37898600000000,-0.15506800000000
The Rose & Crown,SM6 7HX,51.36844635009770,-0.15502299368382
Pavilion Cafe - Beddington Park ,SM6 7NN,51.37322200000000,-0.13968100000000
The Greek Vine Limited,SM6 8QF,51.36030700000000,-0.14924000000000
Byrnes pie and eel house ,SM6 8QG,51.36011100000000,-0.14880200000000
Thai Bonanza,SM6 8QG,51.36011100000000,-0.14880200000000
Fresco,SM6 8RG,51.35837790000000,-0.14906430000000
Pizza Express,SM6 9AA,51.35839200000000,-0.14643000000000
Hotrocks ,SM6 9AP,51.3585,-0.1438
burger fellaz,SM6 9AP,51.3585,-0.1438
Mango lounge ,SM6 9AY,51.35896600000000,-0.14349100000000
Mellows pavilion cafe,SM6 9BU,51.35955429077150,-0.13591200113296
IMPERIAL B&R LTD,SM6 9LZ,51.3497,-0.1444
Beehive Cafe (EveryOne Active),SM6 9NZ,51.35334200000000,-0.13309000000000
COSMOPOLITAN RESTAURANTS (UK) LIMITED,SM7 1PB,51.3274,-0.2152
Indus Restaurant,SM7 1PB,51.32739200000000,-0.21522800000000
cuddington golf club,SM7 1RD,51.3317,-0.2145
Pizza Express,SM7 2LJ,51.32183400000000,-0.20399100000000
Prezzo,SM7 2LJ,51.32183400000000,-0.20399100000000
Zizzi,SM7 2NE,51.32231600000000,-0.20380000000000
CIAO ITALIA,SM7 2NH,51.32245000000000,-0.20310600000000
Cafe Nero,SM7 2NH,51.32245000000000,-0.20310600000000
Costa Coffee,SM7 2NL,51.32297400000000,-0.20091800000000
Fego Restaurant Banstead,SM7 2NL,51.32306460000000,-0.20043080000000
THE BURGER CLUB,SM7 2NL,51.32334590000000,-0.19953110000000
Cafe Chai Ltd,SM7 2NS,51.32375650000000,-0.19816590000000
Edibles Delicatessen and Caterers,SM7 2NS,51.32372600000000,-0.19836300000000
CURRY CENTRE,SM7 2NT,51.32422700000000,-0.19702300000000
Village Cafe & Bistro,SM7 2NT,51.32421493530270,-0.19698600471020
Humble Grape,SW11 1ED,51.46120300000000,-0.16289600000000
Pi Pizza,SW11 1ED,51.46120452880860,-0.16289600729942
BabaBoom Battersea Rise,SW11 1EE,51.46105800000000,-0.16457200000000
INDIAN MOMENT,SW11 1EE,51.46105800000000,-0.16457200000000
RED CHILLI LONDON (UK) LTD,SW11 1EE,51.4610,-0.1646
Sinabro Restaurant,SW11 1EE,51.46106600000000,-0.16450000000000
Three Little Birds ,SW11 1EE,51.4610,-0.1646
Pho,SW11 1EG,51.46101500000000,-0.16581200000000
TONY & LING LIMITED,SW11 1EG,51.4610,-0.1657
Thai Garden Ltd,SW11 1EG,51.46101500000000,-0.16581200000000
Stamberga Limited,SW11 1EH,51.46091000000000,-0.16778800000000
Fresh Ground London Church of the Nazarene ,SW11 1EQ,51.46103400000000,-0.16648700000000
Pizza Metro PIzza Ltd,SW11 1EQ,51.46103400000000,-0.16648800000000
Brewdog,SW11 1HG,51.46077200000000,-0.16348900000000
Caffe Nero,SW11 1HG,51.46077100000000,-0.16348900000000
Little Bird Battersea,SW11 1HG,51.4608,-0.1635
The Breakfast Club Battersea Rise,SW11 1HG,51.4608,-0.1635
Banana Tree,SW11 1HN,51.46063600000000,-0.16630200000000
Dip and Flip,SW11 1HW,51.46062300000000,-0.16780000000000
Ginger Kiss,SW11 1JA,51.46448200000000,-0.16385900000000
Compass Group Uk Ltd,SW11 1JG,51.46538100000000,-0.16497400000000
Cafe Parisienne,SW11 1JR,51.46425000000000,-0.16221200000000
GAS MONKEY 3964 LIMITED,SW11 1JW,51.46417200000000,-0.16302200000000
RENAISSANCE 3964 LIMITED,SW11 1JW,51.4642,-0.1629
Sugar Cane Bar,SW11 1JW,51.46417200000000,-0.16302200000000
Pizza Express,SW11 1LE,51.46411500000000,-0.16565900000000
JACKS AT THE JUNCTION,SW11 1LJ,51.46406100000000,-0.16681200000000
KFC Restaurants Ltd,SW11 1LJ,51.46406000000000,-0.16681200000000
Renuka limited,SW11 1LJ,51.4641,-0.1668
Triple D Limited t/a KFC,SW11 1LJ,51.46406000000000,-0.16681200000000
Nando's Chickenland Ltd,SW11 1LN,51.46366400000000,-0.16672800000000
Whole Foods Market - Clapham Junction,SW11 1LN,51.46366400000000,-0.16672800000000
Hannah,SW11 1LP,51.46380080000000,-0.16569140000000
Biscuiteer Baking Company Ltd Northcote Road Icing Cafe,SW11 1NG,51.46028800000000,-0.16650300000000
Nando's,SW11 1NG,51.46028800000000,-0.16650300000000
OAB Ltd,SW11 1NG,51.4603,-0.1665
Brew Northcote Road,SW11 1NJ,51.45969900000000,-0.16620900000000
Cafe Tamra,SW11 1NP,51.45894100000000,-0.16601000000000
MADE IN ITALY 3.0,SW11 1NP,51.4590,-0.1660
NORTHCOTE RECORDS,SW11 1NT,51.46053300000000,-0.16721300000000
Vagabond Wines Northcote Road,SW11 1NT,51.4606,-0.1673
BUONA SERA RESTAURANT,SW11 1NX,51.46018000000000,-0.16704000000000
Gourmet Burger Kitchen,SW11 1NZ,51.45940100000000,-0.16669700000000
Joe & The Juice,SW11 1NZ,51.45942720000000,-0.16664400000000
Rosa's Thai Cafe,SW11 1PA,51.45889400000000,-0.16648600000000
CASA MANOLO ,SW11 1PN,51.46329000000000,-0.16813900000000
KNOOPS,SW11 1PS,51.4619,-0.1678
Amorino Clapham,SW11 1PT,51.46146750000000,-0.16772830000000
McDonalds Restaurants Ltd,SW11 1PW,51.46279300000000,-0.16794300000000
Pret A Manger,SW11 1PX,51.46110300000000,-0.16742000000000
District Restaurants Limited - Riot Chicken ,SW11 1QY,51.46101320000000,-0.16685400000000
Starbucks Coffee Company,SW11 1RU,51.46383285522460,-0.16834799945355
Tortilla,SW11 1RU,51.46383285522460,-0.16834799945355
Caffe Nero,SW11 1SA,51.46368026733400,-0.16893599927425
Taverna Trastevere,SW11 1SJ,51.46058300000000,-0.17678400000000
Cheeky Chicos Clpaham,SW11 1SL,51.4604,-0.1775
TAPAJAX,SW11 1SL,51.4604,-0.1775
Story Coffee,SW11 1SZ,51.46091800000000,-0.17461100000000
CURRY LEAF  Indian Restaurant ,SW11 1TD,51.46045800000000,-0.17566600000000
The Schoolhouse,SW11 1TD,51.46045800000000,-0.17566600000000
Hatched,SW11 1TH,51.45970700000000,-0.17882000000000
Pizza Brixton at Clapham,SW11 1TH,51.45970600000000,-0.17881900000000
Dan Angel restaurant ,SW11 1TQ,51.46018100000000,-0.17695800000000
The Fox & Hounds,SW11 2JU,51.46683100000000,-0.16282800000000
Suburb Sw11 bar & dining,SW11 2LW,51.46603400000000,-0.16998700000000
IRO SUSHI ,SW11 2NR,51.46575400000000,-0.17041600000000
Mata Kamana Ltd,SW11 2PF,51.4671,-0.1700
Caffe Nero Express,SW11 2QP,51.46437700000000,-0.17032700000000
Costa Coffee Bar,SW11 2QP,51.46450042724610,-0.17012700438500
Costa Coffee Ltd,SW11 2QP,51.46450042724610,-0.17012700438500
Sushi Cafe,SW11 3BL,51.47151400000000,-0.16729100000000
Aly's Pinoy Oriental Restaurant,SW11 3BT,51.47177500000000,-0.16788500000000
The Farmers Mistress,SW11 3BU,51.47161500000000,-0.16855400000000
L'Antipasto Restaurant,SW11 3BW,51.4719,-0.1657
The Latchmere,SW11 3BW,51.47193900000000,-0.16571900000000
Papa Johns - BATTERSEA,SW11 3BY,51.47058200000000,-0.17092800000000
the woodman,SW11 3HX,51.47357700000000,-0.17387600000000
Varanasi Chefs,SW11 3JR,51.47038900000000,-0.17243300000000
caravela restaurant,SW11 3JS,51.4706,-0.1721
London House,SW11 3RA,51.47478200000000,-0.17499400000000
Banyan on the Thames,SW11 3RF,51.47036800000000,-0.17796300000000
Stretched & Fired,SW11 3TU,51.4664,-0.1807
GAZETTE BATTERSEA,SW11 3UY,51.46607700000000,-0.18249700000000
Lost Society,SW11 4LS,51.47408100000000,-0.15663300000000
Bistro brazil,SW11 4LX,51.4742,-0.1535
Vibes Battersea,SW11 4LX,51.4742,-0.1535
chada thai cuisine,SW11 4ND,51.47377300000000,-0.16049100000000
The Grove,SW11 4NE,51.4747,-0.1525
The Restaurant Group (Food stars UK),SW11 5BA,51.47118830000000,-0.15394810000000
Wagamama,SW11 5BA,51.47113280000000,-0.15384960000000
Tumnan Thai Restaurant,SW11 5QH,51.46474500000000,-0.15882400000000
Palace Spice,SW11 5QJ,51.46504000000000,-0.15758800000000
Pizza Hut,SW11 5QN,51.46576800000000,-0.15358500000000
Caffe Nero,SW11 5QW,51.46601900000000,-0.15180400000000
Room 43 bar and Kitchen,SW11 5QW,51.46601900000000,-0.15180400000000
Sweetsmile bakery and patisserie ,SW11 5QW,51.4660,-0.1518
Yano Sushi,SW11 5QW,51.46601900000000,-0.15180400000000
lavender hill fish&chips,SW11 5QW,51.4660,-0.1518
The Crown,SW11 5RD,51.46563700000000,-0.15665700000000
Firezza Battersea,SW11 5RL,51.46636700000000,-0.15272600000000
Sendero Specialty Coffee - Clapham,SW11 5RW,51.46647500000000,-0.15103700000000
Donna Margherita,SW11 5TE,51.46461300000000,-0.15956300000000
El Patio,SW11 5TE,51.46461200000000,-0.15956300000000
Social Pantry Cafe,SW11 5TG,51.46474200000000,-0.16150200000000
Mien Tay Battersea Limited,SW11 5TQ,51.46449800000000,-0.16313800000000
Panahar Indian Restaurant ,SW11 5TQ,51.46450500000000,-0.16305100000000
Al Gusto,SW11 6PJ,51.45833500000000,-0.16581800000000
Sea Fare Fish Bar,SW11 6PL,51.45791000000000,-0.16570500000000
Warrens Bakery / Baked / Popadums,SW11 6PL,51.4579,-0.1657
Numero Uno Restaurant ,SW11 6PX,51.45592700000000,-0.16480700000000
AKASH Restaurant,SW11 6QL,51.45830600000000,-0.16630800000000
Franco Manca,SW11 6QL,51.45830600000000,-0.16630800000000
MEATLiquor,SW11 6QL,51.4583,-0.1663
OPA-OPA GREEK RESTAURANT,SW11 6QL,51.45813490000000,-0.16623510000000
MACELLAIO RC NORTHCOTE ROAD,SW11 6QU,51.45620900000000,-0.16554400000000
Draft House Northcote,SW11 6QW,51.45734000000000,-0.16598800000000
pintus,SW11 6QZ,51.45578300000000,-0.16535900000000
Manifesto,SW11 6RD,51.45542600000000,-0.16501300000000
The Bolingbroke,SW11 6RE,51.45376600000000,-0.16407200000000
Parish Coffee,SW12 8EN,51.45052490000000,-0.14949910000000
Brother Marcus Balham,SW12 8JA,51.44366200000000,-0.15345500000000
Seventeen fish and chips ,SW12 8JA,51.44366200000000,-0.15345500000000
Subway,SW12 8JA,51.44366300000000,-0.15345500000000
The Regent,SW12 8JB,51.44444400000000,-0.15453100000000
1910,SW12 8QX,51.4455,-0.1529
Balham Bowls Club,SW12 8QX,51.44548000000000,-0.15292100000000
Toast Rack Bake House,SW12 8SG,51.44611800000000,-0.16263800000000
Little dessert shop,SW12 9AA,51.44575830000000,-0.15061280000000
Nando's,SW12 9AA,51.44588300000000,-0.15050200000000
LIBANO,SW12 9AG,51.44654600000000,-0.14981300000000
South River Coffee,SW12 9AG,51.44654464721680,-0.14981299638748
Ciullosteria ,SW12 9AL,51.44732000000000,-0.14871600000000
ABD Temptations Ltd,SW12 9AP,51.4455,-0.1504
THE CHICKEN & PIZZA DOT COM LIMITED,SW12 9AP,51.44549600000000,-0.15048900000000
Hagen and Hyde,SW12 9AU,51.44432100000000,-0.15181700000000
McDonalds Balham,SW12 9AU,51.4443,-0.1518
McDonalds Restaurants Ltd,SW12 9AU,51.44432100000000,-0.15181700000000
firefly,SW12 9AZ,51.44237600000000,-0.15337800000000
Bucci Restaurant,SW12 9BE,51.44171900000000,-0.15393600000000
Jefferson’s,SW12 9BE,51.44157710000000,-0.15406250000000
KKTK2 LTD,SW12 9BE,51.4417,-0.1540
The Cyclist,SW12 9BP,51.44389700000000,-0.15292700000000
The Apple Blue Patisserie,SW12 9BS,51.44306150000000,-0.15352780000000
Burger King,SW12 9DP,51.45060900000000,-0.14743200000000
Costa Coffee,SW12 9DY,51.45245800000000,-0.14719900000000
The Avalon,SW12 9EB,51.45060400000000,-0.14828100000000
Pasha mangal,SW12 9ET,51.44504400000000,-0.15093900000000
Seascape fish bar,SW12 9ET,51.44504400000000,-0.15093900000000
Hache Balham,SW12 9EY,51.4441,-0.1503
Megan's on the Hill,SW12 9EY,51.44417953491210,-0.15026900172234
Pizza Express,SW12 9EY,51.44411500000000,-0.15018500000000
Franco Manca,SW12 9EZ,51.44351700000000,-0.14987800000000
Indian Room,SW12 9EZ,51.44351700000000,-0.14987800000000
Esquires Coffee Balham,SW12 9HA,51.44314400000000,-0.14964800000000
Pho,SW12 9HA,51.44314400000000,-0.14964800000000
The Bedford,SW12 9HD,51.44210000000000,-0.14904300000000
Caminata,SW12 9HR,51.44180000000000,-0.14934300000000
Meze Mazis,SW12 9HR,51.44180000000000,-0.14934300000000
Trap Kitchen,SW12 9HR,51.44180000000000,-0.14934300000000
MILK LONDON LTD,SW12 9RG,51.44465900000000,-0.15104100000000
Brickwood Balham,SW12 9RQ,51.4444,-0.1512
La Casetta,SW12 9RQ,51.4444,-0.1512
Wicked Vegan,SW12 9RQ,51.44436450000000,-0.15118710000000
TAGINE,SW12 9RT,51.44288000000000,-0.14830600000000
Heidi,SW12 9SG,51.44331500000000,-0.15194400000000
Thali and Pickles,SW12 9SG,51.44331500000000,-0.15194300000000
The Exhibit,SW12 9SG,51.44331500000000,-0.15194400000000
Alma Cafe (Barnes),SW13 0DB,51.47495440000000,-0.23921770000000
Arte chef,SW13 0DQ,51.47466900000000,-0.24117270000000
Church Road,SW13 0DQ,51.4748,-0.2406
oka restaurant ,SW13 0DQ,51.4748,-0.2406
Dolce Crema ,SW13 0NY,51.47037530000000,-0.25595220000000
Orange Pekoe Ltd,SW13 0PX,51.47070070000000,-0.25546460000000
CAFE66,SW13 0PZ,51.4686,-0.2548
No.40 Cafe & Bistro,SW13 0PZ,51.4686,-0.2548
The Boathouse Cafe,SW13 9LB,51.47333620000000,-0.24826520000000
Caffe Nero,SW13 9LW,51.47358880000000,-0.24952270000000
Pizza Express,SW13 9LW,51.47358703613280,-0.24952299892902
The Waterman's Arms - Barnes,SW13 9PY,51.47366630000000,-0.25110370000000
The Plough,SW14 7AF,51.46077810000000,-0.27100120000000
The Tapestry Bar,SW14 7EZ,51.46913909912110,-0.26901501417160
Lal Bagh Restaurant,SW14 7JU,51.4644,-0.2739
Costa Coffee,SW14 7NX,51.46429410000000,-0.26794590000000
Cafe Al Fresco,SW14 7PR,51.46396790000000,-0.27144220000000
Mamma Mia ,SW14 7PR,51.46396830000000,-0.27135680000000
Leonardo Winebar,SW14 7PS,51.46400860000000,-0.27153870000000
FAANOOS LTD,SW14 7PU,51.46402460000000,-0.27285090000000
The Victoria,SW14 7RT,51.46109750000000,-0.27559580000000
Boutique cafe,SW14 8AE,51.46523580000000,-0.26655700000000
La Plata Steakhouse,SW14 8AE,51.46581220000000,-0.26662150000000
Caffe Nero,SW14 8AG,51.46488760000000,-0.26634950000000
Just So Italian Ltd t/a Valentina,SW14 8AH,51.46507850000000,-0.26443220000000
Pizza Hut,SW14 8AW,51.46528280000000,-0.26183300000000
Rosona Spice,SW14 8DS,51.46525900000000,-0.25943070000000
Forty Four Sheen Lane Restaurant,SW14 8LP,51.4658,-0.2672
Pig and Whistle,SW14 8LP,51.46498980000000,-0.26695500000000
Artisan East Sheen,SW14 8LR,51.46462670000000,-0.26631140000000
Leonardo Cafe,SW14 8QN,51.46469910000000,-0.26575610000000
11 Coffee & Co Sheen,SW14 8QR,51.4647,-0.2644
Lupo Bros,SW14 8QR,51.4647,-0.2644
Kozy Coffee and Food,SW14 8QS,51.4648,-0.2628
Pizza Express,SW14 8QS,51.46476670000000,-0.26342190000000
ANNAPURNA East Sheen ,SW14 8QT,51.46495690000000,-0.26108240000000
Asiatique Restaurant,SW14 8QT,51.46494880000000,-0.26114030000000
Olive Dining at Richmond Park Academy,SW14 8RG,51.46315383911130,-0.25771000981331
RICK STEIN,SW14 8SN,51.47059350000000,-0.25672140000000
79 Collective,SW15 1ET,51.46706200000000,-0.21862300000000
Hudsons Restaurant,SW15 1EX,51.46768600000000,-0.22182400000000
Chook Chook Indian Railway Kitchen ,SW15 1EZ,51.46793600000000,-0.22285100000000
Millennium Pizza Bar,SW15 1HJ,51.46828600000000,-0.22692700000000
The Spencer Pub ,SW15 1HJ,51.46828500000000,-0.22692600000000
Thai Square Putney Bridge,SW15 1JN,51.4671,-0.2166
JULIA DOMNA CAFE,SW15 1JP,51.46733400000000,-0.21878500000000
Social Brew Cafe,SW15 1JP,51.46738470000000,-0.21910760000000
Smugglers Cafe,SW15 1JT,51.46760600000000,-0.22004200000000
BOSA KITCHEN,SW15 1LL,51.46781900000000,-0.22102700000000
Blades Restaurant,SW15 1LL,51.4678,-0.2210
Calowries,SW15 1LY,51.46861300000000,-0.22658200000000
Blabar,SW15 1NH,51.46372000000000,-0.21704000000000
Artisans of Sardinia,SW15 1NL,51.46476800000000,-0.21792100000000
Kashmir Restaurant ,SW15 1NL,51.46476700000000,-0.21792100000000
Chalet Ciro ,SW15 1RB,51.46365000000000,-0.21597800000000
McDonalds Restaurants Ltd,SW15 1RB,51.46375700000000,-0.21590200000000
CASA MANOLO ,SW15 1RG,51.46264450000000,-0.21667200000000
Caffe Nero,SW15 1RG,51.46266174316410,-0.21670700609684
District One VSF LTD ,SW15 1RH,51.46269400000000,-0.21755600000000
Kokoro Putney,SW15 1RS,51.46144700000000,-0.21718600000000
Lost Society,SW15 1RS,51.46144800000000,-0.21718700000000
Caffe Nero,SW15 1RT,51.46127700805660,-0.21666100621224
Il Gusto Italiano,SW15 1RT,51.46126800000000,-0.21663200000000
PUTNEY PIES,SW15 1SL,51.46574300000000,-0.21467200000000
Putney Pantry Ltd,SW15 1SN,51.46515700000000,-0.21393200000000
Preto,SW15 1SP,51.46444200000000,-0.21486700000000
Subway,SW15 1SP,51.46450380000000,-0.21475670000000
Five Guys,SW15 1SQ,51.46494900000000,-0.21507700000000
Franco Manca,SW15 1SQ,51.46504700000000,-0.21498800000000
KFC PUTNEY,SW15 1SQ,51.46504700000000,-0.21498800000000
KFC,SW15 1SQ,51.46504700000000,-0.21498800000000
Wagamama,SW15 1SQ,51.46504700000000,-0.21498800000000
YellowBox Britain Ltd t/a Foodilic,SW15 1SR,51.46368600000000,-0.21537100000000
Tortilla,SW15 1SS,51.46296400000000,-0.21583100000000
Pret A Manger,SW15 1SU,51.46209000000000,-0.21625500000000
Costa Coffee,SW15 1TW,51.46391600000000,-0.21629900000000
The Mac Factory,SW15 1TW,51.4637,-0.2165
The Dynamo,SW15 2NA,51.46430300000000,-0.21277100000000
Voodoo Chicken & Spice,SW15 2NU,51.4639,-0.2085
Gourmet Burger Kitchen,SW15 2PG,51.46446800000000,-0.21414600000000
MEIWEI LONDON,SW15 2PP,51.46418400000000,-0.21325000000000
Hotaru ,SW15 2PT,51.46338500000000,-0.21159700000000
YAMIRO KOREAN RESTAURANT,SW15 2PT,51.4634,-0.2116
Caffe Nero,SW15 2SP,51.45992800000000,-0.21187700000000
East Putney Tavern,SW15 2SP,51.45992800000000,-0.21187700000000
The Prince of Wales,SW15 2SP,51.45992800000000,-0.21187700000000
Zaga cicchetti,SW15 2SP,51.4599,-0.2119
Home SW15,SW15 2SW,51.46021300000000,-0.21346300000000
Nando's,SW15 2SW,51.46021300000000,-0.21346300000000
Pizza Express,SW15 2SW,51.46021300000000,-0.21346300000000
Taj Mahal ,SW15 2SW,51.4602,-0.2135
GAZETTE PUTNEY,SW15 2TX,51.46046700000000,-0.21657700000000
PATA NEGRA,SW15 2TX,51.46046700000000,-0.21657700000000
McDonalds,SW15 3DT,51.43926000000000,-0.24679900000000
Don Emilio,SW15 3PS,51.43502700000000,-0.25782300000000
RHYTHM & BREWS CAFE LIMITED,SW15 3PU,51.4334,-0.2580
Richmond Park Golf Course,SW15 3SA,51.44209800000000,-0.24241600000000
cafe Joy,SW15 4DQ,51.44945900000000,-0.24212000000000
Jerk Shack,SW15 4HJ,51.45010900000000,-0.23987800000000
The village cafe,SW15 4HL,51.45053200000000,-0.23930000000000
Roehampton Club,SW15 5LR,51.46289500000000,-0.24517400000000
Al forno Putney,SW15 5QJ,51.4644,-0.2376
Munal Tandoori,SW15 5QL,51.46453500000000,-0.23881900000000
kabab king,SW15 6SE,51.46079400000000,-0.21797500000000
Artisan Putney,SW15 6SG,51.46110000000000,-0.21920100000000
ITALIAN TAVERNA RESTAURANT ,SW15 6SP,51.4627,-0.2263
The Arab Boy,SW15 6SP,51.46273600000000,-0.22623500000000
CAPPUCCINO,SW15 6TD,51.4612,-0.2179
Putney Tea Room,SW15 6TF,51.4613,-0.2180
Holy Cow Restaurant and Bar,SW15 6TG,51.46143090000000,-0.21906580000000
MA GOA RESTAURANT,SW15 6TG,51.46144700000000,-0.21890000000000
Hare and Tortoise,SW15 6TH,51.46205400000000,-0.22102100000000
Papa Johns - LONDON - Putney,SW15 6TH,51.46205400000000,-0.22102100000000
Tomoe,SW15 6TH,51.46205400000000,-0.22102100000000
Caffe Nero,SW16 1BJ,51.43278000000000,-0.12949400000000
Racs real juice ,SW16 1BJ,51.43282318115230,-0.12933899462223
Aya Lebanese Cuisine (Streatham),SW16 1BS,51.43551540000000,-0.12850970000000
The Rebel Inn,SW16 1BS,51.4352,-0.1285
KFC STREATHAM EXPRESS,SW16 1BW,51.43417000000000,-0.12870400000000
KFC,SW16 1BW,51.43417000000000,-0.12870400000000
La Casita Coffee Shop Ltd,SW16 1BW,51.4342,-0.1287
NOSTRO CAFE COSTA LTD,SW16 1BW,51.4342,-0.1287
Slurp,SW16 1BW,51.43417000000000,-0.12870400000000
El Chicos Restaurant,SW16 1DA,51.43654500000000,-0.12823300000000
SNACK'S BOSS LTD,SW16 1DA,51.4365,-0.1282
Talay Thai restaurant,SW16 1DA,51.43654500000000,-0.12823300000000
Pizza Express,SW16 1DB,51.43761600000000,-0.12768500000000
The Hamlet,SW16 1DB,51.43761600000000,-0.12768500000000
Boyce Da Roca,SW16 1DR,51.43566500000000,-0.12773600000000
MADEIRA FLOWER LTD,SW16 1DT,51.4362,-0.1273
Exhibit B,SW16 1EF,51.43690400000000,-0.12700900000000
Perfect Blend Streatham Limited,SW16 1EQ,51.4375,-0.1270
Baby Spinach,SW16 1EX,51.43460550000000,-0.12784190000000
Nando's,SW16 1EX,51.43461500000000,-0.12788000000000
TRIO PIZZERIA LIMITED,SW16 1EX,51.43461500000000,-0.12788000000000
Pratts and Payne,SW16 1HJ,51.42967000000000,-0.13016800000000
POLISH MUSIC CLUB MIKRUS BAR & RESTAURANT,SW16 1HS,51.42995600000000,-0.13067400000000
Subway - trading as Anshi Ltd,SW16 1PG,51.43060100000000,-0.12933900000000
COSTA COFFEE,SW16 1PN,51.4318,-0.1290
Life Cafe Restaurant,SW16 1PR,51.43269100000000,-0.12846200000000
Wholemeal cafe,SW16 2AS,51.43011700000000,-0.12832300000000
Tajmahal,SW16 2ND,51.4378,-0.1263
Karibbean Kitchen,SW16 2UH,51.43036800000000,-0.12828400000000
The Rookery Cafe,SW16 3BZ,51.4220,-0.1195
Spice Lounge ,SW16 3PH,51.41409683227540,-0.12414500117302
Charsi Karahi,SW16 4AD,51.41228103637700,-0.12410400062799
New favorite ,SW16 4AE,51.4111,-0.1233
SUBWAY (Norbury),SW16 4AE,51.4111,-0.1233
Costa Coffee,SW16 4AH,51.40879770000000,-0.12231030000000
Affogato,SW16 4AQ,51.40983963012700,-0.12269400060177
Kaspa’s desserts norbury ,SW16 4AQ,51.40983963012700,-0.12269400060177
Steakout Norbury,SW16 4AQ,51.40983963012700,-0.12269400060177
Tandoor,SW16 4AQ,51.40983963012700,-0.12269400060177
new woks cooking halal chinese restaurant,SW16 4AQ,51.4098,-0.1227
Flavours of Norbury,SW16 4BT,51.41205215454100,-0.12342300266028
Ideal Sweets Norbury (Nawal Mithai),SW16 4BU,51.41125360000000,-0.12292870000000
Chicken cottage  Norbury ,SW16 4BZ,51.4102,-0.1223
DOWNTOWN KITCHEN LTD T/A FAT TWINS,SW16 4BZ,51.41022872924800,-0.12236200273037
Griller ,SW16 4BZ,51.41022872924800,-0.12236200273037
Pizza Hut,SW16 4DE,51.40911483764650,-0.12191899865866
BABA FOUNDATION ,SW16 4DG,51.40832901000980,-0.12159200012684
Papa Johns - NORBURY,SW16 4DG,51.4083,-0.1216
Karachi Cuisine,SW16 4XD,51.40213394165040,-0.11898399889469
Vale at Streatham ,SW16 5HN,51.41293340000000,-0.14201490000000
THE RABBIT HOLE PUB,SW16 5NJ,51.42178550000000,-0.12976090000000
The Winning Post Cafe ,SW16 5NJ,51.42190100000000,-0.12962200000000
The Railway ,SW16 5SD,51.41853200000000,-0.13434700000000
Daljir Restaurant,SW16 6AB,51.42703000000000,-0.13207400000000
Dilpasand Express,SW16 6EG,51.42829500000000,-0.13079900000000
YU HUA LOU LIMITED,SW16 6EG,51.4283,-0.1308
Green Cactus,SW16 6EN,51.42667800000000,-0.13088000000000
The  filling station  cafe,SW16 6EN,51.4262,-0.1309
Brickwood Streatham,SW16 6HG,51.42766571044920,-0.13142900168896
Cafe Barcelona,SW16 6HH,51.42687600000000,-0.13144700000000
STREATHAM KITCHEN LTD,SW16 6NN,51.42844400000000,-0.13226100000000
Green Floor Restaurant,SW16 6NR,51.42476700000000,-0.14132900000000
Cut the mustard,SW16 6SQ,51.42405100000000,-0.14725500000000
Dawat Restaurant,SW17 0DN,51.42991000000000,-0.16642500000000
Kaspa's Tooting Limited,SW17 0DN,51.42991000000000,-0.16642500000000
Saravanaa Bhavan,SW17 0DN,51.42991000000000,-0.16642500000000
The Selkirk,SW17 0ES,51.42982600000000,-0.16798100000000
Vegan Express Limited,SW17 0LT,51.43164100000000,-0.17595100000000
Fire Around,SW17 0PG,51.43326000000000,-0.18178500000000
Peabodys  - Rose Centre,SW17 0QT,51.4267,-0.1757
Peabodys - Lanesborough Wing,SW17 0QT,51.4267,-0.1757
Peabodys Coffee - Atkinson Morley Wing,SW17 0QT,51.4267,-0.1757
Peabodys St James OPD,SW17 0QT,51.4267,-0.1757
Pret A Manger,SW17 0QT,51.42673873901370,-0.17575800418854
Peabodys Coffee - Hunter Wing,SW17 0RE,51.4278,-0.1752
Kennedys Restaurant ,SW17 0RG,51.42889300000000,-0.16754400000000
Franco Manca,SW17 0RH,51.42893620000000,-0.16629640000000
KOI Ramen Bar,SW17 0RH,51.4289,-0.1663
The Polish Way,SW17 0RH,51.4289,-0.1663
EL CHUZO,SW17 0RJ,51.42834640000000,-0.16653580000000
Hinata,SW17 0RJ,51.42834640000000,-0.16653580000000
Kiaan’s Indian Cuisine ,SW17 0RJ,51.4283,-0.1666
Sea Garden & Grill,SW17 0RJ,51.42815780639650,-0.16646599769592
Sorsi e Morsi,SW17 0RJ,51.42834640000000,-0.16653580000000
Tokova restaurant,SW17 0RJ,51.42867010000000,-0.16653720000000
bordelaise,SW17 0RJ,51.42874200000000,-0.16648500000000
Adings Kitchen,SW17 0RL,51.4283,-0.1665
Barra10,SW17 0RL,51.4283,-0.1665
Bayou ,SW17 0RL,51.4283,-0.1665
Beyroots Ltd,SW17 0RL,51.4283,-0.1665
DOSA N CHUTNY LTD,SW17 0RN,51.42739900000000,-0.16920000000000
Desi Khana,SW17 0RN,51.42739900000000,-0.16920000000000
Honest Burgers,SW17 0RN,51.42740000000000,-0.16920100000000
Jaffna House Ltd ,SW17 0RN,51.42739900000000,-0.16920000000000
Radha Krishna Bhavan ,SW17 0RN,51.42740000000000,-0.16920100000000
Rosa's Thai Cafe,SW17 0RN,51.42739900000000,-0.16920000000000
Good Neighbour ,SW17 0RR,51.42628900000000,-0.17009400000000
Tartine ,SW17 0RR,51.4263,-0.1701
Vis a Vis Catering Ltd,SW17 0RR,51.4263,-0.1701
Apollo Banana Leaf,SW17 0SF,51.42411200000000,-0.17231000000000
THE MANOR BAR & GRILL,SW17 0SF,51.42411100000000,-0.17230900000000
bobochacha,SW17 0SF,51.42407580000000,-0.17235970000000
Brickwood Tooting,SW17 0SN,51.42915800000000,-0.16609500000000
Ding Ding,SW17 0SN,51.42893620000000,-0.16629640000000
GUASACACA Tooting Market,SW17 0SN,51.4292,-0.1661
Get Juiced!,SW17 0SN,51.42915900000000,-0.16609500000000
Lahore Karahi,SW17 0SN,51.42915900000000,-0.16609500000000
Meza Market,SW17 0SN,51.42915800000000,-0.16609500000000
The Lone Fisherman,SW17 0SN,51.4292,-0.1661
Unwined in Tooting,SW17 0SN,51.42915900000000,-0.16609500000000
Wok & Go ,SW17 0SP,51.4284,-0.1673
The Little Taperia Ltd,SW17 0SY,51.42555900000000,-0.16999300000000
Mamma Dough Tooting,SW17 7BA,51.43591420000000,-0.15880860000000
Café Carthage ,SW17 7BE,51.43721700000000,-0.15703800000000
Papas Tops Pizza SW17 Limited,SW17 7BE,51.43721800000000,-0.15703900000000
Telpani Services Limited ,SW17 7BW,51.4408,-0.1547
Wroclove,SW17 7BW,51.44069910000000,-0.15484620000000
Bonsai Espresso Room,SW17 7EF,51.44392240000000,-0.16771090000000
Caffe Nero,SW17 7EG,51.44559500000000,-0.16599800000000
SHPANI LIMITED ,SW17 7EG,51.4456,-0.1659
The Good Earth,SW17 7EG,51.44564000000000,-0.16595300000000
Foody Goody,SW17 7EN,51.43331100000000,-0.16367000000000
STEAKOUT TOOTING,SW17 7EN,51.43331100000000,-0.16367000000000
Flotsam & Jetsam Cafe,SW17 7EQ,51.44443500000000,-0.16712300000000
Nando's,SW17 7EW,51.43100800000000,-0.16533000000000
COFFEEMAX RESTAURANT,SW17 7EX,51.43036200000000,-0.16598900000000
GAZETTE TRINITY,SW17 7HP,51.44345900000000,-0.16736400000000
M&k LONDON LTD T/A INDIAN OCEAN,SW17 7HP,51.44345900000000,-0.16736400000000
Pizza Express,SW17 7HR,51.44249200000000,-0.16648200000000
Kolam South Indian Restaurant,SW17 7PB,51.43416800000000,-0.16271400000000
CHICKEN COTTAGE,SW17 7PD,51.43467000000000,-0.16203300000000
Habaneros Tooting,SW17 7PD,51.4347,-0.1620
Spice Village Tooting ,SW17 7PD,51.43467000000000,-0.16203300000000
Roosters Grill,SW17 7PG,51.43530900000000,-0.16088500000000
The Wheatsheaf,SW17 7PG,51.43530900000000,-0.16088500000000
chaiiwala,SW17 7PG,51.43524680000000,-0.16097920000000
Meza Restaurant,SW17 7RE,51.43633600000000,-0.16049800000000
Taps and Tapas,SW17 7RE,51.43633700000000,-0.16049900000000
Communion Coffee,SW17 7SD,51.4363,-0.1611
Rosmarino Restaurant,SW17 7SD,51.43633800000000,-0.16111700000000
Tooting Pizza and Chicken,SW17 7SD,51.43633800000000,-0.16111700000000
Al Mirage Restaurant,SW17 7TG,51.43056400000000,-0.16513200000000
Dallas chicken and ribs ,SW17 7TG,51.43056400000000,-0.16513200000000
MIRCH MASALA ,SW17 7TG,51.43056400000000,-0.16513200000000
Taste Ride Foods Limited T/A Maem's Chicken,SW17 7TG,51.4305,-0.1651
L S Catering ltd T/A Lahore Spices,SW17 7TJ,51.43191900000000,-0.16379700000000
MEAT & SHAKE,SW17 7TR,51.43466700000000,-0.16127100000000
Oodles Chinese - Tooting,SW17 7TR,51.43466700000000,-0.16127000000000
almajles,SW17 7TR,51.43466700000000,-0.16127000000000
Chatkhara Restaurant,SW17 7TS,51.43521700000000,-0.16021300000000
NMP FOODS,SW17 7TS,51.4352,-0.1602
Tart artisanal ,SW17 7TS,51.43521700000000,-0.16021300000000
WALKER WYATT COFFEE ,SW17 7TS,51.43521700000000,-0.16021300000000
Cassio Restaurant,SW17 8BD,51.43522500000000,-0.15838500000000
Costas Cafe ,SW17 8BD,51.43522500000000,-0.15838500000000
Green Monkey Cafe,SW17 8BD,51.43522400000000,-0.15838500000000
Richard's Kitchen,SW17 8BD,51.43522644042970,-0.15838499367237
Rose & Crown,SW17 8BH,51.43280900000000,-0.15405100000000
DEE LIGHT BAKERY LTD,SW17 8QD,51.43829000000000,-0.15547000000000
Hunnu Sushi,SW17 8QD,51.4382,-0.1554
love triangle,SW17 8QD,51.43829000000000,-0.15547000000000
Boom Bap Burger,SW17 8TA,51.42849349975590,-0.16448199748993
POPTATA TOOTING,SW17 8TA,51.42849349975590,-0.16448199748993
Panzerotto Blues Limited,SW17 8TA,51.42849349975590,-0.16448199748993
The Athenian - Tooting Market,SW17 8TA,51.42849349975590,-0.16448199748993
Vbelly Ltd,SW17 8TA,51.42849349975590,-0.16448199748993
The Gorringe Park,SW17 9HW,51.41953700000000,-0.16210800000000
Pizzeria Sette Bello,SW17 9JE,51.42279200000000,-0.15984800000000
Samrat Tandoori ,SW17 9JQ,51.42131500000000,-0.16022400000000
Buzz Bingo,SW17 9NA,51.42684000000000,-0.16679200000000
Graveney and Meadow,SW17 9NA,51.42684000000000,-0.16679200000000
McDonalds Restaurants Ltd,SW17 9NA,51.42684000000000,-0.16679200000000
Meza Restaurant,SW17 9NA,51.42684000000000,-0.16679200000000
Orange Buffalo Tooting,SW17 9NA,51.42684000000000,-0.16679200000000
Starbucks Coffee,SW17 9NA,51.42684000000000,-0.16679200000000
 Chez Vous,SW17 9NG,51.42572300000000,-0.16551300000000
Antelope,SW17 9NG,51.42572300000000,-0.16551300000000
Common Good London Ltd,SW17 9NG,51.4256,-0.1653
VIJAYA KRISHNA LTD,SW17 9NG,51.42572300000000,-0.16551300000000
cafe ole ,SW17 9NG,51.42572300000000,-0.16551300000000
The long room,SW17 9NH,51.42458100000000,-0.16379000000000
Dolce Vita,SW17 9NJ,51.42361500000000,-0.16240500000000
Pasibrzuch,SW17 9NT,51.4210,-0.1613
Caffe Nero,SW17 9PA,51.42800000000000,-0.16736400000000
Pret A Manger,SW17 9PA,51.42796370000000,-0.16737110000000
KFC Resturants Ltd,SW17 9PB,51.42707600000000,-0.16633600000000
Taste Kurdish Food ,SW17 9PD,51.42617000000000,-0.16535100000000
Daddy Bao,SW17 9PE,51.42555200000000,-0.16438920000000
Jerk Joint Ltd,SW17 9SH,51.42343900000000,-0.16377800000000
The Chutney,SW18 1AA,51.45847200000000,-0.18560500000000
The Crane,SW18 1EZ,51.45889200000000,-0.19475800000000
McDonalds Restaurants Ltd,SW18 1JT,51.46225400000000,-0.18706800000000
Palm Riverside,SW18 1PP,51.46228400000000,-0.20074300000000
Putt in the  Park ,SW18 1PP,51.46228400000000,-0.20074300000000
Cleavers Butchers,SW18 1SP,51.4598,-0.1897
Chit Chaat Chai,SW18 1SS,51.46022200000000,-0.18886100000000
Costa Coffee,SW18 1SS,51.46022200000000,-0.18886100000000
Konnigans Restaurant,SW18 1SS,51.46022200000000,-0.18886100000000
Over Under Coffee,SW18 1SU,51.4610,-0.1883
Viet town,SW18 1TF,51.46034400000000,-0.18803600000000
Pizza Express,SW18 1TG,51.45983500000000,-0.18881900000000
Pad Thai Story,SW18 1TQ,51.45960850000000,-0.18930950000000
Cake Boy Limited,SW18 1TX,51.46472400000000,-0.18401900000000
Story Coffee - Wandsworth,SW18 1UL,51.4580,-0.1936
Barmouth Kitchen,SW18 2DN,51.45281100000000,-0.18470700000000
Cafe Fleur,SW18 2RT,51.45559900000000,-0.18878500000000
MAGDALEN PARK LAWN TENNIS CLUB LTD,SW18 3NP,51.4477,-0.1763
Toast Rack Bake House,SW18 3RG,51.44976600000000,-0.17335700000000
The Skylark Cafe,SW18 3RT,51.45056900000000,-0.17237600000000
Le Gothique,SW18 3SX,51.45331000000000,-0.17458400000000
Pret A Manger,SW18 4BX,51.45605700000000,-0.19344500000000
Gourmet Burger Kitchen,SW18 4DJ,51.45132700000000,-0.19053800000000
The Old Sergeant ,SW18 4DJ,51.45132700000000,-0.19053700000000
Wagamama,SW18 4DJ,51.45132700000000,-0.19053700000000
Il Girasole,SW18 4DR,51.45037100000000,-0.18974100000000
WEST2CORNERCAFE LTD,SW18 4DT,51.44941400000000,-0.18953300000000
BEST CAFE,SW18 4DY,51.44545300000000,-0.18923000000000
THE JOLLY GARDENERS,SW18 4EA,51.44675300000000,-0.18959500000000
Green Curry,SW18 4ED,51.44826900000000,-0.18988100000000
Grosvenor Arms,SW18 4ED,51.44826800000000,-0.18988100000000
Pizza Hut,SW18 4ED,51.44826800000000,-0.18988100000000
Amrutha Lounge,SW18 4EJ,51.44361300000000,-0.19003700000000
Burrata,SW18 4ES,51.44179000000000,-0.18787800000000
cafe amaranth,SW18 4ES,51.44179000000000,-0.18787800000000
Planet Organic Wandsworth,SW18 4FT,51.4554,-0.1933
Bean and Hop,SW18 4HN,51.43955700000000,-0.18708900000000
Belle Amie,SW18 4HP,51.44087200000000,-0.18725300000000
Nazmin's Restaurant,SW18 4HP,51.44074530000000,-0.18722070000000
Well Kneaded Pizzeria,SW18 4HW,51.44019600000000,-0.18712100000000
A&Z Trading Ltd.,SW18 4HY,51.45702100000000,-0.19471700000000
Black Box Coffee,SW18 4HZ,51.4571,-0.1950
Pho Anh,SW18 4JB,51.45718190000000,-0.19582550000000
Bamboo Wellness,SW18 4JE,51.45690370000000,-0.19703120000000
Licata Pizzeria ,SW18 4JP,51.45738900000000,-0.19700500000000
Diana fish bar ,SW18 4LB,51.45727300000000,-0.19418800000000
Giggling Squid,SW18 4LT,51.44680490000000,-0.19236320000000
Caffe Nero,SW18 4SR,51.44103600000000,-0.18681400000000
KFC,SW18 4SR,51.44103600000000,-0.18681400000000
Starbucks Coffee Company UK Ltd,SW18 4SW,51.44254300000000,-0.18829500000000
The Earlsfield,SW18 4SW,51.44254200000000,-0.18829400000000
Ekachai Restaurant,SW18 4TE,51.4552,-0.1939
Costa Coffee,SW18 4TF,51.45541300000000,-0.19420500000000
Five Guys,SW18 4TF,51.45541300000000,-0.19420500000000
KFC Southside,SW18 4TF,51.45541300000000,-0.19420500000000
KFC,SW18 4TF,51.45541300000000,-0.19420500000000
McDonalds Restaurants Ltd,SW18 4TF,51.45541200000000,-0.19420400000000
Nando's,SW18 4TF,51.45541300000000,-0.19420500000000
Caffe Nero,SW18 4TG,51.45537200000000,-0.19446500000000
Patisserie Valerie,SW18 4TG,51.45537200000000,-0.19446500000000
CRUNCHY FISH,SW18 5EF,51.4503,-0.1991
The Pig and Whistle ,SW18 5LD,51.44134300000000,-0.19678800000000
BOSA KITCHEN,SW18 5LR,51.44483200000000,-0.20440700000000
Olive Garden,SW18 5LR,51.44483200000000,-0.20440800000000
Thai Girder,SW18 5LR,51.44483200000000,-0.20440800000000
Fullers Library,SW18 5LT,51.44497800000000,-0.20510700000000
Starbucks Coffee,SW18 5LT,51.44497800000000,-0.20510700000000
P.Marques Limited  ,SW18 5LY,51.4457,-0.2004
Salt & Pepper,SW18 5LY,51.44574300000000,-0.20048600000000
Caffe Nero,SW18 5RJ,51.44512600000000,-0.20597900000000
Park Tavern,SW18 5SW,51.45091700000000,-0.19898700000000
STARBUCKS COFFEE COMPANY,SW19,51.41388000000100,-0.17777499999016
The Garden Shed,SW19 1AN,51.4202,-0.1868
DALLAS CHICKEN,SW19 1AU,51.41580100000000,-0.19188300000000
Cedar Lebanese Restaurant ,SW19 1BA,51.41599900000000,-0.18786300000000
merton cafe and wine,SW19 1BA,51.41599900000000,-0.18786300000000
The Nelson Arms,SW19 1DF,51.4158,-0.1867
Aya Lebanese Cuisine (Merton High Street),SW19 1DN,51.41644500000000,-0.18183400000000
latitude,SW19 1EH,51.41886100000000,-0.19324300000000
Bonjour Brioche Wimbledon,SW19 1EX,51.4189,-0.1913
Hi Bangkok Thai Cuisine,SW19 1LY,51.41490000000000,-0.19998600000000
Patisserie Valerie,SW19 1QB,51.41993400000000,-0.20515300000000
Wahaca Wimbledon,SW19 1QD,51.41965000000000,-0.20366800000000
Diba restaurant ,SW19 1QE,51.41945000000000,-0.20236700000000
KFC,SW19 1QE,51.41945000000000,-0.20236700000000
Mai Thai Restaurant,SW19 1QE,51.41945000000000,-0.20236700000000
Pizza Hut,SW19 1QE,51.41945000000000,-0.20236700000000
The Adega Restaurant and Tapas Bar Ltd.,SW19 1QE,51.41945000000000,-0.20236700000000
wimbledon restaurant,SW19 1QJ,51.41893200000000,-0.19965500000000
Nandos,SW19 1QN,51.41814100000000,-0.20141200000000
Curzon Wimbledon,SW19 1RE,51.4201,-0.2041
Franco Manca,SW19 1RE,51.42020600000000,-0.20415000000000
Tortilla,SW19 1RE,51.42020600000000,-0.20415000000000
Wafflemeister Wimbledon,SW19 1RE,51.42020797729490,-0.20415000617504
Caffe Nero,SW19 1RF,51.42044600000000,-0.20459300000000
OKI,SW19 1RF,51.4204,-0.2046
Taco Bell - 2 The Broadway SW19 1RF,SW19 1RF,51.42036437988280,-0.20458200573921
GRILANDIA 2,SW19 1RH,51.41958100000000,-0.20093800000000
Gourmet Burger Kitchen,SW19 1RH,51.41958100000000,-0.20093800000000
Wimbledon Smash,SW19 1RH,51.4196,-0.2009
Yori,SW19 1RH,51.41958100000000,-0.20093800000000
Aya Lebanese Cuisine (The Broadway),SW19 1RQ,51.42000600000000,-0.20284900000000
Cafe Mori,SW19 1RQ,51.42000600000000,-0.20284900000000
Dip and Flip,SW19 1RQ,51.42000600000000,-0.20284900000000
Five Guys,SW19 1RQ,51.42000600000000,-0.20284900000000
The Old Frizzle,SW19 1RQ,51.42000600000000,-0.20284900000000
Touro Brazilian Steakhouse - Wimbledon,SW19 1RQ,51.42000600000000,-0.20284900000000
Papa Johns - WIMBLEDON,SW19 1RX,51.41937000000000,-0.19832900000000
Rosy Lea Cafe,SW19 1RY,51.41937700000000,-0.19761000000000
Firezza Wimbeldon,SW19 1SB,51.4197,-0.1945
Antoinette Hotel Wimbledon Ltd,SW19 1SD,51.41922800000000,-0.19489700000000
HOLIDAY INN EXPRESS WIMBLEDON SOUTH,SW19 2BH,51.41753387451170,-0.17961899936199
corleone restaurant,SW19 2BN,51.41844177246090,-0.17840400338173
SUVAI ARUVI,SW19 2BT,51.41993331909180,-0.17656099796295
Dough Central,SW19 2FA,51.41736120000000,-0.17833720000000
Venus Bar limited ,SW19 2NX,51.41769500000000,-0.17777200000000
Burger King,SW19 2PP,51.41622924804690,-0.17893700301647
Dunelm,SW19 2PP,51.41622924804690,-0.17893700301647
Ban Yai Thai Restaurant ,SW19 2RD,51.41326500000000,-0.18318200000000
The William Morris,SW19 2RD,51.41326500000000,-0.18318200000000
Wine and Love,SW19 2RD,51.41326400000000,-0.18318200000000
KFC,SW19 2RE,51.41355200000000,-0.18258100000000
Pizza Hut,SW19 2RE,51.41355200000000,-0.18258100000000
Caffe Nero,SW19 2TY,51.41368500000000,-0.17721200000000
Nando's,SW19 2TY,51.41368500000000,-0.17721200000000
Costa Coffee,SW19 3BH,51.41554400000000,-0.19277100000000
Waffle Jack's American Diner,SW19 3NT,51.41118700000000,-0.20825600000000
Sanjunana,SW19 3PZ,51.41089050000000,-0.20954020000000
Joe & The Juice Wimbledon,SW19 3RU,51.42029571533200,-0.20713800191879
itsu Wimbledon,SW19 3RU,51.4200,-0.2068
SUBWAY WIMBLEDON (VPSP LTD),SW19 3TA,51.42033700000000,-0.20624500000000
Caffe Nero,SW19 4DP,51.42129400000000,-0.20824900000000
Justin James Hotel / Lu-Ma Cafe,SW19 4JZ,51.42044900000000,-0.21120300000000
Justin James Hotel Trading Limited,SW19 4JZ,51.42044900000000,-0.21120300000000
FH WIMBLEDON LTD,SW19 4QW,51.42275800000000,-0.21752800000000
Light house ,SW19 4ST,51.4210,-0.2202
Hotel du Vin & Bistro Wimbledon,SW19 4UE,51.42369600000000,-0.23260800000000
Fox and Grapes,SW19 4UN,51.42659759521480,-0.23069800436497
Royal Wimbledon Golf Club,SW19 4UW,51.42614300000000,-0.23265800000000
Wimbledon Common Golf Club,SW19 4UW,51.4260,-0.2327
The Wimbledon Club,SW19 5AG,51.43620300000000,-0.21529200000000
Light on the common ,SW19 5AX,51.42533000000000,-0.22112400000000
Cent Anni,SW19 5BY,51.42524200000000,-0.21941600000000
Giggling Squid,SW19 5BY,51.42524337768550,-0.21941600739956
Brew Wimbledon,SW19 5DX,51.42463300000000,-0.21663500000000
Caffe Nero,SW19 5EE,51.42557000000000,-0.21856900000000
Maison St Cassien,SW19 5EE,51.42557000000000,-0.21856900000000
Rajdoot Tandoori Restaurant ,SW19 5EE,51.42557000000000,-0.21856900000000
Saint-Cassien Limited,SW19 5EE,51.42557000000000,-0.21856900000000
Paul UK Ltd - Wimbledon,SW19 5EF,51.4259,-0.2195
Carmona Steak & Tapas,SW19 5EG,51.42499900000000,-0.21646200000000
Joe & The Juice,SW19 5EG,51.42510986328130,-0.21663099527359
Megan's in the Village,SW19 5EG,51.42503280000000,-0.21655220000000
Pizza Express,SW19 5EG,51.42510900000000,-0.21663100000000
Windmill Tearooms,SW19 5NQ,51.43712600000000,-0.22571600000000
coffee,SW19 6NS,51.4421,-0.2091
Franco Manca,SW19 6NW,51.44423200000000,-0.20690600000000
NYEAT Restaurant & Cocktail Bar,SW19 7BD,51.42731475830080,-0.20099499821663
The 1955 Club,SW19 7BD,51.4273,-0.2010
Wacka Espresso,SW19 7BD,51.42731475830080,-0.20099499821663
Leon Restaurants,SW19 7NF,51.42130700000000,-0.20728600000000
Costa Coffee [Unit RU3  Lower Concourse],SW19 7NL,51.42111800000000,-0.20667500000000
Starbucks,SW19 7NL,51.42111800000000,-0.20667500000000
Pret A Manger,SW19 7NS,51.42093400000000,-0.20757400000000
Starbucks,SW19 7NS,51.42093400000000,-0.20757400000000
Buenos Aires Argentine Steakhouse ,SW19 7PA,51.42227900000000,-0.20913200000000
Pho,SW19 7PA,51.42227900000000,-0.20913200000000
Sticks 'n' Sushi Wimbledon,SW19 7PA,51.42227900000000,-0.20913200000000
Wagamama,SW19 7PA,51.42227900000000,-0.20913200000000
Dalchini,SW19 8AB,51.43482100000000,-0.19956300000000
The Woodman,SW19 8DR,51.43365100000000,-0.19595500000000
Jaipur Indian Cuisine,SW19 8EE,51.43952900000000,-0.19693200000000
Papa Johns - SOUTHFIELDS,SW19 8EE,51.4394,-0.1970
Lupo Bros,SW19 8EF,51.43808300000000,-0.19709000000000
The box ,SW19 8JZ,51.4267,-0.1908
Al Forno,SW19 8QN,51.42058600000000,-0.20189200000000
No.601 Queens Road,SW19 8YA,51.4208,-0.2050
KOKORO Wimbledon,SW19 8YE,51.4217,-0.2041
Curry Paradise ,SW2 1AA,51.45470300000000,-0.11934300000000
Pizza Brixton,SW2 1AA,51.45470428466800,-0.11934299767017
Effra Social,SW2 1DF,51.45568084716800,-0.11347399652004
TOWN CHICKEN AND PIZZA ( FOOD ) LIMITED,SW2 1HP,51.44675700000000,-0.12459100000000
Maremma,SW2 1PE,51.45509800000000,-0.11310900000000
Naughty Piglets,SW2 1PE,51.45509700000000,-0.11310800000000
Adams Ethiopian Restaurant ,SW2 1QN,51.45490264892580,-0.12003999948502
The White Horse,SW2 1QN,51.45492000000000,-0.11998200000000
Vera cruz ,SW2 1RH,51.45903500000000,-0.11748100000000
Negril ,SW2 1RS,51.45323300000000,-0.12131800000000
katakata Ltd ,SW2 1RS,51.45323300000000,-0.12131800000000
The Elm Park Tavern,SW2 2UB,51.44998931884770,-0.11875999718904
DON LUIGI PIZZERIA & RESTAURANT,SW2 4PA,51.43845100000000,-0.12760800000000
McDonalds Restaurant,SW2 4PZ,51.44611500000000,-0.12612800000000
MUD,SW2 4QB,51.4446,-0.1270
Papajohns- Streatham Hill,SW2 4RD,51.4413,-0.1253
Viet Fusion,SW2 4RD,51.4413,-0.1253
batch & co coffee,SW2 4RD,51.44133600000000,-0.12530200000000
Starbucks,SW2 4RS,51.43940230000000,-0.12646670000000
Streatham Wine House,SW2 4TS,51.44058800000000,-0.12517500000000
BAR 61 RESTAURANT,SW2 4TX,51.43992900000000,-0.12553300000000
Hood,SW2 4TX,51.43992900000000,-0.12553300000000
DIRE KITCHEN LIMITED,SW2 4UN,51.44858800000000,-0.12549500000000
BEBS KITCHEN ,SW2 5RJ,51.45981200000000,-0.12443100000000
The Blues Kitchen Brixton,SW2 5SP,51.46032300000000,-0.12045100000000
The Beast of Brixton,SW2 5TN,51.45945100000000,-0.12326500000000
Piece of Cake Cafe,SW2 5TU,51.45947000000000,-0.12555810000000
Selina Cafe,SW2 5TU,51.45945800000000,-0.12536600000000
Boqueria,SW2 5UL,51.45995000000000,-0.12632500000000
Babylon,SW20 0AX,51.40963800000000,-0.23236000000000
FINDIJAK LIMITED,SW20 0AY,51.4098,-0.2339
HATAY RESTAURANT,SW20 0AY,51.40990400000000,-0.23390200000000
Kapak Turkish Resturant ,SW20 0AY,51.40990400000000,-0.23390200000000
Kitchenetta ltd,SW20 0LA,51.4097,-0.2310
The Olive,SW20 0LA,51.40967941284180,-0.23104900121689
Hashi Japanese Restaurant,SW20 0TW,51.4107,-0.2327
SUNGHWA LIMITED T/A GAYA,SW20 0TW,51.41068649291990,-0.23285099864006
Mora Meza bar & Restaurant ,SW20 8BA,51.4089,-0.2285
Park bistro grill ,SW20 8BA,51.40895000000000,-0.22853200000000
Taste of Cochin,SW20 8BA,51.4089,-0.2285
Whistlestop fish and chips,SW20 8BA,51.4089,-0.2285
Costa Coffee,SW20 8JX,51.41009600000000,-0.21223900000000
Raka Indian cuisine ,SW20 8LX,51.40922700000000,-0.21302100000000
Costa Coffee (Sainsburys),SW20 8QY,51.41063800000000,-0.22951700000000
sai restaurant,SW20 8RE,51.41093200000000,-0.22818300000000
House Of Spice,SW20 8SF,51.41087800000000,-0.21922600000000
Eatwell Catering (Morden) Ltd,SW20 9NQ,51.3922,-0.2228
VENN STREET RECORDS,SW4 0AT,51.46362000000000,-0.13826800000000
Argan Restaurant,SW4 0BD,51.46269500000000,-0.13783000000000
Honest Burgers,SW4 0BD,51.46269600000000,-0.13783000000000
barsito uk limited,SW4 0BD,51.46269600000000,-0.13783000000000
The Rectory,SW4 0DR,51.46564650000000,-0.14071020000000
Cher Thai Eatery,SW4 0HB,51.46665400000000,-0.14242000000000
Common,SW4 0HY,51.4620,-0.1393
Mama Lan,SW4 0HY,51.46206200000000,-0.13929500000000
Minnow,SW4 0HY,51.46206300000000,-0.13929600000000
No.32 The Old Town,SW4 0JE,51.46303700000000,-0.14062400000000
Megan's Old Town,SW4 0JQ,51.46351600000000,-0.14079100000000
Starbucks,SW4 0LB,51.46416100000000,-0.14177300000000
zumbura,SW4 0LB,51.46416100000000,-0.14177200000000
The Bobbin,SW4 0LN,51.46608600000000,-0.14348000000000
The Stonhouse ,SW4 6BJ,51.46442700000000,-0.13695400000000
Sorella Restaurant,SW4 6BX,51.46381300000000,-0.13512200000000
Tsunami Restaurant,SW4 6DQ,51.46465600000000,-0.13160300000000
Southside Cafe,SW4 7AA,51.46156311035160,-0.13784800469875
leh chalo,SW4 7AA,51.46156200000000,-0.13783300000000
Brickwood Clapham,SW4 7AB,51.4609,-0.1386
The Pepper Tree,SW4 7AB,51.46088400000000,-0.13866700000000
Coffee Wake Cup ,SW4 7BB,51.46108600000000,-0.13667200000000
AMELIA SPICE LTD,SW4 7BX,51.4595,-0.1348
King & Co,SW4 7BZ,51.45919100000000,-0.13402800000000
Knife Restaurant,SW4 7DE,51.45943910000000,-0.13150460000000
Coach & Horses,SW4 7EX,51.45985800000000,-0.13125200000000
Papa Johns - CLAPHAM,SW4 7EX,51.45985800000000,-0.13125200000000
EN ROOT,SW4 7EY,51.45991700000000,-0.12989700000000
Eat Of Eden ,SW4 7EY,51.45991700000000,-0.12989700000000
Hache Clapham,SW4 7SS,51.46216900000000,-0.13634000000000
JGBRIP Ltd,SW4 7SS,51.4622,-0.1363
JUSTICE CATERING LTD,SW4 7SS,51.4622,-0.1363
MBARE LONDON,SW4 7SS,51.46216900000000,-0.13634000000000
Smokemeats Ltd,SW4 7SS,51.4622,-0.1363
Stillsmokin Ltd,SW4 7SS,51.4622,-0.1363
Tightend Limited,SW4 7SS,51.4622,-0.1363
Maharani Indian Restaurant,SW4 7TB,51.46282200000000,-0.13447100000000
Nando's,SW4 7TG,51.46334600000000,-0.13288000000000
Starbucks,SW4 7UD,51.46219600000000,-0.13808100000000
Cafe Nero,SW4 7UG,51.46255900000000,-0.13714500000000
ECO,SW4 7UG,51.46255900000000,-0.13714500000000
ESCA Flame,SW4 7UG,51.46255900000000,-0.13714500000000
Five Guys,SW4 7UG,51.46253585815430,-0.13733300566673
Fogo de Chao - Clapham,SW4 7UH,51.4629,-0.1357
McDonalds Restaurant,SW4 7UH,51.46295900000000,-0.13571800000000
KFC,SW4 7UJ,51.46318800000000,-0.13485900000000
Aquum / Neos,SW4 7UL,51.46360100000000,-0.13366200000000
Cafe Sol,SW4 7UL,51.46360100000000,-0.13366200000000
FLAVOURS OF BRAZIL LTD,SW4 7UL,51.46360100000000,-0.13366200000000
Lotus,SW4 7UL,51.46360100000000,-0.13366200000000
Patisserie Valerie,SW4 7UL,51.46360000000000,-0.13366100000000
Savannah Caribbean Restaurant ,SW4 7UT,51.46504200000000,-0.13043600000000
Tropix,SW4 7UT,51.4650,-0.1304
No3,SW4 9AH,51.4525,-0.1512
La Baita Bandstand Cafe,SW4 9DE,51.4576,-0.1450
The Perky Nel,SW4 9DP,51.4534,-0.1465
Pitta Hut,SW4 9DW,51.4537,-0.1463
Pizzeria On The Green,SW4 9DW,51.45375700000000,-0.14631200000000
SWFY LIMITED,SW4 9DW,51.4537,-0.1463
Pizza Hut,SW4 9JN,51.45523700000000,-0.13930000000000
The Abbeville,SW4 9JW,51.45484800000000,-0.13971900000000
Tokyo Retro,SW4 9JW,51.45484800000000,-0.13971800000000
Camile Thai ,SW4 9JX,51.45438770000000,-0.14014540000000
Pizza Express,SW4 9JX,51.45436200000000,-0.14021300000000
33 Abbeville Road,SW4 9LA,51.45354100000000,-0.14121100000000
Osteria Toscana,SW4 9LA,51.45354100000000,-0.14121100000000
Bistro Union,SW4 9NG,51.45417600000000,-0.13987500000000
nue ground,SW4 9NG,51.45417600000000,-0.13987500000000
Sands End,SW6 2PR,51.47238800000000,-0.18708300000000
Fishers Kitchen,SW6 2TF,51.47345700000000,-0.19224000000000
bonbon,SW6 2TT,51.47137200000000,-0.19111300000000
Neverland,SW6 2TY,51.46662902832030,-0.18909700214863
Wharf garden,SW6 2UB,51.47320400000000,-0.18228500000000
Yamal Alsham Restaurant,SW6 2UB,51.47320400000000,-0.18228500000000
Arthur's Diner,SW6 2UH,51.47160600000000,-0.19173700000000
Chai Thali Trading Ltd,SW6 2UH,51.4716,-0.1918
Bridge Baker,SW6 2UL,51.47268990000000,-0.19203170000000
Caffe Nero,SW6 2UL,51.47247100000000,-0.19181800000000
JOE'S BRASSERIE,SW6 2UL,51.47247100000000,-0.19181800000000
Thaiphoon,SW6 2UL,51.47247100000000,-0.19181800000000
fishers fish and chips,SW6 3JH,51.47094400000000,-0.21071200000000
Mien Tay (Fulham) Ltd,SW6 3JJ,51.47004400000000,-0.21008400000000
Pappa Ciccia,SW6 3JJ,51.46992500000000,-0.20997400000000
Pure Fine Indian food ltd,SW6 3JJ,51.46992500000000,-0.20997400000000
Eight Bells,SW6 3JS,51.46806600000000,-0.21010400000000
Cafe Plum ,SW6 3JW,51.46876500000000,-0.20996100000000
The Hurlingham Club,SW6 3PR,51.46626500000000,-0.20057200000000
District,SW6 4HU,51.47488784790040,-0.20098100602627
Megan's by the Green,SW6 4JA,51.47488800000000,-0.20047700000000
Hally's,SW6 4LS,51.47272100000000,-0.20112400000000
Primavera Restaurant,SW6 4LY,51.4721,-0.2042
Rude Health Cafe,SW6 4NZ,51.46958900000000,-0.20916600000000
Cocotte,SW6 4RD,51.47223400000000,-0.20215100000000
nuovi sapori,SW6 4RE,51.47211100000000,-0.20296200000000
Ella's Place,SW6 4RF,51.47203010000000,-0.20351930000000
Meridionale,SW6 4RF,51.47197100000000,-0.20380300000000
Starbucks,SW6 4RN,51.46924200000000,-0.20994300000000
St Clements ,SW6 4SR,51.47305300000000,-0.19751100000000
Childsplay,SW6 4SW,51.47346400000000,-0.19677500000000
Eat beirut,SW6 4SW,51.47346400000000,-0.19677500000000
Vicino,SW6 4SW,51.47346400000000,-0.19677500000000
Sukho fine Thai cuisine,SW6 5HJ,51.47453100000000,-0.20651000000000
The Little Blue Door ,SW6 5HP,51.47401428222660,-0.20693400502205
The Little Blue Door,SW6 5HP,51.47401428222660,-0.20693400502205
Boys 'N' Berry,SW6 5HQ,51.4749,-0.2062
Pizza Express,SW6 5HU,51.47315300000000,-0.20813400000000
MONTY SHRESTHA LIMITED t/a Monty Tandoori,SW6 5SA,51.47472400000000,-0.20683400000000
The Brown Cow,SW6 5SA,51.47472400000000,-0.20683400000000
THE FULHAM HOUSE,SW6 5SH,51.47272600000000,-0.20963400000000
LA PIZZICA RESTAURANT LTD,SW6 5SJ,51.47231200000000,-0.21022600000000
Glasshouse Cafe,SW6 6EE,51.47362000000000,-0.21347200000000
Bishops,SW6 6TA,51.47454000000000,-0.21362400000000
Cultural Tapas Bar,SW8 1HL,51.47454500000000,-0.12127800000000
Pak Hong Fish Bar & Chinese,SW8 2JP,51.47372400000000,-0.13296100000000
The Victoria,SW8 3QH,51.47276000000000,-0.14819100000000
Amalfitano,SW8 3RH,51.4699,-0.1499
Santa Maria del Sur,SW8 3RH,51.46992000000000,-0.14996200000000
le pot lyonnais,SW8 3RY,51.46848100000000,-0.14991900000000
IBEX Venue Hire and Restaurant,SW9 0QH,51.47254700000000,-0.12177700000000
Castellanos Enterprises,SW9 0TP,51.4700,-0.1171
Booma ,SW9 6AH,51.47171500000000,-0.11305600000000
Pipoca Vegan,SW9 6AH,51.47171500000000,-0.11305700000000
Crown And Anchor,SW9 6AQ,51.47111129760740,-0.11300999671221
HABESHA RESTAURANT AND BAR,SW9 6AQ,51.47111129760740,-0.11300999671221
 JAMM SOUTH LONDON LIMITED,SW9 6LH,51.47096000000000,-0.11196500000000
Turtle Bay,SW9 7AW,51.46536800000000,-0.11434000000000
Azmarino Coffee,SW9 7AY,51.4643,-0.1148
White Men Can't Jerk,SW9 8AG,51.46342086791990,-0.11956100165844
500 DEGREES,SW9 8BA,51.46394500000000,-0.11640000000000
Cattivo Bar,SW9 8BA,51.46394500000000,-0.11640000000000
Subway (Brixton),SW9 8BN,51.4628,-0.1154
Canova Hall,SW9 8BQ,51.4641,-0.1153
Cafe Nero @ Morleys,SW9 8EH,51.46236800000000,-0.11561600000000
McDonalds Brixton,SW9 8EN,51.46151100000000,-0.11602600000000
McDonalds Restaurant,SW9 8EN,51.46151100000000,-0.11602600000000
Paula's Bakery ,SW9 8EN,51.46151100000000,-0.11602600000000
Pret A Manger,SW9 8HE,51.46274566650390,-0.11456400156021
KFC - Brixton,SW9 8HH,51.46179580688480,-0.11463200300932
KFC,SW9 8HH,51.46179580688480,-0.11463200300932
fishbowl brixton,SW9 8HX,51.46328220000000,-0.11443990000000
other side fried ,SW9 8HX,51.46287155151370,-0.11342699825764
Kricket Brixton Limited,SW9 8JL,51.46232350000000,-0.11228310000000
Bird Restaurants,SW9 8JR,51.4625,-0.1135
Rosa's Thai Cafe,SW9 8JW,51.46233100000000,-0.11278100000000
Black Bear Burger,SW9 8LB,51.46176400000000,-0.11328000000000
Franco Manca,SW9 8LD,51.46176400000000,-0.11328000000000
Kamome  Japanese Kitchen,SW9 8LD,51.46176400000000,-0.11328000000000
Salon Brixton,SW9 8LD,51.4620,-0.1133
ASMARA RESTAURANT,SW9 8LF,51.46186900000000,-0.11308900000000
Nanban,SW9 8LF,51.46186900000000,-0.11308900000000
THREE EIGHT FOUR,SW9 8LF,51.46186800000000,-0.11308800000000
Three Little Birds,SW9 8LF,51.46186800000000,-0.11308800000000
mezza me,SW9 8LG,51.4616,-0.1147
BrewDog,SW9 8LH,51.46153990000000,-0.11332320000000
Market House,SW9 8LN,51.46148400000000,-0.11379500000000
Satay Bar,SW9 8LP,51.46143000000000,-0.11434500000000
Dogstar,SW9 8LQ,51.46168500000000,-0.11230500000000
FRANZINA LTD,SW9 8LQ,51.46168500000000,-0.11230500000000
Damera Restaurant,SW9 8PB,51.4638,-0.1131
KOI Ramen Bar,SW9 8PD,51.46334690000000,-0.11442720000000
Max Snack Bar Ltd,SW9 8PD,51.46325700000000,-0.11385200000000
The Laundry Restaurant,SW9 8PL,51.46232270000000,-0.11133690000000
Baba G's ,SW9 8PQ,51.46376500000000,-0.10860500000000
Halo Burger,SW9 8PQ,51.46376500000000,-0.10860500000000
KOI Ramen Bar,SW9 8PQ,51.46376500000000,-0.10860500000000
L'Amuse Bouche,SW9 8PQ,51.46376500000000,-0.10860500000000
Mama’s Jerk ,SW9 8PQ,51.46376500000000,-0.10860500000000
Original Patacon,SW9 8PQ,51.46376500000000,-0.10860500000000
SAKEYA London,SW9 8PQ,51.46332168579100,-0.11166600137949
Share A Slice ,SW9 8PQ,51.46376500000000,-0.10860500000000
Souvlaki Street Pop Brixton,SW9 8PQ,51.4633,-0.1117
Studmuffin,SW9 8PQ,51.46376500000000,-0.10860500000000
Twelves and Eights ,SW9 8PQ,51.4633,-0.1117
VIET BOX,SW9 8PQ,51.46376500000000,-0.10860500000000
Champagne Plus Fromage- Brixton,SW9 8PR,51.4625,-0.1118
FISH WINGS AND TINGS LTD,SW9 8PR,51.46263100000000,-0.11181900000000
Honest Burgers,SW9 8PR,51.46263100000000,-0.11181900000000
Jalisco Brixton Ltd.,SW9 8PR,51.46263000000000,-0.11181900000000
Mama Lan ,SW9 8PR,51.46263100000000,-0.11181900000000
Senzala Creperie Bar and Cafe,SW9 8PR,51.46263000000000,-0.11181900000000
Station 26,SW9 8PR,51.46263100000000,-0.11181900000000
The Agile Rabbit limited,SW9 8PR,51.4625,-0.1118
champagne fromage Brixton,SW9 8PR,51.46263000000000,-0.11181900000000
Dre's Delicious Foods,SW9 8PS,51.4626,-0.1118
Federation Coffee,SW9 8PS,51.46263100000000,-0.11181900000000
Okan Brixton Village,SW9 8PS,51.4626,-0.1118
PARISSI,SW9 8PX,51.46073300000000,-0.11126400000000
Lounge Brixton ,SW9 8PY,51.46123200000000,-0.11151700000000
Banh Banh Brixton,SW9 8QH,51.4630,-0.1085
CAYA Brixton,SW9 8QH,51.4630,-0.1085
Mamma Dough Brixton,SW9 8QH,51.4630,-0.1085
Okan Brixton East,SW9 8QH,51.4630,-0.1085
Blue Turtle Oasis,SW9 8SA,51.46619900000000,-0.10224200000000
DUKEM RESTAURANT BUTCHERS&DELICATESSEN,SW9 9AE,51.47109070000000,-0.12456370000000
bluenile cafe,SW9 9AE,51.4711,-0.1246
TITO’S bar and Latin kitchen,SW9 9BQ,51.47097400000000,-0.12345500000000
Volcanic Cafe,SW9 9BQ,51.47097400000000,-0.12345500000000
Massawa Restaurant,SW9 9JB,51.46701431274410,-0.12213400006294
THE LANDOR PUB,SW9 9PH,51.46571500000000,-0.12580100000000
Metro Brixton,SW9 9SL,51.46535500000000,-0.11517600000000
Nando's,SW9 9SP,51.46471600000000,-0.11511600000000
O Cantinho de Portugal,SW9 9TN,51.46730700000000,-0.11741400000000
the blacksmiths arms ,TN14 7QB,51.31783300000000,0.07402900000000
Rendezvous Brasserie Limited,TN16 1AR,51.26725800000000,0.07037500000000
Costa Coffee,TN16 1AS,51.26730000000000,0.07259900000000
GRASSHOPPER ON THE GREEN LTD,TN16 1AS,51.26730000000000,0.07259900000000
Tudor Rose,TN16 1AS,51.26729900000000,0.07259800000000
La Luna Restaurant ,TN16 1BD,51.26741910000000,0.07182600000000
The Courtyard,TN16 1RA,51.26668300000000,0.06981900000000
The Bakery Bar and Restaurant ,TN16 2AG,51.29347200000000,0.02468000000000
PARK WOOD GOLF CLUB,TN16 2EG,51.28891100000000,0.05059600000000
Costa Coffee (South),TN16 2ER,51.27102300000000,0.03985000000000
Costa Coffee,TN16 2ER,51.27102300000000,0.03985000000000
McDonalds (North),TN16 2ER,51.27102300000000,0.03985000000000
McDonalds (South),TN16 2ER,51.27102300000000,0.03985000000000
Pret a Manger,TN16 2ER,51.27102300000000,0.03985000000000
Spar - Roadchef Motorways Limited,TN16 2ER,51.27102300000000,0.03985000000000
Cherry Lodge Golf Club,TN16 3AX,51.31487100000000,0.05228400000000
spitfire cafe ltd,TN16 3BA,51.31025200000000,0.03562000000000
COSTA COFFEE   BIGGIN HILL,TN16 3BB,51.3083,0.0385
Spice lounge,TN16 3BD,51.30777500000000,0.04047500000000
The Lookout,TN16 3BN,51.32572300000000,0.03538600000000
BLACK HORSE ,TN16 3DX,51.3151,0.0337
Nightingale Cafe,TN16 3EJ,51.32703018188480,0.02340099960566
M Twickenham,TW1 1AX,51.4500,-0.3321
Il Gusto,TW1 1PP,51.4641,-0.3235
Holly & Co,TW1 1RG,51.45590300000000,-0.32103700000000
Ristorante Del Posto ,TW1 1RG,51.45590300000000,-0.32103700000000
A Cena ,TW1 2EB,51.45612400000000,-0.30889500000000
QURONFLEH LIMITED,TW1 2EB,51.4561,-0.3089
tangawizi,TW1 2EB,51.45612400000000,-0.30889500000000
La Crêperie Bretonne,TW1 2LH,51.45499700000000,-0.31990400000000
St Margaret's Fish Bar Limited,TW1 2LH,51.45499700000000,-0.31990400000000
The Crown,TW1 2NH,51.45119200000000,-0.31857600000000
The Rising Sun,TW1 2NP,51.45270990000000,-0.31349150000000
Royal Oak,TW1 3AB,51.44869995117190,-0.32477000355720
Makan-Makan,TW1 3AW,51.44945200000000,-0.32331700000000
Wags N Tales,TW1 3AW,51.44941490000000,-0.32325570000000
The Stables Cafe,TW1 3DJ,51.44701300000000,-0.32003900000000
WHITE SWAN (TWICKENHAM) LIMITED,TW1 3DN,51.44702360000000,-0.32141500000000
BRULA RESTAURANT LTD,TW1 3EJ,51.4532,-0.3185
Green Bottle Cafe,TW1 3EJ,51.45379280000000,-0.31876280000000
Atithi Indian Cuisine Ltd,TW1 3JZ,51.44764590000000,-0.32720630000000
Kathmandu Tandoori Ltd,TW1 3JZ,51.4475,-0.3274
Pizza Express,TW1 3JZ,51.44739300000000,-0.32772400000000
Feryal Limited,TW1 3LD,51.44689000000000,-0.32780000000000
Zizzi,TW1 3LJ,51.44740880000000,-0.32697030000000
Panas Nepalese and Indian Restaurant,TW1 3LP,51.44809900000000,-0.32614400000000
Pho Saigon,TW1 3LP,51.44809900000000,-0.32614400000000
Nah balti,TW1 3NJ,51.44691600000000,-0.32709400000000
Naz balti,TW1 3NJ,51.44691600000000,-0.32709400000000
masaniello restaurant,TW1 3NJ,51.44691600000000,-0.32709400000000
Osteria Pulcinella,TW1 3NR,51.44666500000000,-0.32710300000000
Ristorante Sorrento,TW1 3NR,51.4466,-0.3271
TSARETTA SPICE,TW1 3NR,51.44666500000000,-0.32710300000000
Twickenham Tandoori ,TW1 3NR,51.4466,-0.3271
Avocado & Lemon,TW1 3RR,51.44779968261720,-0.32847300171852
Costa Coffee,TW1 3RR,51.44779900000000,-0.32847200000000
Starbucks Twickenham,TW1 3RZ,51.4467,-0.3286
KFC - Twickenham,TW1 3SD,51.4458,-0.3286
Patisserie Valerie,TW1 3SD,51.44585900000000,-0.32864400000000
Esquires Coffee House Twickenham ,TW1 3SG,51.44521500000000,-0.32951600000000
Caffe Nero,TW1 3SX,51.44711900000000,-0.32869900000000
SHEESH MAHAL,TW1 3SX,51.44722870000000,-0.32884780000000
VALENTINO & BELLISSIMO ,TW1 3SX,51.44711900000000,-0.32869900000000
Burger King,TW1 3SZ,51.44820900000000,-0.32945000000000
Burger King- Twickenham,TW1 3SZ,51.4482,-0.3295
Caffe a-Roma,TW1 3SZ,51.44820900000000,-0.32945000000000
Subway,TW1 3SZ,51.44820900000000,-0.32945000000000
The Press Room,TW1 3SZ,51.44820900000000,-0.32945000000000
CHUBA RASA,TW1 4BW,51.44545700000000,-0.33451500000000
Euro Cafe 2,TW1 4BW,51.4454,-0.3346
LITTLE MUMBAI ,TW1 4BW,51.44545700000000,-0.33451500000000
Ballaro,TW1 4BZ,51.44556100000000,-0.33105800000000
The Three Kings,TW1 4BZ,51.44544620000000,-0.33186310000000
The Albany Pub & Dining Room,TW1 4EZ,51.44821929931640,-0.33207899332046
CH&Co Catering at St Catherines School,TW1 4QJ,51.44320700000000,-0.33058200000000
Strawberry Hill House Cafe,TW1 4ST,51.4390,-0.3334
CH&Co Catering at Royal Ballet School,TW10 5HR,51.44519400000000,-0.26487600000000
Pembroke Lodge,TW10 5HX,51.44430330000000,-0.29409400000000
L'Amandine,TW10 5LF,51.43134600000000,-0.30674600000000
ThE Dukes Head Inn,TW10 6AZ,51.45833100000000,-0.30046500000000
L'Amandine,TW10 6NQ,51.45521100000000,-0.29675200000000
Richmond Hill Hotel Operation Ltd,TW10 6RW,51.45179100000000,-0.29719600000000
Thai Elephant,TW10 6SD,51.45926400000000,-0.30404300000000
Adesso,TW10 6UA,51.45792700000000,-0.30479800000000
Kapucin ,TW10 6UA,51.45797260000000,-0.30490560000000
Nando's,TW10 6UA,51.45814760000000,-0.30518710000000
The Green Hill Kitchen,TW10 6UA,51.45782750000000,-0.30471970000000
The Retreat Kitchen,TW10 6UA,51.45792700000000,-0.30479800000000
Love Food,TW10 6UB,51.45740300000000,-0.30404000000000
Richmond cafe,TW10 6UB,51.45740300000000,-0.30404000000000
Swagat India Limited,TW10 6UB,51.45740300000000,-0.30404000000000
Taj Mahal Restaurant,TW10 6UH,51.45706800000000,-0.30449900000000
pier 1 richmond ltd,TW10 6UH,51.4571,-0.3045
GAUCHO Richmond,TW10 6UJ,51.45640182495120,-0.30454701185226
Rose of York,TW10 6UP,51.4640,-0.3051
Caffe Paola ,TW10 6UQ,51.45787200000000,-0.30537600000000
Chez Lindsay,TW10 6UQ,51.45787200000000,-0.30537600000000
Gourmet Burger Kitchen,TW10 6UQ,51.45787200000000,-0.30537600000000
Stein's Ltd,TW10 6UX,51.45369720458980,-0.30225700139999
The Dysart Petersham,TW10 7AA,51.44645900000000,-0.30156700000000
Petersham Nurseries Cafe,TW10 7AB,51.44646500000000,-0.30135100000000
Petersham Nurseries Teahouse,TW10 7AB,51.44646500000000,-0.30135100000000
Fox & Duck,TW10 7AD,51.44516400000000,-0.30278100000000
The Richmond Golf Club Limited,TW10 7AS,51.4398,-0.2969
The New Inn (Ham) Limited,TW10 7DB,51.43719100000000,-0.30487500000000
RAILWAY PUB,TW11 0BB,51.42396700000000,-0.33269300000000
The Pheasantry Cafe,TW11 0EW,51.4158,-0.3313
The Shack 68,TW11 8DE,51.4308,-0.3337
Cafe Benedict,TW11 8EW,51.4270,-0.3329
Milos Cafe Limited,TW11 8EW,51.42700100000000,-0.33294200000000
Prem Restaurant,TW11 8HA,51.42740700000000,-0.33115800000000
Shambles Italian Restaurant ,TW11 8HG,51.42737600000000,-0.32959200000000
The Kings Head ,TW11 8HG,51.42737600000000,-0.32959200000000
BMG TEDDINGTON LTD,TW11 8JB,51.4272,-0.3280
One One Four,TW11 8JB,51.42718470000000,-0.32821300000000
The Fallow Deer Ltd,TW11 8JB,51.42722700000000,-0.32801500000000
ISLAY COFFEE&CAKE,TW11 8JD,51.42711380000000,-0.33017190000000
Starbucks  Teddington - High Street,TW11 8JD,51.42711380000000,-0.33017190000000
Starbucks Coffee Company,TW11 8JD,51.42711380000000,-0.33017190000000
Pizza Express,TW11 8LA,51.42807600000000,-0.33520500000000
Itabashi Limited,TW11 8PF,51.42702900000000,-0.33744400000000
Sidra One Limited,TW11 8PF,51.42702900000000,-0.33744400000000
BAR ESTILO,TW11 8QY,51.42588900000000,-0.33698200000000
Gosia's Cafe and Deli,TW11 8QY,51.42588900000000,-0.33698200000000
The Hogarth,TW11 8QY,51.42588900000000,-0.33698200000000
Wimpy Teddington,TW11 8QY,51.42588900000000,-0.33698200000000
Nando's,TW11 9AD,51.42656900000000,-0.33357700000000
The Lion,TW11 9DN,51.41814700000000,-0.31871000000000
Cafe Verde,TW11 9JD,51.4212,-0.3193
IL Preferito,TW11 9JD,51.42122300000000,-0.31943200000000
L'Amandine,TW11 9JD,51.42122300000000,-0.31943200000000
NEW HAWELI OF TEDDINGTON,TW11 9JP,51.42436300000000,-0.32143100000000
Lensbury Limited,TW11 9NU,51.42794300000000,-0.31895500000000
dejandos,TW7 6AA,51.47087560000000,-0.32868230000000
THE CINNAMON LOUNGE (ISLEWORTH) LIMITED,TW7 6AB,51.47224730000000,-0.32851560000000
Costa Coffee,TW7 6AF,51.47407800000000,-0.32616780000000
M&S SIMPLY FOOD,TW7 6AF,51.4736,-0.3244
TWICKENHAM SPICE,TW7 6DH,51.47051920000000,-0.32871980000000
Town Wharf,TW7 6RJ,51.4693,-0.3228
GREEDIES ,TW7 7AA,51.46857000000000,-0.32748510000000
Sizlers,TW7 7DE,51.46822550000000,-0.32558990000000
Whole Foods Market - Richmond,TW9 1AB,51.46096900000000,-0.30313100000000
Patisserie Valerie,TW9 1AD,51.46099900000000,-0.30210700000000
AMORINO,TW9 1BP,51.46194200000000,-0.30329600000000
Costa Coffee,TW9 1DN,51.46239000000000,-0.30253100000000
Don Fernando Restaurant,TW9 1DN,51.46239000000000,-0.30253100000000
McDonalds Restaurants Ltd,TW9 1DN,51.46239000000000,-0.30253100000000
Pizzeria Rustica,TW9 1DN,51.46239000000000,-0.30253100000000
Caffe Nero,TW9 1DZ,51.46135800000000,-0.30265600000000
Coffeeology,TW9 1DZ,51.46135711669920,-0.30265599489212
Buenos Aires Argentine Steakhouse ,TW9 1EA,51.46157800000000,-0.30295000000000
Tap Tavern Richmond,TW9 1ED,51.46151351928710,-0.30275100469589
Ole & Steen Richmond,TW9 1HE,51.46038818359380,-0.30574399232864
The Britannia Richmond,TW9 1HH,51.46095090000000,-0.30502570000000
la creperie cinq maisons,TW9 1HH,51.46085370000000,-0.30514450000000
No.1A Duke Street,TW9 1HP,51.46144300000000,-0.30420700000000
Joe & The Juice,TW9 1HY,51.46067200000000,-0.30439400000000
Pret A Manger,TW9 1HY,51.46067428588870,-0.30439400672913
VENCHI UK RICHMOND,TW9 1HY,51.46060020000000,-0.30440530000000
itsu Richmond,TW9 1HY,51.46067200000000,-0.30439400000000
The Angel & Crown,TW9 1JL,51.46052560000000,-0.30422090000000
Lassaggino,TW9 1LZ,51.46031100000000,-0.30676800000000
Alianti (Bonne Bouche),TW9 1ND,51.46007750000000,-0.30681430000000
Quality Fish Restaurant,TW9 1ND,51.45996300000000,-0.30695400000000
Sebastians Italian Restaurant ,TW9 1ND,51.45996475219730,-0.30699101090431
Zizzi,TW9 1ND,51.45996300000000,-0.30695400000000
White Swan,TW9 1PG,51.46170300000000,-0.31040200000000
Pizza Express,TW9 1RE,51.45971800000000,-0.30556700000000
Franco Manca,TW9 1RW,51.45950698852540,-0.30459600687027
Taste Of Gujarat,TW9 1RW,51.45950600000000,-0.30459600000000
Diba restaurant ,TW9 1RX,51.45965900000000,-0.30336600000000
Rincón bar español,TW9 1RX,51.45965900000000,-0.30336600000000
Richmond Vault Beer Cellar and Restaurant,TW9 1SX,51.4590,-0.3063
Wagamama,TW9 1SX,51.45879200000000,-0.30620500000000
Five Guys,TW9 1TN,51.45925700000000,-0.30604400000000
Antipodea Richmond ,TW9 1TW,51.45865700000000,-0.30557700000000
Bridge&Hill Livingstore,TW9 1TW,51.45841990000000,-0.30536410000000
Cafe Nano,TW9 1UF,51.46199000000000,-0.29662900000000
UNA,TW9 1UR,51.46241200000000,-0.29477100000000
Butter Beans,TW9 2ND,51.46370800000000,-0.30163300000000
Madmax pizza,TW9 2ND,51.46370800000000,-0.30163300000000
Subway,TW9 2ND,51.46372410000000,-0.30153990000000
jojo's peri peri ,TW9 2ND,51.4637,-0.3016
Bacco restaurant   ,TW9 2NQ,51.46409600000000,-0.30174800000000
Starbucks Coffee,TW9 2NQ,51.46371490000000,-0.30214490000000
Thai Square Richmond,TW9 2NQ,51.46409600000000,-0.30174800000000
Tortilla,TW9 2NQ,51.46409600000000,-0.30174800000000
RUBY KEW LIMITED T/A cafe masala,TW9 2PN,51.46601500000000,-0.29886900000000
Caffe Mamma Limited,TW9 2PQ,51.46590500000000,-0.29813900000000
Chatora Restaurant,TW9 2PQ,51.46590500000000,-0.29813900000000
Four Regions Restaurant,TW9 2PQ,51.46590500000000,-0.29813900000000
QBru Coffee,TW9 2PQ,51.46590500000000,-0.29813900000000
Rock & Rose,TW9 2PQ,51.46590500000000,-0.29813900000000
The Library Pot,TW9 2PQ,51.46590500000000,-0.29813900000000
Treviso restaurant,TW9 2PQ,51.46590500000000,-0.29813900000000
Katherine & Scott Clarke T/A Sun Inn,TW9 2RG,51.46389770507810,-0.30228799581528
Royal Mid Surrey Golf Club,TW9 2SB,51.46696900000000,-0.30701100000000
Richmond Events,TW9 2SF,51.46597100000000,-0.30329100000000
CH&Co Catering at Falcon Preparatory School,TW9 2SS,51.46621040000000,-0.30059820000000
Q Verde Restaurant,TW9 3LU,51.47431300000000,-0.28640700000000
Rara Nepalese Dining,TW9 3LU,51.47431300000000,-0.28640700000000
Starbucks Coffee Company,TW9 4LT,51.46635500000000,-0.28638900000000
Virgin Active Chiswick Riverside,W4 2SX,51.47465515136720,-0.25526300072670
