name,postcode,lat,lon
Lindon Guest House,BD23 4BE,54.0312,-2.1523
TOWN END FARM SHOP LTD,BD23 4BE,54.0312,-2.1523
THE VICTORIA,BD23 4BS,54.0448,-2.1639
The Buck Inn Malham,BD23 4DA,54.0607,-2.1536
The Old Barn,BD23 4DA,54.0607,-2.1536
The Lister Arms,BD23 4DB,54.0621,-2.1501
Beck Hall Hotel,BD23 4DJ,54.0638,-2.1554
The Queens Arms Litton,BD23 5QJ,54.1630,-2.1461
Knight Stainforth Hall Caravan and Camping Park,BD24 0DP,54.1007,-2.2858
The Craven Arms,BD24 0EA,54.0649,-2.3060
Helwith Bridge Ltd ,BD24 0EH,54.1210,-2.2918
The Crown Hotel,BD24 0HF,54.1493,-2.2959
Falcon Manor Hotel,BD24 9BD,54.0620,-2.2825
The Golden Lion,BD24 9DU,54.0678,-2.2772
Sugar&Spice ,BD24 9DW,54.0680,-2.2777
Royal Oak Settle,BD24 9ED,54.0688,-2.2774
YE OLDE NAKED MAN CAFE LTD,BD24 9ED,54.0688,-2.2774
Car and Kitchen,BD24 9EF,54.0692,-2.2765
Sydney's,BD24 9EF,54.0692,-2.2765
Italian restaurant in settle limited ,BD24 9EH,54.0689,-2.2766
Talbot Arms,BD24 9EX,54.0680,-2.2759
The Folly Coffee House,BD24 9EY,54.0674,-2.2755
The Brasserie in The Courtyard,BD24 9JY,54.0480,-2.2851
Ruchee restaurant ,BD24 9RH,54.0680,-2.2780
The coach house hotel,LA2 7HE,54.1181,-2.5099
The Black Bull Hotel,LA2 7HF,54.1179,-2.5095
The Dalesbridge,LA2 8AZ,54.1038,-2.3648
The Game Cock,LA2 8BB,54.1119,-2.3574
Feizor refreshments ltd ,LA2 8DF,54.1046,-2.3229
Goat Gap Cafe,LA2 8HS,54.1250,-2.4191
Ireby Green Farm Cafe,LA6 2JH,54.1694,-2.5372
Wheatsheaf ,LA6 3AD,54.1540,-2.4666
The Station Inn,LA6 3AS,54.2148,-2.3396
Craven Heifer,LA6 3HG,54.1520,-2.4706
MASONS FREEHOUSE,LA6 3HL,54.1483,-2.4747
The Brook House Bar and Restaurant,LA6 3HR,54.1427,-2.5000
The Punch Bowl,LA6 3LF,54.1441,-2.5330
Country Harvest,LA6 3PE,54.1528,-2.4890
