name,id,postcode,lat,lon
Hawk and Mouse,1614538,BD23 5AW,54.072362540000000,-1.995288321000000
amethystine python and Snipe,1613827,BD24 9AQ,54.063330860000000,-2.277955000000000
Perching duck and Civet,1614305,BD24 0LH,54.036044910000000,-2.300629636000000
sand viper and habu,932930,LA2 8DE,54.095963091957300,-2.325588965797350
Minke whale and deaf adder,1614611,BD23 5HX,54.150838100000000,-2.053965391000000
Thrasher and cobra,1614458,BD23 6LX,54.025586000000000,-2.061175000000000
Linsang and black snake,1614174,BD24 0AR,54.064888740000000,-2.292297128000000
hoop snake and Macaw,932929,LA2 8DD,54.102847000000000,-2.339009000000000
Moluccan boobook and moloch,1614541,BD23 5BA,54.073872500000000,-1.997045618000000
Perching duck and Kestrel,1614111,BD24 9RX,54.068940660000000,-2.277763292000000
Tree warbler and Puffleg,1614726,BD23 4AQ,54.029083270000000,-2.150134278000000
mud turtle and Perching duck,1614187,BD24 0BL,54.072061000000000,-2.292684000000000
Stint and Scimitar babbler,1614220,BD24 0EE,54.073596080000000,-2.285496630000000
Ground sloth and Marsh harrier,1614743,BD23 4BT,54.045371010000000,-2.162257812000000
Stilt and leguaan,1614660,BD23 5LL,54.069261790000000,-1.994280135000000
harlequin snake and viper,1614017,BD24 9NG,54.081794380000000,-2.273187201000000
fer-de-lance and Siskin,1614733,BD23 4BA,54.029886690000000,-2.154122000000000
Jerboa and leathery turtle,1614201,BD24 0DF,54.074603410000000,-2.292671079000000
Darwin's finches and dugite,1614041,BD23 6WZ,54.070440000000000,-1.996786000000000
krait and Condor,1614065,BD24 9PD,54.100862460000000,-2.274719502000000
jew lizard and Logrunners,1608928,BD98 1GB,54.052624800000000,-2.051347599999986
anole and Philippine hawk-owl,2586194,BD23 5FB,54.076291000000000,-2.002486000000000
White ibis and Elephant,1614453,BD23 6LR,54.025018920000000,-2.060029438000000
Grackle and Tattler,1613947,BD24 9ET,54.067949020000000,-2.275159045000000
Parakeet and Petrel,1614283,BD24 0HY,54.170643330000000,-2.324429339000000
tortoise and cobra de capello,1614306,BD24 0LJ,54.028241630000000,-2.308511407000000
horned toad and Moluccan boobook,1614191,BD24 0BS,54.070151680000000,-2.290011000000000
indigo snake and Siskin,1614268,BD24 0HD,54.147401000000000,-2.293705000000000
Schneider python and krait,1615068,BD23 3QT,54.028750000000000,-2.099939000000000
Old World warbler and New World blackbird,1614216,BD24 0DZ,54.064103880000000,-2.314812466000000
kabaragoya and bearded dragon,1614546,BD23 5BH,54.074305000000000,-1.996908032000000
death adder and Parakeet,1614101,BD24 9RH,54.068005360000000,-2.278016807000000
boa and worm lizard,932940,LA2 8DU,54.121113717121900,-2.390810049487580
goanna and python,1615069,BD23 3QU,54.035503080000000,-2.082504103000000
frilled lizard and Myna,933411,LA2 8BB,54.111933978391300,-2.357392000000000
harlequin snake and dugite,1614185,BD24 0BH,54.072209650000000,-2.290224438000000
White ibis and Parakeet,1613974,BD24 9HX,54.067100910000000,-2.276589737000000
Asiatic leopard and Kestrel,1787715,LA2 8DW,54.110382539684700,-2.357685751768220
sand viper and Darwin's finches,1613978,BD24 9JB,54.069837000000000,-2.275385000000000
Fulmarine petrel and diamondback terrapin,1614415,BD23 6LA,54.036253860000000,-2.036746030000000
hognose snake and Wader,1614237,BD23 5RX,54.078255000000000,-2.032687000000000
