name,postcode,lat,lon
Kākāriki and thorn lizard,YO30 1AR,54.039307000000000,-1.178422000000000
diamondback terrapin and Thrasher,YO30 2AX,54.040103697604500,-1.243885482727540
diamondback and horned toad,YO30 2AZ,54.034823437398300,-1.238912176940420
Tit-tyrant and Gila monster,YO32 5TQ,54.035953838029400,-1.052719000000000
Old World warbler and mamba,YO32 5TZ,54.085647785029600,-1.036681939004160
water snake and Moluccan boobook,YO32 5UZ,54.041223515655900,-1.024805293319210
water snake and Songlark,YO32 5WU,54.031960781376500,-1.038686473924660
hognose snake and Grouse,YO32 5XH,54.047928230015200,-1.026985180353940
grass snake and Vole,YO32 5XQ,54.037426645482400,-1.025428577904870
habu and snapping turtle,YO32 5YL,54.042098475362500,-1.027411475552040
diamondback turtle and asp,YO32 5YW,54.044520120234300,-1.024560139687060
Darwin's finches and anole,YO32 5YZ,54.034377935440100,-1.037485592232620
Eagle and Wallaby,YO32 5ZY,54.043965575263000,-1.022679398752010
fer-de-lance and racer,YO60 6QD,54.124172933311200,-0.946887102599984
Kestrel and soft-shelled turtle,YO60 6SP,54.089760718825000,-1.008577635418960
Rabbit and tuatara,YO60 6SW,54.088536078870900,-1.012262000000000
swift and Pitohui,YO60 6SX,54.088904968461400,-0.997498583513700
puff adder and gavial,YO60 6TB,54.089933000000000,-1.013186000000000
Boto and Darwin's finches,YO60 7BT,54.112280000000000,-0.906253000000000
tiger snake and Bronzewing pigeon,YO60 7BY,54.120501000000000,-0.911866000000000
puff adder and galliwasp,YO60 7DJ,54.122792288517400,-0.922899419548230
Moluccan boobook and blue tongue,YO60 7DY,54.103030572998500,-0.902321304634707
Siskin and Zebra,YO60 7ER,54.096249389776000,-0.903830668770660
rock snake and Kestrel,YO60 7JJ,54.083481965066700,-0.896462631103000
tiger snake and grass snake,YO61 1DN,54.074842866946800,-1.107601725090610
tiger snake and hawksbill,YO61 1JX,54.103888612776900,-1.104776053967260
blue racer and king snake,YO61 1LP,54.103603788917000,-1.116099567172500
Triller and Vole,YO61 1LY,54.091271919023300,-1.117248423407830
leguaan and agamid,YO61 1NN,54.101806000000000,-1.107645000000000
python and copperhead,YO61 1QL,54.065091343316800,-1.251315978186870
Black cockatoo and puff adder,YO61 1RW,54.090963460157900,-1.230776008567020
iguana and Mink,YO61 1SB,54.074004326257400,-1.250850015023500
Grackle and Asiatic leopard,YO61 1TN,54.091237987122400,-1.240036101166970
viper and krait,YO61 1TQ,54.084915683088200,-1.239417822925740
Warbler and Pitohui,YO61 1YB,54.081046903942600,-1.135013049188900
Magpie and Treepie,YO61 3AR,54.123062416495600,-1.193918000000000
Crow and Skunk,YO61 3BQ,54.123981823696600,-1.189280164230840
Gull and gaboon viper,YO61 3BY,54.121718160723300,-1.186799779910790
copperhead and blindworm,YO61 3DR,54.119421058165400,-1.183371752280040
Towhee and Buzzard,YO61 3DU,54.118115967143600,-1.184422433851450
Petrel and blue tongue,YO61 3FP,54.115671410390400,-1.186673478519780
water snake and Tit-tyrant,YO61 3FT,54.114056704540900,-1.192472238860780
water snake and Wallaby,YO61 3FY,54.119922000000000,-1.192190000000000
New World blackbird and viper,YO61 3GU,54.120609000000000,-1.183863000000000
goanna and python,YO61 3HW,54.126881000000000,-1.219782000000000
Hawk and boa constrictor,YO61 3JU,54.123251440068300,-1.198321941013030
hognose snake and sand lizard,YO61 3ND,54.127810000000000,-1.221800000000000
Triller and harlequin snake,YO61 3NH,54.152356165886500,-1.241734733296130
Parakeet and death adder,YO61 3PL,54.118739769002100,-1.184960962931050
leguaan and slowworm,YO61 3PN,54.124686000000000,-1.182962000000000
caiman and chameleon,YO61 3QZ,54.122566483892900,-1.192658622168500
mamba and Grouse,YO61 3RD,54.164086833943400,-1.151692292787090
bandy-bandy and New World blackbird,YO61 3RE,54.147790514688000,-1.141446000000000
Bronzewing pigeon and rock snake,YO61 4AF,54.200235000000000,-1.206889000000000
mamba and Kangaroo,YO61 4AL,54.217175112040200,-1.215091126962610
indigo snake and flying lizard,YO61 4BB,54.188890550850500,-1.179919351028860
carpet snake and indigo snake,YO61 4PF,54.166178047629600,-1.203940890033800
flying lizard and harlequin snake,YO61 4SH,54.137623000000000,-1.052478000000000
Zebra and mud turtle,YO61 4TZ,54.126668000000000,-1.146083373874640
whip snake and habu,YO62 4BA,54.189725000000000,-0.940977000000000
sidewinder and Black cockatoo,YO62 4BJ,54.154332000000000,-1.003602000000000
Grouse and Jay,YO62 4DH,54.196577695537500,-1.106959084982330
Armadillo and Maya,YO62 4DR,54.196400295708600,-1.109706621665180
boa constrictor and Bunting,YO62 4DZ,54.201286673057300,-1.109572000000000
Tit-tyrant and Myna,YO62 4JT,54.173256000000000,-0.977077000000000
Francolin and Stilt,YO62 5AE,54.248165812936500,-1.065313375380540
Jay and Bunting,YO62 5AQ,54.247640000000000,-1.062287000000000
Thrasher and Goose,YO62 5BW,54.246887453128000,-1.060415952092070
Marmoset and Stint,YO62 5BZ,54.244465141197200,-1.055222689462030
deaf adder and tokay,YO62 5EN,54.247156000000000,-1.099007000000000
Ground sloth and taipan,YO62 5HU,54.247639000000000,-1.055258000000000
Solitaire and Pitohui,YO62 5JH,54.219408045217200,-1.003941488807340
python and American sparrow,YO62 5XD,54.200410824014000,-0.935935959310755
slowworm and Kangaroo,YO62 5XE,54.203756901224600,-0.941722000000000
Ground sloth and Hawk,YO62 5YE,54.204824966498000,-1.014272881788170
Jackal and gecko,YO62 6HJ,54.237049260926900,-0.946639323834927
Minke whale and Siskin,YO62 6RN,54.211513400882100,-0.903142847304277
goanna and Meadowlark,YO62 7RR,54.248615524780000,-0.974676320024417
Chickadee and mamba,YO7 2PN,54.220201000000000,-1.285250542427700
racer and rat snake,YO7 2PU,54.239100000000000,-1.272929431418900
taipan and chuckwalla,YO7 2PY,54.241924000000000,-1.241116029540760
