name,postcode,lat,lon
Ground sloth and green turtle,BT92 0QA,54.236964000000000,-7.495767000000000
Scimitar babbler and amphisbaena,BT92 3AY,54.218793000000000,-7.716890000000000
wall lizard and anaconda,BT92 4AG,54.204384000000000,-7.670769000000000
Stilt and mamba,BT92 4AH,54.206178000000000,-7.653667000000000
Pheasant and deaf adder,BT92 4DT,54.237981000000000,-7.663584000000000
sand lizard and hoop snake,BT92 4HS,54.221007000000000,-7.699381000000000
Petrel and B,BT92 9AJ,54.183722000000000,-7.573842000000000
Shearwater and Eagle,BT92 9AL,54.182425000000000,-7.580196000000000
moloch and blue tongue,BT92 9AR,54.156687000000000,-7.511591000000000
moloch and diamond snake,BT92 9AY,54.169592000000000,-7.594749000000000
Night heron and loggerhead,BT92 9BD,54.172468000000000,-7.547375000000000
Ground sloth and cerastes,BT92 9BL,54.148363000000000,-7.519372000000000
American sparrow and king cobra,BT92 9DE,54.183550000000000,-7.607708000000000
Crow and Komodo dragon,BT92 9EJ,54.181869000000000,-7.553184000000000
sidewinder and caiman,BT92 9FY,54.162029000000000,-7.565278000000000
Flameback and rattlesnake,BT92 9FZ,54.201959000000000,-7.561150000000000
Prion and Cuscus,BT92 9GB,54.190991000000000,-7.561480000000000
mud turtle and Polecat,BT92 9GQ,54.146365000000000,-7.511682000000000
green turtle and Mouse,BT92 9GZ,54.142468000000000,-7.514314000000000
Jackal and Macaw,BT92 9HG,54.170556000000000,-7.526602000000000
Schneider python and Night heron,BT92 9LJ,54.191066000000000,-7.585194000000000
Kestrel and Civet,BT92 9NJ,54.212439000000000,-7.555030000000000
Elephant and Grackle,BT92 9NW,54.190320000000000,-7.513079000000000
racer and monitor,BT92 9PH,54.194886000000000,-7.570325000000000
Boto and River dolphin,BT92 9QB,54.150174000000000,-7.546301000000000
