name,postcode,lat,lon
Gourmet Burger Kitchen,BA16 0BB,51.12829400000000,-2.74024200000000
Pret A Manger,BA16 0BB,51.12829589843750,-2.74024200439453
Prezzo Limited,BA16 0BB,51.12829589843750,-2.74024200439453
The Cornish Bakery,BA16 0BB,51.12829400000000,-2.74024200000000
The Village Cafe,BA16 0BJ,51.12726330000000,-2.74021800000000
The Street Inn,BA16 0DR,51.13002770000000,-2.73534610000000
Grape&Grain brasserie ltd,BA16 0EG,51.1269,-2.7387
Time for Tea,BA16 0EG,51.12691840000000,-2.73931220000000
Subway,BA16 0EN,51.12665960000000,-2.74042270000000
Tamburino Village,BA16 0EQ,51.12713250000000,-2.73957290000000
Peggys Diner,BA16 0EX,51.12517800000000,-2.74236400000000
Crispin Hall Café,BA16 0EZ,51.12623400000000,-2.74032300000000
Caffe Nero,BA16 0HN,51.12718300000000,-2.74109500000000
877 Street McDonalds - Lambtrad Ltd T/A McDonalds,BA16 0HW,51.12608600000000,-2.75641100000000
Thai Elephant,BA16 0NH,51.12383560000000,-2.74473580000000
Waterfall Elior at Walton Primary,BA16 9LA,51.12453000000000,-2.76884500000000
Sonni’s Cafe,BA22 8HZ,50.95231690000000,-2.67947530000000
Northover Manor Hotel,BA22 8LD,51.16165924072266,-3.04113507270813
NUOVO ITALIA LTD,BA22 8LN,51.00159600000000,-2.68212900000000
The Ilchester Arms Hotel,BA22 8LN,51.00159600000000,-2.68212900000000
THE GRILL HOUSE,BA22 8PF,50.98228836059570,-2.71707510948181
The Crown and Victoria Inn Ta Mark Hillyard & Isabel Thomas,BA22 8PZ,50.97521500000000,-2.71185300000000
Dive Academy,BA22 8UU,50.9529,-2.6770
Grain Store Cafe,BA6 8DB,51.14388275146480,-2.70885610580444
The Riflemans Arms,BA6 8DB,51.14388275146480,-2.70885610580444
The Drawing Room Butleigh,BA6 8SF,51.10122110000000,-2.68884240000000
Rose and Portcullis Ltd,BA6 8TQ,51.09597500000000,-2.68741600000000
Cafe Sol,BA6 9DP,51.14788430000000,-2.71684400000000
The George & Pilgrim,BA6 9DP,51.14786200000000,-2.71693700000000
Lord of Wildwood Community Tea Room,BA6 9DU,51.14747400000000,-2.71714500000000
Coffee Zero,BA6 9DX,51.14770440000000,-2.71538300000000
Abbey Tea Rooms & Restaurant,BA6 9EH,51.14642780000000,-2.71826540000000
The Old Tannery,BA6 9FT,51.13901100000000,-2.73619600000000
THE KING WILLIAM INN,BA6 9HL,51.14735300000000,-2.71843700000000
Hawthorns Hotel Bar and Restaurant,BA6 9JJ,51.14781960000000,-2.71860150000000
Knights Fish Restaurant ,BA6 9JJ,51.14757620000000,-2.71869780000000
the who'd a thought it,BA6 9JJ,51.14792100000000,-2.71906800000000
KFC,BA6 9XE,51.14193600000000,-2.73003900000000
subway,BA6 9XE,51.14193600000000,-2.73003900000000
1567 Taunton McDonalds - Lambtrad Ltd T/A McDonalds,TA1 2AN,51.02310100000000,-3.08369900000000
McDonalds Restaurant Ltd - Asda,TA1 2AN,51.02310100000000,-3.08369900000000
THE SPICE LOVER LTD,TA1 2EL,51.0182,-3.0821
554 Taunton DT McDonalds -  Lambtrad Ltd T/A McDonalds,TA1 2LP,51.0242,-3.0669
Hollywood Bowl,TA1 2LP,51.02358300000000,-3.06642900000000
Mcdonalds Restaurants Ltd,TA1 2LP,51.02358300000000,-3.06642900000000
Tiffin ,TA1 2LP,51.02422714233400,-3.06692790985107
Pizza Hut Restaurant,TA1 2LR,51.02098600000000,-3.06431600000000
The Master Thatcher,TA1 2PD,51.01347500000000,-3.07731600000000
TNS Catering_WPA,TA1 2PE,51.01517200000000,-3.06776100000000
Subway taunton deane service,TA1 2UH,51.0200,-3.0661
Lamb and Lion,TA10 0AT,50.99107100000000,-2.86346900000000
Hambridge Village Stores and Coffee Shop,TA10 0AU,50.98863220214840,-2.86346697807312
Living Pretty,TA10 0ES,51.02280400000000,-2.86969100000000
The Firehouse Somerset,TA10 0HE,51.02344300000000,-2.86954500000000
The Old Pound Inn,TA10 0RA,51.06087600000000,-2.85768900000000
THE HALFWAY HOUSE,TA10 9AB,51.04622800000000,-2.78737700000000
The Pitney farm cafe,TA10 9AP,51.05760955810550,-2.79467606544495
ABP Langport,TA10 9HG,51.03247900000000,-2.81613600000000
The Lime Kiln,TA10 9JH,51.02896600000000,-2.74158100000000
Devonshire Arms,TA10 9LP,51.02562200000000,-2.75819600000000
Kitchen at the Wharf,TA10 9PN,51.03684800000000,-2.83412600000000
Cardamom,TA10 9PQ,51.03705500000000,-2.83042200000000
Art Tea Zen,TA10 9PW,51.03771400000000,-2.82879400000000
The Bridge (Langport) Ltd,TA10 9RB,51.03515243530270,-2.83594989776611
Castlebrook Inn,TA11 6PR,51.09185000000000,-2.73003500000000
Figs Catering Limited,TA11 6SB,51.0592,-2.7480
THE Kingsdon Inn ,TA11 7LG,51.03304000000000,-2.68865100000000
The Globe Inn,TA11 7LX,51.05356300000000,-2.72814900000000
The White Hart,TA11 7LX,51.05356300000000,-2.72814900000000
28 Market Place Limited,TA11 7NB,51.05421829223630,-2.72831606864929
The Courtyard Cafe,TA11 7NB,51.0542,-2.7287
The Wyndham Arms,TA12 6AT,50.98480100000000,-2.80843300000000
The Kingsbury Community Enterprise Ltd,TA12 6BG,50.9900,-2.8074
THE RUSTY AXE,TA12 6BL,50.98010253906250,-2.81956195831299
Chirpy Cottage,TA12 6FF,50.97776870000000,-2.76750740000000
Claire’s Cafe & Sandwich Bar ,TA12 6HB,50.97955900000000,-2.76847100000000
The White Hart Hotel,TA12 6JQ,50.97053800000000,-2.76600000000000
Yandles Cafe,TA12 6JU,50.96528244018550,-2.77346110343933
The Hollies Hotel Limited,TA12 6LG,50.95800399780273,-2.77516269683838
The old dairy,TA12 6LH,50.95708084106450,-2.77765297889709
The Rose and Crown,TA13 5HF,50.96736300000000,-2.81391200000000
Fleur De Lis,TA14 6PU,50.95311900000000,-2.75082200000000
The Prince of Wales,TA14 6RW,50.95025900000000,-2.74667600000000
kings arms inn,TA15 6UU,50.95064544677734,-2.71825313568115
The Barrington Boar,TA19 0JB,50.95940600000000,-2.86985900000000
Duke of York,TA19 0LW,50.95154700000000,-2.85144700000000
THE MERRY MONK,TA2 8NE,51.03657700000000,-3.06445900000000
Monkton Inn,TA2 8NP,51.04898500000000,-3.05383000000000
Monkton Elm Garden Centre Limited,TA2 8QN,51.04284300000000,-3.05478900000000
Silver's Pantry,TA2 8QN,51.04284300000000,-3.05478900000000
The Maypole Inn,TA2 8RF,51.05899800000000,-3.03716300000000
The Ruishton Inn,TA3 5JW,51.02018600000000,-3.05038200000000
The Farmers Arms West Hatch Ltd,TA3 5RS,50.97291946411133,-3.03726601600647
The Greyhound Inn,TA3 5SP,50.96063900000000,-3.05016400000000
The Far Canal,TA3 6DF,50.99773200000000,-2.98737200000000
The Bird in Hand,TA3 6LT,51.02246900000000,-2.97147300000000
Farthings Country House Hotel & Restaurant,TA3 6SG,50.97936900000000,-2.99696800000000
The Hatch Inn,TA3 6SG,50.97936900000000,-2.99696800000000
Taunton & Pickeridge Golf Club Limited,TA3 7BY,50.96087265014650,-3.07992911338806
Enmore Park Golf Club Ltd,TA5 2AN,51.1114,-3.0743
Greenway Farm,TA5 2AX,51.13208700000000,-3.03940000000000
Elior UK,TA5 2HE,51.15113067626950,-3.06552100181580
SAFFRON,TA5 2HE,51.15113100000000,-3.06552000000000
Blackmore Farm,TA5 2NE,51.14206230000000,-3.08078830000000
Piggy's Sandwich Bar,TA6 3BE,51.12819900000000,-3.00468600000000
subway,TA6 3BE,51.12820000000000,-3.00468600000000
KFC,TA6 3BH,51.12857700000000,-3.00472300000000
Wild Rocket Cafe Grill Bar,TA6 3BJ,51.12829100000000,-3.00550200000000
Costa Coffee,TA6 3BU,51.12809300000000,-3.00352700000000
Prezzo,TA6 3BY,51.12841000000000,-3.00420500000000
The Great Escape,TA6 3EN,51.12819200000000,-3.00663000000000
The Old Vicarage,TA6 3EQ,51.12741700000000,-3.00472700000000
Admirals landing ltd,TA6 3EX,51.13242100000000,-3.00522100000000
Green Olive Restaurant,TA6 3HL,51.12930200000000,-3.00195200000000
ADMIRAL BLAKE FISH BAR,TA6 3LT,51.12704200000000,-3.00234600000000
The Tudor Hotel & Restaurant ltd,TA6 3LX,51.12729100000000,-3.00370900000000
Made in Italy,TA6 3NJ,51.12847100000000,-3.00133400000000
The Bridge Cafe/Restaurant,TA6 3NJ,51.12847100000000,-3.00133400000000
MALIWANS THAI RESTAURANT,TA6 3PF,51.12738200000000,-3.00775500000000
Mecca Social Club,TA6 3PH,51.12792500000000,-3.00839600000000
431 Bridgewater McDonalds - Lambtrad Ltd T/A McDonalds,TA6 4AB,51.13292800000000,-2.99854300000000
McDonalds,TA6 4AB,51.13292800000000,-2.99854300000000
Subway (Bridgwater),TA6 4AB,51.1329,-2.9985
Subway  Bridgewater,TA6 4RR,51.14534759521480,-2.99199199676514
SAB TRADE LTD,TA6 4TS,51.14134300000000,-2.97752600000000
The Bower Inn,TA6 4TY,51.13157000000000,-2.97296100000000
La kage,TA6 5AB,51.12881700000000,-2.99985500000000
Spice club ,TA6 5AB,51.12881700000000,-2.99985500000000
Alex's BBQ and Tapas Bar,TA6 5AR,51.12890000000000,-2.99852700000000
MPW Steakhouse,TA6 5AR,51.1289,-2.9989
Mercure Hotel Bridgwater,TA6 5AR,51.12905760000000,-2.99752710000000
The Snug Bookshop and Cafe,TA6 5AZ,51.12951600000000,-3.00070950000000
T-Stop Cafe,TA6 5PZ,51.12961196899410,-2.99942898750305
Holiday Inn Express Bridgwater,TA6 6FA,51.10056304931640,-2.99864602088928
The Compass Tavern,TA6 6PR,51.10009384155270,-3.00230193138123
Taart Cafe,TA6 6QA,51.09278680000000,-3.01459550000000
The Walnut Tree Hotel,TA6 6QA,51.09280400000000,-3.01432900000000
Moto Services,TA6 6TS,51.10438500000000,-2.99247200000000
Waterfall Elior at St Mary's School,TA6 7LX,51.12403800000000,-3.02618700000000
HARVEST MOON,TA7 0BG,51.07479900000000,-2.99987500000000
Waterfall Elior at North Newton County Primary School,TA7 0BG,51.07479900000000,-2.99987500000000
Maunsel Lock Tearoom,TA7 0DH,51.06261800000000,-2.98889500000000
The Levels country kitchen,TA7 0PD,51.09060170000000,-2.89981020000000
Webster Pubs Ltd T/A The King Alfred Inn,TA7 0RB,51.07043400000000,-2.91824000000000
THE RED TILE INN,TA7 8LN,51.15802800000000,-2.91015500000000
Knowle Inn,TA7 8PN,51.15468500000000,-2.94722300000000
Ring O' Bells,TA7 9BT,51.12564200000000,-2.86100400000000
Crown Inn catcott,TA7 9HQ,51.15596000000000,-2.86385600000000
Ring O' Bells Ashcott,TA7 9PZ,51.1305,-2.8070
The Pipers Inn,TA7 9QL,51.12330600000000,-2.79856100000000
The Ashcott,TA7 9QQ,51.12806200000000,-2.80793100000000
Albion Inn,TA7 9QT,51.12985800000000,-2.81986700000000
