name,postcode,lat,lon
The Lab,BT44 8HP,54.87329800000000,-6.47772500000000
The Wild Duck Inn,BT44 8HR,54.87309700000000,-6.47966400000000
The Rose Cafe,BT44 8HS,54.87283700000000,-6.47821000000000
McLaughlins Corner ,BT44 8TE,54.96517181396480,-6.54428100585938
Oakleaf Restaurant,BT46 5JZ,54.85207600000000,-6.75408500000000
An Cro√≠ Cafe,BT46 5NH,54.87442900000000,-6.71131800000000
country cafe,BT46 5QE,54.91415000000000,-6.66434300000000
Friels Bar & Restaurant,BT46 5QF,54.91116500000000,-6.66250800000000
The Flax Kitchen,BT46 5RU,54.87892800000000,-6.64028400000000
Ardtara Country House,BT46 5SA,54.88836200000000,-6.63881300000000
The Brown Trout Golf and Country inn,BT51 4AD,55.03472700000000,-6.60219600000000
Garvagh Development Trust ,BT51 5AB,54.9821,-6.6876
Coffee Thyme ,BT51 5AE,54.98260070000000,-6.68794120000000
Coffee Thyme,BT51 5AE,54.98260070000000,-6.68794120000000
Cafe Leon,BT51 5PF,54.96927500000000,-6.68854400000000
Memory Lane Tea Room,BT51 5QH,54.95119500000000,-6.55571200000000
Manor House & Golf Club ,BT51 5RR,54.95188000000000,-6.55290900000000
Ground Espresso Bars Ltd,BT53 6AG,55.07057700000000,-6.51763100000000
Boyds Cafe,BT53 6AH,55.07082930000000,-6.51691930000000
The clocktower restaurant ,BT53 6AH,55.0707,-6.5169
Bob & Berts Ballymoney,BT53 6AN,55.06909000000000,-6.51654300000000
Subway,BT53 6AN,55.06909000000000,-6.51654300000000
Montys,BT53 6DL,55.07073900000000,-6.51620000000000
Cunningham's Catch,BT53 6DX,55.07251400000000,-6.51738700000000
Zinc,BT53 6JJ,55.07083129882810,-6.50833797454834
