name,postcode,lat,lon
thorn lizard and tuatara,BT47 3AB,55.027185000000000,-7.173810000000000
Polecat and snapping turtle,BT47 3BL,55.016243000000000,-7.114645000000000
moloch and slowworm,BT47 3DN,55.033082000000000,-7.199680000000000
Flameback and Old World quail,BT47 3DZ,55.034351000000000,-7.101841000000000
Stilt and Logrunners,BT47 3GN,55.021414000000000,-7.182513000000000
Chicken and Mink,BT47 3GY,55.039736000000000,-7.155877000000000
Ice seal and swift,BT47 3HF,54.958869000000000,-7.075975000000000
hognose snake and Marsh harrier,BT47 3TU,55.031827000000000,-7.120619000000000
puff adder and Booted eagles,BT47 3WQ,55.019592000000000,-7.175778000000000
frilled lizard and bandy-bandy,BT47 3XW,55.022912000000000,-7.177836000000000
skink and Snipe,BT47 3YT,55.037287000000000,-7.206681000000000
leathery turtle and pit viper,BT47 4AB,54.910858000000000,-7.151826000000000
diamond python and racer,BT47 4AR,54.864966000000000,-7.123944000000000
king cobra and monitor,BT47 4BW,54.863080000000000,-7.081892000000000
diamond snake and puff adder,BT47 4DX,54.913594000000000,-7.156054000000000
Treepie and Masked owl,BT47 4HZ,54.901667000000000,-7.165970000000000
gecko and fer-de-lance,BT47 4LT,54.927563000000000,-6.921160000000000
Rat and garter snake,BT47 4NQ,54.931892000000000,-6.923087000000000
python and Capuchin,BT47 4NS,54.970886000000000,-7.017282000000000
green turtle and agama,BT47 4PH,54.929176000000000,-6.936328000000000
Tattler and cerastes,BT47 4QE,54.933285000000000,-7.003506000000000
Hawk and puff adder,BT47 4SA,54.912216000000000,-6.898011000000000
tuatara and adder,BT47 4SY,54.893704000000000,-7.020083000000000
Gull and Coati,BT47 4UB,54.932177000000000,-6.919813000000000
iguana and Vulture,BT49 0BD,55.046067000000000,-6.926613000000000
tuatara and Guillemot,BT49 0BG,55.042433000000000,-6.926945000000000
monitor and python,BT49 0BJ,55.054502000000000,-6.947808000000000
Magpie and black snake,BT49 0FH,55.038007000000000,-6.931019000000000
flying dragon and garter snake,BT49 0FP,55.038534000000000,-6.934728000000000
Crow and Ground sloth,BT49 0NU,55.041281000000000,-6.935939000000000
Rat and Egret,BT49 0UH,55.043467000000000,-6.922944000000000
Boto and Flameback,BT49 9AT,55.042837000000000,-6.948507000000000
chuckwalla and cerastes,BT49 9BJ,55.047569000000000,-6.952403000000000
Vulture and blue tongue,BT49 9DX,55.068281000000000,-7.002092000000000
Jerboa and Mouse,BT49 9EZ,55.016063000000000,-6.925367000000000
Peafowl and bearded lizard,BT49 9HT,55.045444000000000,-7.018682000000000
elapid and leguaan,BT49 9LW,55.008707000000000,-6.969078000000000
caiman and Mole,BT49 9PZ,55.044435000000000,-7.042812000000000
diamondback turtle and Dolphin,BT49 9QG,55.045465000000000,-7.020885000000000
Stilt and puff adder,BT82 0QQ,54.861794000000000,-7.204774000000000
