name,postcode,lat,lon
puff adder and Linsang,BT40 1BP,54.854217000000000,-5.811940000000000
Moluccan boobook and deaf adder,BT40 1DA,54.861588000000000,-5.814126000000000
tree snake and turtle,BT40 1ES,54.860234000000000,-5.814776000000000
Eagle and anaconda,BT40 1EZ,54.859464000000000,-5.812434000000000
skink and diamondback,BT40 1GA,54.861135000000000,-5.819211000000000
Philippine hawk-owl and Nukupuʻu,BT40 1HZ,54.857407000000000,-5.824643000000000
Jackal and garter snake,BT40 1LY,54.854326000000000,-5.813008000000000
chameleon and Vole,BT40 1QH,54.854000000000000,-5.821903000000000
turtle and Black cockatoo,BT40 1QJ,54.854663000000000,-5.822770000000000
American sparrow and tiger snake,BT40 1SJ,54.852349000000000,-5.823004000000000
Wader and goanna,BT40 1TL,54.867190000000000,-5.815879000000000
caiman and gecko,BT40 1TR,54.870224000000000,-5.826557000000000
glass snake and anaconda,BT40 2BG,54.855115000000000,-5.838506000000000
Duck and Kestrel,BT40 2BJ,54.853297000000000,-5.840379000000000
Kite and Eagle,BT40 2BL,54.852636000000000,-5.839044000000000
Perching duck and giant tortoise,BT40 2BP,54.852097000000000,-5.840599000000000
Nukupuʻu and Eagle,BT40 2BY,54.853339000000000,-5.835175000000000
whip snake and Bunting,BT40 2EN,54.857441000000000,-5.835937000000000
Civet and Capuchin,BT40 2EP,54.859585000000000,-5.837738000000000
Old World warbler and Ground sloth,BT40 2FB,54.857577000000000,-5.843561000000000
kabaragoya and python,BT40 2HQ,54.864597000000000,-5.844759000000000
Ground sloth and diamond python,BT40 2HY,54.863976000000000,-5.846693000000000
soft-shelled turtle and Zebra,BT40 2JJ,54.860166000000000,-5.845167000000000
Snipe and hognose snake,BT40 2JW,54.860120000000000,-5.844079000000000
constrictor and Skunk,BT40 2NL,54.875380000000000,-5.832716000000000
indigo snake and Mole,BT40 2PZ,54.865265000000000,-5.849801000000000
Darwin's finches and Nukupuʻu,BT40 2RU,54.895689000000000,-5.863098000000000
Myna and death adder,BT40 2SA,54.852320000000000,-5.845351000000000
fer-de-lance and Polecat,BT40 2WQ,54.861946000000000,-5.850055000000000
boa constrictor and Skunk,BT44 0BB,54.945347000000000,-5.904853000000000
