name,postcode,lat,lon
Lemming and Masked owl,BT40 1AB,54.852901000000000,-5.805084000000000
Civet and Siskin,BT40 1BX,54.851261000000000,-5.804391000000000
Vole and hognose snake,BT40 1DQ,54.851204000000000,-5.801872000000000
boa and jew lizard,BT40 1ES,54.860234000000000,-5.814776000000000
Towhee and Rabbit,BT40 1HE,54.860696000000000,-5.816994000000000
python and Polecat,BT40 1JX,54.851294000000000,-5.820289000000000
thorny devil and harlequin snake,BT40 1LA,54.850679000000000,-5.823546000000000
Kite and cayman,BT40 1LN,54.850392000000000,-5.823577000000000
Pheasant and boa constrictor,BT40 1NB,54.855693000000000,-5.814071000000000
cayman and bearded lizard,BT40 1RY,54.852246000000000,-5.820783000000000
Petrel and blind snake,BT40 1RZ,54.851850000000000,-5.821240000000000
Ice seal and Black cockatoo,BT40 1SJ,54.852349000000000,-5.823004000000000
Fox and flying lizard,BT40 1TL,54.867190000000000,-5.815879000000000
Herring gull and mamba,BT40 1TY,54.874886000000000,-5.830701000000000
Partridge and habu,BT40 1UY,54.862434000000000,-5.808239000000000
skink and Kestrel,BT40 2BY,54.853339000000000,-5.835175000000000
Warbler and taipan,BT40 2DB,54.852812000000000,-5.834112000000000
gaboon viper and anaconda,BT40 2DD,54.852147000000000,-5.833791000000000
cobra de capello and Egret,BT40 2DS,54.855257000000000,-5.834855000000000
