name,id,postcode,lat,lon
American sparrow and Dorcopsis,1318774,DG7 2NX,54.962476000000000,-3.941510000000000
Condor and carpet snake,1318939,DG6 4NF,54.868813097293700,-4.046985443182820
Goose and Vole,1319235,DG5 4RH,54.885182000000000,-3.801919000000000
indigo snake and boa,1318887,DG7 1PF,54.895944000000000,-3.843070000000000
lizard and diamondback terrapin,1319185,DG7 1AG,54.941390271883900,-3.928472257166900
tortoise and terrapin,1319100,DG6 4UY,54.851966339209100,-4.036457825163110
worm lizard and Wader,1319074,DG6 4SZ,54.854129775254200,-4.133937131751000
Stilt and Eagle,1767165,DG5 4FE,54.930629449295900,-3.820698545840640
Towhee and saltwater crocodile,1318795,DG7 2PY,54.961624434195500,-4.122512925571840
perentie and leguaan,1318949,DG6 4NT,54.867183334097800,-4.081515363142930
Shearwater and bicycle lizard,1318499,DG7 3NA,54.998770947286400,-4.009962063838780
leguaan and green turtle,1318867,DG7 1NF,54.938344266473300,-3.911918971030560
mud turtle and tiger snake,1319141,DG5 4NX,54.928295679405800,-3.815832396021390
Boto and tiger snake,1319515,DG5 4HU,54.932737594106200,-3.812692306562280
Schneider python and agama,1319623,DG5 4LX,54.925337256062200,-3.839825901738970
Chicken and tiger snake,1319010,DG7 1TS,54.918497189628700,-3.981022351162810
Chipmunk and snapping turtle,1318531,DG7 2AL,54.896386000000000,-4.046700000000000
Gull and python,1320203,DG2 8JR,54.978794429715400,-3.777138591209450
jew lizard and Peafowl,1318331,DG7 3BX,54.983370151384600,-3.920701369591670
Old World quail and goanna,1318679,DG7 2HZ,54.883522543784100,-4.180454931993710
Lemming and agama,1318688,DG7 2JL,54.884161959331800,-4.184387271074550
Pheasant and flying dragon,1318723,DG7 2NE,55.005354328858600,-4.072373050922730
Warbler and snapping turtle,1318741,DG7 1EN,54.937810704945100,-3.929752709535050
blindworm and Chickadee,1767169,DG5 4GX,54.884450511199400,-3.805612706843660
Crow and Kite,1319445,DG5 4BH,54.925389042021100,-3.821475629175200
Flameback and Siskin,1318340,DG7 3DH,55.060752404571500,-3.934522036640020
Moluccan boobook and Shearwater,1318954,DG6 4NZ,54.865162566573300,-4.080896959017460
rock snake and Fox,1319427,DG5 4AJ,54.932904989792900,-3.824328438399010
diamond snake and Logrunners,1318758,DG7 1GF,54.944986018620100,-3.914794960405710
blue racer and diamondback terrapin,1319594,DG5 4JJ,54.935814848359800,-3.821478701286730
gavial and Prion,1319517,DG5 4HX,54.933556744032500,-3.807781081545490
B and diamond snake,1318541,DG7 2BA,54.851621000000000,-4.149305000000000
Maya and Nukupu ªu,1318878,DG7 1NU,54.949591000000000,-3.874273000000000
death adder and agamid,1318785,DG7 2PL,54.973246214589800,-4.032046067807680
box turtle and cayman,1319182,DG7 1AD,54.941543018736700,-3.929041622598940
Rat and thorn lizard,1318859,DG7 1LN,54.948238317839600,-3.926254961410850
Thicketbird and cayman,1767168,DG5 4GH,54.881370865837600,-3.815046536369690
Mamo and Grouse,1318834,DG7 1HU,54.941864661968300,-3.925762756754760
Black cockatoo and Bronzewing pigeon,1319232,DG5 4RE,54.928207641649500,-3.824708837351130
Cloud rat and gecko,1319226,DG5 4QW,54.881706000000000,-3.791444000000000
Civet and Chipmunk,1319127,DG5 4NB,54.928076119817000,-3.825686123271350
Vole and Grackle,1767194,DG7 1JN,54.942650990831200,-3.918540899076130
sand viper and terrapin,1319140,DG5 4NW,54.928252000000000,-3.799505000000000
boa constrictor and Songlark,1318630,DG7 2DL,54.869748184752800,-4.182173581160310
