name,postcode,lat,lon
Grackle and Condor,DG6 4NF,54.868813097293700,-4.046985443182820
Kākāriki and Perching duck,DG6 4NP,54.869396444769900,-4.071030000000000
Mockingbird and Polecat,DG7 1AA,54.942857521867400,-3.927199793760680
Dorcopsis and Armadillo,DG7 1BJ,54.945795976922100,-3.936849470498950
ringhals and leathery turtle,DG7 1BN,54.944370485860600,-3.933236609276920
Bronzewing pigeon and Herring gull,DG7 1BU,54.943160000000000,-3.931414000000000
Capuchin and Asiatic leopard,DG7 1EY,54.936676584845200,-3.931871000000000
indigo snake and grass snake,DG7 1JN,54.942650990831200,-3.918540899076130
Pitohui and turtle,DG7 1JQ,54.941234324759600,-3.919019284245040
leguaan and cobra de capello,DG7 1LE,54.947898481000500,-3.919899018530790
Capuchin and Mole,DG7 1TR,54.918863000000000,-3.978466000000000
Polecat and Quetzal,DG7 2AH,54.912255886167700,-4.043340000000000
green turtle and frilled lizard,DG7 2AR,54.892863000000000,-4.075760000000000
Black jay and sidewinder,DG7 2LA,54.882403299153300,-4.191697578744220
agamid and Pratincole,DG7 2NA,54.980068000000000,-4.042846000000000
frilled lizard and whip snake,DG7 2NR,54.884029000000000,-4.183335000000000
crocodile and slowworm,DG7 2PQ,54.954835862770100,-4.017638248385760
Kangaroo and Pratincole,DG7 3AE,54.959655722358800,-3.927785391549770
glass snake and kabaragoya,DG7 3AT,54.977807247865300,-3.983911334465660
boa and soft-shelled turtle,DG7 3BQ,54.997493770130400,-3.998015958671580
Fish eagle and Scimitar babbler,DG7 3BZ,54.989352298497900,-3.913531133379080
horned viper and smooth snake,DG7 3EN,54.958188772205200,-3.923935335205190
cobra de capello and diamondback turtle,DG7 3NL,55.034279606208900,-4.044665291732230
indigo snake and diamondback turtle,DG7 3QR,55.056602233286100,-4.065641661208930
