name,postcode,lat,lon
agama and smooth snake,DG8 0AJ,54.943539367809800,-4.851904925124170
tortoise and White ibis,DG8 0AX,54.955788000000000,-4.873112000000000
Mockingbird and Prion,DG8 0DF,54.902230000000000,-4.637191000000000
box turtle and cayman,DG8 0HH,54.913352415696400,-4.607053944805200
Prion and Prion,DG8 0LE,54.851920000000000,-4.722451000000000
mamba and python,DG8 0LU,54.975932208215000,-4.835306108808430
krait and Viscacha,DG8 0NS,54.880171957419800,-4.798059562082490
diamondback and worm lizard,DG8 0PL,54.877918091316000,-4.811951003740590
lizard and Cuscus,DG8 0PU,54.880714768007700,-4.802587788000840
mud turtle and Civet,DG8 0QA,54.878777174561400,-4.812509798509830
crocodile and tiger snake,DG8 0QF,54.879181590699300,-4.810963216483690
Magpie and Fox,DG8 6RU,55.008639107723500,-4.639590943453080
Petrel and chameleon,DG9 8BD,54.907147480060100,-5.006921307394590
blindworm and asp,DG9 8HG,54.908239000000000,-5.004272000000000
garter snake and Quetzal,DG9 8NE,54.873772000000000,-5.011418000000000
chameleon and cobra de capello,DG9 8NU,54.898556788261500,-4.989276451052740
Guillemot and Meadowlark,DG9 8SE,54.897898704127200,-4.955937769721750
anole and Wallaby,DG9 9AL,54.867001028936800,-4.999082206892220
Fox and crocodile,DG9 9EU,54.861402109549000,-4.959078685858360
