name,postcode,lat,lon
Stint and Mouse,DG8 0AN,54.942933434050500,-4.850909382805840
tuatara and python,DG8 0AP,54.944930710835700,-4.854674080643710
death adder and Mole,DG8 0BT,54.895763000000000,-4.550656000000000
Herring gull and anole,DG8 0DN,54.908401000000000,-4.689457000000000
ringhals and Tahr,DG8 0JN,54.854599332360800,-4.798282241484090
jew lizard and gaboon viper,DG8 0PW,54.878637291582000,-4.811174766508320
boa and Snipe,DG8 6AJ,54.959916864892100,-4.475112597755380
whip snake and Mink,DG8 6DN,54.966242371396400,-4.488016669368800
Warbler and Chipmunk,DG8 6DQ,54.964054000000000,-4.486069000000000
Wallaby and brown snake,DG8 6EU,54.955802738244000,-4.485981038630450
box turtle and viper,DG8 6JH,54.956613125061500,-4.487671239328210
Peafowl and Pitohui,DG8 6JJ,54.956721741768500,-4.486756348263680
harlequin snake and Zebra,DG8 6JX,54.954071342612000,-4.483171938820240
Kite and thorny devil,DG8 6LP,54.954613373076700,-4.494014155570410
Moluccan boobook and swift,DG8 6PH,54.962014976827400,-4.482865419189610
Mink and diamondback terrapin,DG8 6PR,54.966390388217000,-4.483416691004620
worm lizard and fer-de-lance,DG8 6RA,54.970232064797200,-4.505154847363560
Mink and adder,DG8 6SL,54.974796501542700,-4.495640724440200
leathery turtle and Guillemot,DG8 6SY,55.072314613182300,-4.573099229124580
Kestrel and Maya,KA26 0QG,55.066660141242500,-4.770839480798810
