name,postcode,lat,lon
The Superfood Bowl,BD19 3HS,53.72477900000000,-1.71396500000000
Blend Cafe Bar,BD19 3HW,53.72413300000000,-1.71444000000000
The Surf Shack  Cleckheaton,BD19 3JD,53.72472300000000,-1.71305600000000
Millers Coffee House/Tea At Three,BD19 3RT,53.72376000000000,-1.71250200000000
Aldo's Restaurant,BD19 3RU,53.72344400000000,-1.71218600000000
The Bull's Head,BD19 4HX,53.72274398803710,-1.68444299697876
The Wheatsheaf,BD19 4JQ,53.72343100000000,-1.69247000000000
Sam's Gin Bar,BD19 5AE,53.7246,-1.7136
The taste coffee shop ltd,BD19 5AE,53.72457100000000,-1.71358800000000
Marsh Hotel,BD19 5BJ,53.72129800000000,-1.70918500000000
Tappinos Limited,BD19 5ET,53.7230,-1.7146
The Rose and Crown,BD19 5ET,53.72302800000000,-1.71456800000000
Ribbon Tree Communitea Room,BD19 5EY,53.72305000000000,-1.71662900000000
DM's Diner,BD19 5LY,53.71800000000000,-1.70201000000000
Pizza Hut Restaurant,HD1 1BA,53.64722000000000,-1.78232200000000
heavenly desserts,HD1 1BG,53.64786480000000,-1.78251640000000
pepes peri peri,HD1 1BG,53.64773860000000,-1.78235070000000
AIS Ko LTD,HD1 1BR,53.6473,-1.7828
Nandos,HD1 1BR,53.64729300000000,-1.78282100000000
icestone gelato,HD1 1BR,53.64719510000000,-1.78271880000000
Keys Kitchen and Coffee House,HD1 1BU,53.64736100000000,-1.78074800000000
Zephyr Bar And Kitchen,HD1 1BX,53.64731800000000,-1.78173200000000
Coffeevolution,HD1 1DD,53.64757900000000,-1.78212400000000
Meson la Pepa ,HD1 1DG,53.64757650000000,-1.78217000000000
TJ THAI JAPANESE RESTAURANT,HD1 1DG,53.64767490000000,-1.78192740000000
Lost property coffee shop and kitchen ,HD1 1EH,53.64900100000000,-1.78294800000000
hotplate (Yorkshire) Ltd t/a chilli lounge ,HD1 1EH,53.64900100000000,-1.78294800000000
EPHESUS RESTAURANT ,HD1 1ER,53.64830800000000,-1.78246800000000
Botafogo ,HD1 1ES,53.64825150000000,-1.78266570000000
LALA'S RESTAURANT,HD1 1EX,53.64794000000000,-1.78318000000000
The Head of Steam,HD1 1JB,53.6484,-1.7845
Arcade Coffee and Food,HD1 1ND,53.64717700000000,-1.78320000000000
MED-ONE LTD,HD1 1NN,53.64710400000000,-1.78315400000000
Nawaab,HD1 1NY,53.64683900000000,-1.78519800000000
Mc Noodle King,HD1 1QH,53.64674200000000,-1.78143200000000
Merrie England Coffee Shops Ltd,HD1 1QH,53.64674200000000,-1.78143200000000
McDonald's Restaurant,HD1 1QJ,53.64704630000000,-1.78221810000000
McDonalds,HD1 1QJ,53.64704630000000,-1.78221810000000
Parish,HD1 1QQ,53.64693800000000,-1.78049300000000
SAN VITO ITALIAN RESTAURANT,HD1 1QT,53.64727800000000,-1.77947800000000
Cafe Ollo,HD1 1RL,53.64914100000000,-1.78092000000000
Subway,HD1 2AN,53.64664500000000,-1.78271800000000
KFC NEW STREET 02022,HD1 2AX,53.64610500000000,-1.78225200000000
Kfc,HD1 2AX,53.64610500000000,-1.78225200000000
Costa Coffee,HD1 2BU,53.64543151855470,-1.78331494331360
Merrie England Coffee Shops Ltd,HD1 2BW,53.6448,-1.7834
Hart Bar,HD1 2DX,53.64588980000000,-1.78388800000000
WIMPY,HD1 2DX,53.64581100000000,-1.78350900000000
Coffee Cup,HD1 2EG,53.64611390000000,-1.78355410000000
CAFFE VENECIA LIMITED,HD1 2HL,53.64520100000000,-1.78448100000000
cafe express,HD1 2JL,53.64634500000000,-1.78557900000000
ALSHAM PASTRY,HD1 2JY,53.64532900000000,-1.78570500000000
Koffee,HD1 2LR,53.6449,-1.7846
chickenhut (hudd) LTD,HD1 2PT,53.6466,-1.7805
88 NOODLE BAR,HD1 2PY,53.64634500000000,-1.78092000000000
Chicken Village,HD1 2PY,53.6463,-1.7809
Chicken village ,HD1 2PY,53.6463,-1.7809
Dixy Chicken,HD1 2PY,53.64634500000000,-1.78092000000000
Grillish,HD1 2PY,53.64604600000000,-1.78077100000000
Malaika Huddersfield Ltd,HD1 2PY,53.64634500000000,-1.78092000000000
Cafe Mandalay,HD1 2PZ,53.64592200000000,-1.78077000000000
Patisserie Valerie,HD1 2PZ,53.64592200000000,-1.78077000000000
The Chinese Buffet,HD1 2PZ,53.64592200000000,-1.78077000000000
Bagel Nash Huddersfield,HD1 2QB,53.64603800000000,-1.77998400000000
Costa Coffee,HD1 2QB,53.64603800000000,-1.77998400000000
Eat Like a Greek,HD1 2QB,53.6459,-1.7791
Kingsgate Shopping Centre ,HD1 2QB,53.6459,-1.7791
Little Lotus Huddersfield,HD1 2QB,53.64603800000000,-1.77998400000000
Caffe Nero,HD1 2QD,53.64596100000000,-1.78228300000000
Choosy's Tea & Coffee House,HD1 2QD,53.64596100000000,-1.78228300000000
Northern Tea House,HD1 2QT,53.64552500000000,-1.77981900000000
Burger King,HD1 2RT,53.64629200000000,-1.78144900000000
Escale Kaffeine Ltd,HD1 2RT,53.6463,-1.7814
Merrie England Coffee Shops Ltd,HD1 2RT,53.64629300000000,-1.78145000000000
Peters fashions limited,HD1 2RT,53.64629300000000,-1.78145000000000
Humpit ,HD1 2SP,53.64453887939450,-1.78011202812195
Pan Asian Street Food,HD1 2SQ,53.64540863037110,-1.78028905391693
Rockcafe,HD1 2SX,53.64457700000000,-1.78221500000000
The People's Meeple Board Game Cafe,HD1 2TW,53.64387800000000,-1.78327700000000
Wrapik Fast Food,HD1 2UJ,53.6435,-1.7815
Snootys pizza bar ,HD1 3AJ,53.64378000000000,-1.77403500000000
MANJAROS,HD1 3BB,53.64020530000000,-1.78058800000000
Jerk House ,HD1 3JA,53.64206500000000,-1.79499300000000
Eat in ,HD1 3JQ,53.6397,-1.7974
Centre Coffee Shop,HD1 3LG,53.63991400000000,-1.79355200000000
Mecca Bingo,HD1 3LT,53.64001400000000,-1.78865100000000
PINOS,HD1 3TG,53.63392000000000,-1.79432200000000
H&Z FOOD LTD /TRADE AS  QFC,HD1 4DA,53.64685000000000,-1.78666600000000
KABANA1 LTD ,HD1 4DN,53.64772900000000,-1.79059400000000
The Peppercorn,HD1 4DN,53.64772800000000,-1.79059400000000
CHAIIWALA (HUDDERSFIELD),HD1 4EN,53.6470,-1.7898
Cafe In The Park,HD1 4HS,53.64920000000000,-1.79961900000000
Marsh Cafe,HD1 4LE,53.65169560000000,-1.80461540000000
Playworld Huddersfield Ltd,HD1 4LF,53.65152200000000,-1.80726300000000
The Croppers Arms,HD1 4LF,53.65152300000000,-1.80726300000000
KFC MARSH 02004,HD1 4LG,53.65128130000000,-1.80596600000000
Kfc,HD1 4LG,53.65128130000000,-1.80596600000000
MARHABA,HD1 5AY,53.6504,-1.7842
Thai Sakon Restaurant,HD1 5AY,53.65065700000000,-1.78436200000000
The Scullery kitchen and bar Ltd,HD1 5BZ,53.65119940000000,-1.78758630000000
Cafe Pausa  Dunelm Store,HD1 5DG,53.65470886230470,-1.78417599201202
Peppers Grill and Pizza Bar,HD1 5EY,53.65772010000000,-1.79003140000000
Mother Hubbards ,HD1 6DZ,53.65523510000000,-1.78256940000000
Saim's Restaurant,HD1 6DZ,53.65557900000000,-1.78255200000000
Urban Tarka,HD1 6DZ,53.65611590000000,-1.78251950000000
Barni's,HD1 6EF,53.65694220000000,-1.78216720000000
Shama Balti Ltd,HD1 6LJ,53.65930600000000,-1.78091300000000
HELLO CAKES LIMITED,HD1 6LQ,53.66136932373050,-1.78040397167206
Burger King Unit H1,HD1 6PF,53.65787900000000,-1.76792200000000
Burger King,HD1 6PF,53.65787900000000,-1.76792200000000
Starbucks Huddersfield Leeds Rd Retail Park,HD1 6PF,53.6579,-1.7679
Starbucks Unit J1,HD1 6PF,53.65787900000000,-1.76792200000000
Subway,HD1 6PF,53.65787900000000,-1.76792200000000
Costa Coffee,HD1 6PG,53.65465500000000,-1.76893900000000
Pizza Hut Restaurant,HD1 6PG,53.65465500000000,-1.76893900000000
Elior,HD1 6RA,53.64804077148440,-1.77428495883942
GC's Cafe Limited,HD2 1GQ,53.68020400000000,-1.76201700000000
Old post office cafe,HD2 1XE,53.6808,-1.7410
KFC LEEDS RD 02024,HD2 1YJ,53.66079800000000,-1.76156600000000
Kfc,HD2 1YJ,53.66079800000000,-1.76156600000000
McDonalds Restaurants,HD2 1YJ,53.66079800000000,-1.76156600000000
McDonalds,HD2 1YJ,53.66079800000000,-1.76156600000000
Huddersfield Golf Club Limited,HD2 2EP,53.67159200000000,-1.80070800000000
Mumbai spice restaurant,HD2 2LL,53.67121400000000,-1.78000400000000
Compass Group Ltd,HD2 2LQ,53.67249400000000,-1.77719700000000
SHEPHERDS ARMS,HD2 2NB,53.66857200000000,-1.79041600000000
Sharans Deli.com,HD2 2QA,53.6623,-1.7814
The old wire works,HD3 3DZ,53.65466800000000,-1.81835400000000
Costa Coffee,HD3 3EA,53.65549200000000,-1.81635400000000
Raffertys of Lindley,HD3 3HD,53.65343600000000,-1.81773900000000
Home on Lindley Ltd,HD3 3JB,53.65979766845700,-1.82299304008484
Manor House Lindley,HD3 3JB,53.65979766845700,-1.82299304008484
Lindley’s Cafe,HD3 3JF,53.6605,-1.8237
Eric's Restaurant,HD3 3JP,53.66116600000000,-1.82383500000000
AJs Kitchen and Bar,HD3 3JR,53.66183100000000,-1.82449700000000
Bubble&Squeak ,HD3 3JR,53.66183200000000,-1.82449800000000
Lindley Tap Bar and Grill,HD3 3JR,53.66183200000000,-1.82449800000000
Lindleypub company ltd,HD3 3JR,53.6618,-1.8245
Birchencliffe Garden Centre,HD3 3NJ,53.66506300000000,-1.82156300000000
DA SANDRO RESTAURANT,HD3 3NT,53.66615300000000,-1.82308800000000
Cedar Court Hotel Huddersfield,HD3 3RH,53.67048500000000,-1.82889700000000
WAPPY SPRING INN ,HD3 3TD,53.66523900000000,-1.84461200000000
Merrie England Coffee Shops Ltd,HD3 4BU,53.65406500000000,-1.82344100000000
JILL'S CAFE,HD3 4HY,53.64038000000000,-1.82631100000000
thirsty gardener cafe,HD3 4QA,53.64010800000000,-1.83779200000000
Grappolo,HD4 6EJ,53.63281500000000,-1.79455500000000
Flavours trap kitchen ,HD4 6EL,53.63251900000000,-1.79523600000000
The Victoria Hotel ,HD4 6RB,53.62815100000000,-1.77938100000000
Rose & Crown ,HD4 6XU,53.59034600000000,-1.75173500000000
Bulls Head Bistro,HD4 7AE,53.62661900000000,-1.82662400000000
The sands House,HD4 7AE,53.62661900000000,-1.82662400000000
Neil Hirst Contract Catering,HD4 7AF,53.62521900000000,-1.83446200000000
Hinchliffes Partnership LLP ,HD4 7LE,53.61036300659180,-1.80152595043182
LAXMI Restaurant ,HD4 7NE,53.61967700000000,-1.79596400000000
SONS OF THE NORTH LIMITED,HD4 7NR,53.61836100000000,-1.79953700000000
Cardamon Green HD5LTD,HD5 0AL,53.6452,-1.7319
McDonald's Restaurant,HD5 0AN,53.64528400000000,-1.73162700000000
McDonalds,HD5 0BS,53.64594200000000,-1.73265100000000
Blacksmiths Arms,HD5 0PH,53.66398100000000,-1.72089900000000
The Royal & Anicent ,HD5 0RE,53.67538300000000,-1.73464500000000
Royal City Cantoness Restaurant ,HD5 8AA,53.64468300000000,-1.76235300000000
ivy green,HD5 8DE,53.64553300000000,-1.76014000000000
T&Cake,HD5 8RX,53.63388700000000,-1.74866700000000
Bengal Aroma Almondbury Ltd,HD5 8UU,53.63302200000000,-1.74735600000000
The Barn Restaurant,HD5 8XF,53.63103400000000,-1.74714100000000
KFC,HD5 9AB,53.64346000000000,-1.77099700000000
Subway  Molgreen,HD5 9AB,53.64346000000000,-1.77099700000000
Pizza Hut Delivery,HD5 9AN,53.64324100000000,-1.76951600000000
CoffeeBoy,HD5 9BD,53.6424,-1.7644
Mamma Milly’s ,HD5 9XN,53.64452743530270,-1.74783194065094
icicles huddersfield ltd,HD5 9XP,53.64518660000000,-1.73775530000000
The Office,HD6 1AB,53.70207000000000,-1.78005500000000
Merrie England Coffee Shops Ltd,HD6 1AF,53.70209000000000,-1.78070700000000
Villain bar ,HD6 1AQ,53.70228958129880,-1.78141701221466
The Edge cafe and Play Gym,HD6 1AT,53.7031,-1.7825
The Millers Bar,HD6 1EB,53.70145400000000,-1.78187600000000
The Golden Hind,HD6 1EP,53.70027800000000,-1.78306400000000
Richard Oastler (J D Wetherspoons),HD6 1JN,53.70133400000000,-1.78022600000000
Meze Restaurant ,HD6 1JR,53.70103900000000,-1.78104500000000
No.43 The Coffee House,HD6 1JR,53.70103900000000,-1.78104500000000
The Secret Tearooms,HD6 1JR,53.70103900000000,-1.78104500000000
Blakeleys ,HD6 1NE,53.7009,-1.7809
Fratellis Caffe Bar,HD6 1NX,53.70277800000000,-1.77843100000000
Bellini’s Italian Restaurant Limited,HD6 1PD,53.70183100000000,-1.77664800000000
Subway Brighouse,HD6 1PE,53.70214843750000,-1.77422499656677
Jeremys at the boathouse,HD6 1PP,53.69960000000000,-1.77606900000000
Ben & Eddie’s Fish & Chips,HD6 1RW,53.7022,-1.7794
Brook's Restaurant,HD6 1RW,53.70218600000000,-1.77941900000000
Lane Head Hotel,HD6 2AL,53.70474800000000,-1.78979700000000
Bella Pizza,HD6 2DR,53.7063,-1.7865
Crow Nest Park Golf Club Ltd,HD6 2LN,53.71719500000000,-1.79361400000000
The Dusty Miller,HD6 2PB,53.71498100000000,-1.80282200000000
Enchanted wood Cafe,HD6 2QD,53.71067300000000,-1.79610000000000
the sun inn pub rastrick,HD6 3PZ,53.68370600000000,-1.79974300000000
FOUR SONS INN,HD6 3QP,53.68024063110350,-1.79158401489258
Big Shots Cafe,HD6 4AH,53.70892700000000,-1.77973100000000
Thaal,HD6 4AS,53.70954200000000,-1.78112200000000
McDonald's Restaurant,HD6 4BT,53.71794900000000,-1.77835100000000
McDonalds Restaurants Ltd,HD6 4BT,53.71794900000000,-1.77835100000000
Verity's at the Bridge,HD6 4DN,53.72201900000000,-1.77733000000000
Big Baps at J25,HD6 4HA,53.6935,-1.7448
The Black Horse Inn,HD6 4HJ,53.69955825805664,-1.75483453273773
Burger King,HD6 4JX,53.71319500000000,-1.74657400000000
Starbucks (East),HD6 4JX,53.71319500000000,-1.74657400000000
Starbucks (West),HD6 4JX,53.71319500000000,-1.74657400000000
Starbucks Drive Thru,HD6 4JX,53.71319400000000,-1.74657300000000
Welcome Break Petrol Station (East),HD6 4JX,53.71319500000000,-1.74657400000000
Welcome Break Petrol Station (West),HD6 4JX,53.71319500000000,-1.74657400000000
Harveys Bar & Kitchen,HD8 0AS,53.63598600000000,-1.72596900000000
Woodsome Hall Golf Club Ltd,HD8 0LQ,53.62560400000000,-1.72192300000000
315 Bar and Restaurant,HD8 0LX,53.63235000000000,-1.69069700000000
THE WOODMAN INN,HD8 0PX,53.59938200000000,-1.71671600000000
Dearne Lea Tea Room,HD8 8LJ,53.59733800000000,-1.68645000000000
The Three Acres Inn & Restaurant,HD8 8LR,53.60789700000000,-1.67552000000000
The Foresters Arms,HD8 8PH,53.58179800000000,-1.66650600000000
Denby Dale Tea Rooms,HD8 8RT,53.57312900000000,-1.65555000000000
BEANIES BISTRO,HD8 8TH,53.5719,-1.6576
THE GEORGE INN,HD8 8UE,53.56190500000000,-1.65656300000000
Yummy Yorkshire Ltd,HD8 8XY,53.55769600000000,-1.67495300000000
The Coffee Mill and Cakes,HD8 9AA,53.59139300000000,-1.65303260000000
VALENTINOS SCISSETT,HD8 9HR,53.5904,-1.6237
Kirklees Light Railway (The Buffer Stop Cafe),HD8 9XJ,53.59672927856450,-1.61330902576447
The Olive Tree Bistro Cafe,HD9 1AU,53.57045200000000,-1.76358400000000
Harveys Bar & Kitchen,HD9 1HA,53.57010700000000,-1.78566200000000
Sid's Cafe,HD9 1HA,53.57010700000000,-1.78566200000000
The Whippet & Pickle ,HD9 1HA,53.57010650634770,-1.78566205501556
Cafe at Brooklands nurseries,HD9 1UJ,53.56891300000000,-1.76315400000000
Ribbles of Holmfirth,HD9 2DG,53.56924020000000,-1.78842970000000
Lou & Joe's Burger Co ,HD9 2DN,53.56958600000000,-1.78619300000000
The Taphouse,HD9 2DN,53.5696,-1.7863
Bengal Spice (Holmfirth Limited) ,HD9 2DP,53.56904500000000,-1.78501800000000
TENFOURTEEN,HD9 2DP,53.5690,-1.7850
The Boshaw Trout,HD9 2JG,53.54701995849610,-1.77829301357269
Bloc cafe,HD9 2JR,53.56937600000000,-1.78977300000000
Mezze Bar-Restaurant,HD9 2JR,53.56937700000000,-1.78977300000000
Raj of india,HD9 2JR,53.56937700000000,-1.78977300000000
The wrinkled stocking tea room,HD9 2JS,53.56915200000000,-1.78965300000000
farmers arms,HD9 2LR,53.56682900000000,-1.80334500000000
The Ford Inn,HD9 2LS,53.57192230224610,-1.82937002182007
The Pickled Pheasant,HD9 2NQ,53.55782900000000,-1.81878400000000
Catch Holmfirth Limited,HD9 2PR,53.56587200000000,-1.80042000000000
Holmfirth Vineyard Ltd,HD9 2QR,53.5545,-1.8094
TRUEGOAL LTD,HD9 2RD,53.55676800000000,-1.78583500000000
D&E's,HD9 2TH,53.5458,-1.8072
En route cafe,HD9 3JH,53.56991195678710,-1.78835105895996
Shimla Lounge,HD9 3JH,53.56991400000000,-1.78835100000000
Cider Press Café,HD9 3TD,53.58675300000000,-1.79062400000000
Liesl’s Kitchen,HD9 4AP,53.59818200000000,-1.83384200000000
Cafe Plus,HD9 6AA,53.60361800000000,-1.79273200000000
Cafe loom Dixon &franks,HD9 6AA,53.60361862182620,-1.79273200035095
The Gallery Cafe,HD9 6AD,53.60342100000000,-1.79283800000000
SAVARO BAR AND KITCHEN LTD,HD9 6AH,53.60464400000000,-1.79304400000000
The Foresters Arms,HD9 6DW,53.60084600000000,-1.79560100000000
Aneeka Ltd t/a Blue Tiger ,HD9 6EE,53.5983,-1.7975
Jacobs Well,HD9 6PU,53.60334100000000,-1.78800300000000
The Travellers Rest,HD9 7AZ,53.59984300000000,-1.77875800000000
The Old Bridge Inn,HD9 7DA,53.57004500000000,-1.78653800000000
POPPA PICCOLINOS,HD9 7DF,53.56993000000000,-1.78733900000000
Holme Coffee House,HD9 7EQ,53.57171249389650,-1.78589594364166
Song Bird Cafe,HX5 0AB,53.6841,-1.8382
The Fleece Inn ,HX5 0BB,53.68562698364258,-1.84073662757874
Olivers,HX5 0BJ,53.6866,-1.8385
Sunny Gym Soft Play Centre ,HX5 0DF,53.68487000000000,-1.83812000000000
 Golden Dragon Chinese Restaurant (Elland),HX5 0EP,53.68435500000000,-1.83606300000000
Sanam balti house,HX5 0JH,53.68327800000000,-1.83723300000000
Willows Bistro,HX5 0PL,53.68275900000000,-1.84622800000000
Famiglia Halifax Limited,HX5 0PY,53.6844,-1.8409
Baxterstorey Limited,HX5 9HT,53.69321300000000,-1.83316600000000
The Copper Kettle Vintage Tearoom ,S35 7AA,53.50744200000000,-1.56721400000000
THE GREEN DRAGON,S35 7AE,53.50211300000000,-1.56261000000000
The Bridge Inn,S35 7AE,53.50211300000000,-1.56261000000000
Wortley Golf Club,S35 7DF,53.50099100000000,-1.52527800000000
Cafe Creme,S36 6BR,53.52363700000000,-1.63070200000000
SYLHET CINNAMON SPICE LTD,S36 6BZ,53.52567800000000,-1.63107600000000
Vault,S36 6DT,53.52620800000000,-1.63102600000000
Cafe 121,S36 6HF,53.5222,-1.6140
lord nelson,S36 7JA,53.53851400000000,-1.60312600000000
the rose and crown Hoylandswaine ,S36 7JA,53.53851400000000,-1.60312600000000
The Travellers Inn,S36 8YJ,53.52002700000000,-1.58521500000000
The Waggon and Horses  Oxpring,S36 8YQ,53.51411500000000,-1.59374800000000
Cubley Hall,S36 9DF,53.51553500000000,-1.63250600000000
ti amo restaurant ltd,S36 9EF,53.52886100000000,-1.63738500000000
Windmill Coffee Shop,S36 9NY,53.52960200000000,-1.67299600000000
Huntsman Pub,S36 9QW,53.5267,-1.6551
Coffee Boy,S70 1GW,53.55232740000000,-1.47943100000000
Jar Bar,S70 1GW,53.55186500000000,-1.47887350000000
Khao Niew Thai Cafe,S70 1GW,53.55215835571290,-1.47859597206116
MEZE TURKISH KITCHEN,S70 1GW,53.5522,-1.4786
Rajah foods limited ,S70 1GW,53.5522,-1.4786
McDonalds,S70 1LP,53.54928207397460,-1.48097002506256
Albert Street Cafe,S70 1RS,53.55139000000000,-1.47990300000000
Julie and Sue Catering Ltd t/a The Courtyard,S70 1RS,53.5514,-1.4802
Pinocchios Retaurant,S70 1RX,53.55118900000000,-1.47910500000000
Subway,S70 1SD,53.55438100000000,-1.47746600000000
Costa Coffee,S70 1SJ,53.55272200000000,-1.48035400000000
Chilli Restaurant,S70 1SN,53.55117600000000,-1.48053900000000
Grille Steakhouse,S70 1SN,53.5512,-1.4805
PJ CAFE,S70 1SN,53.5512,-1.4805
Pasha ,S70 1SN,53.5512,-1.4805
blackburns cafe,S70 1SN,53.55117700000000,-1.48053900000000
Chennells,S70 1SS,53.55173200000000,-1.48205700000000
Istanbul Kitchen and Bar,S70 1SW,53.55063300000000,-1.48166200000000
Green&Tasty,S70 1TH,53.54994300000000,-1.47587500000000
Bon appetit,S70 1TP,53.54891000000000,-1.47202500000000
Locke park cafe ,S70 1YG,53.54610200000000,-1.47931900000000
Evoo The Barzzeria,S70 2AB,53.55371480000000,-1.48117340000000
Favela Brazilian Grill,S70 2AB,53.55388641357420,-1.48139703273773
The White Bear,S70 2AH,53.5551,-1.4819
Estabulo Bar & Grill,S70 2HG,53.55484100000000,-1.48001100000000
Brasserie Ruelle,S70 2HT,53.55414800000000,-1.47950700000000
The Garrison,S70 2HZ,53.55380100000000,-1.48064200000000
Old George Coffee House,S70 2QE,53.55328200000000,-1.48116200000000
Angelini's ,S70 2QN,53.55347061157230,-1.48067700862885
Aroma Cafe Bar,S70 2QN,53.55347800000000,-1.48057100000000
The Victorian Tea Rooms,S70 2QN,53.55347800000000,-1.48057100000000
8oz Burger Co. Limited T/as Backyard BBQ,S70 2QP,53.5533,-1.4805
Cafe Creme Barnsley,S70 2QP,53.55329800000000,-1.48048300000000
Lemon Tree ,S70 2QT,53.55271100000000,-1.48193900000000
The Pavilion Bar and Kitchen,S70 2RD,53.55348790000000,-1.48694220000000
KFC,S70 2RL,53.55243800000000,-1.48544400000000
Taco Bell,S70 2RL,53.55258178710940,-1.48500502109528
Pieminister Barnsley,S70 2SW,53.5533,-1.4830
Boatmans rest ltd ,S70 4TD,53.52801100000000,-1.45561500000000
The Red Lion Country Inn,S70 5LJ,53.52638900000000,-1.47084100000000
Dunkin Donuts Rockingham,S70 5TW,53.50148391723630,-1.47571897506714
Taco Bell,S70 5TW,53.50148391723630,-1.47571897506714
Travellers inn ,S70 5UX,53.5078,-1.4807
Hadley’s ,S70 6AP,53.54921200000000,-1.48975500000000
puccinis,S70 6HL,53.55227000000000,-1.49433700000000
Shaw Lane Sports Club,S70 6HZ,53.55038700000000,-1.49327200000000
Rob Royd Farm Shop Ltd,S70 6NW,53.53820700000000,-1.49115400000000
Metrodome Leisure Complex,S71 1AN,53.5532,-1.4735
Buzz Bingo,S71 1AY,53.55393600463870,-1.47626495361328
Subway,S71 1JE,53.5575,-1.4702
KFC Wakefield Road,S71 1NG,53.56808200000000,-1.47184600000000
KFC,S71 1NG,53.56808200000000,-1.47184600000000
Barnsley Bowl Ltd,S71 2AZ,53.57340800000000,-1.46285500000000
The Full House ,S71 2NW,53.56309500000000,-1.46017700000000
Ruby's Ice Cream,S71 4QU,53.59795761108400,-1.45370697975159
The Mill of the Black Monks,S71 5QF,53.55292000000000,-1.44048800000000
Your Space Hoyland,S74 9EH,53.50043400000000,-1.44975700000000
Impeccable taste ,S75 1DL,53.5594,-1.4870
The Crown & Anchor,S75 1LL,53.57157400000000,-1.52900400000000
The Royal,S75 1LS,53.57382200000000,-1.52677500000000
Millers Inn,S75 1LX,53.57580100000000,-1.52281100000000
ALAMS LOUNGE,S75 1PL,53.55760100000000,-1.52777100000000
Barnsley Hospice Appeal,S75 2RL,53.5601,-1.5148
The Strafford Arms,S75 3EW,53.53018800000000,-1.51030400000000
Holiday Inn Barnsley,S75 3JT,53.54545900000000,-1.52337800000000
Dil Raj Restaurant,S75 3RF,53.54237200000000,-1.52483100000000
Locked in time antiques and vintage tea rooms ,S75 3RG,53.54163800000000,-1.52343600000000
Curry Mahal,S75 3RN,53.54327700000000,-1.52617900000000
Hotel ibis Styles Barnsley,S75 3TX,53.54932785034180,-1.51784098148346
CANNON HALL FARM LTD ,S75 4AT,53.57102700000000,-1.59024300000000
The Pavilion Cafe (Cawthorne) Ltd,S75 4AT,53.57102700000000,-1.59024300000000
The cherry tree inn,S75 4BE,53.58676800000000,-1.58852000000000
The Spencer Arms,S75 4HL,53.56818000000000,-1.57053500000000
Beatson House Restaurant,S75 4HR,53.56905900000000,-1.57001300000000
rileys at the potting shed,S75 4JU,53.54802700000000,-1.56022000000000
The Bells Bar and Kitchen,S75 4LN,53.54562200000000,-1.56379100000000
The Fairway ,S75 4LS,53.5466,-1.5362
Balti Palace Barnsley Ltd,S75 5HQ,53.58607700000000,-1.53011200000000
The Royal Spice ,S75 5HT,53.58719400000000,-1.52836300000000
Harmans On Site Services Ltd,S75 5JS,53.58999470000000,-1.53924150000000
The Talbot Inn,S75 6AS,53.58600500000000,-1.50553600000000
Appleyards Sandwich Shop Ltd ,S75 6AT,53.58610600000000,-1.50387300000000
tandoori hut restaurant,S75 6DJ,53.58321400000000,-1.48726100000000
Mezzaluna Ristorante,S75 6FW,53.58560300000000,-1.50190000000000
Subway,WF1 1BW,53.68211600000000,-1.50089900000000
Union Bank,WF1 1BW,53.68211600000000,-1.50089900000000
Now Serving ,WF1 1DH,53.68069076538090,-1.50008296966553
Mr Juice Fresh Smoothie Bar,WF1 1DS,53.68185300000000,-1.49608700000000
Bengal Palace,WF1 1ED,53.68055800000000,-1.50253700000000
DUE AMICI YORKS LIMITED T/A DOLCE VITA,WF1 1ED,53.68055800000000,-1.50253700000000
Dolce Vita ,WF1 1ED,53.68055800000000,-1.50253700000000
Lobby 1867,WF1 1EP,53.68173217773440,-1.50231301784515
iris restaurant,WF1 1HA,53.68336600000000,-1.49897600000000
Marmalade on the square ,WF1 1HB,53.6832,-1.4985
Mr and Mrs C’s,WF1 1HB,53.68318557739260,-1.49841797351837
Costa Coffee,WF1 1HD,53.68321800000000,-1.49802400000000
Al's Tea and coffee Shop ,WF1 1HX,53.68242700000000,-1.49377900000000
Harry's Fish & Chip Restaurant,WF1 1HX,53.68242700000000,-1.49377900000000
Sweet Sensation Creamery Limited,WF1 1JG,53.68128300000000,-1.49266060000000
Buzz Bingo,WF1 1JN,53.67976400000000,-1.49945800000000
Holiday Inn Express Wakefield,WF1 1JU,53.68211800000000,-1.49944500000000
Syhiba restaurant ,WF1 1NE,53.68077100000000,-1.49522200000000
Montys,WF1 1PJ,53.68324800000000,-1.49667600000000
Break-Fast,WF1 1PN,53.68360900000000,-1.49699000000000
neptune diner,WF1 1PN,53.68360900000000,-1.49699000000000
Tet resteraunt,WF1 1PQ,53.68287900000000,-1.49861900000000
Trinity Bakehouse & cafe,WF1 1QG,53.68370200000000,-1.49559600000000
Burger King,WF1 1QR,53.68498400000000,-1.49682200000000
Pizza Express,WF1 1QR,53.68396800000000,-1.49678900000000
Starbucks Wakefield Trinity Walk,WF1 1QR,53.68498229980470,-1.49682199954987
Starbucks,WF1 1QR,53.68498229980470,-1.49682199954987
Caffe Nero,WF1 1QS,53.68357200000000,-1.49450700000000
Muffin Break Wakefield,WF1 1QS,53.6843,-1.4962
The Chinese Buffet,WF1 1QS,53.6843,-1.4962
Costa Coffee,WF1 1QU,53.68469800000000,-1.49510000000000
love jacobs ltd,WF1 1QU,53.6848,-1.4947
TRINITY LOUNGE,WF1 1QW,53.68396700000000,-1.49678800000000
CAFE RED,WF1 1TU,53.68065261840820,-1.49281799793243
Duchniak's Polish Restaurant,WF1 1UF,53.67864600000000,-1.49235600000000
POT POT,WF1 1UY,53.68265200000000,-1.50022600000000
Silver Spice Ltd ,WF1 1UY,53.68265200000000,-1.50022600000000
Rooster King,WF1 1XH,53.68248400000000,-1.50086400000000
lala's wakefied,WF1 1XQ,53.68224334716800,-1.50179100036621
the black horse,WF1 1XR,53.68195400000000,-1.50317200000000
R Spice Wakefield Limited,WF1 2AT,53.69845800000000,-1.51665400000000
Baxterstorey,WF1 2DF,53.70095600000000,-1.50765900000000
Starbucks,WF1 2DH,53.68654100000000,-1.50590400000000
Wetherby Whaler,WF1 2DX,53.70974900000000,-1.50189000000000
KRAFT ,WF1 2ED,53.68342208862300,-1.49955296516418
Smokehouse Real BBQ Limited,WF1 2ED,53.68340301513670,-1.49959695339203
The Golden Pineapple,WF1 2ED,53.6834,-1.4996
damelio,WF1 2ED,53.68340400000000,-1.49959700000000
QUBANA ,WF1 2EL,53.68332500000000,-1.50014200000000
Festive Fusion,WF1 2HB,53.68380400000000,-1.50023390000000
Kirklands Hotel,WF1 2LU,53.71279600000000,-1.49968800000000
Capri At The Vine,WF1 2QF,53.69341100000000,-1.50462700000000
Costa Coffee,WF1 2QN,53.68329300000000,-1.50619620000000
The Priory Bar,WF1 2TJ,53.68266200000000,-1.50478300000000
Estabulo Bar & Grill,WF1 2TS,53.68310546875000,-1.50361204147339
Burger King,WF1 2UJ,53.69880000000000,-1.50794100000000
Kashmiri Aroma (Wakefield) LLP,WF1 2UJ,53.69880000000000,-1.50794100000000
Delphi Cafe,WF1 3AN,53.6841,-1.4982
Delphi Restaurant Ltd,WF1 3AN,53.6841,-1.4982
Calder & Hops ,WF1 3AP,53.68421100000000,-1.49907200000000
Sofra Restaurant,WF1 3AS,53.6847,-1.4995
Rustico Italian Restaurant,WF1 3BJ,53.68380700000000,-1.49915300000000
robatary ltd,WF1 3BJ,53.68380700000000,-1.49915300000000
Amaia Restaurant,WF1 3BP,53.68461100000000,-1.50000600000000
Boogie Woogie Bagel Bar,WF1 3BP,53.68455470000000,-1.49992760000000
Felice’s Bella Roma ,WF1 3BP,53.68454700000000,-1.49994600000000
fino pizzeria & cicchetti Ltd,WF1 3BP,53.68454700000000,-1.49994600000000
Corarima LTD,WF1 3BW,53.68401540000000,-1.49989400000000
The Yorkshire Deli & Pizza Bar,WF1 3BX,53.68519210000000,-1.50030140000000
Fryday,WF1 3NA,53.6872,-1.4968
Abduls,WF1 3NR,53.68676900000000,-1.49390900000000
Taste Buds At The Station,WF1 4EL,53.67866897583010,-1.48937499523163
Kashmiri Posh Nosh,WF1 5DY,53.67196100000000,-1.48237000000000
RAJA'S DESI GRILL,WF1 5DY,53.67196100000000,-1.48237000000000
Aagrah Sandal ,WF1 5NX,53.66612000000000,-1.48675500000000
Thornes Lane Cafe,WF1 5RS,53.67446800000000,-1.49709800000000
The Kings Arms,WF1 5SL,53.67611312866210,-1.46205103397369
Woolpack Country Inn,WF12 0LZ,53.65660900000000,-1.66720300000000
Costa Coffee,WF12 8EN,53.68922042846680,-1.62802898883820
Kfc,WF12 8EQ,53.69041300000000,-1.62453600000000
Mecca Bingo,WF12 8EQ,53.69041300000000,-1.62453600000000
Deli Delicious ,WF12 9AU,53.68513488769530,-1.62808299064636
yaadgaar,WF12 9AY,53.6822,-1.6258
Chillichicks,WF12 9PJ,53.6860,-1.6313
The Timepiece,WF13 1DS,53.69243300000000,-1.62962100000000
THE COCOA LOUNGE,WF13 1DT,53.6926,-1.6293
Blazed Wood Fired Pizza,WF13 1DX,53.69297830000000,-1.62948320000000
PFC Dewsbury,WF13 1DX,53.6932,-1.6296
Pops,WF13 1DX,53.69322400000000,-1.62964500000000
Royal King Grill Restaurant,WF13 1JS,53.6903,-1.6310
Costa Coffee,WF13 1NH,53.6904,-1.6287
Cafe Mon Amis,WF13 1QG,53.69257200000000,-1.62786300000000
Subway,WF13 1QH,53.6923,-1.6284
Pizza GoGo,WF13 1QN,53.69266500000000,-1.62881700000000
Fortune Cookie,WF13 2DU,53.69579000000000,-1.63121200000000
TTH Dewsbury LTD,WF13 2DU,53.6958,-1.6312
grilled and filtered,WF13 2DU,53.69579100000000,-1.63121200000000
MOONLIGHT,WF13 2JN,53.69536620000000,-1.63441460000000
cafe express,WF13 3ET,53.67997400000000,-1.65917700000000
Wenjo’s health bar,WF13 3LD,53.67855072021480,-1.66514098644257
chill and chat cafe ,WF13 3NT,53.69408800000000,-1.65695800000000
The Pie Shed,WF13 4DH,53.6982,-1.6511
The Shoulder of Mutton,WF14 0AE,53.68448200000000,-1.69104200000000
spice of bengal restaurant,WF14 0AT,53.68838500000000,-1.69174100000000
Starbucks,WF14 0BY,53.68704100000000,-1.72294300000000
Whitegate Inn,WF14 0DB,53.69047520000000,-1.71285170000000
Capri Mirfield,WF14 0HY,53.68815600000000,-1.69357400000000
Chelle’s Deli Cafe,WF14 0NL,53.69028400000000,-1.69630000000000
Alexander's Bar & Kitchen,WF14 8AB,53.6742,-1.6922
Cafe53 ,WF14 8AB,53.67418500000000,-1.69222300000000
Babyccinos Kinder Cafes Ltd,WF14 8AN,53.6741,-1.6940
RAVELLO CAFE DELI,WF14 8AT,53.67395100000000,-1.69578200000000
Taylors,WF14 8AT,53.6743,-1.6955
The al nawab limited,WF14 8LN,53.67353057861330,-1.69251501560211
Cupushi,WF14 8NR,53.67046370000000,-1.69694400000000
The Sandwich Shop,WF14 8PJ,53.67163800000000,-1.69808400000000
The Pear Tree Inn,WF14 9DL,53.67995800000000,-1.71152900000000
Salvia Restaurant,WF14 9DQ,53.67845800000000,-1.70799600000000
VELVET LOUNGE LIMITED,WF14 9DQ,53.67845800000000,-1.70799600000000
the dusty miller public house and restaurant,WF14 9JJ,53.68240200000000,-1.68610700000000
The Liversedge,WF15 6HX,53.71217000000000,-1.68244600000000
MR T HARRINGTON T/A HEALDS HALL,WF15 6JA,53.71124200000000,-1.68504400000000
The Golden Fish,WF15 7DQ,53.70651100000000,-1.69075900000000
Reids ,WF15 7LE,53.69950800000000,-1.70451800000000
The Star,WF15 7LQ,53.69817400000000,-1.70654200000000
Bennett's Café Bistro,WF15 8AD,53.71078500000000,-1.71433200000000
Gray Ox Inn,WF15 8AL,53.70207330000000,-1.72875930000000
CASA LULI RESTAURANT,WF15 8DU,53.71189900000000,-1.71759800000000
parmars (yorkshire) LTD,WF15 8HU,53.71450424194340,-1.72485303878784
Pizza Hut,WF16 0EN,53.70778100000000,-1.67788900000000
The Gallery,WF16 0EX,53.70653200000000,-1.67491300000000
Crafty Kids ,WF16 0HH,53.70723300000000,-1.67819600000000
Cafe 54,WF16 0HX,53.70734000000000,-1.67433200000000
Samarkand Restaurant ,WF16 0JA,53.70725600000000,-1.67330300000000
Shama Heckmondwike Ltd,WF16 9BJ,53.72105800000000,-1.66877100000000
McDonald's Restaurant,WF16 9RL,53.70852200000000,-1.67615600000000
McDonalds,WF16 9RL,53.70852200000000,-1.67615600000000
Chaiiwala Batley,WF17 5DA,53.71426750000000,-1.63406910000000
K&K GELATO LTD,WF17 5EP,53.7131,-1.6309
icestone gelato,WF17 5EP,53.71311187744140,-1.63090896606445
Yorem Turkish Restaurant Ltd,WF17 5EY,53.71317000000000,-1.63001400000000
Desi Dhaba ,WF17 5HJ,53.71270750000000,-1.62952210000000
brew batley ltd,WF17 5HU,53.71224400000000,-1.63287200000000
Indian Nights,WF17 5JE,53.71201100000000,-1.63325200000000
Mr T's,WF17 5LZ,53.71162730000000,-1.62674470000000
CEYLON DOSA LTD,WF17 5PN,53.71051900000000,-1.62747700000000
Lalas Restaurant ,WF17 5PQ,53.70951880000000,-1.62729270000000
Kake Temptations Yorkshire Ltd ,WF17 5PS,53.70991700000000,-1.62737700000000
tiffin by loonat,WF17 5PW,53.71101120000000,-1.62683770000000
The Corner Cafe,WF17 5RY,53.71501500000000,-1.63377200000000
Dixxi Pizza Bar Ltd ,WF17 5SA,53.71565200000000,-1.63326600000000
Oasis Restaurant ,WF17 6HT,53.7091,-1.6262
Snowcold Creamery ,WF17 6HY,53.70785800000000,-1.62698600000000
Zucchini Restaurant Ltd,WF17 6JD,53.70455300000000,-1.62771200000000
Oaktree cafe,WF17 6JL,53.70290756225590,-1.63012003898621
HSL Manufacturing Limited (Workforce canteen),WF17 6LN,53.70911800000000,-1.61885500000000
Oasis sandwich &Coffee  Bar,WF17 7BA,53.70534800000000,-1.65015500000000
Carr Gate Garden Centre,WF2 0SY,53.71530151367190,-1.53223502635956
BaxterStorey @ WY Met Ambulance,WF2 0XQ,53.70868850000000,-1.51796520000000
The Spring Community Cafe,WF2 6EG,53.66147700000000,-1.48364900000000
THE NEW INN PUBLIC HOUSE (WALTON) LTD,WF2 6LA,53.6494,-1.4636
Whisk Ltd,WF2 6PQ,53.65120000000000,-1.46840300000000
Waterton Park Hotel Ltd,WF2 6PW,53.64353800000000,-1.45558200000000
The Pledwick,WF2 6QE,53.64250600000000,-1.49690400000000
LAKESIDE,WF2 6QG,53.63842900000000,-1.49790500000000
Campanile Wakefield,WF2 7AL,53.66519200000000,-1.50999800000000
Wetherby Whaler,WF2 7AW,53.66382500000000,-1.50530700000000
Rinaldis Restaurant  ,WF2 7JE,53.64938600000000,-1.49783600000000
Elior UK,WF2 7LJ,53.64146800000000,-1.51546100000000
Abduls,WF2 8AU,53.67874600000000,-1.54408500000000
Victoria sandwich ,WF2 8AU,53.67874600000000,-1.54408500000000
Cross lane fisheries ,WF2 8BQ,53.67417900000000,-1.51858200000000
The Queens Arms ,WF2 8ED,53.67060400000000,-1.50366800000000
Mother Hubbards,WF2 8TU,53.67771900000000,-1.51596800000000
Pizza Hut,WF2 8TU,53.67771900000000,-1.51596800000000
McDonalds Restaurant,WF2 9BL,53.67871000000000,-1.51656300000000
coffeeboy,WF2 9BL,53.6788,-1.5163
Ronnies Limited t/a McDonalds 569,WF2 9BY,53.6784,-1.5252
Smokie joes,WF2 9RG,53.68008100000000,-1.50893200000000
KFC,WF2 9SE,53.6780,-1.5026
Mcdonalds Restaurant,WF2 9SE,53.67805100000000,-1.50258200000000
Ronnies Limited t/a McDonalds 668,WF2 9SE,53.67805100000000,-1.50258200000000
Costa Coffee,WF2 9SH,53.67715800000000,-1.50612000000000
KFC,WF2 9SH,53.67715800000000,-1.50612000000000
Mecca Bingo,WF2 9SH,53.67715800000000,-1.50612000000000
Nandos,WF2 9SH,53.67715800000000,-1.50612000000000
Pizza Hut,WF2 9SH,53.67715800000000,-1.50612000000000
Subway,WF2 9SH,53.67715800000000,-1.50612000000000
Beans,WF3 1AE,53.72399700000000,-1.56960200000000
British Oak,WF3 1AF,53.72400600000000,-1.57719500000000
The Hare & Hounds,WF3 1DU,53.71596200000000,-1.57976100000000
Ma B's Kitchen,WF3 4DF,53.7098,-1.4779
NORMANTON GOLF CLUB LIMITED,WF3 4JP,53.70664600000000,-1.48426300000000
Redbeck Motel Ltd,WF4 1RR,53.66465900000000,-1.44744000000000
YOH BURGER (WAKEFIELD),WF4 1RR,53.66478750000000,-1.44635360000000
HAMPSONSPLANTWORLD LTD,WF4 3AZ,53.65412000000000,-1.51920400000000
Kingfisher Fish and Chips,WF4 3DA,53.64714900000000,-1.53852600000000
Blackerhall Farm Shop Limited,WF4 3DN,53.63470000000000,-1.54557300000000
STATION PUB,WF4 3ER,53.63417200000000,-1.54370300000000
Cedar Court Hotel Wakefield,WF4 3QZ,53.64901100000000,-1.53198500000000
Jacks Craft Ale House,WF4 4AL,53.63286800000000,-1.62649800000000
Kaye Arms Bistro,WF4 4BG,53.63711700000000,-1.65583200000000
CINNAMON LOUNGE,WF4 4BP,53.62803649902340,-1.67766404151917
The Sun Inn ,WF4 4DW,53.62979700000000,-1.64521500000000
Burger King,WF4 4LQ,53.62204100000000,-1.54460500000000
Costa Coffee,WF4 4LQ,53.62204100000000,-1.54460500000000
Moto Hospitality Forecourt North,WF4 4LQ,53.62204100000000,-1.54460500000000
Moto Hospitality Forecourt South,WF4 4LQ,53.62204100000000,-1.54460500000000
The Spiced Mango,WF4 4NS,53.65081800000000,-1.59627800000000
SeedRoom,WF4 4RG,53.64909200000000,-1.60994000000000
Reindeer Inn (OVERTON) Ltd,WF4 4RL,53.64457900000000,-1.61492900000000
Shans Restaurant ,WF4 5AB,53.65920000000000,-1.55444900000000
Caffe Capri,WF4 5AG,53.65923800000000,-1.55251200000000
EGO at the Bulls Head,WF4 5AS,53.65636500000000,-1.55349500000000
Nostalgic Kitchen,WF4 5DA,53.65935516357420,-1.55025899410248
The CoffeeStop At The Junction Horbury Ltd,WF4 5FH,53.65311050000000,-1.54017750000000
Bistro 42 Horbury,WF4 5LE,53.6599,-1.5561
The Quarry Restaurant and Grill,WF4 5NF,53.65901184082030,-1.56648099422455
Cinnamon Lounge,WF4 5NN,53.65770700000000,-1.57419600000000
Di bosco (retail) LTD,WF4 5PR,53.65792400000000,-1.57690300000000
Capri Horbury,WF4 5QA,53.65601000000000,-1.57957000000000
Rich and Fancy ,WF4 6LP,53.66017300000000,-1.55513500000000
The Cherry Tree Horbury Limited,WF4 6LT,53.66067400000000,-1.55444900000000
Malagor,WF5 0NH,53.67765900000000,-1.56361000000000
Eller Coffee,WF5 8AD,53.67900100000000,-1.57947700000000
Mama T's,WF5 8AD,53.67900100000000,-1.57947700000000
Elior Uk,WF5 8AQ,53.67817000000000,-1.57574600000000
CINTA Bar & Kitchen,WF5 8BE,53.68004226684570,-1.57936096191406
Harbys Restaurant,WF5 8JX,53.67530500000000,-1.57877200000000
The Brewers Pride,WF5 8ND,53.66789400000000,-1.59039400000000
Bistro 42 Ossett,WF5 8NL,53.67910400000000,-1.58052100000000
Cafe Wellgate,WF5 8NS,53.67945400000000,-1.58041100000000
Gandhi Spice Ltd,WF5 8PS,53.67891400000000,-1.58015900000000
The Oak Pub Limited,WF5 9AU,53.69802880000000,-1.59775230000000
Niko's Greek and Mediterranean Restaurant ,WF5 9DB,53.68108700000000,-1.57953200000000
The Mews Hotel,WF5 9HN,53.68375900000000,-1.57765800000000
