name,postcode,lat,lon
Ice seal and Parrotbill,LD2 3AD,52.148359519820900,-3.403181860253100
Civet and diamondback terrapin,LD2 3AL,52.148565882090200,-3.405483000109080
Armadillo and bicycle lizard,LD2 3BB,52.148489000000000,-3.402115042210060
python and Pitohui,LD2 3BD,52.149183000000000,-3.402821000000000
Solitaire and snake,LD2 3BJ,52.038607964834700,-3.371529987056200
Cuscus and monitor,LD2 3ES,52.149779188133200,-3.395684649900930
rattlesnake and gopher snake,LD2 3EZ,52.078710240492900,-3.319437483020770
Stint and Schneider python,LD2 3HD,52.131070000000000,-3.420521000000000
flying dragon and elapid,LD2 3LA,52.113322179685400,-3.429274024153150
flying lizard and blind snake,LD2 3YJ,52.100727805226000,-3.313152382803510
caiman and ringhals,LD2 3YW,52.138050377437400,-3.377710276991540
Towhee and whip snake,LD3 0HF,51.997859924271500,-3.235006625729550
Condor and Mouse,LD3 0HP,52.005877757118200,-3.248018815931160
Chickadee and Stint,LD3 0LG,52.007585000000000,-3.246507000000000
loggerhead and Chipmunk,LD3 0LL,52.012474148456100,-3.238949823116330
king snake and Diving bird,LD3 0PG,51.994791468970100,-3.234383255836800
asp and Night heron,LD3 0PY,51.983653000000000,-3.254754000000000
sand viper and leathery turtle,LD3 0RN,51.977522177399100,-3.297665183277270
Cuscus and B,LD3 7BA,51.947663642124500,-3.389676219135740
cycling lizard and Chipmunk,LD3 7DG,51.947249825164700,-3.391976879512160
crocodile and blind snake,LD3 7EE,51.945826000000000,-3.384716000000000
blue racer and slowworm,LD3 7LF,51.948358975745300,-3.391705671944180
Thrasher and frilled lizard,LD3 7LH,51.948623586341100,-3.391379204571760
Duck and puff adder,LD3 7LS,51.949848205640300,-3.391227955683620
Pratincole and boomslang,LD3 7LW,51.950696303222300,-3.390221078213560
rattlesnake and blindworm,LD3 7NB,51.950107436065900,-3.390480000000000
wall lizard and hoop snake,LD3 7NH,51.949890102402500,-3.387678837144900
Coati and Skunk,LD3 7PJ,51.925851835836600,-3.275203102119030
gaboon viper and boa constrictor,LD3 7SY,51.935927966667000,-3.300144676316960
Pratincole and chameleon,LD3 7TE,51.939527838461400,-3.290036502639730
blue racer and saltwater crocodile,LD3 7TX,51.946620632209200,-3.294255770624490
deaf adder and whip snake,LD3 7UE,51.940467786756800,-3.252123159574260
Stilt and Grackle,LD3 7YB,51.929218000000000,-3.323061000000000
frill-necked lizard and Scimitar babbler,LD3 8AD,51.946201597612100,-3.393937725803100
gavial and anaconda,LD3 8DD,51.945785046069300,-3.403265630409050
turtle and frilled lizard,LD3 8EB,51.944901002360000,-3.400488217241450
leguaan and Kite,LD3 8HF,51.955912343610300,-3.531415021179520
diamond snake and Grackle,LD3 8HG,51.958049705926300,-3.537134728718340
Lemming and Flameback,LD3 8NS,51.939104863059400,-3.460141338305620
Mouse and Bronzewing pigeon,LD3 8PS,51.944399000000000,-3.574800817930490
blue tongue and Warbler,LD3 8PW,51.945727391797200,-3.571472752299710
swift and iguana,LD3 8RY,51.942770000000000,-3.566103000000000
Grosbeak and Dorcopsis,LD3 8SG,51.936711582554500,-3.563840536033240
rat snake and Coati,LD3 8TD,51.936355734464400,-3.527955883900530
boa constrictor and tree snake,LD3 8TW,51.949890000000000,-3.565507000000000
habu and Zebra,LD3 8UR,51.942640350749800,-3.629865844650660
adder and adder,LD3 9BU,51.948918690407500,-3.392275925218330
moloch and dukite,LD3 9HU,51.954466757650200,-3.397555702665080
bushmaster and saltwater crocodile,LD3 9LA,51.950480332172800,-3.395554643499820
Greenbul and snapping turtle,LD3 9LH,51.952344357970400,-3.399861622722750
Warbler and dukite,LD3 9NA,51.997173000000000,-3.539232000000000
puff adder and blue tongue,LD3 9PD,51.965547455114900,-3.431699455488940
Tit-tyrant and Wader,LD3 9PE,51.961172564130800,-3.423962528594410
Parrotbill and crocodile,LD3 9RG,52.054585000000000,-3.448284000000000
Dolphin and agama,LD3 9RH,52.013057331525100,-3.417101000000000
Warbler and coral snake,LD3 9RR,51.996042576805700,-3.463450151056030
fer-de-lance and Jackal,LD3 9TH,52.007023000000000,-3.353539821459340
leathery turtle and Coati,LD4 4DG,52.106325000000000,-3.564089000000000
Nukupu ªu and bearded dragon,LD5 4RT,52.108446741500900,-3.633584906224140
