name,postcode,lat,lon
Viscacha and Jackal,HR3 5AR,52.074695857578500,-3.121973062929080
copperhead and Stint,HR3 5AY,52.075706910639000,-3.124376816930410
Grouse and king snake,HR3 5BQ,52.075463376614700,-3.124458244646900
alligator and Darwin's finches,HR3 5BW,52.073869256970300,-3.122856965198190
cobra de capello and black snake,HR3 5BX,52.074697378023200,-3.126525518037290
diamondback turtle and Ground sloth,HR3 5EJ,52.070532000000000,-3.125939000000000
Kākāriki and bearded dragon,HR3 5FB,52.084313000000000,-3.148586000000000
thorny devil and goanna,HR3 5JB,52.068372054681300,-3.180272840032470
Snipe and worm lizard,HR3 5JJ,52.090579820457800,-3.181180039207480
Triller and Fox,HR3 5JU,52.079914000000000,-3.168841192486060
Condor and Kestrel,HR3 5PD,52.043550729696300,-3.195132882118690
cerastes and Diving bird,HR3 5PH,52.070058004892900,-3.133090747150990
Minke whale and horned viper,HR3 5PP,52.065289552454700,-3.150125551139880
cobra and Triller,HR3 5PR,52.058360000000000,-3.163760000000000
Quetzal and tiger snake,HR3 5PX,52.051212154013000,-3.138389000000000
snake and skink,HR3 5QA,52.051578740333600,-3.148227505221950
Old World vulture and boa,HR3 5QF,52.043286444222900,-3.161327272870030
Recurvebill and elapid,HR3 5QG,52.042089000000000,-3.170652430140190
Grouse and python,HR3 5RF,52.068426815426600,-3.114638083666420
Peafowl and New World blackbird,HR3 5SA,52.087027612757700,-3.148509836154650
American sparrow and smooth snake,HR3 5SL,52.098115895292100,-3.143641329810220
gecko and python,HR3 6ES,52.123504731778400,-3.095533112139880
Songlark and Macaw,HR3 6ET,52.122158151053800,-3.103986488046750
Perching duck and soft-shelled turtle,HR3 6EU,52.119429509087800,-3.103495485684940
Duck and boa,HR5 3QL,52.137047241834300,-3.186354261565750
Ice seal and Parrotbill,LD2 3AD,52.148359519820900,-3.403181860253100
Civet and diamondback terrapin,LD2 3AL,52.148565882090200,-3.405483000109080
Armadillo and bicycle lizard,LD2 3BB,52.148489000000000,-3.402115042210060
python and Pitohui,LD2 3BD,52.149183000000000,-3.402821000000000
Solitaire and snake,LD2 3BJ,52.038607964834700,-3.371529987056200
Cuscus and monitor,LD2 3ES,52.149779188133200,-3.395684649900930
rattlesnake and gopher snake,LD2 3EZ,52.078710240492900,-3.319437483020770
Stint and Schneider python,LD2 3HD,52.131070000000000,-3.420521000000000
puff adder and Triller,LD2 3JY,52.121109827686100,-3.188676903480960
flying dragon and elapid,LD2 3LA,52.113322179685400,-3.429274024153150
flying lizard and blind snake,LD2 3YJ,52.100727805226000,-3.313152382803510
caiman and ringhals,LD2 3YW,52.138050377437400,-3.377710276991540
amethystine python and Schneider python,LD3 0ET,51.962591468569300,-3.184739870593000
Towhee and whip snake,LD3 0HF,51.997859924271500,-3.235006625729550
Condor and Mouse,LD3 0HP,52.005877757118200,-3.248018815931160
Chickadee and Stint,LD3 0LG,52.007585000000000,-3.246507000000000
loggerhead and Chipmunk,LD3 0LL,52.012474148456100,-3.238949823116330
king snake and Diving bird,LD3 0PG,51.994791468970100,-3.234383255836800
asp and Night heron,LD3 0PY,51.983653000000000,-3.254754000000000
sand viper and leathery turtle,LD3 0RN,51.977522177399100,-3.297665183277270
flying lizard and Condor,LD3 0RS,52.022501740585300,-3.188100671799850
Shearwater and Guillemot,LD3 0SJ,52.032604029953400,-3.204403714940840
Night heron and boa constrictor,LD3 0SP,52.031546000000000,-3.170323000000000
boa constrictor and Crow,LD3 0SR,52.021005180678500,-3.158724231212410
Guillemot and Parrotbill,LD3 0TE,52.027870000000000,-3.186333000000000
Cuscus and B,LD3 7BA,51.947663642124500,-3.389676219135740
cycling lizard and Chipmunk,LD3 7DG,51.947249825164700,-3.391976879512160
crocodile and blind snake,LD3 7EE,51.945826000000000,-3.384716000000000
blue racer and slowworm,LD3 7LF,51.948358975745300,-3.391705671944180
Thrasher and frilled lizard,LD3 7LH,51.948623586341100,-3.391379204571760
Duck and puff adder,LD3 7LS,51.949848205640300,-3.391227955683620
Pratincole and boomslang,LD3 7LW,51.950696303222300,-3.390221078213560
rattlesnake and blindworm,LD3 7NB,51.950107436065900,-3.390480000000000
wall lizard and hoop snake,LD3 7NH,51.949890102402500,-3.387678837144900
Coati and Skunk,LD3 7PJ,51.925851835836600,-3.275203102119030
gaboon viper and boa constrictor,LD3 7SY,51.935927966667000,-3.300144676316960
Pratincole and chameleon,LD3 7TE,51.939527838461400,-3.290036502639730
blue racer and saltwater crocodile,LD3 7TX,51.946620632209200,-3.294255770624490
deaf adder and whip snake,LD3 7UE,51.940467786756800,-3.252123159574260
Stilt and Grackle,LD3 7YB,51.929218000000000,-3.323061000000000
frill-necked lizard and Scimitar babbler,LD3 8AD,51.946201597612100,-3.393937725803100
gavial and anaconda,LD3 8DD,51.945785046069300,-3.403265630409050
turtle and frilled lizard,LD3 8EB,51.944901002360000,-3.400488217241450
Lemming and Flameback,LD3 8NS,51.939104863059400,-3.460141338305620
adder and adder,LD3 9BU,51.948918690407500,-3.392275925218330
moloch and dukite,LD3 9HU,51.954466757650200,-3.397555702665080
bushmaster and saltwater crocodile,LD3 9LA,51.950480332172800,-3.395554643499820
Greenbul and snapping turtle,LD3 9LH,51.952344357970400,-3.399861622722750
puff adder and blue tongue,LD3 9PD,51.965547455114900,-3.431699455488940
Tit-tyrant and Wader,LD3 9PE,51.961172564130800,-3.423962528594410
Parrotbill and crocodile,LD3 9RG,52.054585000000000,-3.448284000000000
Dolphin and agama,LD3 9RH,52.013057331525100,-3.417101000000000
Warbler and coral snake,LD3 9RR,51.996042576805700,-3.463450151056030
fer-de-lance and Jackal,LD3 9TH,52.007023000000000,-3.353539821459340
