name,id,postcode,lat,lon
Logrunners and River dolphin,970506,KW14 8TP,58.594061000000000,-3.394339000000000
Egret and skink,970913,KW14 7EE,58.585698377464700,-3.534680985897350
Puffleg and milk snake,970652,KW14 7QU,58.586187984426900,-3.538056844972300
sea snake and box turtle,970836,KW12 6XF,58.521795000000000,-3.497645534294050
cycling lizard and deaf adder,970802,KW14 8BY,58.594786655679300,-3.517442645228290
perentie and gecko,970855,KW12 6YF,58.510061000000000,-3.487796000000000
skink and bandy-bandy,970792,KW14 8BH,58.596086803607100,-3.522953566837290
smooth snake and saltwater crocodile,970532,KW14 7PF,58.595814709525000,-3.536758829405430
python and chameleon,970976,KW14 7JF,58.595071710191200,-3.526746474464920
Wader and terrapin,971122,KW1 5XL,58.485124024293600,-3.360088351664100
Mole and blue tongue,970884,KW14 7AX,58.571160396234000,-3.548522622770440
Meadowlark and Duck,970515,KW14 8UD,58.589081957391300,-3.382150070050260
smooth snake and constrictor,970743,KW14 7XL,58.571186557514300,-3.547096608238530
Fulmarine petrel and Old World warbler,971306,KW1 4TN,58.547674000000000,-3.312722515521200
horned viper and Maya,970642,KW14 7QG,58.591843131136300,-3.536120082163460
python and Fulmarine petrel,970848,KW12 6XX,58.514744064639700,-3.493710502425660
cayman and Polecat,970444,KW14 8NE,58.591191872178900,-3.514551427342690
Viscacha and rock snake,970800,KW14 8BU,58.593990067902400,-3.517201668888200
Tree warbler and Prion,970514,KW14 8UB,58.588452888393500,-3.380508201872440
galliwasp and Gull,971158,KW1 5XS,58.466778264611200,-3.428209781618650
Badger and mamba,970923,KW14 7EU,58.587996144143900,-3.536329895136440
Shearwater and gavial,971111,KW1 5UL,58.486283598237200,-3.267012210309530
thorny devil and Lemming,970486,KW14 8RD,58.587774505691500,-3.519461350676810
bandy-bandy and Chicken,970500,KW14 8TB,58.575341117451700,-3.331790930986360
Buzzard and tortoise,970744,KW14 7XN,58.553163000000000,-3.546697000000000
Mouse and Chicken,971164,KW1 5YJ,58.471758771274200,-3.302065956836830
Myna and gopher snake,970459,KW14 8PT,58.588213887332100,-3.521802819053200
Grosbeak and bull snake,970484,KW14 8RA,58.588031460455700,-3.521278806472330
Bronzewing pigeon and Meadowlark,970495,KW14 8SW,58.583946000000000,-3.425164000000000
Magpie and Booted eagles,970452,KW14 8NQ,58.591353205862700,-3.513818604270530
galliwasp and habu,970488,KW14 8RF,58.588879160868000,-3.515672898480410
dugite and Francolin,970457,KW14 8PP,58.592231479525100,-3.517796505947630
fer-de-lance and Diving bird,970490,KW14 8SN,58.577366000000000,-3.401499000000000
whip snake and frill-necked lizard,970899,KW14 7DL,58.590101481040700,-3.527751374014570
agama and Linsang,971022,KW14 7NR,58.596955120797100,-3.533780356673990
anaconda and frilled lizard,970897,KW14 7DH,58.592057000000000,-3.525652000000000
