name,postcode,lat,lon
Siskin and tuatara,SA40 9QB,52.076532133464900,-4.157021284164390
Kestrel and frilled lizard,SA40 9ST,52.089167201002200,-4.156959340975880
Minke whale and horned toad,SA44 4EU,52.134888000000000,-4.332418000000000
Thicketbird and Rat,SA44 4PY,52.084851533827300,-4.269887599214020
Snipe and Coati,SA44 4TZ,52.111750534233800,-4.279973590949850
Komodo dragon and Meadowlark,SA44 4UX,52.114654612948100,-4.319164529539710
Maya and Mamo,SA44 4XB,52.135627075772700,-4.298610000000000
giant tortoise and goanna,SA44 5JX,52.091062484715400,-4.366904455147630
adder and bicycle lizard,SA44 5PF,52.102096000000000,-4.411340000000000
gaboon viper and Treepie,SA44 5PP,52.128309248183100,-4.410374108123260
perentie and Parakeet,SA44 5QU,52.099478158216800,-4.429261002293960
Flameback and viper,SA44 5RE,52.099086610234200,-4.414185524476690
hoop snake and Warbler,SA44 6EE,52.141603147399400,-4.444283952421270
cayman and frilled lizard,SA44 6EF,52.141101000000000,-4.453800000000000
bull snake and puff adder,SA44 6EN,52.147105970765000,-4.385941050516480
Tit-tyrant and flying dragon,SA44 6HU,52.134210000000000,-4.390468000000000
black snake and swift,SA44 6LY,52.166666507833500,-4.354976873301480
Nukupu ªu and tortoise,SA44 6NR,52.195021709741900,-4.350344872769040
soft-shelled turtle and Capuchin,SA45 9QA,52.213583514331800,-4.359713141133610
Snipe and Logrunners,SA45 9QB,52.214194632801800,-4.359730905712270
Treepie and Marsh harrier,SA45 9QT,52.209746744663000,-4.354166978071950
Old World warbler and Fox,SA45 9RW,52.186434611022300,-4.381243940796200
Hawaiian honeycreeper and Snipe,SA45 9SG,52.207808471504600,-4.341301000000000
sand lizard and Peafowl,SA45 9SP,52.206814471590300,-4.331573886364590
snapping turtle and horned viper,SA45 9SS,52.199468696043900,-4.326520904479780
horned viper and Warbler,SA45 9TT,52.204417046200000,-4.371053759400000
Thicketbird and Diving bird,SA45 9TY,52.212587751779800,-4.369014426804110
River dolphin and Diving bird,SA46 0DD,52.240669486787800,-4.258103646246760
Gull and coral snake,SA46 0ED,52.233790967683900,-4.256201971657780
Mockingbird and Marmoset,SA46 0EF,52.222225217174800,-4.238367736536180
Jerboa and Wader,SA46 0HE,52.218245329071900,-4.277637554844770
Minke whale and Petrel,SA46 0HH,52.211256310851300,-4.281934767504150
Tree warbler and Ice seal,SA46 0HL,52.205588370428200,-4.294597197975220
sand lizard and Ground sloth,SA46 0HP,52.224237945406300,-4.254970715694600
cobra and Tahr,SA46 0LD,52.230382000000000,-4.220751000000000
Tree warbler and terrapin,SA46 0LU,52.251093326849800,-4.231528842940970
elapid and Coati,SA47 0NL,52.193174470428800,-4.311413651656770
Flameback and rat snake,SA47 0PN,52.166090710024500,-4.307362000000000
Kestrel and Buzzard,SA47 0PS,52.195374759973400,-4.304665057840870
Polecat and alligator,SA47 0QR,52.169358030509400,-4.283986467696880
frilled lizard and Greenbul,SA47 0QT,52.183605214816700,-4.284731391165920
galliwasp and River dolphin,SA48 7AJ,52.110500648657200,-4.077649734410580
Buzzard and mud turtle,SA48 7AS,52.111881144549200,-4.079042000000000
crocodile and hognose snake,SA48 7BU,52.112954977522200,-4.082262297413000
Polecat and water snake,SA48 7BZ,52.110931201879000,-4.081277088502650
hawksbill and box turtle,SA48 7EN,52.114813779925300,-4.084948789633460
Argus and Ice seal,SA48 7HE,52.112917743380300,-4.078258729126800
crocodile and Parrotlet,SA48 7HR,52.113703624277200,-4.073972070947920
Mouse and Coati,SA48 7LW,52.111787515679300,-4.182076725565670
Diving bird and Vole,SA48 7QP,52.156212348161500,-4.228020991554620
thorny devil and boa constrictor,SA48 7RW,52.168694111719600,-4.274139760118700
New World blackbird and Recurvebill,SA48 8AX,52.142885892050800,-4.099179900077520
Prion and racer,SA48 8AZ,52.152307000000000,-4.120001000000000
Chipmunk and Polecat,SA48 8BS,52.118982505153100,-4.083123000000000
loggerhead and Marsh harrier,SA48 8BW,52.167678000000000,-4.100698000000000
Crow and Logrunners,SA48 8DD,52.215845000000000,-4.195153000000000
Maya and blue racer,SA48 8EA,52.085121085508500,-4.085519921406200
Black cockatoo and Asiatic leopard,SA48 8PH,52.176640318018800,-4.108828405688830
Capuchin and Philippine hawk-owl,SA48 8QR,52.223055000000000,-4.070925000000000
Herring gull and tiger snake,SA48 9ZZ,52.239718000000000,-4.266975000000000
massasauga and snake,SY23 5AU,52.282939407954600,-4.176829409051050
lizard and Vulture,SY23 5DA,52.285529054134200,-4.127017128665360
Jerboa and Asiatic leopard,SY23 5EF,52.288995000000000,-4.108326000000000
dukite and whip snake,SY23 5EJ,52.277221424598500,-4.093782339880590
Asiatic leopard and agama,SY23 5HJ,52.283580625058700,-4.175954000000000
Pheasant and Pheasant,SY23 5HZ,52.282259161196600,-4.173731881199850
Vole and Dolphin,SY23 5LR,52.286899378369400,-4.169311045129160
Ground sloth and krait,SY23 5NG,52.244973000000000,-4.144105000000000
Siskin and saltwater crocodile,SY23 5NQ,52.240326000000000,-4.129878000000000
Greenbul and anole,SY23 5NR,52.236666000000000,-4.114178000000000
