name,postcode,lat,lon
Hollys,SA40 9XE,52.0772,-4.2295
Gwarcefel Arms,SA44 4LU,52.0752,-4.2989
Woodlands Clubhouse,SA45 9ST,52.2036,-4.3247
Ambassadors Coffeeshop,SA46 0AD,52.2429,-4.2583
McCowans Vintage Café ,SA46 0AJ,52.2420,-4.2582
The Stubborn Duckling ,SA46 0AJ,52.2420,-4.2582
Cwtch Coffi,SA46 0AP,52.2422,-4.2589
THE CELLAR BAR AND RESTAURANT,SA46 0AS,52.2427,-4.2603
THE NEW CELTIC RESTAURANT,SA46 0AS,52.2427,-4.2603
Zukos,SA46 0AS,52.2425,-4.2600
Harbourmaster,SA46 0BT,52.2432,-4.2626
Summer Grill,SA46 0BU,52.2431,-4.2617
The Hive,SA46 0BU,52.2431,-4.2617
Prince of Wales,SA46 0BY,52.2438,-4.2601
MOODY COW,SA46 0HL,52.2056,-4.2946
Llanina Arms,SA47 0NP,52.1924,-4.3116
Artisans,SA48 7BB,52.1131,-4.0801
The Royal Oak Hotel,SA48 7BB,52.1131,-4.0800
Granny's Kitchen Limited,SA48 7BG,52.1129,-4.0810
The Black Lion Hotel,SA48 7BG,52.1129,-4.0810
Ling di long Chinese restaurant ,SA48 7HG,52.1127,-4.0775
Mulberry Bush Wholefoods,SA48 7HG,52.1127,-4.0775
Nags Head,SA48 7HG,52.1124,-4.0776
The Falcondale hotel & restaurant,SA48 7RX,52.1232,-4.0991
TyGlyn restaurant with rooms,SA48 8DD,52.2159,-4.1952
The National Trust,SA48 8DG,52.2189,-4.2277
White Swan Inn,SY23 5HY,52.2820,-4.1754
Y Talbot,SY25 6JL,52.2198,-3.9332
Cafe Hafan,SY25 6JN,52.2192,-3.9338
Riverbank Café and Farm Shop,SY25 6QS,52.2145,-3.9417
