name,postcode,lat,lon
Triller and hoop snake,SA43 1AH,52.090156441502500,-4.653768023521170
krait and Chickadee,SA43 1HW,52.082803454387100,-4.662790325472900
Warbler and python,SA43 1HX,52.081445771427100,-4.661585539917740
Ground sloth and dugite,SA43 1JY,52.086265317908200,-4.659624390137370
Civet and Jay,SA43 1LD,52.085206695855300,-4.663094045108530
Parakeet and mamba,SA43 1NW,52.082383403972800,-4.661480793806050
Nukupu ªu and leathery turtle,SA43 1PH,52.093944000000000,-4.660154000000000
Fox and Coati,SA43 1PL,52.105687239285800,-4.659349340657970
gaboon viper and chameleon,SA43 1PN,52.102101325759900,-4.671651000000000
Treepie and loggerhead,SA43 1PR,52.117338000000000,-4.682969357611150
anaconda and adder,SA43 1RF,52.101864930810500,-4.614363479728260
Asiatic leopard and Flameback,SA43 1RG,52.100244760102000,-4.614429307110400
Parrotlet and habu,SA43 1SF,52.100449152730100,-4.618588384143910
Civet and Bronzewing pigeon,SA43 2LH,52.079923000000000,-4.624086000000000
puff adder and tiger snake,SA43 3EE,52.081810357514100,-4.680801760063960
Grosbeak and diamondback turtle,SA43 3ET,52.082697457875200,-4.680942533840830
Boto and Argus,SA43 3JG,52.079743250715200,-4.683115345893410
American sparrow and thorny devil,SA43 3JS,52.079655353638700,-4.698771519202580
Lemming and milk snake,SA43 3LP,52.108358000000000,-4.714234000000000
