name,id,postcode,lat,lon
boomslang and king snake,226628,SY25 6EW,52.281207832659900,-3.861208486574810
Asiatic leopard and Chickadee,925789,LD5 4SD,52.114909000000000,-3.629951000000000
Herring gull and pit viper,927173,LD1 6NU,52.264776529161700,-3.524189041664970
Guillemot and sidewinder,226550,SY25 6ER,52.279067000000000,-3.856765000000000
diamondback terrapin and gaboon viper,227014,SY25 6BL,52.285977083560900,-3.860968573261170
krait and diamondback turtle,925486,LD6 5HL,52.286763000000000,-3.546862000000000
gavial and Solitaire,227017,SY25 6BQ,52.282644590700700,-3.861327354391220
Thicketbird and Perching duck,925699,LD4 4AR,52.134673506242000,-3.529795677292560
Flameback and bushmaster,925427,LD6 5AN,52.298736000000000,-3.513770000000000
coral snake and adder,925823,LD5 4UP,52.148241147936500,-3.578244281784250
thorn lizard and Maya,925781,LD5 4RQ,52.107120089100700,-3.634587782690700
Dolphin and Minke whale,925770,LD5 4RA,52.107604692718600,-3.639833237596140
Treepie and horned viper,925788,LD5 4SB,52.123404290717700,-3.624125664508950
Komodo dragon and iguana,925791,LD5 4SF,52.131510585766100,-3.617217611589520
Cloud rat and sand lizard,925485,LD6 5HH,52.293397512616800,-3.526784623938330
Skunk and bearded dragon,925753,LD4 4ED,52.083479000000000,-3.600141000000000
thorny devil and anaconda,926532,LD2 3LU,52.179719392400400,-3.557975357385610
constrictor and agamid,925697,LD4 4AN,52.134984517246800,-3.560943205230180
Grosbeak and Goose,925792,LD5 4SG,52.136466602684800,-3.616432763360920
Thrasher and asp,925805,LD5 4TH,52.109833394619200,-3.649582437735330
Jackal and glass snake,926649,LD2 3PL,52.205691665481100,-3.544556659295360
sea snake and grass snake,411506,SA20 0PE,52.081696459913400,-3.797304106240240
gaboon viper and python,226696,SY25 6PG,52.156158358683700,-3.877914485648810
Elephant and Hawaiian honeycreeper,226542,SY25 6EF,52.280899236329600,-3.863101346762130
