name,postcode,lat,lon
Fresh Fills Cafe,LD1 5BB,52.24175300000000,-3.37925000000000
The Herb Garden Community Cafe Ltd,LD1 5BB,52.24175300000000,-3.37925000000000
Worth your salt,LD1 5DH,52.24048995971680,-3.37878608703613
Hotel Metropole (Llandrindod) Limited,LD1 5DY,52.24010300000000,-3.37732300000000
Powells Bistro,LD1 5EY,52.23920200000000,-3.37830600000000
The Temple Bar,LD1 5HG,52.23819200000000,-3.37856800000000
Lakeside Cafe and Catering,LD1 5HU,52.23847300000000,-3.37680500000000
Highland Moors ,LD1 5ND,52.22828700000000,-3.38518700000000
Fforest Kitchen and Bar,LD1 5RT,52.18110500000000,-3.30857000000000
Hundred House Inn,LD1 5RY,52.18243700000000,-3.29793200000000
Severn Arms Hotel,LD1 5UA,52.26795578002930,-3.29727792739868
llanerch inn,LD1 6BZ,52.24301100000000,-3.38163200000000
The Bell Country Inn,LD1 6DY,52.25232696533203,-3.40367627143860
Cafe Express,LD1 6RE,52.27376900000000,-3.33082100000000
Cosy Corner Restaurant,LD2 3AB,52.14860200000000,-3.40323200000000
Georgie Porgies coffee stop,LD2 3DL,52.14899600000000,-3.40257100000000
Cwtch Cafe Builth Wells Limited,LD2 3DT,52.1495,-3.4008
THE FOUNTAIN INN,LD2 3DT,52.14951200000000,-3.40082000000000
Strand Cafe,LD2 3DW,52.14923400000000,-3.40227200000000
Wheelwright Arms ,LD2 3EQ,52.07863235473633,-3.32096576690674
Builth Wells Golf Club,LD2 3NF,52.15342000000000,-3.41532500000000
Caer Beris Manor Hotel,LD2 3NP,52.14709091186520,-3.41832590103149
The Llanelwedd Arms Hotel,LD2 3SR,52.15206909179688,-3.40199613571167
Builth Wells Burger King,LD2 3SS,52.15266799926760,-3.40180492401123
Neuadd Henllan,LD2 3TA,52.15809631347660,-3.40990400314331
The Elan Hotel,LD6 5AF,52.29972700000000,-3.51148500000000
The Lost ARC Cafe,LD6 5AG,52.29958343505860,-3.51362109184265
The Triangle Inn ,LD6 5AR,52.29830932617190,-3.51514101028442
Elan Valley Hotel (2016) Ltd,LD6 5HN,52.27985200000000,-3.55812700000000
