name,id,postcode,lat,lon
constrictor and Coati,1052268,HR3 5RR,52.087804874244500,-3.147172426755500
cobra de capello and Shearwater,1051600,HR4 8QY,52.171231576714500,-2.888890502897070
Jay and python,925172,LD8 2UN,52.219431501325700,-3.099986002351780
Snipe and whip snake,1052610,HR3 5NA,52.078236145291700,-3.219042224167850
Logrunners and hognose snake,1052041,HR3 6NE,52.158800735529000,-2.974934919426020
constrictor and Condor,1052578,HR3 5JH,52.090751497115400,-3.187358848288960
blue racer and blue racer,1050485,HR6 9PZ,52.237587811033500,-2.833982424453690
puff adder and Mink,1052742,HR2 9LH,52.085129000000000,-2.936375000000000
saltwater crocodile and diamondback,1050523,HR6 9SF,52.244029000000000,-2.820731000000000
loggerhead and Linsang,925394,LD8 2AW,52.272867646918100,-3.005766282655800
Rat and Thrasher,1052403,HR3 6HE,52.125471000000000,-3.088250905366310
moloch and Capuchin,1051142,HR5 3BN,52.203688220860600,-3.027235784332620
Kite and B,1052554,HR3 5EW,52.084952794476800,-3.118377421933300
Snipe and amphisbaena,925504,LD8 2EH,52.295351828459800,-3.021628228631620
turtle and king snake,1051602,HR4 8RA,52.170561000000000,-2.902754000000000
amphisbaena and Wader,1051459,HR4 8JB,52.183161000000000,-2.873581000000000
giant tortoise and Duck,1051180,HR5 3EP,52.189288638081100,-3.098671194006230
Petrel and Stilt,1051216,HR5 3HX,52.209422665058100,-2.976613750843430
Hawk and Old World warbler,1051157,HR5 3DJ,52.203488745884300,-3.028460365428600
iguana and Capuchin,1050834,HR5 3QB,52.152545430462200,-3.094550539657150
saltwater crocodile and Siskin,1051646,HR4 7JN,52.077561975140900,-2.847922287650320
Maya and giant tortoise,925390,LD8 2AR,52.272216938728200,-3.004051486581640
king snake and cobra,1050144,HR6 9TL,52.295328270626300,-2.837179000000000
terrapin and horned toad,1050489,HR6 9QE,52.263328242222200,-2.842773466563640
hawksbill and Goose,925147,LD8 2SQ,52.255373212778500,-3.079896021311770
Black cockatoo and Mockingbird,927000,LD2 3JB,52.121735000000000,-3.186579612275050
Songlark and sand viper,1052473,HR3 5AT,52.076012392161500,-3.124399085631770
gopher snake and tokay,1051687,HR4 8SW,52.158123000000000,-2.872198000000000
Komodo dragon and Masked owl,1051219,HR5 3JA,52.211605988051700,-2.969008000000000
Capuchin and Kite,1052378,HR3 6DP,52.123065644791800,-2.982115343346650
Vole and Tattler,1050225,HR6 9AR,52.217127728532600,-2.856228464020760
green turtle and tuatara,1052564,HR3 5HF,52.101126867496300,-3.080866695747590
king cobra and Mouse,1051299,HR5 3NG,52.207167656847000,-3.039550356613170
galliwasp and Diving bird,1050402,HR6 9HW,52.231082173457400,-2.921010000000000
Rabbit and Logrunners,2654105,LD8 2LJ,52.255984000000000,-2.991144000000000
cerastes and Elephant,1051452,HR4 8HT,52.187833694535300,-2.854100266867160
mountain devil and death adder,1052016,HR4 7BW,52.133745000000000,-2.916590000000000
Puffleg and Pratincole,1052584,HR3 5JT,52.079829000000000,-3.166624000000000
Skunk and Songlark,925506,LD8 2EN,52.298668000000000,-3.024036000000000
gavial and Hawaiian honeycreeper,1050447,HR6 9LY,52.253884000000000,-2.875600000000000
Vole and cycling lizard,1052026,HR3 6LL,52.162731014506500,-2.996292496380800
king snake and turtle,1050401,HR6 9HT,52.248678652051900,-2.923791230386910
iguana and Gila monster,1050829,HR5 3PW,52.182606550632500,-3.134955377272830
Hawaiian honeycreeper and grass snake,1781723,HR6 9DP,52.251919973194900,-2.821814760007320
habu and Mamo,925176,LD8 2YT,52.269998371217100,-3.002068000000000
blindworm and Bunting,925140,LD8 2SF,52.254952178851600,-3.077761526011790
soft-shelled turtle and harlequin snake,927016,LD2 3JY,52.121109827686100,-3.188676903480960
Partridge and skink,925031,LD8 2LD,52.265726723707100,-2.996504768063140
Grouse and Jerboa,1050930,HR5 3RB,52.206751344126900,-3.018907000000000
blind snake and slowworm,1050423,HR6 9LB,52.242985214010200,-2.900839858252550
Kite and box turtle,1050365,HR6 9DX,52.217933017957200,-2.896687947526930
jew lizard and bandy-bandy,1051690,HR4 8SZ,52.157002902680100,-2.869106916294530
tortoise and puff adder,1052035,HR3 6LX,52.140256000000000,-3.025571000000000
Chicken and River dolphin,1051592,HR4 8QP,52.146179000000000,-2.882360359947800
Boto and diamondback terrapin,1051591,HR4 8QN,52.131203041822100,-2.899795432955010
Argus and Pheasant,1050947,HR5 3RZ,52.219519872713100,-3.013841053433350
Recurvebill and Ground sloth,925400,LD8 2BG,52.275744512718400,-3.009993979522130
Quetzal and asp,2642222,HR3 5FF,52.078431000000000,-3.122394000000000
Chipmunk and Tahr,1052401,HR3 6EZ,52.121625039451000,-3.079025641140590
amethystine python and Flameback,925510,LD8 2ET,52.280606000000000,-3.014649000000000
Towhee and Ground sloth,925032,LD8 2LE,52.256408099032200,-3.018081150469000
