name,postcode,lat,lon
BLAXHALL VILLAGE INN LTD,IP12 2DY,52.15967700000000,1.45939800000000
Butley Orford Oysterage,IP12 2LH,52.0944,1.5332
The Kings Head,IP12 2LW,52.09496400000000,1.53412100000000
The Oyster Inn ,IP12 3NZ,52.10643000000000,1.45720000000000
Cragg Sisters Tearoom ,IP15 5AB,52.15337700000000,1.60180500000000
Delphine's Diner,IP15 5AB,52.15337700000000,1.60180500000000
regatta restaurant,IP15 5AN,52.15073730000000,1.60077250000000
Prezzo,IP15 5AQ,52.15132700000000,1.60147800000000
The Aldeburgh Market,IP15 5AQ,52.15132700000000,1.60147800000000
The Cross Keys,IP15 5BN,52.15299987792970,1.60211098194122
Waterfall Elior At Aldeburgh Primary School,IP15 5EU,52.14943800000000,1.59824100000000
Aldeburgh Cafe ,IP15 5JD,52.15691500000000,1.59198500000000
Aldeburgh Golf Club,IP15 5PE,52.16239600000000,1.58062400000000
Coffeelink ,IP16 4AE,52.20644600000000,1.57907300000000
Waterfall Elior At Alde Valley Academy,IP16 4BG,52.20322000000000,1.58548900000000
The Dolphin Inn,IP16 4FE,52.18173700000000,1.61473600000000
White Horse Hotel,IP16 4HD,52.2088,1.5748
Sizewell Sports & Social Club,IP16 4JX,52.2065,1.5841
The Kitchen Thorpeness,IP16 4NW,52.17873382568360,1.61446297168732
Alde Valley Foods Ltd,IP16 4PY,52.19360351562500,1.57692801952362
The Theberton Lion,IP16 4RU,52.23632700000000,1.56955300000000
Eels Foot Inn,IP16 4SN,52.23800400000000,1.59074200000000
Sizewell Beach Cafe,IP16 4UH,52.20758500000000,1.62100900000000
The Bell at Sax ,IP17 1AF,52.21475500000000,1.49186800000000
Queenâ€™s head pub&restaurant,IP17 1DF,52.21418200000000,1.49176400000000
Aimes Ltd t/a Costa Coffee Saxmundham,IP17 1EP,52.21338200000000,1.49297500000000
Friday Street Farm Kitchen,IP17 1JX,52.18994300000000,1.47072100000000
the golden key,IP17 1SA,52.1717,1.5101
Snape Maltings Concert Hall,IP17 1SP,52.16400300000000,1.49567100000000
THE PLOUGH AND SAIL,IP17 1SR,52.16375100000000,1.49626500000000
The Butchers Arms,IP17 1UQ,52.19342800000000,1.56281900000000
Waterfall Elior At Coldfair Green Primary School,IP17 1UY,52.19114800000000,1.56446600000000
Waterfall Elior At Saxmundham Primary School,IP17 1XQ,52.21886100000000,1.48470600000000
Waterfall Elior At Kelsale CEVC Primary School,IP17 2NP,52.22691400000000,1.49009800000000
The Westleton Crown,IP17 3AD,52.26513600000000,1.57551900000000
Westleton Village Stores Limited ,IP17 3AD,52.2651,1.5755
The White Horse Inn,IP17 3AH,52.26696400000000,1.57427400000000
The National Trust,IP17 3DJ,52.25271500000000,1.62706100000000
The 12 Lost Churches,IP17 3DQ,52.26222991943360,1.62566900253296
The Ship at Dunwich,IP17 3DT,52.27747600000000,1.63062400000000
The Yurt Cafe Organics,IP17 3EF,52.2837,1.5937
flora tea rooms limited,IP17 3EN,52.27839500000000,1.63289900000000
Bell Inn,IP17 3NN,52.25507000000000,1.55800000000000
The Fox Inn,IP17 3QE,52.27622600000000,1.53677700000000
High Lodge Leisure Ltd,IP17 3QT,52.29062700000000,1.54960100000000
