name,postcode,lat,lon
sandisons,AB56 1AE,57.6766,-2.9634
The Old Coach House,AB56 1AR,57.6747,-2.9636
Le Cafe Coull,AB56 1BN,57.6757,-2.9666
Louis Fish & Chips Ltd,AB56 1BN,57.6757,-2.9666
Time Restaurant & Cocktail Bar Ltd,AB56 1BN,57.6757,-2.9666
Carlton Bingo Buckie,AB56 1BP,57.6752,-2.9682
Kimibck Catering,AB56 1DU,57.6700,-2.9830
J G Ross,AB56 1ET,57.6772,-2.9623
Badenochs,IV30 1BA,57.6475,-3.3209
The Qismat Tandoori,IV30 1BA,57.6475,-3.3209
Scribbles (Scotland) Ltd,IV30 1BD,57.6481,-3.3180
Pizzeria Toscana,IV30 1BG,57.6480,-3.3170
The Ditsy Teacup,IV30 1BG,57.6480,-3.3170
19 Crepes&Coffee,IV30 1BH,57.6478,-3.3163
Batchen Street Coffee,IV30 1BH,57.6478,-3.3163
Bijou,IV30 1BH,57.6478,-3.3163
Planta Cafe ,IV30 1BH,57.6478,-3.3163
Pattaya Restaurant,IV30 1BU,57.6488,-3.3128
The Pancake Place Ltd,IV30 1BW,57.6484,-3.3154
Cafe Kombucha,IV30 1DJ,57.6483,-3.3193
Subway,IV30 1EA,57.6493,-3.3150
Cobbs Cafe Elgin Library,IV30 1HS,57.6506,-3.3127
KFC,IV30 1HZ,57.6471,-3.2839
McDonald's Restaurant,IV30 1HZ,57.6471,-3.2839
Ada Turkish restaurant,IV30 1JZ,57.6480,-3.3147
Carlton Bingo Elgin,IV30 1JZ,57.6480,-3.3147
Panache Restaurant,IV30 1JZ,57.6480,-3.3147
Spice Tandoori,IV30 1LU,57.6471,-3.3124
The Ashvale Fish Restaurant Ltd,IV30 1LU,57.6471,-3.3124
Sunninghill Hotel Ltd,IV30 1NH,57.6450,-3.3181
Braeside Ltd T/A The Mansefield Hotel,IV30 1NY,57.6462,-3.3207
Laichmoray Hotel,IV30 1QR,57.6442,-3.3077
The Royal Hotel Elgin,IV30 1QW,57.6438,-3.3097
Royal Voluntary Service,IV30 1SN,57.6464,-3.3270
Pinz Bowling,IV30 1XZ,57.6488,-3.2922
Weavers Restaurant,IV30 4AF,57.6512,-3.2988
MILLERS RESTAURANT,IV30 4DE,57.6536,-3.3159
LM Elgin 1 Limited t/a Eight Acres Hotel,IV30 6UL,57.6491,-3.3471
Threaplands garden centre,IV30 8LN,57.6313,-3.2005
Elgin Golf Club,IV30 8SX,57.6298,-3.3138
Spice Tandoori,IV31 6AA,57.7217,-3.2820
Bridge 45,IV31 6DJ,57.7193,-3.2832
Firth Hotel,IV31 6DJ,57.7193,-3.2832
Guidis Pizzeria,IV31 6DJ,57.7193,-3.2832
Salt Cellar,IV31 6DJ,57.7193,-3.2832
The Seafood Restaurant and Grill,IV31 6DP,57.7173,-3.2873
PMP Catering Ltd,IV31 6JU,57.7133,-3.2955
Golf View Hotel,IV31 6QS,57.7206,-3.2968
Moray Golf Club Catering ,IV31 6QS,57.7206,-3.2968
Stotfield Hotel,IV31 6QS,57.7206,-3.2968
The Dunes Complex at Silver Sands Holiday Park,IV31 6SP,57.7215,-3.3408
Twenty Nineteen Coffee,IV31 6SP,57.7215,-3.3408
HarbourLights ,IV31 6TW,57.7235,-3.2798
Gordon Arms Hotel,IV32 7DH,57.6148,-3.0990
the quaich cafe,IV32 7DH,57.6148,-3.0990
Grant Arms Hotel,IV32 7DX,57.6132,-3.0945
Baxters Highland Village,IV32 7LD,57.6227,-3.1088
CHRISTIES FOCHABERS LIMITED,IV32 7PF,57.6106,-3.0880
The Walled Garden Trading Company Limited,IV32 7PQ,57.6202,-3.0860
