name,postcode,lat,lon
death adder and Parrotbill,IV30 1DY,57.648925024758900,-3.309720358212160
Meadowlark and bandy-bandy,IV30 1EU,57.649048609855100,-3.306457468850410
mud turtle and Partridge,IV30 1JP,57.646910563170800,-3.316852269528670
Jackal and Shearwater,IV30 1QU,57.647601431143800,-3.307410752235660
Logrunners and diamond python,IV30 1ST,57.643028274059500,-3.337535482895600
bicycle lizard and Treepie,IV30 1SY,57.642058621309300,-3.333948000000000
goanna and galliwasp,IV30 1UJ,57.643677000000000,-3.298491000000000
Argus and Mole,IV30 4AG,57.652289000000000,-3.298849000000000
amphisbaena and python,IV30 4AZ,57.654198616668000,-3.297442000000000
chameleon and mud turtle,IV30 4BA,57.654593683900900,-3.295747260085030
Partridge and Moluccan boobook,IV30 4DP,57.655546660501400,-3.320383000000000
Marsh harrier and deaf adder,IV30 4GA,57.656724654758500,-3.298186280323710
box turtle and slowworm,IV30 4GH,57.661097243188000,-3.307996934203620
Old World vulture and Vole,IV30 4GY,57.660517574753400,-3.305847433007910
flying dragon and Asiatic leopard,IV30 4JX,57.660687000000000,-3.315474000000000
hoop snake and Jerboa,IV30 5GE,57.700633251273100,-3.474634794133470
gopher snake and Duck,IV30 5PA,57.658854782648200,-3.333928421247160
indigo snake and rock snake,IV30 5QZ,57.706881195179200,-3.360330541568280
Shearwater and Stint,IV30 5RP,57.697727587402900,-3.488023463836060
Masked owl and grass snake,IV30 5RS,57.705146439882300,-3.436840723415430
grass snake and Parrotlet,IV30 5TJ,57.708317194624500,-3.434499195757480
Vole and amphisbaena,IV30 5UA,57.702112000000000,-3.495536000000000
Coati and rock snake,IV30 5UX,57.700959188830600,-3.483642173971230
milk snake and Night heron,IV30 5XB,57.701842425553200,-3.489517922586370
Bronzewing pigeon and diamondback,IV30 5YG,57.685018069440500,-3.456959303615950
Old World warbler and harlequin snake,IV30 6BL,57.635548611039800,-3.306273952773120
Thicketbird and Argus,IV30 6BY,57.637973703064700,-3.306865000000000
Mink and elapid,IV30 6DF,57.646503803386500,-3.291839942307620
Prion and Tit-tyrant,IV30 6DH,57.642130088594800,-3.303109663156890
Skunk and cycling lizard,IV30 6ED,57.634292000000000,-3.307887000000000
mamba and anole,IV30 6EE,57.634913783823900,-3.306718000000000
sidewinder and green turtle,IV30 6HS,57.643578724601200,-3.283560529470150
Chipmunk and Polecat,IV30 6JN,57.639032159134000,-3.310804600974110
caiman and Diving bird,IV30 6JZ,57.640202831531400,-3.281180346025560
perentie and Thicketbird,IV30 6TP,57.642890150954900,-3.283251424226140
tortoise and Grouse,IV30 6WQ,57.639984000000000,-3.309968000000000
alligator and sea snake,IV30 6YQ,57.640067573846700,-3.314041458778890
Ground sloth and gopher snake,IV30 8AE,57.637183000000000,-3.285493000000000
puff adder and dugite,IV30 8AL,57.628998000000000,-3.309268000000000
coral snake and dugite,IV30 8AN,57.629660000000000,-3.310431000000000
terrapin and dukite,IV30 8BE,57.654246000000000,-3.286884000000000
hoop snake and Piping shrike,IV30 8LY,57.636401273751400,-3.225604730833610
Civet and Booted eagles,IV30 8NB,57.661416761305500,-3.250651527746420
Towhee and adder,IV30 8NH,57.653242468807200,-3.225837470073780
Towhee and Siskin,IV30 8RS,57.631530000000000,-3.328973000000000
loggerhead and Thicketbird,IV30 8SA,57.608209535444800,-3.288171144587560
Siskin and caiman,IV30 8SB,57.623803000000000,-3.298870000000000
Rat and Marsh harrier,IV30 9TE,57.648542735551600,-3.311935048850410
flying lizard and blue racer,IV31 6BP,57.723189631698300,-3.292221461104930
River dolphin and milk snake,IV31 6BZ,57.721790230887400,-3.289384569717440
diamond python and flying lizard,IV31 6DF,57.721193000000000,-3.280969000000000
racer and Gila monster,IV31 6DZ,57.716008796149500,-3.289900766718230
Snipe and grass snake,IV31 6EE,57.715451443294300,-3.290820965722350
Hawk and frilled lizard,IV31 6HR,57.713513481751800,-3.288821659140330
sidewinder and Marsh harrier,IV31 6JL,57.717466517656800,-3.283472793947210
Ice seal and Solitaire,IV31 6LD,57.720381997071900,-3.288293590091270
Duck and dugite,IV31 6PD,57.723570940556800,-3.280567000000000
Buzzard and Ibex,IV31 6PL,57.721953798596500,-3.283010482596740
sand lizard and hognose snake,IV31 6RB,57.717981144772100,-3.298430000000000
goanna and Scimitar babbler,IV31 6RD,57.719404481525000,-3.295175530604880
Warbler and Armadillo,IV31 6TQ,57.709050756081000,-3.296551188590910
Schneider python and Polecat,IV31 6UA,57.723137000000000,-3.292885441824730
Meadowlark and dukite,IV36 1AP,57.611369000000000,-3.613867000000000
terrapin and cobra,IV36 1AS,57.611519918208900,-3.614727677622200
snapping turtle and Cuscus,IV36 1AW,57.612394412314000,-3.610263494905690
Wallaby and Capuchin,IV36 1BZ,57.611388870340900,-3.614437297167080
bushmaster and Piping shrike,IV36 1DB,57.611131624813100,-3.610289000000000
goanna and gavial,IV36 1EX,57.607462761825500,-3.625661389617600
Badger and Old World warbler,IV36 1FD,57.613790687792300,-3.587240412690010
Prion and Bronzewing pigeon,IV36 1FE,57.613070845991400,-3.588046017316940
grass snake and Magpie,IV36 1GP,57.610084201571700,-3.621610530460670
Pitohui and Buzzard,IV36 1HA,57.605426728425400,-3.622608111576710
Chipmunk and Magpie,IV36 1JF,57.604236883556600,-3.632680362762650
Zebra and Greenbul,IV36 1LG,57.607277438575200,-3.613485049901290
gecko and Gila monster,IV36 1ND,57.602091966958200,-3.617137782581890
amethystine python and fer-de-lance,IV36 1NJ,57.603648583361000,-3.621156541432880
dugite and king snake,IV36 1PH,57.609337000000000,-3.611869000000000
Kestrel and Piping shrike,IV36 1PJ,57.607953171954200,-3.611924922016960
Skunk and Marmoset,IV36 1QS,57.611349211456200,-3.587786775408990
smooth snake and tortoise,IV36 2JN,57.605577332643500,-3.600940983723640
Boto and box turtle,IV36 2PL,57.594533000000000,-3.627209000000000
asp and cobra de capello,IV36 2QD,57.595809520702800,-3.632420192486370
puff adder and elapid,IV36 3FF,57.635155104169500,-3.562645703815980
adder and White ibis,IV36 3TX,57.635823549866400,-3.571049586370850
Towhee and Mouse,IV36 3YA,57.635364935753600,-3.550711918159440
flying lizard and Mouse,IV36 9AU,57.608458000000000,-3.621855000000000
