name,postcode,lat,lon
Solitaire and Old World quail,AB43 6PP,57.577336370000000,-2.265311370000000
black snake and Gull,AB44 1LU,57.670070770000000,-2.492884072000000
Boto and Quetzal,AB44 1NL,57.667832140000000,-2.491093609000000
sea snake and Kākāriki,AB44 1NT,57.666233990000000,-2.493217525000000
agamid and hognose snake,AB44 1PQ,57.664398810000000,-2.489304034000000
Mockingbird and Condor,AB44 1QA,57.666805120000000,-2.484894475000000
Ibex and Tit-tyrant,AB44 1QJ,57.669690660000000,-2.495913110000000
Parakeet and Kite,AB44 1QQ,57.671477000000000,-2.493842000000000
frill-necked lizard and Grackle,AB44 1RG,57.658468000000000,-2.485236000000000
milk snake and Diving bird,AB44 1RN,57.670224580000000,-2.492367000000000
Meadowlark and Maya,AB44 1RP,57.669596240000000,-2.490178711000000
glass snake and Buzzard,AB44 1SN,57.671861520000000,-2.487409617000000
Viscacha and Komodo dragon,AB44 1TL,57.670332880000000,-2.496877000000000
Komodo dragon and Buzzard,AB44 1TN,57.670751000000000,-2.495791885000000
indigo snake and anole,AB44 1UB,57.669525370000000,-2.499112671000000
Asiatic leopard and python,AB44 1UL,57.667549240000000,-2.503644923000000
Cloud rat and Kite,AB44 1XD,57.665837000000000,-2.500520000000000
flying lizard and anaconda,AB44 1XZ,57.665509590000000,-2.496995807000000
Old World warbler and Jackal,AB45 1AS,57.663426000000000,-2.521273212000000
River dolphin and frill-necked lizard,AB45 1BJ,57.661760030000000,-2.528955882000000
anole and hoop snake,AB45 1EY,57.665895970000000,-2.527993646000000
indigo snake and Meadowlark,AB45 1FP,57.659976750000000,-2.532231455000000
Tahr and kabaragoya,AB45 1FS,57.657364630000000,-2.536064260000000
constrictor and slowworm,AB45 1JE,57.665516480000000,-2.539168142000000
Moluccan boobook and alligator,AB45 1JF,57.666342740000000,-2.539197170000000
death adder and Treepie,AB45 1JJ,57.669433530000000,-2.524157000000000
mamba and goanna,AB45 2EN,57.626559290000000,-2.639404765000000
sidewinder and kabaragoya,AB45 2JD,57.667443520000000,-2.546421405000000
Boto and Ice seal,AB45 2JG,57.668318400000000,-2.537198187000000
carpet snake and Chipmunk,AB45 2LS,57.653552640000000,-2.641019073000000
adder and Recurvebill,AB45 2NJ,57.676296630000000,-2.583424511000000
galliwasp and smooth snake,AB45 2NP,57.677953560000000,-2.580567139000000
mountain devil and Argus,AB45 2NY,57.677755360000000,-2.578736329000000
Grackle and Jerboa,AB45 3AJ,57.650127330000000,-2.589957513000000
Boto and carpet snake,AB45 3BR,57.609705230000000,-2.629217671000000
Marmoset and garter snake,AB45 3ET,57.661980570000000,-2.339086107000000
anole and rock snake,AB45 3HL,57.652201000000000,-2.351461000000000
rat snake and Asiatic leopard,AB45 3HX,57.664655750000000,-2.315394204000000
Macaw and Logrunners,AB45 3LR,57.636192840000000,-2.482593630000000
diamondback and Kite,AB45 3NJ,57.604486000000000,-2.470292000000000
taipan and crocodile,AB45 3RA,57.640665060000000,-2.441079229000000
Grosbeak and tiger snake,AB45 3TA,57.655386230000000,-2.532348538000000
Parrotlet and Schneider python,AB45 3YL,57.669240940000000,-2.338097835000000
blue tongue and leguaan,AB45 3YQ,57.670561460000000,-2.341395834000000
Darwin's finches and Hawk,AB45 3YW,57.671487000000000,-2.337800000000000
rat snake and turtle,AB45 3ZG,57.670344000000000,-2.335426000000000
Shearwater and Bronzewing pigeon,AB53 4JL,57.556167000000000,-2.529680000000000
Thrasher and whip snake,AB53 4JN,57.560960470000000,-2.513202874000000
python and habu,AB53 4NX,57.558002130000000,-2.467754268000000
swift and Cuscus,AB53 5PG,57.570472550000000,-2.418362600000000
dugite and tuatara,AB53 5PU,57.589541000000000,-2.384777000000000
cycling lizard and terrapin,AB53 5QN,57.621659380000000,-2.325166455000000
American sparrow and Armadillo,AB53 5QY,57.565085160000000,-2.425789253000000
amphisbaena and alligator,AB53 5RA,57.569160810000000,-2.444727330000000
cycling lizard and Polecat,AB53 5SA,57.624389000000000,-2.391910000000000
viper and snake,AB53 5TS,57.562473750000000,-2.332209838000000
Francolin and Perching duck,AB53 5TX,57.582375000000000,-2.316053000000000
anole and Kite,AB53 5UG,57.579139890000000,-2.378764620000000
Black cockatoo and Eagle,AB53 5UL,57.574878000000000,-2.349009000000000
green turtle and Mink,AB54 7AA,57.561817000000000,-2.631787000000000
black snake and Stilt,AB54 7PS,57.581921170000000,-2.636564356000000
Parrotbill and Bunting,AB54 7TP,57.561498700000000,-2.628586285000000
Scimitar babbler and Solitaire,AB54 7TX,57.567865460000000,-2.606947430000000
Meadowlark and Capuchin,AB54 7UG,57.564199170000000,-2.623818864000000
Guillemot and mud turtle,AB54 7XR,57.558953580000000,-2.629194219000000
