name,id,postcode,lat,lon
Thicketbird and gecko,891394,LL36 0BU,52.584693574201200,-4.095509992237950
adder and galliwasp,891135,LL36 9NS,52.606719334874500,-4.055680838105180
blue tongue and Komodo dragon,226894,SY24 5HX,52.491086411965500,-4.051254321884300
Chickadee and Mole,891290,LL37 2QH,52.654702676091200,-4.092307718321810
whip snake and Tattler,891285,LL37 2QA,52.663820054992700,-4.087197692755780
harlequin snake and dugite,891142,LL36 9PE,52.606309034108500,-4.052899830808170
rock python and gaboon viper,891414,LL36 0TA,52.582510819731400,-4.094372571944630
anole and Gila monster,891125,LL36 9LY,52.630065000000000,-4.103633000000000
Songlark and tuatara,891396,LL36 0BY,52.582153704009400,-4.093720824092440
diamond snake and Wader,891371,LL36 0AG,52.584230054439200,-4.091723672707240
mud turtle and green turtle,226977,SY24 5NN,52.478176587001700,-4.056468000000000
Petrel and Thrasher,891047,LL36 9LP,52.611827642160800,-4.113821885743820
Prion and cobra de capello,226966,SY24 5LW,52.478368784765000,-4.051987859755390
frill-necked lizard and bearded dragon,891295,LL37 2QQ,52.657770000000000,-4.096764000000000
Eagle and gopher snake,891027,LL36 9HA,52.585919000000000,-4.087695349014100
Piping shrike and rock python,891492,LL36 9BP,52.586665828020700,-4.087308000000000
boomslang and saltwater crocodile,891186,LL36 9TA,52.627969267745000,-4.074039052521360
gopher snake and king snake,891366,LL36 0AA,52.589288231143300,-4.103110915660690
Chicken and Booted eagles,891341,LL35 0RB,52.545486000000000,-4.050261156484740
Goose and horned toad,891510,LL36 9DU,52.586234202275300,-4.086681879292150
saltwater crocodile and diamond snake,891384,LL36 0BB,52.583902787747900,-4.097007451229940
