name,postcode,lat,lon
horned toad and cycling lizard,LL35 0HE,52.544681411948600,-4.046216866217550
Kite and gecko,LL35 0LA,52.546768835902700,-4.044573627144220
Peafowl and Wallaby,LL35 0NF,52.545051376987800,-4.041455632446580
bicycle lizard and iguana,LL35 0RN,52.555342000000000,-3.992205000000000
Rabbit and Polecat,LL36 0AZ,52.585120000000000,-4.095272000000000
White ibis and green turtle,LL36 6AJ,52.588301000000000,-4.081075000000000
Pheasant and Polecat,LL36 9AB,52.586715461016000,-4.089982001103380
milk snake and brown snake,LL36 9AF,52.586177213754000,-4.089912096607000
Mamo and tree snake,LL36 9AL,52.584930146964200,-4.091284641799560
boomslang and bearded lizard,LL36 9AP,52.587803893284600,-4.096057019701530
thorny devil and Fish eagle,LL36 9DQ,52.587776642051500,-4.081563000000000
Lemming and Boto,LL36 9EY,52.583705359641900,-4.088849733054860
Flameback and gopher snake,LL36 9LA,52.584692913065400,-4.083833439711820
Vole and boa,LL36 9PE,52.606309034108500,-4.052899830808170
elapid and Tit-tyrant,LL36 9PU,52.607327823033900,-4.044425645075540
green turtle and gopher snake,LL36 9RW,52.610212716887600,-4.044500989527210
racer and Bronzewing pigeon,LL36 9UG,52.643910000000000,-4.027433000000000
diamondback terrapin and Condor,LL36 9UP,52.629503537415800,-3.990933752270460
snapping turtle and Black cockatoo,LL36 9YN,52.644337044231200,-3.956516257095370
Fish eagle and giant tortoise,LL36 9YT,52.645800527173000,-3.959360615007510
pit viper and Greenbul,SY20 8ND,52.538131548848500,-3.941349315126690
Lemming and thorny devil,SY20 8SY,52.542889678863300,-3.937400578203150
Crow and Thrasher,SY20 9JZ,52.582694816994600,-3.937325670722900
Prion and Bronzewing pigeon,SY24 5AW,52.451713577250900,-4.020931386151180
sea snake and Mink,SY24 5DN,52.479462148132700,-3.921623520297610
snake and Cloud rat,SY24 5HJ,52.490824000000000,-3.973747000000000
Capuchin and Pratincole,SY24 5HY,52.490368903556800,-4.051146000000000
Towhee and viper,SY24 5NS,52.466082181208400,-4.055568000000000
