name,id,postcode,lat,lon
Guillemot and B,230617,SY17 5PU,52.500140821377700,-3.529755378528070
king snake and Jackal,229287,SY21 0JD,52.665320806063900,-3.455946671391650
Mockingbird and water snake,230389,SY18 6LQ,52.455023564228900,-3.497564614204890
Linsang and gecko,230391,SY18 6LS,52.481290000000000,-3.498030000000000
bearded lizard and lizard,230481,SY17 5DY,52.515815858335900,-3.428008040533200
leathery turtle and whip snake,229170,SY21 0AD,52.620612000000000,-3.406097000000000
cobra and copperhead,230798,SY16 4JW,52.474368959284400,-3.367919363599910
cobra and goanna,230531,SY17 5EU,52.517552776482700,-3.428609673380070
tortoise and Boto,230452,SY17 5BB,52.459053286750200,-3.466572020821610
Linsang and Chicken,230623,SY17 5QH,52.506405088663700,-3.514560890621120
jew lizard and anaconda,229518,SY20 9PR,52.640448947804800,-3.716730696846460
Shearwater and copperhead,229230,SY20 8RB,52.561256631973100,-3.754207080924030
chuckwalla and Snipe,230532,SY17 5EW,52.517096726989400,-3.426914780682420
king snake and saltwater crocodile,230415,SY18 6NZ,52.459917150405900,-3.596994144502310
cobra de capello and habu,230075,SY19 7BU,52.515428721436700,-3.638267359358420
Lemming and Mink,229252,SY21 0EF,52.664645882787200,-3.382446275758190
python and Jerboa,230577,SY17 5LH,52.556753000000000,-3.534203000000000
ringhals and elapid,230675,SY16 3QB,52.559725398121400,-3.377993945755720
rattlesnake and Black jay,230573,SY17 5LD,52.555743963917800,-3.529402864449350
constrictor and White ibis,230604,SY17 5NZ,52.540982699757500,-3.441181725423710
B and bearded dragon,230133,SY19 7DG,52.514605538344400,-3.655420351013390
Parakeet and frill-necked lizard,230142,SY19 7DT,52.611489425620200,-3.639340805506470
gopher snake and Kangaroo,230345,SY18 6HF,52.452540547758100,-3.539686606305860
Snipe and whip snake,230461,SY17 5BX,52.483090790769000,-3.435061000000000
giant tortoise and bearded dragon,231015,SY16 3HY,52.554441000000000,-3.377946000000000
horned toad and Viscacha,230702,SY17 5QU,52.522172542287800,-3.502044102395760
taipan and Marmoset,230967,SY16 3DL,52.593551890920900,-3.370655005625630
Armadillo and tuatara,230530,SY17 5ET,52.518893701255500,-3.424025363997910
Linsang and terrapin,230703,SY17 5QX,52.524462016253500,-3.524085261989300
Night heron and Wader,230600,SY17 5NR,52.536595791539100,-3.483339336790950
krait and box turtle,229621,SY20 8LE,52.633337027876700,-3.725407227080780
Argus and Philippine hawk-owl,230538,SY17 5HD,52.521089259002300,-3.420131589105610
skink and Stilt,230140,SY19 7DR,52.597918246064500,-3.649996452248560
dukite and python,230484,SY17 5ED,52.516562119190800,-3.426514280536250
