name,postcode,lat,lon
horned toad and cycling lizard,LL35 0HE,52.544681411948600,-4.046216866217550
Kite and gecko,LL35 0LA,52.546768835902700,-4.044573627144220
Peafowl and Wallaby,LL35 0NF,52.545051376987800,-4.041455632446580
bicycle lizard and iguana,LL35 0RN,52.555342000000000,-3.992205000000000
Rabbit and Polecat,LL36 0AZ,52.585120000000000,-4.095272000000000
White ibis and green turtle,LL36 6AJ,52.588301000000000,-4.081075000000000
Pheasant and Polecat,LL36 9AB,52.586715461016000,-4.089982001103380
milk snake and brown snake,LL36 9AF,52.586177213754000,-4.089912096607000
Mamo and tree snake,LL36 9AL,52.584930146964200,-4.091284641799560
boomslang and bearded lizard,LL36 9AP,52.587803893284600,-4.096057019701530
thorny devil and Fish eagle,LL36 9DQ,52.587776642051500,-4.081563000000000
Lemming and Boto,LL36 9EY,52.583705359641900,-4.088849733054860
Flameback and gopher snake,LL36 9LA,52.584692913065400,-4.083833439711820
Vole and boa,LL36 9PE,52.606309034108500,-4.052899830808170
elapid and Tit-tyrant,LL36 9PU,52.607327823033900,-4.044425645075540
green turtle and gopher snake,LL36 9RW,52.610212716887600,-4.044500989527210
racer and Bronzewing pigeon,LL36 9UG,52.643910000000000,-4.027433000000000
diamondback terrapin and Condor,LL36 9UP,52.629503537415800,-3.990933752270460
snapping turtle and Black cockatoo,LL36 9YN,52.644337044231200,-3.956516257095370
Fish eagle and giant tortoise,LL36 9YT,52.645800527173000,-3.959360615007510
sand lizard and Jerboa,SY20 8BA,52.591292641043300,-3.854084634068310
iguana and caiman,SY20 8DY,52.590614966200200,-3.849125122732060
hognose snake and garter snake,SY20 8HR,52.592115931328000,-3.841083091394560
Ground sloth and Mockingbird,SY20 8JB,52.593151851794100,-3.839221976568640
Minke whale and Capuchin,SY20 8JD,52.591416941464000,-3.849587036581940
Civet and adder,SY20 8NB,52.627952284133400,-3.800846121518260
pit viper and Greenbul,SY20 8ND,52.538131548848500,-3.941349315126690
Condor and black snake,SY20 8NQ,52.592350122096600,-3.822461120770850
Myna and hognose snake,SY20 8NW,52.606537578598300,-3.791253850051440
Badger and Grouse,SY20 8PA,52.588695415914800,-3.841914000702730
Lemming and thorny devil,SY20 8SY,52.542889678863300,-3.937400578203150
tokay and Recurvebill,SY20 9AU,52.629963676703000,-3.854034959730870
Jackal and anole,SY20 9BP,52.662889532694000,-3.857986841260530
Ibex and Marmoset,SY20 9HD,52.641486242333400,-3.842180821230680
Petrel and Kestrel,SY20 9JP,52.600877793538300,-3.855759432371700
Crow and Thrasher,SY20 9JZ,52.582694816994600,-3.937325670722900
Chicken and bandy-bandy,SY20 9RE,52.652935341248200,-3.845412068302860
brown snake and Ground sloth,SY20 9RL,52.656846291969100,-3.838479811285410
anaconda and hawksbill,SY20 9SR,52.654239934061200,-3.842465754505470
White ibis and Magpie,SY20 9SY,52.654348163382100,-3.841287537326950
blue racer and mud turtle,SY20 9TG,52.651908000000000,-3.838686000000000
Prion and Bronzewing pigeon,SY24 5AW,52.451713577250900,-4.020931386151180
sea snake and Mink,SY24 5DN,52.479462148132700,-3.921623520297610
snake and Cloud rat,SY24 5HJ,52.490824000000000,-3.973747000000000
Capuchin and Pratincole,SY24 5HY,52.490368903556800,-4.051146000000000
Towhee and viper,SY24 5NS,52.466082181208400,-4.055568000000000
