name,postcode,lat,lon
Zebra and Darwin's finches,SY17 5LY,52.555719021491000,-3.532720927341670
tokay and Dorcopsis,SY17 5RR,52.497518216584500,-3.590224939997220
saltwater crocodile and ringhals,SY19 7DA,52.609297063670200,-3.628817217692780
Magpie and fer-de-lance,SY19 7DS,52.611630000000000,-3.660969000000000
sand lizard and Jerboa,SY20 8BA,52.591292641043300,-3.854084634068310
iguana and caiman,SY20 8DY,52.590614966200200,-3.849125122732060
hognose snake and garter snake,SY20 8HR,52.592115931328000,-3.841083091394560
Ground sloth and Mockingbird,SY20 8JB,52.593151851794100,-3.839221976568640
Minke whale and Capuchin,SY20 8JD,52.591416941464000,-3.849587036581940
Civet and adder,SY20 8NB,52.627952284133400,-3.800846121518260
Condor and black snake,SY20 8NQ,52.592350122096600,-3.822461120770850
Myna and hognose snake,SY20 8NW,52.606537578598300,-3.791253850051440
Badger and Grouse,SY20 8PA,52.588695415914800,-3.841914000702730
indigo snake and terrapin,SY20 9AB,52.666033509065700,-3.708239451252610
tokay and Recurvebill,SY20 9AU,52.629963676703000,-3.854034959730870
Jackal and anole,SY20 9BP,52.662889532694000,-3.857986841260530
Ibex and Marmoset,SY20 9HD,52.641486242333400,-3.842180821230680
Petrel and Kestrel,SY20 9JP,52.600877793538300,-3.855759432371700
Chicken and bandy-bandy,SY20 9RE,52.652935341248200,-3.845412068302860
brown snake and Ground sloth,SY20 9RL,52.656846291969100,-3.838479811285410
anaconda and hawksbill,SY20 9SR,52.654239934061200,-3.842465754505470
White ibis and Magpie,SY20 9SY,52.654348163382100,-3.841287537326950
blue racer and mud turtle,SY20 9TG,52.651908000000000,-3.838686000000000
