name,postcode,lat,lon
Baxterstorey UK Ltd,B1 1AY,52.4759,-1.9054
The Birmingham Stable,B1 1BE,52.4774,-1.9025
Brewdog Birmingham,B1 1BL,52.4768,-1.9016
Turtle Bay Restaurant,B1 1BL,52.4767,-1.9015
Cherry Reds Cafe Bar,B1 1BN,52.4766,-1.9009
Wilson Vale Catering D L A Offices,B1 1BZ,52.4749,-1.9024
Ibis Birmingham Centre Irving Street,B1 1DH,52.4728,-1.9018
No.1 Chinese Cafe & Takeaway,B1 1EG,52.4750,-1.8994
Compass Group Cafe Delluci,B1 1HQ,52.4787,-1.9069
Compass Group Hospitality Kitchen,B1 1HQ,52.4787,-1.9069
Compass Group Staff Restaurant,B1 1HQ,52.4787,-1.9069
Starbucks Level 7,B1 1HQ,52.4787,-1.9069
Coffee factory ,B1 1LT,52.4755,-1.9005
The Coffee factory ,B1 1LT,52.4755,-1.9005
TRANSYLVANIA LAND LTD,B1 1NH,52.4740,-1.9017
Bonehead Birmingham ,B1 1PU,52.4771,-1.9011
Everyman Cinema Unit 116,B1 1RD,52.4759,-1.9054
Malmaison Birmingham,B1 1RD,52.4759,-1.9054
Caffe Nero,B1 1RF,52.4759,-1.9054
Indico Street Kitchen - Mailbox,B1 1RF,52.4759,-1.9054
Nandos,B1 1RF,52.4759,-1.9054
AC Hotel by Marriott Birmingham,B1 1RL,52.4759,-1.9054
Zizzi,B1 1RL,52.4759,-1.9054
Bardolino's Pizzeria  Bellini & Espresso Bar by Marco Pierre White,B1 1RN,52.4749,-1.9070
JAQK'S,B1 1RN,52.4749,-1.9070
Lane7 Birmingham,B1 1RN,52.4749,-1.9070
Marco Pierre White Steakhouse Bar and Grill Birmingham,B1 1RN,52.4749,-1.9070
Miller & Carter,B1 1RN,52.4750,-1.9070
SHOGUN CUBE LTD,B1 1RN,52.4749,-1.9070
Aluna Leisure Limited,B1 1RQ,52.4759,-1.9054
Pizza Express,B1 1RQ,52.4759,-1.9054
Deli Box ,B1 1RS,52.4752,-1.9062
Rodizio Rico,B1 1RS,52.4751,-1.9053
Noels bar and restaurant ,B1 1SN,52.4755,-1.9075
Cocoa by Ali,B1 1SR,52.4757,-1.9083
Best Meal Deal t/a Waterfront Deli,B1 1SZ,52.4757,-1.9083
Costa Coffee,B1 2AA,52.4799,-1.9149
Restaurant Barajee,B1 2DS,52.4777,-1.9103
Starbucks,B1 2EA,52.4789,-1.9108
The Craft Experience Limited,B1 2EA,52.4789,-1.9108
J D Wetherspoon,B1 2HG,52.4765,-1.9124
Gourmet Burger Kitchen,B1 2HL,52.4781,-1.9125
Pizza Express,B1 2HL,52.4781,-1.9125
The Alchemist Brindley Place,B1 2HL,52.4782,-1.9120
Wagamama,B1 2HL,52.4781,-1.9125
Celebrity Indian Restaurant ,B1 2HP,52.4777,-1.9113
Jurys Inn Birmingham,B1 2HQ,52.4768,-1.9115
Pushkar Cocktail Bar & Dining,B1 2HQ,52.4768,-1.9115
Saimais Ltd,B1 2HS,52.4772,-1.9126
Yorks Cafe at Ikon,B1 2HS,52.4772,-1.9126
Hilton Garden Inn Birmingham  Brindleyplace,B1 2HW,52.4763,-1.9134
Eurest - Compass Group,B1 2HZ,52.4784,-1.9142
Baxterstorey,B1 2JB,52.4780,-1.9136
Caffe Nero,B1 2JB,52.4780,-1.9136
Costa Coffee,B1 2JB,52.4785,-1.9132
Pret a Manger,B1 2JB,52.4780,-1.9136
Pulperia Brindley Place,B1 2JB,52.4780,-1.9136
Zizzi,B1 2JB,52.4780,-1.9136
BISTROT PIERRE - BIRMINGHAM,B1 2JT,52.4775,-1.9105
Tap and Spile,B1 2JT,52.4770,-1.9097
Vietnamese Street Kitchen,B1 2LP,52.4768,-1.9140
Baxterstorey,B1 2ND,52.4801,-1.9075
The Prince of Wales,B1 2NP,52.4798,-1.9133
Ristorante Caffe Gustami ,B1 2PZ,52.4836,-1.9208
The Pig & Tail,B1 3ED,52.4849,-1.9141
1000 Trades,B1 3HE,52.4851,-1.9113
Jojolapa Nepalese Restaurant,B1 3HE,52.4851,-1.9113
Frederick Street Townhouse,B1 3HH,52.4860,-1.9117
The Button Factory,B1 3HH,52.4865,-1.9121
SUBWAY,B1 3HN,52.4862,-1.9127
Prestige Bar & Restaurant Ltd,B1 3RB,52.4841,-1.9173
Fulkoli Mithai Ghor ,B10 0JU,52.4674,-1.8585
Hotel ibis Birmingham Bordesley Circus,B10 0PD,52.4725,-1.8731
Alsalam cafe,B10 0PR,52.4702,-1.8661
Barwaaqo cafe,B10 0QJ,52.4702,-1.8646
McDonald's Small Heath,B10 0RJ,52.4731,-1.8729
Mcdonalds Restaurants Ltd,B10 0RJ,52.4731,-1.8729
AL-URUBA CAFE LIMITED,B10 0SP,52.4708,-1.8619
CHOICE CAFE LTD,B10 0SP,52.4709,-1.8620
MSG BIRMINGHAM LTD,B10 0TH,52.4702,-1.8604
Moka Limited Trading as Chaiiwala,B10 0TH,52.4702,-1.8604
Abu Zayds Grill,B10 0UF,52.4714,-1.8620
BADER RESTAURANT LTD,B10 0UF,52.4712,-1.8620
BUBA JOES,B10 0UF,52.4714,-1.8620
Cedars grill palace ltd,B10 0UF,52.4714,-1.8620
JamJar,B10 0UF,52.4710,-1.8612
M-H.M.Z LTD,B10 0UF,52.4713,-1.8620
ZURBYAN,B10 0UF,52.4714,-1.8620
MOUCHAK STREET,B10 0UN,52.4691,-1.8564
Mishtidesh Ltd,B10 0UN,52.4688,-1.8558
Panshi Restaurant Birmingham Limited,B10 0UN,52.4688,-1.8558
The Ponchokhana ltd ,B10 0UN,52.4688,-1.8558
DERA ,B10 0US,52.4682,-1.8534
NAMAK MANDI AUTHENTIC TASTE OF KPK LTD,B10 0US,52.4682,-1.8536
Shake House Coventry Road,B10 0UT,52.4675,-1.8511
Alam Birmingham Ltd,B10 0XE,52.4720,-1.8635
Bobs Fried Chicken and Pizza Ltd,B10 9SN,52.4703,-1.8569
Mak Halal,B10 9SN,52.4703,-1.8570
Sahara Arabian Grill and Steakhouse Limited,B11 1AJ,52.4649,-1.8769
URUBA RESTAURANT LIMITED,B11 1AJ,52.4653,-1.8770
Al Bulushi Cafe,B11 1AN,52.4662,-1.8774
Cafe Macho LTD,B11 1JP,52.4669,-1.8751
OG’Z,B11 1NP,52.4590,-1.8685
Manjaros,B11 1QT,52.4607,-1.8736
Al Fursan,B11 1RB,52.4629,-1.8763
MARA CADDE LTD,B11 1RD,52.4640,-1.8771
area 51 cafe ltd,B11 3LU,52.4534,-1.8601
SHAHI NAN KABAB ( BIRMINGHAM ) LIMITED,B11 4JY,52.4580,-1.8706
BIG CHICKEN LTD ,B11 4JZ,52.4570,-1.8697
Chicken.com 579 Stratford Road Birmingham,B11 4LS,52.4523,-1.8656
Deepam ltd ta deepalis kitchen,B11 4PB,52.4571,-1.8721
Cafe Pausa  Dunelm,B12 0EB,52.4643,-1.8850
Peelers spuds,B12 0HU,52.4663,-1.8802
Mylahore,B12 0JD,52.4715,-1.8799
The Old Crown ,B12 0LD,52.4748,-1.8836
Cg’s cafe,B12 0NS,52.4719,-1.8825
Tiger Chai Streetfood & Desserts,B12 0SJ,52.4697,-1.8908
Smokin pizza ,B12 0SS,52.4692,-1.8893
Arabesque ,B12 0UD,52.4669,-1.8843
SYRIAN HOUSE RESTAURANT LTD,B12 0YR,52.4653,-1.8920
Alfaisals,B12 8AQ,52.4548,-1.8734
Pizza Land,B12 8AQ,52.4550,-1.8734
Shake House Stoney Lane,B12 8DL,52.4590,-1.8721
Taste of Pakistani ltd,B12 8DP,52.4593,-1.8761
Yaqubs steakhouse ,B12 8ED,52.4586,-1.8730
Chaska & Chai,B12 8JA,52.4589,-1.8765
Roscoes,B12 8JJ,52.4577,-1.8737
AL BADER LOUNGE LTD,B12 8JS,52.4577,-1.8764
Infernoz,B12 8JS,52.4577,-1.8764
Lahore Village ,B12 8JS,52.4569,-1.8764
SHAHD ASIA LTD,B12 8JS,52.4577,-1.8764
Southern fried chicken & pizza ltd,B12 8JS,52.4582,-1.8764
Thaana restaurant ltd,B12 8JS,52.4577,-1.8764
Artisan Desserts,B12 8JT,52.4563,-1.8764
GRILLZ steakhouse ,B12 8JU,52.4553,-1.8769
Shahi Qila Taste Of Lahore Ltd ,B12 8JU,52.4553,-1.8769
ANTEP LOKANTASI LTD,B12 8JY,52.4538,-1.8777
Baskin Robbins,B12 8JY,52.4538,-1.8777
Flamin' Patties,B12 8JY,52.4538,-1.8777
Shawarma Bite,B12 8JY,52.4538,-1.8776
Shinwari dera ltd,B12 8JY,52.4535,-1.8777
alaturka turkish restaurant,B12 8JY,52.4538,-1.8776
Chaiiology,B12 8JZ,52.4523,-1.8784
Chaiiwala Ladypool Road,B12 8JZ,52.4523,-1.8784
Afrikana (Birmingham),B12 8LA,52.4526,-1.8787
Fargo's,B12 8LA,52.4524,-1.8788
Heavenly Desserts  Ladypool Road,B12 8LA,52.4524,-1.8788
Meat Street,B12 8LA,52.4529,-1.8784
RHL Group Ltd T/A Truburger ,B12 8LA,52.4525,-1.8788
Sweet. Ladypool Road,B12 8LA,52.4524,-1.8788
OODLES,B12 8LB,52.4535,-1.8781
LP BIRMINGHAM LTD,B12 8LF,52.4551,-1.8778
DIXY CHICKEN,B12 8LG,52.4562,-1.8767
KAT DESSERTS,B12 8LG,52.4562,-1.8767
KDH EATS,B12 8LG,52.4562,-1.8767
Popular Balti,B12 8LH,52.4582,-1.8769
Eggless Cake Shop Moseley ,B12 9AD,52.4554,-1.8860
German Doner Kebab,B12 9AD,52.4555,-1.8859
 Bayt Al Yemeni,B12 9AH,52.4570,-1.8854
The MIX Community Cafe,B12 9AH,52.4571,-1.8851
dessert king,B12 9LH,52.4584,-1.8962
THE OLD MOSELEY ARMS LTD,B12 9QU,52.4552,-1.8895
Al Qamar restaurant,B12 9TP,52.4585,-1.8889
Tipu Sultan Birmingham,B13 8AA,52.4510,-1.8891
Bierkeller,B15 1AY,52.4749,-1.9140
Dilbar,B15 1AY,52.4749,-1.9140
Pitstop,B15 1AY,52.4752,-1.9138
Five Guys,B15 1DA,52.4744,-1.9147
Park Regis Birmingham,B15 1DT,52.4730,-1.9172
the food hut,B15 1DT,52.4731,-1.9168
Starbucks at Cineworld,B15 1DX,52.4739,-1.9160
Creams Cafe,B15 1EJ,52.4736,-1.9144
The Bulls Head,B15 1EJ,52.4736,-1.9144
Nandos,B15 1ES,52.4742,-1.9148
Khayyam restaurant,B15 1EY,52.4753,-1.9135
LAGHI'S RESTAURANT LTD,B15 1LD,52.4722,-1.9173
La-Pop!,B15 1LD,52.4721,-1.9169
Evrest Compass Group,B15 1LZ,52.4727,-1.9073
Sultan Lounge,B15 1QA,52.4712,-1.9132
Hampton by Hilton Birmingham Broad Street,B15 1SU,52.4752,-1.9138
Sugar Leisure Ltd,B15 1SU,52.4752,-1.9138
Edgbaston Park Hotel and Conference Center Ltd,B15 2RS,52.4553,-1.9277
THE COFFEE HOUSE,B15 2TH,52.4533,-1.9363
Costa Coffee,B15 2TT,52.4514,-1.9301
Edgbaston Priory Club Limited,B15 2UZ,52.4589,-1.9129
Blue Piano,B15 3AA,52.4708,-1.9221
The Boston Tea Party Group Limited,B15 3AA,52.4707,-1.9231
Loki Wines Edgbaston Limited,B15 3AU,52.4702,-1.9226
THE HIGH FIELD TOWN HOUSE,B15 3DP,52.4693,-1.9231
Simpsons Restaurant (Edgbaston),B15 3DU,52.4692,-1.9239
Three Church Road,B15 3SH,52.4666,-1.9217
Edgbaston Golf Club,B15 3TB,52.4610,-1.9181
The Edgbaston Golf Club Limited,B15 3TB,52.4610,-1.9181
Regards ,B15 3TQ,52.4671,-1.9355
The Distillery,B16 8AE,52.4793,-1.9176
Vine Inn,B16 8BB,52.4753,-1.9199
Mr Mulligans Birmingham,B16 8LP,52.4735,-1.9217
Rock Up Birmingham,B16 8LP,52.4735,-1.9217
Subland Ltd. T/A Subway,B16 8LP,52.4735,-1.9217
Best Western Plough & Harrow Hotel,B16 8LS,52.4722,-1.9274
Praza Cocktail Bar & Dining,B16 8LU,52.4716,-1.9282
Pizza Hut - Unit 3,B16 8PE,52.4717,-1.9241
Starbucks (Five Ways),B16 8PE,52.4717,-1.9241
Starbucks - Unit 1,B16 8PE,52.4717,-1.9241
Meeple Mayhem,B16 8UZ,52.4738,-1.9309
CHARTERMEAD LIMITED,B16 9LQ,52.4727,-1.9514
Akbar's Restaurant,B16 9NY,52.4712,-1.9410
T G I Fridays,B16 9NY,52.4712,-1.9410
The Edgbaston Palace Hotel,B16 9PQ,52.4714,-1.9447
Apollo Hotel,B16 9RA,52.4722,-1.9421
Foodel Ltd t/a Subway,B16 9RD,52.4721,-1.9319
COLBEH  PERSIAN KITCHEN & BAR,B16 9RE,52.4722,-1.9327
Fiesta del Asado Edgbaston,B16 9RP,52.4722,-1.9388
Beef on the block,B17 0AA,52.4563,-1.9622
The Kangxi Imperial ,B17 0DS,52.4582,-1.9509
Hop Garden,B17 0HT,52.4599,-1.9434
OTTO at the Hop Garden,B17 0HT,52.4599,-1.9434
Banu restaurant LIMITED ,B17 8DL,52.4735,-1.9564
FUTA DINING,B17 8EJ,52.4803,-1.9619
RAINBOW CAFE,B17 8EJ,52.4803,-1.9619
Buonissimo,B17 9JX,52.4592,-1.9509
Prezzo,B17 9NJ,52.4599,-1.9456
The Boston Tea Party Group Limited,B17 9NJ,52.4599,-1.9456
Pizza Express,B17 9NP,52.4591,-1.9486
The Cafe Express ,B17 9NP,52.4591,-1.9486
Wokchi,B17 9NP,52.4591,-1.9486
Damascena Coffee House,B17 9NR,52.4598,-1.9468
The Mela Restaurant,B17 9NR,52.4598,-1.9468
The Proud Sicilian Ltd,B17 9NS,52.4604,-1.9454
The Plough Harborne,B17 9NT,52.4610,-1.9439
Rustic Table,B17 9PN,52.4589,-1.9481
Sabai Sabai (harborne) Ltd,B17 9PT,52.4580,-1.9534
Cardamom,B17 9PU,52.4580,-1.9560
Harborne Kitchen,B17 9QE,52.4587,-1.9498
Boo Boo,B17 9RP,52.4586,-1.9578
umami indian kitchen,B17 9RP,52.4586,-1.9578
Rodroj Coffee Lounge & Restaurant Ltd,B18 4HB,52.4869,-1.9436
CLASSIC FISHBAR AND KEBAB HOUSE,B18 4HD,52.4874,-1.9459
CHENNAI DOSA,B18 4HE,52.4877,-1.9475
Black Eagle,B18 5JU,52.4989,-1.9274
The New Soho Tavern,B18 5SR,52.4978,-1.9283
3 Threes Coffee Lounge,B18 6AQ,52.4890,-1.9073
Vee's Deli,B18 6HA,52.4904,-1.9122
Damascena Coffee House,B18 6HD,52.4926,-1.9129
COFFEE TALES,B18 6HP,52.4869,-1.9098
24 Carat Bistro ,B18 6JQ,52.4872,-1.9109
Niche Cafe,B18 6JR,52.4877,-1.9097
The Rose Villa Tavern,B18 6JW,52.4872,-1.9123
202KITCHEN,B18 6LJ,52.4889,-1.9135
Horizon Coffee Shop,B18 6LJ,52.4889,-1.9136
Lunchline,B18 6NF,52.4876,-1.9120
Urban Cafe Bar Kitchen,B18 6NF,52.4876,-1.9120
Dhillons Cafe & Fish Bar,B18 6NG,52.4869,-1.9139
Semedos restaurant,B18 6NG,52.4869,-1.9139
Espresso Quarter,B18 6NN,52.4873,-1.9134
THE JQ BAR AND GRILL LTD,B18 6NN,52.4873,-1.9134
CORPORATE DINING LTD,B18 6RZ,52.4867,-1.9173
Elior Uk Ltd,B18 7BH,52.4855,-1.9212
Arches Cafe  City Hospital,B18 7QH,52.4898,-1.9294
Birmingham Treatment Centre (BTC)  City Hospital,B18 7QH,52.4886,-1.9325
Boaters Cafe  City Hospital,B18 7QH,52.4898,-1.9294
Costa Coffee,B18 7QH,52.4898,-1.9294
Lick Your Finger,B18 7QX,52.4865,-1.9363
Coombs Catering at Signet Trading,B19 1DS,52.4965,-1.9146
Broadway 2 Limited,B19 1LL,52.5075,-1.9026
Y BARI LTD,B19 1NH,52.5026,-1.9176
Rahman’s grillhouse T/A bhaizan’s grill,B19 2TH,52.5022,-1.9019
Peppers City takeout,B19 2TP,52.5031,-1.9090
Mississippi river  and Nile Bistro,B19 2XU,52.4947,-1.9030
CITY PIZZA,B19 3LE,52.4872,-1.9025
Hen & Chickens,B19 3LE,52.4872,-1.9025
Syriana Restuarant,B19 3LG,52.4868,-1.9017
The Wolf,B19 3LY,52.4866,-1.9019
SUBWAY,B19 3TZ,52.4942,-1.9110
Comptoir Birmingham,B2 4BF,52.4778,-1.8988
Joe & The Juice,B2 4BF,52.4779,-1.8986
Kitty Cafe Birmingham Ltd,B2 4BF,52.4779,-1.8986
Mowgli Street Food - Birmingham,B2 4BF,52.4778,-1.8988
Nandos,B2 4BF,52.4779,-1.8986
Pig & Apple Ltd,B2 4BF,52.4779,-1.8986
Super No.7 Ltd     t/a  Super bubble station,B2 4BF,52.4779,-1.8986
Thai Express Birmingham,B2 4BF,52.4779,-1.8986
atpizza Grand central,B2 4BF,52.4779,-1.8986
LA GALLERIA BIRMINGHAM LTD,B2 4BG,52.4790,-1.9008
NI&WANG GROUP LTD T/A TWIST,B2 4BG,52.4790,-1.9008
ALL GREEK STREET FOOD,B2 4BH,52.4786,-1.9004
Tiger Bites Pig ,B2 4BH,52.4786,-1.9004
YAKINORI GRAND CENTRAL LTD,B2 4BH,52.4787,-1.9003
Yorks Cafe & Coffee Roasters,B2 4BH,52.4787,-1.9009
Grant Central Kitchen,B2 4BL,52.4787,-1.8989
CrepeAffaire Birmingham,B2 4BQ,52.4779,-1.8989
PHO,B2 4BQ,52.4779,-1.8989
Tortilla,B2 4BQ,52.4779,-1.8989
Yo Sushi,B2 4BQ,52.4779,-1.8989
POLO PASTA,B2 4DD,52.4785,-1.9005
Urban Feast,B2 4DD,52.4785,-1.9005
Medicine Bakery & Gallery,B2 4DU,52.4796,-1.9016
Nando's,B2 4DU,52.4796,-1.9017
Second Cup Coffee Company,B2 4DU,52.4795,-1.9012
Wildwood,B2 4DU,52.4795,-1.9012
Ask Italian Restaurant,B2 4EG,52.4794,-1.8987
Pret A Manger,B2 4EG,52.4794,-1.8987
T4,B2 4EG,52.4794,-1.8997
Tim Hortons,B2 4EU,52.4791,-1.8996
Faculty Coffee,B2 4HD,52.4790,-1.9000
200 Degrees,B2 4JD,52.4788,-1.8994
Cafe Nero,B2 4JD,52.4789,-1.8991
Starbucks Coffee,B2 4JQ,52.4788,-1.8988
Pizza Hut Restaurant,B2 4NS,52.4786,-1.8966
McDonald's Stephenson Place,B2 4PY,52.4788,-1.8975
Mcdonalds Restaurants Ltd,B2 4PY,52.4788,-1.8975
Wasabi Sushi & Bento,B2 4QA,52.4777,-1.8980
Benugo Ltd,B2 4QE,52.4774,-1.8980
Caffe Nero,B2 4QE,52.4781,-1.8987
Five Guys JV Ltd,B2 4QE,52.4781,-1.8987
Pret A Manger,B2 4QE,52.4781,-1.8987
Wasabi,B2 4QE,52.4781,-1.8987
Britannia Hotel Birmingham,B2 4RX,52.4790,-1.8971
Cafe Nero,B2 4UQ,52.4807,-1.8955
3 Threes Coffee Lounge,B2 4UW,52.4802,-1.8961
CAFFE CONCERTO - GRAND CENTRAL,B2 4XJ,52.4782,-1.8986
Dum Dum Donutterie,B2 4XJ,52.4782,-1.8986
Holy Moly Macaroni,B2 4XJ,52.4782,-1.8986
Tasty Plaice,B2 4XJ,52.4782,-1.8986
McDonald's Temple Row,B2 5AL,52.4805,-1.8977
McDonalds Restaurants Ltd,B2 5AL,52.4805,-1.8977
Starbucks Coffee,B2 5AR,52.4803,-1.8971
Flight Club Darts,B2 5BN,52.4799,-1.8996
San Carlo Birmingham,B2 5BN,52.4802,-1.8994
Head of Steam (Birmingham),B2 5DP,52.4802,-1.8988
Morridge,B2 5HG,52.4817,-1.8966
Kuula Poke,B2 5HU,52.4818,-1.8974
Land ,B2 5HU,52.4818,-1.8974
Loki Wines Ltd,B2 5HU,52.4818,-1.8974
Sushi Passion Ltd,B2 5HU,52.4818,-1.8974
Gino D'acampo My Restaurant ,B2 5LS,52.4804,-1.8985
Damascena Coffee House,B2 5NY,52.4807,-1.8999
Fumo Birmingham,B2 5PG,52.4804,-1.8995
Sabai Sabai (birmingham) Ltd,B2 5PG,52.4802,-1.8998
Cafe Nero,B2 5QB,52.4806,-1.8999
Franco Manca,B2 5QJ,52.4795,-1.9000
Sun on the Hill,B2 5QP,52.4797,-1.8999
The Indian Streatery,B2 5QP,52.4797,-1.8999
Bodega Cantina,B2 5RS,52.4799,-1.9007
Rudys Birmingham,B2 5RS,52.4799,-1.9006
DC Bars Ltd T/A Dirty Martini Birmingham,B2 5ST,52.4803,-1.9008
Purecraft Bar and Kitchen Ltd,B2 5TJ,52.4801,-1.9014
Adam's,B2 5UG,52.4798,-1.9014
Pieminister Birmingham,B2 5UG,52.4798,-1.9014
The New Garden Gate,B20 1BX,52.5269,-1.9284
THE GROVE BIRMINGHAM LTD,B20 2HA,52.5126,-1.9335
Love Peri Peri,B20 2HX,52.5145,-1.9349
Mr singh's Pizza,B20 2HY,52.5155,-1.9337
Titanic restaurant ,B20 3BX,52.5140,-1.9015
Burger Town,B20 3DD,52.5132,-1.9017
SweetLab Desserts,B20 3DD,52.5133,-1.9017
Chik King,B21 0AP,52.5088,-1.9572
McDonalds Restaurant,B21 0AP,52.5088,-1.9572
McDonald’s ,B21 0AP,52.5088,-1.9572
baba pizza,B21 0LS,52.5068,-1.9484
The Village Bar & Grill,B21 0TE,52.5008,-1.9329
Amor Desserts,B21 0TU,52.5021,-1.9331
hanul drumetului,B21 0TU,52.5021,-1.9331
LIME N CHILLI LTD,B21 9BH,52.5018,-1.9252
MSK OVERSEAS LIMITED T/A NAKODAR SWEETS & SNACKS,B21 9DP,52.5025,-1.9293
Barsana ,B21 9QL,52.5048,-1.9413
The Farcroft,B21 9QY,52.5097,-1.9409
Dixy chicken soho road Limited,B21 9SA,52.5035,-1.9366
Big Johns Soho Road,B21 9SF,52.5043,-1.9413
Chandni Chowk (Bham),B21 9SL,52.5012,-1.9264
Shambhala ,B21 9SP,52.5019,-1.9284
Chai Factory Three Limited t/a Chaiiwala,B21 9ST,52.5022,-1.9301
pepe's piri piri,B21 9SU,52.5026,-1.9321
Come dine with me,B23 5GD,52.5349,-1.8667
Ebony & Ivory Elegant Room B&R Ltd,B23 6DN,52.5245,-1.8575
SUBWAY,B23 6HP,52.5251,-1.8585
brookvale social,B23 7LJ,52.5207,-1.8589
Prego Pizza (West Midlands) Limited,B23 7RH,52.5166,-1.8562
Starbucks,B24 8NN,52.5084,-1.8580
Compass Group DHL Carlsberg UK,B24 8TG,52.5035,-1.8510
Cucina Rustica Ltd,B3 1DX,52.4847,-1.9045
Locanta,B3 1EH,52.4845,-1.9048
Arch 13 Bar,B3 1EU,52.4846,-1.9014
Indian Brewery Snowhill Ltd,B3 1EU,52.4846,-1.9014
Opheem,B3 1JJ,52.4816,-1.9074
Itihaas Restuarant,B3 1JL,52.4830,-1.9061
Bantu Restaurant,B3 1JP,52.4821,-1.9067
Milan Indian Cuisine,B3 1LH,52.4829,-1.9042
rajdoot tandoori ltd,B3 1PY,52.4828,-1.9106
Saint Kitchen,B3 1QS,52.4846,-1.9064
The Rectory,B3 1QS,52.4846,-1.9064
St Pauls House,B3 1RB,52.4856,-1.9048
Queen's Arms,B3 1RY,52.4836,-1.9065
Pasta di Piazza,B3 1SA,52.4849,-1.9071
Lasan Restaurant,B3 1SD,52.4850,-1.9076
OTTO,B3 1TR,52.4864,-1.9076
Fazenda Rodizio Bar & Grill,B3 2AA,52.4817,-1.8997
GAUCHO Birmingham,B3 2AA,52.4817,-1.8997
200 Degrees,B3 2BH,52.4823,-1.8987
Costa Coffee (Whitbread),B3 2BJ,52.4828,-1.8983
Gusto Italian,B3 2BS,52.4818,-1.8994
The Alchemist Colmore,B3 2DA,52.4821,-1.8994
OPUS,B3 2DE,52.4821,-1.9018
Zen Metro,B3 2DF,52.4823,-1.9026
The Florence,B3 2ES,52.4816,-1.9020
Ch&Co Catering Ltd,B3 2JR,52.4823,-1.9010
Urban Cafe Bar Kitchen,B3 2NP,52.4821,-1.9004
Primitivo,B3 2NT,52.4823,-1.8989
Tattu Birmingham ,B3 2NT,52.4822,-1.8991
Monty's Deli Sandwich Bars Ltd,B3 2QD,52.4822,-1.8975
Pret A Manger - Unit 2,B3 2QD,52.4822,-1.8975
Baxterstorey Ltd (at RBS),B3 2RB,52.4814,-1.8974
Starbucks Coffee Company Ltd,B3 3AU,52.4802,-1.9018
Dishoom Birmingham,B3 3AX,52.4798,-1.9050
The Colmore,B3 3BD,52.4803,-1.9016
Soul Deli,B3 3HN,52.4815,-1.9054
Asha's ,B3 3LX,52.4812,-1.9021
Pret A Manger,B3 3NH,52.4812,-1.9011
Purnell's Bistro & Gingers Bar,B3 3NY,52.4814,-1.9013
Knights coffee house,B3 3RJ,52.4819,-1.9033
Subway Newhall St  Birmingham,B3 3RJ,52.4819,-1.9034
Apple Green Service Station,B32 1HP,52.4635,-1.9945
the new talbot quinton,B32 2AY,52.4650,-1.9850
The Haven Community Project,B32 2NR,52.4546,-1.9774
NEW ISLAND INN QUINTON LTD,B32 2PP,52.4537,-1.9808
ICS CATERING LIMITED,B32 2QD,52.4522,-1.9832
German Doner Kebab,B4 6AB,52.4813,-1.8961
Wayland's Yard Birmingham,B4 6AF,52.4823,-1.8963
Soul Deli,B4 6EQ,52.4820,-1.8958
Burger hut,B4 6HW,52.4865,-1.9009
Holiday Inn Express Birmingham Snow Hill,B4 6HY,52.4852,-1.8974
MY SHOP 4 LTD,B4 6PH,52.4827,-1.8942
Sami foods Limited,B4 6PH,52.4827,-1.8942
Pizza Express,B4 6QD,52.4832,-1.8929
The Boston Tea Party Group Limited,B4 6QD,52.4832,-1.8929
Bubble Waffles Dessert Lounge,B4 6SE,52.4843,-1.8928
Dolce Desserts LTD,B4 6SE,52.4843,-1.8928
Big Johns City,B4 6SX,52.4814,-1.8947
The Coffee Bar Birmingham ,B4 6SX,52.4814,-1.8946
CAFE GAZETTE LTD,B4 6TB,52.4824,-1.8937
Chopstix Birmingham Bull Street,B4 7AA,52.4804,-1.8950
ISKENDER KEBAB ,B4 7AA,52.4804,-1.8950
KFC,B4 7AA,52.4804,-1.8950
Pizza Hut Delivery,B4 7AT,52.4873,-1.8929
Benugo Ltd,B4 7BD,52.4898,-1.8917
brgri,B4 7DP,52.4879,-1.8915
Costa Coffee,B4 7ET,52.4866,-1.8910
Geek Retreat Birmingham,B4 7LA,52.4821,-1.8934
Subway,B4 7LB,52.4807,-1.8945
COFFEE TIME (B'HAM) LIMITED,B4 7LG,52.4807,-1.8945
Makan,B4 7LG,52.4807,-1.8945
McDonald's Kings Parade,B4 7LN,52.4804,-1.8936
Mcdonalds Restaurants Ltd,B4 7LN,52.4804,-1.8936
Ngopi,B4 7LS,52.4807,-1.8943
Love Chicken,B4 7SY,52.4800,-1.8941
Burger King,B4 7TA,52.4798,-1.8949
Costa Coffee,B4 7UH,52.4857,-1.8901
Espresso Station,B4 7UL,52.4786,-1.8922
The Centenary Lounge Ltd,B4 7UL,52.4786,-1.8922
Burger King (Uk) Ltd,B42 1AA,52.5171,-1.9029
Burger King - Perry Barr,B42 1AA,52.5171,-1.9029
KFC,B42 1AA,52.5177,-1.9031
Nando's,B42 1AA,52.5176,-1.9031
Goodfillas Cafe,B42 1TY,52.5257,-1.9044
Veri Peri,B42 1TY,52.5257,-1.9044
The New Bell,B42 2NX,52.5415,-1.9182
Veggie Master,B42 2QS,52.5392,-1.9025
Pizza Hut,B43 6BN,52.5455,-1.9344
Simla spice,B43 6PL,52.5462,-1.9310
Special spices,B43 6QU,52.5425,-1.9574
Basmati restaurant,B43 7AG,52.5577,-1.9376
Deep Blue Fish & Chips,B43 7JW,52.5577,-1.9062
Pigeons Parlour,B43 7QP,52.5533,-1.9104
McDonald's,B44 0AA,52.5418,-1.8693
Mcdonalds Restaurants Ltd,B44 0AA,52.5418,-1.8693
DIXY KINGSTANDING LTD,B44 0HU,52.5399,-1.8708
Woodhouse Pizzeria,B44 0QU,52.5418,-1.8847
The Mount Tavern ,B44 0SH,52.5498,-1.8658
Marlboro Cafe,B44 8HL,52.5355,-1.8936
CAFE HOUSE,B44 8QT,52.5380,-1.8791
Mecca Bingo,B44 9JD,52.5542,-1.8859
Moonlight Cuisine,B44 9RH,52.5546,-1.8834
Grosvenor Casino Birmingham Hill Street,B5 4AH,52.4774,-1.9012
Maharaja Restaurant,B5 4AS,52.4751,-1.8983
tamatanga,B5 4AX,52.4774,-1.9025
Burger King,B5 4BA,52.4768,-1.8954
Nandos,B5 4BA,52.4768,-1.8954
Pizza Express,B5 4BA,52.4768,-1.8954
Pizza Hut Restaurant,B5 4BA,52.4768,-1.8954
TAKUMI UK LTD,B5 4BD,52.4749,-1.8979
Chaophraya,B5 4BE,52.4776,-1.8949
Five Guys,B5 4BE,52.4776,-1.8949
Starbucks,B5 4BE,52.4776,-1.8949
SOHO Coffee Shops Limited The Bullring,B5 4BL,52.4768,-1.8954
Ming Moon Restaurant Birmingham ,B5 4BN,52.4750,-1.8975
Santorini Restaurant,B5 4BN,52.4750,-1.8975
Lola's Cupcakes,B5 4BP,52.4778,-1.8929
Ooty Station,B5 4BP,52.4778,-1.8929
Archie's Selfridges,B5 4BU,52.4779,-1.8939
Bubbleology,B5 4BU,52.4779,-1.8939
LITTLE DESSERT SHOP,B5 4BU,52.4779,-1.8939
Muffin Break Bullring,B5 4BU,52.4779,-1.8939
Pret A Manger,B5 4BU,52.4779,-1.8939
SOHO Coffee Shops Limited Bullring 2,B5 4BU,52.4779,-1.8939
Selfridges,B5 4BU,52.4780,-1.8939
The Indian Streatery Express,B5 4BU,52.4779,-1.8939
Wagamama,B5 4BU,52.4779,-1.8939
Wrapchic,B5 4BU,52.4779,-1.8939
Yo Sushi,B5 4BU,52.4779,-1.8939
Japan Tsukiji Limited,B5 4DY,52.4766,-1.8988
TAJ MAHAL RESTAURANT,B5 4EJ,52.4763,-1.8977
Rodroj Coffee Lounge & Restaurant Ltd,B5 4EN,52.4755,-1.8996
Holiday Inn Birmingham City Centre,B5 4EW,52.4757,-1.8992
Rodroj Fish & Chips,B5 4HE,52.4752,-1.8991
OTORO SUSHI,B5 4RQ,52.4761,-1.8951
Chung Ying Cantonese Restaurant,B5 4RT,52.4754,-1.8975
LY 968 Limited T/A RuGa Bistro,B5 4RX,52.4760,-1.8964
Pho Viet,B5 4RX,52.4762,-1.8963
China Court Restaurant,B5 4ST,52.4750,-1.8964
LOOK IN,B5 4ST,52.4756,-1.8965
Malaysian Nyonya Food Limited,B5 4ST,52.4756,-1.8965
HAPPY HOT POT,B5 4SZ,52.4758,-1.8967
PEACH GARDEN,B5 4SZ,52.4757,-1.8969
Wu Shuang,B5 4SZ,52.4757,-1.8970
CAFFE CHINO,B5 4TD,52.4745,-1.8966
HOT SEVEN CHINESE RESTAURANT,B5 4TD,52.4745,-1.8966
MILANO,B5 4TD,52.4745,-1.8966
New Tenichi Sushi Limited ,B5 4TD,52.4745,-1.8966
Pepper chef,B5 4TD,52.4745,-1.8966
Rozu Restaurant ,B5 4TD,52.4745,-1.8966
Topokki,B5 4TE,52.4743,-1.8972
XIONGQI LTD ,B5 4TR,52.4736,-1.8984
Khan palace cafe ltd,B5 5BD,52.4765,-1.8922
THE LADBROOKE HOUSE HOTEL ,B5 5BL,52.4779,-1.8876
Clayton Hotel Birmingham,B5 5JE,52.4814,-1.8901
LILY'S UMAMI,B5 5JE,52.4814,-1.8900
Phoenix,B5 5JE,52.4813,-1.8897
Tin Tin Food Hall,B5 5JE,52.4814,-1.8900
TOPCUP,B5 5JN,52.4816,-1.8893
Master Park's Kitchen,B5 5JS,52.4825,-1.8884
The Woodman,B5 5LG,52.4817,-1.8868
The Karczma,B5 5PH,52.4792,-1.8902
Chillichicks,B5 5PJ,52.4783,-1.8886
The Barn,B5 5QD,52.4775,-1.8841
Dig Brew Co.,B5 5SA,52.4775,-1.8832
Fazeley Social,B5 5SE,52.4782,-1.8819
Teamworks Karting Birmingham,B5 5SE,52.4782,-1.8819
Hennessey's Bar,B5 5TJ,52.4776,-1.8898
80'S Canteen Limited,B5 6AB,52.4735,-1.8956
Tahini Kitchen ,B5 6AH,52.4707,-1.8926
Subside Bar Ltd,B5 6DA,52.4756,-1.8896
Starbucks,B5 6DB,52.4754,-1.8890
Manzil Restaurant ,B5 6DT,52.4763,-1.8901
Bradford Street Catering LLP,B5 6ET,52.4748,-1.8886
The Harbin Lounge,B5 6NU,52.4737,-1.8960
AL CAFE limited,B5 6QP,52.4706,-1.8952
Formosa Izakaya,B5 6SE,52.4732,-1.8959
PINCHUAN LTD ,B5 6SE,52.4731,-1.8958
Deep Caribbean Experience Limited,B5 7AA,52.4729,-1.8992
SAVANNA RESTAURANT LTD,B5 7AA,52.4729,-1.8992
Gaijin Sushi,B5 7AH,52.4715,-1.8993
Quarter Horse Coffee,B5 7AH,52.4715,-1.8993
Big Johns Highgate,B5 7JE,52.4661,-1.8921
DELIGHTFUL DESSERTS B5,B5 7QB,52.4620,-1.8968
McDonald's Bristol Road,B5 7TT,52.4658,-1.9023
Mcdonalds Restaurants Ltd,B5 7TT,52.4658,-1.9023
Campanile Birmingham,B6 4BE,52.4928,-1.8868
Coxsone lounge,B6 4DT,52.4956,-1.8859
Brittons of Birmingham,B6 4JX,52.4924,-1.8936
THE BARTONS ARMS,B6 4UP,52.4992,-1.8951
Adian's Dining,B6 4UU,52.4989,-1.8945
JMRO CAFE,B6 5ET,52.5020,-1.8907
JMRO STREET FOOD,B6 5HG,52.5025,-1.8933
Deli,B6 5RW,52.4993,-1.8818
villalicious cafe ,B6 6JR,52.5069,-1.8927
CLASSIC RESTAURANT (ASTON) FOOD SERVICES LIMITED,B6 6NT,52.5100,-1.8889
Tamanna cafe ltd,B6 6NT,52.5100,-1.8889
Perfect Subs Ltd t/a Subway,B6 6QR,52.5130,-1.8869
Wilson Vale Catering Management Ltd,B6 7AF,52.5219,-1.8862
THE SPOT ASTON LIMITED,B6 7QP,52.5034,-1.8723
Powerleague Fives Ltd,B6 7TG,52.5084,-1.8648
cobham,B62 0JD,52.4504,-2.0159
The Little Griddle,B62 8AN,52.4589,-2.0427
Dilshad International Restaurant,B62 9AA,52.4623,-2.0266
The Daily Deli ,B62 9AA,52.4623,-2.0266
BALTI TOWERS,B62 9DJ,52.4700,-2.0326
Spice Fusion,B62 9DJ,52.4700,-2.0326
FAIRFIELD INN,B62 9JA,52.4731,-2.0255
Jaspers pizza ,B62 9LA,52.4696,-2.0330
The Why Not Inn,B63 2JH,52.4542,-2.0907
McDonalds Restaurants,B63 2RG,52.4583,-2.0933
McDonald’s Lye,B63 2RG,52.4583,-2.0933
ThinkFresh!,B63 3BG,52.4502,-2.0501
KFC,B63 3HR,52.4515,-2.0506
Loyal lodge public house,B63 3LY,52.4576,-2.0499
Starbucks Block 11,B63 3NA,52.4565,-2.0509
Teamworks Karting Halesowen,B63 3NR,52.4560,-2.0465
Blue Spice Halesowen,B63 3QX,52.4536,-2.0645
Subway Shortcross,B63 3UA,52.4525,-2.0580
Flute,B63 3UD,52.4531,-2.0613
Costa Coffee,B64 5DF,52.4732,-2.0812
Eastern Bar Ltd,B64 5HP,52.4728,-2.0802
Ivan's Fish & Chip Shop,B64 5JT,52.4752,-2.0753
KFC,B64 5LS,52.4791,-2.0686
Alachi Restaurant ,B64 5RU,52.4773,-2.0670
Saliya Indian Restaurant,B64 6AG,52.4701,-2.0853
THE CHERRYWOOD SMOKE HOUSE,B64 6AH,52.4704,-2.0837
The riddins tavern,B64 6DP,52.4731,-2.0666
The Crown Inn,B64 6NT,52.4723,-2.0585
MONTHEILL LIMITED,B64 7HF,52.4665,-2.0660
The Old Bush Revived,B65 0AD,52.4762,-2.0500
Pizza Hut,B65 0DR,52.4755,-2.0420
Tak's Fish and Chips Limited,B65 0DU,52.4757,-2.0399
The Knights Quest,B65 0EE,52.4759,-2.0438
The Malt Shovel,B65 0EH,52.4757,-2.0449
Bell & bear ,B65 0HA,52.4686,-2.0476
Raj Spice Restaurant Limited,B65 0HG,52.4750,-2.0397
INDULGENC SPICE LIMITED ,B65 0HS,52.4756,-2.0383
Dilshad blackheath,B65 0JN,52.4761,-2.0382
Three Diamond Bar & Grill Ltd,B65 0JQ,52.4746,-2.0384
Three Diamond Kitchen Ltd,B65 0JQ,52.4746,-2.0384
The Food Hatch,B65 8BW,52.4776,-2.0468
Coffee Pot  Rowley Regis Hospital,B65 8DA,52.4807,-2.0521
Regis Spice Ltd,B65 8JZ,52.4907,-2.0580
SPRINGFIELD SOCIAL CLUB,B65 8PX,52.4896,-2.0553
The rowley bar & grill,B65 9AE,52.4855,-2.0494
the brittania inn,B65 9AT,52.4813,-2.0428
Wendy's salt and pepper pot,B65 9BA,52.4763,-2.0393
The Rowley village restaurant ,B65 9DB,52.4933,-2.0426
Four Way Bar And Grill Limited,B65 9DD,52.4944,-2.0415
The Sandwich Shop,B66 2AA,52.4969,-1.9689
A&S Restaurants LTD T/A McDonalds,B66 2SF,52.4896,-1.9501
McDonalds Restaurants,B66 2SF,52.4896,-1.9501
Red Cow Pub and Grill,B66 3NL,52.4920,-1.9685
Uk pizza & Kebab House Ltd,B66 3NU,52.4904,-1.9677
Cafe (Compass Group),B66 3PR,52.4875,-1.9607
Neelam kebab house ,B66 4AP,52.4732,-1.9681
Casa Italia ,B66 4AX,52.4726,-1.9678
HAWELI RESTAURANT ,B66 4AX,52.4726,-1.9678
Costa Bearwood,B66 4BH,52.4749,-1.9690
Red oven,B66 4BJ,52.4742,-1.9688
Sweet Dreams Desserts,B66 4BJ,52.4742,-1.9688
Nayyir Associates Limited,B66 4BL,52.4734,-1.9685
Subway,B66 4BT,52.4750,-1.9697
Purnima,B66 4BW,52.4732,-1.9690
Tamu cafe,B66 4BW,52.4732,-1.9690
WNC bearwood LTD,B66 4BW,52.4732,-1.9689
Anatolia cafe ,B66 4BX,52.4762,-1.9700
The raja tandoori restaurant,B66 4DF,52.4785,-1.9698
Standard Tandoori ,B66 4DH,52.4776,-1.9699
Old Dresser Cafe,B66 4EY,52.4795,-1.9699
Aladdine Cuisine,B66 4PB,52.4866,-1.9590
Horn of Africa,B66 4PH,52.4865,-1.9560
KFC,B66 4PH,52.4865,-1.9560
Garam Chai Ltd,B66 4RN,52.4868,-1.9614
Nemrut Turkish restaurant ltd,B67 5AZ,52.4763,-1.9721
Edge Coffee ,B67 5DP,52.4727,-1.9705
Jonathans in the Park Ltd,B67 5DP,52.4720,-1.9714
Antonios Food Emporio,B67 5DQ,52.4750,-1.9725
Miller & Carter - Hagley Road,B67 5EY,52.4672,-1.9786
zaalsha,B67 5RD,52.4774,-1.9756
BACON & EGGS SMETHWICK LIMITED,B67 7DH,52.4911,-1.9761
KFC,B68 0BZ,52.4635,-1.9969
Pizza Hut,B68 0BZ,52.4635,-1.9969
SIMRANS DESSERTS LTD,B68 0BZ,52.4635,-1.9969
Subway,B68 0BZ,52.4635,-1.9969
McDonalds Restaurants Ltd,B68 0HL,52.4717,-2.0066
A&S Restaurants LTD T/A McDonalds,B68 0LH,52.4669,-1.9849
Big Man's Food,B68 0LH,52.4669,-1.9849
Urban Tea House,B68 0LH,52.4667,-1.9841
Starbucks,B68 0PH,52.4628,-2.0125
Saphari,B68 8LJ,52.4846,-2.0147
The Phoenix Grill Ltd,B69 1DY,52.4944,-2.0339
The pheonix bar & grill,B69 1DY,52.4944,-2.0339
Bacaba cocktail bar and dinning ,B69 1QP,52.5068,-2.0406
big singhs pizza,B69 1QS,52.5051,-2.0449
Baxterstorey Ltd,B69 2AG,52.4942,-2.0237
BaxterStorey,B69 2AL,52.5040,-2.0091
Mecca Bingo Club,B69 2AN,52.5010,-2.0171
FLIP OUT SANDWELL,B69 2AP,52.4992,-2.0174
m s bar and grill ,B69 2AS,52.4978,-2.0199
McDonald's,B69 2AW,52.5024,-2.0178
McDonalds Restaurants,B69 2AW,52.5024,-2.0178
KFC,B69 2BH,52.5010,-2.0313
Brades Tavern,B69 2ET,52.5053,-2.0289
masala Curry House ,B69 2HH,52.5051,-2.0346
Blair’s Caribbean Takeaway ,B69 4DY,52.5028,-2.0140
Solvay - Staff Canteen  Wilson Vale,B69 4LN,52.4940,-2.0136
The New Cottage Bar and Grill,B69 4NB,52.4949,-2.0039
three friends pub company limited,B69 4NH,52.4959,-2.0058
Ibis Styles Birmingham Oldbury,B69 4RJ,52.4908,-2.0212
McDonald's,B69 4RJ,52.4908,-2.0212
McDonalds Restaurants Ltd,B69 4RJ,52.4908,-2.0212
Ramada Birmingham Oldbury,B69 4RJ,52.4908,-2.0212
Crosswells Inn,B69 4SB,52.4918,-2.0112
The Little Oven Limited,B69 4SN,52.4911,-2.0127
Baxterstorey Ltd,B7 4AP,52.4884,-1.8858
The Grain Bakery ,B7 4EE,52.4908,-1.8815
 Shanahans,B7 5EP,52.4964,-1.8798
Cafe Rock,B7 5EW,52.4970,-1.8785
Ipho ltd,B7 5HD,52.4976,-1.8708
Haute Dolci  Star City,B7 5SA,52.5055,-1.8565
KFC,B7 5SA,52.5055,-1.8565
McDonald's,B7 5SA,52.5055,-1.8565
Mcdonalds Restaurants Ltd,B7 5SA,52.5055,-1.8565
Nandos,B7 5SA,52.5055,-1.8565
Oodles n Oodles Birmingham,B7 5SA,52.5055,-1.8565
Pepe's piri piri,B7 5SA,52.5055,-1.8565
Pizza Hut Restaurant,B7 5SA,52.5055,-1.8565
Shere Khan Star City Birmingham,B7 5SA,52.5055,-1.8565
Shobha's,B7 5SA,52.5055,-1.8565
Zauq Buffet,B7 5SA,52.5055,-1.8565
Zindabad Restaurant,B7 5SA,52.5055,-1.8565
Boulder Central,B70 0DG,52.5303,-2.0263
King Arthur Grill,B70 0HG,52.5225,-2.0272
midland leisure ltd trading as the new hen and chickens,B70 0RT,52.5378,-2.0118
the Dovecote pub & carvery,B70 0SD,52.5406,-2.0131
Old Bush Inn Ltd,B70 6AS,52.5107,-1.9925
The Red Apple Grill Ltd,B70 6AS,52.5107,-1.9925
NEW ISLAND INN LTD,B70 6BB,52.5090,-1.9907
Sarbys Diner,B70 6BW,52.5068,-1.9911
The cricketers arms limited,B70 6EA,52.5081,-1.9895
PRINCE OF WALES,B70 6JJ,52.5156,-1.9892
Ye Olde Wine Shoppe,B70 6NZ,52.5151,-1.9877
Sportsmans Club West Bromwich Ltd,B70 6PP,52.5130,-1.9838
The Vine,B70 6RD,52.5093,-1.9789
Proark UK Hotels Ltd t/a Mercure Birmingham West Hotel,B70 6RS,52.5134,-1.9760
Windsor Castle Public House,B70 7ED,52.5125,-1.9937
The Prince Albert,B70 7EG,52.5127,-1.9968
The Railway Inn,B70 7JB,52.5094,-2.0117
Burger King,B70 7NG,52.5187,-1.9919
KASPAS DESSERTS WEST BROM,B70 7NJ,52.5182,-1.9913
SUNNY COFFEE HOUSE LIMITED,B70 7NW,52.5173,-1.9929
The Smokehouse Bar & Grill,B70 7PE,52.5192,-1.9881
PEPE'S ,B70 7PN,52.5192,-1.9937
Mr singh's Pizza,B70 7PP,52.5198,-1.9907
Nando's,B70 7PP,52.5195,-1.9912
Sprinkles Gelato- West Bromwich,B70 7PP,52.5195,-1.9912
subway,B70 7PP,52.5195,-1.9912
McDonald's,B70 7QG,52.5182,-1.9939
McDonalds Restaurants Ltd,B70 7QG,52.5182,-1.9939
The Great Western Cafe,B70 7QG,52.5182,-1.9939
THE LITTLE DESERT SHOP WEST BROMWICH,B70 7QZ,52.5178,-1.9921
German Doner Kebab,B70 8EN,52.5195,-1.9963
Subway West Bromwich,B70 8NS,52.5203,-1.9956
Vujon Classical Indian Cuisine,B70 8NS,52.5203,-1.9956
The Soho Oak,B70 8PR,52.5191,-2.0062
The Yew Tree Bar and Restaurant ,B70 8QX,52.5159,-2.0118
Jolly Sailor,B70 9EF,52.5194,-2.0242
D’vine Cafe/Diner,B70 9LD,52.5233,-2.0027
The Clock House,B70 9QG,52.5223,-2.0000
MAYUR CATERING SERVICES LTD,B70 9QL,52.5228,-2.0007
Carter’s Green Fish Bar ,B70 9QP,52.5243,-2.0037
Picantes,B70 9QP,52.5242,-2.0036
Shaftesbury Casino Limited,B70 9QW,52.5237,-2.0024
akash balti restaurant,B70 9QW,52.5237,-2.0024
Big Johns West Brom,B70 9RL,52.5255,-2.0075
Harry's Diner,B71 1AN,52.5319,-1.9931
The merry go round,B71 1NE,52.5263,-2.0024
McDonald's,B71 1RG,52.5304,-1.9883
McDonalds Restaurants Ltd,B71 1RG,52.5304,-1.9883
The Red Lion,B71 1RH,52.5313,-1.9883
Greedy Pig 2,B71 2BW,52.5371,-1.9914
Hydes Convenience,B71 2EF,52.5458,-2.0005
Stone Cross Masala,B71 2JQ,52.5458,-1.9916
CURRY N GRILL HOUSE,B71 3LH,52.5462,-1.9829
Lucarelli Italian Restaurant,B71 4AN,52.5231,-1.9872
Subway,B71 4DL,52.5309,-1.9875
The Lewisham at Dartmouth Golf Course,B71 4DW,52.5305,-1.9830
Costa Coffee - Main Receiption,B71 4HJ,52.5281,-1.9889
Costa Coffee - Out Patient Department,B71 4HJ,52.5281,-1.9889
Hallam Restaurant  Sandwell Hospital,B71 4HJ,52.5281,-1.9889
Starbucks West Bromwich,B71 4JH,52.5114,-1.9654
Hawthorns Subway,B71 4JZ,52.5104,-1.9696
De Everest Dine,B73 5AB,52.5484,-1.8610
IMANI'S RESTAURANT LIMITED,B73 5AB,52.5484,-1.8610
THE GARDEN ROOM,B73 5BD,52.5444,-1.8512
Costa Coffee,B73 6RB,52.5505,-1.8591
KFC,B73 6RB,52.5506,-1.8590
Chutney ,B73 6RG,52.5489,-1.8605
Indian Nights,B74 2JR,52.5720,-1.8856
The Bracebridge Restaurant,B74 2YR,52.5793,-1.8524
XO LOUNGE,B74 3EH,52.5858,-1.8722
DELHI 6 RESTAURANT LIMITED,B74 3EJ,52.5866,-1.8731
mocha coffee lounge limited,B74 3EJ,52.5865,-1.8729
DA GINO,B74 3EL,52.5864,-1.8737
Spice of Streetly Ltd,B74 3NA,52.5791,-1.8854
Streetly Balti,B74 3NA,52.5791,-1.8855
Spice inn ,B74 3PW,52.5794,-1.8899
Aston Wood Golf Club Ltd,B74 4EU,52.6038,-1.8511
THE CABIN CAFE,B8 1AE,52.4828,-1.8677
Alum Rock Kebab House ,B8 1JA,52.4906,-1.8557
Izmirr Turkish Restaurant,B8 1JB,52.4915,-1.8585
LAHORE PIZZA LTD,B8 1JB,52.4915,-1.8585
SHAHI DERA T/A KAMAL DA DERA LTD,B8 1LY,52.4906,-1.8563
Original Sajid Shahi ,B8 1ND,52.4899,-1.8547
Sajid Shahi ,B8 1ND,52.4899,-1.8547
CHAIIWALA ALUM ROCK,B8 1NJ,52.4890,-1.8521
Ziryab Executive Buffet,B8 3QD,52.4899,-1.8507
DIXY CHICKEN ALUM ROCK,B8 3QX,52.4897,-1.8513
ROLOS CHARCOAL CHICKEN,B8 3QX,52.4897,-1.8513
APOCALYPSE COW (NEVER STOP GRILLING),B9 4AA,52.4754,-1.8846
APOCALYPSE COW BIRMINGHAM LTD,B9 4AA,52.4754,-1.8846
BAKED IN BRICK,B9 4AA,52.4754,-1.8846
Kanteen,B9 4AA,52.4754,-1.8846
Stag Digbeth Limited,B9 4AA,52.4754,-1.8842
Zumhof Biergarten,B9 4AL,52.4764,-1.8818
Roxy Ball Room Birmingham,B9 4AR,52.4764,-1.8829
Keuxties Diner / Le Keux Vintage,B9 4AT,52.4749,-1.8846
Le Keux Vintage Salon,B9 4AT,52.4749,-1.8846
Chance & Counters Birmingham,B9 4BG,52.4754,-1.8845
CHAAYE KHANA LIMITED,B9 4NZ,52.4778,-1.8629
McDonald's Bordesley Green,B9 4SU,52.4773,-1.8536
Mcdonalds Restaurants Ltd,B9 4SU,52.4773,-1.8536
Bismillah Fast Food Ltd T/A BEMZZAH GRILL,B9 4TS,52.4768,-1.8571
Dixy Chicken,DY1 1DB,52.5103,-2.0856
THE OLD GLASSHOUSE PUB COMPANY LTD,DY1 1HA,52.5111,-2.0838
Dudley Spice,DY1 1LP,52.5114,-2.0823
the old priory,DY1 1LU,52.5117,-2.0835
Finesse Desserts Dudley,DY1 1PS,52.5094,-2.0841
The Coffee Shop,DY1 1PZ,52.5090,-2.0845
PAPAZ PIZZA AND KEBAB,DY1 1QE,52.5093,-2.0858
Twice the spice ,DY1 1QP,52.5082,-2.0880
FRENCH CONNECTION COFFE HOUSE,DY1 1QQ,52.5097,-2.0845
Subway,DY1 1QQ,52.5097,-2.0845
BRITANNIA INN BAR AND GRILL,DY1 1QU,52.5058,-2.0936
The Hilly House,DY1 2QH,52.5121,-2.1067
The Caves Bar & Grill,DY1 3SB,52.5279,-2.0965
The caves bar &grill,DY1 3SB,52.5279,-2.0965
A&S Restaurants LTD T/A McDonalds,DY1 4TA,52.5161,-2.0722
McDonalds Restaurants Limited,DY1 4TA,52.5161,-2.0722
Nandos Dudley,DY1 4TA,52.5161,-2.0722
Pizza Hut,DY1 4TA,52.5161,-2.0722
Tenpin,DY1 4TA,52.5161,-2.0722
KFC,DY1 4TB,52.5139,-2.0685
Burger King,DY1 4TD,52.5150,-2.0708
The Woodman,DY2 0BP,52.4802,-2.0859
Railway Tavern,DY2 0ST,52.4958,-2.1046
Joseph Dubliners,DY2 7AE,52.5106,-2.0802
Birdcage Grill (Fish and Chips),DY2 7AG,52.5104,-2.0800
Cottage Bakers Coffee ,DY2 7AG,52.5104,-2.0800
Costa Coffee,DY2 7BL,52.5104,-2.0811
D-cube Restobar (Restaurant & Bar),DY2 8NY,52.5092,-2.0826
The Coast restaurant Bar ltd,DY2 8NY,52.5092,-2.0824
The Spring Cottage,DY2 9NA,52.4798,-2.0747
Aksaraa service limited ,DY2 9PS,52.4887,-2.0811
OLDE SWAN INN,DY2 9PY,52.4901,-2.0826
Ann’s Thai Restaurant ,DY3 1JA,52.5428,-2.1195
CROWN,DY3 1RJ,52.5443,-2.1220
Delightful Desserts,DY3 1RP,52.5418,-2.1225
Subway,DY3 1RP,52.5418,-2.1225
Spices,DY3 1SA,52.5405,-2.1209
Lime ,DY3 1SR,52.5387,-2.1194
CAFE CASITA LTD,DY3 1UP,52.5298,-2.1181
McDonalds Restaurants Limited,DY3 1UX,52.5278,-2.1161
Upper Gornal McDonald's,DY3 1UX,52.5278,-2.1162
LE RAJ RESTAURANT (DUDLEY) LIMITED,DY3 2UA,52.5173,-2.1321
Mad Hatters Tea Room,DY3 2UA,52.5172,-2.1329
Seven Stars,DY3 3LT,52.5391,-2.1287
The Summerhouse Sedgley Ltd,DY3 4AN,52.5409,-2.1447
The Dudley Arms Pub Company,DY3 4LB,52.5185,-2.1758
The Staffordshire Golf Club,DY3 4PU,52.5275,-2.2315
Veronica House Nursing Home - Elior UK,DY4 0DX,52.5448,-2.0378
the kings arms,DY4 0HP,52.5349,-2.0383
Port N Ale Ltd,DY4 7DS,52.5283,-2.0401
Alis kitchen,DY4 7EL,52.5302,-2.0350
Balti nites,DY4 7EL,52.5302,-2.0350
A&S Restaurants LTD T/A McDonalds,DY4 7HJ,52.5308,-2.0324
Mcdonalds Restaurants Ltd,DY4 7HJ,52.5308,-2.0324
KFC,DY4 7HW,52.5312,-2.0313
Tenders Chicken,DY4 7QT,52.5261,-2.0457
Ekhaya Bar and Grill ,DY4 7RG,52.5180,-2.0583
Mughal Massala ,DY4 8DB,52.5285,-2.0727
Bangla Cottage,DY4 8EZ,52.5294,-2.0675
The fountain inn ,DY4 8HE,52.5288,-2.0700
MAJOR CURRY AFFAIR ,DY4 8XE,52.5194,-2.0581
Mad O'Rourkes Pie Factory,DY4 9AB,52.5306,-2.0757
The Barge & Barrel ,DY4 9AU,52.5303,-2.0718
Saltwells Inn,DY5 1AX,52.4798,-2.0991
Bootons Bar & Grill,DY5 1HA,52.4845,-2.1212
Royal Adeel Restaurant ,DY5 1LH,52.4848,-2.1204
Burger King,DY5 1LL,52.4885,-2.1187
Nando's,DY5 1QN,52.4821,-2.1105
Debenhams Restaurant Merryhill,DY5 1QU,52.4821,-2.1105
Burrito Kitchen Merry Hill,DY5 1QX,52.4821,-2.1105
Chopstix Merry Hill Zeto,DY5 1QX,52.4822,-2.1123
Five Guys,DY5 1QX,52.4821,-2.1105
Little Dessert Shop Ltd,DY5 1QX,52.4821,-2.1105
SOHO Coffee Shops Limited Merry Hill 2,DY5 1QX,52.4822,-2.1123
Starbucks Coffee,DY5 1QX,52.4821,-2.1105
Tasty plaice ,DY5 1QX,52.4822,-2.1123
Yangtze Merry Hill,DY5 1QX,52.4821,-2.1105
CAFFE DEL MONDO,DY5 1RU,52.4817,-2.1179
Blue Ball Restaurant ,DY5 1SE,52.4730,-2.1086
McDonalds,DY5 1SH,52.4799,-2.1097
McDonald’s Merry Hill 4,DY5 1SH,52.4799,-2.1097
Harper's British Classics,DY5 1SJ,52.4809,-2.1108
KFC,DY5 1SJ,52.4809,-2.1108
Napoli Pizzeria & Pasta,DY5 1SJ,52.4809,-2.1108
Sizzled Merryhill ,DY5 1SJ,52.4809,-2.1108
Subway Merry Hill,DY5 1SJ,52.4809,-2.1108
Wrapchic,DY5 1SJ,52.4821,-2.1105
Burger King,DY5 1SP,52.4819,-2.1117
Pizza Express,DY5 1SP,52.4819,-2.1117
Oopsy Daisies Ltd,DY5 1SS,52.4825,-2.1113
KFC,DY5 1SY,52.4778,-2.1114
McDonalds,DY5 1SY,52.4778,-2.1114
McDonald’s Merry Hill 1,DY5 1SY,52.4778,-2.1114
Pizza Hut Restaurant,DY5 1SY,52.4778,-2.1114
Triple Two Coffee,DY5 1SY,52.4781,-2.1117
Scallywags soft play,DY5 1UA,52.4842,-2.1158
Louies cafe,DY5 1UB,52.4831,-2.1166
BRIERLEY HOP HOUSE,DY5 1XD,52.4852,-2.1141
Ten Steps Coffee Lounge ,DY5 1XG,52.4865,-2.1143
Church Tavern,DY5 2AA,52.4725,-2.1039
UNDAAL FINE INDIAN CUISINE,DY5 2AA,52.4725,-2.1039
The Waggon & Horses,DY5 2AH,52.4690,-2.0974
Manis Bar & Grill LTD trading as The White Horse,DY5 2BA,52.4701,-2.1014
Saucy sausage cafe,DY5 2JW,52.4729,-2.1055
 The Koyla Kitchen,DY5 2JY,52.4657,-2.1153
The Vine inn,DY5 2TN,52.4746,-2.1158
The Tenth Lock,DY5 2TY,52.4754,-2.1215
Mecca Bingo,DY5 3AB,52.4794,-2.1232
ESSENCE OF INDIA,DY5 3BP,52.4832,-2.1209
The Brierley Sausage,DY5 3BU,52.4829,-2.1215
Zaks plaice,DY5 3BU,52.4829,-2.1215
Red Lion,DY5 3HX,52.4863,-2.1274
Il Michelangelo,DY5 3JA,52.4860,-2.1299
J's Diner & Catering Services ,DY5 3LH,52.4743,-2.1378
the new wellington ,DY5 3LQ,52.4739,-2.1383
Sarahs diner,DY5 4AH,52.4915,-2.1316
High Oak,DY5 4ED,52.5007,-2.1324
Navigation Inn,DY6 0AH,52.4967,-2.2062
Hickory's Smokehouse,DY6 0EN,52.5010,-2.1829
the new wall heath tandoori,DY6 0HA,52.5047,-2.1781
Alam International Restaurant Limited,DY6 0NP,52.5060,-2.1787
KFC,DY6 7AP,52.5044,-2.1664
KFC,DY6 7LE,52.5080,-2.1534
Alexander Greek Restaurant,DY6 8AA,52.4973,-2.1677
Cross Balti Limited,DY6 8AA,52.4973,-2.1677
the bell inn,DY6 8AJ,52.4979,-2.1646
Zingaz ,DY6 8AW,52.4981,-2.1628
Costa Coffee,DY6 8WT,52.5002,-2.1516
McDonalds Restaurants Limited,DY6 8WT,52.5001,-2.1519
McDonald’s Kingswinford,DY6 8WT,52.5002,-2.1517
Delightful Desserts,DY6 9EL,52.5000,-2.1736
Jilly's Coffee Shop,DY6 9JL,52.4970,-2.1692
Robbys,DY6 9JL,52.4970,-2.1692
SALATHIP Thai Cuisine,DY6 9LB,52.4958,-2.1679
The Leopard Inn,DY6 9NA,52.4961,-2.1698
Swan inn,DY6 9NW,52.4924,-2.1658
The Park Tavern ,DY6 9QG,52.4934,-2.1720
Sommai Thai Restaurant,DY6 9ST,52.4892,-2.1766
The Mount Pleasant Inn,DY6 9TH,52.4885,-2.1711
Norac Ltd,DY7 5BL,52.4656,-2.2345
Halfpenny Green Wine Estate,DY7 5EP,52.5311,-2.2514
The Cat At Enville Limited,DY7 5HA,52.4782,-2.2573
Harleys Smokehouse Limited,DY7 6LU,52.4547,-2.2096
Westman Securities Ltd T/A Dunsley Hall Hotel,DY7 6LU,52.4547,-2.2096
cafe express,DY8 1AB,52.4568,-2.1473
stourbridge Institute & social club,DY8 1AD,52.4566,-2.1480
THE PLOUGH & HARROW,DY8 1AX,52.4512,-2.1487
The Yak Nepalese  and indian cuisine,DY8 1DP,52.4566,-2.1466
Caffe Nero,DY8 1DT,52.4563,-2.1457
The Talbot Hotel,DY8 1DW,52.4571,-2.1468
Pizza Express,DY8 1DX,52.4560,-2.1448
Surantha patisserie,DY8 1ED,52.4553,-2.1437
Cafe 105,DY8 1EE,52.4554,-2.1446
Cock N Bull.Co,DY8 1EE,52.4554,-2.1446
Ronnie's Real Wood-Fired Pizza Ltd.,DY8 1EE,52.4554,-2.1446
Delightful Desserts,DY8 1EL,52.4558,-2.1438
THE DUKE WILLIAM,DY8 1EP,52.4576,-2.1468
The French Connection,DY8 1EP,52.4577,-2.1466
The French Deli,DY8 1EP,52.4576,-2.1468
COSTA COFFEE,DY8 1HJ,52.4559,-2.1463
Coffee#1,DY8 1HJ,52.4559,-2.1463
COSTA COFFEE,DY8 1JN,52.4602,-2.1466
KFC,DY8 1JN,52.4602,-2.1466
McDonalds,DY8 1JN,52.4602,-2.1466
McDonald’s Stourbridge,DY8 1JN,52.4602,-2.1466
FULL OF BEANS CAFE LIMITED,DY8 1PH,52.4545,-2.1440
BOMBAY PICKLES LTD,DY8 1TA,52.4587,-2.1481
Cellars Indian Cuisine ltd,DY8 1TT,52.4586,-2.1486
East One Curry House Limited,DY8 3NX,52.4601,-2.1644
The island cafe,DY8 3NY,52.4603,-2.1634
The Plough Inn,DY8 3PD,52.4597,-2.1700
the kitchen at the foresters arms,DY8 3PL,52.4607,-2.1739
Caribbean kitchen ltd,DY8 3PZ,52.4593,-2.1603
Indus Express,DY8 3QG,52.4604,-2.1623
Indiluxe,DY8 4AJ,52.4710,-2.1553
Pizza Hut,DY8 4AJ,52.4710,-2.1553
Red Cone Coffee House,DY8 4AZ,52.4760,-2.1569
Khatri's ,DY8 4BA,52.4712,-2.1532
Moons Cafe,DY8 4BS,52.4707,-2.1533
Ruby Cantonese Restaurant,DY8 4HE,52.4674,-2.1537
The Old Wharf Inn,DY8 4LY,52.4611,-2.1492
Red chilli ,DY8 4NH,52.4609,-2.1627
The Red Forte Indian Restaurant ,DY8 4NJ,52.4620,-2.1623
DBR wordsley ltd,DY8 5PG,52.4809,-2.1625
LITTLE TASTE OF HEAVEN ,DY8 5PG,52.4809,-2.1624
Crystal Balti,DY8 5SE,52.4786,-2.1610
Rainbow Palace,DY9 7BU,52.4575,-2.1244
Sadlers Tap House Limited,DY9 7DG,52.4579,-2.1194
Balti Bazaar,DY9 8DJ,52.4570,-2.1182
Subway,DY9 8DU,52.4619,-2.1171
TIFFINS RESTAURANT LTD,DY9 8EA,52.4618,-2.1176
The Cafe,DY9 8EE,52.4608,-2.1175
Maliks Restaurant Lye Ltd,DY9 8ET,52.4597,-2.1170
D'luxe Desserts,DY9 8JT,52.4586,-2.1170
Tirana Birmingham,DY9 8LN,52.4571,-2.1142
Expressions,WS1 1JQ,52.5848,-1.9780
KFC Walsall,WS1 1NG,52.5851,-1.9832
McDonald's,WS1 1NG,52.5852,-1.9833
Subway,WS1 1NG,52.5851,-1.9834
Jack & Ada's,WS1 1NR,52.5856,-1.9830
Harveys cafe,WS1 1NW,52.5855,-1.9848
Memoirs bar ,WS1 1PL,52.5835,-1.9840
Sultana Turkish Restaurant,WS1 1QJ,52.5832,-1.9784
The Black Country Arms ,WS1 1QW,52.5833,-1.9789
The parlour restaurant ,WS1 1RE,52.5836,-1.9822
DIGBYS CAFE,WS1 1RH,52.5834,-1.9815
Wetherspoons,WS1 1SX,52.5854,-1.9802
Dominos Pizza,WS1 1SZ,52.5878,-1.9765
zaraza restaurant romanesc,WS1 1SZ,52.5878,-1.9765
Burger King,WS1 1YS,52.5845,-1.9841
COSTA COFFEE,WS1 1YS,52.5845,-1.9842
Subway,WS1 1YT,52.5839,-1.9840
golden moments limited,WS1 2EQ,52.5838,-1.9755
CAFE AROMATICO LTD,WS1 2EU,52.5834,-1.9758
Shimla Peppers at Balloons,WS1 2EU,52.5834,-1.9758
oliver leisure ltd trading as lyndon house ,WS1 2HA,52.5836,-1.9764
Walsall Golf Club Limited,WS1 3EY,52.5699,-1.9646
Five Rivers A la Carte,WS1 3NA,52.5809,-1.9831
Lal Haveli Restaurant ,WS1 3QD,52.5814,-1.9849
Rendezvous Walsall ltd,WS1 3QQ,52.5809,-1.9862
Sultan’s restaurant and takeaway limited,WS1 3RB,52.5782,-1.9818
Caldmore Restaurant,WS1 3RF,52.5775,-1.9820
Dera Walsall Ltd,WS1 3RF,52.5775,-1.9821
Pearls Peri Peri,WS1 3RL,52.5767,-1.9822
CHICKEN BITES,WS1 4BP,52.5755,-1.9813
Sweet treat ,WS1 4LN,52.5733,-1.9887
Walsall FC Ltd,WS1 4SA,52.5655,-1.9912
McDonald's,WS1 4SB,52.5666,-1.9920
McDonalds Restaurants,WS1 4SB,52.5666,-1.9920
Park Inn by Radisson Birmingham Walsall,WS1 4SE,52.5644,-1.9893
Hydes Road Fish Bar,WS10 0DH,52.5492,-2.0075
Buttylicious,WS10 0DX,52.5562,-2.0008
Akropolis Savor,WS10 0ED,52.5510,-1.9955
D's Soulfood Kitchen,WS10 0ED,52.5510,-1.9955
Le bakery ,WS10 0ED,52.5510,-1.9955
The Village Inn,WS10 0QB,52.5541,-2.0064
PARKHILL CAFE,WS10 0TJ,52.5578,-1.9963
Kesar,WS10 7AL,52.5510,-2.0191
Moza Kitchen,WS10 7AQ,52.5519,-2.0184
island cafe and takeaway ltd,WS10 7AQ,52.5518,-2.0189
seven Bar,WS10 7AQ,52.5518,-2.0189
Mecca Bingo,WS10 7DR,52.5511,-2.0253
CHICKING WEDNESBURY,WS10 7HB,52.5526,-2.0215
The Vintage Tea Room and Cafe,WS10 7HB,52.5526,-2.0223
Tysons,WS10 7HJ,52.5535,-2.0204
Lamp restaurant ,WS10 7HQ,52.5534,-2.0211
WS10 LIMITED / BUFFET EXPRESS,WS10 7PA,52.5526,-2.0268
spices restaurany & takeaway wednesbury ltd,WS10 7PA,52.5526,-2.0268
MAC'S DINER LTD,WS10 8BQ,52.5708,-2.0232
MATHIURA BUSINESS LIMITED,WS10 8DU,52.5705,-2.0360
Herberts Tavern,WS10 8QU,52.5683,-2.0452
Tenders Chicken ,WS10 8SY,52.5663,-2.0359
The Crown,WS10 8TN,52.5672,-2.0381
Compass Group UK and Ireland,WS10 8UZ,52.5684,-2.0355
churchills bar and restaurant,WS10 9BZ,52.5539,-2.0173
CASAMIA ,WS10 9QW,52.5615,-2.0064
Gurkha 1816,WS10 9QW,52.5615,-2.0064
Burger King,WS10 9QY,52.5655,-2.0086
Costa Coffee,WS10 9QY,52.5655,-2.0086
Jamaica Blue  Next (Wednesbury) ,WS10 9QY,52.5655,-2.0086
KFC,WS10 9QY,52.5655,-2.0086
Nando's,WS10 9QY,52.5655,-2.0086
Pizza Hut Restaurant,WS10 9QY,52.5655,-2.0086
Smashburger,WS10 9QY,52.5655,-2.0086
Buzz Bingo,WS10 9SB,52.5713,-2.0185
OK Diner Cannock,WS11 0BN,52.6737,-2.0276
Burger King,WS11 8AB,52.6737,-2.0210
Costa Coffee,WS11 8XR,52.6745,-2.0227
Leon @ Roadchef,WS11 9UH,52.6658,-1.9718
McDonalds @ Roadchef,WS11 9UX,52.6650,-1.9678
The Trooper,WS14 0AN,52.6564,-1.8572
Cardamom Balti Restaurant & Takeaway,WS2 0DU,52.5852,-2.0242
Hungry Pigs Cafe,WS2 0DU,52.5853,-2.0245
BB's Coffee Shop c/o Boundary Mill Stores,WS2 0LE,52.5814,-2.0182
KFC,WS2 7BU,52.6063,-2.0009
TNS Catering_TJX Europe,WS2 7PT,52.6004,-1.9949
Light Cinemas Walsall,WS2 8DD,52.5867,-1.9929
Pizza Express,WS2 8DH,52.5859,-1.9896
Subway,WS2 8DH,52.5859,-1.9896
DODO Pizza,WS2 8EJ,52.5893,-1.9842
Subway Restaurant,WS2 8EJ,52.5893,-1.9841
The Littleton Restaurant,WS2 8ES,52.5895,-1.9825
German Doner Kebab,WS2 8EZ,52.5876,-1.9836
McDonald's,WS2 8EZ,52.5882,-1.9839
McDonalds,WS2 8EZ,52.5882,-1.9839
Royal Punjab,WS2 8EZ,52.5876,-1.9836
COSTA COFFEE,WS2 8LG,52.5855,-1.9859
Nando's,WS2 8LL,52.5869,-1.9886
Starbucks Coffee,WS2 8LL,52.5869,-1.9886
FINESSE DESSERTS,WS2 8LN,52.5853,-1.9860
Pirifino Walsall ,WS2 8LN,52.5853,-1.9860
Dine & Wine Restaurant ,WS2 8LP,52.5862,-1.9864
Creams Cafe Walsall,WS2 8LR,52.5860,-1.9866
TGI Fridays,WS2 8LR,52.5859,-1.9873
The Lockside Steakhouse,WS2 8LR,52.5860,-1.9866
parkbrook bar and grill ltd,WS2 8RJ,52.5875,-2.0069
The Alma Inn ,WS2 8SP,52.5913,-2.0034
Street Kitchen Brothers ,WS2 8TB,52.5874,-2.0092
KFC (M6 Juction 10),WS2 8TJ,52.5840,-2.0117
McDonald's,WS2 8XD,52.5956,-2.0025
McDonalds Restaurants Ltd,WS2 8XD,52.5956,-2.0025
king George v,WS2 9BZ,52.5699,-2.0004
Pepes Piri Piri,WS2 9HE,52.5770,-2.0014
heavenly desserts walsall ltd,WS2 9HE,52.5770,-2.0014
Pimentos bar and grill,WS2 9JZ,52.5842,-1.9864
PREMIER DINER,WS2 9NT,52.5821,-1.9908
Chunky chicken ,WS2 9QJ,52.5732,-1.9986
Herolicious ,WS2 9QJ,52.5733,-1.9973
MAC'S DINER LTD,WS2 9QN,52.5735,-1.9972
Yaadgaar,WS2 9QN,52.5735,-1.9972
Burger King,WS3 2BB,52.6095,-1.9961
Zeera Authentic Eastern cuisine ,WS3 2HR,52.6161,-2.0059
The Gulshan balti,WS3 2JE,52.6169,-2.0051
Penguin cafe,WS3 2XA,52.6048,-1.9920
The Vintage Tea Room,WS3 2XD,52.6063,-1.9932
Subway,WS3 3HE,52.6152,-2.0030
Ashoca,WS3 3JT,52.6146,-2.0039
Delicious-The Finest Indian Cuisine,WS3 3LQ,52.6172,-2.0042
Mirchi catering ltd,WS3 3UB,52.6296,-2.0132
one man and his dog ,WS3 3UB,52.6296,-2.0132
The Reading Rooms,WS3 4LX,52.6298,-1.9683
The fingerpost pub ,WS3 5AU,52.6382,-1.9685
McDonalds Restaurant,WS4 1EA,52.6050,-1.9632
McDonald's,WS4 1JW,52.6065,-1.9610
Calderfields Golf & Country Club Ltd,WS4 2JS,52.5896,-1.9430
The Broadway Bar And Grill,WS5 3AB,52.5725,-1.9622
KAJAL BALTI LIMITED,WS5 3EY,52.5719,-1.9463
King Arthur Grill,WS5 3EY,52.5719,-1.9463
Dave's Cafe ,WS5 4PE,52.5645,-1.9820
NEW IVY HOUSE,WS6 6AZ,52.6368,-2.0107
The New Masons Bar And Grill,WS6 6AZ,52.6368,-2.0107
Olde Wyrley hall,WS6 6LL,52.6646,-2.0208
Jessicas Catering and Vending Solutions Ltd,WS6 6NQ,52.6642,-2.0121
the star inn,WS6 6NQ,52.6627,-2.0108
The Royal Oak,WS6 6PE,52.6658,-2.0136
Hawa Restaurant ,WS6 7AD,52.6600,-2.0342
colliers arms,WS6 7AE,52.6601,-2.0371
the malt at landywood,WS6 7AR,52.6499,-2.0246
THE MARY ROSE,WS6 7AY,52.6561,-2.0349
Village Lodge,WS6 7ED,52.6625,-2.0305
The Bakery Chasetown,WS7 3XE,52.6715,-1.9343
The Miners Rest,WS7 4QS,52.6690,-1.9318
Silver Court Cafe,WS8 6HA,52.6444,-1.9298
Open House Tandoori Restaurant ,WS8 6HG,52.6455,-1.9304
Costa Coffee,WS8 6HH,52.6469,-1.9324
Subway,WS8 6HL,52.6460,-1.9311
Hoofbeats,WS8 6JR,52.6557,-1.9210
Grasmere Garden Centre,WS8 6LL,52.6522,-1.9110
Bean and Baked,WS8 7JW,52.6503,-1.9384
Thai Lanna - Chasewater,WS8 7LT,52.6585,-1.9490
Fairlawns Restaurant 178,WS9 0NU,52.6028,-1.8984
Pacific Nurseries Limited,WS9 0PH,52.5897,-1.8884
Peninsular Cantonese Restaurant,WS9 0PP,52.5881,-1.8887
Waterside Cafe,WS9 0PU,52.5960,-1.8915
Shimla Tandoori,WS9 8HB,52.6166,-1.9162
Druids Heath Golf Club Ltd,WS9 8JZ,52.6134,-1.9090
Afrikana,WS9 8LX,52.6050,-1.9162
Balti Nights,WS9 8LX,52.6048,-1.9162
Subway,WS9 8LX,52.6048,-1.9162
Sweet. Aldridge,WS9 8LX,52.6050,-1.9172
Simply Delicious ,WS9 8LZ,52.6052,-1.9155
khimuk,WS9 8NL,52.6048,-1.9150
AURA,WS9 8PT,52.6041,-1.9193
Aura ,WS9 8PT,52.6041,-1.9193
Faz Spice LTD,WS9 8PT,52.6037,-1.9194
Oriental Leisure Ltd,WS9 8PT,52.6037,-1.9194
The Avion (Wetherspoon),WS9 8PT,52.6041,-1.9193
 Jabin - Laboni Restaurants Ltd,WS9 8QP,52.6043,-1.9177
Cafe in the Square,WS9 8QP,52.6043,-1.9177
Costa Coffee,WS9 8QP,52.6043,-1.9177
Davinci Restaurant Limited,WS9 8QP,52.6043,-1.9177
Anchor Brook Cafe,WS9 8UF,52.6059,-1.9373
HORSE & JOCKEY,WS9 9AJ,52.6225,-1.9388
Massala Club,WS9 9DY,52.6322,-1.8966
KFC,WS9 9EQ,52.6404,-1.8993
ABU SPICE LIMITED,WS9 9JD,52.6296,-1.9239
Kelly’s kitchen,WS9 9JD,52.6296,-1.9239
BOATMANS BAR AND GRILL LTD,WS9 9LP,52.6263,-1.9326
DODO Pizza,WS9 9NP,52.6294,-1.9281
KFC,WS9 9NP,52.6294,-1.9281
Royal Exchange,WS9 9NP,52.6298,-1.9278
Britannia Hotel ,WV1 1DD,52.5865,-2.1237
Baguette about it,WV1 1DG,52.5865,-2.1264
Zuri Coffee,WV1 1EQ,52.5869,-2.1248
Dilshad Indian Restaurant LTD,WV1 1HA,52.5861,-2.1246
Duke of York ,WV1 1HD,52.5861,-2.1252
Apna Dera Ltd,WV1 1HP,52.5873,-2.1248
Jivan’s Balti House,WV1 1HP,52.5873,-2.1249
pepes piri piri,WV1 1JA,52.5874,-2.1256
Cafe 1896 Limited ,WV1 1JY,52.5897,-2.1234
2 Sisters Coffee Lounge ,WV1 1ST,52.5860,-2.1262
Falafilo coffeehouse ,WV1 1ST,52.5860,-2.1262
Alice's Tea Room,WV1 1TQ,52.5856,-2.1283
SUBWAY,WV1 1TQ,52.5855,-2.1285
Top Nosh,WV1 1TQ,52.5855,-2.1285
THE NEW VICTORIA LTD,WV1 2BA,52.5880,-2.0938
The Glassy junction ,WV1 2HR,52.5835,-2.1014
Fresh Bakes Cafe,WV1 2HW,52.5835,-2.1030
Hickmans Cafe ,WV1 2XF,52.5792,-2.1035
subway,WV1 3AE,52.5849,-2.1253
China Cooking,WV1 3EN,52.5857,-2.1276
McDonalds,WV1 3ER,52.5847,-2.1269
McDonald’s Dudley St,WV1 3ER,52.5847,-2.1269
Coffee Moments,WV1 3HF,52.5837,-2.1264
Burger King,WV1 3HG,52.5832,-2.1270
Subway Wulfrun Centre,WV1 3HG,52.5834,-2.1275
Oceans Fryer Ltd,WV1 3HH,52.5832,-2.1270
Little Dessert Shop Ltd,WV1 3JW,52.5858,-2.1246
Nando's Chickenland Ltd,WV1 3JW,52.5858,-2.1246
The Queens,WV1 3JW,52.5857,-2.1246
Central Cafe,WV1 3NN,52.5850,-2.1279
Lindy Lou's coffee shop ltd,WV1 3NP,52.5847,-2.1293
The Subcontinent,WV1 3NP,52.5847,-2.1293
Nutmeg,WV1 3NU,52.5845,-2.1290
Caffe Nero,WV1 3PQ,52.5853,-2.1300
Delhi 2 Bombay,WV1 4EP,52.5858,-2.1398
Rosso E Nero Restaurant,WV1 4HW,52.5853,-2.1312
Marstons Brewery,WV1 4JT,52.5850,-2.1371
MARIGOLD INDIAN RESTAURANT UK LIMITED ,WV1 4LP,52.5839,-2.1328
MARIGOLD INDIAN RESTAURANT UK LIMITED,WV1 4LP,52.5839,-2.1328
THE NEW SPICE RESTAURANT LIMITED,WV1 4LR,52.5839,-2.1316
Rocco Italian,WV1 4LY,52.5854,-2.1326
Heavenly Desserts,WV1 4ND,52.5853,-2.1335
Hamiltons Restaurant at A Park View Hotel,WV1 4PP,52.5870,-2.1399
Marstons Talent Academy,WV1 4PR,52.5862,-2.1394
Annabels Bar Cafe,WV1 4QL,52.5880,-2.1332
THE COFFEE HOUSE,WV10 0QP,52.5997,-2.0956
Pizza Hut,WV10 6AN,52.6190,-2.1299
SA & JBC DINING LIMITED,WV10 6AN,52.6190,-2.1299
SUBWAY,WV10 6AN,52.6190,-2.1299
McDonalds Restaurants,WV10 6JF,52.6018,-2.1295
McDonald’s Stafford Road,WV10 6JF,52.6018,-2.1295
Tastebuds (Wolverhampton) Limited,WV10 6JH,52.6036,-2.1320
The Brook Coffee House Limited,WV10 6NR,52.6291,-2.1257
ming moon restaurant wolverhampton,WV10 6RR,52.6191,-2.1305
Costa Coffee,WV10 7ER,52.6368,-2.1271
Northycote Farm Tearoom ,WV10 7JF,52.6266,-2.1057
The Elms,WV10 7JR,52.6546,-2.0813
THE WHEATSHEAF INN,WV10 7LU,52.6604,-2.0605
Hollybush Coffee Shop LTD,WV10 7LX,52.6550,-2.0545
Three Hammers Bar & Bistro,WV10 7PP,52.6507,-2.1267
K-Tea's Tearoom & Cakes,WV10 8EB,52.6224,-2.1151
McDonalds,WV10 8PN,52.6117,-2.1006
McDonald’s Fallings Park,WV10 8PN,52.6117,-2.1006
SUBWAY,WV10 8PN,52.6117,-2.1006
Our Rasoi,WV10 9DX,52.5988,-2.1142
Mcbellas,WV10 9EZ,52.6190,-2.1239
THE DINER LTD,WV10 9QY,52.6049,-2.1060
Buzz Bingo,WV10 9TU,52.6112,-2.1228
KFC (GB) Ltd,WV10 9TW,52.6048,-2.1290
Hungry hemmings cafe ,WV10 9UL,52.6167,-2.1174
Costa Coffee,WV11 1BP,52.5969,-2.0903
Hollywood Bowl,WV11 1BP,52.5969,-2.0903
KFC,WV11 1BP,52.5969,-2.0903
McDonalds,WV11 1BP,52.5969,-2.0903
McDonald’s Wednesfield,WV11 1BP,52.5969,-2.0903
Nando's,WV11 1BP,52.5969,-2.0903
Pizza Hut,WV11 1BP,52.5969,-2.0903
Subway,WV11 1BP,52.5969,-2.0903
Qmin Restaurant ,WV11 1JP,52.6103,-2.0854
the castle inn,WV11 1NW,52.6064,-2.0803
The Village Inns Fisherman Limited,WV11 1PB,52.5996,-2.0904
Masala lounge ,WV11 1TW,52.6027,-2.0801
Little Dessert Shop Ltd,WV11 1UJ,52.5979,-2.0900
The cabin cafe,WV11 1XU,52.5995,-2.0808
The Baburchi Restaurant ,WV11 1YD,52.6140,-2.0855
Burger King North,WV11 2AT,52.6426,-2.0548
Burger King South,WV11 2AT,52.6426,-2.0548
Costa Coffee,WV11 2AT,52.6434,-2.0554
Costa Coffee-Northbound,WV11 2AT,52.6426,-2.0548
Ashma cafe,WV11 2JW,52.6144,-2.0616
The 1911 Café Ltd,WV11 2RF,52.6311,-2.0576
BST MIDLANDS LTD,WV11 2RH,52.6356,-2.0347
Evies kitchen ,WV11 3DD,52.6079,-2.0743
Buzz Bingo,WV11 3HD,52.6080,-2.0618
the navigation inn,WV11 3SU,52.5961,-2.0626
JIN'S PANTRY ,WV11 3TT,52.6118,-2.0828
The Homestead,WV12 4DA,52.5962,-2.0300
Chilli Peppers,WV12 5BB,52.6110,-2.0391
TAMARIS INDIAN RESTAURANT ,WV12 5BE,52.6128,-2.0361
The Milestone,WV12 5DT,52.6151,-2.0433
The Noah's Ark Inn,WV13 1JB,52.5884,-2.0391
Clove (Willenhall) LTD,WV13 2EB,52.5859,-2.0437
YE OLDE TOLL HOUSE,WV13 2ER,52.5849,-2.0489
Burger King,WV13 2QU,52.5772,-2.0469
McDonalds,WV13 2RB,52.5853,-2.0406
McDonald’s Willenhall,WV13 2RB,52.5853,-2.0406
Spice Lounge,WV13 3LH,52.5837,-2.0705
Pizza Hut,WV13 3RA,52.5830,-2.0711
B J's tasty bites ,WV13 3RG,52.5879,-2.0778
THE MAJOR FISH RESTAURANT LTD,WV14 0AX,52.5653,-2.0765
Subway Bilston High St,WV14 0EH,52.5645,-2.0791
Bilston McDonald's,WV14 0EZ,52.5639,-2.0814
McDonalds Restaurants Ltd,WV14 0EZ,52.5639,-2.0814
Purple Flamez,WV14 0LH,52.5580,-2.0714
Britsh Car Auction Wolverhampton Catering,WV14 0QL,52.5615,-2.0875
Mecca Bingo Club,WV14 0QL,52.5615,-2.0875
The Grapes ,WV14 6JG,52.5784,-2.0739
Shan (Midlands) Ltd,WV14 7DW,52.5618,-2.0600
The Golden Cue Snooker Club Limited ,WV14 7LH,52.5710,-2.0714
Fiery Grill & Curry,WV14 8NG,52.5560,-2.0534
Chutney Indian Cuisine,WV14 9DP,52.5410,-2.0878
Coseley McDonald's,WV14 9JH,52.5435,-2.0892
Ronny’s spice,WV14 9JL,52.5420,-2.0899
subway,WV14 9JL,52.5420,-2.0899
McDonalds Restaurants Limited,WV14 9QE,52.5441,-2.0912
Curry Lounge ,WV14 9QZ,52.5452,-2.0971
Horse and Jockey,WV14 9SB,52.5476,-2.1068
K Teas Cakes,WV2 1BA,52.5825,-2.1247
THE BUILDERS ARMS,WV2 1EY,52.5757,-2.1228
Subedi Kitchen LTD at Red Lion Bilston Road,WV2 2HU,52.5763,-2.1066
COFFEE EXPRESS,WV2 2JN,52.5760,-2.1053
The Village Cafe,WV2 2LR,52.5699,-2.0986
SA Food and Grill,WV2 2PD,52.5725,-2.0966
THE ANGEL INN,WV2 2PD,52.5725,-2.0966
THE NEW BL LTD ,WV2 3AF,52.5751,-2.1264
VEGGIE SUPREME PIZZA LTD,WV2 3AJ,52.5741,-2.1279
Milijo's ,WV2 3AY,52.5719,-2.1254
UPPER CRUST CAFE WOLVES LTD,WV2 3BY,52.5765,-2.1261
Lakshmi Sweet Centre LTD,WV2 3DR,52.5714,-2.1247
Dosa Hut,WV2 3JY,52.5679,-2.1239
ORO,WV2 3JY,52.5679,-2.1239
Jack’s Cafe bar ltd,WV2 4DU,52.5786,-2.1277
Kaz Bar Wolves Limited ,WV2 4HJ,52.5770,-2.1323
Desi yew tree,WV2 4HN,52.5781,-2.1307
MEAT AND EAT,WV2 4LD,52.5827,-2.1306
KFC,WV2 4NJ,52.5742,-2.1328
KFC,WV2 4QZ,52.5751,-2.1356
Costa Coffee Wolverhampton,WV2 4SJ,52.5792,-2.1267
BRUFORD ARMS GRILL LTD,WV3 0AY,52.5758,-2.1466
McDonalds,WV3 0LH,52.5776,-2.1356
McDonald’s Penn Rd,WV3 0LH,52.5776,-2.1356
KPS Bar & Grill,WV3 0LU,52.5768,-2.1387
New Merridale,WV3 0RA,52.5807,-2.1343
Plazacafe,WV3 0RX,52.5835,-2.1313
Subway,WV3 0TT,52.5854,-2.1388
Bella Restaurant Limited,WV3 0TY,52.5858,-2.1401
ISO SUSHI WOK & GRILL,WV3 0TY,52.5858,-2.1401
Fat Daddies Smokeshack Ltd,WV3 0UN,52.5821,-2.1482
Kaptin korma,WV3 7HT,52.5766,-2.1561
balti palace ,WV3 7JP,52.5715,-2.1674
Ghale's Coffee Lounge,WV3 8AY,52.5805,-2.1712
The Firs,WV3 8HG,52.5778,-2.1868
Canalside Bar and Grill ,WV3 8JU,52.5786,-2.1962
Northern Lights Coffee Shop,WV3 9RX,52.5849,-2.1423
Penn Tandoori Ltd,WV4 4AD,52.5663,-2.1466
The Roebuck Pub,WV4 4DE,52.5610,-2.1536
CARIBBA RESTAURANT,WV4 4DF,52.5607,-2.1541
Penny's Cafe,WV4 4HU,52.5568,-2.1684
The Springhill,WV4 4LB,52.5576,-2.1722
Evoke Coffee,WV4 4LP,52.5669,-2.1660
5 Spice Cuisine Ltd,WV4 4PP,52.5683,-2.1676
Indigo Restaurant,WV4 4QL,52.5658,-2.1676
The Greyhound,WV4 4UN,52.5631,-2.1987
Ramada Resort Park Hall Wolverhampton,WV4 5AJ,52.5608,-2.1298
The Barely Mow Pub Penn Common Ltd,WV4 5JN,52.5521,-2.1470
Miller & Carter,WV4 5NG,52.5505,-2.1704
Malabar (Penn) Ltd,WV4 5QF,52.5600,-2.1545
Dukes Coffee Shop and Eatery,WV4 5SN,52.5654,-2.1458
Beacon Centre for the Blind,WV4 6AZ,52.5568,-2.1233
Indian Street Food,WV4 6BH,52.5641,-2.1095
PARKFIELD CENTRAL GRILL LTD,WV4 6HQ,52.5661,-2.1102
Saturn Coffee Company,WV4 6JX,52.5637,-2.1023
The Garden Bar,WV4 6NZ,52.5572,-2.1081
The Three Crowns ,WV4 6RB,52.5516,-2.1130
The Red Lion Wombourne Limited,WV5 0JJ,52.5353,-2.1784
The Bell Inn ,WV5 7JB,52.5460,-2.2173
ROUND OAK INN,WV5 8BU,52.5358,-2.2010
Wombourne Tandoori Restaurant,WV5 9DN,52.5346,-2.1840
Courtyard Wombourne,WV5 9DP,52.5348,-2.1833
Fresh Coffee Shop,WV5 9EJ,52.5371,-2.1864
The new inn,WV5 9EY,52.5371,-2.1877
Farmer & Friends,WV5 9JB,52.5353,-2.1855
The Queen Victoria Hotel,WV6 0AG,52.5915,-2.1480
Wolverhampton Lawn Tennis & Squash Club,WV6 0LH,52.5949,-2.1605
Holiday Inn Wolverhampton - Racecourse,WV6 0PE,52.6017,-2.1355
Pegasus ,WV6 0QQ,52.5967,-2.1404
Kebab House,WV6 0QW,52.5942,-2.1429
The Cowshed,WV6 7EN,52.5705,-2.2544
Farmer & Friends,WV6 7EZ,52.5665,-2.2447
Perton Golf Club,WV6 7HL,52.6056,-2.2103
Flamingo Pink,WV6 7QH,52.5948,-2.2031
Fiume Restaurant LTD,WV6 8AB,52.5867,-2.1741
Pizza Hut,WV6 8AE,52.5862,-2.1775
Fieldhouse Inn,WV6 8DP,52.5874,-2.1921
vanilla,WV6 8EJ,52.5906,-2.1819
Cute Hair Salon and Coffee Lounge Ltd,WV6 8ET,52.5939,-2.1876
The Mount Hotel Country Manor,WV6 8HL,52.5879,-2.1862
Monsoon ,WV6 8QQ,52.5980,-2.1689
Gluttons For Nourishment (Tettenhall) Limited,WV6 8QS,52.5980,-2.1679
Seats at Robinsons,WV6 8QT,52.5982,-2.1682
Massalla Club - Wolverhampton ,WV6 8RH,52.5977,-2.1775
Abbey Len Catering Ltd,WV6 9BQ,52.6039,-2.1711
The South Staffordshire Golf Club Ltd,WV6 9BQ,52.6039,-2.1711
THE SUMMER HOUSE,WV7 3AT,52.6204,-2.2605
Medicine Bakery & Kitchen,WV8 1BX,52.6299,-2.2016
Codsall Crown,WV8 1DB,52.6305,-2.2015
Codsall Legionaires Club Ltd,WV8 1DB,52.6305,-2.2024
Jungle Boogie Ltd,WV8 1EA,52.6314,-2.2001
The Codsall Hive,WV8 1EA,52.6316,-2.1999
Snakabyte,WV8 1EU,52.6277,-2.1801
the kitchen bilbrook,WV8 1EZ,52.6271,-2.1797
Costa Coffee,WV8 1PE,52.6250,-2.1897
Codsall Spice,WV8 1PF,52.6244,-2.1869
THE BENTLANDS,WV8 2BP,52.6224,-2.1942
Codsall Station,WV8 2EH,52.6269,-2.2010
The Greenhouse Kitchen,WV8 2HJ,52.6163,-2.1961
The Harrows Inn,WV9 5AW,52.6674,-2.1332
Compass Group At JLR EMC,WV9 5GB,52.6322,-2.1386
The Oasis Cafe Pendeford LTD,WV9 5NJ,52.6236,-2.1446
