name,postcode,lat,lon
Burger King,PE13 1AR,52.66578600000000,0.16172200000000
Costa Coffee,PE13 1AR,52.66578500000000,0.16172200000000
The Rose and Crown Hotel Limited,PE13 1DG,52.66538400000000,0.15960200000000
Loafers coffee shop,PE13 1DP,52.66516200000000,0.16144000000000
The Red Lion,PE13 1JR,52.66476000000000,0.15485400000000
Moja,PE13 1NP,52.66667600000000,0.15826100000000
Elm Road Primary School - Elior UK,PE13 2TB,52.65884000000000,0.16589000000000
Alishan (Wisbech) Ltd,PE13 3BN,52.66808100000000,0.16062300000000
The Black Bear Public House,PE13 3SB,52.6747,0.1770
Play2Day Guyhirn,PE13 4AA,52.6078,0.0568
Route 47 American Steakhouse and Grill,PE13 4AX,52.61662900000000,-0.02028800000000
The Oliver Twist,PE13 4EA,52.60990600000000,0.06281400000000
The Sportsman Pub,PE14 0AG,52.63797100000000,0.17127200000000
The Elm Tree Inn,PE14 0DD,52.64657211303710,0.17357599735260
MCDONALDS,PE14 0RD,52.6576,0.1506
KFC,PE14 0RG,52.65422300000000,0.14639600000000
Prezzo,PE14 0RG,52.65422200000000,0.14639600000000
Dunelm Mill Coffee Shop,PE14 0SL,52.65319300000000,0.14714300000000
KFC Wisbech Retail Park,PE14 0SL,52.6532,0.1472
McDonalds Restaurant Limited,PE14 0SL,52.65319300000000,0.14714400000000
Costa Coffee,PE14 0SW,52.65442730000000,0.14977080000000
Starbucks,PE14 7BD,52.67110200000000,0.20887300000000
KFC,PE15 0BA,52.56837900000000,0.06101200000000
Skylark Country Store & Garden Centre,PE15 0PE,52.5016,0.1163
The Three Tuns,PE15 0SP,52.49516100000000,0.05951600000000
The Anchor Inn,PE15 5BQ,52.5513,0.0869
DEURALI TRADING LIMITED,PE15 8AB,52.55122700000000,0.08755600000000
Diana Tandoori,PE15 8BQ,52.55259500000000,0.08186800000000
KFC MARCH,PE15 8EH,52.55609300000000,0.07518900000000
cook family vintage tea room,PE15 8HL,52.55308151245120,0.08835200220346
The Barn Restaurant,PE15 8LB,52.55135300000000,0.08908100000000
Purple Diamond ,PE15 8LE,52.55201800000000,0.09061700000000
Johanna's,PE15 8TW,52.55076300000000,0.08886100000000
ANNE'S THAI KITCHEN,PE15 8TX,52.55152600000000,0.08839600000000
Costa Coffee,PE15 9JA,52.54940600000000,0.08776400000000
Subway,PE15 9JA,52.5494,0.0878
The acre,PE15 9JD,52.54918900000000,0.08735600000000
The Exchange (March) Ltd,PE15 9JF,52.54898500000000,0.08918900000000
Stotts Fish Restaurant Limited,PE15 9JR,52.54824900000000,0.08809300000000
The spice bank ,PE15 9LD,52.54680900000000,0.08771500000000
Rose and Crown,PE15 9NA,52.5443,0.0911
The Seven Stars,PE15 9PS,52.53902500000000,0.08503000000000
Cross Keys Hotel,PE16 6BA,52.45442100000000,0.04969600000000
Pera Palace,PE16 6BA,52.45442100000000,0.04969600000000
The Old Bakery Tea Room & Restaurant,PE16 6BB,52.45426800000000,0.05024900000000
Islas Emporium & Caf√© ,PE16 6BH,52.45698570000000,0.04799570000000
Spice Lounge ,PE16 6BH,52.45675000000000,0.04814100000000
Green Welly Cafe,PE16 6UA,52.46607500000000,0.04133100000000
Waterfall Elior Limited,PE26 1JA,52.45010757446290,-0.11011700332165
The Old Nene Golf and Country Club,PE26 2XQ,52.46956100000000,-0.10661900000000
Dog in a Doublet,PE6 0FH,52.5776,-0.1218
The 19th Hole Thorney Lakes Ltd,PE6 0TJ,52.63894800000000,-0.08055800000000
Elior at The Spinney,PE6 7GH,52.61087000000000,-0.18378700000000
Starbucks,PE6 7SZ,52.61281960000000,-0.18778480000000
MCDONALDS,PE6 7TN,52.61244500000000,-0.18685400000000
McDonalds Restaurants,PE6 7TN,52.61244500000000,-0.18685400000000
House of Feasts,PE6 7TP,52.61739100000000,-0.18690000000000
Casa Mattoni ltd,PE6 7YB,52.60579200000000,-0.19928300000000
Subway,PE7 1AB,52.5560,-0.1277
The George JD Wetherspoon,PE7 1AB,52.55606200000000,-0.12791500000000
The Ivy Leaf Club Whittlesey 2019 Limited,PE7 1AP,52.55881700000000,-0.12815200000000
Mandarin,PE7 1BA,52.5564,-0.1292
Fontanellas,PE7 1BD,52.55661700000000,-0.12893900000000
Rar rars,PE7 1BW,52.55758400000000,-0.12695100000000
Waterfall Elior (Park Lane Primary School Kitchen),PE7 1JB,52.55664443969730,-0.13525199890137
Elior UK,PE7 1SZ,52.55152900000000,-0.10975900000000
The Straw Bear Pub,PE7 1XL,52.56243000000000,-0.11160800000000
Elior Uk,PE7 2BP,52.56354700000000,-0.07271100000000
Harvest Barn Farmshop,PE7 3DR,52.52145385742190,-0.16287699341774
