name,id,postcode,lat,lon
turtle and Ibex,1729897,BT34 1BJ,54.186154000000000,-6.319033000000000
worm lizard and green turtle,1719952,BT35 7DP,54.195939000000000,-6.391481000000000
mamba and Minke whale,1711486,BT62 2JB,54.301430000000000,-6.441089000000000
perentie and soft-shelled turtle,1730010,BT34 1NW,54.248902000000000,-6.266032000000000
anaconda and Ice seal,1710341,BT60 2TU,54.251285000000000,-6.473578000000000
Mole and Ice seal,1720538,BT35 9TP,54.108732000000000,-6.477581000000000
moloch and Viscacha,1729995,BT34 1NA,54.227923000000000,-6.275057000000000
diamondback and king snake,1719955,BT35 7DS,54.192536000000000,-6.393636000000000
worm lizard and leathery turtle,1702147,BT35 7JH,54.178293000000000,-6.415599000000000
turtle and garter snake,1729895,BT34 1BG,54.175674000000000,-6.338716000000000
giant tortoise and wall lizard,1710351,BT60 2UH,54.248863000000000,-6.456052000000000
cobra and Eagle,1719679,BT35 6AF,54.188346000000000,-6.348925000000000
bicycle lizard and Quetzal,1710317,BT60 2SP,54.222610000000000,-6.485338000000000
bull snake and constrictor,1719992,BT35 7HG,54.180766000000000,-6.426335000000000
Recurvebill and Mamo,2590079,BT35 7FR,54.196166000000000,-6.398121000000000
Gila monster and whip snake,1731818,BT34 1SX,54.231618000000000,-6.339574000000000
anole and Argus,1719842,BT35 6QR,54.289681000000000,-6.334844000000000
pit viper and coral snake,1719778,BT35 6LB,54.194913000000000,-6.372597000000000
Old World warbler and crocodile,1995232,BT35 6FL,54.245873000000000,-6.380899000000000
giant tortoise and American sparrow,1701144,BT35 6UD,54.294289000000000,-6.372687000000000
Grosbeak and deaf adder,1720088,BT35 8AJ,54.169304000000000,-6.341903000000000
perentie and ringhals,1720563,BT35 9XA,54.134668000000000,-6.490828000000000
box turtle and thorn lizard,1731950,BT34 2JX,54.201776000000000,-6.287610000000000
Boto and puff adder,1987087,BT32 5DH,54.278225000000000,-6.250199000000000
Triller and gaboon viper,1719529,BT35 0AW,54.208370000000000,-6.535962000000000
Gull and Badger,1711467,BT62 2HA,54.317917000000000,-6.450533000000000
Scimitar babbler and Songlark,1729950,BT34 1HP,54.178860000000000,-6.330785000000000
Schneider python and goanna,1720281,BT35 8RG,54.145197000000000,-6.377732000000000
Bunting and Argus,1720231,BT35 8NS,54.133662000000000,-6.321542000000000
agama and Towhee,1720540,BT35 9TT,54.112421000000000,-6.469432000000000
agamid and Civet,1719601,BT35 0JH,54.130712000000000,-6.587782000000000
caiman and Coati,1710346,BT60 2UA,54.244496000000000,-6.467539000000000
Tattler and ringhals,2579718,BT35 8FH,54.173185000000000,-6.348440000000000
Black cockatoo and Scimitar babbler,1719554,BT35 0DR,54.182822000000000,-6.601646000000000
Goose and Chipmunk,1701105,BT34 1HB,54.175111000000000,-6.334639000000000
Mouse and green turtle,1719638,BT35 0PE,54.183372000000000,-6.576251000000000
tortoise and iguana,1710288,BT60 2QT,54.290246000000000,-6.634741000000000
hognose snake and king cobra,1720245,BT35 8PN,54.178040000000000,-6.352139000000000
terrapin and Tit-tyrant,1729926,BT34 1EP,54.180095000000000,-6.331119000000000
tokay and Flameback,1699018,BT34 2GD,54.176313000000000,-6.327670000000000
gecko and amethystine python,1720104,BT35 8BF,54.170044000000000,-6.350236000000000
bearded lizard and adder,1719662,BT35 0QR,54.152727000000000,-6.565786000000000
puff adder and taipan,1700344,BT34 2ST,54.184503000000000,-6.315115000000000
Marsh harrier and flying lizard,1731944,BT34 2JJ,54.175124000000000,-6.260133000000000
crocodile and Partridge,1995602,BT35 8FP,54.102014000000000,-6.411079000000000
Quetzal and krait,1720261,BT35 8QG,54.158016000000000,-6.346475000000000
River dolphin and Herring gull,1719810,BT35 6NX,54.219391000000000,-6.381921000000000
death adder and Komodo dragon,1719745,BT35 6HG,54.186045000000000,-6.356723000000000
Piping shrike and soft-shelled turtle,1732198,BT34 3LA,54.103824000000000,-6.266910000000000
thorn lizard and mud turtle,1710295,BT60 2RB,54.260964000000000,-6.602468000000000
python and leathery turtle,1720285,BT35 8RQ,54.136950000000000,-6.375820000000000
chuckwalla and saltwater crocodile,1720153,BT35 8EY,54.171838000000000,-6.349997000000000
Siskin and Black jay,1720497,BT35 9RE,54.116978000000000,-6.490201000000000
Asiatic leopard and milk snake,1732269,BT34 3RA,54.153396000000000,-6.263821000000000
Elephant and death adder,1737416,BT60 1SF,54.288186000000000,-6.547139000000000
anaconda and Scimitar babbler,1720495,BT35 9RB,54.105049000000000,-6.475730000000000
Stilt and agama,1995610,BT35 8FY,54.128390000000000,-6.331162000000000
gaboon viper and pit viper,1719864,BT35 6RX,54.273847000000000,-6.409585000000000
American sparrow and New World blackbird,1719649,BT35 0PX,54.140139000000000,-6.581660000000000
goanna and bearded lizard,1719831,BT35 6QB,54.200270000000000,-6.354011000000000
Mole and anole,1732135,BT34 3FA,54.106754000000000,-6.260718000000000
amethystine python and crocodile,1699295,BT35 8LG,54.142163000000000,-6.408011000000000
Minke whale and king snake,1719600,BT35 0JG,54.132527000000000,-6.592201000000000
Moluccan boobook and Armadillo,1720557,BT35 9UT,54.164640000000000,-6.471794000000000
Cloud rat and cobra,1720117,BT35 8BY,54.168063000000000,-6.344006000000000
diamondback terrapin and python,1719968,BT35 7EH,54.189482000000000,-6.374956000000000
boa and gavial,1719875,BT35 6SS,54.292861000000000,-6.370272000000000
turtle and Vulture,1701769,BT35 6EZ,54.183869000000000,-6.353070000000000
Civet and gaboon viper,1710352,BT60 2UJ,54.239925000000000,-6.439452000000000
White ibis and bicycle lizard,1990685,BT34 2FY,54.211309000000000,-6.279810000000000
tiger snake and bearded lizard,1729888,BT34 1AY,54.175325000000000,-6.338341000000000
copperhead and habu,1710287,BT60 2QQ,54.271200000000000,-6.655819000000000
New World blackbird and moloch,1719848,BT35 6QY,54.308041000000000,-6.345580000000000
amethystine python and Greenbul,1720536,BT35 9TL,54.159547000000000,-6.454757000000000
Asiatic leopard and grass snake,1737586,BT60 2NQ,54.246348000000000,-6.660354000000000
Cloud rat and blue tongue,1720111,BT35 8BQ,54.173501000000000,-6.342855000000000
Tit-tyrant and horned toad,1702820,BT34 2DF,54.170816000000000,-6.336881000000000
Solitaire and Scimitar babbler,1719606,BT35 0JQ,54.131222000000000,-6.590687000000000
gavial and deaf adder,1729261,BT32 3YB,54.317388000000000,-6.302265000000000
elapid and Badger,1737392,BT60 1QH,54.322060000000000,-6.529592000000000
Cuscus and Moluccan boobook,1732006,BT34 2QE,54.157088000000000,-6.306893000000000
Thicketbird and box turtle,1710389,BT60 3DA,54.200181000000000,-6.649436000000000
agamid and sea snake,1719931,BT35 7BJ,54.195107000000000,-6.428194000000000
perentie and diamondback turtle,1737389,BT60 1QD,54.305541000000000,-6.536263000000000
snake and alligator,1719891,BT35 6TS,54.187484000000000,-6.348255000000000
Shearwater and racer,1719591,BT35 0HU,54.193493000000000,-6.576878000000000
Jerboa and Crow,1995244,BT35 6UH,54.290743000000000,-6.374915000000000
Ice seal and coral snake,1720122,BT35 8DE,54.165629000000000,-6.346491000000000
Prion and cobra,1700042,BT35 8NR,54.140920000000000,-6.326970000000000
amphisbaena and wall lizard,1720344,BT35 8XA,54.179683000000000,-6.356025000000000
Kite and rock python,1737483,BT60 2BZ,54.250127000000000,-6.487353000000000
adder and Meadowlark,1699871,BT34 1BT,54.176855000000000,-6.337595000000000
Pitohui and crocodile,1702309,BT35 8PJ,54.175694000000000,-6.356473000000000
thorny devil and amphisbaena,1719922,BT35 7AW,54.196840000000000,-6.404455000000000
Schneider python and thorny devil,1737541,BT60 2JD,54.241105000000000,-6.497162000000000
coral snake and rock snake,1719941,BT35 7BZ,54.190413000000000,-6.391450000000000
Marmoset and Mouse,1719933,BT35 7BN,54.202642000000000,-6.429611000000000
Mockingbird and loggerhead,1737388,BT60 1QB,54.301499000000000,-6.540264000000000
gecko and sand viper,1700923,BT60 1TG,54.297244000000000,-6.516805000000000
krait and Polecat,1737555,BT60 2JW,54.211297000000000,-6.502934000000000
sand viper and turtle,1701918,BT35 7PF,54.172171000000000,-6.488743000000000
gaboon viper and Greenbul,1732030,BT34 2RL,54.163316000000000,-6.326282000000000
