name,postcode,lat,lon
French's Cafe & Bistro,BT30 8RD,54.289751000000000,-5.841093000000000
Nanaâ€™s kitchen,BT31 9DJ,54.257240000000000,-5.943266000000000
Birch Coffee,BT31 9DQ,54.257756000000000,-5.943153000000000
Nels,BT31 9DQ,54.257756000000000,-5.943153000000000
The Coffee Dock ,BT31 9DQ,54.257756000000000,-5.943153000000000
THE MAGHERA INN,BT31 9HE,54.241340000000000,-5.896672000000000
The Anglers Rest,BT32 5QG,54.324800000000000,-6.173671000000000
Froth Coffee Co,BT33 0AA,54.209409000000000,-5.891445000000000
Nugelato,BT33 0AA,54.209409000000000,-5.891445000000000
Doc's Fish & Chips,BT33 0AD,54.213859000000000,-5.889026000000000
Donard Bar,BT33 0AD,54.213859000000000,-5.889026000000000
Italia Restaurant Ltd T/A Villa Vinci,BT33 0AD,54.213859000000000,-5.889026000000000
Cafe Mauds,BT33 0AE,54.211910000000000,-5.889875000000000
Copper Seafood & Grill,BT33 0AE,54.211910000000000,-5.889875000000000
GREAT JONES ,BT33 0AE,54.211910000000000,-5.889875000000000
Piccolo Kitchen Ltd,BT33 0AE,54.211910000000000,-5.889875000000000
QUINNS BAR,BT33 0AE,54.211910000000000,-5.889875000000000
The Loft at Copper Wine & Tapas,BT33 0AE,54.211910000000000,-5.889875000000000
The Percy French Inn,BT33 0AH,54.215858000000000,-5.884921000000000
The Slieve Donard Hotel Estate & Spa,BT33 0AH,54.215858000000000,-5.884921000000000
Toscano Pizzeria,BT33 0DJ,54.208455000000000,-5.891846000000000
O'Hares Lounge Bars,BT33 0EU,54.204943000000000,-5.893006000000000
Harbour House Newcastle ,BT33 0EX,54.202428000000000,-5.891740000000000
South Prom Brew Bar & Stone boat restaurant ,BT33 0EX,54.202428000000000,-5.891740000000000
Nugelato Strand Pop Up,BT33 0HH,54.207604000000000,-5.892518000000000
Seasalt Cafe and Bistro ,BT33 0HH,54.207604000000000,-5.892518000000000
The Avoca Inns Ltd,BT33 0HH,54.207604000000000,-5.892518000000000
The Anchor Bar,BT33 0HJ,54.207592000000000,-5.893883000000000
MOURNE SEAFOOD BAR,BT33 0LU,54.260249000000000,-5.841499000000000
bucks head inn,BT33 0LU,54.260249000000000,-5.841499000000000
Synge & Byrne,BT33 0PR,54.228758000000000,-5.924519000000000
Hare's Gap Bistro,BT33 0QB,54.211704000000000,-5.994790000000000
The Oak Tree Restaurant Mayobridge Golf Club,BT34 2HY,54.195342000000000,-6.241185000000000
Mauds Rostrevor,BT34 3AX,54.106544000000000,-6.186874000000000
The Rostrevor Inn,BT34 3BG,54.100864000000000,-6.197533000000000
THE WHISTLEDOWN INN LTD,BT34 3NR,54.100104000000000,-6.247850000000000
Sweet Pea Cafe,BT34 3RX,54.108168000000000,-6.235031000000000
The Galley Fish & Chip Shop Ltd,BT34 4TJ,54.104548000000000,-5.905241000000000
Top Nosh,BT34 4TJ,54.104548000000000,-5.905241000000000
The Harbour Inn,BT34 4TT,54.107829000000000,-5.896254000000000
The Homeland Diner ,BT34 5DG,54.237496000000000,-6.159090000000000
Milestone Rathfriland Ltd Loft 56,BT34 5PZ,54.237658000000000,-6.166280000000000
DOWNSHIRE ARMS HOTEL,BT34 5UH,54.194694000000000,-6.145767000000000
Minnie Doyles,BT34 5UH,54.194694000000000,-6.145767000000000
