name,postcode,lat,lon
Kangaroo and taipan,LA11 6BJ,54.193191263048600,-2.915014942647130
Hawaiian honeycreeper and crocodile,LA11 6BQ,54.193487576773100,-2.911344000000000
taipan and Masked owl,LA11 6BS,54.192721000000000,-2.916779030952270
green turtle and Argus,LA11 6BX,54.193329090487800,-2.919340174823230
bearded lizard and python,LA11 6DY,54.194129000000000,-2.907602000000000
Puffleg and snapping turtle,LA11 6JZ,54.214852499156000,-2.900588371365770
blue racer and American sparrow,LA11 6QP,54.208514276731300,-2.897230629617930
goanna and adder,LA11 6RH,54.239257856374700,-2.858187762423110
Mouse and Peafowl,LA11 6RN,54.244099401696100,-2.861096530346680
whip snake and Gila monster,LA11 7EF,54.185635000000000,-2.919537000000000
Buzzard and dukite,LA11 7HR,54.189814676716000,-2.915829230763740
krait and Fulmarine petrel,LA11 7NT,54.181597342853300,-2.976769447379110
Egret and racer,LA11 7QA,54.190836000000000,-2.930332047484400
Minke whale and Herring gull,LA11 7QF,54.180369752736700,-2.940166493572170
Jerboa and Asiatic leopard,LA11 7QP,54.184077670190500,-2.944127489545610
Pitohui and moloch,LA11 7SD,54.196658783220700,-2.952338990091190
Partridge and Minke whale,LA11 7ST,54.215194000000000,-2.951048000000000
Treepie and Scimitar babbler,LA11 9AP,54.193182000000000,-2.910493000000000
Francolin and amphisbaena,LA12 7JY,54.197289044307100,-3.087029831950060
Thrasher and deaf adder,LA12 7RU,54.233291640378900,-3.052919689582130
deaf adder and gopher snake,LA12 8AP,54.276509609420100,-2.957481874256500
Stint and puff adder,LA12 8DA,54.266249000000000,-3.080491000000000
Treepie and Chickadee,LA12 8DF,54.298051369710600,-3.086195000000000
American sparrow and Fulmarine petrel,LA12 8DG,54.290620967098200,-3.086736948915360
viper and Tit-tyrant,LA12 8NG,54.257991134209400,-2.948746000000000
Tree warbler and Kite,LA12 8PA,54.246054079705300,-2.994758886135690
moloch and black snake,LA12 8PT,54.255538382320900,-2.987926177281960
bushmaster and Grouse,LA12 8PW,54.254630174344600,-2.987981211282000
Old World vulture and anole,LA12 9AH,54.194884308704300,-3.084407000000000
Treepie and Rabbit,LA12 9BZ,54.191123996754300,-3.086959976003180
Booted eagles and gopher snake,LA12 9EF,54.189231479439500,-3.068442935203560
hoop snake and Cloud rat,LA5 0BD,54.194342000000000,-2.846328000000000
Fox and River dolphin,LA5 0BJ,54.197107941502900,-2.841326617188040
Partridge and flying dragon,LA5 0BQ,54.193912285697800,-2.848450067887010
dugite and Kangaroo,LA5 0DF,54.201964525978000,-2.833101121884700
horned viper and Snipe,LA5 0DN,54.201539536591000,-2.832172779698580
Siskin and giant tortoise,LA5 0EA,54.197069176707000,-2.831377838247330
mamba and Vulture,LA5 0EU,54.200382090959500,-2.831888915133140
boomslang and milk snake,LA5 0RT,54.174614923392600,-2.825289593631690
Vole and flying dragon,LA5 0RZ,54.176566385096200,-2.830353612323090
Bunting and habu,LA5 0SF,54.174011000000000,-2.828372000000000
water snake and python,LA5 0SU,54.169853827790700,-2.822314987896430
Condor and Kestrel,LA5 0TQ,54.168035324335000,-2.821436453096180
River dolphin and Jerboa,LA5 8BS,54.111881104961300,-2.787667098372380
pit viper and chameleon,LA5 8BT,54.111815394161800,-2.788094158673690
Night heron and Meadowlark,LA5 8BU,54.111090181100600,-2.787667396745330
Masked owl and black snake,LA5 8DD,54.111451562376400,-2.786006928716480
leathery turtle and Stint,LA5 8DS,54.101350336500900,-2.788599133846440
death adder and mountain devil,LA5 8EH,54.111700236048800,-2.789208626635600
racer and blue tongue,LA5 8ES,54.115983219357000,-2.795302205417110
Pratincole and agama,LA5 8JE,54.102536308426700,-2.794127210494780
gopher snake and Partridge,LA5 8JR,54.107570897567500,-2.804731185171020
iguana and snake,LA5 8LG,54.104652709866700,-2.794840599027780
habu and B,LA5 9AN,54.123678121491100,-2.763164452412990
Old World vulture and Prion,LA5 9BY,54.128690923118400,-2.769072000000000
Hawk and mud turtle,LA5 9BZ,54.128916469417300,-2.768539000000000
Recurvebill and Buzzard,LA5 9DW,54.125936000000000,-2.774284000000000
Diving bird and mamba,LA5 9HH,54.136229811156000,-2.770864403972590
chuckwalla and agama,LA5 9HQ,54.136435744243800,-2.769582549834080
Vulture and hognose snake,LA5 9HR,54.135574675078800,-2.773515373106760
bull snake and Pitohui,LA5 9LG,54.126566552267200,-2.769690323995340
Perching duck and Myna,LA5 9LU,54.130599926276900,-2.760123877045860
terrapin and taipan,LA5 9PE,54.141868899506000,-2.775867638706910
mamba and skink,LA5 9PR,54.149971176203500,-2.768180107072590
Ice seal and habu,LA5 9RG,54.137783000000000,-2.772927000000000
boa constrictor and Parrotbill,LA5 9RZ,54.155996000000000,-2.798272344123290
garter snake and death adder,LA5 9SA,54.157024077974500,-2.797574506331010
Egret and boa,LA5 9SL,54.167102159579200,-2.756749387564640
blue racer and New World blackbird,LA5 9TT,54.124001021298100,-2.777308626796510
glass snake and Recurvebill,LA5 9UW,54.126243999753800,-2.779309273922200
terrapin and Triller,LA5 9XD,54.130174651537400,-2.759151975760830
Partridge and Meadowlark,LA5 9XG,54.130829214848100,-2.757970264400740
frill-necked lizard and Parakeet,LA5 9XJ,54.124863339256300,-2.760508488335460
cobra and Partridge,LA6 1DP,54.122755427880300,-2.732301400896080
Crow and Philippine hawk-owl,LA6 1HS,54.184528987386400,-2.729653000000000
smooth snake and anole,LA6 1JW,54.160281730023700,-2.713882218940200
Black jay and Linsang,LA6 1JZ,54.140799699949000,-2.751738632755090
python and Petrel,LA6 1LJ,54.180847224093300,-2.721116133906730
agama and cayman,LA6 1LS,54.181230897300600,-2.721582477799390
boa and White ibis,LA6 1NB,54.182855560886900,-2.720430920774760
Vole and garter snake,LA6 1RY,54.199778562611900,-2.726519751081010
agamid and tuatara,LA7 7AJ,54.212069891765400,-2.787180750473130
Goose and chameleon,LA7 7DJ,54.229702190395600,-2.760809038109720
blind snake and Logrunners,LA7 7DY,54.231476993051300,-2.774249592681280
viper and Gila monster,LA7 7NW,54.246785538531000,-2.715867000000000
hoop snake and Meadowlark,LA7 7PN,54.226854924249900,-2.771831518303020
Parrotbill and Argus,LA7 7PP,54.227155898186900,-2.770641000000000
Quetzal and blindworm,LA7 7PQ,54.212973305152700,-2.773980021860770
Petrel and Flameback,LA8 0NA,54.283975000000000,-2.686611896165200
Pratincole and Peafowl,LA8 8AB,54.296834657547200,-2.755885000000000
indigo snake and flying lizard,LA8 8AJ,54.300264334260100,-2.799511821659130
Old World quail and Linsang,LA8 8AZ,54.312486000000000,-2.813275000000000
Scimitar babbler and goanna,LA8 8DL,54.308264999942900,-2.846651373987400
diamondback turtle and bandy-bandy,LA8 8DS,54.270541228208500,-2.783304458455160
gecko and lizard,LA8 8EP,54.261742000000000,-2.813320000000000
Chickadee and jew lizard,LA8 8LT,54.268662909598100,-2.790178436365820
tiger snake and sand viper,LA8 8QD,54.268495688297500,-2.786889348422440
boa and Coati,LA9 5DA,54.319517828384300,-2.748737265203550
Argus and Coati,LA9 5JT,54.310997155846700,-2.753162907112500
Jackal and gavial,LA9 5JX,54.310588971261100,-2.755199693815290
Songlark and flying dragon,LA9 5RJ,54.310367433838500,-2.763264974803420
amphisbaena and Fish eagle,LA9 5TA,54.316134569348200,-2.756577183230960
tokay and thorny devil,LA9 7AG,54.320938641080400,-2.728054181158820
Badger and Ibex,LA9 7EU,54.298689552523400,-2.725940472904440
perentie and Piping shrike,LA9 7EX,54.300189369386200,-2.726120531691850
diamondback terrapin and coral snake,LA9 7JG,54.316058309153300,-2.736960759853200
turtle and Polecat,LA9 7LB,54.313935849699200,-2.734248183338190
fer-de-lance and Argus,LA9 7LD,54.313535296752600,-2.735086472423400
Tit-tyrant and king snake,LA9 7LR,54.312347000000000,-2.741446123660100
Philippine hawk-owl and Hawaiian honeycreeper,LA9 7NH,54.310704743294000,-2.727596801448780
deaf adder and brown snake,LA9 7SP,54.295218609613600,-2.738078806382430
