name,postcode,lat,lon
perentie and K훮k훮riki,DL6 3SN,54.308744000000000,-1.393235000000000
anaconda and Old World vulture,DL7 9EX,54.283545075264800,-1.436490276482540
Prion and Lemming,DL7 9JA,54.283455146014500,-1.425048333353760
blind snake and boomslang,HG4 5AT,54.130032000000000,-1.432989000000000
frill-necked lizard and python,YO51 9DB,54.109410000000000,-1.416893897772430
Tahr and Flameback,YO51 9DL,54.108582458395300,-1.404113478442570
Mockingbird and gecko,YO51 9GS,54.101719000000000,-1.392458000000000
tiger snake and hawksbill,YO61 1JX,54.103888612776900,-1.104776053967260
blue racer and king snake,YO61 1LP,54.103603788917000,-1.116099567172500
leguaan and agamid,YO61 1NN,54.101806000000000,-1.107645000000000
king cobra and Skunk,YO61 2PH,54.125213113969100,-1.329571246921820
Fish eagle and thorn lizard,YO61 2PN,54.124312213885900,-1.329187954465340
skink and deaf adder,YO61 2QR,54.117684146333600,-1.326831854969620
Elephant and smooth snake,YO61 2RN,54.148430000000000,-1.352731773040810
Magpie and Treepie,YO61 3AR,54.123062416495600,-1.193918000000000
Crow and Skunk,YO61 3BQ,54.123981823696600,-1.189280164230840
Gull and gaboon viper,YO61 3BY,54.121718160723300,-1.186799779910790
copperhead and blindworm,YO61 3DR,54.119421058165400,-1.183371752280040
Towhee and Buzzard,YO61 3DU,54.118115967143600,-1.184422433851450
Petrel and blue tongue,YO61 3FP,54.115671410390400,-1.186673478519780
water snake and Tit-tyrant,YO61 3FT,54.114056704540900,-1.192472238860780
water snake and Wallaby,YO61 3FY,54.119922000000000,-1.192190000000000
New World blackbird and viper,YO61 3GU,54.120609000000000,-1.183863000000000
goanna and python,YO61 3HW,54.126881000000000,-1.219782000000000
Hawk and boa constrictor,YO61 3JU,54.123251440068300,-1.198321941013030
hognose snake and sand lizard,YO61 3ND,54.127810000000000,-1.221800000000000
Triller and harlequin snake,YO61 3NH,54.152356165886500,-1.241734733296130
Parakeet and death adder,YO61 3PL,54.118739769002100,-1.184960962931050
leguaan and slowworm,YO61 3PN,54.124686000000000,-1.182962000000000
caiman and chameleon,YO61 3QZ,54.122566483892900,-1.192658622168500
mamba and Grouse,YO61 3RD,54.164086833943400,-1.151692292787090
bandy-bandy and New World blackbird,YO61 3RE,54.147790514688000,-1.141446000000000
Bronzewing pigeon and rock snake,YO61 4AF,54.200235000000000,-1.206889000000000
mamba and Kangaroo,YO61 4AL,54.217175112040200,-1.215091126962610
indigo snake and flying lizard,YO61 4BB,54.188890550850500,-1.179919351028860
carpet snake and indigo snake,YO61 4PF,54.166178047629600,-1.203940890033800
flying lizard and harlequin snake,YO61 4SH,54.137623000000000,-1.052478000000000
Zebra and mud turtle,YO61 4TZ,54.126668000000000,-1.146083373874640
Grouse and Jay,YO62 4DH,54.196577695537500,-1.106959084982330
Armadillo and Maya,YO62 4DR,54.196400295708600,-1.109706621665180
boa constrictor and Bunting,YO62 4DZ,54.201286673057300,-1.109572000000000
Francolin and Stilt,YO62 5AE,54.248165812936500,-1.065313375380540
Jay and Bunting,YO62 5AQ,54.247640000000000,-1.062287000000000
Thrasher and Goose,YO62 5BW,54.246887453128000,-1.060415952092070
Marmoset and Stint,YO62 5BZ,54.244465141197200,-1.055222689462030
deaf adder and tokay,YO62 5EN,54.247156000000000,-1.099007000000000
sidewinder and leathery turtle,YO62 5HJ,54.306548000000000,-1.059227000000000
Ground sloth and taipan,YO62 5HU,54.247639000000000,-1.055258000000000
Thicketbird and adder,YO62 5LU,54.273810107763900,-1.103539808149150
tokay and copperhead,YO7 1AE,54.233669420574300,-1.341576708079720
worm lizard and dukite,YO7 1AN,54.234861976328800,-1.339425195929460
Thicketbird and Pratincole,YO7 1EW,54.236571056009200,-1.329916165643660
Shearwater and American sparrow,YO7 1FQ,54.239482399467900,-1.339581581997260
Armadillo and bandy-bandy,YO7 1GX,54.232807000000000,-1.339037000000000
Night heron and mountain devil,YO7 1HT,54.230122158284300,-1.345391498765940
Grosbeak and caiman,YO7 1JN,54.222106703909100,-1.337420172214740
diamondback terrapin and cobra de capello,YO7 1LE,54.231793000000000,-1.343483572501830
Cloud rat and Crow,YO7 1LZ,54.228033915160200,-1.341512964556730
K훮k훮riki and frilled lizard,YO7 1NN,54.222996827064600,-1.340764858499800
flying dragon and Elephant,YO7 1NR,54.222898449872400,-1.342900000000000
leguaan and Solitaire,YO7 1RQ,54.229083444127700,-1.346098220183450
rat snake and Mockingbird,YO7 1TZ,54.227914000000000,-1.368490000000000
deaf adder and bearded dragon,YO7 1UB,54.235524530969800,-1.337328074437540
anaconda and Rabbit,YO7 2AD,54.224574659244400,-1.303299198778780
tuatara and Moluccan boobook,YO7 2HU,54.275929288889100,-1.233464000000000
black snake and Old World quail,YO7 2LB,54.324528108053400,-1.299336197480310
worm lizard and horned toad,YO7 2NL,54.250272000000000,-1.348498692936310
Chickadee and mamba,YO7 2PN,54.220201000000000,-1.285250542427700
racer and rat snake,YO7 2PU,54.239100000000000,-1.272929431418900
taipan and chuckwalla,YO7 2PY,54.241924000000000,-1.241116029540760
Chipmunk and Philippine hawk-owl,YO7 3AH,54.205027300374600,-1.323910861097220
Vulture and Schneider python,YO7 3AQ,54.213607088202400,-1.317116000000000
Logrunners and blue racer,YO7 3HA,54.179920796301000,-1.344284418843440
Mink and Marsh harrier,YO7 3HH,54.209585000000000,-1.358468814088460
Cloud rat and habu,YO7 3HU,54.180649700936700,-1.342801988009250
Shearwater and bicycle lizard,YO7 3JS,54.153133911659100,-1.416948350321980
tree snake and Jackal,YO7 3PF,54.170606847177000,-1.398720000000000
slowworm and flying lizard,YO7 3PG,54.174843648497600,-1.410545951155380
elapid and Grosbeak,YO7 3RH,54.178214331339100,-1.383671034183750
garter snake and cayman,YO7 4BE,54.295911396267600,-1.324405476269030
thorny devil and Gull,YO7 4BH,54.308326000000000,-1.307265000000000
Parakeet and Wallaby,YO7 4BR,54.294198400149700,-1.313893759702220
worm lizard and rock python,YO7 4BY,54.197013000000000,-1.435054000000000
thorn lizard and Zebra,YO7 4DT,54.270608217252400,-1.365111412643230
deaf adder and Thicketbird,YO7 4PA,54.223586052659600,-1.393072658756520
Fulmarine petrel and kabaragoya,YO7 4QG,54.297592676392400,-1.342416837764410
Marmoset and Eagle,YO7 4QH,54.299222433335500,-1.342974781837540
goanna and chuckwalla,YO7 4QQ,54.298513000000000,-1.342897041831220
Capuchin and mud turtle,YO7 4RX,54.232328000000000,-1.390582000000000
boa constrictor and bull snake,YO7 9AB,54.232602000000000,-1.328737799999999
Chicken and hognose snake,YO7 9AR,54.232604091535800,-1.328737923954820
rock snake and Armadillo,YO7 9AX,54.232604091535800,-1.328737923954820
Prion and tortoise,YO7 9BN,54.232597000000000,-1.328747000000000
Wader and moloch,YO7 9BQ,54.232597000000000,-1.328747000000000
