name,postcode,lat,lon
The Grapes Inn Ebberston ,YO13 9PA,54.2356,-0.6251
The Whole Hogg Farm shop & Tearooms,YO17 6RQ,54.1773,-0.7624
EDEN CAMP MODERN HISTORY THEME MUSEUM,YO17 6RT,54.1602,-0.7789
The Grapes Inn,YO17 6TU,54.1777,-0.8388
Beansheaf Hotel,YO17 6UE,54.2111,-0.7710
Boma Outdoor Cafe,YO17 6UX,54.2059,-0.8080
Fabrizioâ€™s All You Can Eat Pizza & Pasta,YO17 6UX,54.2059,-0.8080
Gourmet Grill,YO17 6UX,54.2059,-0.8080
Jolly Sailor 2 Go,YO17 6UX,54.2059,-0.8080
Muddy Duck Cafe,YO17 6UX,54.2059,-0.8080
Poolside Cafe,YO17 6UX,54.2059,-0.8080
The Coach House Country Pub,YO17 6UX,54.2059,-0.8080
The Mansion House & Tea Rooms,YO17 6UX,54.2059,-0.8080
Upper Deck,YO17 6UX,54.2059,-0.8080
Zanzibar Food Market,YO17 6UX,54.2059,-0.8080
India the restaurant ,YO17 7AA,54.1343,-0.7980
floriosltd,YO17 7AA,54.1343,-0.7980
The Old Lodge ,YO17 7EG,54.1353,-0.7945
Royal Oak,YO17 7HB,54.1426,-0.7812
the wentworth arms,YO17 7HD,54.1457,-0.7775
Leoni the coffee house,YO17 7HP,54.1357,-0.7968
La Pizzeria,YO17 7HT,54.1355,-0.7971
The Cross Keys,YO17 7HT,54.1355,-0.7971
El Gringos,YO17 7LL,54.1350,-0.7979
The patisserie malton,YO17 7LL,54.1350,-0.7979
Stew & Oyster,YO17 7LP,54.1356,-0.7994
The Hidden Monkey Tea Rooms,YO17 7LW,54.1357,-0.7982
The Deli of Malton,YO17 7LX,54.1352,-0.7986
chapter one bistro,YO17 7LX,54.1352,-0.7986
YO Bakehouse,YO17 7LY,54.1346,-0.7999
The Ham and Cheese,YO17 8DY,54.1431,-0.7241
Coach & Horses,YO17 8LH,54.1589,-0.6925
The Fleece Inn,YO17 8LN,54.1567,-0.6974
The Providence Inn,YO17 8SL,54.2024,-0.6319
Ming Yan Restaurant and Takeaway,YO17 9HX,54.1325,-0.7861
Malton and Norton Golf Club,YO17 9QE,54.1242,-0.7988
Whistlestop Cafe,YO17 9RD,54.1320,-0.7973
Cooplands Secret Garden Pickering,YO18 7AA,54.2460,-0.7775
Feast,YO18 7AA,54.2460,-0.7775
The White Swan Inn,YO18 7AA,54.2460,-0.7775
Figaro's Italian restaurant,YO18 7AL,54.2454,-0.7759
The Black Swan Inn,YO18 7AL,54.2454,-0.7759
Lazy Sundae,YO18 7AU,54.2464,-0.7766
two Burgate ,YO18 7AU,54.2464,-0.7766
Spice 4 U,YO18 7DG,54.2448,-0.7768
Forest and Vale Hotel,YO18 7DL,54.2446,-0.7773
caffe stop ,YO18 7DP,54.2439,-0.7738
SPENCERS BAR AND GRILL,YO18 7JP,54.2221,-0.7586
Engine Shed Restaurant Steam and Moorland Garden Centre,YO18 7JW,54.2337,-0.7723
Cedarbarn Farm Shop & Cafe,YO18 7JX,54.2381,-0.7568
New Inn,YO18 7LF,54.2359,-0.7223
Lavenders Tea Rooms,YO18 7RN,54.2357,-0.7218
The Buck Inn,YO18 7RW,54.2364,-0.7211
The Black Bull Inn,YO18 8EA,54.2220,-0.7705
The New Inn,YO18 8HH,54.2907,-0.8409
Middleton Post Office Tea Parlour,YO18 8NX,54.2575,-0.7994
The Middleton Arms,YO18 8PB,54.2589,-0.8027
The Buck Inn,YO18 8PJ,54.2637,-0.8272
Mr Wilf's Cafe,YO18 8TS,54.2448,-0.7803
The Yorkshire Arboretum Cafe,YO60 7BY,54.1205,-0.9119
Coffee Shop,YO60 7DA,54.1214,-0.9060
Courtyard Cafe,YO60 7DA,54.1214,-0.9060
Fitzroy,YO60 7DA,54.1214,-0.9060
The Boat House Cafe,YO60 7DA,54.1214,-0.9060
Dogh,YO60 7DX,54.1029,-0.9018
THE CROWN & CUSHION,YO60 7DZ,54.1034,-0.9015
The Worsley Arms & Cricketers Bar,YO62 4LA,54.1707,-0.9785
Dogrun LTD trading as The George and Dragon,YO62 6AA,54.2698,-0.9320
Cafe Williams ,YO62 6AF,54.2691,-0.9338
Kings Head Hotel,YO62 6AT,54.2707,-0.9331
THE CORNER CAFE,YO62 6DA,54.2700,-0.9314
Kirkbymoorside Golf Club,YO62 6EG,54.2720,-0.9351
The Fox and Hounds,YO62 6SQ,54.2604,-0.8587
Lastingham Grange,YO62 6TH,54.3067,-0.8797
BLACKSMITHS ARMS,YO62 6TN,54.3053,-0.8826
The Barn Guesthouse and Tearoom,YO62 6UA,54.3004,-0.9173
The Crown,YO62 6UA,54.3004,-0.9173
The Royal Oak,YO62 7HX,54.3000,-0.9553
The Plough Inn,YO62 7RW,54.2472,-0.9745
Fusion Spice Coffee Limited ,YO62 7SU,54.2531,-0.9973
Beadlam Grange Farmshop & Tearoom,YO62 7TD,54.2557,-1.0213
