name,postcode,lat,lon
Prion and adder,BD23 5QN,54.184993740000000,-2.185682457000000
snapping turtle and giant tortoise,BD23 5QU,54.147470830000000,-2.046796217000000
Kestrel and Schneider python,DL8 3AD,54.291357985931400,-1.995587000000000
leguaan and puff adder,DL8 3BL,54.314245000000000,-2.098003000000000
Fulmarine petrel and Myna,DL8 3HA,54.307736748509300,-2.109483605581170
Philippine hawk-owl and agama,DL8 3JY,54.320794969430100,-2.058108937629020
king cobra and Pratincole,DL8 3NS,54.302509926386600,-2.186810949329680
Tahr and Parrotbill,DL8 3PN,54.299209148474100,-2.163809040338720
gavial and Vulture,DL8 3PU,54.315837368741000,-2.181306805614250
tokay and Komodo dragon,DL8 3QQ,54.303249970936600,-2.196172877298910
Wallaby and Gila monster,DL8 3RG,54.304328793878400,-2.201402969795750
Chipmunk and Philippine hawk-owl,DL8 3SW,54.296437000000000,-2.197108000000000
mud turtle and Tit-tyrant,DL8 4AB,54.310251000000000,-1.886245000000000
glass snake and Black jay,DL8 4BB,54.257469888159800,-1.898670000000000
cerastes and dugite,DL8 4HE,54.316755418672000,-1.933051023844160
blindworm and Civet,DL8 4NE,54.290957675292600,-1.911999973574610
tortoise and brown snake,DL8 4NF,54.291559996460300,-1.912244497191450
turtle and asp,DL8 4RY,54.247406875159400,-1.902147993387740
tree snake and Recurvebill,DL8 4UG,54.295521045587900,-1.887714810794630
sidewinder and Peafowl,HG3 5SZ,54.163709056445700,-1.874455796426550
