name,id,postcode,lat,lon
Bunting and Treepie,15828,YO16 6RX,54.104705815315400,-0.180895944300228
Mouse and Kākāriki,16995,YO15 1BN,54.111300370089200,-0.121585596958239
bull snake and constrictor,16979,YO15 1AQ,54.113965044817500,-0.122413679571715
Bunting and soft-shelled turtle,16122,YO16 7HW,54.100669610975600,-0.194011742429151
crocodile and cycling lizard,16180,YO16 6GN,54.106245041730400,-0.185799941831248
Diving bird and flying lizard,16190,YO16 6GZ,54.103785976259500,-0.189639428759538
Cloud rat and Kite,16626,YO15 1HR,54.131604405512100,-0.184722536369394
bicycle lizard and Egret,16170,YO16 6FZ,54.102765532148100,-0.192197000000000
diamond python and sand lizard,16162,YO16 6FL,54.104459990707400,-0.193816431493180
adder and Kite,16174,YO16 6GE,54.103755603194400,-0.187621729826125
lizard and Kestrel,15859,YO16 6UJ,54.100603934668600,-0.178918957369713
Macaw and chuckwalla,15933,YO16 6ZE,54.107969655461800,-0.175016606373577
Grosbeak and Boto,15898,YO16 6YH,54.105113377769900,-0.178721346796457
carpet snake and Piping shrike,16668,YO15 1LT,54.133648679218100,-0.180806479755118
Armadillo and agama,16175,YO16 6GF,54.103579861870100,-0.186558000000000
Snipe and bandy-bandy,16999,YO15 1DH,54.134555000000000,-0.193150000000000
Petrel and Mole,15896,YO16 6YE,54.104728000000000,-0.176933000000000
agamid and Chickadee,16194,YO16 6HE,54.101711063534600,-0.195725395666467
Stilt and cerastes,16324,YO16 6RS,54.105001404527500,-0.182611464055890
brown snake and blindworm,16633,YO15 1HZ,54.135132190526600,-0.189175729628362
