name,postcode,lat,lon
Ogino Japanese Restaurant,HU17 0AA,53.8417,-0.4277
Turpins Coffee House,HU17 0AA,53.8417,-0.4277
CERUTTI 2 LIMITED,HU17 0AS,53.8424,-0.4231
Chamas Rodizio Bar & Grill,HU17 0DG,53.8414,-0.4264
Mirage Cocktail Bar & Bistro,HU17 0DG,53.8414,-0.4264
QUEENS HEAD BEVERLEY ,HU17 0DG,53.8414,-0.4264
Poma ,HU17 0DH,53.8409,-0.4261
Quills Coffee & Kitchen,HU17 0DX,53.8417,-0.4250
Estabulo Bar & Grill,HU17 0ND,53.8365,-0.4224
Tomahawk Steakhouse Beverley,HU17 0NR,53.8390,-0.4227
Pottingshed Beverley,HU17 0NU,53.8385,-0.4187
FIREPIT Beverley,HU17 0NZ,53.8390,-0.4167
Starbucks Beverley Flemingate,HU17 0NZ,53.8390,-0.4167
Subway Flemingate,HU17 0NZ,53.8390,-0.4167
Sumo Pan Asian Beverley,HU17 0PW,53.8400,-0.4207
Tableserv Limited,HU17 0PW,53.8400,-0.4207
The Topiary Coffee Shop,HU17 0RS,53.8146,-0.3834
COLETTA & TYSON RETAIL LIMITED,HU17 0RU,53.8114,-0.3769
The Farmers Den - Manor Farm Camping,HU17 0SA,53.8126,-0.3750
The Westwood Restaurant,HU17 7AE,53.8473,-0.4399
The Molescroft Inn,HU17 7EG,53.8518,-0.4494
Central42,HU17 8AA,53.8424,-0.4321
White Rabbit Chocolatiers,HU17 8AE,53.8428,-0.4307
Cole’s Kitchen ,HU17 8AP,53.8434,-0.4336
Lucia Restaurant ,HU17 8AP,53.8434,-0.4336
Vanessa Delicatessen and Cafe ,HU17 8BB,53.8433,-0.4326
Cafe V,HU17 8BG,53.8439,-0.4323
The Pig & Whistle,HU17 8BG,53.8439,-0.4323
Maa Indian restaurant ,HU17 8BH,53.8435,-0.4323
LEE GARDEN RESTAURANT,HU17 8DB,53.8439,-0.4345
The Beverley Arms,HU17 8DD,53.8438,-0.4344
Poma piccolo,HU17 8DG,53.8444,-0.4355
Fatt Burger,HU17 8DL,53.8449,-0.4352
Thai palace restaurant ,HU17 8EE,53.8429,-0.4334
Woolpack Inn,HU17 8EN,53.8410,-0.4373
The Lairgate in Beverley Ltd,HU17 8EP,53.8422,-0.4331
YO TUK TUK,HU17 8ET,53.8417,-0.4321
Deep Blue Restaurants,HU17 8EU,53.8412,-0.4319
The Tiger Inn Beverley,HU17 8JG,53.8380,-0.4301
Beverley Golf Club,HU17 8RG,53.8337,-0.4410
The Dog and Duck Inn,HU17 8RX,53.8220,-0.4825
The Ferguson Fawsitt Arms,HU17 8RX,53.8220,-0.4825
McDONALD'S RESTAURANT,HU17 8XE,53.8245,-0.4464
Akash Restaurant ,HU17 9AA,53.8419,-0.4298
Cooplands Secret Garden Beverley,HU17 9AA,53.8419,-0.4298
Kavanaghs Cafe & Tearoom,HU17 9AA,53.8419,-0.4298
VINEBEST LTD  - T/A FIGARO RESTAURANT ,HU17 9BP,53.8426,-0.4291
Sonali Spice,HU17 9EP,53.8443,-0.4307
Sleepers Bar & Kitchen,HU17 9ET,53.8454,-0.4309
The Cornerhouse,HU17 9EY,53.8453,-0.4302
Watering Can,HU17 9RS,53.8589,-0.4062
Tickton Grange Hotel and Restaurant,HU17 9SH,53.8643,-0.3740
Millers Heron Lakes ,HU17 9SL,53.8685,-0.3466
China Red,HU6 0AD,53.8005,-0.3710
The Ships Quarters Ltd,HU6 0AJ,53.8026,-0.3720
Petros at The Cross Keys,YO25 4JW,54.0226,-0.3926
The Star Inn,YO25 4JW,54.0226,-0.3926
Café Leon 2018 Ltd,YO25 6AN,54.0059,-0.4400
Forty One,YO25 6AN,54.0059,-0.4400
Hanleys restaurant ,YO25 6AN,54.0059,-0.4400
The Bell in Driffield Ltd,YO25 6AN,54.0059,-0.4400
Original Keys,YO25 6AP,54.0051,-0.4395
Mishka Pub,YO25 6NX,54.0018,-0.4323
Cooplands Secret Garden Driffield,YO25 6PH,54.0045,-0.4380
Molly & Jean ,YO25 6PS,54.0036,-0.4372
Stuarts of Driffield Fish Restaurant,YO25 6PS,54.0036,-0.4372
Subway,YO25 6PS,54.0036,-0.4372
MARCO POLO RESTAURANTS,YO25 6QF,54.0038,-0.4371
The Bike Cave,YO25 6SS,54.0069,-0.4409
Bell Mills Garden Centre Cafe,YO25 6XL,53.9952,-0.4309
19th Hole at DGC Limited,YO25 9AD,53.9862,-0.4511
cranswick garden centre,YO25 9JN,53.9564,-0.4475
THE FARM SHOP AT CRANSWICK,YO25 9PQ,53.9576,-0.4449
The Wellington Inn,YO25 9TE,53.9195,-0.5239
Victoria Inn,YO25 9XL,54.0190,-0.5814
GAIT INN,YO42 1TX,53.9555,-0.7354
Darwin (KP Club) Limited,YO42 1UF,53.9412,-0.7446
Snack Shack,YO43 3AH,53.8643,-0.6657
Coffee Cake Create,YO43 3AQ,53.8642,-0.6659
DESH RESTAURANT AND TAKEAWAY LTD,YO43 3AW,53.8648,-0.6673
Rustik Lounge ,YO43 3BQ,53.8619,-0.6637
The Fiddle Drill,YO43 3JA,53.8770,-0.6467
The Goodmanham Arms,YO43 3JA,53.8770,-0.6467
Wolds Way Cafe,YO43 3LW,53.8831,-0.6684
Langlands,YO43 3PN,53.8741,-0.7015
McDonald's,YO43 3PN,53.8741,-0.7015
THE STAR INN,YO43 4QP,53.8421,-0.6323
The Tiger (North Newbald) Ltd,YO43 4SA,53.8186,-0.6147
