name,postcode,lat,lon
Blacksmiths Coniston,HU11 4JR,53.8001,-0.2460
Stables Kitchen,HU11 4LN,53.8138,-0.1961
The Beverley Pizza Company,HU11 4RZ,53.8357,-0.0959
wrygarth Inn,HU11 4UY,53.8696,-0.2041
The Gardeners Country Inn ,HU11 5AE,53.8299,-0.2560
The Railway Inn,HU11 5AP,53.8368,-0.2247
the Duke Of York,HU11 5ET,53.8392,-0.2653
Bay Horse,HU11 5JA,53.8547,-0.2882
Hornsea Garden Centre,HU11 5QL,53.8983,-0.2531
The Swan Inn ,HU11 5RA,53.9032,-0.2293
Ogino Japanese Restaurant,HU17 0AA,53.8417,-0.4277
Turpins Coffee House,HU17 0AA,53.8417,-0.4277
CERUTTI 2 LIMITED,HU17 0AS,53.8424,-0.4231
Chamas Rodizio Bar & Grill,HU17 0DG,53.8414,-0.4264
Mirage Cocktail Bar & Bistro,HU17 0DG,53.8414,-0.4264
QUEENS HEAD BEVERLEY ,HU17 0DG,53.8414,-0.4264
Poma ,HU17 0DH,53.8409,-0.4261
Quills Coffee & Kitchen,HU17 0DX,53.8417,-0.4250
Estabulo Bar & Grill,HU17 0ND,53.8365,-0.4224
Tomahawk Steakhouse Beverley,HU17 0NR,53.8390,-0.4227
Pottingshed Beverley,HU17 0NU,53.8385,-0.4187
FIREPIT Beverley,HU17 0NZ,53.8390,-0.4167
Starbucks Beverley Flemingate,HU17 0NZ,53.8390,-0.4167
Subway Flemingate,HU17 0NZ,53.8390,-0.4167
Sumo Pan Asian Beverley,HU17 0PW,53.8400,-0.4207
Tableserv Limited,HU17 0PW,53.8400,-0.4207
The Topiary Coffee Shop,HU17 0RS,53.8146,-0.3834
COLETTA & TYSON RETAIL LIMITED,HU17 0RU,53.8114,-0.3769
The Farmers Den - Manor Farm Camping,HU17 0SA,53.8126,-0.3750
The Westwood Restaurant,HU17 7AE,53.8473,-0.4399
The Molescroft Inn,HU17 7EG,53.8518,-0.4494
Central42,HU17 8AA,53.8424,-0.4321
White Rabbit Chocolatiers,HU17 8AE,53.8428,-0.4307
Cole’s Kitchen ,HU17 8AP,53.8434,-0.4336
Lucia Restaurant ,HU17 8AP,53.8434,-0.4336
Vanessa Delicatessen and Cafe ,HU17 8BB,53.8433,-0.4326
Cafe V,HU17 8BG,53.8439,-0.4323
The Pig & Whistle,HU17 8BG,53.8439,-0.4323
Maa Indian restaurant ,HU17 8BH,53.8435,-0.4323
LEE GARDEN RESTAURANT,HU17 8DB,53.8439,-0.4345
The Beverley Arms,HU17 8DD,53.8438,-0.4344
Poma piccolo,HU17 8DG,53.8444,-0.4355
Fatt Burger,HU17 8DL,53.8449,-0.4352
Thai palace restaurant ,HU17 8EE,53.8429,-0.4334
Woolpack Inn,HU17 8EN,53.8410,-0.4373
The Lairgate in Beverley Ltd,HU17 8EP,53.8422,-0.4331
YO TUK TUK,HU17 8ET,53.8417,-0.4321
Deep Blue Restaurants,HU17 8EU,53.8412,-0.4319
The Tiger Inn Beverley,HU17 8JG,53.8380,-0.4301
Beverley Golf Club,HU17 8RG,53.8337,-0.4410
McDONALD'S RESTAURANT,HU17 8XE,53.8245,-0.4464
Akash Restaurant ,HU17 9AA,53.8419,-0.4298
Cooplands Secret Garden Beverley,HU17 9AA,53.8419,-0.4298
Kavanaghs Cafe & Tearoom,HU17 9AA,53.8419,-0.4298
VINEBEST LTD  - T/A FIGARO RESTAURANT ,HU17 9BP,53.8426,-0.4291
Sonali Spice,HU17 9EP,53.8443,-0.4307
Sleepers Bar & Kitchen,HU17 9ET,53.8454,-0.4309
The Cornerhouse,HU17 9EY,53.8453,-0.4302
Watering Can,HU17 9RS,53.8589,-0.4062
Tickton Grange Hotel and Restaurant,HU17 9SH,53.8643,-0.3740
Millers Heron Lakes ,HU17 9SL,53.8685,-0.3466
Lucien’s wine bar,HU18 1AB,53.9113,-0.1708
The Green Owl,HU18 1AB,53.9113,-0.1708
The Beach Hut Cafe,HU18 1AN,53.9107,-0.1742
mille sapori,HU18 1AN,53.9107,-0.1742
10 Coffee Shop Ltd,HU18 1AW,53.9109,-0.1743
Cafe Chocolat,HU18 1DA,53.9103,-0.1701
LILYS BEACH CAFE,HU18 1NJ,53.9143,-0.1616
Hornsea Floral Hall,HU18 1NQ,53.9176,-0.1645
Med mex t/a Baalbek ltd ,HU18 1PB,53.9117,-0.1678
Tripoli,HU18 1PB,53.9117,-0.1678
Harpers Fish and Chips,HU18 1PD,53.9118,-0.1682
Sonali spice ,HU18 1PF,53.9120,-0.1667
Swiss Cottage Restaurant,HU18 1PH,53.9133,-0.1627
Yanksea Burger,HU18 1RE,53.9071,-0.1717
Breeders Seeds Ltd t/a Fresco Gourmet Cafe,HU18 1UT,53.8984,-0.1743
Brewers Kitchen and Deli Ltd,HU18 1UT,53.8984,-0.1743
Williams Farm Kitchen Ltd,HU18 1UT,53.8984,-0.1743
China Red,HU6 0AD,53.8005,-0.3710
The Ships Quarters Ltd,HU6 0AJ,53.8026,-0.3720
Petros at The Cross Keys,YO25 4JW,54.0226,-0.3926
The Star Inn,YO25 4JW,54.0226,-0.3926
Café Leon 2018 Ltd,YO25 6AN,54.0059,-0.4400
Forty One,YO25 6AN,54.0059,-0.4400
Hanleys restaurant ,YO25 6AN,54.0059,-0.4400
The Bell in Driffield Ltd,YO25 6AN,54.0059,-0.4400
Original Keys,YO25 6AP,54.0051,-0.4395
Mishka Pub,YO25 6NX,54.0018,-0.4323
Cooplands Secret Garden Driffield,YO25 6PH,54.0045,-0.4380
Molly & Jean ,YO25 6PS,54.0036,-0.4372
Stuarts of Driffield Fish Restaurant,YO25 6PS,54.0036,-0.4372
Subway,YO25 6PS,54.0036,-0.4372
MARCO POLO RESTAURANTS,YO25 6QF,54.0038,-0.4371
The Bike Cave,YO25 6SS,54.0069,-0.4409
Bell Mills Garden Centre Cafe,YO25 6XL,53.9952,-0.4309
THE TIGER INN,YO25 8AS,53.9726,-0.2755
blackhorse inn,YO25 8DQ,53.9404,-0.1887
Warley cross cafe,YO25 8EW,53.9405,-0.2872
Deep Blue Restaurants,YO25 8RG,53.9123,-0.2979
the Black Swan - Brandesburton,YO25 8RG,53.9123,-0.2979
CP Restaurant Limited,YO25 8RL,53.9105,-0.3023
Bert's Pizzeria & Cafe,YO25 8RT,53.9071,-0.3042
The Board Inn,YO25 8SW,53.9783,-0.2199
Hollywood Diner ,YO25 8SY,53.9604,-0.2044
The Granary,YO25 8TN,53.9924,-0.2328
19th Hole at DGC Limited,YO25 9AD,53.9862,-0.4511
cranswick garden centre,YO25 9JN,53.9564,-0.4475
THE FARM SHOP AT CRANSWICK,YO25 9PQ,53.9576,-0.4449
