name,postcode,lat,lon
Stables Kitchen,HU11 4LN,53.81222400000000,-0.19427000000000
The Beverley Pizza Company,HU11 4RZ,53.8357,-0.0959
Lucienâ€™s wine bar,HU18 1AB,53.91120000000000,-0.17081900000000
The Green Owl,HU18 1AB,53.91120000000000,-0.17081900000000
The Beach Hut Cafe,HU18 1AN,53.91072400000000,-0.17437200000000
mille sapori,HU18 1AN,53.91065100000000,-0.17431500000000
10 Coffee Shop Ltd,HU18 1AW,53.91094500000000,-0.17418000000000
Cafe Chocolat,HU18 1DA,53.91035300000000,-0.17008000000000
LILYS BEACH CAFE,HU18 1NJ,53.91444800000000,-0.16157200000000
Med mex t/a Baalbek ltd ,HU18 1PB,53.91203390000000,-0.16715240000000
Tripoli,HU18 1PB,53.9117,-0.1678
Harpers Fish and Chips,HU18 1PD,53.9118,-0.1682
Sonali spice ,HU18 1PF,53.91205400000000,-0.16670200000000
Swiss Cottage Restaurant,HU18 1PH,53.91327000000000,-0.16273500000000
Yanksea Burger,HU18 1RE,53.90861090000000,-0.17182890000000
Breeders Seeds Ltd t/a Fresco Gourmet Cafe,HU18 1UT,53.8984,-0.1743
Brewers Kitchen and Deli Ltd,HU18 1UT,53.89878500000000,-0.17429900000000
Williams Farm Kitchen Ltd,HU18 1UT,53.89878500000000,-0.17429900000000
The Old Post Office,HU18 1XX,53.87637100000000,-0.13546500000000
blackhorse inn,YO25 8DQ,53.94044400000000,-0.18873700000000
