name,postcode,lat,lon
The Golden Lion,PL29 3RB,50.592269863274800,-4.831534000000000
The Old School Hotel & Restaurant,PL29 3RD,50.592855401647500,-4.831658160196800
BJB Cafe Ltd t/a Chapel Cafe,PL29 3RG,50.592219037308700,-4.833283000000000
Outlaw's New Road,PL29 3SB,50.594127727065700,-4.829643138117860
The Angry Anchovy,PL29 3SB,50.594127727065700,-4.829643138117860
STARGAZY INN,PL29 3SG,50.593643880035400,-4.826722000000000
PILCHARDS AT PORT GAVERNE,PL29 3SQ,50.592225747980700,-4.821658260876370
PORT GAVERNE HOTEL,PL29 3SQ,50.592225747980700,-4.821658260876370
Cornish Arms Inn Pendoggett,PL30 3HH,50.581117071692900,-4.791439639167580
The Poldark Inn,PL33 9DQ,50.622855363192100,-4.743306038971350
King Arthur's Arms ,PL34 0DA,50.663502659753500,-4.751136000000000
The Olde Malthouse,PL34 0DA,50.663502659753500,-4.751136000000000
Crossbow Restaurant ,PL34 0DB,50.663089502217300,-4.751274000000000
Tintagel Arms Hotel,PL34 0DB,50.663089502217300,-4.751274000000000
wine dine and co,PL34 0DB,50.663089502217300,-4.751274000000000
King Arthur's cafe ,PL34 0DD,50.664446631090500,-4.753245526239640
The Wootons Inn,PL34 0DD,50.664446631090500,-4.753245526239640
the Avalon,PL34 0DD,50.664446631090500,-4.753245526239640
Camelot Castle Hotel,PL34 0DQ,50.668224643178200,-4.755518895612900
Port William,PL34 0HB,50.644861774037900,-4.757560378908550
