name,postcode,lat,lon
Woodman Restaurant & Bar at Hedley Wood Holiday Park,EX22 7ED,50.78443700000000,-4.46382800000000
Black Rock Cafe,EX23 0AG,50.78773498535156,-4.55621576309204
Widemouth Bay Cafe,EX23 0AH,50.7929,-4.5556
 The Break Bar,EX23 0AW,50.79716900000000,-4.55633300000000
Bay view inn,EX23 0AW,50.79649100000000,-4.55426070000000
The Old Wainhouse inn,EX23 0BA,50.73023400000000,-4.57789700000000
Widemouth Manor ,EX23 0DE,50.78166100000000,-4.55106000000000
Cornish Coasts Farmshop & Cafe,EX23 0EE,50.74967800000000,-4.55469300000000
The Cabin Cafe,EX23 0JG,50.74108505249023,-4.63125228881836
The Haven Cafe,EX23 0JG,50.74108500000000,-4.63125200000000
Subway,PL15 7RR,50.59643900000000,-4.48405100000000
Altarnun Tea Room,PL15 7SJ,50.60384400000000,-4.51159100000000
The Golden Lion,PL29 3RB,50.59236260000000,-4.83173760000000
The Old School Hotel & Restaurant,PL29 3RD,50.59296300000000,-4.83167500000000
BJB Cafe Ltd t/a Chapel Cafe,PL29 3RG,50.59243000000000,-4.83394600000000
Outlaw's New Road,PL29 3SB,50.59413600000000,-4.82965400000000
The Angry Anchovy,PL29 3SB,50.59413600000000,-4.82965400000000
STARGAZY INN,PL29 3SG,50.59365200000000,-4.82661500000000
PILCHARDS AT PORT GAVERNE,PL29 3SQ,50.59223556518550,-4.82166910171509
PORT GAVERNE HOTEL,PL29 3SQ,50.59223556518550,-4.82166910171509
Cornish Arms Inn Pendoggett,PL30 3HH,50.58112500000000,-4.79145000000000
Masons Arms,PL32 9PB,50.62294670000000,-4.67863340000000
The Wilsey Down Hotel,PL32 9SH,50.66191900000000,-4.57636000000000
Hilltop Farm Shop & Cafe,PL32 9TT,50.63856506347660,-4.67853212356567
The Vale of Avalon/ Arthurian Centre,PL32 9TT,50.63856506347660,-4.67853212356567
The Bettle and Chisel,PL33 9AQ,50.62370681762700,-4.73162889480591
The Poldark Inn,PL33 9DQ,50.62286400000000,-4.74331700000000
King Arthur's Arms ,PL34 0DA,50.66351100000000,-4.75133300000000
The Olde Malthouse,PL34 0DA,50.66351100000000,-4.75133300000000
Crossbow Restaurant ,PL34 0DB,50.66309800000000,-4.75092700000000
Tintagel Arms Hotel,PL34 0DB,50.66309800000000,-4.75092700000000
wine dine and co,PL34 0DB,50.66309800000000,-4.75092700000000
King Arthur's cafe ,PL34 0DD,50.66445500000000,-4.75325700000000
The Wootons Inn,PL34 0DD,50.66480600000000,-4.75364500000000
the Avalon,PL34 0DD,50.6644,-4.7532
Camelot Castle Hotel,PL34 0DQ,50.66823300000000,-4.75553000000000
Port William,PL34 0HB,50.64487000000000,-4.75757200000000
The Cornish Bakery,PL34 0HE,50.66436767578130,-4.75387382507324
The English Heritage Trust,PL34 0HE,50.66434600000000,-4.75370300000000
The Wellington Hotel,PL35 0AQ,50.68948800000000,-4.69285900000000
The Napoleon Inn ,PL35 0BD,50.68363700000000,-4.69109400000000
The Harbour Light Tea Garden,PL35 0HD,50.69046600000000,-4.69409100000000
COBWEB INN LTD,PL35 0HE,50.68997600000000,-4.69233500000000
The Manor house,PL35 0HE,50.6900,-4.6923
The Riverside,PL35 0HE,50.68997600000000,-4.69233500000000
Toby Jug Cafe,PL35 0HE,50.68997600000000,-4.69233500000000
Boscastle Farmshop Ltd,PL35 0HH,50.69096100000000,-4.68085100000000
