name,postcode,lat,lon
krait and moloch,EX22 6ND,50.785704244574900,-4.355090691666210
Old World vulture and Thrasher,EX22 6PS,50.769593140012400,-4.347643479424620
Capuchin and Pratincole,EX22 6QN,50.760386504935300,-4.333144079585170
king cobra and massasauga,EX22 6QP,50.742034958956100,-4.355676359798130
anaconda and Maya,EX22 6SW,50.799190163139800,-4.395080893044690
B and taipan,EX22 7EP,50.799005888404400,-4.451116056137340
Herring gull and tortoise,EX22 7EU,50.798688446038200,-4.454818000000000
boomslang and bearded lizard,EX23 0AE,50.790481000000000,-4.553810172050730
Night heron and boa,EX23 0AJ,50.793434025255700,-4.552741136510070
Condor and Fulmarine petrel,EX23 0BH,50.723008000000000,-4.600784000000000
thorny devil and Puffleg,EX23 0HG,50.794243758642400,-4.493722886856730
ringhals and snake,EX23 0HJ,50.780244914250000,-4.490112062335710
Buzzard and Chicken,EX23 0NB,50.790325216954700,-4.518686671778070
Old World vulture and Chipmunk,EX23 0NG,50.733011803155100,-4.555929969051170
Mamo and ringhals,PL15 7BJ,50.631854693564000,-4.365491461615440
frilled lizard and Parakeet,PL15 7BT,50.632903423422200,-4.367439133303980
Black jay and New World blackbird,PL15 7DE,50.630096503648700,-4.370126268913980
Chipmunk and copperhead,PL15 7DZ,50.630839032908300,-4.369880803334000
Grouse and Boto,PL15 7EL,50.634090949644600,-4.373169843792010
Nukupuʻu and crocodile,PL15 7EP,50.629944000000000,-4.382958000000000
Logrunners and racer,PL15 7FE,50.599483601100000,-4.435728676000000
Quetzal and Piping shrike,PL15 7HE,50.631289215673800,-4.364105496016700
Viscacha and diamondback turtle,PL15 7HR,50.629657495830900,-4.367389135150530
elapid and Goose,PL15 7JB,50.612657599515600,-4.390749849386230
frill-necked lizard and terrapin,PL15 7JH,50.622460201152000,-4.386425850450220
king cobra and death adder,PL15 7JJ,50.620335000000000,-4.398873000000000
Thicketbird and viper,PL15 7JT,50.608568000000000,-4.386726000000000
Armadillo and Armadillo,PL15 7LE,50.610659620432100,-4.395185923603200
tortoise and Fulmarine petrel,PL15 7PR,50.612972324996400,-4.458561928780570
chameleon and Parrotlet,PL15 7SP,50.611927175900100,-4.542403470595510
Mockingbird and Pitohui,PL15 8AL,50.636352211998300,-4.360597622651940
Lemming and lizard,PL15 8AZ,50.638314439935700,-4.361855739691690
Triller and Grouse,PL15 8BE,50.639116697232400,-4.361768681335390
B and Nukupuʻu,PL15 8BS,50.637013526186800,-4.359032602997620
Quetzal and iguana,PL15 8DR,50.645431416553200,-4.365720843952220
diamond snake and Old World warbler,PL15 8LE,50.645412602519400,-4.361773278240960
Thrasher and chuckwalla,PL15 8NQ,50.642733640633900,-4.359488899835570
monitor and blindworm,PL15 8NS,50.715750250061700,-4.425560232046810
Greenbul and Treepie,PL15 8QE,50.622394000000000,-4.424540000000000
Kākāriki and Nukupuʻu,PL15 8RR,50.645681362427900,-4.366256792886900
Old World vulture and Herring gull,PL15 8SP,50.650829046822000,-4.433333213036210
River dolphin and cycling lizard,PL15 8TH,50.663476000000000,-4.380269000000000
Pheasant and diamondback terrapin,PL15 8TT,50.681014476061500,-4.374475471276520
Pitohui and Marmoset,PL15 9AP,50.634254552093200,-4.360252074736320
Zebra and Siskin,PL15 9BP,50.633582541695800,-4.354349461039580
black snake and flying lizard,PL15 9DQ,50.630622490712500,-4.358839813167670
Chickadee and Rat,PL15 9EP,50.637196849028600,-4.355308004335010
slowworm and Thrasher,PL15 9HQ,50.629099514339900,-4.349329000000000
mamba and milk snake,PL15 9HX,50.626579007093400,-4.355979061526930
python and Tree warbler,PL15 9LP,50.625482990819100,-4.363460661661120
turtle and Tit-tyrant,PL15 9LZ,50.599817412805200,-4.343675530145080
tuatara and rattlesnake,PL15 9PL,50.577191702231800,-4.337212563488660
Tit-tyrant and viper,PL15 9QD,50.578639000000000,-4.364504000000000
Vulture and Myna,PL15 9ST,50.673917874903200,-4.325441098280280
adder and Argus,PL15 9TE,50.636539252159400,-4.359800850928360
Philippine hawk-owl and Parrotlet,PL30 3JT,50.593568112279400,-4.736811739371820
boomslang and Komodo dragon,PL32 9NH,50.624895345556800,-4.675750002142340
flying lizard and Towhee,PL32 9PE,50.623358911450900,-4.679197648260400
alligator and Black cockatoo,PL32 9PN,50.641302968124700,-4.649340078587790
lizard and Cloud rat,PL32 9TY,50.639140000000000,-4.697762000000000
gavial and Lemming,PL32 9UF,50.625334280425300,-4.680130122120460
grass snake and taipan,PL32 9UQ,50.623127359079100,-4.681050903394540
Chicken and thorny devil,PL32 9XL,50.625165553200000,-4.671821008400000
slowworm and bull snake,PL32 9YE,50.640687080425200,-4.643986990552890
massasauga and king snake,PL32 9YP,50.677481000000000,-4.579197000000000
Peafowl and mamba,PL33 9BA,50.621233102563500,-4.733116241645420
king cobra and Hawk,PL33 9BZ,50.626452733760200,-4.713777689475330
cycling lizard and Viscacha,PL33 9EJ,50.621925560692800,-4.728136952426760
coral snake and boa,PL35 0AP,50.685577557695200,-4.695470529701920
Vulture and Dolphin,PL35 0AQ,50.689478942218400,-4.692848189047720
box turtle and Partridge,PL35 0DT,50.682166000000000,-4.700697000000000
boa and Fulmarine petrel,PL35 0EB,50.676422528451500,-4.703552343647780
diamond python and chameleon,PL35 0HQ,50.691642502923100,-4.689134735008890
Moluccan boobook and coral snake,PL35 0HT,50.673136000000000,-4.655662000000000
