name,postcode,lat,lon
SPRINKLES GELATO 3 LIMITED,PO1 1BQ,50.7995,-1.0914
Portsmouth Coffee Ltd,PO1 1EJ,50.7993,-1.0908
Speedy Pizza Commercial Ltd,PO1 1EJ,50.7993,-1.0908
OTAKU SUSHI,PO1 2DB,50.7981,-1.0920
7 Bone Burger Co - Portsmouth,PO1 2DD,50.7965,-1.0931
BREWHOUSE AND KITCHEN PORTSMOUTH,PO1 2DD,50.7965,-1.0931
Mary Rose Dragon,PO1 2EW,50.7933,-1.1013
The Canteen,PO1 2FS,50.7908,-1.1083
The Duke of Buckingham Pub,PO1 2HW,50.7917,-1.1013
abarbistro ,PO1 2JA,50.7900,-1.1057
The Spinnaker Cafe Ltd,PO1 2JE,50.7908,-1.1079
NEW FORTUNE CHINESE RESTAURANT LTD,PO1 2LP,50.7912,-1.1012
Welly Ton Inn Limited,PO1 2LY,50.7894,-1.1061
ROYAL NAVAL CLUB & ROYAL ALBERT YACHT CLUB LTD,PO1 2NT,50.7896,-1.1020
The Chambers,PO1 2RG,50.7920,-1.0956
Viet Quan,PO1 2RG,50.7920,-1.0956
Kens Kebabs Guildhall Ltd,PO1 2RY,50.7962,-1.0928
The Guildhall Village,PO1 2RY,50.7962,-1.0928
Hideout Coffee Company,PO1 2SB,50.7952,-1.0945
subway,PO1 2SB,50.7952,-1.0945
Keppel's Head Hotel,PO1 3DT,50.7980,-1.1061
The Lady Hamilton,PO1 3DT,50.7980,-1.1061
Tin Tin Chinese Restaurant,PO1 3DT,50.7980,-1.1061
Brasserie Blanc Portsmouth ,PO1 3FR,50.7954,-1.1035
Cafe in the Park,PO1 3HJ,50.7998,-1.0954
UNIVERSAL HEALTHY LIMITED,PO1 3HL,50.7997,-1.0983
The Royal Maritime Club,PO1 3HS,50.7992,-1.1044
The George Hotel,PO1 3HU,50.7995,-1.1048
Ship and castle,PO1 3PU,50.7988,-1.1068
Parade Tea Rooms Gunwharf Ltd,PO1 3TN,50.7959,-1.1054
eden Portsmouth,PO1 3TP,50.7953,-1.1069
Hubbox Portsmouth,PO1 3TT,50.7962,-1.1080
SUBWAY GUNWHARF QUAYS,PO1 3TT,50.7962,-1.1080
Real Eating Company Ltd,PO1 3TZ,50.7966,-1.1060
The Alchemist Portsmouth,PO1 3TZ,50.7966,-1.1060
The Fratton Cafe,PO1 5AB,50.7976,-1.0772
Subway ,PO1 5AG,50.7989,-1.0773
Carousel cafe,PO11 0AG,50.7852,-0.9889
DIANE'S DINER,PO11 0AG,50.7852,-0.9889
T at the Park cic,PO11 0HB,50.7903,-0.9908
The Newtown House Hotel,PO11 0QR,50.7945,-0.9865
Seacourt tennis club,PO11 9AJ,50.7864,-0.9836
Ralphs Tapas Bar ,PO11 9EF,50.7890,-0.9769
Bay of bengal,PO11 9EH,50.7920,-0.9768
The Olive Leaf,PO11 9HL,50.7825,-0.9689
the beach cafe,PO11 9HL,50.7825,-0.9689
Drift Hayling Island,PO11 9SR,50.7852,-0.9418
The Boathouse Cafe,PO12 1AH,50.7960,-1.1177
The bookworm cafe ,PO12 1BT,50.7946,-1.1249
Nelsons Bar,PO12 1DF,50.7954,-1.1212
Vanilla Bean Patisserie ,PO12 1DF,50.7954,-1.1212
Kings Dinner Cafe,PO12 1DS,50.7948,-1.1196
I Heart Chai,PO12 1ES,50.7944,-1.1188
Lakeside Cafe and Bar,PO12 1FA,50.7932,-1.1242
The Pump House Cafe,PO12 1FY,50.8000,-1.1265
T & J (RESTAURANT) LIMITED,PO12 1HA,50.7948,-1.1224
Dollys Vintage Tea Rooms,PO12 1JQ,50.7939,-1.1334
Dollys vintage tea room,PO12 1JQ,50.7939,-1.1334
Suphawadi Thai Cuisine,PO12 1LS,50.7939,-1.1322
Trinitys at haslar,PO12 1NU,50.7904,-1.1213
Trinitys at the lightship,PO12 1NU,50.7904,-1.1213
Margarita's tea room,PO12 1PE,50.7931,-1.1354
The Fighting Cocks Pub,PO12 2AJ,50.7829,-1.1319
Pebbles fish and wine bar ,PO12 2BL,50.7819,-1.1545
The Anglesey Hotel ,PO12 2DH,50.7828,-1.1454
The old lodge hotel,PO12 2JX,50.7870,-1.1498
Bayside cabin Ltd ,PO12 2QT,50.7856,-1.1614
Foresters Arms ,PO12 3JX,50.7990,-1.1488
THE BORO' CLUB LLP,PO12 3SX,50.7936,-1.1545
Kingfisher Caravan Park,PO13 9BE,50.7902,-1.1710
The Old House at Home,PO20 8AD,50.7796,-0.8958
castle inn newport ,PO30 1BQ,50.6996,-1.2977
Bengal palace ,PO30 1HS,50.6910,-1.2891
Subway,PO30 1JU,50.6990,-1.2929
Town Choice Cafe ,PO30 1JU,50.6990,-1.2929
Cornerstop Cafe Ltd,PO30 1JZ,50.6977,-1.2943
McDonald's Restaurant,PO30 1LB,50.6984,-1.2953
Peach Vegan Kitchen & Zero Waste Store,PO30 1LB,50.6984,-1.2953
The George Inn,PO30 1LB,50.6984,-1.2953
Caffe Isola ,PO30 1LG,50.6978,-1.2950
Board Cafe Bar,PO30 1LQ,50.6974,-1.2954
Tamarind,PO30 1LQ,50.6974,-1.2954
Gods Providence House,PO30 1SL,50.6996,-1.2936
Pasha grill,PO30 1TY,50.7005,-1.2924
Comicoffee,PO30 1UL,50.6989,-1.2960
The Blue Door,PO30 1UX,50.6995,-1.2951
Love Coffee,PO30 1XA,50.6995,-1.2948
Newport & District Conservative Club,PO30 1XB,50.6992,-1.2942
The Breeze,PO30 2LA,50.7227,-1.2740
Robin Hill,PO30 2NU,50.6860,-1.2465
The Dairymans Daughter,PO30 3AA,50.6779,-1.2464
The White Lion,PO30 3AA,50.6779,-1.2464
The Fighting Cocks ,PO30 3AR,50.6580,-1.2272
One holyrood ltd,PO30 5AU,50.7012,-1.2936
The Walled Garden Cafe,PO30 5AU,50.7012,-1.2936
LONG ISLAND,PO30 5AZ,50.7007,-1.2940
Quay Arts Trading,PO30 5BD,50.7019,-1.2924
The Bargeman's Rest,PO30 5BS,50.7038,-1.2920
Hong Kong Express,PO30 5EP,50.7005,-1.2939
Hewitt's Restaurant ,PO30 5ET,50.7002,-1.2967
The Cafe,PO30 5UX,50.7065,-1.2936
MURRAYS,PO31 7AT,50.7622,-1.2978
spice central,PO31 7AT,50.7622,-1.2978
Harbour Kitchen,PO31 7AX,50.7619,-1.2978
TONINOS ITALIAN RESTAURANT,PO31 7BE,50.7609,-1.2974
jolliffes cowes,PO31 7BE,50.7609,-1.2974
Mojac's Restaurant and Bar,PO31 7BG,50.7607,-1.2976
The Coast Bar and Dining Room ,PO31 7BG,50.7607,-1.2976
The Duke of York,PO31 7BT,50.7594,-1.2958
The Basque Kitchen,PO31 7HT,50.7593,-1.2945
Island Sailing Club,PO31 7RE,50.7644,-1.2984
Call It What You Want,PO31 7RL,50.7643,-1.2987
Gastronomy Cowes Ltd,PO31 7RR,50.7637,-1.2982
The Red Duster Restaurant,PO31 7RS,50.7629,-1.2980
The Pier View,PO31 7RY,50.7623,-1.2982
The Anchor Inn,PO31 7SA,50.7614,-1.2978
Shoreside Cafe,PO32 6AD,50.7625,-1.2882
Waverley Park Holiday Centre,PO32 6AW,50.7610,-1.2837
Albert Cottage Hotel & Restaurant,PO32 6BD,50.7532,-1.2782
The Lunch Box Cafe,PO32 6EP,50.7573,-1.2881
SEABREEZE,PO32 6RU,50.7576,-1.2876
The Lifeboat,PO32 6UB,50.7509,-1.2906
The Captains Table,PO33 1JA,50.7317,-1.1537
Monkton Arts and The Lounge Cafe,PO33 1JP,50.7296,-1.1537
The Duck,PO33 1LE,50.7292,-1.1487
appley manor hotel,PO33 1PH,50.7240,-1.1403
The Mermaid Bar ,PO33 1PX,50.7179,-1.1271
Busy Bee Nurseries (Isle of Wight) Ltd,PO33 1QG,50.7107,-1.1455
McDonald's Restaurant,PO33 1QG,50.7107,-1.1455
Bartletts Green Farm Tea Rooms,PO33 1QQ,50.7075,-1.1475
Ganders Restaurant,PO33 1UQ,50.6984,-1.1105
Hungry Bear,PO33 1XS,50.7002,-1.1080
Koffee Bar,PO33 2AA,50.7298,-1.1621
T & D kitchen ryde ,PO33 2AA,50.7298,-1.1621
ISLE OF WIGHT BUS AND COACH MUSEUM LTD,PO33 2BE,50.7261,-1.1549
The Wonky Goat,PO33 2DT,50.7310,-1.1619
Coffee Pot,PO33 2DU,50.7319,-1.1613
House of Zabre,PO33 2DU,50.7319,-1.1613
Alamo Bar and Grill,PO33 2DY,50.7324,-1.1603
Hong Kong Express Restaurant,PO33 2DY,50.7324,-1.1603
The Marine,PO33 2DZ,50.7320,-1.1585
Long John Eater,PO33 2EA,50.7326,-1.1610
Royal Esplanade Hotel,PO33 2ED,50.7321,-1.1590
The Pavilion,PO33 2EL,50.7321,-1.1562
So Yummy,PO33 2HT,50.7277,-1.1628
slice of life cafe,PO33 2HW,50.7288,-1.1631
Leo Leisure Bingo ,PO33 2HX,50.7276,-1.1622
Leo Leisure Commodore Cinema,PO33 2HX,50.7276,-1.1622
No64,PO33 2JF,50.7295,-1.1615
Fumo 33,PO33 2LE,50.7303,-1.1624
Blacksheep Bar and Club Lounge ,PO33 2LF,50.7305,-1.1628
Bagel Wrap Coffee House,PO33 2LG,50.7316,-1.1621
Yelfs Hotel ,PO33 2LG,50.7316,-1.1621
Subway,PO33 2LN,50.7322,-1.1619
Thekebabhouse ,PO33 2PN,50.7295,-1.1631
Kevars,PO33 2RE,50.7270,-1.1630
The White Hart Inn,PO33 4DP,50.7097,-1.2084
The Fishbourne,PO33 4EU,50.7332,-1.2121
Darwin (Woodside Bay) limited,PO33 4JT,50.7408,-1.2291
Lakeside Park Hotel & Spa,PO33 4LJ,50.7232,-1.2276
Cibo,PO33 4PF,50.7248,-1.2286
The Cedars,PO33 4QU,50.7234,-1.2372
The Woodmans Arms,PO33 4RQ,50.7171,-1.2457
Bluebells at Briddlesford,PO33 4RY,50.7096,-1.2455
The Old Barracks Restaurant,PO34 5AR,50.7249,-1.1286
The Boathouse,PO34 5AW,50.7244,-1.1255
The Seaview Hotel,PO34 5EX,50.7207,-1.1098
Bembridge Sailing Club,PO35 5NR,50.6924,-1.0936
Beach Cafe,PO35 5PL,50.6744,-1.0957
Culver Bar,PO35 5PL,50.6744,-1.0957
Culver Diner,PO35 5PL,50.6744,-1.0957
Nab Bar,PO35 5PL,50.6744,-1.0957
Scooby's Whitecliff Bay,PO35 5PL,50.6744,-1.0957
Propeller Inn (IOW) Ltd,PO35 5PW,50.6757,-1.1097
Framptons' ,PO35 5SD,50.6908,-1.0888
village inn,PO35 5SF,50.6884,-1.0909
Crab & Lobster,PO35 5TR,50.6822,-1.0742
Lockslane,PO35 5XN,50.6895,-1.0875
THE YARBRIDGE INN,PO36 0AA,50.6734,-1.1446
Bugle Inn,PO36 0DQ,50.6807,-1.1432
Coffee Shop at Rectory Mansion,PO36 0DQ,50.6807,-1.1432
The Pointer Inn ,PO36 0NN,50.6664,-1.2067
Pedallers Cafe,PO36 0NP,50.6704,-1.2105
The Garlic Farm (IOW) Limited,PO36 0NR,50.6779,-1.2140
BEAR CAFE,PO36 0PJ,50.6742,-1.1488
Oasis Interior Landscapes,PO36 0QA,50.6932,-1.1403
Bellamy's (IOW) Limited,PO36 8AD,50.6550,-1.1529
KATE COTTAGE,PO36 8AD,50.6550,-1.1529
Surfside Diner,PO36 8AE,50.6552,-1.1514
The Ocean Deck Bar & Restaurant,PO36 8AE,50.6552,-1.1514
The Reef,PO36 8AE,50.6552,-1.1514
Sandown Hill Ltd T/A Eastern Eye,PO36 8AQ,50.6554,-1.1519
serenitys,PO36 8AQ,50.6554,-1.1519
The Bandstand,PO36 8AT,50.6570,-1.1474
driftwood beach bar n grill,PO36 8AT,50.6570,-1.1474
Caulkheads,PO36 8AY,50.6580,-1.1500
Daisy's Bakery and Tearooms,PO36 8DA,50.6540,-1.1554
Muzza's,PO36 8DE,50.6541,-1.1546
Swad North Indian Cuisine,PO36 8DE,50.6541,-1.1546
Little Dessert Shop,PO36 8JR,50.6534,-1.1554
The Beach Cafe,PO36 8JR,50.6534,-1.1554
barnabys restaurant,PO36 8JR,50.6534,-1.1554
The Wildheart Cafe,PO36 8QB,50.6620,-1.1365
The Culver Haven Inn,PO36 8QT,50.6665,-1.1052
MELVILLE HALL HOTEL LTD,PO36 9DH,50.6537,-1.1612
Haldi Indian Restaurant,PO36 9JL,50.6491,-1.1685
The Clubhouse Kitchen Shanklin and Sandown Golf Club,PO36 9PR,50.6615,-1.1697
Vernon Cottage,PO37 6AA,50.6271,-1.1783
Brunswick Hotel,PO37 6AN,50.6284,-1.1747
The Clifton,PO37 6AN,50.6284,-1.1747
Shanklin Conservative Club,PO37 6AU,50.6291,-1.1776
BEACH CAFE 34,PO37 6BG,50.6303,-1.1724
Caesars Restaurant Shanklin Beach Hotel,PO37 6BJ,50.6304,-1.1723
The Waterfront Inn,PO37 6BN,50.6280,-1.1732
The Steamer Inn,PO37 6BS,50.6287,-1.1731
The Chestnuts,PO37 6EA,50.6334,-1.1739
Channel View Hotel,PO37 6EH,50.6333,-1.1718
Blueberrys Cafe,PO37 6HS,50.6388,-1.1707
amici,PO37 6JJ,50.6281,-1.1799
NO 64 Shanklin ,PO37 6JN,50.6283,-1.1795
cinderellas tea room,PO37 6JZ,50.6292,-1.1792
Foxhills of Shanklin,PO37 6LS,50.6270,-1.1864
Somerton Lodge,PO37 6LT,50.6275,-1.1870
Paramount Cafe,PO37 6NJ,50.6273,-1.1791
Pendletons,PO37 6NR,50.6263,-1.1789
pavarotti restaurant,PO37 6NS,50.6258,-1.1786
Pencil Cottage Tea Garden,PO37 6NU,50.6248,-1.1792
The Old Thatch Teashop,PO37 6NU,50.6248,-1.1792
Rylstone Tea Gardens,PO37 6RG,50.6249,-1.1755
Bournehall Country Hotel & Restaurant,PO37 6RR,50.6205,-1.1766
CINNAMON RESTAURANT AND TAKEAWAY,PO37 7AF,50.6303,-1.1780
TUMBLERS CAFE,PO37 7AT,50.6336,-1.1784
Artyshakes ,PO37 7LA,50.6312,-1.1791
Toniâ€™s Tea Room,PO38 1EU,50.5950,-1.2023
The Seapot,PO38 1HP,50.5949,-1.1971
BESTY & SPINKYS,PO38 1JR,50.5933,-1.2062
THE MILL BAY,PO38 1JR,50.5933,-1.2062
Waterside cafe,PO38 1JX,50.5933,-1.2098
Carnaby Tea Rooms,PO38 1LU,50.5956,-1.2029
The Bonchurch Inn,PO38 1NU,50.6011,-1.1867
The Blenheim,PO38 1RY,50.5953,-1.2059
T & D kitchen Ventnor ,PO38 1RZ,50.5953,-1.2048
The Hambrough,PO38 1SQ,50.5939,-1.2057
Masala Bay,PO38 1ST,50.5948,-1.2052
Ventnor Botanic Garden C I C,PO38 1UL,50.5897,-1.2300
THE WHITE LION,PO38 2AT,50.5881,-1.2849
Buddle Inn,PO38 2NE,50.5789,-1.2916
The White Horse Inn,PO38 2PY,50.5986,-1.2642
Woods Kitchen,PO38 3HH,50.6337,-1.2547
The Old Smithy,PO38 3HZ,50.6327,-1.2533
The Old World Tea Rooms,PO38 3HZ,50.6327,-1.2533
The Taverners Inn,PO38 3HZ,50.6327,-1.2533
The Griffin,PO38 3JD,50.6322,-1.2512
The Lakes Rookley,PO38 3LU,50.6533,-1.2770
THE CHEQUERS INN,PO38 3NZ,50.6461,-1.2774
The Rutland Arms,PO4 0AH,50.7927,-1.0706
Golden Bowl,PO4 0DB,50.7938,-1.0762
Bubble and Pho,PO4 0JP,50.7868,-1.0733
Kadirs Indian Street Kitchen,PO4 0JP,50.7868,-1.0733
Hunter Gatherer,PO4 0JR,50.7865,-1.0713
Nicholsons,PO4 0JR,50.7865,-1.0713
Twins Chinese Restaurant,PO4 0JR,50.7865,-1.0713
Melody's catering services ltd,PO4 0JS,50.7865,-1.0754
Kens Chicken Southsea Ltd,PO4 0JT,50.7865,-1.0735
THAILAND CAFE AND TAKEAWAY,PO4 0JT,50.7865,-1.0735
Dice Board Game Lounge,PO4 0JW,50.7868,-1.0753
Zenda Ltd The Royal Beach Hotel,PO4 0RN,50.7797,-1.0761
coastguard studio,PO4 0SA,50.7807,-1.0790
Deep Blue Restaurants,PO4 0SP,50.7790,-1.0761
Southsea Beach Cafe,PO4 0SP,50.7790,-1.0761
THE GAIETY BAR,PO4 0SP,50.7790,-1.0761
Kathleen's Coffee House ,PO4 8DR,50.7931,-1.0632
Coffee Beano,PO4 8EA,50.7911,-1.0555
Pure Ground Milton,PO4 8PR,50.7950,-1.0593
McDonald's Restaurant,PO4 8SL,50.7954,-1.0674
T & Thistle Ltd,PO4 9AH,50.7860,-1.0690
Mumms Cafe Ltd.,PO4 9BZ,50.7864,-1.0706
THE MERCHANT HOUSE,PO4 9DA,50.7863,-1.0696
Coffee Cup Eastney,PO4 9GE,50.7823,-1.0591
eastney tavern,PO4 9PN,50.7857,-1.0576
The Tenth Hole,PO4 9RF,50.7820,-1.0691
Cafe Fresco,PO4 9RG,50.7817,-1.0708
Bombay Bay,PO4 9RJ,50.7916,-1.0333
The Marina Bar,PO4 9RJ,50.7916,-1.0333
Southsea Cream Ltd,PO5 1JF,50.7903,-1.0880
T&J Mahal,PO5 1JF,50.7903,-1.0880
HUIS BELGIAN BAR AND KITCHEN,PO5 1JG,50.7901,-1.0888
Jags,PO5 1LH,50.7900,-1.0863
RAKUZEN SUSHI AND NOODLE BAR,PO5 1LR,50.7892,-1.0835
Umami Street Food,PO5 1LU,50.7895,-1.0832
Hamilton House Rooms Limited,PO5 1PS,50.7936,-1.0801
BANGERZ 'N' BREWZ LTD,PO5 2BT,50.7860,-1.0832
Sant-Yago,PO5 2EE,50.7845,-1.0880
The Jolly Sailor,PO5 2EU,50.7820,-1.0859
The Florence Arms,PO5 2NE,50.7810,-1.0825
Gin and Olive ,PO5 2SE,50.7881,-1.0818
PORTERS MANAGEMENT CO LIMITED,PO5 2SE,50.7881,-1.0818
Purple Mango,PO5 2SE,50.7881,-1.0818
Sakura Portsmouth,PO5 2SE,50.7881,-1.0818
The Kings Pub,PO5 2SE,50.7881,-1.0818
CEDAR LEBANESE RESTAURANT,PO5 2SF,50.7874,-1.0808
Akash Restaurant,PO5 2SG,50.7871,-1.0795
Bombay Cuisine Express Ltd,PO5 2SG,50.7871,-1.0795
Valemex Limited,PO5 2SG,50.7871,-1.0795
Galbi korean bbq restaurant,PO5 2SH,50.7876,-1.0819
The Golden Curry,PO5 2SH,50.7876,-1.0819
Aurora Southsea Limited,PO5 2SJ,50.7870,-1.0807
CORIANDER BANGLADESHI AND INDIAN CUISINE,PO5 2SJ,50.7870,-1.0807
Farh Thai Ltd,PO5 2SL,50.7868,-1.0797
Hayplanet Ltd,PO5 2SN,50.7865,-1.0776
Subway,PO5 2SN,50.7865,-1.0776
Food at the fox,PO5 2SP,50.7886,-1.0823
Coffee Cup Clarence Pier,PO5 3AA,50.7856,-1.1007
Wimpy Clarence Pier,PO5 3AA,50.7856,-1.1007
Mozzarella Joes ,PO5 3AE,50.7837,-1.0982
Maya,PO5 3AS,50.7896,-1.0958
Becketts Southsea Ltd,PO5 3AT,50.7890,-1.0962
Shorties Steak House Ltd,PO5 3AT,50.7890,-1.0962
Brewhouse and Kitchen Southsea,PO5 3AU,50.7884,-1.0959
Giuseppe's Italiano Limited,PO5 3AY,50.7887,-1.0935
Ning's Thai Restaurant ,PO5 3AY,50.7887,-1.0935
Mayfair Chinese Restaurant,PO5 3AZ,50.7887,-1.0940
Giuseppe's,PO5 3EG,50.7879,-1.0941
Parade Tea Rooms,PO5 3JF,50.7871,-1.0943
Queens Hotel Portsmouth Ltd,PO5 3LJ,50.7851,-1.0931
Rancho Steak House,PO5 3LS,50.7851,-1.0906
Southsea Coffee,PO5 3LS,50.7851,-1.0906
Istanbul,PO5 3LT,50.7850,-1.0917
BURGERZ N BREWZ LTD,PO5 3LU,50.7848,-1.0902
Circolo Pizzeria,PO5 3LU,50.7848,-1.0902
The Courtyard,PO5 3PA,50.7781,-1.0888
Blue Reef Aquarium - Portsmouth,PO5 3PB,50.7804,-1.0924
WATKINS & FAUX LTD,PO5 3PB,50.7804,-1.0924
The Briny,PO5 3PG,50.7786,-1.0821
FARM KITCHEN,PO5 3PP,50.7844,-1.0886
Flamez,PO5 3PP,50.7844,-1.0886
Subway,PO5 3PP,50.7844,-1.0886
The Monarch,PO5 3PP,50.7844,-1.0886
The Southsea Village,PO5 3PP,50.7844,-1.0886
Bonita's,PO5 3PT,50.7841,-1.0891
Croxtons kitchen and taphouse,PO5 3PT,50.7841,-1.0891
Meat and Barrel,PO5 3PT,50.7841,-1.0891
Sopranos Southsea Limited,PO5 3PT,50.7841,-1.0891
The Vintage Eatery ,PO5 3PT,50.7841,-1.0891
obriens,PO5 3QH,50.7860,-1.0886
Leilamezze,PO5 4AQ,50.7947,-1.0944
Gyroland,PO5 4BP,50.7940,-1.0918
The Eldon Arms,PO5 4BS,50.7927,-1.0911
King Street Tavern,PO5 4EH,50.7919,-1.0905
Flamez ,PO5 4PN,50.7943,-1.0854
