name,postcode,lat,lon
Kākāriki and Maya,BN10 7AN,50.798822880000000,-0.017497040000000
Mockingbird and Cuscus,BN10 7AX,50.796393630000000,-0.021263000000000
Perching duck and Pratincole,BN10 7BN,50.795453790000000,-0.016646295000000
Songlark and Grouse,BN10 7HE,50.793360210000000,-0.015174068000000
Komodo dragon and Dorcopsis,BN10 7LD,50.798459420000000,-0.007252259000000
Grosbeak and Eagle,BN10 7LN,50.797942720000000,-0.008593996000000
chuckwalla and blue tongue,BN10 7NB,50.798257860000000,-0.010723447000000
green turtle and Mouse,BN10 7NJ,50.792863490000000,-0.003460472000000
Mouse and soft-shelled turtle,BN10 7NN,50.792970610000000,-0.002888330000000
kabaragoya and Polecat,BN10 7NU,50.794874170000000,-0.002707858000000
racer and Piping shrike,BN10 7PD,50.792480150000000,-0.005761283000000
Grackle and Flameback,BN10 7PN,50.793258570000000,-0.007104536000000
Zebra and viper,BN10 7QE,50.798324000000000,0.000221000000000
Prion and milk snake,BN10 7QZ,50.797795950000000,-0.002114991000000
pit viper and rock python,BN10 7RE,50.797880430000000,-0.005474640000000
anole and agamid,BN10 7RQ,50.799621760000000,-0.004222606000000
Mole and tree snake,BN10 8BS,50.799137650000000,0.000936600000000
loggerhead and monitor,BN10 8DD,50.798687060000000,0.006224859000000
leguaan and elapid,BN10 8DT,50.798474210000000,0.003434282000000
Shearwater and fer-de-lance,BN10 8EP,50.790614990000000,0.005978557000000
thorn lizard and sand lizard,BN10 8JA,50.794359470000000,-0.000487800000000
milk snake and racer,BN10 8JW,50.793612100000000,0.005663000000000
River dolphin and Crow,BN10 8NE,50.788544870000000,0.005024466000000
bearded dragon and skink,BN10 8PX,50.786729000000000,0.016524000000000
Puffleg and Piping shrike,BN10 8ST,50.788370400000000,0.016707977000000
horned toad and Kite,BN10 8TT,50.791875410000000,0.020491255000000
flying lizard and White ibis,BN10 8TW,50.793085020000000,0.019195412000000
iguana and boa constrictor,BN10 9DR,50.794466000000000,0.004114000000000
Zebra and harlequin snake,BN2 8DB,50.799813300000000,-0.031902055000000
bull snake and asp,BN9 0BY,50.790096570000000,0.056963000000000
perentie and green turtle,BN9 0NH,50.799965910000000,0.063855095000000
viper and Triller,BN9 9DD,50.786714050000000,0.048785834000000
Wallaby and Dorcopsis,BN9 9DW,50.783338340000000,0.055603903000000
sea snake and Nukupuʻu,BN9 9GE,50.788080880000000,0.052378419000000
Goose and Chipmunk,BN9 9GG,50.788305060000000,0.053438159000000
River dolphin and Ground sloth,BN9 9HY,50.790136020000000,0.044437640000000
copperhead and sand viper,BN9 9LQ,50.792861620000000,0.046103000000000
Egret and tortoise,BN9 9NS,50.793851380000000,0.042329392000000
amethystine python and Masked owl,BN9 9QE,50.791240730000000,0.051264000000000
harlequin snake and Schneider python,BN9 9QL,50.792688570000000,0.050168039000000
Quetzal and deaf adder,BN9 9RL,50.792406000000000,0.049512314000000
Shearwater and coral snake,BN9 9RT,50.794555680000000,0.046787377000000
Linsang and Maya,BN9 9SS,50.796304380000000,0.043486428000000
tuatara and terrapin,BN9 9TB,50.794131000000000,0.041306000000000
Triller and cerastes,BN9 9TP,50.789764980000000,0.036858952000000
gaboon viper and River dolphin,BN9 9TS,50.788138350000000,0.036788250000000
chameleon and Hawk,BN9 9TU,50.786088000000000,0.034784000000000
Black cockatoo and tuatara,BN9 9TX,50.783897290000000,0.033468664000000
Civet and skink,BN9 9UD,50.787236960000000,0.033812203000000
flying dragon and king snake,BN9 9UH,50.789922990000000,0.030892425000000
Marsh harrier and iguana,BN9 9UY,50.791700450000000,0.037269438000000
