name,id,postcode,lat,lon
cobra de capello and Greenbul,1588880,AB30 1SG,56.875864000000000,-2.412423000000000
Mink and Vole,1348136,DD10 0RS,56.843035559783600,-2.276629823473520
giant tortoise and Marsh harrier,1348455,DD10 0HB,56.794928984787400,-2.335129499392040
Eagle and blind snake,1588881,AB30 1SJ,56.885936090000000,-2.430504182000000
Bunting and rattlesnake,1347745,DD10 9JB,56.743111302457000,-2.489865815238350
elapid and mud turtle,1348402,DD10 0BW,56.772434697367900,-2.412776394854250
blue tongue and thorny devil,1588921,AB30 1UX,56.783794830000000,-2.521770628000000
frill-necked lizard and constrictor,1588832,AB30 1NT,56.872448340000000,-2.370192000000000
chuckwalla and iguana,2622394,AB30 1GH,56.832119000000000,-2.478399000000000
Guillemot and diamondback terrapin,1588631,AB30 1DY,56.835156110000000,-2.497131506000000
chameleon and fer-de-lance,1588890,AB30 1TA,56.895498790000000,-2.449688692000000
agamid and Booted eagles,1589098,AB30 1BG,56.829240710000000,-2.468016665000000
Ibex and leguaan,1588750,AB30 1FH,56.831849700000000,-2.467016820000000
jew lizard and Black cockatoo,1347761,DD10 9LA,56.771838000000000,-2.528035000000000
perentie and Dorcopsis,1586330,AB39 2XR,56.934518800000000,-2.270241340000000
Grouse and Jay,1588798,AB30 1JX,56.896653000000000,-2.395146767000000
Vulture and Grouse,1588831,AB30 1NS,56.880619000000000,-2.380230818000000
rock python and cobra de capello,1588901,AB30 1TS,56.917739200000000,-2.467547384000000
Dorcopsis and Flameback,1588747,AB30 1FE,56.837704200000000,-2.470154659000000
deaf adder and alligator,1588807,AB30 1LP,56.906092200000000,-2.311085000000000
whip snake and habu,1348154,DD10 0SQ,56.841598042400000,-2.276701169181350
Kangaroo and cobra,1588744,AB30 1FA,56.829379960000000,-2.476326257000000
horned viper and Perching duck,1765859,DD10 9FT,56.727233000000000,-2.477011000000000
alligator and Masked owl,1348167,DD10 0TF,56.882470381586300,-2.256819839350710
terrapin and slowworm,1588759,AB30 1FX,56.831422250000000,-2.473173080000000
Mink and Fulmarine petrel,1348479,DD10 0LA,56.828393903692400,-2.283977289760420
Jackal and bicycle lizard,1348082,DD10 9DL,56.731221478870900,-2.467614574778410
whip snake and puff adder,1348493,DD10 0LU,56.829811406832300,-2.284807343703240
Jackal and Parakeet,1588748,AB30 1FF,56.833105000000000,-2.465099000000000
Tattler and Booted eagles,1348494,DD10 0LW,56.828111265611200,-2.286023000000000
Zebra and Perching duck,1348178,DD10 0TU,56.846095088322600,-2.278357331628480
iguana and Darwin's finches,1348413,DD10 0DJ,56.792585872956500,-2.390177808027460
soft-shelled turtle and python,1348424,DD10 0DY,56.773905768360400,-2.429400056595150
cobra de capello and pit viper,1348396,DD10 0BP,56.772873958806300,-2.413059366692300
Thrasher and Fulmarine petrel,1588433,AB30 1XA,56.785909090000000,-2.503533991000000
python and Fulmarine petrel,1588536,AB30 1XU,56.900300020000000,-2.448564368000000
giant tortoise and diamond python,1348389,DD10 0BE,56.774468352525500,-2.417167468939190
Condor and skink,1348415,DD10 0DN,56.793019000000000,-2.368753000000000
thorn lizard and Fish eagle,1588896,AB30 1TL,56.904027160000000,-2.470807510000000
Chipmunk and hawksbill,1586333,AB39 2XU,56.914652590000000,-2.280198102000000
rock snake and chuckwalla,1589080,AB30 1AJ,56.835833000000000,-2.461117000000000
Booted eagles and leathery turtle,1588803,AB30 1LG,56.832825610000000,-2.460654121000000
diamondback terrapin and Stint,1588737,AB30 1ER,56.869894740000000,-2.510699407000000
death adder and B,1586237,AB39 2TT,56.939044140000000,-2.226164718000000
