name,postcode,lat,lon
B and Jackal,NG21 9LH,53.186141334845400,-1.056714856481480
Zebra and Stilt,S81 7JA,53.314485351465800,-1.128459069239740
Fulmarine petrel and Bronzewing pigeon,S80 1TN,53.312374000000000,-1.134618481685170
Recurvebill and New World blackbird,NG22 9PB,53.230466534891900,-0.979655000000000
Fox and White ibis,DN22 7NU,53.317758684270700,-0.953058941014022
Viscacha and Petrel,DN22 6QH,53.324234717751600,-0.930184531646617
River dolphin and Grouse,DN21 2TF,53.411690992989200,-0.786480789891871
Chickadee and Rabbit,S80 3HQ,53.314991328830900,-1.156337964283440
New World blackbird and Macaw,S80 1SA,53.307449948764800,-1.125180555241250
Polecat and Tit-tyrant,S80 1LW,53.302122610378400,-1.128065487062680
Kākāriki and Myna,S81 0JJ,53.316306753599400,-1.115782866567320
Mockingbird and Kangaroo,DN10 5GA,53.395779321298600,-0.963794000000000
Bronzewing pigeon and Skunk,LN1 2JF,53.270134352032500,-0.664218051517154
Fish eagle and Bunting,S81 0BN,53.311608015731100,-1.118551572655380
Marmoset and Pratincole,NG22 9ZE,53.227707000000000,-0.981142000000000
Petrel and Wader,DN11 8BL,53.421303483603300,-1.041978874175690
Tree warbler and Parakeet,S80 3DH,53.291664563417300,-1.156287416134190
Fulmarine petrel and Shearwater,DN21 5NS,53.369954723915700,-0.694494881023415
Eagle and Grouse,DN22 6QW,53.327498026347500,-0.934232033909313
B and Grackle,DN22 7XH,53.306248000000000,-0.930844000000000
Tit-tyrant and Vulture,DN22 6EN,53.319180143551700,-0.942996112896052
Wallaby and Jackal,S80 1UQ,53.311957401177300,-1.126949580299850
Hawaiian honeycreeper and Piping shrike,DN11 8BZ,53.411661000000000,-1.070660000000000
Dorcopsis and Ibex,LN6 9HA,53.195984459692000,-0.735487773121472
Parrotbill and Black jay,DN11 8HR,53.420758821108900,-1.069739010081530
Egret and B,DN21 5EJ,53.370205000000000,-0.751362000000000
Herring gull and Egret,DN22 0PY,53.278306797029000,-0.934497000000000
Polecat and Myna,DN10 6PF,53.435469096435900,-1.018614400187640
Vole and White ibis,S81 0PB,53.326133593363000,-1.111195592921380
Dorcopsis and Meadowlark,S80 3HP,53.313466460919100,-1.155887000000000
Logrunners and Skunk,DN22 8RX,53.364957342894600,-0.960949378948739
Vulture and Diving bird,NG22 9HS,53.205150401016500,-0.997951487796694
Masked owl and Petrel,S81 8EU,53.365913248160700,-1.033139000000000
Duck and Wader,NG20 9PW,53.223110536687300,-1.127079505813730
Triller and Francolin,DN10 5AQ,53.388237944541100,-0.920310811238106
Ground sloth and Gull,DN22 9NA,53.340885000000000,-0.898752000000000
Grackle and Linsang,S80 2EJ,53.306360740278800,-1.121300908420790
Darwin's finches and Macaw,DN10 4JP,53.421573729909100,-0.825520663795772
Argus and Maya,NG23 7EJ,53.240498847636800,-0.678177793793862
Piping shrike and Siskin,S80 1UZ,53.298408475643500,-1.125380280941150
Minke whale and Magpie,DN22 6JB,53.318408787987100,-0.942174508670581
Zebra and Grackle,DN22 7BL,53.314095755022800,-0.937312726246800
Lemming and Moluccan boobook,DN22 8HP,53.318136939987400,-1.027507334420250
Parrotlet and River dolphin,DN22 0GF,53.297818000000000,-0.796898000000000
Parakeet and Thicketbird,NG20 0AL,53.206337549117500,-1.153352395172800
Jackal and Old World vulture,DN22 6PN,53.324223912168100,-0.939042964293831
Solitaire and Greenbul,DN21 5LA,53.350579678980600,-0.685201434612738
Kite and Mouse,NG22 0LW,53.228039011429600,-0.900286070981369
Masked owl and Towhee,DN21 1DL,53.390002043573600,-0.771714606722309
American sparrow and Mouse,S81 9DJ,53.354581785803600,-1.115908000000000
Diving bird and Perching duck,S80 1BN,53.294808927885000,-1.126068926403530
Old World warbler and Zebra,S81 7SG,53.329222331319500,-1.138924822156330
Crow and Rat,S81 9EG,53.349445571880100,-1.116524596710830
Bronzewing pigeon and Fox,DN11 8LA,53.410251000000000,-1.070735000000000
Polecat and Mole,S81 9PG,53.376143851893300,-1.122781732888140
Perching duck and Diving bird,S80 2LD,53.300981415571300,-1.118335189426300
River dolphin and Grosbeak,S80 3QQ,53.304851235531800,-1.139895289648790
Siskin and Armadillo,DN22 8BT,53.271899419347300,-0.994575000000000
Polecat and Zebra,LN1 2LE,53.266853102191500,-0.733413068176326
Ground sloth and Black cockatoo,S81 8JJ,53.390471618916700,-1.114186891590640
Jay and Mole,NG20 0SP,53.213112043984200,-1.160511547793930
Mouse and River dolphin,DN22 8QX,53.352374000000000,-1.002060000000000
Stint and Bronzewing pigeon,DN22 6QD,53.324370242388000,-0.934279934104200
Siskin and Polecat,NG22 0ND,53.225328832275500,-0.887218673157383
Grackle and Dolphin,DN22 6ND,53.320904018666700,-0.931663998751321
Jerboa and Hawaiian honeycreeper,DN22 0DS,53.324570000000000,-0.913451000000000
Kite and Asiatic leopard,S80 3YY,53.305295000000000,-1.122883000000000
Petrel and Eagle,DN21 1GT,53.404209152157600,-0.756247000000000
Wader and Argus,DN11 9JD,53.439734422870300,-1.111085395735420
White ibis and Condor,S81 7NQ,53.328526900728700,-1.133503358323140
Hawaiian honeycreeper and Dolphin,DN21 3NS,53.434028795841400,-0.712612739675846
Kangaroo and Egret,DN22 7SS,53.335123000000000,-0.954676000000000
Bronzewing pigeon and Linsang,DN11 8PX,53.419268119682200,-1.071080638135090
White ibis and Tit-tyrant,DN10 4FT,53.444586000000000,-0.811535000000000
Towhee and Dolphin,LN1 2LA,53.274702344745600,-0.746318243153573
Kākāriki and B,DN21 9EU,53.400862000000000,-0.774067000000000
Chicken and Perching duck,DN11 8NX,53.418172248127400,-1.071179749231620
Towhee and Francolin,NG20 0LD,53.204183560374000,-1.150041203945990
Grouse and Greenbul,DN22 9DS,53.363994674731900,-0.863517000000000
Polecat and Linsang,NG22 0PF,53.228716000000000,-0.932147000000000
Rat and Chickadee,DN22 0NE,53.277369000000000,-0.798263070070611
Myna and Tit-tyrant,S80 1ED,53.292160089293400,-1.122792452458960
Boto and Coati,S81 8HF,53.377375817306500,-1.064806829396350
Wallaby and Kangaroo,LN1 2YZ,53.300387235895800,-0.745686265932849
Old World quail and Black cockatoo,NG22 9SH,53.211116753475500,-1.006242770230390
Quetzal and Ice seal,DN10 6QY,53.444528343290600,-1.005382126093530
Grouse and Jackal,NG23 6RE,53.211217350489000,-0.815572350438719
Magpie and Polecat,DN22 0NG,53.277850172661100,-0.791146000000000
Grouse and Recurvebill,S81 9NL,53.376585743991100,-1.120532885419140
Masked owl and Recurvebill,NG20 0SW,53.213920014000300,-1.156542368181730
Songlark and Prion,DN11 8PJ,53.423212527915100,-1.072017981136560
Peafowl and Ibex,S81 9HB,53.362095685444500,-1.127893846536340
American sparrow and Ground sloth,DN11 8QQ,53.421160671445000,-1.064794564614820
Badger and Grackle,NG20 0SE,53.212524720621100,-1.149936070861570
Old World vulture and Shearwater,DN22 8EU,53.320061348006600,-0.996117975254338
Bronzewing pigeon and Skunk,S80 2JA,53.301829082457100,-1.113846022132700
Petrel and Parrotlet,DN21 1NU,53.391881218694000,-0.761314442570525
Bronzewing pigeon and Goose,DN22 9HY,53.347394627891200,-0.819057567569726
Towhee and Black cockatoo,S80 2SY,53.295089040363000,-1.111659964894290
Ibex and Fox,S81 9PB,53.377102049419200,-1.123513656993700
Grackle and Maya,DN21 2FL,53.402282997449500,-0.776264521648111
Marmoset and Chipmunk,NG23 7HW,53.176457154686000,-0.765283691396085
Wallaby and Polecat,S81 7HZ,53.313929757061700,-1.127464715034280
Greenbul and Greenbul,NG22 9AY,53.194906108692400,-1.014535948110370
Marmoset and Marmoset,DN11 8JF,53.419975096553800,-1.071832649160820
Cloud rat and Wallaby,DN22 9EE,53.345896000000000,-0.903686000000000
Triller and Kestrel,DN11 8FB,53.424935000000000,-1.060920000000000
Old World quail and Skunk,LN1 2HB,53.267735931833500,-0.663573066445852
Badger and Nukupuʻu,LN1 2ZP,53.320801317472200,-0.666675068248429
Myna and Old World quail,NG21 9QN,53.193878080355400,-1.063175945444190
Dorcopsis and Bunting,DN10 6JX,53.431717069997800,-1.022554020058620
Fulmarine petrel and Macaw,S81 9PS,53.379307609356400,-1.126414841094060
Egret and American sparrow,S81 9FA,53.362127000000000,-1.117090000000000
Pitohui and Rat,S81 0XL,53.326252505286900,-1.104256503915570
Ibex and American sparrow,DN22 9BY,53.363772003400900,-0.853078777202520
Pheasant and Snipe,DN22 7RF,53.330414377711300,-0.947838936251616
Recurvebill and Francolin,DN22 9DJ,53.361353863355000,-0.852136892531494
Quetzal and New World blackbird,DN10 5ET,53.401328428434600,-0.977796916566329
Peafowl and Greenbul,S80 2DA,53.306217830414800,-1.114130360189370
Guillemot and Quetzal,NG23 6LW,53.186416000000000,-0.869995477203704
Logrunners and Logrunners,DN22 6RW,53.326544769532000,-0.938219652492811
Grosbeak and Hawk,NG21 9RE,53.189924899682100,-1.060014317392690
Marsh harrier and Rabbit,NG23 7BB,53.242370259723300,-0.750859752013539
Kangaroo and Lemming,DN22 6PJ,53.323741489501700,-0.940558000000000
Argus and Asiatic leopard,NG21 9QW,53.193800294750500,-1.062429237953660
Puffleg and Chicken,DN22 6BG,53.318565466156800,-0.936541194470356
Logrunners and Grackle,DN11 8DD,53.418561304472600,-1.056696000000000
Tahr and Wader,NG23 6SQ,53.221817433955800,-0.792438233042693
Asiatic leopard and Hawaiian honeycreeper,NG20 9LA,53.241934229581800,-1.144513509096810
Philippine hawk-owl and Towhee,S81 0UN,53.325127706698400,-1.104099888469950
Wallaby and Black jay,LN1 2GP,53.290755000000000,-0.742308000000000
Chipmunk and Fox,NG23 6NX,53.169732173486800,-0.820200583343995
Kite and Wallaby,S80 1QW,53.309131529751900,-1.119157876917780
Capuchin and Black jay,DN10 4JW,53.422700391122600,-0.831328501957494
Black cockatoo and Masked owl,S80 3DY,53.301202869678700,-1.146315902846780
New World blackbird and Ibex,DN22 6NT,53.319279000000000,-0.937814000000000
Dorcopsis and Booted eagles,S80 2BL,53.303374521601700,-1.121047065577860
Vulture and Mole,DN22 6DU,53.322345000000000,-0.942911381793362
Treepie and Thicketbird,DN22 6QG,53.324481405772600,-0.930628780160732
Old World quail and Dorcopsis,NG23 6QJ,53.184620734818600,-0.814973276328876
Pheasant and Parrotbill,DN22 9TT,53.343058747206100,-0.907153000000000
Pratincole and Grosbeak,S81 0NE,53.316908477298400,-1.106058289299390
Chicken and Warbler,S81 0BX,53.318609490388700,-1.107538929177260
Parrotlet and River dolphin,S81 9QA,53.375686326335400,-1.120567000000000
Hawk and Fulmarine petrel,DN10 4BX,53.442475877552300,-0.846082480699697
Dorcopsis and Old World quail,DN22 8ND,53.383729460202900,-1.013234185672470
Towhee and Pratincole,DN11 9ND,53.430759599996300,-1.110444000000000
Treepie and Moluccan boobook,DN22 6BB,53.316812000000000,-0.936315000000000
Prion and Grosbeak,DN22 7AU,53.314631562428400,-0.932735000000000
Triller and Black cockatoo,DN22 8JW,53.336616453185600,-1.003298469125440
Lemming and Zebra,S81 9SA,53.380353954681200,-1.120785997848080
Ground sloth and Piping shrike,S81 0RN,53.313663495517400,-1.108467616216830
Grosbeak and Cloud rat,NG22 9HR,53.211378343774700,-0.991367276282687
Tree warbler and Parrotbill,S81 0EL,53.309997408688700,-1.100274224960180
Jackal and Quetzal,S80 2ST,53.295811959462000,-1.112170096837250
Night heron and Lemming,DN10 5BZ,53.436039141645100,-0.959562812310307
Ice seal and Mamo,DN22 7RA,53.335961000000000,-0.955902000000000
Flameback and Parrotlet,DN22 8TD,53.354193650532300,-0.980006669521300
Condor and American sparrow,NG22 0RW,53.265237217625600,-0.892585124287243
Piping shrike and Condor,DN21 5NB,53.362564000000000,-0.690096719143463
Civet and Polecat,DN22 8RS,53.371361000000000,-0.961184000000000
Mockingbird and New World blackbird,DN22 8DZ,53.244652349909100,-0.979270844580159
Fulmarine petrel and Parrotbill,DN21 2NT,53.405373550295300,-0.782253066524856
Petrel and Guillemot,S80 2QS,53.297717696420800,-1.101372491724280
Guillemot and Pheasant,NG22 9LS,53.212905710421900,-0.970246866810886
Grackle and Cuscus,NG20 0EA,53.198733004618600,-1.161016978632740
Old World quail and Jerboa,DN22 6BH,53.323722953676000,-0.943079166141075
Flameback and Nukupuʻu,S81 0PY,53.311959006256400,-1.107722637072210
Scimitar babbler and Jerboa,DN22 9DY,53.355935000000000,-0.875842000000000
Masked owl and Solitaire,S81 7RZ,53.331694575662100,-1.137718802795480
Booted eagles and Hawaiian honeycreeper,DN10 6HZ,53.430392570472200,-1.018881827013680
Coati and Parrotbill,S80 3RB,53.303328187552400,-1.144352728103830
Jackal and Stint,S81 9QL,53.376952474025900,-1.118797000000000
American sparrow and Eagle,S81 9RQ,53.381496834621800,-1.118522433760210
Petrel and Ground sloth,DN21 2AX,53.400488000000000,-0.772048054886685
Stint and Capuchin,DN11 8LS,53.416431618207400,-1.080892319231170
Herring gull and Hawk,DN22 8LE,53.382574156268800,-1.011937000000000
Chickadee and Grosbeak,DN22 1DQ,53.336122000000000,-0.954877000000000
Kite and Philippine hawk-owl,NG21 9JP,53.184788572270900,-1.059572903538870
Thicketbird and Tit-tyrant,NG22 9AQ,53.199602000000000,-1.020240606058010
Peafowl and Maya,DN22 0AR,53.330063940078300,-0.825330000000000
New World blackbird and Tit-tyrant,DN22 7YP,53.311723000000000,-0.931173000000000
Maya and Jackal,DN22 0HE,53.321454833503800,-0.850670529356519
Skunk and Mink,DN21 1XG,53.394454539017900,-0.766758973797281
B and Capuchin,DN10 4EX,53.443329470061600,-0.813011523561263
Asiatic leopard and Ice seal,DN21 2PF,53.407297845385700,-0.784078531237257
Mouse and Recurvebill,DN11 9NU,53.431170149812800,-1.114996768393460
Grouse and Nukupuʻu,DN10 5BU,53.417101000000000,-0.971039000000000
Boto and Rat,DN21 3NW,53.436721000000000,-0.724695000000000
Capuchin and Pitohui,S81 0TD,53.316669184411700,-1.106513617009680
Masked owl and Crow,DN22 0BJ,53.329635650278000,-0.824893670188683
Grouse and Fish eagle,NG20 0EB,53.203709683443000,-1.156727823803490
Dorcopsis and Solitaire,S80 1BB,53.296695038531200,-1.127080712125860
Thrasher and Egret,LN6 9EN,53.196166937703800,-0.708911782182272
Kākāriki and Eagle,DN21 2PJ,53.403875309176300,-0.783424001640071
Tree warbler and Piping shrike,S80 2LL,53.300516385768800,-1.118659875711980
Diving bird and Songlark,NG22 0HZ,53.231727095079900,-0.889884305295847
Petrel and Old World warbler,S81 8HU,53.391593981488000,-1.115231243923600
Civet and Snipe,DN22 8DS,53.251528709586600,-0.993405000000000
Maya and Buzzard,NG20 0DB,53.201488202029800,-1.157834330148930
Logrunners and Shearwater,DN21 2EW,53.398185429140700,-0.773780131254828
White ibis and Thrasher,NG20 0TJ,53.214695934350600,-1.159492227613540
Perching duck and Kākāriki,S80 3NU,53.284219277740800,-1.022877532377530
Grosbeak and Minke whale,DN21 2LN,53.402770833242800,-0.777378653883201
Masked owl and Thrasher,DN22 9AQ,53.383018809058600,-0.902942616118584
Polecat and Hawk,NG22 0HJ,53.203546000000000,-0.882079000000000
Mink and Flameback,DN10 6LT,53.430984908933300,-1.024256562102900
Magpie and Pitohui,S80 2RX,53.300108715939200,-1.115802284592770
Maya and Mink,NG23 7EN,53.249574097096300,-0.678063000000000
Old World quail and Hawk,DN22 7LT,53.330309347313400,-0.954298378157772
Kestrel and Meadowlark,DN11 8AN,53.417538453479100,-1.046637628463770
Parrotbill and Viscacha,DN10 6ER,53.453630169942300,-0.956437353605692
Capuchin and Argus,S81 9RG,53.378419828100000,-1.116541653800000
Fox and Viscacha,DN22 6JQ,53.317389000000000,-0.943637068994067
White ibis and American sparrow,NG22 9UE,53.213172000000000,-0.998196144005477
Marsh harrier and Petrel,S80 3QF,53.301434569054000,-1.142274783292140
Chipmunk and American sparrow,DN21 1UR,53.395758535876200,-0.760735652682482
Ice seal and Egret,DN10 6HY,53.430189165742700,-1.018194162058490
Guillemot and B,LN1 2ED,53.298352464646600,-0.743675181934310
Wallaby and Puffleg,S81 0PZ,53.312311414515100,-1.104368186303510
Myna and Civet,DN22 9LS,53.343226346617000,-0.902206701231050
Thicketbird and Jerboa,DN11 8AJ,53.418479137099400,-1.048497451705990
Triller and Siskin,NG23 7EF,53.226113899227800,-0.686964576965335
Philippine hawk-owl and Triller,DN22 7GF,53.333001128054300,-0.964038583000309
Wader and Grouse,DN22 0TF,53.308036994743500,-0.785639594848392
Pitohui and Parakeet,DN10 5AT,53.413111110212100,-0.959881638664355
Fox and Prion,DN10 6DL,53.448810706989900,-0.970784991508872
Treepie and Black cockatoo,S80 9FR,53.305295000000000,-1.122883000000000
Rabbit and Thrasher,DN21 1RN,53.400935328588700,-0.755456239220586
Civet and Eagle,DN22 8AX,53.271728409608000,-0.970425000000000
Gull and Scimitar babbler,DN11 8DL,53.418008747705200,-1.054917844076370
Condor and Black cockatoo,DN22 9HE,53.344641000000000,-0.818608000000000
Flameback and B,LN6 9BU,53.201593242815300,-0.649402388218665
Myna and Argus,NG21 9QH,53.193365994353500,-1.060044000000000
Polecat and Wallaby,S80 2AS,53.304449085846600,-1.122930850216880
Chicken and Jerboa,S81 7JN,53.315488054985400,-1.124220691284960
Guillemot and Triller,DN10 4JF,53.426166870878800,-0.836515953112997
Chicken and Tahr,S81 9NB,53.358549412542300,-1.116261240953450
Recurvebill and River dolphin,DN21 5PQ,53.360682395123400,-0.715635764225297
Mouse and Tattler,DN21 5NU,53.369391546190400,-0.694782640129770
Treepie and Old World quail,DN21 2QS,53.405109199554300,-0.773987217862597
Black cockatoo and Flameback,LN1 2QL,53.268668549810600,-0.658565716729867
Jay and Cloud rat,DN22 6QP,53.326816469594900,-0.935420166053482
Wader and Cuscus,NG23 6QF,53.185359508139000,-0.814234571643551
Black jay and Tahr,DN22 8PS,53.355264479232100,-0.979395023111705
Herring gull and Cloud rat,S81 0TL,53.320878000000000,-1.107807000000000
Bunting and Piping shrike,DN22 9BN,53.359025963774500,-0.820809687203681
Bronzewing pigeon and Cloud rat,NG22 9PD,53.230038406540600,-0.982719404989610
Mamo and Nukupuʻu,LN1 2QR,53.267194449058900,-0.655388081736047
Old World warbler and Linsang,NG21 9FX,53.170293000000000,-1.122271000000000
Elephant and Peafowl,S81 8NB,53.320359404922900,-1.165524674865700
Gull and Ibex,LN1 2LZ,53.256574866427200,-0.667128934345598
Masked owl and Tree warbler,DN22 9AH,53.383826000000000,-0.901614000000000
Fulmarine petrel and Ice seal,NG22 0LH,53.232656000000000,-0.899691405682011
Elephant and Pheasant,NG22 0DY,53.194907090311000,-1.001692944936190
Armadillo and Wallaby,DN11 9NX,53.432099199179000,-1.115429021616470
Songlark and Chickadee,S81 0TT,53.341160000000000,-1.089180000000000
Hawk and Civet,DN11 8BU,53.419878005663000,-1.042447282585060
Marsh harrier and Pheasant,DN10 4QQ,53.402989646175600,-0.833402893875096
Bronzewing pigeon and Piping shrike,S80 9FG,53.305295000000000,-1.122883000000000
Songlark and Stint,DN11 9LG,53.443302000000000,-1.120481000000000
Bunting and River dolphin,DN10 5DS,53.396928114712700,-0.964727860941150
Skunk and Badger,S80 1ZF,53.305295000000000,-1.122883000000000
Night heron and Argus,S80 1LU,53.303124954107600,-1.128496000000000
Tahr and River dolphin,S81 8GQ,53.377620559787100,-1.059344691436520
Pratincole and Marsh harrier,NG22 9DJ,53.184893087495400,-1.019015515548350
Polecat and Mouse,DN10 6DU,53.447034094469900,-0.964910501053452
Chickadee and Partridge,LN1 2AW,53.313395000000000,-0.678164000000000
Wallaby and White ibis,DN21 1XY,53.390409319830500,-0.746891197225370
Tit-tyrant and Civet,LN1 2DG,53.328456660421600,-0.668688000000000
Rabbit and Elephant,DN21 1ZE,53.388132885546900,-0.754567000000000
Recurvebill and Petrel,NG22 0PX,53.225043955931100,-0.873160596061489
Grackle and Diving bird,S80 2UG,53.294168370476900,-1.106233000000000
Thicketbird and Francolin,DN10 6NL,53.435022744299400,-1.024480200536490
Cloud rat and Prion,S80 3BU,53.252811869641400,-1.086576000000000
Flameback and Vole,DN10 4LZ,53.427238000000000,-0.866467000000000
Fox and Cloud rat,NG22 9AA,53.199456192298800,-1.023458570422520
B and Grouse,NG20 0LR,53.203975066752100,-1.152320995943690
Old World warbler and Linsang,S81 9RJ,53.378943000000000,-1.118290000000000
Stilt and Meadowlark,LN1 2NY,53.294848647505600,-0.736890000000000
Partridge and Kite,DN21 1GW,53.404305125625500,-0.771844245970583
Coati and Recurvebill,DN11 8HG,53.419639419390900,-1.072592320007750
Tree warbler and Thicketbird,DN22 6SQ,53.332140588901600,-0.931683646672045
Towhee and Petrel,S81 0AY,53.310601048919200,-1.110047296975660
Black cockatoo and Chicken,DN11 9GB,53.432155260581200,-1.096492906986930
Bunting and Wallaby,S81 8DP,53.375324000000000,-1.058659000000000
Ice seal and Piping shrike,DN22 8FJ,53.320083000000000,-0.996117000000000
Recurvebill and Gull,S80 3DX,53.302009749382200,-1.147275190712280
Cloud rat and Viscacha,DN21 2DU,53.398795000522700,-0.776244261369650
Parrotbill and River dolphin,DN21 2PG,53.405843204558800,-0.783352822660747
Cuscus and Condor,DN22 6NU,53.323978614828200,-0.942802482940817
Magpie and Crow,DN22 0AH,53.330595833549100,-0.811986000000000
Pheasant and Asiatic leopard,NG23 7AY,53.239586693227100,-0.765835340058205
Coati and Cuscus,DN11 9NH,53.429968000000000,-1.117610000000000
American sparrow and Macaw,DN22 0QT,53.260818821925700,-0.927479873081201
Booted eagles and Vole,DN22 7FH,53.334554461393300,-0.958669765848229
Diving bird and Warbler,NG21 9FU,53.170971921800000,-1.120373650500000
Triller and Herring gull,NG20 0DE,53.200357306340300,-1.159353514470210
Cloud rat and Gull,DN11 8LZ,53.408825474702400,-1.085373706979430
Shearwater and Badger,DN22 6AT,53.317782486624500,-0.937446337574448
Zebra and Ice seal,DN21 1PX,53.388595611515900,-0.752163000000000
Booted eagles and Magpie,DN10 6AZ,53.390661000000000,-1.029774207487030
Duck and Pratincole,DN22 8LH,53.385018477422300,-1.008242798454150
Pheasant and Crow,S81 0QH,53.312816183797100,-1.104959000000000
Peafowl and Meadowlark,DN21 3AR,53.415889612218800,-0.784781414078094
Armadillo and Argus,DN11 9HN,53.436540000000000,-1.102120000000000
Quetzal and Pratincole,DN21 2DF,53.399805531130300,-0.778366086750708
Linsang and Peafowl,S80 1RQ,53.308032773028500,-1.121311610614240
Civet and Hawk,DN22 8HT,53.320088067227200,-1.024265375750110
Macaw and Armadillo,S80 2EW,53.306401685395700,-1.102645926074480
Kākāriki and Ground sloth,LN1 2JH,53.265594823588900,-0.661825584042065
Jerboa and Rabbit,S81 0HS,53.314983029827900,-1.119112495529730
Magpie and Vole,DN11 9EG,53.432676511769200,-1.098860043026380
Fulmarine petrel and Night heron,DN22 0QN,53.266975626854800,-0.928390396555905
Coati and Linsang,NG20 0EN,53.183890000000000,-1.160558000000000
Crow and Piping shrike,DN10 6NX,53.438160889699000,-1.022887000000000
Fulmarine petrel and Argus,DN22 7YD,53.329414037360200,-0.961918174255294
Egret and Asiatic leopard,S81 7RP,53.329342000000000,-1.131745000000000
Marsh harrier and Nukupuʻu,DN21 1XA,53.393851461578600,-0.765168000000000
Shearwater and Myna,S80 1SG,53.308344091403800,-1.124531945198980
Fox and Polecat,S81 0XQ,53.328102358968300,-1.114848367838290
Piping shrike and Tree warbler,NG22 0RL,53.265059848998700,-0.890910472334670
Fox and Cloud rat,NG22 0RE,53.251685000000000,-0.891901000000000
Duck and Siskin,NG22 9JS,53.209752226922800,-0.986179632999930
Chicken and Black jay,DN22 7RU,53.307795000000000,-0.952393600574725
Thicketbird and Recurvebill,DN21 1YP,53.389597904680600,-0.757847004932715
Mamo and Darwin's finches,DN11 8BA,53.420267721831400,-1.047344015742970
Francolin and Asiatic leopard,DN22 0BS,53.318053000000000,-0.827048958521282
Cuscus and Condor,NG23 7AG,53.224659519339800,-0.770593505627195
Gull and Diving bird,DN21 3BQ,53.413498269537000,-0.788069414393966
Vulture and Myna,DN22 8JH,53.331564000000000,-1.027112000000000
Stilt and Old World warbler,NG21 9JJ,53.181364965706600,-1.088662411367070
Jackal and Peafowl,S80 2HP,53.302622161540800,-1.117761186234450
Warbler and Recurvebill,S80 1BA,53.296308458911100,-1.127073588097430
Logrunners and Chickadee,DN22 9BJ,53.373825036644500,-0.817469889593576
Kite and Marsh harrier,DN10 6PG,53.435571501611200,-1.017949711711340
Thicketbird and Kite,DN21 1WQ,53.392920865059300,-0.758201518391990
Boto and Parrotlet,DN10 4SQ,53.412008138305500,-0.888325610031780
Prion and Fox,DN21 3NQ,53.441622796533300,-0.719971198035969
Myna and Thrasher,DN21 2HB,53.401563507074300,-0.775352603693388
Piping shrike and Chickadee,LN6 9HE,53.208445504896900,-0.728038450072666
Thicketbird and Flameback,S80 2LH,53.302051612299700,-1.117187715517320
Ground sloth and River dolphin,DN22 7QS,53.334123874449600,-0.956712987616642
Booted eagles and Jay,S81 0UF,53.311033000000000,-1.059518000000000
Treepie and Argus,NG23 7BQ,53.224573906357900,-0.740862211137158
Civet and Elephant,DN11 9HY,53.435293630210800,-1.111042570677710
Diving bird and Songlark,DN11 8LW,53.416906018698200,-1.081799915253890
Tahr and Grouse,NG22 0RY,53.249833417113800,-0.892023637003438
Tattler and Hawk,NG22 0TX,53.260889000000000,-0.780304000000000
Tit-tyrant and B,NG21 9PD,53.194047554860400,-1.075670643634620
Recurvebill and Dorcopsis,DN10 4BE,53.455906000000000,-0.799543000000000
Parrotlet and Goose,DN10 6DN,53.448375116546900,-0.967181709675217
Dolphin and Civet,DN21 3DU,53.453690399309100,-0.795599831568614
Night heron and Guillemot,DN21 5AT,53.329184248772400,-0.736718240819065
Kestrel and Coati,NG22 9EL,53.242328316782700,-1.029286317303730
Masked owl and White ibis,DN21 1QA,53.408514416473900,-0.748541000000000
Stilt and Francolin,LN6 9BF,53.179274091006200,-0.646407517252209
Chickadee and B,DN22 8AR,53.271293448526200,-0.965380724888735
Macaw and Peafowl,DN22 0EZ,53.311116615231700,-0.772103727345747
Jerboa and Pitohui,DN21 5AN,53.325539408734200,-0.739528000000000
Chicken and Grouse,DN22 0EU,53.308809434452200,-0.776777581225867
Dolphin and Maya,DN10 6NR,53.437348831290800,-1.024231242256770
Warbler and Black cockatoo,NG21 9LR,53.196113100246400,-1.075416659925110
Recurvebill and River dolphin,NG22 9XJ,53.205948562096100,-1.007395406425990
Kangaroo and Bronzewing pigeon,DN22 7XX,53.326993630612800,-0.962682610310906
Grosbeak and Pitohui,DN21 1AJ,53.385351553216300,-0.768796225882312
Triller and Hawk,DN11 8DF,53.417535443997600,-1.056448035194090
Chipmunk and Pheasant,S80 2QL,53.300900372128500,-1.095498591306990
Herring gull and Tattler,DN21 5JW,53.373852094392900,-0.760755277877262
Petrel and Tattler,DN22 9EH,53.375695673559200,-0.812126775560076
Night heron and Cuscus,S80 1SQ,53.308569773359200,-1.124662402473510
Grouse and Grackle,DN21 5AR,53.325600747775800,-0.743835907593063
Greenbul and Argus,LN1 2ND,53.258792000000000,-0.662672091504490
Darwin's finches and Parrotbill,NG22 9GU,53.204135570918700,-0.998064985596021
Wallaby and Dorcopsis,DN21 5EN,53.367992229539500,-0.749653205083372
Recurvebill and Towhee,NG22 0LD,53.231128245190900,-0.899727000000000
Shearwater and Philippine hawk-owl,NG21 9HW,53.179558372249000,-1.114930922027000
Puffleg and Grosbeak,DN22 0FR,53.284636000000000,-0.875778000000000
Zebra and Chipmunk,DN11 8DA,53.424605000000000,-1.060295000000000
Guillemot and Songlark,DN21 1WJ,53.403626774393600,-0.758401156087013
Thrasher and New World blackbird,DN22 6DE,53.322097000000000,-0.943429398835611
Darwin's finches and Magpie,DN21 1UY,53.395302877215000,-0.763606318627045
Pheasant and Bronzewing pigeon,DN21 1PW,53.388300103150300,-0.759253115846355
B and River dolphin,S81 8DA,53.348340872836300,-1.138795105624240
Guillemot and Prion,DN21 2AQ,53.396145212347700,-0.776319000000000
Herring gull and Peafowl,S80 2PG,53.301188244551200,-1.108667372551250
Old World vulture and Cuscus,DN22 7GG,53.332820180946000,-0.961835494629088
Badger and Greenbul,S81 8TE,53.325316046917100,-1.144468530053000
Pratincole and Logrunners,S80 1SR,53.310434000677300,-1.127596011979300
Cloud rat and Maya,DN10 4JD,53.422556315730500,-0.840527151573807
Grackle and Stilt,NG23 6NH,53.182800231907900,-0.805505985395428
Skunk and Marmoset,S81 9JQ,53.360430184479200,-1.125087869383440
Parrotbill and Herring gull,DN22 6NQ,53.319736780796400,-0.933824886184216
Parrotbill and Chicken,DN22 7DG,53.315319247650800,-0.947564670526282
Black jay and Cloud rat,S81 8DL,53.344022060719900,-1.134332000000000
Herring gull and Rat,NG20 0SN,53.214034721745100,-1.152183000000000
Buzzard and Polecat,LN1 2RX,53.276767332525100,-0.664911130095401
Pratincole and Kite,NG23 7DG,53.236716000000000,-0.718585000000000
Old World quail and Grackle,DN21 1NY,53.389687746231000,-0.756115119200346
Macaw and Vulture,NG22 0SP,53.256480202093300,-0.859053392908972
Partridge and Kestrel,NG22 0NX,53.195682089243000,-0.923432824882818
Linsang and Chicken,NG22 9HF,53.209232000000000,-0.992607766949838
Darwin's finches and Stilt,NG22 9HX,53.205642805567200,-0.994511354851003
Mockingbird and Dorcopsis,DN10 4QJ,53.400260244629600,-0.830980776279996
Egret and Partridge,NG22 9GY,53.211753000000000,-0.987693381467577
Fulmarine petrel and Old World warbler,NG20 0PG,53.207195135031000,-1.150071464758610
Shearwater and Macaw,NG22 0UQ,53.259468219484000,-0.782158420188664
Jackal and Crow,S81 0RS,53.320167550207100,-1.110584000000000
Mamo and Duck,S81 0DY,53.312183145391100,-1.101654170324170
Rat and Zebra,DN22 7UR,53.305757926338500,-0.942832327514462
Rabbit and Buzzard,NG22 9EZ,53.173432244728800,-1.040042778767590
Dolphin and Tattler,DN21 1HH,53.401769255877100,-0.770007010041162
Treepie and Mouse,DN22 9DN,53.360790490039900,-0.850574215584958
Thicketbird and Treepie,S81 7RX,53.331046922967900,-1.137656779857550
Grosbeak and Parakeet,S80 1TF,53.308721964965000,-1.128261246750460
Jay and Old World vulture,DN21 2RP,53.409910140453100,-0.781085462293271
Magpie and Logrunners,S81 0DL,53.311659237410900,-1.103706419188750
Armadillo and Mink,DN21 2EA,53.397767848625900,-0.774258372919803
Myna and American sparrow,DN21 1BT,53.393227579886500,-0.771561599189039
Vulture and Pitohui,NG20 9PZ,53.219929301883400,-1.134602759271550
Minke whale and Petrel,S80 2SQ,53.292268646170500,-1.110743306126780
Jackal and Partridge,NG22 9WQ,53.206614000000000,-1.003845000000000
Linsang and Gull,NG22 9WR,53.228476000000000,-0.980463000000000
Quetzal and Wader,S81 9JW,53.360731836825400,-1.125772907660770
Stint and Piping shrike,NG23 6UA,53.181266733965800,-0.804082109298208
Booted eagles and Solitaire,LN1 2HJ,53.272928487923500,-0.661671567142237
Magpie and Ibex,DN21 3AS,53.415915300470500,-0.783772576808482
Tattler and Mouse,S81 0LQ,53.323554542821400,-1.119791780748780
Pheasant and Moluccan boobook,NG22 9DS,53.194387000000000,-1.012286000000000
Parakeet and Fish eagle,S80 3AU,53.282619643584600,-1.091385000000000
Greenbul and Fish eagle,NG22 9PN,53.203069281132800,-1.009228540338550
Zebra and Condor,DN11 8AE,53.416269435296200,-1.050954139930730
Jackal and Snipe,NG21 9GB,53.170731900200000,-1.120737597000000
Duck and Elephant,DN22 7GJ,53.331084124939400,-0.945299733005434
Shearwater and Peafowl,NG20 0NQ,53.202255863484300,-1.150738051655090
Chipmunk and Rabbit,LN6 9BN,53.180707000000000,-0.641888000000000
Polecat and Tree warbler,S80 2QY,53.297626786337400,-1.098853678412800
Booted eagles and Dolphin,S81 7RS,53.327997380473000,-1.129910506136400
Philippine hawk-owl and Old World warbler,NG22 0EN,53.185082000000000,-0.982496000000000
Towhee and Wallaby,DN21 3BY,53.418120383491200,-0.789126000000000
Kākāriki and Philippine hawk-owl,DN21 1AW,53.381903473575400,-0.765678329330422
New World blackbird and Kākāriki,DN11 8PW,53.423847005242000,-1.071537657223000
Condor and Myna,DN21 1RG,53.400697405376500,-0.761103561842911
Quetzal and Zebra,DN10 6LE,53.432492055098200,-1.023890909323870
Petrel and Minke whale,DN22 7LG,53.329079513963900,-0.947331215725618
Treepie and Stint,S81 9EB,53.349459627271300,-1.114781699626500
Moluccan boobook and Moluccan boobook,DN21 5WT,53.400840768888400,-0.774124947711016
Kākāriki and Coati,DN22 7TW,53.306581066399600,-0.950540926252513
Treepie and Philippine hawk-owl,DN22 0HW,53.294012480905600,-0.836013727638158
Siskin and Macaw,NG23 7AQ,53.221756711187000,-0.767186702911504
Darwin's finches and Eagle,NG22 9JJ,53.208610000000000,-0.993424000000000
Capuchin and Siskin,S81 0JD,53.313937704517100,-1.112694723985180
River dolphin and Jackal,DN10 6JD,53.429865167729400,-1.019240140900390
Grackle and Scimitar babbler,DN22 6QJ,53.325145413062100,-0.934515862428719
Snipe and Condor,S81 8DZ,53.373419042481100,-1.063450511528460
Scimitar babbler and White ibis,NG23 6LT,53.190496000000000,-0.869995000000000
Armadillo and Elephant,S81 0QZ,53.314481453204300,-1.103662324214480
Coati and Partridge,DN21 5BA,53.336014968369800,-0.742568789483656
Minke whale and Old World vulture,NG22 0QD,53.245742017650100,-0.897497000000000
Magpie and Logrunners,S81 9DQ,53.354997349690800,-1.127062129775420
Eagle and Vulture,DN21 2HR,53.400840768888400,-0.774124947711016
Grackle and Puffleg,NG22 0QR,53.246604089222700,-0.897607164847749
Buzzard and Old World vulture,S81 9SQ,53.379146018496900,-1.125215514892900
Mink and Myna,S80 1XN,53.300631417502300,-1.126970454694400
Dorcopsis and Bunting,DN21 1WF,53.404517369980600,-0.758465483390583
Mink and Ibex,DN11 8HU,53.422197694236800,-1.068669286904080
Grouse and Jackal,NG22 0UH,53.259459827420400,-0.786626084247319
Kestrel and Mouse,S80 1LG,53.302174440629800,-1.126548840223920
Kite and Hawaiian honeycreeper,DN22 8DJ,53.330495260589300,-1.003020802521610
Siskin and White ibis,DN11 8NA,53.407955043016900,-1.087919615632710
Grosbeak and Petrel,DN22 7FN,53.334690065939800,-0.957073000000000
Stilt and Badger,DN22 8FL,53.320083000000000,-0.996117000000000
Night heron and Thicketbird,NG20 0PA,53.205974675449700,-1.151622770728360
Skunk and Tattler,DN10 6TF,53.431666715075300,-1.021892906414720
Thicketbird and Grosbeak,NG20 0HT,53.195836203223300,-1.148020849960750
Kākāriki and Triller,S80 3DP,53.299227360601600,-1.152912383265060
Mole and Kestrel,NG20 0SH,53.213038931840700,-1.145163952024170
Fish eagle and Minke whale,S81 7FA,53.321258505000000,-1.143754000000000
Wader and New World blackbird,DN21 1DA,53.392070974355100,-0.770106141001112
Petrel and Capuchin,LN1 2AG,53.313971510529100,-0.663840639129742
Argus and Jay,DN10 4QR,53.401543000000000,-0.902617000000000
Pratincole and Parrotlet,NG22 9GP,53.199923329500000,-1.010019770200000
Songlark and Old World vulture,DN22 0QR,53.262430000000000,-0.926555000000000
Hawk and Bunting,LN1 2FD,53.275597513977800,-0.662398054261354
Egret and Shearwater,LN6 9DE,53.202204146807400,-0.650161706685020
Prion and Cuscus,NG21 9NT,53.192511808720300,-1.072380860785060
Parrotlet and Mamo,LN6 4RB,53.221145000000000,-0.650753864544989
Buzzard and Jackal,S81 7LU,53.326038000000000,-1.126253553676810
Macaw and Booted eagles,DN21 3BB,53.414810312558100,-0.784721902801534
Asiatic leopard and Old World warbler,NG23 6LZ,53.193322654583100,-0.882928377349838
Black jay and Mole,DN10 4SF,53.411232682699600,-0.890000724927510
Ibex and Bronzewing pigeon,DN21 1SE,53.390195418919100,-0.752957000000000
Treepie and Thicketbird,DN10 4ES,53.438606690009600,-0.823560711075299
Tattler and Ice seal,S80 2EQ,53.307285738458700,-1.116314387126260
Herring gull and B,DN21 2NB,53.400586188169800,-0.777351026903405
Mouse and Meadowlark,NG22 0HX,53.231025877475900,-0.888913677449066
B and Bronzewing pigeon,DN22 8BB,53.272542051445500,-0.971513804589451
Grosbeak and Vulture,NG23 7HH,53.176859855755400,-0.765529000000000
Piping shrike and Lemming,DN22 7JN,53.304592223000600,-0.927043794637424
White ibis and Logrunners,DN22 7RT,53.306521302638400,-0.951923090623217
Siskin and Old World quail,DN10 6RN,53.433009107245900,-1.020070899463680
Night heron and Quetzal,S81 8PE,53.326149657150100,-1.164435807463220
Ice seal and Treepie,S81 0EW,53.308926980685800,-1.100176658608030
Crow and Piping shrike,DN22 7UL,53.305479943195800,-0.944940206817708
Jerboa and Kestrel,DN22 7JL,53.305187482732000,-0.929264942015760
Towhee and Stilt,DN22 0SE,53.327504002053000,-0.910012683723683
Songlark and Stilt,LN6 4RU,53.219534515425300,-0.654005381047356
Mouse and Grackle,S80 2DD,53.306460719090000,-1.114155348734430
Boto and Tree warbler,S81 0XE,53.327926522210100,-1.116593735279940
Minke whale and Bunting,DN22 7RY,53.307362174467700,-0.954528882819968
Kākāriki and Piping shrike,S80 2NF,53.298092668027700,-1.109422012047240
Mole and Macaw,NG23 6QN,53.187896001832900,-0.818908936510557
Thicketbird and Mink,S81 8JR,53.395187880438800,-1.148391926819700
American sparrow and Flameback,DN11 9HJ,53.456657689979700,-1.060219782391280
Siskin and Fish eagle,S80 3QL,53.303804839971300,-1.141882151102800
Fox and Vulture,NG22 9TW,53.211498703005500,-1.000319086218730
Francolin and Zebra,DN21 5HD,53.351426000000000,-0.747043000000000
B and Crow,NG22 9RE,53.203351417570500,-1.013982955001440
Quetzal and Mink,NG20 0AA,53.204611452518900,-1.153326518690280
Zebra and Polecat,DN10 4QN,53.401509000000000,-0.829924000000000
Mink and Grouse,DN11 8LH,53.417965800505100,-1.078180941976910
New World blackbird and Chickadee,NG22 0PW,53.249403000000000,-0.931467000000000
Crow and Eagle,DN22 6AE,53.323492031441800,-0.943685294724292
Moluccan boobook and Night heron,DN21 1YH,53.407167912503000,-0.766150657154322
Nukupuʻu and Ice seal,DN10 6DB,53.451625005933400,-1.047862356422740
Black cockatoo and Duck,DN22 8AT,53.272666000000000,-0.967761000000000
Black cockatoo and Pheasant,DN22 7HJ,53.336559723534200,-0.957719843157533
Mink and Solitaire,S80 1QA,53.311470580475000,-1.124124000000000
Mamo and Eagle,DN22 0EY,53.308419374676900,-0.775558030268689
Crow and Peafowl,DN10 4AJ,53.444065657887600,-0.852483456101133
Hawk and Treepie,DN22 9ES,53.386224890701300,-0.818765249322839
Pheasant and Lemming,S81 9DU,53.356728954928300,-1.113203735697320
Peafowl and Thicketbird,S80 3HT,53.311992855460400,-1.154340798994180
Mole and Zebra,DN11 8DZ,53.419501514724600,-1.050460867310160
Mouse and Shearwater,DN21 3DL,53.441995000000000,-0.811588000000000
Fox and Wallaby,DN11 9JY,53.438776492057500,-1.110397847072630
Solitaire and Ibex,NG22 9LL,53.210183288226800,-0.968320602641973
Rat and Bunting,DN10 4RB,53.408936939099800,-0.896408928844839
Myna and Chickadee,DN21 3EW,53.436416000000000,-0.776168317577487
Old World vulture and Herring gull,DN10 6DA,53.441068495088100,-1.044033520661420
Booted eagles and Gull,DN21 2JB,53.403731669761000,-0.772898661487078
Tahr and Towhee,NG23 7EB,53.226718000000000,-0.682896288919117
Parakeet and Wader,S81 9PN,53.377586698665500,-1.125863788581850
Recurvebill and Argus,LN1 2QF,53.267839909926600,-0.656027590975550
Parakeet and Fox,S81 0BW,53.311210663013800,-1.115873138310050
River dolphin and Eagle,S81 8NY,53.398685019065800,-1.151302000000000
Crow and Elephant,DN10 6SD,53.429377058860900,-1.024398731981290
Hawaiian honeycreeper and Mamo,DN22 7EZ,53.311843000000000,-0.926479705268112
Hawk and Buzzard,S80 2TG,53.299873000000000,-1.097360828877840
Old World warbler and American sparrow,DN10 4EY,53.443496034820300,-0.811681949346881
Kākāriki and Petrel,DN21 5EZ,53.361269916309100,-0.738699839346103
Grouse and Kite,S81 0LN,53.323189062751700,-1.117772513044480
Minke whale and Fulmarine petrel,NG22 9HZ,53.205633194073000,-0.990184594564477
Egret and Minke whale,S81 7LT,53.325512184574900,-1.123189719215180
Booted eagles and Kestrel,DN10 5HN,53.398719252520000,-0.944712000000000
Guillemot and Cloud rat,DN22 9BD,53.370087000000000,-0.880895000000000
Francolin and Kākāriki,DN22 7FQ,53.334614277548000,-0.959344094477876
Magpie and Goose,DN21 1JT,53.392936656123200,-0.774743046806912
Scimitar babbler and Ground sloth,DN21 5BF,53.326011000000000,-0.734576000000000
Grackle and Rat,S80 9SU,53.301863288459500,-1.123343957526250
Fish eagle and Partridge,NG22 0LZ,53.228255748410100,-0.895531767483418
Dolphin and Eagle,S81 0DB,53.316485647423800,-1.102419473146870
Grosbeak and Maya,DN10 4DU,53.443286174011100,-0.849116000000000
White ibis and Warbler,NG22 9BE,53.194250958386100,-1.013145000000000
Bunting and Hawaiian honeycreeper,DN22 8NZ,53.383573446796300,-1.012846892474740
Siskin and Minke whale,DN22 9AN,53.387839872968700,-0.906201849197897
Coati and Towhee,DN11 9GD,53.456271138024300,-1.146477859774110
Quetzal and Mamo,DN11 8LU,53.407958069164700,-1.083617221352750
Ice seal and Marmoset,S80 3AX,53.289589000000000,-1.057739000000000
Meadowlark and Dolphin,DN11 8NJ,53.418794603060600,-1.080751095680980
Jay and Booted eagles,NG20 9JY,53.240071213380200,-1.145449694891560
Eagle and Badger,S81 7ET,53.322101820282100,-1.130075443226850
Triller and Recurvebill,NG22 0TF,53.254283972263000,-0.837991000000000
Linsang and River dolphin,DN21 1GX,53.409521501296700,-0.764909218686856
Black jay and Scimitar babbler,DN10 5BQ,53.413917706104000,-0.962705538347429
Parakeet and Vole,DN21 1HG,53.404714332883800,-0.767936477031961
Cloud rat and Rat,S80 3DD,53.298864783332900,-1.165238380787250
Pheasant and Tattler,S81 0TY,53.361626384425400,-1.080704000000000
Stilt and Pheasant,NG22 0TN,53.236127000000000,-0.827246000000000
Mink and New World blackbird,S81 0TU,53.353065000000000,-1.064107000000000
Tit-tyrant and Flameback,DN21 2TP,53.411106851830900,-0.782961923015015
Black cockatoo and Fish eagle,DN21 2RF,53.404622207177000,-0.777340623715238
Ibex and Argus,DN22 7NA,53.330236857964000,-0.952182905754579
Old World vulture and Cuscus,NG22 0AX,53.182972000000000,-0.977548000000000
Jay and Tahr,S81 0AW,53.311807472014300,-1.111508128047550
Ice seal and Capuchin,DN21 2RE,53.406402000000000,-0.775368028860384
Jerboa and Fish eagle,DN22 0RJ,53.309283225512900,-0.892466395843742
Chickadee and Magpie,DN22 7NL,53.319489453287700,-0.958751229065910
Stilt and Civet,S80 1ZG,53.305295000000000,-1.122883000000000
Hawk and White ibis,DN10 6DX,53.446758744377700,-0.964254686672918
Piping shrike and Siskin,DN21 2LF,53.401839950065100,-0.779526172231956
Viscacha and Old World vulture,DN21 1SB,53.391528645102800,-0.750768152360090
Grosbeak and Shearwater,NG21 9GE,53.186435639500000,-1.092446000000000
Piping shrike and Condor,DN11 8DE,53.417578044438300,-1.057289698702210
Kākāriki and Solitaire,S81 7BW,53.322494000000000,-1.131920473491380
Gull and Stilt,NG22 0WT,53.230986410600000,-0.898922287200000
Viscacha and American sparrow,NG20 0JS,53.203000576654200,-1.150543679936580
Duck and Vole,LN1 2LD,53.258690000000000,-0.718933000000000
Fish eagle and Greenbul,NG22 9UQ,53.214225924693500,-1.000734819921300
Tit-tyrant and Gull,DN21 1FJ,53.391471918278700,-0.746213366453895
Parrotbill and Coati,S81 9LR,53.360750271250000,-1.123383327890950
Skunk and Towhee,DN22 7PH,53.315335141347100,-0.958597136101871
Peafowl and Treepie,DN22 6QB,53.324966462222100,-0.935616348679309
Wader and Hawk,DN21 3NR,53.434982385375600,-0.716859029912729
Nukupuʻu and Vulture,S81 0EY,53.310734788107400,-1.101504462555970
American sparrow and Francolin,DN22 9NB,53.339149918460400,-0.893945719954164
Bunting and Thrasher,DN22 7WJ,53.309494632600000,-0.947602837224677
Asiatic leopard and River dolphin,DN10 6JJ,53.427441000000000,-1.019389368299250
Perching duck and Parrotbill,NG22 0SQ,53.248986189131100,-0.884072148259525
Tahr and Stilt,NG21 9NA,53.196918000199200,-1.069112310184810
Eagle and Minke whale,LN6 9DD,53.204300732973300,-0.668721378925024
Polecat and Buzzard,DN10 6BE,53.413207622844900,-1.040129697784580
Diving bird and B,DN22 7QY,53.332545132476000,-0.959259000000000
Songlark and Black jay,DN21 2RD,53.406771575070500,-0.776556931928537
Mockingbird and Macaw,S80 9TB,53.301863288459500,-1.123343957526250
Petrel and Treepie,DN10 5BS,53.412452847809200,-0.964817363453769
Partridge and Capuchin,NG20 0TH,53.214545153887400,-1.157099000000000
Maya and Viscacha,NG20 0QY,53.208542124117500,-1.142348645934480
Coati and Ice seal,DN10 6RG,53.446923180292300,-1.005838133568970
Viscacha and Tit-tyrant,NG23 7BP,53.248392680606900,-0.715283722178790
Old World quail and Goose,NG22 9ZD,53.202902000000000,-0.977553000000000
Coati and Fulmarine petrel,S81 9BZ,53.355217263388400,-1.117847626780070
Condor and Prion,DN21 3BP,53.419327770999800,-0.784322258084649
Francolin and Civet,S81 8EG,53.373545731374700,-1.060125879867260
Myna and Mole,S81 9YL,53.305295000000000,-1.122883000000000
Argus and Songlark,DN11 8JA,53.424591878325500,-1.070227217850410
Boto and Ice seal,DN11 9JA,53.437440973672900,-1.109703165878690
Booted eagles and Kangaroo,DN11 8RQ,53.420688770873600,-1.059643579059210
Magpie and Chickadee,S81 8JA,53.391143842773100,-1.112714335445340
Shearwater and Towhee,DN10 5AS,53.412930106484800,-0.960773710531259
Piping shrike and Cuscus,NG23 7DF,53.234571693984400,-0.713225361122271
Tree warbler and Zebra,DN22 0DJ,53.322693718366300,-0.824663995940016
Argus and Recurvebill,NG22 0SN,53.255697000000000,-0.869192000000000
Kākāriki and Towhee,NG22 9DU,53.200259000000000,-1.028111000000000
Wallaby and Vulture,DN22 7PR,53.313885515870700,-0.955361000000000
Vulture and Thicketbird,S81 0UH,53.324225934711600,-1.108517762381820
Skunk and Scimitar babbler,DN10 5AP,53.414170911248900,-0.962879923907147
Hawk and Treepie,DN11 8HT,53.421889264822800,-1.070617223613610
Hawaiian honeycreeper and Darwin's finches,S80 2PN,53.301541469830300,-1.107819702669490
Skunk and Fulmarine petrel,DN10 4LJ,53.424443039097400,-0.845065848755516
Pheasant and Fulmarine petrel,S80 1NG,53.303324906236300,-1.132692940901730
Black jay and Nukupuʻu,DN22 9EX,53.392559309469200,-0.820547000000000
Night heron and Ground sloth,S81 8EF,53.373787681042900,-1.060030368057570
Zebra and Buzzard,S81 9AZ,53.358490932585600,-1.120365000000000
Old World warbler and Grackle,DN22 7RJ,53.309825448836400,-0.949440780732340
Thicketbird and Mockingbird,DN11 8LB,53.417216000000000,-1.076377000000000
Goose and Grackle,DN21 1RB,53.401706334391800,-0.763044675879604
Chipmunk and Argus,NG22 0JX,53.228986652140900,-0.890988835867450
Songlark and B,S81 9JG,53.360887000000000,-1.124658000000000
Old World warbler and Puffleg,DN22 6LF,53.321490830549400,-0.936978915930999
Polecat and Boto,DN22 8QA,53.353202499311600,-0.986370312234548
Myna and Grouse,DN21 1YD,53.406845340624100,-0.762775275830666
Grackle and White ibis,S81 9TH,53.359836164342300,-1.115227875996880
Pitohui and Meadowlark,S81 8DX,53.372925000000000,-1.062259000000000
Linsang and Pitohui,NG22 9RR,53.212585588427900,-0.969610628389219
Duck and Warbler,NG20 0SU,53.214685027715800,-1.165617306698390
Recurvebill and Wallaby,S80 1RW,53.306986571285800,-1.126795000000000
Civet and Night heron,S81 0XX,53.327126101153200,-1.109283127697090
Grosbeak and New World blackbird,LN1 2WH,53.267529385109600,-0.652408682922983
New World blackbird and Duck,S81 0RD,53.315873090401200,-1.104638892195710
Duck and Dolphin,DN22 8NR,53.375646764643200,-1.014127480713030
Flameback and Chipmunk,DN22 6HN,53.316126982910500,-0.942335994971984
Black jay and Chickadee,DN21 1ET,53.405427676736100,-0.768246807840371
Civet and Triller,S81 9ST,53.377650256832100,-1.121052125256650
Tit-tyrant and American sparrow,NG22 9NG,53.225434000000000,-0.999380000000000
Wader and Hawaiian honeycreeper,LN1 2EY,53.292666272971900,-0.741309000000000
Egret and Civet,NG21 9AD,53.169356496959200,-1.118686201824270
Tit-tyrant and Mole,NG20 9NQ,53.235505716279700,-1.154410236988160
Polecat and Parakeet,DN22 0AE,53.331481927204400,-0.817965357819392
Chicken and Old World warbler,NG20 0TG,53.214917455131300,-1.156492831404670
Badger and Philippine hawk-owl,LN1 2RY,53.265290661292900,-0.665778492614190
Kākāriki and Puffleg,DN22 9AB,53.388207000000000,-0.910804974773665
Duck and Dolphin,DN10 4NP,53.400175000000000,-0.828622000000000
Tattler and Stint,DN21 2HD,53.400883000000000,-0.772845000000000
Argus and Macaw,DN21 3BF,53.448302000000000,-0.709550000000000
Ground sloth and Ice seal,S80 2AG,53.302377000000000,-1.122193000000000
Marmoset and Rat,DN11 8JB,53.423532348516200,-1.068068278050510
Treepie and Bronzewing pigeon,S81 7LE,53.323646930479200,-1.127476736816860
Perching duck and Bronzewing pigeon,NG20 0JD,53.196786435560000,-1.150172519251190
Diving bird and Stilt,DN11 9QQ,53.430154192747500,-1.110126319341730
Duck and Dorcopsis,DN22 0PJ,53.320362088653000,-0.919397313070707
Civet and Peafowl,NG20 0EU,53.220609300587000,-1.126770893426400
Parakeet and Old World vulture,S80 2SW,53.294025919186300,-1.113752432174570
Tahr and Cloud rat,DN22 0LF,53.269629000000000,-0.837321000000000
Ground sloth and Mouse,DN21 2NA,53.398857127516800,-0.772662878236529
Chipmunk and Pitohui,DN21 3AE,53.414284276226200,-0.786030833252230
Kangaroo and Triller,DN22 7DN,53.302858796070600,-0.954909000000000
B and Ground sloth,DN22 7QG,53.329784838100900,-0.958050125989076
Francolin and Buzzard,DN21 1QR,53.389643119759800,-0.761334299422470
Myna and Parrotbill,NG22 9SL,53.209835972120900,-1.009943000000000
Kangaroo and Bronzewing pigeon,NG23 7AL,53.239549000000000,-0.768174000000000
Magpie and Hawk,DN10 4NZ,53.401219527254600,-0.824983283146230
Francolin and Gull,NG23 6QP,53.190210870508200,-0.840427920573877
Linsang and Tit-tyrant,DN10 6XE,53.427484698961200,-1.028234671565230
Hawk and Minke whale,NG20 0NH,53.202089261087200,-1.153855279138680
Shearwater and Ice seal,DN22 1FB,53.336198000000000,-0.954996000000000
Scimitar babbler and Fish eagle,DN22 7EU,53.312095277518400,-0.930728167161645
Ibex and Scimitar babbler,DN21 1BJ,53.394718565528000,-0.771443475311504
Solitaire and Kite,NG21 9HY,53.186692170682900,-1.060444167962050
Buzzard and Greenbul,S81 7FE,53.327107276678400,-1.129883567176410
Rat and Mamo,DN22 7QP,53.333427793119300,-0.956264441525792
Snipe and Coati,DN22 8FD,53.320061348006600,-0.996117975254338
Coati and Black cockatoo,S81 8FB,53.377008472586500,-1.061522817380790
Triller and Darwin's finches,DN22 9JY,53.343363425414600,-0.908331585696983
Jay and Black cockatoo,NG22 0TR,53.192424708014300,-0.918111049034887
Triller and Ice seal,NG21 9PX,53.193095438867300,-1.075765956158360
Hawk and Grackle,DN21 1PL,53.389605239563300,-0.756824268262859
Civet and Wallaby,NG22 0TB,53.190387000000000,-0.915378000000000
Gull and River dolphin,DN22 8ED,53.263569286949000,-0.938505575925771
Lemming and Solitaire,DN10 6LH,53.432813017817100,-1.027977690334140
Kangaroo and Badger,DN10 4QT,53.407487272282100,-0.896145578847957
Condor and Mamo,DN22 8TF,53.357575000000000,-0.974848000000000
Recurvebill and Hawk,DN22 8WQ,53.368041000000000,-0.960545000000000
Maya and Vulture,DN10 5EP,53.402097738035800,-0.978410210994969
Stint and Towhee,DN22 0HA,53.322698548798400,-0.770883000000000
Booted eagles and Mockingbird,DN22 7RB,53.331023656371400,-0.950677025276048
Pratincole and Vulture,NG23 7AR,53.240229397576300,-0.768004614458684
Prion and Triller,S80 2QH,53.300619090035700,-1.098715676935680
Old World vulture and Grackle,S81 0TP,53.333480384697500,-1.093638362599020
Parakeet and Capuchin,DN10 6LR,53.429371163758100,-1.022577726332380
Magpie and Nukupuʻu,DN10 6XQ,53.437792448738000,-1.018033999383210
Hawk and Diving bird,NG20 9QF,53.219604595392400,-1.138173820442690
Mole and Crow,DN21 2TZ,53.409956593758800,-0.786530149617335
Grackle and Cloud rat,S80 1HG,53.299790265796300,-1.125036951889740
Moluccan boobook and Mouse,DN22 0BP,53.313949892035300,-0.825849826063476
Philippine hawk-owl and Diving bird,LN1 4AD,53.275600000000000,-0.665488000000000
Kākāriki and Flameback,LN1 2DD,53.326539027764200,-0.678569000000000
Chickadee and Diving bird,NG22 9JF,53.209243375785700,-0.990833436425473
Minke whale and Kākāriki,NG23 7AZ,53.233727000000000,-0.759786000000000
Black jay and Grouse,DN22 8LF,53.383331616295300,-1.009695235555210
Civet and Cloud rat,DN21 1SL,53.398990290713100,-0.761183222496853
Nukupuʻu and Solitaire,DN11 9NS,53.430700388835600,-1.115894539309380
Eagle and Mouse,DN21 1ZH,53.388694537629400,-0.755692966592688
Perching duck and Warbler,DN21 5JJ,53.376726635274700,-0.762295355909660
Tahr and Kite,S81 9QZ,53.364733187362500,-1.119830166885370
Puffleg and Marsh harrier,S81 8NX,53.324922701974300,-1.163799164353980
River dolphin and New World blackbird,S80 1PS,53.310405288449900,-1.121533000000000
Philippine hawk-owl and Armadillo,NG20 9LH,53.243416342298100,-1.158255416699580
