name,id,postcode,lat,lon
Grackle and Crow,1586442,AB39 2DW,56.969527620000000,-2.224458127000000
puff adder and Egret,1586443,AB39 2DX,56.967645000000000,-2.216831002000000
copperhead and Marsh harrier,1586663,AB39 2NG,56.967131660000000,-2.227996158000000
grass snake and giant tortoise,1586922,AB39 2BW,56.963627210000000,-2.207944722000000
Bunting and grass snake,1586586,AB39 2JG,56.961948030000000,-2.212868636000000
boa constrictor and diamond python,1586924,AB39 2BY,56.964075630000000,-2.208391243000000
Dorcopsis and goanna,1586444,AB39 2DY,56.966151610000000,-2.213221556000000
Dorcopsis and gavial,1586417,AB39 3RJ,57.002614010000000,-2.179337133000000
White ibis and Asiatic leopard,1586549,AB39 2GL,56.960944860000000,-2.226511279000000
agama and diamond snake,1586515,AB39 3UQ,56.957614060000000,-2.244511879000000
jew lizard and leguaan,1586684,AB39 2PJ,56.961615170000000,-2.213146286000000
Piping shrike and box turtle,1586548,AB39 2GJ,56.962043000000000,-2.220335000000000
hawksbill and Stilt,1586451,AB39 2EG,56.971108780000000,-2.224401854000000
Old World quail and leathery turtle,1586565,AB39 2HF,56.962701950000000,-2.218464100000000
bull snake and Kite,1586550,AB39 2GN,56.960406820000000,-2.225981817000000
alligator and Masked owl,1348167,DD10 0TF,56.882470381586300,-2.256819839350710
Fulmarine petrel and boomslang,1586708,AB39 2RG,56.971182880000000,-2.202032576000000
Solitaire and anole,1586259,AB39 2WP,56.968032310000000,-2.231619994000000
skink and Perching duck,1586900,AB39 2AT,56.965213940000000,-2.209927055000000
blue tongue and Gull,1586891,AB39 2AG,56.965721750000000,-2.207084770000000
Peafowl and Buzzard,2637830,AB39 9AP,56.965230000000000,-2.207895000000000
Bronzewing pigeon and ringhals,1586594,AB39 2JS,56.960487060000000,-2.205526445000000
agamid and Black jay,1586566,AB39 2HG,56.962849490000000,-2.221408558000000
Moluccan boobook and rattlesnake,1586585,AB39 2JF,56.962070650000000,-2.209416030000000
death adder and B,1586237,AB39 2TT,56.939044140000000,-2.226164718000000
