name,postcode,lat,lon
CAIRNGORM HOTEL,PH22 1PE,57.188367350440800,-3.830068093275980
Happy Haggis ,PH22 1PT,57.183665788674900,-3.832085823808990
The Old Bridge Inn,PH22 1PU,57.185952290207000,-3.828707608317490
Rowan Tree Country Hotel,PH22 1QB,57.159029000000000,-3.874635000000000
Coylumbridge Hotel,PH22 1QN,57.174866124598400,-3.805050607442680
Cobbs Cafe Glenmore,PH22 1QU,57.179700000000000,-3.758218000000000
Pine Marten Bar and Scran,PH22 1QU,57.179700000000000,-3.758218000000000
Cobbs Cafe Aviemore,PH22 1RH,57.191213193994300,-3.829613100297230
Explorer Cafe,PH22 1RH,57.191213193994300,-3.829613100297230
Galaxy noodle bar,PH22 1RH,57.191213193994300,-3.829613100297230
Galaxy restaurant ,PH22 1RH,57.191213193994300,-3.829613100297230
The Ski-ing Doo Restaurant,PH22 1RH,57.191213193994300,-3.829613100297230
Mambos Cafe / bar,PH22 1TE,57.202640907393300,-3.825361150053450
Carrbridge Hotel Ltd,PH23 3AB,57.284264767792400,-3.815000270136160
Carrmoor Guest House,PH23 3AD,57.281287627956900,-3.811485963748230
Doughnut Shack,PH23 3AJ,57.277989953474700,-3.811506407981990
Foresters Restaurant,PH23 3AJ,57.277989953474700,-3.811506407981990
Pinewood Grill ,PH23 3AJ,57.277989953474700,-3.811506407981990
Cairn Hotel,PH23 3AS,57.283374000000000,-3.814997399598270
Carrbridge Kitchen,PH23 3AS,57.283374000000000,-3.814997399598270
The Boat Country Inn & Restaurant,PH24 3BH,57.248286356164800,-3.752616613445640
Nethy House,PH25 3EB,57.268165000124800,-3.654856217170400
Grantown East  Highland Heritage and Cultural Centre,PH26 3AD,57.318292000000000,-3.606344000000000
Craggan Outdoors,PH26 3NT,57.317048912042000,-3.630783394752950
