name,postcode,lat,lon
Old World vulture and Fox,AB31 4QH,57.131771140000000,-2.709615029000000
cobra de capello and brown snake,AB31 4RH,57.153127000000000,-2.712272000000000
Greenbul and gecko,AB31 4RR,57.165800510000000,-2.696675144000000
Viscacha and flying dragon,AB33 8FH,57.228981210000000,-2.694735780000000
cobra and green turtle,AB33 8FW,57.237465840000000,-2.694696000000000
Kite and Vulture,AB33 8JA,57.192312000000000,-2.713713353000000
krait and Pratincole,AB33 8JL,57.174556710000000,-2.705159049000000
Philippine hawk-owl and bandy-bandy,AB33 8NX,57.195648090000000,-2.757788113000000
amphisbaena and bearded lizard,AB33 8PX,57.231811200000000,-2.701149824000000
diamondback turtle and Snipe,AB33 8RJ,57.209585610000000,-2.922265288000000
Towhee and Ground sloth,AB33 8SA,57.210415530000000,-2.857124095000000
diamond python and loggerhead,AB33 8TT,57.231513000000000,-2.704672403000000
water snake and alligator,AB33 8UH,57.231964690000000,-2.694113000000000
Wader and snapping turtle,AB34 4TP,57.138287220000000,-2.795890217000000
giant tortoise and sand viper,AB34 4UL,57.142535390000000,-2.857371529000000
puff adder and Condor,AB34 4UR,57.145299480000000,-2.872110758000000
Polecat and Crow,AB34 4ZL,57.129341160000000,-2.860948450000000
Maya and Diving bird,AB34 5JX,57.107690000000000,-2.827724000000000
jew lizard and Magpie,AB34 5LY,57.111466180000000,-2.931036586000000
anole and Parrotlet,AB34 5PS,57.123926000000000,-2.947866000000000
cerastes and Komodo dragon,AB34 5PX,57.133089000000000,-2.980635388000000
blind snake and Quetzal,AB54 4GR,57.284408950000000,-2.874354073000000
coral snake and snapping turtle,AB54 4HP,57.318840650000000,-2.963040733000000
