name,postcode,lat,lon
amphisbaena and sand lizard,EX31 4QA,51.214516000000000,-3.934584000000000
tiger snake and Maya,EX34 0AB,51.202657743100300,-4.029840351589750
Black cockatoo and cerastes,EX34 0AU,51.203631030126900,-4.041607504704340
wall lizard and Parrotlet,EX34 0JE,51.197280284233700,-4.020987215035600
tree snake and rat snake,EX34 0LW,51.196678728601900,-4.026127972757540
Polecat and Elephant,EX34 0NE,51.193446309952400,-4.012289301892130
Jerboa and Argus,EX34 0NP,51.195755429659300,-4.031139941204200
saltwater crocodile and jew lizard,EX34 0NZ,51.178802908162700,-4.035302088698530
Diving bird and bearded dragon,EX35 6AQ,51.229160179946300,-3.834377995448040
Perching duck and terrapin,EX35 6AT,51.227993196489500,-3.835391455780520
American sparrow and thorny devil,EX35 6AU,51.227997694077600,-3.836250993792940
Thicketbird and Vole,EX35 6BG,51.228811000000000,-3.838360000000000
Petrel and snake,EX35 6EA,51.228187075394600,-3.833923932506220
bandy-bandy and Goose,EX35 6EG,51.231390511652300,-3.831501707461160
Warbler and smooth snake,EX35 6EL,51.230419000000000,-3.831019000000000
Fulmarine petrel and jew lizard,EX35 6HD,51.229403750570300,-3.836434000000000
Eagle and taipan,EX35 6JR,51.208887000000000,-3.860831000000000
Bronzewing pigeon and dukite,EX35 6LW,51.226713860668400,-3.835541057185140
slowworm and Francolin,EX35 6NS,51.220745869089900,-3.836477862132500
saltwater crocodile and rat snake,EX35 6NT,51.223194818470500,-3.799254499229830
Scimitar babbler and cerastes,EX35 6PF,51.213344316948500,-3.841080069506460
Badger and Wallaby,TA24 8JL,51.213583822645500,-3.645806131988900
