name,postcode,lat,lon
The National Trust,EX31 4PX,51.2137,-3.9264
FOCSLE INN,EX34 0DJ,51.2068,-4.0379
Lion House Bed and Breakfast,EX34 0LZ,51.1953,-4.0164
Manleigh Holiday Park,EX34 0NS,51.1948,-4.0208
Woolacombe Bay Holiday Village Ltd,EX34 7AH,51.1756,-4.1944
The Smugglers Rest,EX34 7DR,51.1857,-4.2080
Easewell Barn Cafe & Takeaway,EX34 7EH,51.1878,-4.1985
Twitchen Park,EX34 7ES,51.1828,-4.1977
The Brasserie at The Carlton,EX34 8AR,51.2093,-4.1258
The Grampus Inn,EX34 8LR,51.1973,-4.1734
GFD DEPOT,EX34 8NY,51.1773,-4.1435
Ilfracombe Holiday Park,EX34 8PF,51.2016,-4.1144
The Admiral Collingwood Ilfracombe (Wetherspoon),EX34 9AP,51.2102,-4.1192
THE ILFRACOMBE FRYER,EX34 9BD,51.2102,-4.1204
THE ILFRACOMBE PIZZA,EX34 9BD,51.2102,-4.1204
Maddys chippy ltd,EX34 9BJ,51.2104,-4.1166
No 28 The Cookery,EX34 9BJ,51.2104,-4.1166
The Quarterdeck,EX34 9BZ,51.2104,-4.1231
Swiss Cottage Cafe,EX34 9DA,51.2085,-4.1233
Coffee Break,EX34 9DF,51.2090,-4.1216
George & Dragon,EX34 9ED,51.2097,-4.1172
ROYAL BRITANNIA HOTEL,EX34 9EE,51.2102,-4.1160
The Starter Bar,EX34 9EE,51.2102,-4.1160
The Dolphin,EX34 9EQ,51.2107,-4.1147
Costa Coffee,EX34 9EY,51.2081,-4.1235
Jurassic Coast Coffee Ltd t/a Costa Coffee Ilfracombe,EX34 9EY,51.2082,-4.1230
Dice And A Slice Ilfracombe,EX34 9NH,51.2073,-4.1247
Grassroots Cafe ,EX34 9NH,51.2073,-4.1247
Blue Lotus,EX34 9QB,51.2073,-4.1253
Nelly May's Parlour,EX34 9QE,51.2066,-4.1256
The Manor House Cafe,EX34 9QE,51.2067,-4.1256
Hele Cornmill and Tearooms,EX34 9QY,51.2088,-4.0984
The Hele Bay Pub,EX34 9QZ,51.2097,-4.0983
MILL PARK LIMITED,EX34 9SH,51.2048,-4.0640
Park Life Resorts Watermouth Lodges ,EX34 9SJ,51.2128,-4.0675
Sandy Cove Hotel,EX34 9SR,51.2074,-4.0537
THE SAWMILLS,EX34 9SX,51.2007,-4.0585
