name,id,postcode,lat,lon
Peafowl and hoop snake,1522402,BS22 8SL,51.352927079807700,-2.930070180641100
terrapin and puff adder,1522901,BS22 6AF,51.359031000000000,-2.923713318025720
terrapin and cobra de capello,1522489,BS22 7TT,51.366785703104400,-2.913572000000000
Kangaroo and rock snake,211165,TA7 8NL,51.193397000000000,-2.874462000000000
tortoise and massasauga,1522607,BS22 8BG,51.355156483076600,-2.958033332106870
tuatara and green turtle,210273,TA9 4NA,51.227538127045700,-2.892466753320670
Grouse and cobra,1522091,BS22 9DY,51.372235822758100,-2.920577378668610
Treepie and Dolphin,1521455,BS23 2JP,51.355199213538900,-2.981112582759310
Cloud rat and viper,1519998,BS26 2BB,51.285478304392600,-2.816930000000000
monitor and Buzzard,1521343,BS23 3HS,51.346316829338300,-2.959198625479650
rock snake and Badger,1519947,BS25 5QD,51.333124705234800,-2.831099258555110
rattlesnake and Prion,1522084,BS22 9DJ,51.360908487613800,-2.937269696298090
garter snake and Partridge,1521373,BS23 3LG,51.348439421040500,-2.955839868144370
Darwin's finches and diamond snake,210673,TA8 2SX,51.242864980918100,-2.984966218650640
Boto and Rat,1522066,BS22 9BJ,51.357884814118100,-2.937567016123290
Fox and Kangaroo,1522002,BS23 1HU,51.349419161716300,-2.978749039333590
Jackal and mud turtle,1521668,BS23 1QX,51.347430590778200,-2.975676971428900
adder and tiger snake,1519216,BS29 6LA,51.342699977157500,-2.891170487117700
thorn lizard and Triller,1756869,BS23 3SA,51.344470156947700,-2.960352145816110
gavial and Shearwater,2664613,TA8 9EB,51.236874000000000,-2.993327000000000
diamondback turtle and sand lizard,1520574,BS24 7JH,51.347994920581000,-2.930645163108650
boa and Kangaroo,1519514,BS28 4UJ,51.215068511085200,-2.833624425908080
anole and Stilt,210631,TA8 2QA,51.251674043687500,-2.995972782421590
Booted eagles and Booted eagles,1521803,BS23 2DE,51.354401785235500,-2.989324345258680
Black cockatoo and Night heron,1521317,BS23 4JR,51.332622525249200,-2.974530000000000
Quetzal and Parrotbill,1522793,BS22 7FL,51.372213893388000,-2.911885254891280
bull snake and Capuchin,1521340,BS23 3HP,51.345200335629600,-2.961573097329930
Songlark and massasauga,1523019,BS22 6HT,51.358831443962000,-2.925952928847630
Meadowlark and Black jay,210901,TA8 2DW,51.242934349106400,-2.993778293933000
Wader and moloch,1521961,BS23 1DP,51.338660000000000,-2.977271000000000
Skunk and Dolphin,1521958,BS23 1DG,51.340366548333300,-2.979546762568130
brown snake and Quetzal,1520121,BS26 2JL,51.284885000000000,-2.841054000000000
Macaw and Shearwater,1519760,BS26 2SB,51.270135357736500,-2.889880330802440
Night heron and bandy-bandy,1522205,BS22 9RA,51.358523154682100,-2.947633563572730
diamondback turtle and massasauga,1520549,BS24 7GZ,51.346335192962100,-2.925629190689130
Kākāriki and Cloud rat,210759,TA8 1PB,51.235959552183800,-2.997638694340010
viper and racer,1520034,BS24 9XW,51.323434682017000,-2.948962256272530
chuckwalla and Condor,1509828,BS49 4EE,51.385285145388500,-2.819829208582630
smooth snake and amphisbaena,1520254,BS24 9BW,51.324726764006800,-2.955935108964250
moloch and Quetzal,1521261,BS23 3AW,51.347747819658100,-2.973213993582740
Rat and gaboon viper,1522688,BS22 6SH,51.356529356609600,-2.921411345702280
Chicken and Meadowlark,1519728,BS26 2PD,51.246938000000000,-2.852325000000000
Quetzal and Towhee,1521976,BS23 1EJ,51.338811207170600,-2.976283494159830
Macaw and Moluccan boobook,1757565,BS49 4WD,51.386708759988600,-2.820257404261020
B and Grosbeak,1522389,BS22 8RT,51.351507051990200,-2.933372929643190
agama and glass snake,1519524,BS28 4UY,51.215807602711800,-2.854570139975470
cayman and Tree warbler,1520365,BS24 9LF,51.317994110933400,-2.965509740860000
cobra and Dorcopsis,1519768,BS26 2SQ,51.258135821625500,-2.890422421754940
harlequin snake and viper,1520557,BS24 7HJ,51.346032162024400,-2.927561446093550
bearded lizard and Pheasant,1520026,BS24 9XE,51.323881930613400,-2.953678729794500
River dolphin and Dorcopsis,210319,TA9 4QR,51.226057807420500,-2.930130608738240
gopher snake and king cobra,1521981,BS23 1ES,51.340667791983700,-2.976682000000000
Maya and Asiatic leopard,210263,TA9 4LN,51.216094254806000,-2.892059275264380
cobra and Fish eagle,1522237,BS22 8EY,51.354929642198100,-2.945003132678060
Pitohui and thorn lizard,1522570,BS22 7YH,51.365714466607900,-2.907030240396100
Crow and gaboon viper,1522273,BS22 8JX,51.356582951066700,-2.940685610689690
water snake and Mole,1520631,BS23 9SN,51.345536035780000,-2.977503283874490
massasauga and leathery turtle,1522053,BS22 9AR,51.358951969365900,-2.944640694862410
River dolphin and Marmoset,1520329,BS24 9EB,51.324457595232300,-2.961354389247260
Polecat and rock snake,1519342,BS28 4AU,51.227969632438000,-2.814838776095900
Mink and terrapin,1520152,BS25 1HF,51.315318383170700,-2.833948403106000
water snake and mud turtle,210363,TA9 4QY,51.218961000000000,-2.958396000000000
Scimitar babbler and boomslang,211215,TA8 1JN,51.232700245883700,-2.985393644463310
Myna and coral snake,1510221,BS49 4BZ,51.388257753717300,-2.826751860747800
crocodile and horned viper,2634086,BS24 8FF,51.332920000000000,-2.954375000000000
Coati and chameleon,1519754,BS26 2RJ,51.279060478014900,-2.889221260183430
Tattler and Parrotbill,210334,TA9 3EU,51.223889254303200,-2.982026335082980
Macaw and turtle,1521507,BS23 2PJ,51.351033118373200,-2.978223402975320
Tattler and Tree warbler,1522803,BS22 7GD,51.370396298555500,-2.918945867047440
Macaw and Komodo dragon,1522428,BS22 7QQ,51.366154991092800,-2.912827846729160
Herring gull and gaboon viper,1520437,BS24 7BE,51.336889350039500,-2.919323489659200
terrapin and Argus,1523002,BS22 6ER,51.357956056270400,-2.930890152920390
habu and monitor,210339,TA9 3FE,51.229660210288500,-2.976048000000000
Peafowl and Capuchin,1520230,BS24 8RZ,51.340615000000000,-2.945082000000000
cerastes and Philippine hawk-owl,210499,TA9 3QF,51.200654159280400,-2.941469913284580
goanna and brown snake,1509881,BS49 4JU,51.385388151377200,-2.812789523629070
milk snake and mud turtle,1519154,BS29 6BE,51.327680257567800,-2.870068150073190
Goose and New World blackbird,210803,TA9 3DA,51.219737350474700,-2.975279650004100
tiger snake and Vole,210139,TA9 4EE,51.250836889871500,-2.952882889466820
frill-necked lizard and sea snake,1522461,BS22 7SG,51.362506081794400,-2.895117063910250
puff adder and Boto,210285,TA9 4NR,51.226426194776800,-2.877794908693260
Old World warbler and blue racer,1521291,BS23 3DU,51.349193000000000,-2.966036000000000
Chipmunk and bearded lizard,1523018,BS22 6HS,51.359564690835300,-2.926470404502080
gopher snake and American sparrow,2613663,TA9 3GS,51.204449000000000,-2.985859000000000
Black cockatoo and grass snake,1522397,BS22 8SE,51.351932623263400,-2.936382838689310
Ground sloth and Skunk,1520409,BS24 9QJ,51.325141242836400,-2.933540678293580
chameleon and smooth snake,211094,TA8 1DE,51.232891908130000,-2.995681689213790
Gila monster and Ibex,1521043,BS23 3SB,51.334274353061300,-2.961660239612330
galliwasp and Tree warbler,210816,TA9 3DS,51.216166000000000,-2.987446000000000
Linsang and gecko,1520475,BS24 7EF,51.349515372354500,-2.916862302594280
hoop snake and Thrasher,1519808,BS26 2XJ,51.298239913544800,-2.898714225359760
galliwasp and Kite,1521953,BS23 1DA,51.340676543020300,-2.979036534288420
Parrotbill and Booted eagles,210630,TA8 2PZ,51.246950093954800,-2.997389414752930
tortoise and flying lizard,213288,TA5 1QZ,51.181082138816200,-3.142857466074070
Kākāriki and anole,1510205,BS49 4BE,51.391371486713800,-2.828935105966770
thorn lizard and moloch,1520045,BS25 1AP,51.311365689094400,-2.832155041154780
Parrotbill and constrictor,2649955,BS23 9QD,51.343878000000000,-2.957028000000000
monitor and gopher snake,1519465,BS28 4PW,51.238376988911800,-2.836008244140130
Elephant and diamondback,1520516,BS24 9UB,51.327809797930800,-2.916730638922980
Herring gull and glass snake,1521096,BS23 3UZ,51.341308000000000,-2.957242000000000
Schneider python and Mole,1522416,BS22 8TY,51.353656620811700,-2.924240183628620
Recurvebill and Minke whale,1520093,BS26 2FE,51.288441049266000,-2.839025303320220
Argus and blue racer,1520973,BS23 4YD,51.322706495588300,-2.985944077955760
Booted eagles and lizard,1521224,BS23 4HW,51.333786398911100,-2.980382589589910
puff adder and Argus,210134,TA9 4DY,51.250615856751500,-2.952419806885440
brown snake and Parrotlet,1521671,BS23 1RD,51.348337042407600,-2.974805969714650
death adder and Diving bird,1520538,BS24 7FD,51.349182738431300,-2.923719368328370
White ibis and Viscacha,1522317,BS22 8PD,51.350000127859300,-2.944126279718320
Towhee and blindworm,1522335,BS22 7PT,51.368895830187700,-2.923369091330460
Night heron and Vulture,1521336,BS23 3HG,51.346126913615900,-2.958232653388560
cayman and slowworm,1519422,BS28 4NF,51.220452732512700,-2.837688084272570
diamond python and bearded dragon,1519169,BS29 6DF,51.329277744147100,-2.868060273306050
Hawaiian honeycreeper and Pratincole,1522146,BS22 9JJ,51.363610425267900,-2.928821530815780
grass snake and Tattler,1520003,BS26 2BJ,51.286280097571400,-2.820401900521170
Marmoset and racer,1520032,BS24 9XN,51.324368298525600,-2.949153748207850
Gull and boa,1520750,BS24 0HA,51.284862955619500,-2.967137606831390
sidewinder and chuckwalla,212401,TA6 4SS,51.180768483565200,-3.023300605060560
Piping shrike and Buzzard,210847,TA8 1RF,51.233975877481200,-2.989803856845990
Warbler and gavial,1520627,BS23 9SG,51.345536035780000,-2.977503283874490
bicycle lizard and agama,211216,TA8 1JP,51.229058617695200,-2.978942619054120
hognose snake and Masked owl,1522700,BS22 6UB,51.361902167523900,-2.924248194186200
Skunk and asp,2623275,BS26 2YS,51.287059000000000,-2.816693000000000
sand lizard and Minke whale,1520712,BS24 8PD,51.328216704763700,-2.901381410462770
sidewinder and Polecat,210240,TA9 4JE,51.265133917466000,-2.936222632664080
puff adder and skink,1522701,BS22 6UD,51.362954466283900,-2.923077209078310
chuckwalla and Parakeet,1521818,BS23 2DY,51.353394848070300,-2.985037553385620
Capuchin and Chicken,210753,TA8 1NQ,51.228232281108200,-2.990582861486730
Guillemot and terrapin,1521676,BS23 1RJ,51.349433175527000,-2.975992343026440
caiman and Towhee,1521619,BS23 2UW,51.350856294183800,-2.959379597507520
cycling lizard and brown snake,1522466,BS22 7SP,51.370574447206300,-2.915717105285820
black snake and sand lizard,1520424,BS24 9RJ,51.325413200117000,-2.931005932455450
bushmaster and Gull,1521634,BS23 1NJ,51.344804318686400,-2.980057776742930
Maya and sea snake,1522608,BS22 8BH,51.347252772637500,-2.934636181761110
tokay and tokay,1522444,BS22 7RJ,51.364661223933500,-2.902227000000000
bearded dragon and skink,1520833,BS23 4LW,51.330149267946800,-2.969023288083340
Jerboa and frill-necked lizard,210637,TA8 2QH,51.249516448092400,-2.995911829731320
monitor and saltwater crocodile,1756909,BS24 7GT,51.354466557612000,-2.904194735469010
Siskin and amphisbaena,1519178,BS29 6DS,51.333716474438300,-2.873340395702050
Mockingbird and amethystine python,1520668,BS24 0AT,51.305521113358900,-2.948033161956160
Bronzewing pigeon and blue racer,1521272,BS23 3BP,51.348250200868300,-2.969017460033560
Civet and skink,1520560,BS24 7HQ,51.347501602565200,-2.928222905178580
tortoise and Magpie,1520690,BS24 8DD,51.334759570497000,-2.913409802113170
bull snake and mamba,210524,TA9 3RR,51.205772562106100,-2.994495426052440
Duck and blue tongue,1522119,BS22 9HX,51.363498324375000,-2.929350719491550
Jerboa and Pratincole,1521780,BS23 2AL,51.350951547843700,-2.981524425343780
swift and goanna,1521316,BS23 4JQ,51.330526130486400,-2.976695969829260
kabaragoya and Eagle,1519957,BS25 5QR,51.331888051181600,-2.830389000000000
bearded dragon and green turtle,1521411,BS23 3PT,51.344470460709400,-2.968305977435840
B and rock python,1522354,BS22 8PX,51.351652425574800,-2.936563805251380
Viscacha and anaconda,1521113,BS23 9HJ,51.343881000000000,-2.957023000000000
diamond snake and rattlesnake,1522972,BS22 6BX,51.362575528388300,-2.912914661680370
Viscacha and Tit-tyrant,1521564,BS23 2RZ,51.351348127039500,-2.968450991531550
habu and Macaw,1522219,BS22 9RT,51.362699891032200,-2.955935693213390
Jay and hawksbill,1519637,BS26 2LW,51.264219000000000,-2.845048000000000
Chickadee and rock snake,1521629,BS23 1LY,51.350616204628800,-2.977411000000000
Dorcopsis and Pratincole,1519143,BS29 6AG,51.327087345588600,-2.873616290049530
cayman and mamba,1522906,BS22 6AN,51.358326323930400,-2.923874601431020
Macaw and habu,1756895,BS24 7FZ,51.354063069650800,-2.902879963409100
mountain devil and Eagle,1521503,BS23 2PE,51.355064526865700,-2.970295790514540
blue racer and lizard,1520511,BS24 9TL,51.326872306819900,-2.929571557310920
coral snake and tokay,1760521,TA9 3GA,51.223610571287000,-2.973070695525010
Jerboa and whip snake,1520353,BS24 9JH,51.314667039234300,-2.960260000000000
Polecat and iguana,1522676,BS22 6RT,51.357889833941900,-2.916483780144650
sand viper and Grouse,210795,TA9 3BN,51.220125632836000,-2.972925210661190
copperhead and Bunting,1520040,BS25 1AG,51.314233000000000,-2.833713000000000
rattlesnake and flying lizard,1522439,BS22 7RD,51.365426000000000,-2.903771970625720
blue racer and Kite,210828,TA8 1QE,51.234901094330100,-2.983521300867930
Triller and box turtle,1522695,BS22 6TS,51.361470687728300,-2.928778235939890
Duck and American sparrow,1522687,BS22 6SG,51.357763153921200,-2.922312183078880
brown snake and loggerhead,210366,TA9 4RB,51.217076666698500,-2.938884050398570
terrapin and Thrasher,210518,TA9 3RH,51.195242883858600,-2.995528052200590
diamond snake and Grackle,1756862,BS22 9WW,51.367965435930200,-2.958243616356530
Tahr and Mink,1520863,BS23 4QB,51.326462355405100,-2.969046021564120
viper and wall lizard,1522682,BS22 6SA,51.356241513380600,-2.914540808670520
Buzzard and Siskin,1522367,BS22 8QQ,51.349483119537600,-2.941329940542280
Quetzal and grass snake,1522800,BS22 7FX,51.373885123615000,-2.912047769952010
slowworm and Duck,1521673,BS23 1RF,51.348080888751800,-2.975331813065910
Linsang and Thrasher,1521181,BS23 4BS,51.336059424175300,-2.976311154570790
sand viper and Prion,1521188,BS23 4DD,51.335405654994700,-2.972751587496950
Old World vulture and Polecat,210482,TA9 3PG,51.199208842460300,-2.941168504588440
Gila monster and Coati,1522333,BS22 7PR,51.368267687817100,-2.922063586202680
horned toad and fer-de-lance,1520905,BS24 6UA,51.354296056668100,-2.859125000000000
puff adder and Jerboa,1521248,BS23 3AE,51.348924680415700,-2.972262507418660
snake and Jackal,1521605,BS23 2UD,51.355590838201200,-2.959894997193050
Black jay and hawksbill,211194,TA8 1HL,51.236588001420100,-2.990346948622410
River dolphin and habu,1520258,BS24 9DA,51.323228000000000,-2.956779000000000
River dolphin and pit viper,1521878,BS22 9WF,51.373146521603400,-2.916817203530420
Fish eagle and Snipe,213131,TA5 1EE,51.180779480179200,-3.218276921310630
bicycle lizard and Pheasant,1520963,BS23 4XP,51.321534056007500,-2.983149258921610
Piping shrike and jew lizard,210921,TA8 2EX,51.242128000000000,-2.996686107049310
Stint and diamond python,1522198,BS22 9QS,51.358593649744500,-2.953351169669620
chameleon and mountain devil,1521496,BS23 2NW,51.354901257413600,-2.976955869846350
whip snake and box turtle,1521643,BS23 1PF,51.350705541453200,-2.973291032605180
tokay and milk snake,210351,TA9 3HL,51.222253403014400,-2.975490354235050
hognose snake and bull snake,1510309,BS49 4DF,51.389984272058500,-2.826739871515210
Mockingbird and Condor,211007,TA8 2JG,51.257488323473200,-3.003765380112070
Wader and king cobra,213315,TA5 1SY,51.176326000000000,-3.207373000000000
Tit-tyrant and Condor,1519374,BS28 4DR,51.223675349358700,-2.815564845105950
Kite and Crow,1509996,BS49 4RB,51.393914381076800,-2.827917465186900
Francolin and Siskin,213287,TA5 1QY,51.181910491916200,-3.142749189495120
diamond snake and Myna,1520635,BS23 9SS,51.345536035780000,-2.977503283874490
puff adder and horned viper,1520439,BS24 7BH,51.339833000000000,-2.921392000000000
cobra and River dolphin,1519990,BS26 2AP,51.287533512732000,-2.817326824142520
Gila monster and jew lizard,1520616,BS24 8BD,51.335047229028700,-2.912267136828990
Meadowlark and brown snake,1519028,BS28 4XD,51.216101536337400,-2.824894972666500
Old World vulture and Solitaire,1520077,BS26 2EE,51.289425124042300,-2.835960035527880
sidewinder and Black cockatoo,1520208,BS25 1NL,51.306855965417400,-2.826478535031570
Partridge and snapping turtle,1522228,BS22 8EJ,51.354984345223500,-2.946023893438900
Old World warbler and Herring gull,210495,TA9 3QA,51.212685000000000,-2.961616000000000
Treepie and Badger,1522988,BS22 6DS,51.359885789944300,-2.934721002474210
Mamo and Tit-tyrant,1522501,BS22 7UJ,51.367543858580100,-2.916906387995160
hoop snake and blue racer,1522543,BS22 6LD,51.360774390746600,-2.920160802945640
skink and Hawaiian honeycreeper,1519191,BS29 6HB,51.330544000000000,-2.874486000000000
horned viper and Jay,1521650,BS23 1PS,51.349014070087700,-2.974490077987480
crocodile and Civet,1521030,BS23 3RH,51.334982974993300,-2.967330869722400
terrapin and Mockingbird,1522547,BS22 6LH,51.359585642849600,-2.919246502956710
alligator and horned toad,1509825,BS49 4EA,51.386418836547600,-2.822292507681230
Wader and death adder,210281,TA9 4NL,51.214314633950000,-2.870463188866580
tree snake and flying lizard,1520500,BS24 9ST,51.325319219908300,-2.929253112672510
Nukupuʻu and Hawk,1521529,BS23 2PY,51.354227054739500,-2.971527486742560
Dolphin and viper,1520334,BS24 9EH,51.324953205859100,-2.960130509738030
Francolin and Maya,1522714,BS22 6UU,51.367953940413200,-2.925361254080610
Francolin and Pratincole,1521027,BS23 3RE,51.336051295323600,-2.967539977962170
amethystine python and puff adder,1522455,BS22 7RZ,51.365849446794500,-2.900023072554110
flying lizard and racer,1521457,BS23 2JR,51.354961403864900,-2.983735579384450
horned viper and dugite,1521937,BS23 1AX,51.346423000000000,-2.980147044289480
Gull and Francolin,1521794,BS23 2BQ,51.353092081122300,-2.987888798337920
Hawaiian honeycreeper and hoop snake,1520449,BS24 7BX,51.350390106755200,-2.919981438947650
flying lizard and Guillemot,1519515,BS28 4UL,51.216990542832100,-2.830151244173650
garter snake and Fox,1522708,BS22 6UN,51.364338480902000,-2.924311614630530
flying dragon and taipan,1756870,BS23 3SD,51.344612777703200,-2.959407510992550
Piping shrike and moloch,210760,TA8 1PD,51.236553047764500,-2.997637210492890
Vulture and wall lizard,1521301,BS23 3EH,51.347018000000000,-2.963722000000000
boa constrictor and Dolphin,1520492,BS24 9SH,51.320503613907100,-2.935512941301030
Parrotbill and giant tortoise,213123,TA5 2RB,51.177253000000000,-3.060761000000000
dukite and diamond snake,210719,TA9 3AE,51.220130429933900,-2.975588659413170
thorny devil and diamond python,210883,TA8 2BY,51.244647499408400,-2.995348182589890
terrapin and Eagle,1521890,BS22 9XP,51.367868827726400,-2.955009065218580
