name,postcode,lat,lon
Queensbury Coffee,GU1 1DL,51.2479,-0.5754
Bart's Cafe Ltd,GU1 1RU,51.2603,-0.5665
ANCHOR AND HORSESHOES,GU1 1XR,51.2543,-0.5499
RUMWONG THAI RESTAURANT,GU1 2AF,51.2384,-0.5652
Guildford Golf Club,GU1 2HL,51.2406,-0.5361
ASHUKA TANDOORI,GU1 2RE,51.2462,-0.5293
Starbucks Guildford High Street,GU1 3AW,51.2369,-0.5694
Guildford Harbour Hotel,GU1 3DA,51.2382,-0.5672
Sis&bros Coffee Shop ,GU1 3DN,51.2358,-0.5755
Starbucks White Lion Walk,GU1 3DN,51.2358,-0.5755
The Tea Terrace Restaurant and Tea Room - Guildford Branch,GU1 3DP,51.2358,-0.5732
Sicool Food,GU1 3EX,51.2350,-0.5739
GU1 Fitness Studios,GU1 3HE,51.2354,-0.5733
Positano restaurant,GU1 3HQ,51.2356,-0.5724
Amor Amora,GU1 3HW,51.2363,-0.5700
SHARDANA RESTAURANT,GU1 3HW,51.2363,-0.5700
Carmona Steak & Tapas,GU1 3JL,51.2373,-0.5671
L & Z FOODS LTD,GU1 3JL,51.2373,-0.5671
Shah's Secreto,GU1 3JL,51.2373,-0.5671
Maloncho Tandoori,GU1 3JT,51.2378,-0.5654
Love Brownies Guildford,GU1 3QT,51.2352,-0.5716
BLUE SARDINIA RESTAURANT,GU1 3RT,51.2350,-0.5707
Robin Hood,GU1 3RT,51.2350,-0.5707
Thai Terrace,GU1 3RW,51.2352,-0.5710
The Albany,GU1 3SA,51.2369,-0.5670
The March Hare,GU1 3SY,51.2339,-0.5702
OLIVO RESTAURANT,GU1 3UA,51.2346,-0.5741
La Casita,GU1 3UH,51.2349,-0.5736
Theion,GU1 3UH,51.2349,-0.5736
MEAT THE GREEK,GU1 3UL,51.2349,-0.5734
Kings Head,GU1 3XQ,51.2323,-0.5727
Creams Cafe Guildford,GU1 4AA,51.2370,-0.5710
SUSHI NARA LTD,GU1 4AA,51.2370,-0.5710
Coffee Culture,GU1 4AE,51.2362,-0.5739
Hanki,GU1 4AP,51.2365,-0.5715
Raviz,GU1 4AP,51.2365,-0.5715
Thaikhun,GU1 4EH,51.2356,-0.5764
hungry buddha,GU1 4EH,51.2356,-0.5764
PASTAOUT RESTAURANT,GU1 4EQ,51.2360,-0.5745
Jeita Lebanese Cuisine,GU1 4HD,51.2375,-0.5708
The Guildford Spice,GU1 4HD,51.2375,-0.5708
Vida Cuatro Limited,GU1 4LB,51.2362,-0.5728
Pizza & pasta Boom,GU1 4LS,51.2405,-0.5723
Pepe's Piri Piri,GU1 4QH,51.2401,-0.5757
KOKORO,GU1 4TE,51.2363,-0.5747
KOKORO,GU1 4YL,51.2366,-0.5767
Thai Express Retail Limited ,GU1 4YL,51.2366,-0.5767
Guildford Muffin Limited t/a Muffin Break,GU1 4YT,51.2372,-0.5763
YE OLDE SHIP INN,GU2 4EB,51.2264,-0.5795
Young's Kitchen,GU2 7XH,51.2426,-0.5879
The Holroyd Arms,GU2 8AF,51.2500,-0.5901
Southway Chicken,GU2 8DQ,51.2450,-0.5968
Southway Pizza,GU2 8DQ,51.2450,-0.5968
The Shahin Tandoori Restaurant,GU2 9AA,51.2488,-0.5857
EXOEXO LIMITED,GU2 9RT,51.2528,-0.5911
ANCHOR EVENTS,GU21 3RT,51.3236,-0.5943
The Red Lion,GU21 4SS,51.3237,-0.5720
The Horsell Kitchen Ltd,GU21 4SZ,51.3240,-0.5754
The Cricketers,GU21 4XB,51.3263,-0.5831
Squire's Garden Centre Woking,GU21 4XR,51.3270,-0.5952
Heather Farm Cafe,GU21 4XY,51.3364,-0.5719
Mclaren Technology Centre,GU21 4YH,51.3461,-0.5476
German Doner Kebab (GDK),GU21 5AB,51.3195,-0.5567
Renz Restaurants Limited,GU21 5AB,51.3195,-0.5567
Subway,GU21 5AB,51.3195,-0.5567
THAI TABLE RESTAURANT,GU21 5AB,51.3195,-0.5567
Taco Bell,GU21 5AB,51.3195,-0.5567
Treatz Woking,GU21 5AB,51.3195,-0.5567
ROOSTERS PIRI PIRI,GU21 5AJ,51.3201,-0.5558
The Red Fort ,GU21 5AJ,51.3201,-0.5558
OKKA LOUNGE,GU21 5AP,51.3195,-0.5556
Bulgogi,GU21 5BG,51.3212,-0.5554
Jeitta LEBANESE restaurant ,GU21 6EJ,51.3191,-0.5576
Ella Restaurant,GU21 6ET,51.3184,-0.5592
Subway,GU21 6GB,51.3197,-0.5610
WRAPCHIC- WOKING,GU21 6GB,51.3197,-0.5610
AZZURRO - Woking,GU21 6GD,51.3198,-0.5606
Auntie Anne's Pretzel Bakery ,GU21 6GD,51.3198,-0.5606
Chopstix Woking,GU21 6GH,51.3201,-0.5604
Renz Restaurants Limited,GU21 6GH,51.3201,-0.5604
Fresch Coffee House Ltd,GU21 6HR,51.3205,-0.5566
Latino ristorante italiano,GU21 6HW,51.3196,-0.5570
Daarna Restaurant ,GU21 6LJ,51.3173,-0.5653
Black and Whites Coffee House Woking,GU21 6XT,51.3190,-0.5591
Starbucks Woking - Wolsey Walk,GU21 6XX,51.3194,-0.5591
CafeTwelveThirty,GU21 6YG,51.3200,-0.5580
Doubletree by Hilton Woking,GU21 8EW,51.3220,-0.5555
BELLINI RESTAURANT ,GU21 8TB,51.3121,-0.5973
Asiana Indian Restaurant,GU21 8TT,51.3124,-0.6077
Woking Garden Centre Coffee Shop,GU22 0NH,51.2972,-0.5728
Bird in Hand ,GU22 0NL,51.2959,-0.5743
Gorse Hill Hotel,GU22 0QF,51.3002,-0.5999
Worplesdon Golf Club,GU22 0RA,51.2963,-0.6096
Chennai Dosa Artisanz,GU22 7NJ,51.3163,-0.5602
Hoebridge Golf Centre,GU22 8JH,51.3116,-0.5353
Old Woking Cafe,GU22 9LW,51.3026,-0.5476
The Drumming Snipe,GU22 9QT,51.2948,-0.5710
The Anchor,GU23 6AE,51.2994,-0.4935
Pinnocks Coffee Ltd,GU23 6AF,51.2992,-0.4944
Toby cottage Restaurant,GU23 6AF,51.2992,-0.4944
The Half Moon ,GU23 6AN,51.3012,-0.4907
RIPLEY CURRY GARDEN,GU23 6AY,51.3007,-0.4911
The Seven Stars,GU23 6DL,51.3011,-0.5084
The Jovial Sailor,GU23 6EZ,51.2887,-0.5024
Starbucks Wisley,GU23 6PT,51.2932,-0.4899
THE NEW INN,GU23 7EN,51.2944,-0.5407
Rosso Mazara,GU24 8AA,51.3465,-0.6034
The White Hart,GU24 8AA,51.3465,-0.6034
Pasha Deli Limited,GU24 8AD,51.3458,-0.6039
The Sun Inn,GU24 8AF,51.3470,-0.6038
Indo Fine Dining,GU24 8BP,51.3476,-0.6040
Chobham Adventure Farm,GU24 8DB,51.3464,-0.6081
Basil & Blue,GU24 8LZ,51.3480,-0.6024
The Four Horseshoes,GU24 8QP,51.3571,-0.6084
The Red Lion Chobham,GU24 8RG,51.3575,-0.6014
Wentworth Club Ltd,GU25 4LS,51.3996,-0.5897
Cricketers Pub,GU3 3AA,51.2538,-0.6047
SUBWAY,GU4 7HR,51.2597,-0.5438
Rajdoot restaurant ,GU4 7JS,51.2577,-0.5457
The Olive Tree Pub,GU4 7QD,51.2810,-0.5574
Clandon Park Garden Centre Coffee Shop,GU4 7RQ,51.2510,-0.5153
The Queens Head,GU4 7RY,51.2545,-0.4827
Bulls Head,GU4 7ST,51.2543,-0.5041
Onslow Arms,GU4 7TE,51.2624,-0.5040
Clandon Regis Golf Club Ltd,GU4 7TT,51.2571,-0.5002
Passorn Thai Restaurant ,GU4 8JU,51.2132,-0.5661
The Percy Arms,GU4 8NP,51.2155,-0.5261
Carlo's Trattoria,GU4 8SE,51.2353,-0.5056
Guildford Manor Hotel & Spa,GU4 8SE,51.2353,-0.5056
fork handles kitchen at Bramley Golf Club ,GU5 0AL,51.1990,-0.5656
THE WHEATSHEAF,GU5 0HB,51.1934,-0.5576
The Jolly Farmer,GU5 0HB,51.1934,-0.5576
Grantley Arms,GU5 0PE,51.1974,-0.5455
Barnett Hill Hotel,GU5 0RF,51.1991,-0.5334
The Bricklayers Arms,GU5 0UA,51.1830,-0.5245
The Drummond Arms,GU5 9AG,51.2201,-0.4995
Kinghams Restaurant ,GU5 9HE,51.2205,-0.4628
The William Bray,GU5 9HS,51.2187,-0.4651
THE COMPASSES INN GOMSHALL,GU5 9LA,51.2201,-0.4480
 Gomshall Mill,GU5 9LB,51.2191,-0.4467
Tillings Ltd trading as Lavender Goose,GU5 9NP,51.2192,-0.4458
Hurtwood Inn Bar and Restaurant,GU5 9RR,51.1919,-0.4477
GORNER LTD,GU7 1DZ,51.1859,-0.6117
Deep Blue Restaurants,GU7 1HY,51.1864,-0.6096
Thani Moon,GU7 1HY,51.1864,-0.6096
Hectors & Sons Limited,GU7 1NH,51.1914,-0.5972
Roost Godalming,GU7 1NN,51.1856,-0.6102
The Cricketers,GU7 2HU,51.1956,-0.6077
Broadwater Pavilion,GU7 3DH,51.2003,-0.5903
Natter Cafe Limited,GU7 3EH,51.1950,-0.6043
THE THREE LIONS,GU7 3HR,51.1919,-0.6028
Farncombe Tandoori,GU7 3LH,51.1963,-0.6066
THE RAJASTHAN INDIAN RESTAURANT,GU7 3TW,51.2029,-0.6063
Jack 'n' Grill,KT1 2BF,51.3995,-0.3086
Eating Place Clayget Ltd ,KT10 0JQ,51.3603,-0.3399
Jolshiri Restaurant,KT10 0JQ,51.3603,-0.3399
RASOY,KT10 0NU,51.3613,-0.3471
Parade and Albany Ltd,KT10 0PD,51.3611,-0.3473
Ex Cellar,KT10 0QX,51.3619,-0.3465
Wheatsheaf,KT10 8AG,51.3718,-0.3666
The Terrace Bar Ltd,KT10 8AN,51.3728,-0.3650
Marney's Village Inn,KT10 8JN,51.3838,-0.3481
Cuvee,KT10 8QS,51.3699,-0.3662
Thames Ditton & Esher Golf Club,KT10 9AL,51.3785,-0.3506
Greenshire Limited (Jose Pizarro The Swan Inn),KT10 9BS,51.3636,-0.3533
Siam Food Gallery,KT10 9QE,51.3681,-0.3670
Nepali Kitchen Ltd t/a Sherpa Kitchen,KT10 9QJ,51.3684,-0.3673
Panahar Tandoori,KT10 9QJ,51.3684,-0.3673
Bombay Social,KT10 9QY,51.3701,-0.3653
SUBWAY ,KT10 9RL,51.3704,-0.3634
The Good Earth,KT10 9RT,51.3710,-0.3636
SILVERMERE GOLF & LEISURE LIMITED,KT11 1EF,51.3351,-0.4523
Cobham Spice Oven ,KT11 1HZ,51.3322,-0.4188
Fego Restaurant Cobham,KT11 2JZ,51.3294,-0.4108
The Tea Terrace Restaurant and Tea Room - Cobham Branch,KT11 2LR,51.3298,-0.4112
The Old Plough,KT11 3BN,51.3195,-0.3888
CHOZEN NOODLE COBHAM,KT11 3DB,51.3053,-0.4061
EL MEXICANA,KT11 3DB,51.3053,-0.4061
OSQS T/A McDonald's Cobham M25,KT11 3DB,51.3053,-0.4061
Tapori Curry Bar,KT11 3DB,51.3053,-0.4061
Starbucks Cobham High Street,KT11 3DH,51.3286,-0.4104
The Running Mare,KT11 3EZ,51.3243,-0.4013
The Plough Inn Downside,KT11 3LT,51.3217,-0.4125
The Cricketers,KT11 3NX,51.3117,-0.4118
Squire's Garden Centre Cobham,KT11 3PU,51.3176,-0.3809
Woodlands Park Hotel,KT11 3QB,51.3168,-0.3626
Le Petit Cafe,KT12 1AA,51.3867,-0.4204
Rosewood of Walton T/A Babucci,KT12 1AA,51.3867,-0.4204
Chair and Chai ,KT12 1AF,51.3868,-0.4218
Morts Wine Bar,KT12 1AF,51.3868,-0.4218
sushi wakyo,KT12 1AF,51.3868,-0.4218
Khaosarn Thai Cuisine Ltd.,KT12 1AH,51.3870,-0.4214
The Bear ,KT12 1AH,51.3870,-0.4214
Cappadocia Restaurant ,KT12 1BU,51.3838,-0.4173
THE SURREY COFFEE COMPANY LIMITED,KT12 1BY,51.3847,-0.4185
KFC Walton on Thames,KT12 1DG,51.3856,-0.4185
OSQS T/A McDonald's Walton on Thames,KT12 1DG,51.3856,-0.4185
The Walton Village,KT12 1DG,51.3856,-0.4185
OLIVE,KT12 1DN,51.3841,-0.4170
Kia Motors UK Limited,KT12 1FJ,51.3753,-0.4097
Buenasado Argentine Steakhouse,KT12 1GH,51.3851,-0.4201
The 1955 Club,KT12 1GH,51.3851,-0.4201
La Terraza Tapas Bar ,KT12 1JE,51.3757,-0.4092
KHAN OF WALTON RESTAURANT,KT12 1QB,51.3845,-0.4185
The Wiilde Brunch ,KT12 1QP,51.3848,-0.4397
L'AFFAMATO,KT12 1RN,51.3757,-0.4084
Papa Johns - WALTON,KT12 1RW,51.3753,-0.4080
Persian Kitchen Ltd,KT12 2QP,51.3868,-0.4193
The mogul,KT12 2SA,51.3912,-0.4120
Esher Rugby Football Club,KT12 3PF,51.3789,-0.3895
Squire's Garden Centre Hersham,KT12 4AR,51.3609,-0.4165
Burhill Golf Club,KT12 4BX,51.3527,-0.4173
Costa Coffee,KT12 4HL,51.3653,-0.3991
The Emperor,KT12 4HL,51.3653,-0.3991
Moondrop Cafe,KT12 4JZ,51.3681,-0.3964
Full Moon Chinese Restaurant,KT12 4RG,51.3674,-0.3968
The Barley Mow,KT12 4RS,51.3677,-0.3986
BRICKLAYERS ARMS,KT12 5LS,51.3663,-0.4024
St Georges Hill Lawn Tennis Club ,KT13 0LL,51.3575,-0.4385
Brooklands Hotel,KT13 0SL,51.3531,-0.4707
Mercedes-Benz World,KT13 0SL,51.3531,-0.4707
SUBWAY,KT13 0XF,51.3447,-0.4753
Macari's Italy Ltd t/a Valentina,KT13 8AB,51.3729,-0.4581
Cafe Verditer,KT13 8AU,51.3723,-0.4578
Le meson de los Hermos ,KT13 8AU,51.3723,-0.4578
Maya,KT13 8AU,51.3723,-0.4578
Best Western Ship Hotel,KT13 8BQ,51.3739,-0.4563
Aromas Artisan Kitchen & Coffee,KT13 8DE,51.3722,-0.4600
Starbucks Weybridge Church Street,KT13 8DE,51.3722,-0.4600
ossobuco,KT13 8DE,51.3722,-0.4600
The Great Gurkhas ,KT13 8DG,51.3711,-0.4622
cantina41,KT13 8DG,51.3711,-0.4622
SOYA RESTAURANT,KT13 8DX,51.3726,-0.4599
Nikki's ,KT13 8HE,51.3719,-0.4629
The Old Crown,KT13 8LP,51.3786,-0.4555
LA CASA RESTAURANT & GRILL,KT13 8RH,51.3721,-0.4517
The Waverley Inn Weybridge,KT13 8TH,51.3678,-0.4606
The Queen's Head,KT13 8XS,51.3713,-0.4643
No.7 TEMPLE,KT13 9DL,51.3711,-0.4507
Oatlands Park Hotel,KT13 9HB,51.3751,-0.4424
Golden Curry ,KT13 9HJ,51.3734,-0.4397
The Flintgate,KT13 9LA,51.3729,-0.4401
Boho Tea Room & Coffee Shop,KT13 9UQ,51.3682,-0.4459
The greedy elephant ,KT13 9UQ,51.3682,-0.4459
oregano,KT13 9UQ,51.3682,-0.4459
Chello Restaurant & Lounge,KT14 6LF,51.3365,-0.5056
Thats Amore,KT14 6LF,51.3365,-0.5056
HOSHIYA,KT14 6LG,51.3370,-0.5048
Jane's Upstairs,KT14 6LG,51.3370,-0.5048
SUBWAY,KT14 6LG,51.3370,-0.5048
Superfish,KT14 6LG,51.3370,-0.5048
NANDINIS BAR AND DINING,KT14 6LP,51.3375,-0.5031
UK DINER LTD T/A KAYAL ,KT14 6NE,51.3386,-0.5060
Bell Amico Limited,KT14 6NF,51.3390,-0.5054
New Haweli,KT14 6NF,51.3390,-0.5054
FirstPort - Barnes Wallis Court,KT14 7HJ,51.3403,-0.4739
Rajput ,KT14 7QL,51.3387,-0.4770
Blue Anchor Byfleet Limited,KT14 7RL,51.3381,-0.4699
LD Kent Row Ltd,KT14 7TF,51.3304,-0.4717
LD My Food,KT14 7TF,51.3304,-0.4717
Leigh Dynan Catering ,KT14 7TF,51.3304,-0.4717
The Cricketers,KT15 1EY,51.3591,-0.5132
SHREE'S CAFE',KT15 1JH,51.3630,-0.5068
Zeal Indian restaurants ,KT15 1JH,51.3630,-0.5068
The Waggon And Horses,KT15 1QH,51.3713,-0.4968
CAFE DIEST LTD,KT15 2AF,51.3713,-0.4898
taj mahal tandoori,KT15 2BD,51.3725,-0.4846
Costa Coffee,KT15 2BQ,51.3715,-0.4872
the white hart,KT15 2DS,51.3588,-0.4872
Topgolf Surrey,KT15 2DW,51.3605,-0.4895
Smith & Western,KT15 2GB,51.3820,-0.4977
Esquires Coffee ,KT15 2GN,51.3707,-0.4902
Sanmarco(twyford)ltd,KT15 2PD,51.3729,-0.4837
RAJ CUISINE (ADDELSTONE)  LIMITED,KT15 3EU,51.3486,-0.5041
BOURNE VALLEY GARDEN CENTRE LTD,KT15 3TH,51.3536,-0.5147
Squire's Garden Centre Chertsey,KT16 0AE,51.3793,-0.5290
Old School Cafe,KT16 0DP,51.3791,-0.5677
Foxhills,KT16 0EL,51.3717,-0.5461
3Rooms Indian restaurant ,KT16 0HG,51.3644,-0.5301
the castle public house,KT16 0LW,51.3578,-0.5330
Ashford & St Peters,KT16 0PZ,51.3778,-0.5271
The Olde Swan,KT16 8AY,51.3923,-0.5044
BENGAL DYNASTY Fine Indian Cuisine,KT16 9AD,51.3910,-0.5045
Chertsey Cafe,KT16 9AG,51.3910,-0.5039
Just Relish,KT16 9AL,51.3918,-0.5041
Chertsey Restaurant,KT16 9BE,51.3883,-0.5073
Thann Thai,KT16 9BE,51.3883,-0.5073
The Golden Grove,KT16 9EN,51.3944,-0.5188
Rocksalt ,KT17 1BD,51.3357,-0.2634
Delicious Feast,KT17 1FB,51.3397,-0.2550
All Things Nice,KT17 1RE,51.3476,-0.2502
Mandalina Limited,KT17 1RE,51.3476,-0.2502
Hanedan restaurant ,KT17 1RW,51.3490,-0.2493
Iâ€™ll Capriccio ,KT17 1RX,51.3477,-0.2496
The Famous Green Man,KT17 1RX,51.3477,-0.2496
Dhansiri,KT17 1SP,51.3489,-0.2487
June 8 Cafe & Bistro,KT17 2HP,51.3627,-0.2450
Peri  Village,KT17 2HP,51.3627,-0.2450
Taste of Bengal,KT17 2HS,51.3624,-0.2454
Superfish,KT17 2PR,51.3536,-0.2458
Le Raj Restaurant,KT17 3LB,51.3251,-0.2335
Ye Olde Kings Head,KT17 4QB,51.3309,-0.2606
Miniature Restaurant,KT17 4QY,51.3343,-0.2628
  Cafe Moka,KT18 5AB,51.3323,-0.2673
Muffin Break Epsom,KT18 5BA,51.3294,-0.2656
BAMBOO BASKET ,KT18 5DA,51.3326,-0.2690
Starbucks  Epsom - Ashley Center,KT18 5DA,51.3326,-0.2690
Moka,KT18 5DB,51.3322,-0.2686
Holiday Inn Express London - Epsom Downs,KT18 5LG,51.3131,-0.2600
The Rubbing House,KT18 5LJ,51.3131,-0.2583
Chillies ,KT18 5QB,51.3099,-0.2411
El Rincon,KT18 5QB,51.3099,-0.2411
The Cock Inn,KT18 6LE,51.2798,-0.2741
The Grumpy Mole Epsom,KT18 7AS,51.3240,-0.2683
Woodcote Park Clubhouse,KT18 7EW,51.3153,-0.2757
Lava Lounge,KT18 7JU,51.3255,-0.2761
Sicily Restaurant ,KT18 7PF,51.3323,-0.2710
The Jolly Coopers,KT18 7SD,51.3307,-0.2816
Surrey Palace,KT19 0AA,51.3605,-0.2532
DASTAAN INDIAN RESTAURANT,KT19 0DB,51.3687,-0.2658
BAYLEAVES (EWELL) LIMITED,KT19 0DT,51.3682,-0.2639
OOTTUPURA RESTAURANT,KT19 0DT,51.3682,-0.2639
pizzeria roma,KT19 0SF,51.3613,-0.2532
Everest Spice Nepalese And Indian Restaurant,KT19 8AG,51.3342,-0.2664
Peri  Village,KT19 8AG,51.3342,-0.2664
OSQS Ltd T/A McDonald's Epsom ,KT19 8AH,51.3343,-0.2650
Zig Zag cafe,KT19 8AH,51.3343,-0.2650
Creams Cafe Epsom,KT19 8AJ,51.3338,-0.2667
Blacks Burgers Limited Epsom,KT19 8AS,51.3342,-0.2670
Dia y Noche Lounge ,KT19 8AS,51.3342,-0.2670
NY CAFE ONE LIMITED,KT19 8BJ,51.3331,-0.2697
KFC EPSOM,KT19 8DD,51.3336,-0.2653
Pizzerium T/A Anedottica limited ,KT19 8EH,51.3327,-0.2695
BLUE MINT,KT19 8EX,51.3357,-0.2683
Hobbledown,KT19 8PT,51.3457,-0.2862
Horton Park Golf Club Ltd,KT19 8QG,51.3559,-0.2755
Jess and the beanstalk ,KT19 8RA,51.3405,-0.2729
The Blenheim Arms,KT19 8RA,51.3405,-0.2729
Tamarind Spice,KT19 9XF,51.3531,-0.2681
Haweli of Tadworth,KT20 5PU,51.2969,-0.2377
The Grumpy Mole Tadworth,KT20 5RX,51.2916,-0.2254
The Bridge ,KT20 5SP,51.2917,-0.2353
The Coffee House  ,KT20 5SR,51.2913,-0.2351
No 12 Restaurant,KT20 6EB,51.2954,-0.2143
Waterhouse Cafe,KT20 6EB,51.2954,-0.2143
KINGSWOOD GOLF & COUNTRY CLUB LIMITED,KT20 6NE,51.2848,-0.2063
The Sportsman,KT20 7ES,51.2637,-0.2241
DESTINATION BIKE LIMITED,KT20 7JE,51.2530,-0.2792
Smith & Western,KT20 7LB,51.2493,-0.3131
Fox & Hounds,KT20 7RU,51.2830,-0.2469
SPAGHETTI TREE,KT20 7RW,51.2837,-0.2423
The Blue Ball PH,KT20 7UE,51.2827,-0.2408
The street thai ,KT21 1AA,51.3103,-0.2981
The Leg of Mutton and Cauliflower,KT21 1AZ,51.3092,-0.2994
Ex Cellar,KT21 1QJ,51.3169,-0.3047
Mogul Dynasty,KT21 1QL,51.3165,-0.3044
ASHTEAD BALTI,KT21 2BA,51.3082,-0.2997
Superfish,KT21 2BE,51.3109,-0.3001
Rye cafe and juice bar,KT21 2DB,51.3135,-0.3103
The Star,KT22 0DP,51.3272,-0.3274
Leatherhead Golf Club Limited,KT22 0EE,51.3209,-0.3306
B & L Oxshott Ltd,KT22 0JN,51.3316,-0.3567
Munch and Wiggles Limited,KT22 0JN,51.3316,-0.3567
The Victoria,KT22 0JR,51.3320,-0.3564
Charlie & Ginger,KT22 7AX,51.2956,-0.3307
Layla's Coffee House,KT22 8AB,51.2954,-0.3284
Piazza Firenze,KT22 8AG,51.2956,-0.3274
THAI PINTO RESTAURANT LIMITED,KT22 8AJ,51.2954,-0.3269
Amici Cafe,KT22 8AN,51.2952,-0.3286
L'ultimo,KT22 8AN,51.2952,-0.3286
Nurestani Fresh Food Ltd T/A Subway,KT22 8AN,51.2952,-0.3286
Five Rivers Leatherhead,KT22 8BZ,51.2949,-0.3311
Preto,KT22 8DW,51.2945,-0.3292
Tyrrells Wood Golf Club,KT22 8QP,51.2854,-0.2966
Clarks Cafe,KT22 9AL,51.2920,-0.3373
Zen garden cuisine limited ,KT22 9AL,51.2920,-0.3373
Raj Bangladeshi restaurant ltd trading as fetcham tandoori,KT22 9JF,51.2972,-0.3566
Greenwise,KT22 9JQ,51.2963,-0.3554
vahid nowkandi,KT23 3PF,51.2795,-0.3752
THE GREAT BOOKHAM TANDOORI RESTAURANT,KT23 3PG,51.2797,-0.3755
Chocolaterie by Ildiko s Chocolate,KT23 4AA,51.2788,-0.3735
Subway Bookham,KT23 4RQ,51.2780,-0.3651
Vines Coffee Shop,KT24 5JP,51.2741,-0.3968
Effingham Golf Club Ltd,KT24 5PZ,51.2674,-0.3985
The Plough Inn,KT24 5SW,51.2727,-0.4018
DUKE OF WELLINGTON,KT24 6AA,51.2629,-0.4338
Squire's Garden Centre West Horsley,KT24 6AR,51.2620,-0.4495
King William IV,KT24 6BG,51.2652,-0.4565
Barley Mow,KT24 6HR,51.2714,-0.4530
Kirthon,KT24 6QN,51.2773,-0.4355
La Meridiana Restaurant ,KT24 6QU,51.2785,-0.4361
Yasmin,KT24 6RT,51.2652,-0.4321
Thatchers Hotel,KT24 6TB,51.2618,-0.4305
WuDi Restaurant ,KT3 3PB,51.3999,-0.2617
Imone Korean Restaurant,KT3 4BH,51.3995,-0.2559
Palace Korean Restaurant ,KT3 4BH,51.3995,-0.2559
SALT & VINEGAR,KT3 4BH,51.3995,-0.2559
Sorabol Korean Restaurant,KT3 4ES,51.3991,-0.2552
scj bibimbap & chimaek,KT3 4ES,51.3991,-0.2552
Chimac,KT3 4NL,51.4000,-0.2389
Curry Leaves UK Limited,KT3 4NL,51.4000,-0.2389
Jingogae ,KT3 4NL,51.4000,-0.2389
Biao Yang t/a Zheng Hao Da Pai Dang Beef Noodles,KT3 4NS,51.3989,-0.2487
You me korean restaurant,KT3 4NT,51.3989,-0.2496
Bok Restaurant,KT3 4NU,51.3987,-0.2517
SINABRO TRADING LTD,KT3 4NU,51.3987,-0.2517
Taksim Lounge ,KT3 4NU,51.3987,-0.2517
HOME BENTO,KT3 5AF,51.3996,-0.2638
WOODIES FREEHOUSE,KT3 5DX,51.3922,-0.2674
ECKLEE GRILL,KT3 6JF,51.3949,-0.2382
MOTSPUR TANDOORI,KT3 6JF,51.3949,-0.2382
Terrazzino Cafe,KT4 7NL,51.3848,-0.2514
OSAKA JAPANESE RESTAURANT,KT4 7NW,51.3853,-0.2523
The Brook ,KT4 8DR,51.3797,-0.2440
Colombo Kitchen Restaurant,KT4 8EG,51.3771,-0.2391
KFC,KT4 8HT,51.3791,-0.2421
Aqua Viva Catering Ltd,KT4 8HX,51.3781,-0.2403
Kyosen Restaurant,KT4 8HX,51.3781,-0.2403
The Chef Restaurant,KT4 8HX,51.3781,-0.2403
Rumbles Coffee Shop ,KT4 8RW,51.3717,-0.2289
Smokin Grill Steakhouse ,KT4 8RW,51.3717,-0.2289
La bella Luna ,KT4 8TL,51.3714,-0.2290
Surbiton Racket & Fitness Club Ltd,KT5 8JT,51.3937,-0.2901
The Berrylands,KT5 8LS,51.3984,-0.2803
Gordon Bennett bar and  kitchen,KT6 4AG,51.3947,-0.3085
Cento Uno,KT6 4AW,51.3952,-0.3079
No 97,KT6 4AW,51.3952,-0.3079
The Antelope,KT6 4AW,51.3952,-0.3079
Mata Taste Ltd,KT6 4JL,51.3915,-0.3087
Surbeanton,KT6 4JL,51.3915,-0.3087
Kokoro Surbiton,KT6 4JU,51.3930,-0.3052
Hotel Bosco Ltd,KT6 4LQ,51.3936,-0.3037
McDonalds Surbiton,KT6 4NR,51.3922,-0.3062
fee-ka,KT6 4PE,51.3926,-0.3044
Pickled Pantry,KT6 4PJ,51.3934,-0.3031
Nay Thai Restaurant,KT6 4QH,51.3934,-0.3055
Clock Tower Cafe T/A Ghina Aqua int'l Ltd,KT6 4QR,51.3937,-0.3046
The Press Room,KT6 4QR,51.3937,-0.3046
WAGGON AND HORSES,KT6 4TW,51.3990,-0.3016
Squire's Garden Centre Long Ditton,KT6 5HN,51.3789,-0.3189
JOY indian cuisine,KT6 5LR,51.3914,-0.3102
KFC Surbiton,KT6 5LR,51.3914,-0.3102
THALI HO,KT6 5LR,51.3914,-0.3102
Wags N Tales,KT6 5LX,51.3910,-0.3091
BLACK LION,KT6 5PL,51.3919,-0.3103
Ex Cellar,KT6 5PQ,51.3915,-0.3093
Red Rose Surbiton,KT6 5PQ,51.3915,-0.3093
360restaurant,KT6 5QQ,51.3912,-0.3204
masaniello pizzeria,KT6 6AL,51.3895,-0.2976
Positano (2017)LTD ,KT6 6AW,51.3886,-0.2973
Niku Bar & Restaurant ,KT6 6EX,51.3909,-0.2985
Agra Restaurant (Surbiton) Limited,KT6 6HE,51.3890,-0.2980
Royal Oak Surbiton,KT6 7AA,51.3854,-0.2951
IL MULINO ,KT6 7BE,51.3826,-0.2870
SORRENTO RESTAURANT,KT6 7DE,51.3829,-0.2865
Superfish,KT6 7DJ,51.3813,-0.2826
MWM United Ltd t/a Spice House,KT6 7DQ,51.3817,-0.2833
Costa Coffee,KT6 7DW,51.3804,-0.2817
Laxmi,KT6 7HT,51.3798,-0.2819
the angel inn,KT7 0AU,51.3856,-0.3291
Maisie Restaurant,KT7 0QQ,51.3936,-0.3336
DITTO,KT7 0SF,51.3915,-0.3323
Tian-Ming UK Ltd t/a HanFu Restaurant,KT7 0SF,51.3915,-0.3323
The Limping Fox,KT7 0UX,51.3860,-0.3241
Rachels kitchen,KT7 0XE,51.3910,-0.3225
THE FERRY,KT7 0XY,51.3896,-0.3255
INDIAN PANORAMA,KT8 0DL,51.3995,-0.3539
Superfish,KT8 0DL,51.3995,-0.3539
NEW REGENT CHINESE RESTAURANT,KT9 1DR,51.3746,-0.3037
Red Rose Chessington ,KT9 1NU,51.3671,-0.3073
A star coffee ltd,KT9 1QF,51.3642,-0.2985
KFC,KT9 1QF,51.3642,-0.2985
The Well,KT9 2GZ,51.3625,-0.3145
Barwell Cafe,KT9 2HU,51.3574,-0.3117
Sedum Restaurant,KT9 2NG,51.3438,-0.3182
LEBNANI RESTAURANT ,RH2 0AA,51.2380,-0.2050
Urban Kitchen / Number 9,RH2 0AA,51.2380,-0.2050
Spice Guru,RH2 0AD,51.2381,-0.2039
truly scrumptious,RH2 0AD,51.2381,-0.2039
Carmona Steak & Tapas,RH2 0AN,51.2377,-0.2047
FIVE SPICE,RH2 0BA,51.2423,-0.2044
The Prince of Wales,RH2 0BQ,51.2417,-0.2015
Cullenders Parkside,RH2 7AN,51.2351,-0.2039
Venture Inn,RH2 7JP,51.2340,-0.2021
Old Reigatians rugby club,RH2 8JX,51.2362,-0.2122
The Plough,RH2 8NJ,51.2086,-0.2498
The Seven Stars,RH2 8NP,51.2102,-0.2582
Reigate Heath Golf Club Limited,RH2 8QR,51.2330,-0.2322
Skimmington Castle,RH2 8RL,51.2339,-0.2278
REIGATE TRADERS UK LIMITED,RH2 9AE,51.2377,-0.2088
Buenos Aires Argentine Steakhouse ,RH2 9AN,51.2383,-0.2097
Eighty Ate Burger,RH2 9AP,51.2381,-0.2093
THE RIVER KWAI RESTAURANT,RH2 9AP,51.2381,-0.2093
Monte Forte - Neapolitan Pizza,RH2 9BS,51.2387,-0.2110
The Black Horse,RH2 9JZ,51.2403,-0.2210
Reigate Manor,RH2 9PF,51.2490,-0.2030
Squire's Garden Centre Reigate,RH2 9RE,51.2422,-0.2353
Hartsfield Manor,RH3 7AA,51.2384,-0.2609
Red Lion & Cellar Room,RH3 7DS,51.2400,-0.2632
Southdown Kitchen,RH3 7EL,51.2402,-0.2915
The Grumpy Mole Brockham,RH3 7JS,51.2330,-0.2850
The Royal Oak,RH3 7JS,51.2330,-0.2850
Costa Coffee Dorking,RH4 1AT,51.2313,-0.3327
Esquires coffee dorking,RH4 1AY,51.2317,-0.3318
White Horse Hotel,RH4 1BE,51.2324,-0.3302
ARTO RESTAURANT,RH4 1BG,51.2323,-0.3305
Fountain Garden,RH4 1BL,51.2316,-0.3343
Mullins Coffee Shop,RH4 1BS,51.2317,-0.3340
Jam Pot Cafe,RH4 1HA,51.2349,-0.3365
Hillier Garden Centre Dorking,RH4 1NP,51.2363,-0.3164
Betchworth Park Golf Club,RH4 1NZ,51.2366,-0.3055
Subway Dorking,RH4 1QR,51.2331,-0.3289
The Surrey Yeoman,RH4 1QR,51.2331,-0.3289
Deepdene Dorking,RH4 1RL,51.2345,-0.3273
Wimpy,RH4 1RU,51.2333,-0.3293
Lincoln Arms Limited,RH4 1TF,51.2404,-0.3240
Burgundy and Black,RH4 1UT,51.2331,-0.3313
Red Bar & Lounge,RH4 2DW,51.2318,-0.3285
Cake Rider Cafe Cakes and Tearooms,RH4 2DY,51.2313,-0.3330
The Spotted Dog,RH4 2HQ,51.2312,-0.3337
Two Many Cooks,RH4 2HQ,51.2312,-0.3337
The Queen's Head Dorking,RH4 2JS,51.2272,-0.3348
Sorrel Restaurant ,RH4 2JU,51.2284,-0.3344
Rialto Lounge,RH4 2JZ,51.2301,-0.3341
Dorking Brasserie,RH4 3HB,51.2310,-0.3355
Prince of wales public house,RH4 3QE,51.2259,-0.3627
Dorking Golf Club Limited,RH5 4BX,51.2256,-0.3199
Royal Oak Dorking,RH5 4DJ,51.2185,-0.3154
Lakeside viewpub Dorking,RH5 4RW,51.1779,-0.3018
Surrey Hills Cafe and Deli LTD,RH5 4SL,51.1797,-0.3179
The Surrey Oaks,RH5 5DZ,51.1786,-0.2783
Denbies Wine Estate Limited,RH5 6AA,51.2482,-0.3319
The Running Horses,RH5 6DU,51.2675,-0.3242
The Plough Inn,RH5 6HD,51.1844,-0.3535
The Abinger Hatch,RH5 6HZ,51.2034,-0.4043
The Royal Oak,RH5 6PF,51.1886,-0.4137
The Volunteer,RH5 6PR,51.2009,-0.4160
OSQS Ltd T/A McDonald's Oldfields Road,SM1 2NB,51.3730,-0.2070
Haweli of belmont,SM2 6BS,51.3438,-0.2008
Flame Blue Catering,SM2 7BJ,51.3544,-0.2171
Banstead Downs Golf Club,SM2 7DD,51.3398,-0.2037
The Grumpy Mole Cheam,SM3 8AA,51.3554,-0.2222
Cheam Cottage ,SM3 8AY,51.3582,-0.2163
Piggies Cheam,SM3 8AY,51.3582,-0.2163
MOROCCAN WAY LIMITED t/a American Way,SM3 8BD,51.3591,-0.2165
Songkran Thai restaurant,SM3 8BD,51.3591,-0.2165
Superfish,SM3 8BD,51.3591,-0.2165
Chim's,SM3 8BH,51.3582,-0.2167
La Villa Restaurant,SM3 8BU,51.3578,-0.2175
MIMI E COCO LTD,SM3 8BU,51.3578,-0.2175
Costa Coffee,SM3 8HW,51.3716,-0.2269
Thai Cafe,SM3 8HW,51.3716,-0.2269
YANGTZE,SM3 8JR,51.3717,-0.2277
Cheam Park Cafe,SM3 8QS,51.3613,-0.2199
Beijing Garden,SM3 8QW,51.3611,-0.2185
MILI'S KITCHEN,SM3 8RE,51.3582,-0.2150
SAMSARA RESTAURANT,SM3 8RE,51.3582,-0.2150
Costa Coffee,SM3 8RQ,51.3580,-0.2157
Tasha's Tearoom,SM3 8RW,51.3579,-0.2149
Lal Akash Indian Restaurant,SM3 8SD,51.3568,-0.2160
Lal Akash Restaurant,SM3 8SD,51.3568,-0.2160
Sushi Tama,SM3 8SD,51.3568,-0.2160
The star,SM3 8SD,51.3568,-0.2160
OSQS Ltd T/A McDonald's North Cheam ,SM3 9AG,51.3735,-0.2257
Hotrocks Flame Grill,SM3 9BY,51.3761,-0.2220
India cottage,SM3 9DL,51.3769,-0.2222
The Emperor,SM3 9HJ,51.3837,-0.2136
Perfect Chicken,SM3 9PL,51.3834,-0.2048
CAFE ROYALE,SM4 4PD,51.3860,-0.2123
COSMOPOLITAN RESTAURANTS (UK) LIMITED,SM7 1PB,51.3274,-0.2152
Indus Restaurant,SM7 1PB,51.3274,-0.2152
cuddington golf club,SM7 1RD,51.3318,-0.2136
CIAO ITALIA,SM7 2NH,51.3224,-0.2031
Fego Restaurant Banstead,SM7 2NL,51.3230,-0.2009
THE BURGER CLUB,SM7 2NL,51.3230,-0.2009
Eatwell Catering (Morden) Ltd,SW20 9NQ,51.3921,-0.2227
Mumbai Square Restaurant Ltd,TW17 8AR,51.3963,-0.4472
Holiday Inn Shepperton,TW17 8NP,51.3918,-0.4247
Squire's Garden Centre Shepperton,TW17 8SG,51.3996,-0.4293
Costa Coffee,TW17 9AR,51.3951,-0.4483
The Red Lion,TW17 9HX,51.3902,-0.4438
The Ferry Coffee Shop,TW17 9LQ,51.3834,-0.4564
