name,postcode,lat,lon
Blackburn Tenpin,BB1 1AQ,53.74460100000000,-2.47864500000000
Pizza Hut,BB1 1AQ,53.74460220336910,-2.47864603996277
6 Burgerz,BB1 1BB,53.74300800000000,-2.47934000000000
Burger King,BB1 1BB,53.74300800000000,-2.47934000000000
STEAKOUT,BB1 1BB,53.7430,-2.4792
Steak out,BB1 1BB,53.7430,-2.4792
Dunelm Soft Furnishings Ltd Cafe Pausa,BB1 1DG,53.74411700000000,-2.48068700000000
Nando's,BB1 1DG,53.74411600000000,-2.48068700000000
subway,BB1 1EY,53.74645800000000,-2.47951600000000
Starbucks (Cathedral),BB1 1FB,53.74680710000000,-2.48016420000000
Chai Station,BB1 1NR,53.74790600000000,-2.45872800000000
sahad blackburn ,BB1 1TD,53.74357900000000,-2.47138700000000
Wright's Bites,BB1 2AL,53.7477,-2.4462
FLIP OUT BLACKBURN,BB1 2EE,53.7318,-2.4536
Starbucks,BB1 2EE,53.73068100000000,-2.45258300000000
Zeddy's chicken  and pizza,BB1 2HR,53.73919400000000,-2.45238700000000
Powerleague Soccerdome,BB1 2NG,53.72746900000000,-2.44618200000000
The Dog Inn,BB1 2NN,53.71877600000000,-2.43201300000000
The grey mare,BB1 2PG,53.71177700000000,-2.40804900000000
The Pack,BB1 2PL,53.71871100000000,-2.42496600000000
The Burger Bros,BB1 3AN,53.74863600000000,-2.46731800000000
HAWELI INDIAN CUISINE,BB1 3AZ,53.74859000000000,-2.47018400000000
speedy steaks,BB1 3BD,53.7512,-2.4608
McDonald's,BB1 3HR,53.7540,-2.4454
McDonalds Restaurant,BB1 3HW,53.75243000000000,-2.44843400000000
The red lion,BB1 3HY,53.75148900000000,-2.44519400000000
spice lounge ,BB1 4AD,53.78121700000000,-2.44648000000000
Checks & Greys,BB1 5AA,53.7469,-2.4816
Butlers Family Restaurant,BB1 5AF,53.7481,-2.4828
Exchange Coffee Company Blackburn Market,BB1 5AF,53.74815400000000,-2.48267400000000
JW Chilli & Salt Blackburn ,BB1 5AF,53.7481,-2.4828
KFC,BB1 5AF,53.7481,-2.4828
Spindles Diner ltd,BB1 5AF,53.7481,-2.4828
Thai noodle bar ,BB1 5AF,53.74815400000000,-2.48267400000000
The Pepper Pot ,BB1 5AF,53.74815400000000,-2.48267400000000
Wellbread,BB1 5AF,53.7481,-2.4828
Zakros Greek Cuisine & Thai noodle bar,BB1 5AF,53.74815400000000,-2.48267400000000
Haute Dolci,BB1 5AL,53.74788800000000,-2.48168600000000
Calypso Restaurant,BB1 5BY,53.74922100000000,-2.47417900000000
TCK DELI MARKET LTD,BB1 5DP,53.75237700000000,-2.46934700000000
Costa Coffee,BB1 6AD,53.75009155273440,-2.48131704330444
Buzz Bingo,BB1 6AF,53.75069808959960,-2.48020100593567
Marhaba sweets,BB1 6DS,53.75259900000000,-2.48136100000000
Naafiah GrillHouse ,BB1 6DS,53.75259900000000,-2.48136100000000
Pepe's Piri Piri,BB1 6DS,53.75259900000000,-2.48136100000000
Chaiiwala,BB1 6EE,53.75536890000000,-2.47809860000000
Kebabish Original,BB1 6JZ,53.75886000000000,-2.47108800000000
Dipz Donut & Gelato,BB1 6LB,53.75799570000000,-2.47129930000000
Sliders ,BB1 6LR,53.75793075561520,-2.46995496749878
Roberto's Bar & Bistro,BB1 7AR,53.7506,-2.4856
 McDonald's,BB1 7DJ,53.74878500000000,-2.48433500000000
McDonalds Restaurant Ltd,BB1 7DJ,53.74878500000000,-2.48433500000000
WAHEED'S BUFFET,BB1 7EG,53.75183900000000,-2.48487000000000
Burger King The Mall,BB1 7JB,53.74883270263670,-2.48299789428711
KFC,BB1 7JE,53.74905776977540,-2.48347306251526
Costa Coffee,BB1 7JG,53.74917800000000,-2.48268600000000
Wana and sons ltd,BB1 7LE,53.7527,-2.4829
Griller bb ltd,BB1 7LG,53.75297700000000,-2.48110700000000
RHODE ISLAND COFFEE LTD,BB1 7NQ,53.74866300000000,-2.48315000000000
Chickanos,BB1 8AE,53.75222396850590,-2.48704290390015
S Q Restaurant,BB1 8AP,53.75393700000000,-2.49047500000000
The Fig And The Olive,BB1 8DS,53.76106700000000,-2.48761600000000
The clove,BB1 8DU,53.75946700000000,-2.48758200000000
Foxs Sandwich Deli,BB1 8DW,53.75846200000000,-2.48942100000000
EGO at the Knowles Arms,BB1 8QW,53.77118000000000,-2.48503200000000
Shajan Indian Restaurant,BB1 9EX,53.79512405395510,-2.50713896751404
Tiggis,BB1 9EX,53.79512300000000,-2.50713900000000
The Bonny Inn Limited,BB1 9HQ,53.79119020000000,-2.48785280000000
Wilpshire Golf Club,BB1 9LF,53.78852700000000,-2.47404600000000
LAHORE QILA LTD,BB1 9TL,53.76095199584960,-2.47185397148132
Mad Hatters Cupcakes & Tea Room,BB2 1AG,53.74966590000000,-2.48484350000000
muffins tea shop ,BB2 1AG,53.74969000000000,-2.48504300000000
Ginger Muffin,BB2 1AN,53.75036700000000,-2.48646100000000
Heavenly Desserts Blackburn Ltd,BB2 1AN,53.75036621093750,-2.48646092414856
The Tawa & Grill Hut,BB2 1EH,53.7498,-2.4927
The Refreshment Bar,BB2 1JU,53.74847600000000,-2.48513500000000
Achari ,BB2 1XB,53.74139600000000,-2.50634000000000
Witton Inn,BB2 1XQ,53.74161800000000,-2.50678200000000
Taste Of India ,BB2 2AD,53.74587800000000,-2.48295200000000
Crust,BB2 2BH,53.7464,-2.4823
The health chef limited,BB2 2BH,53.74629300000000,-2.48271400000000
Cube Lounge,BB2 2BY,53.74666000000000,-2.48303600000000
THIRA RESTAURANT,BB2 2BY,53.74666000000000,-2.48303600000000
Exchange Coffee Company Blackburn Shop,BB2 2DG,53.74728500000000,-2.48398400000000
Stay Grounded Limited,BB2 2DH,53.7465,-2.4862
Costa Coffee Drive Thru Grimshaw Park,BB2 3DY,53.74242782592770,-2.47828793525696
OBSERVATORY HOTEL,BB2 3HG,53.73549500000000,-2.47003800000000
COSTA COFFEE,BB2 3HH,53.73663100000000,-2.46682200000000
WH Smiths Costa Coffee,BB2 3HH,53.73663100000000,-2.46682200000000
Raj mooring ltd ,BB2 3PZ,53.7400,-2.4859
Brunch Cafe and Takeaway,BB2 4DT,53.73408500000000,-2.50285600000000
Revolution cafe ltd,BB2 4DT,53.73408500000000,-2.50285600000000
  McDonald's,BB2 4LQ,53.72862000000000,-2.49204500000000
Feni Rec Cafe,BB2 5EG,53.7240,-2.5376
The Arches ,BB2 5HD,53.72800200000000,-2.53150600000000
Pleasington Golf Club,BB2 5JF,53.72965700000000,-2.54324300000000
The Butlers Arms,BB2 5JH,53.73257000000000,-2.54312900000000
Kaspas Blackburn,BB2 6AE,53.75143700000000,-2.48859600000000
THE QUEEN VIC FISH AND CHIPS BLACKBURN,BB2 6AE,53.7514,-2.4883
THE NILE ,BB2 6BS,53.74947900000000,-2.50115900000000
The Clog & Billycock,BB2 6QB,53.74987700000000,-2.52988600000000
TGC AT THE WOODLANDS RESTAURANT,BB2 7AA,53.7533,-2.5113
Traders Arms,BB2 7EW,53.77425350000000,-2.52389610000000
The Bay Horse Inn,BB2 7HX,53.7805,-2.5368
Hawkshaw Farm Visitor Centre,BB2 7JA,53.78434870000000,-2.52461740000000
The Millstone,BB2 7JR,53.77331542968750,-2.52893805503845
608 Costa Coffee Shop at BAE Systems,BB2 7LE,53.77597808837890,-2.58036589622498
609 Costa Coffee Bar at BAE Systems,BB2 7LE,53.77597808837890,-2.58036589622498
Stanley House Hotel & Spa,BB2 7NP,53.76450310000000,-2.53895770000000
feildens arms,BB2 7PR,53.77596240000000,-2.54733210000000
KFC,BB2 7PU,53.76984786987300,-2.55515408515930
The golden cup,BB3 0AJ,53.71427600000000,-2.48290700000000
Chopstix Blackburn,BB3 0AT,53.71363500000000,-2.48155200000000
Costa Coffee,BB3 0AT,53.71363500000000,-2.48155200000000
McDonald's,BB3 0AT,53.7136,-2.4816
McDonalds Restaurant Ltd,BB3 0DB,53.71312500000000,-2.47634900000000
Vaughns Country Cafe,BB3 0PA,53.68919100000000,-2.50872600000000
Black Olive Deli & Coffee Ltd,BB3 1AT,53.6995,-2.4716
Amalfi Lounge ,BB3 1AU,53.69740600000000,-2.46912900000000
Papas American diner ,BB3 1AU,53.69740600000000,-2.46912800000000
SUBWAY,BB3 1AU,53.69740600000000,-2.46912900000000
Sweet Vintage Darwen,BB3 1BG,53.6955,-2.4672
FLAMES GRILL AND BAR ,BB3 1BZ,53.69107900000000,-2.46666500000000
The Alexandra hotel ,BB3 1NL,53.70067600000000,-2.47646600000000
Eddie's Wood fired pizza,BB3 1PL,53.6954,-2.4687
Cjs cafe,BB3 1PS,53.69580900000000,-2.46839900000000
Akash Indian Brasserie,BB3 1PX,53.6979,-2.4706
anaz restaurant,BB3 1QA,53.69869100000000,-2.47144500000000
Artisan Cafe and Wine Bar ,BB3 2AA,53.69475700000000,-2.46635800000000
The Bridge cafe,BB3 2AA,53.69475700000000,-2.46635800000000
The Whitehall Hotel,BB3 2JU,53.68131400000000,-2.46537700000000
Zest cafe lounge,BB3 2PR,53.68600100000000,-2.46191500000000
DOLLYS TEAROOM AND RESTAURANT,BB3 2PS,53.68575600000000,-2.46254900000000
Astley Bank Hotel Ltd,BB3 2QB,53.68611600000000,-2.46703500000000
Craven Heifer Inn,BB3 3LD,53.69078100000000,-2.44829300000000
The Ranken Arms ,BB3 3LY,53.69555310000000,-2.43179910000000
The Crown & Thistle,BB3 3PP,53.67910200000000,-2.42712600000000
The White Bull  Oswaldtwistle,BB5 3QW,53.73737400000000,-2.40578000000000
Britannia,BB5 3RJ,53.72964859008790,-2.41461801528931
The Whitecroft Indian Bar & Restaurant,BB5 3RJ,53.72964859008790,-2.41461801528931
The Duckworth hall inn ,BB5 3RQ,53.73485946655270,-2.42355298995972
Yummies Breakfast Ltd,BB5 4LZ,53.75031000000000,-2.41027200000000
westend fish and chips,BB5 4LZ,53.75022420000000,-2.40861730000000
the stanhill pub & kitchen,BB5 4PS,53.74480800000000,-2.41598000000000
Clayton street chippy,BB6 7AQ,53.78535700000000,-2.40452800000000
Alis chicken village ,BB6 7DD,53.78573200000000,-2.40771900000000
Tipsy Cows Cheese & Wine Merchants Ltd,BB6 7NF,53.78666800000000,-2.40751600000000
Great British fish and chip bank ,BB6 7QQ,53.78600692749020,-2.40593099594116
The Green Olive deli and bistro ,BB6 7QQ,53.78596790000000,-2.40626350000000
Northern Monkey Brew Co. ltd,BL1 1AQ,53.57803640000000,-2.42674110000000
Costa Coffee,BL1 1BG,53.57999900000000,-2.42907100000000
Alisons cafe ltd,BL1 1BU,53.57920837402340,-2.42921400070190
SIZZLING PALATE,BL1 1DG,53.57916100000000,-2.42720500000000
Grill Rush,BL1 1DR,53.57824700000000,-2.42630400000000
Subway Crompton Place,BL1 1EA,53.57846400000000,-2.42825400000000
Tapaz Restaurant,BL1 1EL,53.5791,-2.4265
Bambu Oriental Cafe,BL1 1HA,53.57897200000000,-2.43229200000000
HEAVENLY DESSERTS BOLTON,BL1 1HH,53.5795,-2.4274
Caffe Nero,BL1 1HQ,53.57950400000000,-2.42924700000000
Definitely Maybe Bar Ltd,BL1 1LD,53.57785400000000,-2.42805200000000
ciao napoli,BL1 1LE,53.5775,-2.4283
THE COURTHOUSE RESTAURANT & BAR,BL1 1LF,53.57788790000000,-2.42855280000000
Subway Newport Street,BL1 1NB,53.57703000000000,-2.42978100000000
Odessa cafe,BL1 1RS,53.57824000000000,-2.42838800000000
THE FOOD CORNER LTD,BL1 1SN,53.57640100000000,-2.42972900000000
OLYMPUS FISH AND CHIP RESTAURANT LIMITED,BL1 1SW,53.57607900000000,-2.42933300000000
Istanbul’s kitchen,BL1 1TJ,53.57650756835940,-2.43255209922791
cosy cafe,BL1 1TQ,53.57649800000000,-2.43256900000000
Cadar Chimney Cakes,BL1 2AL,53.58130645751950,-2.42965602874756
Costa Coffee,BL1 2AL,53.58167600000000,-2.43005400000000
Great Ale at the Vaults,BL1 2AL,53.5813,-2.4302
Nando's Chickenland Ltd,BL1 2AL,53.58167648315430,-2.43005394935608
Prezzo,BL1 2AL,53.58167600000000,-2.43005400000000
Amico Cafe,BL1 2AN,53.58009719848630,-2.42926788330078
McDonald's Bolton 1,BL1 2AQ,53.57981400000000,-2.43065500000000
McDonalds,BL1 2AQ,53.57981400000000,-2.43065500000000
Basic kneads ,BL1 2AR,53.58167648315430,-2.43005394935608
Klübb & Co.,BL1 2AR,53.58072280883790,-2.42975497245789
Nam ploy,BL1 2BS,53.5816,-2.4322
The Coffee Shop at St. Georges House,BL1 2DD,53.5820,-2.4313
Grill Cottage ,BL1 2EA,53.58050340000000,-2.42833330000000
Nadiis Diner,BL1 2EG,53.58140300000000,-2.42848100000000
The Chinese Buffet,BL1 2EH,53.58076600000000,-2.42832300000000
Pizza Hut (Zarr Enterprise Ltd),BL1 2PF,53.58083724975590,-2.43580102920532
Pizza Hut,BL1 2SL,53.58607200000000,-2.42494800000000
Little Dough Ltd,BL1 3AJ,53.58326830000000,-2.44412300000000
Subway,BL1 3AJ,53.58334900000000,-2.44452700000000
The Dessert Corner ,BL1 3AT,53.58433151245120,-2.44606304168701
Nicks Restaurant,BL1 3BA,53.58489300000000,-2.44744300000000
IQBAL'S,BL1 3NF,53.59048100000000,-2.43372400000000
DESI HOUSE LIMITED,BL1 3QD,53.59245300000000,-2.43746100000000
Tribez,BL1 3QD,53.59245300000000,-2.43746100000000
Cube Desserts Ltd,BL1 3QJ,53.59193800000000,-2.43577900000000
MAMA'S GRILL (NORTH-WEST) LTD,BL1 3QN,53.59118000000000,-2.43418500000000
Khanz Spicy Grill,BL1 4AZ,53.5813,-2.4409
burgerum,BL1 4JE,53.58634530000000,-2.45047730000000
Prime eatery,BL1 4QR,53.5819,-2.4417
Queen's Park Café Bolton ,BL1 4RU,53.57746887207030,-2.44488811492920
Victoria Inn,BL1 5AG,53.58296300000000,-2.47719400000000
Retreat Grill Bar Restaurant,BL1 5BP,53.57939700000000,-2.46508600000000
The Coffee Shop at  Heaton,BL1 5LW,53.58583000000000,-2.46562500000000
Cafe Italia,BL1 5SN,53.59135600000000,-2.47759100000000
McDonald's Delph Hill,BL1 5SX,53.59145100000000,-2.48081000000000
McDonalds,BL1 6AH,53.58818817138670,-2.45746397972107
FLAVOURS N SPICES,BL1 6PU,53.59929100000000,-2.43565800000000
Wilton Arms,BL1 7BT,53.61670800000000,-2.45564100000000
The Brew House,BL1 7LG,53.61345200000000,-2.43445900000000
Refil Starbucks,BL1 7LR,53.61057500000000,-2.43213100000000
Poppins at Smithills,BL1 7NP,53.60171127319340,-2.45898509025574
Bobs Smithy Inn,BL1 7PX,53.59517400000000,-2.49368000000000
OAKS SPICE & GRILL,BL1 8AN,53.59448800000000,-2.44399400000000
SU FOODS LTD,BL1 8AN,53.5945,-2.4440
Heavenly doughnuts ,BL1 8DB,53.59477470000000,-2.44612500000000
D Foods Kompany Ltd,BL1 8DR,53.59081400000000,-2.43055270000000
D food company ,BL1 8DR,53.59081400000000,-2.43055270000000
FUSION FOODS (BOLTON) LTD,BL1 8DU,53.5948,-2.4314
Shahi Sweets and Bakers Ltd,BL1 8DU,53.59484670000000,-2.43140960000000
SALOTTO CAFE BAR RESTAURANT ,BL1 8DY,53.5951,-2.4320
Cinnamon Bean Cafe,BL1 8EY,53.59398651123050,-2.43519306182861
Chesters,BL1 8HE,53.59119100000000,-2.43111800000000
Elior at Warburtons Ltd,BL1 8JB,53.59153100000000,-2.42658900000000
80/20 Health Bar & Kitchen,BL1 8NE,53.59631100000000,-2.43192500000000
Four Seasons Cafe ,BL1 8PE,53.59890700000000,-2.43263200000000
Sai spice restaurant ,BL1 8TS,53.59719400000000,-2.42397200000000
KFC BOLTON TV 02034,BL1 8TT,53.59600600000000,-2.42927800000000
KFC,BL1 8TT,53.59600600000000,-2.42927800000000
McDonald's Astley Bridge,BL1 8TT,53.59600600000000,-2.42927800000000
McDonalds,BL1 8TT,53.59600600000000,-2.42927800000000
Haute Dolci,BL2 1BJ,53.57649690000000,-2.42515140000000
EXCELLENCY RESTAURANT,BL2 1BT,53.57676400000000,-2.42387300000000
Subway-Bridgeman,BL2 1DE,53.57535000000000,-2.42195600000000
Grillicious Bolton Ltd ,BL2 2DL,53.58735000000000,-2.41417500000000
MARMARIS FOOD (BOLTON) LTD,BL2 3BN,53.59808500000000,-2.41068400000000
Grapper restaurant ,BL2 3EW,53.60664000000000,-2.40068600000000
Mecca Bingo,BL3 5DJ,53.57514572143550,-2.43379402160645
BEST PERSIAN RESTAURANT LTD,BL3 6DS,53.57534100000000,-2.43205900000000
Bolton Golf Club Services Limited,BL6 4AJ,53.58240500000000,-2.51197400000000
Medirest Healthcare Compass Group at Beaumont Hospital,BL6 4LA,53.58149700000000,-2.49932100000000
Sagar Indian restaurant ,BL6 5EE,53.59436700000000,-2.58483800000000
The Hawthorn Willows ,BL6 5HX,53.6007,-2.5869
Rivington Pub & Grill,BL6 5JF,53.59000100000000,-2.56957900000000
Cherry Tree,BL6 5LA,53.60168500000000,-2.59361300000000
Goose and Gander,BL6 5LW,53.59252000000000,-2.59488900000000
The Goose and Gander,BL6 5LW,53.59252000000000,-2.59488900000000
Namma Ooru Dosa,BL6 5NP,53.59448900000000,-2.54573700000000
CHESTERS HORWICH LTD,BL6 5NY,53.59324100000000,-2.54357600000000
Burger King (Rivington North),BL6 5UZ,53.60096900000000,-2.57279500000000
Burger King (Rivington South),BL6 5UZ,53.60096900000000,-2.57279500000000
Starbucks (Rivington North),BL6 5UZ,53.60096900000000,-2.57279500000000
Starbucks (Rivington South),BL6 5UZ,53.60096900000000,-2.57279500000000
Il Toro,BL6 6AA,53.59903800000000,-2.53972200000000
Avocado health bar ,BL6 6EX,53.58846500000000,-2.53220000000000
Empire bar and restaurant ,BL6 6EX,53.58846500000000,-2.53220000000000
Abacus Restaurant,BL6 6JA,53.58312600000000,-2.53627100000000
Costa Coffee,BL6 6JA,53.58312600000000,-2.53627100000000
Hollywood Bowl,BL6 6JA,53.58312600000000,-2.53627100000000
KFC,BL6 6JA,53.58312600000000,-2.53627100000000
Lucianos at Middlebrook,BL6 6JA,53.58355200000000,-2.53532500000000
McDonald's Middlebrook ,BL6 6JA,53.58312600000000,-2.53627100000000
McDonalds,BL6 6JA,53.58312600000000,-2.53627100000000
Nando's Chickenland,BL6 6JA,53.58312600000000,-2.53627100000000
Pizza Hut,BL6 6JA,53.58312600000000,-2.53627100000000
Starbucks Middlebrook,BL6 6JA,53.58312600000000,-2.53627100000000
Starbucks,BL6 6JA,53.58312600000000,-2.53627100000000
Subway,BL6 6JA,53.58184270000000,-2.53546890000000
TGI Fridays,BL6 6JA,53.58247070000000,-2.53372470000000
Wagamama Bolton,BL6 6JA,53.58355331420900,-2.53532505035400
subway,BL6 6JZ,53.58959900000000,-2.53390600000000
Curley’s dining room ltd,BL6 6PP,53.59987300000000,-2.51960500000000
Ye Jolly Crofters ,BL6 6RE,53.59777832031250,-2.51738691329956
Boltom Whites Hotel,BL6 6SF,53.57987100000000,-2.53446300000000
THYME DELI,BL6 7AA,53.59922100000000,-2.54681100000000
Home bakery /cafe latte,BL6 7AD,53.59940000000000,-2.54707000000000
Max Italia,BL6 7AE,53.60034300000000,-2.54708200000000
Pizza Paradise Limited,BL6 7AU,53.6008,-2.5470
SPICE VALLEY BAR & RESTAURANT,BL6 7JD,53.6019,-2.5514
bowling green,BL6 7JD,53.60194100000000,-2.55143900000000
CHILL AT THE COWSHED LTD,BL6 7NX,53.59871300000000,-2.54777100000000
Sokrates Greek Taverna (Horwich),BL6 7NZ,53.59815200000000,-2.54864000000000
Rocco's Italian Restaurant,BL6 7QJ,53.60158000000000,-2.55376200000000
Cafe at Spring Cottage,BL6 7SB,53.62468700000000,-2.56176000000000
Great House Barn,BL6 7SB,53.62468800000000,-2.56176100000000
Rivington Hall Barn,BL6 7SB,53.62468800000000,-2.56176100000000
Village green tearooms limited,BL6 7SD,53.63147500000000,-2.56147300000000
The Rivington,BL6 7SE,53.62494100000000,-2.56903700000000
Chetham Arms,BL7 0EW,53.63765130000000,-2.40510230000000
The Strawbury Duck,BL7 0LU,53.65296400000000,-2.41692100000000
The King William ,BL7 9AN,53.62553700000000,-2.41013300000000
Spread Eagle ,BL7 9DE,53.61501600000000,-2.42440700000000
Retreat Bromley Cross,BL7 9JG,53.61696624755860,-2.42209911346436
The Railway Bromley Cross ,BL7 9LY,53.61457443237300,-2.41132497787476
Hot Chilli,BL7 9PQ,53.61709976196290,-2.43659496307373
Real Axe,BL7 9PQ,53.61737060546880,-2.43696308135986
Last Drop Village Hotel and Spa,BL7 9PZ,53.62204800000000,-2.42103100000000
Lotties,BL7 9QT,53.63421200000000,-2.48659000000000
San Marino bar and restaurant ,BL7 9QT,53.63421200000000,-2.48659000000000
San Marino,BL7 9QT,53.63421200000000,-2.48659000000000
AK Cafe,BL7 9SB,53.62590500000000,-2.43823100000000
Baker's,BL7 9SN,53.63018000000000,-2.44170800000000
The Thomas Egerton,BL7 9SR,53.62985000000000,-2.44103900000000
Tastebuds at the Wharf,L40 1TB,53.63452100000000,-2.80823600000000
The Red Lion,L40 2QP,53.62680000000000,-2.76869900000000
Owd Barn at Bispham Tearoom,L40 3SA,53.62169400000000,-2.79213100000000
The Eagle & Child,L40 3SG,53.61466500000000,-2.77293800000000
Pine Pubs Ltd - Farmers Arms Parbold,L40 3SL,53.60949900000000,-2.76140200000000
CEDAR FARM CAFE,L40 3SY,53.62052900000000,-2.76538000000000
1260 Craft & Crust,PR1 0AD,53.75028450000000,-2.72927480000000
No 15 Cafe,PR1 0AR,53.75092890000000,-2.72972580000000
Costa Coffee - Penwortham,PR1 0DQ,53.7499,-2.7322
Costa Coffee,PR1 0DQ,53.74934570000000,-2.73435380000000
Lime Bar Lounge,PR1 0DQ,53.74988937377930,-2.73222494125366
SUBWAY,PR1 0DQ,53.74911570000000,-2.73521420000000
THE SIR TOM FINNEY,PR1 0NL,53.7417,-2.7426
Andreas Fish and Chips,PR1 0QB,53.74892340000000,-2.73433130000000
The Cow Shed,PR1 0QB,53.74893500000000,-2.73390690000000
Booths,PR1 0XW,53.7360,-2.7310
The Stanley Arms,PR1 1DA,53.75890600000000,-2.69736300000000
Home Bakery ,PR1 1FB,53.76056610000000,-2.69767510000000
Level,PR1 1HT,53.7596,-2.6975
house of gelato,PR1 1NA,53.76994420000000,-2.70477950000000
mastersons,PR1 1NA,53.7699,-2.7048
quattro,PR1 1TJ,53.76590300000000,-2.69817700000000
BURGER HUT,PR1 1TS,53.76384610000000,-2.69469560000000
SNA Preston Ltd,PR1 1YT,53.7612,-2.6963
FORUM BAR & KITCHEN,PR1 2AA,53.75738800000000,-2.70187300000000
Kimji Korean,PR1 2AA,53.75738800000000,-2.70187300000000
Pizza Express,PR1 2AA,53.75738800000000,-2.70187300000000
The Cafe Bar,PR1 2AA,53.7573,-2.7018
Turtle Bay,PR1 2AP,53.75863600000000,-2.69895100000000
Cafune - South American Cafe,PR1 2AR,53.75910690000000,-2.69975920000000
Nando's,PR1 2AR,53.75904500000000,-2.69968600000000
Istanbul shawarma ,PR1 2AT,53.76102710000000,-2.70491820000000
Shahzaad Tandoori Restaurant ,PR1 2AT,53.76069800000000,-2.70452200000000
Town House Coffee and Brew Bar,PR1 2AT,53.76069800000000,-2.70452200000000
Subway,PR1 2AU,53.75946880000000,-2.70088770000000
Patisserie Valerie,PR1 2AY,53.75816700000000,-2.70228000000000
tinos restaurant,PR1 2BB,53.76012420654300,-2.70414495468140
Cocos ,PR1 2ED,53.76178600000000,-2.70590500000000
Cool Panda,PR1 2ED,53.76178600000000,-2.70590500000000
A Taste of Thailand,PR1 2EE,53.76053180000000,-2.70355990000000
AASEM & NOOR LTD,PR1 2EE,53.7610,-2.7041
AZUMA RESTAURANT,PR1 2EE,53.76108500000000,-2.70434600000000
Food savour ltd,PR1 2EE,53.76108500000000,-2.70434600000000
Grillaz ,PR1 2EE,53.76095962524410,-2.70412898063660
Plau,PR1 2EE,53.76137900000000,-2.70469650000000
Caffe Nero,PR1 2EJ,53.75979200000000,-2.70110900000000
McDonald's Restaurants Ltd,PR1 2EJ,53.75971320000000,-2.70060360000000
McDonalds,PR1 2EJ,53.75971320000000,-2.70060360000000
Aunty Dollys cafe,PR1 2JA,53.7610,-2.7000
Brew and Bake,PR1 2JA,53.7610,-2.7000
CHERRY PIE COFFEE & CO,PR1 2JA,53.7610,-2.7000
Jonah's,PR1 2JA,53.7610,-2.7000
NURCAN & STEVE LTD,PR1 2JA,53.7610,-2.7000
Pickles of Preston ltd,PR1 2LA,53.76049041748050,-2.69973707199097
BISTROT PIERRE - PRESTON,PR1 2NJ,53.7577,-2.7047
Caffe Nero,PR1 2NJ,53.75777600000000,-2.70460900000000
KFC,PR1 2NJ,53.75777600000000,-2.70460900000000
Laviva Café ,PR1 2NJ,53.7577,-2.7047
Moka cafe bar and restaurant,PR1 2NJ,53.75777600000000,-2.70460900000000
Subway Fishergate,PR1 2NJ,53.75777600000000,-2.70460900000000
1842 Restaurant & Bar,PR1 2NL,53.75860200000000,-2.70331900000000
Burger King,PR1 2NQ,53.75857400000000,-2.70173730000000
Burger king- Preston St George,PR1 2NQ,53.75857400000000,-2.70173730000000
Raffles coffee house,PR1 2NQ,53.75892639160160,-2.70171308517456
The Harris Cafe,PR1 2PP,53.75928700000000,-2.69837000000000
BALUGA BAR & CLUB,PR1 2QY,53.75876800000000,-2.69799700000000
Heavenly Desserts,PR1 2QY,53.75871276855470,-2.69828200340271
ICEBURG,PR1 2QY,53.7587,-2.6983
Olive Tree Brasserie ,PR1 2QY,53.75876800000000,-2.69799700000000
Rise.,PR1 2QY,53.75868360000000,-2.69837190000000
Subway,PR1 2QY,53.75876800000000,-2.69799700000000
smashed preston limited,PR1 2QY,53.75871276855470,-2.69828200340271
Baba’s biryani ,PR1 2RQ,53.7622,-2.7040
CUBE DESSERTS (PRESTON) LTD,PR1 2RQ,53.76223710000000,-2.70396760000000
Lapar Malaysian Cuisine Ltd,PR1 2RQ,53.76223710000000,-2.70396760000000
Smoke and grill ,PR1 2RQ,53.7622,-2.7040
street food preston ltd,PR1 2RQ,53.7622,-2.7040
the new york pizza co preston,PR1 2RQ,53.76223710000000,-2.70396760000000
Taste Tea,PR1 2UP,53.7579,-2.7060
A&R Fast Food Ltd/TA German Doner kebab,PR1 2UT,53.75879100000000,-2.70459250000000
KASPAS NORTH WEST LTD,PR1 2UT,53.75879100000000,-2.70459250000000
Subway,PR1 2XQ,53.76385700000000,-2.70989900000000
Legacy Preston International Hotel,PR1 2YF,53.7599,-2.7074
Angelos,PR1 3BN,53.75756500000000,-2.69765900000000
Stratos,PR1 3BN,53.75756500000000,-2.69765900000000
Authentic Cuisine (Preston) Ltd,PR1 3BQ,53.7592,-2.6958
Mamma Mia Preston,PR1 3BT,53.75901100000000,-2.69474000000000
Pepe's Piri Piri,PR1 3BT,53.75901100000000,-2.69474000000000
MAHARAJA RESTAURANT,PR1 3DH,53.75974300000000,-2.69407000000000
Delilicious cafe,PR1 3NR,53.7571,-2.6993
Ravenous,PR1 3NR,53.75711500000000,-2.69930500000000
Thai Orchid,PR1 3NS,53.75709600000000,-2.69953200000000
Clares kitchen & Vintage Tea Room ,PR1 3NT,53.75749000000000,-2.69972100000000
Wings and Beer Co,PR1 3NT,53.75748070000000,-2.69964110000000
Paluca's Limited ,PR1 3NU,53.75788020000000,-2.70049720000000
We Dont Give a Fork,PR1 3NU,53.75728200000000,-2.70006600000000
NAAFIAH PRESTON LTD,PR1 3YH,53.75838100000000,-2.69336500000000
Taste of Turkey  restaurant,PR1 3YH,53.75838100000000,-2.69336500000000
Lola,PR1 4BA,53.75744200000000,-2.68309600000000
Manjaros,PR1 4BA,53.75870070000000,-2.68449360000000
Club 3000 Bingo Preston,PR1 4DT,53.76096400000000,-2.68339600000000
Traian Ltd/ Steakhouse Saloon,PR1 4DT,53.76096400000000,-2.68339600000000
chicos preston limited,PR1 4HL,53.75727100000000,-2.69102600000000
Costa Coffee - Drive Thru,PR1 4HZ,53.76057420000000,-2.68849830000000
Flipout Preston,PR1 4LQ,53.75976290000000,-2.68105260000000
The Destination ,PR1 4LQ,53.75976290000000,-2.68105260000000
new hall lane cafe,PR1 4ST,53.76368600000000,-2.67414100000000
The Hesketh’s arms ,PR1 4SY,53.76584200000000,-2.66466400000000
top cafe,PR1 5EB,53.76645600000000,-2.68013300000000
THE VENUE PRESTON LTD,PR1 5LG,53.7634,-2.6886
Miller rd cafe,PR1 5QS,53.76798500000000,-2.67047800000000
Firdous Limited,PR1 5UT,53.76668480000000,-2.67609780000000
Rosemary on the Park,PR1 6AU,53.7750,-2.6959
Fiza Foods Ltd,PR1 6PZ,53.7652,-2.6924
Marco & Carl ,PR1 6PZ,53.76525300000000,-2.69256800000000
Grill Shack ,PR1 6QA,53.76773200000000,-2.69122800000000
Chaiiwala,PR1 6QB,53.76911770000000,-2.69079260000000
Costa Coffee,PR1 6QY,53.77240420000000,-2.67716080000000
Goffys,PR1 6QY,53.7734,-2.6784
KFC - DEEPDALE,PR1 6QY,53.77393600000000,-2.67676400000000
KFC,PR1 6QY,53.77393600000000,-2.67676400000000
McDonald's Restaurants Ltd,PR1 6QY,53.77393600000000,-2.67676400000000
McDonalds Restaurants,PR1 6QY,53.77393600000000,-2.67676400000000
Nandos,PR1 6QY,53.77393600000000,-2.67676400000000
Pizza Hut Restaurant,PR1 6QY,53.77393600000000,-2.67676400000000
Subway Deepdale,PR1 6QY,53.77393600000000,-2.67676400000000
Ultimate Cafe Preston,PR1 6QY,53.77380970000000,-2.67656140000000
Starbucks Coffee Co,PR1 6UY,53.77329100000000,-2.68261000000000
Naafiah,PR1 6XH,53.76991800000000,-2.68621200000000
RK Dining,PR1 7EN,53.7696,-2.7113
Khan'z,PR1 7JN,53.76724640000000,-2.71562690000000
Pizza Hut (Delivery),PR1 7RB,53.76878100000000,-2.71024000000000
Starbucks,PR1 8AP,53.75602600000000,-2.70721900000000
THEATRE STREET BAR & GRILL,PR1 8BQ,53.75703100000000,-2.70443000000000
Costa Coffee,PR1 8HJ,53.75695200000000,-2.70576300000000
MOKA ON THE BALCONY,PR1 8HJ,53.75695200000000,-2.70576300000000
McDonald's Restaurants Ltd,PR1 8HJ,53.75695200000000,-2.70576300000000
McDonalds Restaurants Ltd,PR1 8HJ,53.75695200000000,-2.70576300000000
Starbucks Coffee Co,PR1 8HJ,53.75659230000000,-2.70554150000000
Starbucks Fishergate,PR1 8HL,53.7568,-2.7058
Origin Juice and Brew Bar,PR1 8JB,53.75547670000000,-2.71181690000000
The Continental,PR1 8JP,53.75021080000000,-2.70705710000000
Pavilion Cafe,PR1 8JT,53.75309400000000,-2.70304500000000
Papershopplus At Better Butts,PR1 8NL,53.75925300000000,-2.71323400000000
THE SILK ROUTE RESTAURANT,PR1 8UY,53.76071700000000,-2.71950900000000
The Pear Tree Inn Penwortham,PR1 9QB,53.73994690000000,-2.70694530000000
Ristorante Salvatore's,PR1 9XD,53.74942110000000,-2.73230790000000
Tap and Vine,PR1 9XD,53.74924800000000,-2.73269920000000
Ignite Cafe,PR2 1AU,53.76301200000000,-2.72795200000000
Lyn's Lunch Box,PR2 1UL,53.76928900000000,-2.75503600000000
Lillybetts,PR2 1XL,53.76772190000000,-2.75966190000000
Delicachix ,PR2 2LP,53.77162900000000,-2.72829800000000
Pitstop Cafe,PR2 2NE,53.76549900000000,-2.71649600000000
Tang Restaurant,PR2 2NH,53.76482800000000,-2.71888100000000
Taboosh ,PR2 2NJ,53.7652,-2.7189
MAHARANI SOUTH INDIAN RESTAURANT LTD,PR2 2NN,53.76378400000000,-2.72355100000000
gusto italia ashton,PR2 2NN,53.76379394531250,-2.72354698181152
Take 5 coffee shop ,PR2 2PD,53.76091500000000,-2.75019800000000
McDonald's Restaurants Ltd,PR2 2TX,53.76226043701170,-2.74049496650696
McDonalds Restaurant,PR2 2TX,53.76226043701170,-2.74049496650696
The Beach Hut Cafe Bar,PR2 2YP,53.76075200000000,-2.74315700000000
KFC,PR2 2YQ,53.76031875610350,-2.72706699371338
Plungington Hotel,PR2 3AR,53.77667200000000,-2.71777900000000
Preston Golf Club,PR2 4DD,53.7830,-2.6859
Giddy Kids,PR2 5BE,53.7874,-2.6325
Clip n Climb Preston Limited,PR2 5BW,53.78707380000000,-2.64763330000000
Starbucks Preston East,PR2 5PZ,53.78997300000000,-2.65857900000000
Marinos Restaurant Ltd,PR2 8AH,53.77860600000000,-2.69002600000000
Costa Coffee - Drive Thru,PR2 9BQ,53.79764870000000,-2.69493610000000
Subway,PR2 9BQ,53.79764870000000,-2.69493610000000
Booths,PR2 9HD,53.7923,-2.7056
Subway,PR2 9HD,53.79232440000000,-2.70630880000000
Mellors Catering Services Ltd,PR2 9HT,53.79152297973630,-2.70684194564819
McDonald's Restaurants Ltd,PR2 9NP,53.79107290000000,-2.68496060000000
McDonalds Restaurants,PR2 9NP,53.79107290000000,-2.68496060000000
Costa Coffee - Fulwood Village,PR2 9RX,53.79186248779300,-2.71317791938782
Costa Coffee,PR2 9RX,53.79186248779300,-2.71317791938782
Sai Surbhi,PR2 9UP,53.79254900000000,-2.71419400000000
The ginger bistro ,PR2 9UP,53.79254900000000,-2.71419400000000
Maeve and Willow,PR25 1XB,53.6986,-2.7130
THE CAFE LTD,PR25 2AA,53.6954,-2.6947
New Wonderland Ltd,PR25 2EX,53.69048309326170,-2.69983100891113
The Hideout ,PR25 2LD,53.69443650000000,-2.69518680000000
Emmas Coffee House at the Museum Ltd,PR25 2LE,53.6946,-2.6928
Antonellos,PR25 2SA,53.69579960000000,-2.69261950000000
The Gables,PR25 2SD,53.69445110000000,-2.69576260000000
Withy Arms,PR25 3EL,53.68805313110350,-2.69826197624207
McDonald's Restaurants Ltd,PR25 3LZ,53.69766235351560,-2.69071102142334
McDonalds,PR25 3LZ,53.69766235351560,-2.69071102142334
Sweet Delight,PR25 3NH,53.6972,-2.6897
The Cookie Jar,PR25 3NP,53.69798850000000,-2.69023200000000
The Chequered Flag Cafe Ltd,PR25 3XJ,53.69799620000000,-2.69974390000000
Lakeside Coffee House,PR25 5DA,53.68326230000000,-2.67741910000000
Bangla Spice,PR25 5SB,53.70304300000000,-2.67246000000000
Avant Garden Centre Cafe ,PR25 5XW,53.6897,-2.6767
The Midge Hall,PR26 6TN,53.70197860000000,-2.74435930000000
Leyland Garden Centre,PR26 8LQ,53.66363700000000,-2.74848500000000
Lot 1 The Coffee Shop Ltd,PR26 8PH,53.70158767700200,-2.71267890930176
THE BLUE ANCHOR PUBLIC HOUSE LIMITED,PR26 9AB,53.67883200000000,-2.78557300000000
The Grapes ,PR26 9RA,53.66138600000000,-2.77447400000000
The Wheatsheaf,PR26 9RA,53.66138600000000,-2.77447400000000
Panshi Bangla Cuisine,PR26 9RB,53.66082700000000,-2.77472100000000
Thyme on the yarrow,PR26 9RB,53.66082700000000,-2.77472000000000
The Crown Hotel,PR26 9RN,53.66451400000000,-2.77587800000000
Preston Grasshoppers RFC Ltd,PR4 0AP,53.79723300000000,-2.73326600000000
Bartle Hall Hotel,PR4 0HA,53.79147720336910,-2.78190493583679
The Saddle Inn,PR4 0RS,53.78712930000000,-2.78033620000000
Sitting Goose,PR4 0RT,53.78857000000000,-2.78142900000000
Ashton & Lea Golf Club Ltd,PR4 0XA,53.77069091796880,-2.76890993118286
Stickyweeds Coffee Shop,PR4 4AB,53.72657960000000,-2.75012910000000
Trattoria San Marco,PR4 4RJ,53.69623550000000,-2.81067270000000
Booths,PR4 5AU,53.72541910000000,-2.79213700000000
The Golden Ball,PR4 5AU,53.72541910000000,-2.79213700000000
THE LOUNGE BAR AND RESTAURANT,PR4 5BF,53.70705413818360,-2.79653406143188
The Hideaway  kitchen & bar,PR4 5BF,53.70705413818360,-2.79653406143188
Happy Bunnies,PR4 5EB,53.72645187377930,-2.77833390235901
The Ram’s Head,PR4 5HA,53.72701440000000,-2.78054160000000
EGO at the Fox Cub,PR4 5JT,53.7071,-2.7957
Tootsies Ice Cream and Coffee Shop,PR4 5JT,53.70711135864260,-2.79571700096130
Romano's,PR4 5NB,53.72712410000000,-2.78299910000000
Mad Hatters Tea Shop ,PR4 5PD,53.72728040000000,-2.78247150000000
The Anchor,PR4 5SL,53.73302459716800,-2.76573705673218
Cafe Delphine,PR5 0DP,53.73404010000000,-2.61947020000000
Boars Head,PR5 0RX,53.73473400000000,-2.58745200000000
The Royal Oak at Riley Green,PR5 0SL,53.72448600000000,-2.57471500000000
Subway Tickled Trout Services,PR5 0UJ,53.7642,-2.6372
Farmhouse Kitchen at Huntleys,PR5 0UN,53.7721,-2.5920
Bukhara Samlesbury,PR5 0UP,53.7686,-2.5807
SAMLESBURY HALL LIMITED ,PR5 0UP,53.76931780000000,-2.57254870000000
Samlesbury Hall Limited,PR5 0UP,53.76931780000000,-2.57254870000000
Nabs Head Hotel,PR5 0UQ,53.76156234741210,-2.57575011253357
New Hall Tavern ,PR5 0XA,53.75717163085940,-2.62194991111755
The Yew Tree,PR5 4AU,53.74966850000000,-2.67480810000000
Dunelm Mill Shop,PR5 4AW,53.74882507324220,-2.67911696434021
McDonald's Restaurants Ltd,PR5 4AW,53.74882507324220,-2.67911696434021
McDonalds Restaurants Ltd,PR5 4AW,53.74882507324220,-2.67911696434021
Prezzo,PR5 4AW,53.74895290000000,-2.67738980000000
SUBWAY,PR5 4AW,53.74882507324220,-2.67911696434021
Starbucks Capitol Retail Park,PR5 4AW,53.74882507324220,-2.67911696434021
Starbucks,PR5 4AW,53.74882507324220,-2.67911696434021
Holland house cafe,PR5 4HD,53.7463,-2.6667
RAEES,PR5 4HT,53.74411773681640,-2.64665293693542
Pinocchios ,PR5 4JA,53.74694824218750,-2.67243003845215
Youngs,PR5 5JD,53.72626530000000,-2.69492400000000
SANGAM BALTI HOUSE,PR5 5RU,53.72595596313480,-2.69278192520142
KFC - LOSTOCK HALL,PR5 5RY,53.72690210000000,-2.69360080000000
KFC,PR5 5RY,53.72690210000000,-2.69360080000000
The Hunters,PR5 5UL,53.74017715454100,-2.68288898468018
The Mill Cafe,PR5 5XU,53.72373940000000,-2.67768110000000
Burger King,PR5 6BA,53.72163009643550,-2.67096400260925
Cuerden View Cafe,PR5 6BY,53.70863342285160,-2.66283798217773
SUBWAY,PR5 6EJ,53.72215390000000,-2.66224330000000
YE OLDE HOB INN,PR5 6EP,53.72097396850590,-2.66128492355347
WA Bar and Bistro,PR5 6EQ,53.7223,-2.6620
Dilnaz Indian restaurant ltd,PR5 6FN,53.72292430000000,-2.66108850000000
Walton Arms ,PR5 6GD,53.73547363281250,-2.66217994689941
Valley Coffee,PR5 6GS,53.7339,-2.6598
Tiny Tea Cups Play Cafe Ltd,PR5 6LF,53.72961600000000,-2.65953410000000
The Beam and Brycg,PR5 6QL,53.73559510000000,-2.66316740000000
Withy Arms,PR5 6QP,53.73151830000000,-2.66248160000000
The Greedy Goose Cafe ,PR5 6TP,53.72863250000000,-2.66095080000000
THE HOSPITAL INN,PR5 6YP,53.72593190000000,-2.63849280000000
Baxterstorey Caterers,PR5 8BX,53.71869310000000,-2.65080870000000
Sagar Premier,PR5 8HZ,53.71726989746090,-2.63803195953369
masons arms,PR6 0HU,53.66128158569340,-2.62097811698914
the ley inn ,PR6 7EU,53.70008800000000,-2.65255500000000
The sea view inn,PR6 7HH,53.67615800000000,-2.63489700000000
The Red Cat,PR6 7HS,53.6896,-2.6377
Mediterranean 3 at the bay horse,PR6 7HW,53.68838882446290,-2.63876104354858
The HalfwayHouse,PR6 7JB,53.7027,-2.6393
Whittle Vintage Tearoom,PR6 7LD,53.68872500000000,-2.63635800000000
Lord Nelson,PR6 7RD,53.70411100000000,-2.63654500000000
THE BEAUMONT,PR6 7TY,53.70671800000000,-2.64502300000000
The Little Tiger ,PR6 8DA,53.70052719116210,-2.54689407348633
Hare & Hounds,PR6 8DP,53.69822200000000,-2.54398900000000
The Red Lion,PR6 8EU,53.68530100000000,-2.60678100000000
The Village Tearoom at Wheelton Limited,PR6 8EY,53.68612800000000,-2.60668700000000
Little Hong Kong ,PR6 8HD,53.68586900000000,-2.59926400000000
The Dressers Arms,PR6 8HD,53.68586900000000,-2.59926400000000
Whins green kitchen,PR6 8HN,53.69159000000000,-2.60346010000000
golden lion hotel,PR6 8HP,53.69556200000000,-2.59488800000000
The Top Lock,PR6 8LT,53.68845748901370,-2.61495804786682
CAVENDISH ARMS,PR6 8NG,53.71295000000000,-2.61010300000000
The Cottage Tea Room,PR6 8QS,53.68775300000000,-2.56681000000000
Boatel Party Cruises,PR6 9AE,53.66511700000000,-2.61654000000000
GLEN BARS LTD T/A THE SPINNERS AT COWLING,PR6 9EA,53.64532800000000,-2.60882400000000
The Black Horse Limbrick,PR6 9EE,53.6415,-2.6036
The bay horse ,PR6 9ER,53.62567900000000,-2.58933800000000
The Yew Tree Inn ,PR6 9HA,53.63221500000000,-2.58168600000000
Lucianos At The Millstone,PR6 9HJ,53.61126000000000,-2.57675800000000
CHORLEY GOLF CLUB LTD,PR6 9HX,53.62961800000000,-2.60144500000000
CARDWELL LEISURE LTD t/a THE CARDWELL,PR6 9LH,53.62048300000000,-2.60191900000000
Elephant and Castle,PR6 9NH,53.61735153198240,-2.59694504737854
Caffe Latte,PR7 1AB,53.65467420000000,-2.62989530000000
McDonald's Restaurants Ltd,PR7 1AQ,53.65285900000000,-2.62823800000000
McDonalds Restaurants Ltd,PR7 1AQ,53.65285900000000,-2.62823800000000
Woodchats Coffee Shop,PR7 1AQ,53.65285900000000,-2.62823800000000
SUBWAY,PR7 1BG,53.65307300000000,-2.63206900000000
Tapas Esteban,PR7 1BH,53.65304800000000,-2.63162900000000
GOODIES COFFEE SHOP,PR7 1BJ,53.65350500000000,-2.63187900000000
Chorley Town Cafe Limited,PR7 1BW,53.65254200000000,-2.63207600000000
Chorley Town Café ,PR7 1BW,53.65254200000000,-2.63207600000000
Costa Coffee,PR7 1DE,53.65333700000000,-2.62962200000000
La Rocca Ristorante Limited,PR7 1EX,53.65945300000000,-2.62900200000000
Lean & Green,PR7 1EX,53.65945434570310,-2.62900209426880
Smokies BBQ RESTAURANT ,PR7 1HP,53.65363100000000,-2.63365100000000
Cafe Ambio at Astley Park,PR7 1NP,53.6596,-2.6453
The Astley,PR7 1XA,53.66114100000000,-2.64617200000000
The Cosmopolitan Restaurant  Wine & Cocktail Bar,PR7 2AA,53.65197400000000,-2.63075100000000
Diets2go Limited,PR7 2BE,53.6500,-2.6306
KFC -CHORLEY,PR7 2BE,53.6500,-2.6306
KFC,PR7 2BN,53.64985656738280,-2.62861704826355
SUBWAY,PR7 2BN,53.64963760000000,-2.62706690000000
ITALIAN COTTAGE ,PR7 2EX,53.65034000000000,-2.63219400000000
Big Lamp Chippy & Cafe,PR7 2LA,53.64996400000000,-2.63191600000000
Encore,PR7 2RP,53.65306390000000,-2.63356300000000
BLUEHOUSE CHORLEY LTD,PR7 2SG,53.6506,-2.6313
the old stables vintage tea shop,PR7 2SJ,53.65210600000000,-2.63300800000000
Ottoman grill bar ,PR7 2SL,53.65106890000000,-2.63206220000000
Bay leaf ,PR7 2SQ,53.65113400000000,-2.63143400000000
Pizza Hut Delivery,PR7 2SQ,53.65113400000000,-2.63143400000000
Texas steakhouse ,PR7 3DL,53.64880600000000,-2.62985700000000
Piccolo Italian Restaurant,PR7 3DX,53.64768890000000,-2.62844490000000
Birkacre Nurseries Ltd,PR7 3QL,53.63638000000000,-2.65238700000000
Duxbury Park Golf Course ,PR7 4AT,53.63412500000000,-2.61843200000000
Retreat Adlington,PR7 4EX,53.61376100000000,-2.60527000000000
Bistecca,PR7 4HE,53.61121000000000,-2.60484000000000
Corner house cafe,PR7 4HF,53.60986100000000,-2.60518400000000
Oh My Cod,PR7 5BY,53.62180328369140,-2.66149091720581
The Dog and Partridge ,PR7 5ES,53.63482850000000,-2.66467130000000
THE HINDS HEAD,PR7 5HL,53.62461800000000,-2.67921000000000
Burger King,PR7 5LR,53.62996100000000,-2.69264900000000
KFC,PR7 5LR,53.62996100000000,-2.69264900000000
Starbucks (Charnock Richard Northbound),PR7 5LR,53.62996100000000,-2.69264900000000
Starbucks (Charnock Richard Southbound),PR7 5LR,53.62996100000000,-2.69264900000000
The Farmers Arms,PR7 5NP,53.63040900000000,-2.70972800000000
TWO BIRDS TEA ROOM LTD,PR7 5PA,53.63617706298830,-2.71440792083740
The Original Farmers Arms,PR7 5QS,53.64992900000000,-2.73104000000000
Caffe Manna,PR7 5SZ,53.64612200000000,-2.72456000000000
The Elephant,PR7 6EN,53.66243700000000,-2.71983100000000
The Plough ,PR7 6HB,53.67016900000000,-2.70293500000000
Euxton Mills,PR7 6JD,53.65827100000000,-2.67441000000000
Papa Luigis Euxton,PR7 6JH,53.66808900000000,-2.67539900000000
TWENTY SEVEN CHORLEY,PR7 6TE,53.6727,-2.6665
Tiggis Xpress,PR7 7JA,53.67576600000000,-2.65881140000000
Starbucks,PR7 7ND,53.68647130000000,-2.66807920000000
Wigan Golf Club Limited,WN1 2UH,53.5908,-2.6214
The Crown Hotel,WN1 2XF,53.59707900000000,-2.64141600000000
The White Crow,WN1 2XL,53.60717700000000,-2.63219900000000
Ajmeer Manzil Indian Restaurant ,WN6 0HA,53.58584000000000,-2.66354300000000
LAMAMA BAR AND RESTAURANT,WN6 0HA,53.5859,-2.6635
Subway,WN6 0HA,53.58584000000000,-2.66354300000000
Fifteens at Standish,WN6 0HD,53.58450700000000,-2.66069700000000
Asylum ,WN6 0HW,53.5866,-2.6629
Secret garden coffee lounge,WN6 0JH,53.58772400000000,-2.66565600000000
Foresters arms,WN6 0SQ,53.59004000000000,-2.68846000000000
Britannia Wigan Hotel,WN6 0SR,53.58909700000000,-2.68519700000000
DISH BAR & RESTAURANT,WN6 0SS,53.58868500000000,-2.68029500000000
Alberts Bar and Restaurant ,WN6 0TD,53.58582500000000,-2.66629200000000
THE OWLS AT STANDISH,WN6 0XD,53.58833200000000,-2.64669200000000
The Boathouse Pub & Kitchen,WN6 9DA,53.5779,-2.7202
Pesto at the Dicconson Arms,WN6 9DY,53.59051900000000,-2.72462000000000
Wrightington Hotel & Health Club,WN6 9PB,53.59522300000000,-2.70607100000000
The Rigbye Arms,WN6 9QB,53.60172500000000,-2.74696600000000
Costa Coffee,WN6 9RA,53.58840400000000,-2.69320700000000
YM Roof Ltd,WN6 9RB,53.5916,-2.6951
THE PADDOCK COFFEE HOUSE & RESTAURANT,WN6 9RE,53.60143840000000,-2.69804560000000
The White Lion,WN6 9RE,53.59857200000000,-2.69749900000000
Rivaj of India ,WN6 9RN,53.60839900000000,-2.70166600000000
Cornerhouse,WN6 9SE,53.61627600000000,-2.70421600000000
WAYFARER RESTAURANT LTD,WN8 7NL,53.58716200000000,-2.76989800000000
The Stocks Tavern,WN8 7NN,53.58779800000000,-2.76747700000000
Coffee Etc Cafe,WN8 7NU,53.58986700000000,-2.77003700000000
The Windmill Pub,WN8 7NW,53.58796300000000,-2.76971600000000
YOURS IS THE EARTH LTD,WN8 7NW,53.58796300000000,-2.76971500000000
Miller & Carter Parbold,WN8 7TG,53.59083700000000,-2.74446200000000
eden tearoom and galleries,WN8 7UB,53.5871,-2.7907
