name,postcode,lat,lon
Supreme Coffee House,DN14 5DA,53.7038,-0.8728
The coffee lounge,DN14 5DE,53.7042,-0.8729
Razzar's cafe,DN14 5DL,53.7042,-0.8723
Stanleys Bar & Kitchen,DN14 5DR,53.7037,-0.8705
MR NessuNo,DN14 5QE,53.7026,-0.8708
Old Market Cafe ,DN14 6HD,53.7071,-0.8743
WESTFIELD FISHERIES,DN14 6JX,53.7102,-0.8716
Zolsha,DN14 7AB,53.7468,-0.8648
Bowmans Hotel,DN14 7AE,53.7469,-0.8653
The cheese shop,DN14 7BL,53.7456,-0.8664
Bishops Bar And Bistro,DN14 7BP,53.7459,-0.8668
Flourish & Prosper,DN14 7BP,53.7459,-0.8668
The Black Swan,DN14 7HE,53.7445,-0.9147
lorenzos italian,DN14 7HT,53.7498,-0.9581
Wellington Hotel,DN14 7JG,53.7462,-0.8676
Boothferry Golf Club,DN14 7NG,53.7788,-0.8576
Saltmarshe hall,DN14 7RX,53.7063,-0.8168
The Half Moon Inn,DN14 8ET,53.6983,-0.7936
McDonald's,DN14 8JS,53.7050,-0.9143
The Percy Arms,DN14 8LD,53.7161,-0.9057
THE PEPPERED PIG ,DN14 9BY,53.6855,-0.9931
Park Lodge Shooting School,DN14 9ED,53.6843,-1.0174
Odddfellows Hotel bar and grill,DN14 9LY,53.7098,-1.0203
Carlton Towers Events Limited,DN14 9LZ,53.7065,-1.0173
Mulligans Sports Bar,DN15 6AD,53.5939,-0.6487
Cafe Indiependent,DN15 6EH,53.5913,-0.6521
Costa Coffee Scunthorpe,DN15 6HB,53.5918,-0.6482
Klumpe Lithuanian Restaurant,DN15 6LA,53.5897,-0.6533
Pearl city,DN15 6LJ,53.5905,-0.6514
Eltoro Cafe,DN15 6LY,53.5914,-0.6478
All Things Nice Cafe,DN15 6NE,53.5909,-0.6491
Columbia coffee lounge ,DN15 6NE,53.5909,-0.6491
Route 15 American Diner,DN15 6NE,53.5909,-0.6491
Scalinis,DN15 6NE,53.5909,-0.6491
Colosseo Limited,DN15 6NJ,53.5906,-0.6485
Uppercrust Scunthorpe Limited,DN15 6NJ,53.5906,-0.6485
Cafe jazz,DN15 6RA,53.5914,-0.6463
Starbucks,DN15 6SA,53.5922,-0.6464
Curtis of Lincoln,DN15 6SD,53.5923,-0.6457
Sarah's Family Dining,DN15 6SU,53.5918,-0.6444
SAn Pietro Restaurant,DN15 6UH,53.5909,-0.6398
Rahmans Restaurant,DN15 7JR,53.5935,-0.6550
LASUN FINE DINNING,DN15 7JT,53.5926,-0.6549
The Well,DN15 7JW,53.5927,-0.6543
Lucio's Restaurant,DN15 7PQ,53.5892,-0.6535
Dine Bangla ,DN15 7PT,53.5903,-0.6537
The Light ,DN15 7PU,53.5903,-0.6545
Jubraj Ltd,DN15 7RA,53.5906,-0.6557
Imperial Cantonese Restaurant,DN15 7RD,53.5906,-0.6571
Megna Restaurant ,DN15 7RD,53.5906,-0.6571
Noble Inn Chinese,DN15 7RD,53.5906,-0.6571
Gills vintage tearoom LTD,DN15 7RG,53.5904,-0.6585
Peaky Blinder,DN15 7RN,53.5932,-0.6613
42 Apart Hotel,DN15 7RQ,53.5909,-0.6580
McDonald's,DN15 8TD,53.5867,-0.6960
KFC,DN15 8TE,53.5890,-0.6949
Normanby Arms Pub,DN15 9HU,53.6389,-0.6600
Normanby Hall Golf Club,DN15 9HU,53.6389,-0.6600
Stableyard Caf√©,DN15 9HU,53.6389,-0.6600
Wortley House Hotel,DN16 1SU,53.5849,-0.6481
Take a gander ,DN17 3NA,53.5759,-0.7363
Ingleby Arms,DN17 4AJ,53.6176,-0.7050
Lakeside Bar and Restaurant,DN17 4BQ,53.5930,-0.8211
Hirst Priory Ltd,DN17 4BU,53.5814,-0.8199
The Red Lion,DN17 4NE,53.6096,-0.8351
Kingswood Catering ,DN7 6EP,53.5939,-0.9791
Hatfield Outdoor Activity Centre,DN7 6EQ,53.5830,-0.9881
INGRAM ARMS PUBLIC HOUSE,DN7 6RS,53.5781,-0.9961
the Bay Horse Inn,DN7 6RS,53.5781,-0.9961
Punchbowl Inn,DN8 4BE,53.6144,-0.9693
BMW Thorne,DN8 4HT,53.6208,-0.9718
Bliss coffee shop,DN8 5DG,53.6110,-0.9616
Canal Tavern,DN8 5DZ,53.6090,-0.9636
Thorne Golf Club,DN8 5RJ,53.6053,-0.9721
McDonald's,DN8 5UG,53.6171,-0.9779
The West End Cafe ,HU15 2EY,53.7655,-0.6155
William's Den ,HU15 2LS,53.7884,-0.6251
The kings arms ,HU15 2QS,53.7629,-0.6988
Asham Balti Restaurant,HU15 2RG,53.7622,-0.6994
Gilberdyke Garden Centre,HU15 2UJ,53.7534,-0.7309
The White Horse Inn,HU15 2UP,53.7569,-0.7232
The Hotham Arms,YO43 4UD,53.7966,-0.6443
Drax Sports and Social Club,YO8 8PJ,53.7291,-0.9947
