name,postcode,lat,lon
Subway,BD1 1HA,53.794079000000000,-1.751278000000000
Starbucks Bradford Centenary Square,BD1 1HY,53.792311620000000,-1.753277030000000
Subway,BD1 1JD,53.793146000000000,-1.752209000000000
Yangtze Bradford,BD1 1JR,53.793903000000000,-1.748668000000000
The Avenue Restaurant,BD1 1JX,53.792216000000000,-1.750499699000000
The Cake'ole Bradford,BD1 1LA,53.791765200000000,-1.754175828000000
The Ginger Goose,BD1 1LH,53.793786000000000,-1.752722000000000
69 Market Street Limited,BD1 1NE,53.793397500000000,-1.752466116000000
The City Vaults,BD1 1NS,53.794494090000000,-1.752490027000000
Tiffin Coffee,BD1 1PR,53.794143810000000,-1.752735000000000
Geek Retreat,BD1 1PU,53.793939000000000,-1.752903000000000
D&H Taylor t/as McDonald's,BD1 1PZ,53.794363440000000,-1.754524984000000
Griller,BD1 1QB,53.794880470000000,-1.752442213000000
Bees Cafe Limited,BD1 1SQ,53.793796650000000,-1.754467000000000
FRANKIE'S BROADWAY,BD1 1US,53.794256000000000,-1.749911000000000
KFC,BD1 1US,53.794256000000000,-1.749911000000000
Little Lotus Bradford,BD1 1US,53.794256000000000,-1.749911000000000
Taco Bell,BD1 1US,53.794256000000000,-1.749911000000000
Tiffin Coffee Grande,BD1 1US,53.794256000000000,-1.749911000000000
Drakes,BD1 2AZ,53.793338020000000,-1.754136281000000
My Thai Cafe,BD1 2AZ,53.793338020000000,-1.754136281000000
the deli,BD1 2BX,53.792761520000000,-1.757934632000000
The Great Turka LTD,BD1 2DG,53.793321360000000,-1.759221723000000
The Lord Clyde,BD1 2DG,53.793321360000000,-1.759221723000000
Junoon cafe limited,BD1 2HS,53.795126010000000,-1.762885000000000
Subway Westgate,BD1 2QL,53.794348470000000,-1.755997580000000
Zaffran,BD1 2RN,53.797207550000000,-1.760915002000000
NOODLE K8 LTD,BD1 3JH,53.797568320000000,-1.757056809000000
The Record Cafe,BD1 3JH,53.797568320000000,-1.757056809000000
Rum Shack A Lack,BD1 3JL,53.796749280000000,-1.756393000000000
Fountains Coffee House Limited,BD1 3JS,53.796112460000000,-1.757156301000000
Fish dish,BD1 3PZ,53.795652540000000,-1.756399906000000
Smorgasbord Coffee Bar,BD1 3QQ,53.795938270000000,-1.755472206000000
Northgate bistro,BD1 3SN,53.796354740000000,-1.756957547000000
Andie's African Kitchen,BD1 3SR,53.796374580000000,-1.757883487000000
Napoleons Casino,BD1 4DR,53.796877230000000,-1.748802107000000
intouch cafe/diner,BD1 4HP,53.796196000000000,-1.753436000000000
The Midland Hotel,BD1 4HU,53.795607360000000,-1.751891422000000
Tres Marias at Son Filipino Restobar,BD1 4PB,53.796465110000000,-1.753784024000000
The Rooftop Cafe ,BD1 4TY,53.795277320000000,-1.748781296000000
BITE BURGER,BD1 5AY,53.792317000000000,-1.746977000000000
Cafe Jinnah LLP,BD1 5BL,53.793363000000000,-1.743858143000000
Samchai Ltd. Trading As Bangkok Thai Restaurant,BD1 5EE,53.793837630000000,-1.744570000000000
Jacobs Well,BD1 5RL,53.790676550000000,-1.753635735000000
AZUMA BUFFET AND RESTAURANT,BD1 5SH,53.791948630000000,-1.751594218000000
The Bradford Hotel,BD1 5SH,53.791948630000000,-1.751594218000000
Prashad,BD11 1AT,53.754597680000000,-1.667535916000000
Amico Espresso & Cafe Bar,BD11 1BB,53.755180670000000,-1.667091490000000
The Railway,BD11 1JJ,53.748485880000000,-1.664339035000000
THE SPOTTED COW,BD11 1LJ,53.757651870000000,-1.660489354000000
Grand Cru Restaurant,BD11 2AQ,53.752853630000000,-1.694438230000000
C & J Ives Hay Loft Cafe,BD11 2DU,53.745885550000000,-1.700644943000000
Cafe Fresco,BD11 2EQ,53.747577590000000,-1.690412000000000
E & J Catering Services,BD11 2EQ,53.747577590000000,-1.690412000000000
The Golden Fleece,BD11 2EQ,53.747577590000000,-1.690412000000000
Ella’s Thai kitchen,BD11 2LA,53.750286000000000,-1.688241877000000
staceys kitchen,BD12 0HS,53.754736250000000,-1.759442200000000
Pop-in cafe & deli,BD12 0QP,53.750654480000000,-1.763090000000000
The Royal Low Moor ,BD12 0RR,53.751089870000000,-1.765377320000000
Guide Post Hotel,BD12 0ST,53.755699000000000,-1.763835000000000
Bostock & crowther,BD12 7DT,53.746918470000000,-1.738819088000000
Rendezvous Deli Bar & Tea Room,BD12 8AD,53.743121560000000,-1.767483695000000
FRATELLO'S LIMITED,BD12 9NT,53.740184430000000,-1.768500513000000
The Old Dolphin ,BD13 1DR,53.771154690000000,-1.825468562000000
THE QUEENS HEAD,BD13 1NA,53.778123000000000,-1.868960000000000
Ring o Bells,BD13 2AD,53.767670580000000,-1.847769000000000
Da Rocchio Ristorante Italiano ,BD13 3AS,53.790988750000000,-1.830031224000000
Manzil Restaurant ,BD13 3EP,53.791033160000000,-1.849870368000000
Headley Venue & Golf Club,BD13 3LX,53.786266570000000,-1.847519656000000
Ring O Bells Inn Thornton,BD13 3QL,53.794663860000000,-1.864628141000000
WHITE HORSE INN,BD13 3SJ,53.792969200000000,-1.876899000000000
Emilys Eatery ,BD13 4EN,53.795449000000000,-1.893135000000000
Blend Cafe Bar,BD19 3HW,53.724123030000000,-1.714212000000000
The Surf Shack Cleckheaton,BD19 3JD,53.724712950000000,-1.713040795000000
Aakash Restaurant,BD19 3PN,53.727453000000000,-1.712249000000000
Millers Coffee House/Tea At Three,BD19 3RT,53.723749890000000,-1.712486607000000
Aldo's Restaurant,BD19 3RU,53.723434550000000,-1.712170502000000
savile arms,BD19 4DX,53.739791330000000,-1.715288117000000
The Bull's Head,BD19 4HX,53.722735590000000,-1.684426972000000
The Wheatsheaf,BD19 4JQ,53.723421570000000,-1.692453977000000
Gomersal Park Hotel,BD19 4LJ,53.739400370000000,-1.681345910000000
Sam's Gin Bar,BD19 5AE,53.724561420000000,-1.713572263000000
The taste coffee shop ltd,BD19 5AE,53.724561420000000,-1.713572263000000
Marsh Hotel,BD19 5BJ,53.721288140000000,-1.709169459000000
Tappinos Limited,BD19 5ET,53.723017800000000,-1.714552651000000
The Rose and Crown,BD19 5ET,53.723017800000000,-1.714552651000000
Ribbon Tree Communitea Room,BD19 5EY,53.723040670000000,-1.716189000000000
The Rooftop Barbecue Garden LTD,BD3 0RP,53.799087253806100,-1.742291128901880
Cafe de Akbar,BD3 7AE,53.797772180000000,-1.710280000000000
Aagrah Midpoint,BD3 7AY,53.798675000000000,-1.704885000000000
Habibs Restaurant,BD3 7JD,53.799043140000000,-1.720261810000000
icestone gelato,BD3 8DG,53.793734300000000,-1.717914000000000
berries bagels & Shakes,BD3 8DS,53.794582510000000,-1.719152919000000
spuddys ltd ,BD3 8EZ,53.792233480000000,-1.725240000000000
Akbar's Restaurant,BD3 8LF,53.794662010000000,-1.714750005000000
BABTOOMA GRANDE,BD3 8LF,53.794662010000000,-1.714750005000000
LA CREPE HOUSE,BD3 8LF,53.794662010000000,-1.714750005000000
mi chaii,BD3 8LF,53.794662010000000,-1.714750005000000
Fusion Foods BFD Ltd t/a eastZeast,BD3 8ND,53.796265620000000,-1.712553040000000
Cafe Patisserie,BD3 9AA,53.796912170000000,-1.744065292000000
Rawal Halal Chinese ltd,BD3 9DB,53.797223910000000,-1.734483839000000
STEAK HUT TAKEAWAY LTD,BD3 9DB,53.797223910000000,-1.734483839000000
rawal kebab and sweet house,BD3 9DB,53.797223910000000,-1.734483839000000
DIRILIS YORKSHIRE LTD,BD3 9LY,53.792435720000000,-1.731523623000000
Vanilla Rooms,BD3 9QX,53.792587140000000,-1.738627000000000
Pasha,BD3 9RA,53.792188990000000,-1.737824786000000
mughal restaurant and sweet centre,BD3 9TY,53.792090710000000,-1.729977495000000
Bollywood Brasserie,BD4 0RP,53.770951370000000,-1.666193000000000
Tong Garden Centre,BD4 0RY,53.762218000000000,-1.676592000000000
The 6 Acres,BD4 0SF,53.761879070000000,-1.684573715000000
Top of the range cafe,BD4 6LY,53.767911430000000,-1.710061311000000
Campanile Bradford,BD4 6SA,53.755136830000000,-1.740330295000000
KFC,BD4 6SX,53.764793140000000,-1.713921000000000
HQ cafe,BD4 7BA,53.789585930000000,-1.747828643000000
McDonald's Restaurant,BD4 7SE,53.774366300000000,-1.729954594000000
Gap Cafe,BD4 8JH,53.790986400000000,-1.711192603000000
The Three Singhs Restaurant & Bar,BD4 8RN,53.780900070000000,-1.721854413000000
CHARLIES CAFE,BD4 8SF,53.787809240000000,-1.740494000000000
Subway,BD4 9PZ,53.772678260000000,-1.722940000000000
babtooma lts,BD5 0AX,53.790274160000000,-1.758890000000000
LISTER ARMS SUBWAY,BD5 7JX,53.782199550000000,-1.757403488000000
Sugar Snap Kitchen Ltd,BD5 8HB,53.770271770000000,-1.748338752000000
Cedar Court Hotel Bradford,BD5 8HW,53.771369480000000,-1.753232818000000
TAFZALHSHAH LTD,BD5 8JY,53.768814170000000,-1.747604066000000
P F HOLDINGS UK LTD T/A PEARLS TEA ROOM ,BD6 1DA,53.767990770000000,-1.753616714000000
KFC,BD6 1PR,53.765297510000000,-1.764130120000000
Saltys Fish and Chips,BD6 1TB,53.767063620000000,-1.780701758000000
Aunty Wainwright's Kitchen,BD6 1UL,53.765724300000000,-1.775778423000000
Mangosteen,BD6 2EA,53.758479530000000,-1.795686467000000
The Kashmir Restaurant,BD7 1AG,53.790337930000000,-1.759618000000000
Cafe Liza,BD7 1AH,53.791402000000000,-1.757748000000000
LEGENDS DESSERTS BURGERS (BFD) LTD,BD7 1AL,53.791487530000000,-1.758853000000000
Mylahore,BD7 1AL,53.791487530000000,-1.758853000000000
OMARS BALTI HOUSE,BD7 1AL,53.791487530000000,-1.758853000000000
Subway Great Horton Rd,BD7 1AZ,53.790631370000000,-1.762439913000000
friesday limited,BD7 1AZ,53.790631370000000,-1.762439913000000
H kitchen ,BD7 1BA,53.790414040000000,-1.761621469000000
Just coffee,BD7 1BA,53.790414040000000,-1.761621469000000
Subway ,BD7 1ND,53.792467510000000,-1.773070605000000
MUMBAI BITES,BD7 1NX,53.790764210000000,-1.770666293000000
Manjaros,BD7 1PS,53.789267680000000,-1.768306574000000
Shimlas Restaurant,BD7 1PS,53.789267680000000,-1.768306574000000
Bigfellas (Bradford) ltd,BD7 1PU,53.788365460000000,-1.771210603000000
Heavenly Desserts ,BD7 1PU,53.788365460000000,-1.771210603000000
icestone gelato,BD7 1PU,53.788365460000000,-1.771210603000000
rajas,BD7 1PU,53.788365460000000,-1.771210603000000
berries bagels & Shakes,BD7 1QG,53.788139000000000,-1.769859057000000
mi chaii,BD7 1QG,53.788139000000000,-1.769859057000000
Food City,BD7 1QJ,53.787031950000000,-1.774223065000000
Mr T's,BD7 1QJ,53.787031950000000,-1.774223065000000
Mylahore,BD7 1QJ,53.787031950000000,-1.774223065000000
SPRINGS,BD7 1RD,53.789103810000000,-1.767229795000000
Ambala The Spice Lounge,BD7 1RP,53.787415370000000,-1.772596963000000
Anams Restaurant,BD7 1RP,53.787415370000000,-1.772596963000000
Insane Air ,BD7 2BR,53.784462000000000,-1.783798000000000
Food2go express clayton ltd,BD7 2SQ,53.783136120000000,-1.803550000000000
Bharat Restaurant Bar & Grill,BD7 3HR,53.784416910000000,-1.779306176000000
Mumtaz,BD7 3HS,53.785554360000000,-1.777129857000000
Peri Fusion,BD7 4EG,53.779719110000000,-1.785886488000000
Subway,BD8 9AP,53.797414000000000,-1.783930210000000
TAFZALHSHAH LTD,BD8 9AP,53.797414000000000,-1.783930210000000
Aleysha Bower T/A Mamma Leeshas Soul Kitchen,BD8 9BS,53.799217990000000,-1.782842000000000
Yam spice foods ,BD8 9BS,53.799217990000000,-1.782842000000000
heavenly desserts,HD1 1BG,53.647785300811200,-1.782303649781950
pepes peri peri,HD1 1BG,53.647785300811200,-1.782303649781950
icestone gelato,HD1 1BR,53.647282871674400,-1.782805446016020
Keys Kitchen and Coffee House,HD1 1BU,53.647351003829400,-1.780915000000000
Zephyr Bar And Kitchen,HD1 1BX,53.647307857723100,-1.781716127953340
Coffeevolution,HD1 1DD,53.647569228689700,-1.782108100788870
Meson la Pepa ,HD1 1DG,53.647658669691300,-1.781865596085860
TJ THAI JAPANESE RESTAURANT,HD1 1DG,53.647658669691300,-1.781865596085860
Lost property coffee shop and kitchen ,HD1 1EH,53.648990860661400,-1.782932834016510
hotplate (Yorkshire) Ltd t/a chilli lounge ,HD1 1EH,53.648990860661400,-1.782932834016510
EPHESUS RESTAURANT ,HD1 1ER,53.648297898138500,-1.782559000000000
Botafogo ,HD1 1ES,53.648236000000000,-1.782664000000000
LALA'S RESTAURANT,HD1 1EX,53.647930673462300,-1.783165189940920
The Head of Steam,HD1 1JB,53.648409498636200,-1.784524259238960
Arcade Coffee and Food,HD1 1ND,53.647166710716800,-1.783063000000000
MED-ONE LTD,HD1 1NN,53.647094723672800,-1.783139217939570
Nawaab,HD1 1NY,53.646828756962200,-1.785062000000000
Mc Noodle King,HD1 1QH,53.646732066841000,-1.781416549188940
Merrie England Coffee Shops Ltd,HD1 1QH,53.646732066841000,-1.781416549188940
McDonald's Restaurant,HD1 1QJ,53.647011800326700,-1.782020205602620
Parish,HD1 1QQ,53.646928091628600,-1.780477631666790
SAN VITO ITALIAN RESTAURANT,HD1 1QT,53.647267779788100,-1.779462318893680
Cafe Ollo,HD1 1RL,53.649284000000000,-1.780465000000000
Subway,HD1 2AN,53.646635535169100,-1.782702876424200
KFC NEW STREET 02022,HD1 2AX,53.646095397010300,-1.782236706427730
Merrie England Coffee Shops Ltd,HD1 2BW,53.644830154676400,-1.783392849338890
Hart Bar,HD1 2DX,53.645801063184200,-1.783493769940390
WIMPY,HD1 2DX,53.645801063184200,-1.783493769940390
Coffee Cup,HD1 2EG,53.646106741268200,-1.783537587814650
CAFFE VENECIA LIMITED,HD1 2HL,53.645191615414900,-1.784465007816340
cafe express,HD1 2JL,53.646606000000000,-1.785849000000000
Koffee,HD1 2LR,53.644922270763600,-1.784632774051840
chickenhut (hudd) LTD,HD1 2PT,53.646586626221500,-1.780524785027270
88 NOODLE BAR,HD1 2PY,53.646335650676300,-1.780904268802300
Malaika Huddersfield Ltd,HD1 2PY,53.646335650676300,-1.780904268802300
Cafe Mandalay,HD1 2PZ,53.645912932483700,-1.780755185797410
The Chinese Buffet,HD1 2PZ,53.645912932483700,-1.780755185797410
Bagel Nash Huddersfield,HD1 2QB,53.645911000000000,-1.779106000000000
Eat Like a Greek,HD1 2QB,53.645911000000000,-1.779106000000000
Kingsgate Shopping Centre ,HD1 2QB,53.645911000000000,-1.779106000000000
Little Lotus Huddersfield,HD1 2QB,53.645911000000000,-1.779106000000000
Choosy's Tea & Coffee House,HD1 2QD,53.645951642034000,-1.782267700404430
Northern Tea House,HD1 2QT,53.645515708453800,-1.779804242827120
Merrie England Coffee Shops Ltd,HD1 2RT,53.646282688451200,-1.781433997434500
Peters fashions limited,HD1 2RT,53.646282688451200,-1.781433997434500
Humpit ,HD1 2SP,53.644527542750600,-1.780096790144270
Pan Asian Street Food,HD1 2SQ,53.645399723344300,-1.780273781860900
Rockcafe,HD1 2SX,53.644434000000000,-1.782199188601560
The People's Meeple Board Game Cafe,HD1 2TW,53.643868179360400,-1.783261634761330
Wrapik Fast Food,HD1 2UJ,53.643541449151500,-1.781523784647980
MANJAROS,HD1 3BB,53.639793482955800,-1.781588503508930
Centre Coffee Shop,HD1 3LG,53.640230000000000,-1.793868000000000
H&Z FOOD LTD /TRADE AS  QFC,HD1 4DA,53.646840365487600,-1.786650094000380
KABANA1 LTD ,HD1 4DN,53.647719148544300,-1.790578887105080
The Peppercorn,HD1 4DN,53.647719148544300,-1.790578887105080
CHAIIWALA (HUDDERSFIELD),HD1 4EN,53.647007736625900,-1.789810903475670
Cafe In The Park,HD1 4HS,53.649190660656400,-1.799603204336150
Marsh Cafe,HD1 4LE,53.651723749800600,-1.804084584832900
Playworld Huddersfield Ltd,HD1 4LF,53.651513159631500,-1.807247549007320
The Croppers Arms,HD1 4LF,53.651513159631500,-1.807247549007320
KFC MARSH 02004,HD1 4LG,53.651242858478200,-1.806840296089920
MARHABA,HD1 5AY,53.650441000000000,-1.784242000000000
Thai Sakon Restaurant,HD1 5AY,53.650441000000000,-1.784242000000000
The Scullery kitchen and bar Ltd,HD1 5BZ,53.651159000000000,-1.788338000000000
Mother Hubbards ,HD1 6DZ,53.655569500229000,-1.782535948055600
Barni's,HD1 6EF,53.657341000000000,-1.782648000000000
Shama Balti Ltd,HD1 6LJ,53.659296615295500,-1.780897671718260
HELLO CAKES LIMITED,HD1 6LQ,53.661362991947500,-1.780402722646740
Burger King,HD1 6PF,53.657870013517300,-1.767907170635390
Starbucks Huddersfield Leeds Rd Retail Park,HD1 6PF,53.657870013517300,-1.767907170635390
Subway,HD1 6PF,53.657870013517300,-1.767907170635390
GC's Cafe Limited,HD2 1GQ,53.680025000000000,-1.762366000000000
Old post office cafe,HD2 1XE,53.680842705196200,-1.741044398773090
KFC LEEDS RD 02024,HD2 1YJ,53.661256000000000,-1.761321000000000
McDonalds Restaurants,HD2 1YJ,53.661256000000000,-1.761321000000000
Huddersfield Golf Club Limited,HD2 2EP,53.671582033060300,-1.800692876981200
Mumbai spice restaurant,HD2 2LL,53.671204283331900,-1.779988345754250
SHEPHERDS ARMS,HD2 2NB,53.668562436847100,-1.790400006159410
Sharans Deli.com,HD2 2QA,53.662292000000000,-1.781413768552770
The old wire works,HD3 3DZ,53.654658365396700,-1.818338832795000
Raffertys of Lindley,HD3 3HD,53.653507495079000,-1.817739000000000
Manor House Lindley,HD3 3JB,53.659788565887800,-1.822977492200800
Lindley’s Cafe,HD3 3JF,53.660517695901100,-1.823715927073250
Eric's Restaurant,HD3 3JP,53.661156008121300,-1.823819195688780
AJs Kitchen and Bar,HD3 3JR,53.661822105263600,-1.824482266188160
Lindleypub company ltd,HD3 3JR,53.661822105263600,-1.824482266188160
Birchencliffe Garden Centre,HD3 3NJ,53.665063000000000,-1.821457000000000
DA SANDRO RESTAURANT,HD3 3NT,53.666143343306700,-1.823071975615580
Cedar Court Hotel Huddersfield,HD3 3RH,53.670746000000000,-1.829334000000000
WAPPY SPRING INN ,HD3 3TD,53.665229403839000,-1.844596403551830
The white swan,HD3 3YJ,53.658877000000000,-1.868346000000000
Merrie England Coffee Shops Ltd,HD3 4BU,53.654054765898600,-1.823425117658650
JILL'S CAFE,HD3 4HY,53.640369935533100,-1.826295466772840
thirsty gardener cafe,HD3 4QA,53.639884000000000,-1.838050000000000
Guest Dining ,HD4 6BS,53.612206254241900,-1.750790334551040
Grappolo,HD4 6EJ,53.632805570315200,-1.794539119983210
Flavours trap kitchen ,HD4 6EL,53.632510125905900,-1.795221058733370
Rose & Crown ,HD4 6XU,53.590335871170800,-1.751568000000000
Bulls Head Bistro,HD4 7AE,53.626609429683600,-1.826608935998560
The sands House,HD4 7AE,53.626609429683600,-1.826608935998560
Neil Hirst Contract Catering,HD4 7AF,53.624640000000000,-1.831319000000000
Hinchliffes Partnership LLP ,HD4 7LE,53.609815815674700,-1.801784000000000
LAXMI Restaurant ,HD4 7NE,53.619622009446000,-1.795812479784660
McDonald's Restaurant,HD5 0AN,53.645273672754100,-1.731868000000000
Blacksmiths Arms,HD5 0PH,53.663971598434000,-1.720883809634270
The Royal & Anicent ,HD5 0RE,53.675372861638100,-1.734629248999670
Royal City Cantoness Restaurant ,HD5 8AA,53.644601895621800,-1.762352000000000
ivy green,HD5 8DE,53.645730000000000,-1.759639000000000
T&Cake,HD5 8RX,53.633877602986700,-1.748651236169170
Subway Molgreen,HD5 9AB,53.643449864928500,-1.770981255729800
CoffeeBoy,HD5 9BD,53.642396000000000,-1.764436008006110
icicles huddersfield ltd,HD5 9XP,53.645188564860000,-1.737496000000000
The Office,HD6 1AB,53.702060675117100,-1.780039700110090
Merrie England Coffee Shops Ltd,HD6 1AF,53.702079843800900,-1.780690932974020
Villain bar ,HD6 1AQ,53.702278880082600,-1.781401824579490
The Edge cafe and Play Gym,HD6 1AT,53.703107432115600,-1.782549000000000
The Millers Bar,HD6 1EB,53.701443819995300,-1.781860557883110
The Golden Hind,HD6 1EP,53.700377000000000,-1.783048064222150
Meze Restaurant ,HD6 1JR,53.701028852392600,-1.781029621886900
No.43 The Coffee House,HD6 1JR,53.701028852392600,-1.781029621886900
The Secret Tearooms,HD6 1JR,53.701028852392600,-1.781029621886900
Blakeleys ,HD6 1NE,53.700901000000000,-1.780896000000000
Fratellis Caffe Bar,HD6 1NX,53.702767746700800,-1.778415232987440
Bellini’s Italian Restaurant Limited,HD6 1PD,53.701820688105900,-1.777148000000000
Subway Brighouse,HD6 1PE,53.702076461075400,-1.774223000000000
Jeremys at the boathouse,HD6 1PP,53.700824002401100,-1.776956000000000
Brook's Restaurant,HD6 1RW,53.702176351264700,-1.779402910772010
Lane Head Hotel,HD6 2AL,53.704738625342100,-1.789781209224780
Bella Pizza,HD6 2DR,53.706332797593600,-1.786546579891840
Crow Nest Park Golf Club Ltd,HD6 2LN,53.717184790601700,-1.793598323545200
The Dusty Miller,HD6 2PB,53.714971229808800,-1.802806347575520
Enchanted wood Cafe,HD6 2QD,53.710663681435400,-1.796084558133800
Big Shots Cafe,HD6 4AH,53.708919000000000,-1.779731000000000
Thaal,HD6 4AS,53.709531750343900,-1.781106727729400
McDonald's Restaurant,HD6 4BT,53.717939526363800,-1.778335594594270
Verity's at the Bridge,HD6 4DN,53.722009241058300,-1.777314027182980
Big Baps at J25,HD6 4HA,53.693452172780900,-1.744813725716650
The Black Horse Inn,HD6 4HJ,53.699549024413600,-1.754818931940970
The Weavers Shed Restuarant,HD7 4AN,53.637993266281900,-1.850141095859620
The Golcar Lily Pub and Restaurant,HD7 4JR,53.635678139981200,-1.868751138157080
Bolster Moor Coffee Shop,HD7 4JU,53.635905386223400,-1.871094582378420
Scape house inn,HD7 4NJ,53.644216089234500,-1.867983485725690
The Haveli Restaurant LTD,HD7 4QA,53.639295439787700,-1.856579633030950
Destination ,HD7 5AB,53.623599146332300,-1.878389191121320
Om Is Where The Heart Is ,HD7 5AG,53.624183715986100,-1.878720139912990
The Cookhouse Cafe,HD7 5AW,53.622947000000000,-1.881687636312220
ASHBY'S DELI CAFE LIMITED,HD7 5HF,53.621552474323300,-1.881025663567930
The Little Bridge,HD7 5HF,53.621552474323300,-1.881025663567930
Monsoon Tandoori,HD7 5HG,53.621543095645800,-1.880632611479400
Rose and crown ,HD7 5XA,53.618811883346200,-1.913475339818700
The New Inn,HD7 6EZ,53.600115958938700,-1.926237000000000
Harveys Bar & Kitchen,HD8 0AS,53.635976033652900,-1.725953380782400
Woodsome Hall Golf Club Ltd,HD8 0LQ,53.625594285196700,-1.721907966416400
315 Bar and Restaurant,HD8 0LX,53.632339818913200,-1.690681454744630
THE WOODMAN INN,HD8 0PX,53.599372295051300,-1.716700700492170
Dearne Lea Tea Room,HD8 8LJ,53.597328446714500,-1.686434313268750
The Three Acres Inn & Restaurant,HD8 8LR,53.607996000000000,-1.675277000000000
The Foresters Arms,HD8 8PH,53.581787702724900,-1.666490765479010
The Coffee Mill and Cakes,HD8 9AA,53.591332101865100,-1.653407961067150
VALENTINOS SCISSETT,HD8 9HR,53.590361668975000,-1.623729958431840
Kirklees Light Railway (The Buffer Stop Cafe),HD8 9XJ,53.596890000000000,-1.612929000000000
Cider Press Café,HD9 3TD,53.586742934180400,-1.790608156475530
Liesl’s Kitchen,HD9 4AP,53.597453000000000,-1.833467000000000
Pink Elephant ,HD9 4ES,53.591362774726800,-1.850547561680990
H Lounge,HD9 5NX,53.593071666402300,-1.851448036586260
Wills O Nats,HD9 5PS,53.605223000000000,-1.865097000000000
Cafe Plus,HD9 6AA,53.603608612391100,-1.792716097099860
SAVARO BAR AND KITCHEN LTD,HD9 6AH,53.604455000000000,-1.792727000000000
The Foresters Arms,HD9 6DW,53.600836166844300,-1.795585636498480
Aneeka Ltd t/a Blue Tiger ,HD9 6EE,53.598259837457000,-1.797532150932940
Jacobs Well,HD9 6PU,53.603330691119900,-1.787987426392460
The Travellers Rest,HD9 7AZ,53.598736295806000,-1.777312324966400
Cinnamon,HX1 1DJ,53.721468075848900,-1.859149713095680
Delicious Coffee Shop,HX1 1DJ,53.721468075848900,-1.859149713095680
La Luna cafebar diner ,HX1 1DJ,53.721468075848900,-1.859149713095680
THE GATE CAFE BAR,HX1 1DJ,53.721468075848900,-1.859149713095680
BROWNS CAFE,HX1 1DL,53.722116048521300,-1.859859811224420
Merrie England Coffee Shops Ltd,HX1 1DL,53.722116048521300,-1.859859811224420
Adams cafe halifax,HX1 1DZ,53.722447985824600,-1.859328299771450
Borough Kitchen,HX1 1DZ,53.722447985824600,-1.859328299771450
Top Door Espresso,HX1 1DZ,53.722447985824600,-1.859328299771450
KFC HALIFAX 02011,HX1 1HA,53.722083110541300,-1.862466484050560
E.T. Harvey Ltd.,HX1 1LJ,53.721794901775700,-1.861952175184880
Alibi Halifax,HX1 1NH,53.721895000000000,-1.862467684077930
Deli indulge ,HX1 1NH,53.721895000000000,-1.862467684077930
Meandering Bear,HX1 1PR,53.721459000000000,-1.858150263163510
Pride & Provenance,HX1 1QE,53.721223000000000,-1.856362000000000
Blondins Ice Cream Parlour,HX1 1RE,53.721881000000000,-1.857451000000000
The Deli,HX1 1RE,53.721881000000000,-1.857451000000000
The Trading Rooms,HX1 1RE,53.721881000000000,-1.857451000000000
COFFEE AT NO1,HX1 1RU,53.723417034686200,-1.857915664329500
Wool Merchant Hotel,HX1 1SP,53.725299702491200,-1.853893096447470
Little Lotus Halifax,HX1 1TH,53.723060446246900,-1.860023000000000
McDonald's Restaurant,HX1 1TN,53.723339000000000,-1.859689000000000
Subway,HX1 1TN,53.723339000000000,-1.859689000000000
Julio's Italian Restaurant Limited ,HX1 1TS,53.723734813469900,-1.860264000000000
Cafe Sol Diner Ltd,HX1 1TT,53.723204835308900,-1.860917037150900
RICCI'S PLACE,HX1 1UG,53.723887873819300,-1.860869322347450
Jamocha Coffee Lounge ,HX1 1UR,53.724003502013900,-1.859823237450250
Kashmiri Aroma (Halifax) LLP,HX1 1YA,53.723916497682400,-1.862188000000000
Café Passion,HX1 2JF,53.719734092603000,-1.860080000000000
Sagra restaurant,HX1 2SB,53.721134000000000,-1.864818000000000
Whats 4 Dessert,HX1 3JL,53.714939951165500,-1.881550792547870
Pollino,HX1 3SU,53.715693000000000,-1.887383144893920
McDonald's Restaurant,HX1 4JT,53.723105633864600,-1.886210732575890
SPICY WAVES,HX1 4NJ,53.724817898057200,-1.881598873533220
La Tradizione Italian Pizzeria,HX1 5AB,53.721923103593800,-1.864027906368830
delhi wala food,HX1 5AB,53.721923103593800,-1.864027906368830
PAX,HX1 5AE,53.722085709988600,-1.864754795963040
Long Can Hall Halifax Ltd,HX2 0TQ,53.736296460424700,-1.902502022335570
The Secret Cafe,HX2 6EQ,53.713069000000000,-1.938161000000000
Wainhouse Tavern,HX2 7DR,53.712707000000000,-1.885738237604470
Maypole Inn,HX2 7RZ,53.720000896125700,-1.914010950624110
The Winterburn ,HX2 7SQ,53.719025490697400,-1.920240953300560
The Crossroads Inn,HX2 7TB,53.747658822060300,-1.930513346482230
Airtime Halifax,HX2 8DB,53.742385000000000,-1.885537000000000
Mags Cafe,HX2 8DB,53.742385000000000,-1.885537000000000
The Moorlands Inn,HX2 8XD,53.769451074393800,-1.899800760647590
HOLDSWORTH HOUSE HOTEL,HX2 9TG,53.757745000000000,-1.875317212476140
Gower Furniture Staff Canteen ,HX2 9TN,53.758272000000000,-1.872177000000000
McDonald's Restaurant,HX3 0QE,53.703153000000000,-1.853197000000000
The Murgatroyd Arms,HX3 0RX,53.702526474674300,-1.863741924974660
Next Level Bar Ltd,HX3 5AX,53.728243000000000,-1.863977000000000
Stod Fold Tap,HX3 5AX,53.728243000000000,-1.863977000000000
TRUE NORTH RESTAURANT,HX3 5AX,53.728243000000000,-1.863977000000000
Thai Corner Dean Clough,HX3 5AX,53.728243000000000,-1.863977000000000
the mill bar and kitchen,HX3 5AX,53.728243000000000,-1.863977000000000
KFC HALEY HILL 02030,HX3 6AD,53.727766327589200,-1.857128048156690
The Prospect Pub & Dining,HX3 6JR,53.732136501063500,-1.858795802447670
Five Food ,HX3 6SN,53.752602000000000,-1.873619376626770
Coffee Culture (Mereside) Ltd,HX3 6XG,53.730689000000000,-1.843355000000000
Stump Cross Inn,HX3 7AY,53.736014045514300,-1.840227662301700
22 The Square LTD,HX3 7HW,53.740131535374700,-1.827916551785130
Bar 22 & Smokehouse LTD,HX3 7HY,53.742259618144700,-1.826467509273880
The Duke of York,HX3 7LN,53.747962348776800,-1.823259657726100
The Bottomley’s Arms ,HX3 7NU,53.752958274883500,-1.816323224179580
WILLIAM VL LTD,HX3 7PF,53.755307121005800,-1.812430391804930
Robinsons Farm Shop & Kitchen,HX3 7SH,53.746632000000000,-1.828451000000000
The Shibden Mill Inn,HX3 7UL,53.743439406949400,-1.848099011028480
The Tannery Bar,HX3 8HQ,53.726197000000000,-1.818865000000000
BARDOLINOS LTD,HX3 8JQ,53.728965720591000,-1.814093495208030
Lightcliffe Tea Rooms,HX3 8SH,53.725537000000000,-1.799771000000000
White Horse Inn,HX3 8SX,53.730217985846600,-1.799173119735050
Shears inn,HX3 9EZ,53.713256163232200,-1.854298385543930
The Griffin Inn,HX4 0AQ,53.675851461039100,-1.914236850401760
The Fleece Countryside Inn,HX4 0DJ,53.677839308839300,-1.930415929901960
Catch West Vale Limited,HX4 8AD,53.686931537607800,-1.855585313756020
Cinnamon At The Mill ,HX4 8AD,53.686931537607800,-1.855585313756020
Viaduct,HX4 8BD,53.685740000000000,-1.857633000000000
The Sportsmans Inn,HX4 8PL,53.689107912730300,-1.890799553744730
The Spring Rock Inn,HX4 8PT,53.687560685788000,-1.899646495840660
1885 the Pub,HX4 9HF,53.672120802856000,-1.881806887853310
The New Inn,HX4 9LB,53.658965000000000,-1.883629000000000
Song Bird Cafe,HX5 0AB,53.684077803054200,-1.838168000000000
The Fleece Inn ,HX5 0BB,53.685618436107200,-1.840720995690070
Olivers,HX5 0BJ,53.686577247380900,-1.838536979737700
 Golden Dragon Chinese Restaurant (Elland),HX5 0EP,53.684344813077900,-1.836047257989140
Willows Bistro,HX5 0PL,53.682749396442100,-1.846212598621310
Famiglia Halifax Limited,HX5 0PY,53.684396256504900,-1.840877008928180
Village restaurant ,HX6 2AF,53.709793173262600,-1.905684043732580
the larder delicatessen,HX6 2AF,53.709793173262600,-1.905684043732580
F S Halifax trading as Temujin Restaurant,HX6 2AG,53.709746901029000,-1.904002497065640
Gabriels Coffee Lounge,HX6 2AG,53.709746901029000,-1.904002497065640
THE MOORINGS,HX6 2AG,53.709746901029000,-1.904002497065640
Kipplings Indian Restaurent ,HX6 2EA,53.708467184183200,-1.911262031054950
The Olive Branch ,HX6 2EA,53.708467184183200,-1.911262031054950
Wharf Cafe Bar at Sowerby Bridge LTD,HX6 2LA,53.709417829749800,-1.908472458787960
KUJA LIMITED,HX6 2QD,53.708342040956500,-1.912201562165860
The Willow Tree Cafe,HX6 3AH,53.707245848178400,-1.912688608480600
Del Taverns and Estates,HX6 3LF,53.709195302856400,-1.899928452747950
New Hobbit,HX6 3QL,53.700235457924500,-1.913006000000000
The Moorcock Inn,HX6 3RP,53.693157567677900,-1.919971668794300
Stanley's Kitchen,HX6 4BG,53.674708475423300,-1.941608000000000
The Lion Pub and Grill,HX6 4BQ,53.674889000000000,-1.941395000000000
Old Bridge Inn Ltd.,HX6 4DF,53.674366101041000,-1.940079228389980
the larder delicatessen,HX6 4EB,53.669965461900200,-1.947698712290190
Cinnamon Lounge ,HX6 4EW,53.665266000000000,-1.949021000000000
Just Scrumptious,HX6 4EW,53.665266000000000,-1.949021000000000
The Alma Inn,HX6 4NS,53.689663007374400,-1.959485798728560
Beehive inn,HX6 4NX,53.673644000000000,-1.951554000000000
Booth Wood Inn,HX6 4QU,53.648682053146500,-1.949025936131480
Shoulder of mutton ,HX7 5DZ,53.729604000000000,-1.982683497774560
Aux Delices,HX7 5LH,53.730833997212200,-1.982652727956650
The Blue Teapot,HX7 5LL,53.730761955103100,-1.981712989248890
Kitchen (West Yorkshire) ,HX7 5LN,53.730204264642600,-1.979045534803390
NAAN’IZZA CO,LS11 8AX,53.772770816372400,-1.578616537449960
Leeds Bar & Grill,LS12 1HQ,53.791836203306900,-1.579108687430020
Divine gelato factory,LS12 2ND,53.799523349194300,-1.584770000000000
Legends Desserts and Burger Bar Ltd,LS12 3AQ,53.797663479248500,-1.587871000000000
The Beulah,LS12 5EP,53.788474833281500,-1.633982051619400
Jump INC Leeds,LS12 6DP,53.781709000000000,-1.576949000000000
TAFZALHSHAH LTD,LS13 4JE,53.795779138723500,-1.621439659975140
McDonald's Restaurant,LS27 0BP,53.735226910464000,-1.610144000000000
morley dashers ltd,LS27 0BY,53.738876660366500,-1.602287572409840
The needless inn,LS27 0NZ,53.726330953600200,-1.625139975690590
Baan Thai Restaurant,LS27 8AG,53.744488731589100,-1.597943600713410
Kasa Rosa Restaurant,LS27 8AQ,53.742862000000000,-1.597777000000000
Apollo Fisheries,LS27 8DT,53.745990735229000,-1.600931572683070
JUNIOR KITCHEN LIMITED,LS27 8DT,53.745990735229000,-1.600931572683070
Sugar Kingz Morley,LS27 8DT,53.745990735229000,-1.600931572683070
Caffé Moments,LS27 8DX,53.746154633093200,-1.601566874907430
Nigella's Cafe,LS27 8DX,53.746154633093200,-1.601566874907430
EIGHTEEN90 LTD,LS27 8HE,53.744009828824500,-1.599873797224390
The Miners Arms,LS27 8LG,53.747968986338800,-1.593164110779750
The Full Monty,LS27 8LL,53.754060849043800,-1.597882591089360
Lime Tree Bistro,LS27 9BR,53.746534637456400,-1.602321448822540
Cucina Cafe Bar & Restaurant,LS27 9EB,53.743671000000000,-1.600302000000000
Carriers Arms,LS27 9HG,53.739858022585400,-1.594728169799160
Wetherby Whaler,LS28 7AA,53.797416039483000,-1.660882063597070
Open mode limited,LS28 7LJ,53.797451840568400,-1.664024379152930
Fox and grapes Pudsey ,LS28 8HU,53.790468719569200,-1.677331523142440
Fulneck Golf Club Limited,LS28 8NT,53.784096715459000,-1.664404176573820
No54 Tearooms and Antiques,LS28 8NT,53.784096715459000,-1.664404176573820
The cherry tree inn,S75 4BE,53.586613417495600,-1.588551000000000
Woolpack Country Inn,WF12 0LZ,53.656599017827600,-1.667187174421220
yaadgaar,WF12 9AY,53.682210129883500,-1.625788985134500
The Timepiece,WF13 1DS,53.692423567536600,-1.629605601427590
Pops,WF13 1DX,53.693214598693900,-1.629628951293340
Royal King Grill Restaurant,WF13 1JS,53.690272000000000,-1.631002000000000
Costa Coffee,WF13 1NH,53.690424592099100,-1.628730000000000
Cafe Mon Amis,WF13 1QG,53.692561933846000,-1.627847693438190
Subway,WF13 1QH,53.692258035545000,-1.628395548721300
Pizza GoGo,WF13 1QN,53.692654771078400,-1.628800944143800
Wenjo’s health bar,WF13 3LD,53.678533499633100,-1.665137211641380
chill and chat cafe ,WF13 3NT,53.693926000000000,-1.656822000000000
The Pie Shed,WF13 4DH,53.698168636304400,-1.651122996729510
The Shoulder of Mutton,WF14 0AE,53.684472301288900,-1.690890000000000
Whitegate Inn,WF14 0DB,53.690475000000000,-1.712852000000000
Whiteleys Garden Centre,WF14 0DQ,53.693392000000000,-1.709953202394720
Capri Mirfield,WF14 0HY,53.688145971022200,-1.693558833839590
Chelle’s Deli Cafe,WF14 0NL,53.690274111549500,-1.696284289091900
Alexander's Bar & Kitchen,WF14 8AB,53.674192594344700,-1.692237000000000
Cafe53 ,WF14 8AB,53.674192594344700,-1.692237000000000
Babyccinos Kinder Cafes Ltd,WF14 8AN,53.674062657900300,-1.694009114201640
RAVELLO CAFE DELI,WF14 8AT,53.674291827612200,-1.695522000000000
Taylors,WF14 8AT,53.674291827612200,-1.695522000000000
The al nawab limited,WF14 8LN,53.673233000000000,-1.692499340924090
Cupushi,WF14 8NR,53.670231544213200,-1.696700762926930
Salvia Restaurant,WF14 9DQ,53.678449000000000,-1.707935000000000
the dusty miller public house and restaurant,WF14 9JJ,53.682392200280000,-1.686091008284310
The Liversedge,WF15 6HX,53.711706000000000,-1.683509000000000
MR T HARRINGTON T/A HEALDS HALL,WF15 6JA,53.711790000000000,-1.684903000000000
The Golden Fish,WF15 7DQ,53.706501527954500,-1.690744246242530
Food For Thought Cafe,WF15 7LE,53.699498511995400,-1.704503009375960
Reids ,WF15 7LE,53.699498511995400,-1.704503009375960
The Star,WF15 7LQ,53.698164249120400,-1.706526749985550
Bennett's Café Bistro,WF15 8AD,53.710775433739900,-1.714317290085290
Gray Ox Inn,WF15 8AL,53.700055673755400,-1.727218961582200
CASA LULI RESTAURANT,WF15 8DU,53.711888705660300,-1.717582331521190
parmars (yorkshire) LTD,WF15 8HU,53.714494148414500,-1.724837737701880
The Gallery,WF16 0EX,53.706541000000000,-1.674838000000000
Crafty Kids ,WF16 0HH,53.707223470311400,-1.678180307993680
Cafe 54,WF16 0HX,53.707329883822200,-1.674316451600600
Samarkand Restaurant ,WF16 0JA,53.707236830465300,-1.673363000000000
Shama Heckmondwike Ltd,WF16 9BJ,53.721005000000000,-1.668801000000000
McDonald's Restaurant,WF16 9RL,53.708512269666400,-1.676140432389580
Chaiiwala Batley,WF17 5DA,53.714197585884000,-1.634066059418320
K&K GELATO LTD,WF17 5EP,53.713100297983100,-1.630893804259640
icestone gelato,WF17 5EP,53.713100297983100,-1.630893804259640
Yorem Turkish Restaurant Ltd,WF17 5EY,53.713160458212400,-1.629999350558240
Desi Dhaba ,WF17 5HJ,53.712746407016200,-1.629806015987640
brew batley ltd,WF17 5HU,53.712234472170100,-1.632855854032320
Mr T's,WF17 5LZ,53.712629000000000,-1.626337000000000
CEYLON DOSA LTD,WF17 5PN,53.710510088247500,-1.627235000000000
Kake Temptations Yorkshire Ltd ,WF17 5PS,53.709907569501200,-1.627361445210300
tiffin by loonat,WF17 5PW,53.710921411354400,-1.626776773309400
The Corner Cafe,WF17 5RY,53.715005571575100,-1.633756012593080
Dixxi Pizza Bar Ltd ,WF17 5SA,53.715124000000000,-1.633846000000000
Snowcold Creamery ,WF17 6HY,53.707848068416300,-1.626970595546450
Zucchini Restaurant Ltd,WF17 6JD,53.704542685476600,-1.627832000000000
HSL Manufacturing Limited (Workforce canteen),WF17 6LN,53.708531000000000,-1.618072000000000
FRANKIES,WF17 8LP,53.719585428130400,-1.641323370383340
Jems Pit Stop,WF17 8ND,53.726200000000000,-1.652983000000000
Subway,WF17 8NN,53.727562497384700,-1.658291417580600
Hannahs restaurant,WF17 9HA,53.732463335187400,-1.662283797427990
KFC CENTRE 27 02018,WF17 9TB,53.743271000000000,-1.641562000000000
McDonald's Restaurant,WF17 9TB,53.743271000000000,-1.641562000000000
Starbucks Centre 27,WF17 9TB,53.743271000000000,-1.641562000000000
The Hare & Hounds,WF3 1DU,53.716276000000000,-1.579590000000000
Jacks Craft Ale House,WF4 4AL,53.632857951729500,-1.626482593934900
Kaye Arms Bistro,WF4 4BG,53.637107375732400,-1.655815974692020
The Sun Inn ,WF4 4DW,53.630067000000000,-1.645199779910390
The Spiced Mango,WF4 4NS,53.650880750699900,-1.596232000000000
SeedRoom,WF4 4RG,53.649082911542400,-1.609637000000000
Reindeer Inn (OVERTON) Ltd,WF4 4RL,53.644568971749000,-1.614913141999690
Di bosco (retail) LTD,WF4 5PR,53.657780000000000,-1.576887167714740
Capri Horbury,WF4 5QA,53.656000004780100,-1.578736000000000
Eller Coffee,WF5 8AD,53.678991559171900,-1.579461683931670
CINTA Bar & Kitchen,WF5 8BE,53.680033782841000,-1.579345332555110
Harbys Restaurant,WF5 8JX,53.675294928932200,-1.578756728493180
The Brewers Pride,WF5 8ND,53.667883985103200,-1.590378672821460
Bistro 42 Ossett,WF5 8NL,53.679094086712500,-1.580505262028390
Niko's Greek and Mediterranean Restaurant ,WF5 9DB,53.681114000000000,-1.579502198339860
The Mews Hotel,WF5 9HN,53.683748911697500,-1.578005000000000
