name,postcode,lat,lon
anole and Flameback,HU11 4QG,53.783261126415600,-0.047018082167205
Partridge and blind snake,HU12 0HL,53.748897000000000,-0.043812245366991
goanna and carpet snake,HU12 0HQ,53.755501000000000,-0.042542000000000
python and Tattler,HU12 0LL,53.750730728206700,-0.045539542135570
lizard and swift,HU12 0NL,53.694176111796200,-0.048796842787646
Ground sloth and Capuchin,HU12 0NQ,53.684906848744100,-0.011578109758614
boa and Pratincole,HU12 0PD,53.685453790255600,-0.007705763233445
River dolphin and garter snake,HU12 0PZ,53.682794071989200,-0.005620439965833
Flameback and crocodile,HU12 0QD,53.670570774368200,-0.029132890763392
Recurvebill and rock python,HU12 0QW,53.650457757441400,-0.043749925109334
cayman and habu,HU12 0RD,53.683926979372500,-0.011578849117745
Dolphin and tree snake,HU12 0SE,53.668293725000000,0.033916013043208
blue tongue and Stint,HU12 0SY,53.651491481770800,0.109251476693846
Buzzard and American sparrow,HU12 0TS,53.649118183341400,0.114852631588971
Schneider python and Schneider python,HU12 0UH,53.618995000000000,0.139051000000000
Songlark and water snake,HU12 0UR,53.655025492112400,0.074212597230964
boomslang and diamondback turtle,HU12 0UX,53.651325000000000,0.072503000000000
mamba and Ibex,HU19 2AA,53.731658047148800,0.029424038054004
dukite and Jay,HU19 2EB,53.729442470972900,0.029665988547221
Hawaiian honeycreeper and pit viper,HU19 2ED,53.730598378293600,0.030419053646008
Dolphin and Black jay,HU19 2HD,53.729844879328900,0.030852700543418
Grouse and Moluccan boobook,HU19 2HU,53.725883285311600,0.039150598643666
blue racer and Pratincole,HU19 2JN,53.728394602880700,0.031025345078883
B and Shearwater,HU19 2PP,53.717270928795200,0.042462000000000
saltwater crocodile and bearded dragon,HU19 2PQ,53.721813973352100,0.035418000000000
sand viper and elapid,HU19 2QJ,53.702124302219700,0.032744506471433
cerastes and adder,HU19 2QS,53.689448898283200,0.072072717186987
king snake and saltwater crocodile,HU19 2QT,53.689273622574900,0.071291683846079
copperhead and Eagle,HU19 2RS,53.706660903555600,0.033537000000000
