name,postcode,lat,lon
Jackal and adder,BT47 2RR,54.941507000000000,-7.382273000000000
Myna and Magpie,BT47 2RW,54.943174000000000,-7.365733000000000
Elephant and Skunk,BT47 2SB,54.939002000000000,-7.382475000000000
gecko and Snipe,BT47 2SU,54.935805000000000,-7.384698000000000
agamid and chuckwalla,BT48 9XW,54.963087000000000,-7.391663000000000
Night heron and Cloud rat,BT82 0DZ,54.932229000000000,-7.398995000000000
Wallaby and Marmoset,BT82 0HU,54.840126000000000,-7.361703000000000
Asiatic leopard and Marsh harrier,BT82 0JN,54.851151000000000,-7.426917000000000
king cobra and harlequin snake,BT82 0JP,54.864122000000000,-7.369080000000000
Old World vulture and Petrel,BT82 0LG,54.882638000000000,-7.366079000000000
blind snake and Booted eagles,BT82 0LN,54.890874000000000,-7.370467000000000
Mamo and Ice seal,BT82 0LZ,54.876610000000000,-7.357028000000000
racer and flying dragon,BT82 1SQ,54.835098000000000,-7.458130000000000
Linsang and bearded dragon,BT82 8AE,54.826079000000000,-7.464194000000000
snake and Maya,BT82 8AU,54.825716000000000,-7.463761000000000
saltwater crocodile and mountain devil,BT82 8AZ,54.826643000000000,-7.465836000000000
coral snake and amethystine python,BT82 8FA,54.830627000000000,-7.452228000000000
iguana and Chicken,BT82 8FH,54.834332000000000,-7.455134000000000
Mamo and White ibis,BT82 8HB,54.824904000000000,-7.460631000000000
blue racer and water snake,BT82 8PW,54.800143000000000,-7.361212000000000
cobra and brown snake,BT82 9AE,54.823652000000000,-7.465797000000000
fer-de-lance and Parakeet,BT82 9AJ,54.820838000000000,-7.461261000000000
Fish eagle and water snake,BT82 9BX,54.822704000000000,-7.470975000000000
Guillemot and Darwin's finches,BT82 9DB,54.823034000000000,-7.474502000000000
amphisbaena and turtle,BT82 9DS,54.820878000000000,-7.472384000000000
adder and bandy-bandy,BT82 9DX,54.820511000000000,-7.472715000000000
saltwater crocodile and Tree warbler,BT82 9EA,54.820266000000000,-7.471596000000000
green turtle and Kestrel,BT82 9GZ,54.787761000000000,-7.495896000000000
Masked owl and sidewinder,BT82 9HZ,54.812668000000000,-7.476690000000000
Skunk and Elephant,BT82 9JB,54.782467000000000,-7.472325000000000
Mole and agama,BT82 9PA,54.786717000000000,-7.495973000000000
box turtle and chuckwalla,BT82 9PR,54.821704000000000,-7.464081000000000
rat snake and Night heron,BT82 9PZ,54.790747000000000,-7.475557000000000
Mockingbird and giant tortoise,BT82 9RA,54.789073000000000,-7.532256000000000
frill-necked lizard and tuatara,BT82 9RW,54.820055000000000,-7.481604000000000
crocodile and diamondback terrapin,BT82 9TA,54.824104000000000,-7.474691000000000
perentie and Civet,BT82 9WA,54.787421000000000,-7.490151000000000
