name,postcode,lat,lon
The Jamison Tea Room,BT39 9JS,54.786546000000000,-6.042411000000000
THE PROM CAFE,BT40 1AB,54.852901000000000,-5.805084000000000
Subway,BT40 1AX,54.845620000000000,-5.803872000000000
BROOKLYN BAY DINER,BT40 1FD,54.846567000000000,-5.808086000000000
Curran Court Hotel,BT40 1FD,54.846567000000000,-5.808086000000000
CARRIAGES,BT40 1HJ,54.851587000000000,-5.814620000000000
The Stove,BT40 1JE,54.851424000000000,-5.817526000000000
Creed Coffee,BT40 1JS,54.850649000000000,-5.816524000000000
Chekkers Winebar,BT40 1JW,54.851041000000000,-5.821237000000000
Subway,BT40 1SP,54.851680000000000,-5.818259000000000
Rubys Bar Larne,BT40 1TS,54.861939000000000,-5.818981000000000
New Fairways,BT40 2QG,54.895227000000000,-5.848656000000000
Parklands cafe Carnfunnock ,BT40 2QZ,54.902012000000000,-5.866521000000000
The Ballygally Castle Hotel,BT40 2QZ,54.902012000000000,-5.866521000000000
Halfway House Hotel,BT40 2RA,54.913120000000000,-5.883119000000000
Matties Meeting House,BT40 2RL,54.895066000000000,-5.879842000000000
Billy Andys,BT40 3DX,54.809779000000000,-5.859703000000000
Dairyside Stores Limited,BT40 3LE,54.805384000000000,-5.831986000000000
The Mount Charles Group Limited Ballylumford,BT40 3RS,54.845250000000000,-5.784040000000000
Ground Espresso Bars Ltd,BT44 0BQ,54.946026000000000,-5.971872000000000
The Glencloy Inn,BT44 0ET,54.991888000000000,-5.991048000000000
