name,postcode,lat,lon
Triller and Black jay,BT38 9JG,54.786669000000000,-5.756464000000000
glass snake and moloch,BT40 1AJ,54.847896000000000,-5.798798000000000
indigo snake and Wader,BT40 1BN,54.853788000000000,-5.811589000000000
gopher snake and Stint,BT40 1EX,54.858256000000000,-5.813526000000000
saltwater crocodile and rock python,BT40 1GA,54.861135000000000,-5.819211000000000
Thrasher and Old World vulture,BT40 1GZ,54.850986000000000,-5.816458000000000
frilled lizard and Wallaby,BT40 1HD,54.857967000000000,-5.812467000000000
hawksbill and Old World quail,BT40 1HY,54.850414000000000,-5.821722000000000
Rabbit and Fulmarine petrel,BT40 1LS,54.854682000000000,-5.826351000000000
sand lizard and Schneider python,BT40 1NY,54.855044000000000,-5.820476000000000
bull snake and cobra,BT40 1PX,54.857750000000000,-5.822043000000000
elapid and boomslang,BT40 1QT,54.853121000000000,-5.821467000000000
perentie and Prion,BT40 1RF,54.852031000000000,-5.815328000000000
Quetzal and constrictor,BT40 1SP,54.851680000000000,-5.818259000000000
Capuchin and Goose,BT40 1TL,54.867190000000000,-5.815879000000000
Argus and python,BT40 2DH,54.852619000000000,-5.837083000000000
king cobra and Siskin,BT40 2HH,54.867796000000000,-5.827435000000000
alligator and Guillemot,BT40 3BB,54.848155000000000,-5.822592000000000
sidewinder and Chickadee,BT40 3DF,54.846431000000000,-5.829177000000000
agama and tokay,BT40 3DJ,54.827472000000000,-5.815130000000000
terrapin and python,BT40 3HU,54.810380000000000,-5.754014000000000
Ibex and Kākāriki,BT40 3JG,54.798599000000000,-5.771915000000000
galliwasp and Rat,BT40 3JH,54.808509000000000,-5.775614000000000
Armadillo and Crow,BT40 3SZ,54.783324000000000,-5.701164000000000
Booted eagles and bearded lizard,BT40 3TA,54.785999000000000,-5.700358000000000
