name,postcode,lat,lon
The Kirkcudbright Bay Hotel,DG6 4DJ,54.83710000000000,-4.04974100000000
The Belfry ,DG6 4DU,54.83736200000000,-4.04808800000000
The Selkirk Arms Hotel,DG6 4JG,54.83494100000000,-4.05252800000000
The Garret,DG6 4JQ,54.83484500000000,-4.05341100000000
The Cocoabean Company Ltd,DG6 4NP,54.8694,-4.0710
Star Hotel,DG6 4NT,54.86713500000000,-4.08163900000000
Arden house hotel,DG6 4UU,54.84980300000000,-4.03946500000000
Crown Hotel,DG7 1AA,54.9429,-3.9272
Mr Pook's Kitchen ,DG7 1AD,54.94204510000000,-3.92848200000000
Mad Hatter Cafe,DG7 1AE,54.94158200000000,-3.92820200000000
Blackwater produce Ltd,DG7 1DX,54.93962478637700,-3.93084001541138
Designs Cafe,DG7 1DZ,54.93920300000000,-3.93147500000000
Street Lights Coffee House,DG7 1DZ,54.93920300000000,-3.93147500000000
The Kings Arms Hotel,DG7 1EL,54.93882800000000,-3.93128600000000
Castle Douglas Garden Centre & Coffee Shop,DG7 1JY,54.94346500000000,-3.92228100000000
The Old School House,DG7 2AL,54.89651400000000,-4.04591200000000
Auchenlarie Holiday Park Bistro,DG7 2EX,54.84352400000000,-4.28017800000000
Galloway Lodge,DG7 2HP,54.88226300000000,-4.18299200000000
Masonic Arms ,DG7 2HU,54.88265400000000,-4.17973900000000
