name,postcode,lat,lon
Springlea Leisure Centre,CA15 6QF,54.7755,-3.4293
manor house bar & restaurant,CA15 6RA,54.7964,-3.4003
wheyrigg hall hotel,CA7 0DH,54.82770919799800,-3.25502705574036
Bessies,CA7 4AD,54.8685,-3.3882
The Bank,CA7 4AD,54.8685,-3.3882
The Fairydust Emporium Silloth,CA7 4AD,54.86846200000000,-3.38807500000000
The Leitch Lounge & Restaurant,CA7 4BL,54.86621300000000,-3.39067900000000
Stella's Bistro at the Green View Guest House,CA7 4DQ,54.8714,-3.3872
Stanwix Park Holiday Centre,CA7 4HH,54.8613,-3.3880
Solway Holiday Village,CA7 4QG,54.8787,-3.3792
Woodstone pizza and flame grill,CA7 5AS,54.9151,-3.2486
The joiners arms ,CA7 5ET,54.88479232788090,-3.24998903274536
WWT Caerlaverock wetland Centre,DG1 4RS,54.97862200000000,-3.49680000000000
Quarter Cake Cafe Ltd,DG12 5AN,54.9877,-3.2594
Queensberry Arms Hotel,DG12 6AD,54.98699500000000,-3.26352500000000
TWEEDIE'S EMPIRE BAR & EATERY,DG12 6AD,54.98702239990230,-3.26335501670837
The Anglers,DG12 6AD,54.98702239990230,-3.26335501670837
La Fortuna restaurant and pizzeria,DG12 6DJ,54.98714447021480,-3.26124811172485
The Cafe Royal,DG12 6DJ,54.98714400000000,-3.26124800000000
The Corner House Hotel,DG12 6DL,54.9876,-3.2623
Subway Annan,DG12 6EB,54.98720300000000,-3.25901500000000
solway cafe,DG12 6EB,54.98720300000000,-3.25901500000000
Abbey Cottage Coffees,DG2 8BY,54.98011180000000,-3.61961340000000
The Steamboat Inn,DG2 8DS,54.92333700000000,-3.57333000000000
