name,postcode,lat,lon
Halfway House Bar & Grill Ltd,DN36 5PL,53.4669,-0.0596
NEW INN,DN36 5QS,53.4673,-0.0469
Crown & Anchor,DN36 5UW,53.4996,0.0213
Hall Farm Hotel and Restaurant Ltd,DN37 0RT,53.4903,-0.1138
Woolpack inn,LN11 0DA,53.3717,0.0088
Beaumont's (Louth) Limited,LN11 0DR,53.3674,-0.0091
The Millers Daughter,LN11 0LT,53.3680,-0.0042
Brackenborough Limited,LN11 0SZ,53.3908,-0.0173
Louth Tennis and Sports Centre Ltd,LN11 0WD,53.3842,-0.0105
The Axe and Cleaver,LN11 7PR,53.4464,0.1332
GiGi,LN11 7QT,53.4457,0.1426
WATERFRONT CLUB LAKESIDE PARK,LN11 7RB,53.4412,0.1560
Shellys kitchen,LN11 7RZ,53.4209,0.1872
RILEY BAR AND RESTAURANT LTD T/A THE WAGGON AND HORSES,LN11 8JQ,53.3265,0.1065
The Queens Head,LN11 8LL,53.3390,0.0558
Louth Garden Centre,LN11 8LQ,53.3508,0.0224
ROYAL OAK INN,LN11 8LZ,53.3344,0.0382
Kenwick Park Hotel Limited,LN11 8NR,53.3356,0.0216
Aquavita (Catering) Limited,LN11 8NY,53.3448,0.0197
Tai Pan Cantonese Restaurant Louth,LN11 9AA,53.3673,-0.0017
The Panacea ,LN11 9AU,53.3664,-0.0034
The Wick,LN11 9AU,53.3664,-0.0034
Wonderland Gifts & Tea Shoppe,LN11 9AU,53.3664,-0.0034
Mr. Chips of Louth,LN11 9BA,53.3656,-0.0038
The Ranch Steakhouse & Grill,LN11 9BA,53.3656,-0.0038
The Turks Head,LN11 9BA,53.3656,-0.0038
The Brown Cow,LN11 9EG,53.3631,0.0000
ISTANBUL BBQ RESTAURANT,LN11 9ER,53.3663,-0.0071
via italia restaurant ,LN11 9ER,53.3663,-0.0071
Il padrino,LN11 9ET,53.3660,-0.0071
Millie May's,LN11 9ET,53.3660,-0.0071
The Greyhound Inn ,LN11 9EX,53.3652,-0.0063
Montebello ristorante,LN11 9HD,53.3646,-0.0057
The Boars Head Louth,LN11 9HH,53.3640,-0.0037
The Old Warehouse Larders,LN11 9JG,53.3661,-0.0059
The Kings Head,LN11 9JQ,53.3658,-0.0054
Ye Olde Whyte Swanne,LN11 9NP,53.3672,-0.0039
Cooplands Secret Garden Louth,LN11 9PG,53.3671,-0.0035
Bar Castillejar,LN11 9PU,53.3669,-0.0052
Cobbles Bar,LN11 9PU,53.3669,-0.0052
Masons Arms Louth Ltd,LN11 9PY,53.3665,-0.0055
The Auction House,LN11 9PY,53.3665,-0.0055
Tinas cafe,LN11 9PY,53.3665,-0.0055
Davenportâ€™s Fish & Chips,LN11 9QE,53.3677,-0.0010
parkinsons fish and chips ltd,LN11 9QE,53.3677,-0.0010
The Three Horseshoes,LN11 9WA,53.2933,-0.1206
Greenman Scamblesby Ltd,LN11 9XG,53.2920,-0.0860
Woodthorpe Garden Centre,LN13 0DD,53.3019,0.1578
Woodys Bar,LN13 0DD,53.3019,0.1578
Claythorpe Watermill,LN13 0DU,53.2903,0.1166
The Stables Bar & Restaurant,LN13 0JP,53.3130,0.2016
The Plough,LN8 6DE,53.4287,-0.1801
