name,postcode,lat,lon
Piping shrike and sidewinder,DN37 0SR,53.466832673017800,-0.180386000000000
mud turtle and Rat,LN11 0SH,53.399069316076400,-0.071696663521288
mamba and snake,LN11 9TL,53.329761021131600,-0.146321828488453
Kestrel and Chipmunk,LN11 9TP,53.327532072199700,-0.144045853368460
Rat and amethystine python,LN11 9UR,53.295701760474700,-0.121297547117802
Perching duck and B,LN2 2TY,53.282738000000000,-0.454996000000000
sand lizard and Grouse,LN2 2UR,53.285866000000000,-0.427446000000000
Myna and Macaw,LN2 3QX,53.299318196495300,-0.466492881020376
water snake and puff adder,LN2 3RY,53.304515079521900,-0.473570414206921
constrictor and adder,LN2 3SP,53.298394000000000,-0.470773000000000
coral snake and Herring gull,LN2 3SQ,53.299954393514800,-0.472804000000000
Gull and Puffleg,LN7 6AR,53.486241620270700,-0.332596953206339
diamondback terrapin and Elephant,LN7 6BF,53.494037000000000,-0.355691000000000
hawksbill and Solitaire,LN7 6ET,53.499316253678700,-0.428423643159425
Bunting and cerastes,LN7 6LW,53.493491000000000,-0.330216303972272
Kestrel and Kākāriki,LN7 6PE,53.480467000000000,-0.429814000000000
Magpie and leguaan,LN7 6PP,53.469904869862300,-0.434738314533271
Duck and king cobra,LN7 6QN,53.496635472315800,-0.323098472825048
water snake and sand lizard,LN7 6QT,53.498057027028100,-0.321263372801157
Tahr and Komodo dragon,LN7 6RE,53.498782870656800,-0.320964000000000
Chipmunk and Bunting,LN7 6SF,53.499179049201300,-0.340184000000000
Myna and perentie,LN7 6SP,53.481248000000000,-0.290867000000000
habu and Parakeet,LN7 6SZ,53.468956382084600,-0.328212362272055
Kangaroo and puff adder,LN8 2AL,53.404262078105000,-0.455320574719467
Old World warbler and box turtle,LN8 3BA,53.385009094053900,-0.332358000000000
loggerhead and Peafowl,LN8 3BG,53.387573970502500,-0.339207060644974
Logrunners and anole,LN8 3DT,53.386666722133800,-0.329121000000000
Marmoset and viper,LN8 3FR,53.384941485460200,-0.334152078942965
Chickadee and Cloud rat,LN8 3FU,53.386459000000000,-0.334215000000000
Scimitar babbler and Parrotlet,LN8 3HF,53.387196629692100,-0.333417441551437
Hawaiian honeycreeper and Tit-tyrant,LN8 3JJ,53.390788120245700,-0.335036631684356
Piping shrike and perentie,LN8 3JY,53.387366691625200,-0.371800484106800
Shearwater and caiman,LN8 3LN,53.386499969424500,-0.363492000000000
deaf adder and Linsang,LN8 3ND,53.381734964705000,-0.418005000000000
Grosbeak and diamondback turtle,LN8 3NF,53.372959000000000,-0.422091000000000
water snake and black snake,LN8 3NQ,53.367438856191000,-0.436512914491272
water snake and Zebra,LN8 3PJ,53.428658000000000,-0.400492000000000
Moluccan boobook and Quetzal,LN8 3PU,53.420397000000000,-0.418078000000000
Lemming and Mamo,LN8 3PW,53.438823067027300,-0.406463180514803
bearded dragon and Masked owl,LN8 3RN,53.389749000000000,-0.225374000000000
Wallaby and constrictor,LN8 3RP,53.386007434052600,-0.327449225873274
Ice seal and Mink,LN8 3RY,53.385806294621400,-0.375378563662924
Skunk and adder,LN8 3SX,53.386053000000000,-0.333434000000000
Booted eagles and deaf adder,LN8 3TB,53.416224659169300,-0.380494079762948
copperhead and Old World warbler,LN8 3UQ,53.389561092459900,-0.366603881750603
diamondback terrapin and Mockingbird,LN8 3WE,53.385704000000000,-0.374663000000000
Perching duck and diamondback terrapin,LN8 3YA,53.398812000000000,-0.262134000000000
Magpie and dukite,LN8 3YS,53.437392936088800,-0.326214796211665
pit viper and Macaw,LN8 3YY,53.438039661193800,-0.324894645896862
blue tongue and Guillemot,LN8 5JD,53.278986073526600,-0.317981588332072
puff adder and horned viper,LN8 6AB,53.386884000000000,-0.195620216735308
Puffleg and Treepie,LN8 6AD,53.385762000000000,-0.197511000000000
Scimitar babbler and glass snake,LN8 6AH,53.384037387902900,-0.203613868046721
gavial and soft-shelled turtle,LN8 6DA,53.429810000000000,-0.176100091909964
snapping turtle and Tree warbler,LN8 6DF,53.426595034888900,-0.178084044104553
cerastes and Schneider python,LN8 6DQ,53.430222000000000,-0.180036000000000
soft-shelled turtle and coral snake,LN8 6EN,53.438587734838700,-0.191708176509197
Kite and asp,LN8 6JT,53.332677218766000,-0.175056000000000
Parrotlet and goanna,LN8 6LL,53.338312859881300,-0.213061260947647
Marmoset and Peafowl,LN9 5QJ,53.284342379541600,-0.109044704805977
