name,postcode,lat,lon
Perching duck and blindworm,LN11 7DD,53.419864587319200,0.149358487957125
soft-shelled turtle and Capuchin,LN11 7JS,53.448961998786900,0.083132789891616
Chickadee and Maya,LN11 7NU,53.458409842254200,0.144150017307369
Chickadee and rock python,LN11 7PF,53.450230000000000,0.137573000000000
cayman and Peafowl,LN11 7PL,53.446153715720900,0.137507000000000
Mouse and bandy-bandy,LN11 7PT,53.444096000000000,0.132707000000000
Chicken and Hawk,LN11 7PZ,53.439875580868800,0.141936692713046
Capuchin and Songlark,LN11 7RP,53.424352851390200,0.187364100344655
tokay and boomslang,LN11 7TX,53.371610000000000,0.163539000000000
Wallaby and worm lizard,LN11 7UA,53.377637000000000,0.154884000000000
sea snake and saltwater crocodile,LN11 8HW,53.351999634046400,0.091999388716990
Polecat and Kestrel,LN11 8JL,53.323166000000000,0.117091000000000
coral snake and Black cockatoo,LN11 8JN,53.333338181965500,0.124413549983075
Vulture and habu,LN11 8UQ,53.356199770537700,0.100094406439154
Mouse and Chickadee,LN12 1AH,53.342481000000000,0.262866000000000
hoop snake and worm lizard,LN12 1EH,53.338576653998200,0.253253000000000
Capuchin and Jerboa,LN12 1EL,53.340517266749100,0.253508607699120
White ibis and Petrel,LN12 1EY,53.337449410343500,0.255044207582168
Elephant and python,LN12 1HL,53.343225261275800,0.260066302482349
Capuchin and Solitaire,LN12 1NE,53.329856611603500,0.224651982418136
Polecat and jew lizard,LN12 1NG,53.348003981482900,0.251259177346789
swift and Grosbeak,LN12 1QX,53.351165460876400,0.256189012934017
Parrotlet and Ground sloth,LN12 1RH,53.346631790727200,0.249173610725428
Peafowl and moloch,LN12 2AJ,53.337583685426400,0.265040345301231
Grouse and Diving bird,LN12 2AL,53.336673843490400,0.266416000000000
Minke whale and cayman,LN12 2AT,53.340504000000000,0.265588838730362
Parakeet and cobra de capello,LN12 2FG,53.303136049421700,0.284589298336104
rock snake and Armadillo,LN12 2GR,53.312924571536000,0.275308924096842
python and Hawaiian honeycreeper,LN12 2JS,53.306959292046000,0.283067260101229
Skunk and Logrunners,LN12 2JU,53.307119645139200,0.282353000000000
bearded lizard and moloch,LN12 2LU,53.310929000000000,0.275833000000000
flying dragon and rat snake,LN12 2NN,53.315902849624400,0.276127967381892
cycling lizard and Kākāriki,LN12 2SQ,53.309925904413800,0.276500452302729
python and massasauga,LN12 2SS,53.308687643580800,0.283895041349928
constrictor and chuckwalla,LN12 2TL,53.301719261464700,0.284393584497412
Vole and Chicken,LN13 0DJ,53.283856000000000,0.116399928566058
tortoise and Armadillo,LN13 0HY,53.283274708837500,0.183391223114449
cycling lizard and Pitohui,LN13 9RP,53.275020944618600,0.285579252572855
