name,postcode,lat,lon
green turtle and loggerhead,LN12 1HE,53.342143244072400,0.261180841441711
Goose and viper,LN12 1HR,53.342500306648700,0.259892749046215
thorny devil and diamondback terrapin,LN12 1LS,53.349328108238400,0.255192000000000
Wader and lizard,LN12 1NJ,53.364096000000000,0.218755000000000
milk snake and horned viper,LN12 2AL,53.336673843490400,0.266416000000000
Maya and American sparrow,LN12 2AP,53.334265000000000,0.269431000000000
loggerhead and Hawaiian honeycreeper,LN12 2BE,53.340442000000000,0.261331000000000
box turtle and mud turtle,LN12 2BW,53.336367446500100,0.264224846954237
adder and habu,LN12 2BX,53.333958825954300,0.267491733994056
Ice seal and Old World quail,LN12 2DR,53.340315942876200,0.260348059963718
rattlesnake and Viscacha,LN12 2DW,53.338347908144300,0.262196741854518
Civet and Peafowl,LN12 2EA,53.331648411371200,0.265924000000000
puff adder and brown snake,LN12 2EE,53.333268600269100,0.262648834588547
bandy-bandy and blindworm,LN12 2FJ,53.304313498681900,0.278498273004878
Old World vulture and Stint,LN12 2HL,53.311845694556700,0.280836000000000
turtle and Dolphin,LN12 2HW,53.310220899612200,0.279413383982758
grass snake and boomslang,LN12 2LJ,53.317502322556400,0.275702617009855
copperhead and Shearwater,LN12 2QE,53.323204825797700,0.267552052857749
Hawk and amethystine python,LN12 2RJ,53.299488000000000,0.293444000000000
Magpie and Stilt,LN12 2TA,53.301809901877800,0.282477318832258
hognose snake and green turtle,LN12 2UA,53.300510637739200,0.285064462956025
