name,id,postcode,lat,lon
sand viper and whip snake,1938700,BT94 4AU,54.329864000000000,-7.464242000000000
horned viper and Philippine hawk-owl,1747028,BT92 5FJ,54.211420000000000,-7.398951000000000
Pitohui and boa constrictor,1747314,BT92 7RA,54.222076000000000,-7.312023000000000
Nukupuʻu and flying lizard,1747160,BT92 6NZ,54.211602000000000,-7.274218000000000
rock snake and Minke whale,1747386,BT92 8GR,54.179977000000000,-7.376281000000000
blue tongue and Schneider python,1748424,BT94 3HS,54.383542000000000,-7.463052000000000
chameleon and cerastes,1747035,BT92 5GD,54.239423000000000,-7.411980000000000
Bunting and viper,1747119,BT92 6HQ,54.210720000000000,-7.304058000000000
boa constrictor and diamondback,1747388,BT92 8GU,54.184027000000000,-7.357383000000000
perentie and Philippine hawk-owl,1938658,BT94 3EP,54.399673000000000,-7.486489000000000
Schneider python and lizard,1747306,BT92 7QH,54.233093000000000,-7.179021000000000
water snake and Elephant,1926434,BT92 0BW,54.256659000000000,-7.455034000000000
Kākāriki and Ground sloth,1938708,BT94 4BS,54.298356000000000,-7.313270000000000
Myna and Mouse,1706364,BT94 4BY,54.328369000000000,-7.369380000000000
iguana and skink,1939377,BT94 4RN,54.301056000000000,-7.471083000000000
frill-necked lizard and puff adder,1747155,BT92 6NS,54.211141000000000,-7.258991000000000
Mole and dugite,1747147,BT92 6LY,54.193538000000000,-7.256746000000000
snapping turtle and milk snake,1747320,BT92 8AF,54.200480000000000,-7.423397000000000
Dolphin and Mouse,1926468,BT92 0GW,54.248380000000000,-7.451876000000000
Zebra and Macaw,1747205,BT92 7DW,54.252174000000000,-7.218103000000000
Philippine hawk-owl and tokay,1706397,BT94 4GE,54.334828000000000,-7.356844000000000
flying dragon and Polecat,1747329,BT92 8AU,54.208931000000000,-7.415294000000000
Jay and Francolin,1939382,BT94 4SL,54.328010000000000,-7.473750000000000
Guillemot and galliwasp,1734672,BT75 0SR,54.359627000000000,-7.347642000000000
Shearwater and anole,1746656,BT92 0GG,54.247942000000000,-7.448954000000000
skink and horned toad,1747134,BT92 6LD,54.194717000000000,-7.319265000000000
crocodile and caiman,1747490,BT92 9GL,54.176708000000000,-7.484878000000000
fer-de-lance and Chickadee,1697599,BT92 5AT,54.270523000000000,-7.367102000000000
Armadillo and Bronzewing pigeon,1746692,BT92 0LZ,54.254091000000000,-7.445819000000000
rat snake and Mouse,1747301,BT92 7PZ,54.232342000000000,-7.294508000000000
gavial and rock snake,1926420,BT92 0AB,54.263049000000000,-7.443686000000000
agama and cayman,1747411,BT92 8JW,54.182409000000000,-7.359062000000000
tortoise and Prion,1706330,BT94 3LY,54.378809000000000,-7.461206000000000
Wader and bicycle lizard,1932660,BT92 8DA,54.197911000000000,-7.415940000000000
Skunk and Black cockatoo,1747302,BT92 7QB,54.231789000000000,-7.301325000000000
tree snake and harlequin snake,1747007,BT92 5DD,54.246110000000000,-7.382373000000000
frilled lizard and Goose,1747135,BT92 6LE,54.192511000000000,-7.313770000000000
hognose snake and skink,1746653,BT92 0GA,54.248014000000000,-7.443185000000000
Mink and snapping turtle,1706400,BT94 4GN,54.322885000000000,-7.391135000000000
Old World warbler and Black cockatoo,1706352,BT94 4AQ,54.305691000000000,-7.437258000000000
Marmoset and Masked owl,1747121,BT92 6HW,54.208382000000000,-7.287149000000000
python and Thrasher,1748426,BT94 3JA,54.385233000000000,-7.485746000000000
hoop snake and wall lizard,1748415,BT94 3GA,54.375705000000000,-7.393583000000000
blue tongue and Mamo,1938655,BT94 3EJ,54.362123000000000,-7.408289000000000
Wader and Goose,1747359,BT92 8ED,54.199073000000000,-7.393109000000000
Pitohui and brown snake,1932683,BT92 8GD,54.175957000000000,-7.378884000000000
elapid and harlequin snake,1939288,BT94 4EJ,54.308608000000000,-7.414066000000000
Recurvebill and Tattler,1746693,BT92 0NB,54.284393000000000,-7.447452000000000
cycling lizard and Jackal,1747077,BT92 6DS,54.202607000000000,-7.309008000000000
Maya and Chickadee,1932607,BT92 7BZ,54.266824000000000,-7.237179000000000
iguana and anaconda,1747270,BT92 7LJ,54.240747000000000,-7.175313000000000
Ground sloth and Chicken,1706441,BT94 4NX,54.319718000000000,-7.451512000000000
swift and boa,1706329,BT94 3LX,54.380392000000000,-7.459600000000000
Moluccan boobook and Grackle,1932670,BT92 8EF,54.180272000000000,-7.413524000000000
