name,postcode,lat,lon
TC5 Cafe,BT35 0DA,54.19231370000000,-6.57559950000000
The Yellow Heifer,BT35 7JG,54.18076400000000,-6.41023500000000
Belleek  Country House,BT35 7PH,54.18440200000000,-6.48754600000000
Cafe Olympus,BT60 1AT,54.3445,-6.6432
The Bawn Pantry,BT60 1LP,54.34127200000000,-6.54523300000000
The Dolphin Takeaway and Diner,BT60 1PJ,54.29743900000000,-6.52174300000000
The Village Inn,BT60 1PJ,54.29743900000000,-6.52174300000000
Time Out Cafe,BT60 1PW,54.29685700000000,-6.52262400000000
basil sheils bar & restaurant ltd,BT60 2QE,54.27272900000000,-6.66631400000000
MCGLEENAN'S CENTRA,BT60 3TW,54.2539,-6.7021
Breen Catering Limited,BT60 4EW,54.3404,-6.6664
ARMAGH CITY HOTEL LTD,BT60 4FR,54.34479800000000,-6.65070900000000
Hotshot ,BT60 4LB,54.34677886962890,-6.67943286895752
The Craicd Pot Coffee House,BT61 7BA,54.34906600000000,-6.65395200000000
EMBERS,BT61 7BW,54.34779100000000,-6.65322500000000
ULURU BAR & GRILL,BT61 7BW,54.34779100000000,-6.65322500000000
Armagh Indian Nights,BT61 7BY,54.34694500000000,-6.65142300000000
Caffe Nero,BT61 7DF,54.34732900000000,-6.65288600000000
Little Eden ,BT61 7DF,54.34703850000000,-6.65251240000000
O E Whitten & H I Faloon T/A Subway,BT61 7DF,54.34732900000000,-6.65288600000000
The Gathering Rooms,BT61 7ED,54.34788800000000,-6.65706700000000
Keegans Bar Armagh,BT61 7EP,54.34438600000000,-6.65730400000000
East Chinese Restaurant ,BT61 7HT,54.3557,-6.6569
KFC,BT61 7JX,54.35146000000000,-6.65435100000000
Charlemont Arms Hotel (Armagh) Limited,BT61 7LB,54.35037200000000,-6.65507800000000
DESBURRITO,BT61 7LG,54.35050540000000,-6.65564410000000
Spice Lounge,BT61 7LJ,54.35144700000000,-6.65564300000000
TONIS BAR AND GRILL LTD,BT61 7LJ,54.35144700000000,-6.65564300000000
Perfect Blends Tearoom and Treasure,BT61 7QB,54.34622870000000,-6.65401520000000
Friar Tucks Armagh,BT61 7QL,54.3450,-6.6542
Costa Coffee,BT61 8DB,54.38463000000000,-6.66890400000000
Arose Coffee Shop,BT61 8RF,54.38088226318360,-6.57815599441528
Cup N Cone,BT61 9BT,54.34986114501950,-6.65341901779175
the coffee cart,BT61 9LF,54.38683120000000,-6.53911280000000
Tandra Tea Coffee House,BT62 2BW,54.35399730000000,-6.41419600000000
Sally McNally's At The Corner,BT62 3SH,54.37760000000000,-6.46847620000000
K11 Restaurant and Bar,BT62 4EY,54.39998400000000,-6.48376300000000
