name,postcode,lat,lon
galliwasp and Mockingbird,BT22 1LF,54.379208000000000,-5.545483000000000
Duck and indigo snake,BT22 1LG,54.380246000000000,-5.544867000000000
galliwasp and copperhead,BT22 1LN,54.382087000000000,-5.546805000000000
Mamo and carpet snake,BT22 1NA,54.383516000000000,-5.543055000000000
Myna and Piping shrike,BT22 1PT,54.381952000000000,-5.539745000000000
Old World quail and Petrel,BT22 1QP,54.388011000000000,-5.461104000000000
Solitaire and cayman,BT22 1RG,54.338715000000000,-5.500176000000000
flying dragon and Siskin,BT22 1RH,54.379978000000000,-5.542947000000000
Kangaroo and Tit-tyrant,BT22 1RR,54.383585000000000,-5.536999000000000
anole and Kākāriki,BT30 6FS,54.338719000000000,-5.686793000000000
Pratincole and swift,BT30 6SP,54.328494000000000,-5.697668000000000
smooth snake and rock snake,BT30 6TR,54.336618000000000,-5.687589000000000
hawksbill and Old World vulture,BT30 7AE,54.313347000000000,-5.622979000000000
Hawaiian honeycreeper and Francolin,BT30 7AH,54.333762000000000,-5.605946000000000
Chipmunk and lizard,BT30 7EA,54.298623000000000,-5.657181000000000
boa constrictor and tiger snake,BT30 7EQ,54.295902000000000,-5.648301000000000
cayman and Pratincole,BT30 7HW,54.354848000000000,-5.630472000000000
Vulture and Hawk,BT30 7JN,54.350841000000000,-5.638133000000000
Wader and Meadowlark,BT30 7JX,54.364731000000000,-5.634537000000000
Fish eagle and Marsh harrier,BT30 7LF,54.367071000000000,-5.556272000000000
anole and Recurvebill,BT30 7LN,54.265227000000000,-5.612378000000000
Ground sloth and Treepie,BT30 7LZ,54.369442000000000,-5.557392000000000
iguana and saltwater crocodile,BT30 7NE,54.371352000000000,-5.555354000000000
leguaan and slowworm,BT30 7QR,54.247137000000000,-5.639217000000000
Logrunners and python,BT30 7QX,54.229781000000000,-5.655489000000000
Old World vulture and amphisbaena,BT30 7ST,54.287000000000000,-5.581445000000000
boa constrictor and Booted eagles,BT30 7TD,54.287484000000000,-5.614777000000000
agamid and Asiatic leopard,BT30 7TE,54.289171000000000,-5.618735000000000
box turtle and hognose snake,BT30 7TL,54.260797000000000,-5.611316000000000
dugite and Prion,BT30 7WU,54.266473000000000,-5.610832000000000
Ground sloth and flying lizard,BT30 9QQ,54.399665000000000,-5.651057000000000
