name,postcode,lat,lon
mamba and milk snake,CA18 1RS,54.338279092404000,-3.363257211083060
Rat and giant tortoise,CA18 1SE,54.354210436040600,-3.410547458199930
rock python and Siskin,CA19 1XH,54.377258205503000,-3.442268778567750
Asiatic leopard and Goose,CA19 1XR,54.377779445402800,-3.443026086636930
rock snake and Diving bird,CA19 1YZ,54.367394292029600,-3.431286740891630
frill-necked lizard and milk snake,CA20 1JP,54.399653104190300,-3.473665000000000
bull snake and Capuchin,CA20 1LJ,54.399508455978000,-3.473119376697140
Tahr and cerastes,CA20 1NJ,54.395823758758300,-3.477500485120400
boa constrictor and Kite,CA20 1NU,54.392038358410500,-3.480552623560870
asp and flying dragon,CA20 1PH,54.398452946557500,-3.477117468082500
asp and perentie,CA20 1PW,54.396954109895500,-3.479143106502870
Mouse and boomslang,LA19 5TD,54.282561877319900,-3.377545189753720
krait and Towhee,LA19 5UL,54.278693727628100,-3.372316805862540
Mouse and Piping shrike,LA19 5XD,54.294764794168200,-3.396544683337030
Peafowl and Capuchin,LA19 5XN,54.275261044513200,-3.383260527289260
Goose and Black jay,LA19 5XX,54.313156929899400,-3.379135982833500
Mockingbird and hognose snake,LA19 5YJ,54.328279802092200,-3.377120110026430
cayman and rock python,LA19 5YN,54.333291469884000,-3.368751892092440
Tit-tyrant and Vulture,LA19 5YQ,54.334089000000000,-3.391848000000000
