name,postcode,lat,lon
sand viper and Condor,CA18 1RG,54.360221067956500,-3.389053805476860
cobra de capello and Tattler,CA18 1RJ,54.356584323892900,-3.381713911348350
turtle and dukite,CA19 1TW,54.390650431348300,-3.331157037123000
leguaan and saltwater crocodile,CA20 1JQ,54.399011196974700,-3.475566272762270
Asiatic leopard and Zebra,CA20 1LD,54.399729238544200,-3.469753647996010
Flameback and caiman,CA20 1LN,54.399511546681600,-3.479266000000000
Marmoset and Capuchin,CA20 1NW,54.394307940787200,-3.483838141070000
massasauga and flying dragon,CA20 1QH,54.398294857068800,-3.484875525343370
leguaan and tree snake,LA18 4AG,54.210137707760000,-3.267674251633590
constrictor and ringhals,LA18 4AH,54.211032719707200,-3.267180309237040
dukite and tiger snake,LA18 4ER,54.196263301636000,-3.287713110739420
Eagle and Nukupu ªu,LA18 4EU,54.196476090540000,-3.289666469260120
tiger snake and River dolphin,LA18 4JB,54.205145760852200,-3.279066259811400
hawksbill and Moluccan boobook,LA18 4JD,54.207035105337800,-3.276349448423200
Dorcopsis and Polecat,LA18 4JP,54.207621080343700,-3.259102831153430
River dolphin and Petrel,LA18 4NB,54.203300458710200,-3.312737910933610
Tattler and bull snake,LA18 5BX,54.212305994679200,-3.277677427583520
bandy-bandy and Crow,LA18 5EW,54.210165575539700,-3.283714172449610
Minke whale and Mockingbird,LA18 5LS,54.231418323144000,-3.331288581780550
Puffleg and wall lizard,LA19 5UT,54.243459000000000,-3.359054000000000
Jackal and Cloud rat,LA19 5YQ,54.334089000000000,-3.391848000000000
frilled lizard and water snake,LA20 6DY,54.344055000000000,-3.247333000000000
Greenbul and Partridge,LA20 6EU,54.297944785904500,-3.242281377122820
