name,id,postcode,lat,lon
White ibis and Solitaire,937425,LA10 5RX,54.321174434359000,-2.527334574255050
Duck and puff adder,928010,LA9 6HJ,54.335905575609100,-2.732025176532920
Scimitar babbler and Coati,928897,LA8 0AP,54.330579342814000,-2.638080894436220
Marmoset and racer,927934,LA9 4QA,54.330193262876800,-2.747547265675940
pit viper and Duck,927696,LA9 7AR,54.329807584459200,-2.738667509008210
rattlesnake and Lemming,928653,LA8 8AJ,54.300264334260100,-2.799511821659130
Bunting and cycling lizard,928028,LA9 4UD,54.327019030230300,-2.746367206547780
Dolphin and bearded lizard,937330,LA10 5RQ,54.268604911804700,-2.402169851031190
elapid and horned viper,928574,LA8 0JD,54.276695562746400,-2.745364990302040
Civet and Bronzewing pigeon,928441,LA8 9AR,54.364196849180800,-2.730696915102500
cycling lizard and gecko,927980,LA9 4SW,54.333309532524900,-2.752263559872530
gopher snake and galliwasp,929165,LA6 2LX,54.253361876096900,-2.571379130185070
Minke whale and Old World vulture,930282,LA5 0JF,54.182039415744000,-2.806621331813400
Old World warbler and Quetzal,1787814,LA9 7FF,54.309017685317900,-2.739725000000000
amethystine python and leathery turtle,928121,LA9 5HR,54.313801830247400,-2.754505343795120
Herring gull and Piping shrike,928608,LA8 0NB,54.279860827088500,-2.684463214428190
thorny devil and Egret,928490,LA8 9EN,54.398326938909500,-2.686942996494450
milk snake and swift,927758,LA9 5PF,54.338249766970300,-2.749831368456830
amethystine python and blue racer,927547,LA9 6LQ,54.331868791669700,-2.723326308238780
tortoise and cobra de capello,927493,LA9 7RD,54.306425062274200,-2.719070000000000
Fox and giant tortoise,928101,LA9 5EP,54.333544050784100,-2.755005269445860
Badger and viper,928908,LA8 0BD,54.307561489541100,-2.669799791543610
boa and frill-necked lizard,929527,LA5 9UD,54.178743784331500,-2.773309843642650
Capuchin and Songlark,928638,LA8 0NX,54.291612142235100,-2.680448649211450
Old World quail and Tit-tyrant,2150545,LA9 4AZ,54.327702000000000,-2.745105000000000
Magpie and leathery turtle,929274,LA6 2XB,54.202182976040900,-2.598189482890690
Linsang and glass snake,929329,LA6 1NQ,54.178162000000000,-2.719507000000000
iguana and Grosbeak,929105,LA7 7DJ,54.229702190395600,-2.760809038109720
galliwasp and grass snake,928258,LA9 4ET,54.324146520677900,-2.745807798841430
cobra and diamondback,928874,LA7 7RJ,54.209987812574800,-2.774230846332790
Tree warbler and Thrasher,937724,LA10 5JT,54.318662046949100,-2.509669562797680
Bunting and carpet snake,937763,LA10 5LX,54.334650479127500,-2.474526000000000
black snake and Lemming,927731,LA9 5LT,54.322606763599600,-2.749177748211060
thorny devil and chuckwalla,928402,LA8 8QE,54.264839866466500,-2.790688719068610
snapping turtle and Flameback,929448,LA6 2AZ,54.203384320001300,-2.598789393953950
loggerhead and Stilt,1787776,LA6 2FJ,54.199774699969600,-2.593694289143620
fer-de-lance and Mouse,927892,LA9 6BT,54.332173890597100,-2.741170458188490
Marmoset and perentie,929718,LA6 1LJ,54.180847224093300,-2.721116133906730
Zebra and Vole,928081,LA9 5DG,54.322092009128800,-2.746677718091500
Kite and caiman,928634,LA8 0NS,54.305333184395500,-2.661556984384590
kabaragoya and hawksbill,929359,LA6 1QB,54.204925478917000,-2.729982896785740
milk snake and Buzzard,928221,LA9 5LE,54.322369188914400,-2.748358574287730
anole and monitor,928048,LA9 5AL,54.322971613288200,-2.743956930260250
horned viper and Jerboa,928504,LA8 9HE,54.362652003721200,-2.773791357777300
Bunting and galliwasp,927652,LA9 6QL,54.352407157357000,-2.763797994139490
lizard and monitor,928809,LA7 7NL,54.240598806010100,-2.722234757730560
Goose and cobra de capello,929201,LA6 2PT,54.211034456173300,-2.640376180160720
bushmaster and Tahr,928446,LA8 9AX,54.367736264207200,-2.751446032201530
Towhee and Rabbit,929479,LA6 2DR,54.198477147987800,-2.595162217720460
Argus and leathery turtle,929117,LA7 7DZ,54.231654000000000,-2.773394000000000
Meadowlark and lizard,929507,LA6 2FB,54.204566066005100,-2.603313718164890
Armadillo and harlequin snake,928658,LA8 8AR,54.296447351479600,-2.797747694470770
Chipmunk and Moluccan boobook,927946,LA9 4QR,54.333134282267800,-2.752983156501740
Kestrel and Flameback,928872,LA7 7RG,54.231052401484000,-2.771787131561340
Civet and lizard,927640,LA9 6PW,54.349353004328500,-2.759279769192460
dugite and Ground sloth,928626,LA8 0NG,54.291528859819100,-2.679279682650910
smooth snake and Crow,928364,LA8 8NE,54.267203550504800,-2.786573000190570
Old World quail and Snipe,927337,LA9 7HZ,54.312143039865000,-2.736429651520410
Siskin and Bunting,928019,LA9 6JA,54.329838000000000,-2.732286000000000
Jackal and Jerboa,929196,LA6 2PN,54.208178370446100,-2.656706661274760
Mockingbird and bushmaster,928224,LA9 5LH,54.315425532291700,-2.753551249214700
green turtle and rat snake,928727,LA7 7EN,54.243371432765800,-2.775040143067810
Stint and galliwasp,1787800,LA9 5EW,54.321484582694800,-2.745483241089620
Black jay and cobra de capello,937654,LA10 5BY,54.321601000000000,-2.530784000000000
Skunk and Perching duck,927431,LA9 7NA,54.309439506460300,-2.727267079890800
Linsang and taipan,927676,LA9 6RY,54.331850548910400,-2.739672960072530
caiman and diamondback turtle,1787779,LA6 2XE,54.202188074126200,-2.598189881207310
Parakeet and thorny devil,927570,LA9 6NW,54.346422229133300,-2.740626945097710
Duck and snapping turtle,928240,LA9 4BW,54.328366000000000,-2.743762000000000
monitor and tortoise,928394,LA8 8PU,54.266287000000000,-2.788146390479210
Petrel and ringhals,928589,LA8 0JZ,54.280516927308400,-2.755202343175470
Diving bird and coral snake,927967,LA9 4RY,54.335739672994100,-2.747355698728610
sidewinder and rattlesnake,928009,LA9 6HG,54.336007000000000,-2.734795000000000
king snake and Marsh harrier,928248,LA9 4DP,54.327953000000000,-2.748064412430450
Stilt and diamondback turtle,927833,LA9 5QZ,54.316355812047000,-2.744499000000000
Kākāriki and hawksbill,927573,LA9 6NZ,54.344663180759700,-2.737442000000000
pit viper and Coati,927990,LA9 6ES,54.333869014524000,-2.737340847873500
Capuchin and indigo snake,937673,LA10 5DY,54.322717626172000,-2.538101134659370
hognose snake and Kite,937650,LA10 5BT,54.323357441580800,-2.529591853657060
jew lizard and Triller,928815,LA7 7NT,54.240416074299200,-2.713684895160450
frill-necked lizard and Hawk,927824,LA9 7HH,54.309801618602400,-2.729809504093450
Herring gull and alligator,927512,LA9 7SD,54.318796537264300,-2.726940000000000
Perching duck and iguana,929693,LA6 1JA,54.184384943511100,-2.720181697851490
Old World warbler and leguaan,937658,LA10 5DD,54.323677317179100,-2.530426209698440
Diving bird and taipan,927607,LA9 9SE,54.327019030230300,-2.746367206547780
glass snake and Pratincole,928034,LA9 4UQ,54.327019030230300,-2.746367206547780
Cloud rat and dukite,927894,LA9 6BW,54.333077730365400,-2.743262831868520
agama and Skunk,927545,LA9 6LN,54.330833906675800,-2.725045826979920
carpet snake and Egret,928466,LA8 9DE,54.374123000000000,-2.617570715119260
Perching duck and habu,937758,LA10 5LR,54.325405947380900,-2.487089444268900
Solitaire and Komodo dragon,928572,LA8 0JA,54.259601091381100,-2.705081887225250
Grackle and Schneider python,928903,LA8 0AW,54.325249000000000,-2.679482000000000
mud turtle and bull snake,927828,LA9 5QT,54.316280751958200,-2.746095914010640
Warbler and Philippine hawk-owl,928557,LA8 0HG,54.258781509450200,-2.706910008961480
viper and flying lizard,927637,LA9 6PS,54.350843574099500,-2.759491880954020
alligator and flying lizard,927333,LA9 7HU,54.308775188234200,-2.733080420059470
leathery turtle and Black cockatoo,929159,LA6 2LQ,54.240005462348300,-2.522109682611800
Polecat and anole,928405,LA9 4NN,54.327976031499100,-2.751458858932000
deaf adder and Pratincole,927468,LA9 7PX,54.321198729402800,-2.719157132813870
Marmoset and pit viper,927908,LA9 6DR,54.336458226362900,-2.737202634280620
Old World warbler and Grackle,928788,LA7 7LG,54.201986501975800,-2.803407389005880
Piping shrike and leathery turtle,927792,LA9 7DY,54.320397658586800,-2.734271045301700
Hawk and gopher snake,928748,LA7 7HF,54.211052135725400,-2.806527366768130
krait and Francolin,927138,LA9 9TT,54.327019030230300,-2.746367206547780
habu and Chipmunk,928561,LA8 0HN,54.267418000000000,-2.704094000000000
Prion and racer,927864,LA9 6AD,54.329912000000000,-2.733441000000000
Goose and gecko,927708,LA9 7BG,54.322985600387600,-2.728413212529610
rock python and coral snake,928585,LA8 0JT,54.267870513749400,-2.746710427720060
blindworm and slowworm,928577,LA8 0JG,54.284312819030200,-2.734320142791550
indigo snake and cobra de capello,928601,LA8 0LT,54.302786648036800,-2.703391924965430
anaconda and indigo snake,929130,LA6 2JD,54.184576000000000,-2.547399000000000
Linsang and amethystine python,928271,LA9 4HH,54.326034995534900,-2.745626712207880
death adder and bearded dragon,937670,LA10 5DU,54.322583558546400,-2.535916204012270
boa and king cobra,937707,LA10 5HS,54.321698935994900,-2.568175124760770
