name,postcode,lat,lon
Skunk and crocodile,LA10 5AB,54.323703751309000,-2.526444446101920
harlequin snake and Black jay,LA10 5AY,54.325071671505000,-2.528076342322280
Rat and Grouse,LA10 5BF,54.322373908650400,-2.537697226541120
Francolin and Black jay,LA10 5DJ,54.323444655203100,-2.532237444159270
sand lizard and Chipmunk,LA10 5DS,54.323118000000000,-2.537185626416390
bushmaster and Old World vulture,LA10 5DT,54.322752188465500,-2.536395008632460
garter snake and blue tongue,LA10 5HU,54.331939072989600,-2.555829394459790
frilled lizard and frilled lizard,LA10 5NA,54.354020000000000,-2.467103000000000
glass snake and Tree warbler,LA10 5RQ,54.268604911804700,-2.402169851031190
Parrotbill and Parakeet,LA10 5RZ,54.320693000000000,-2.528635000000000
Chickadee and habu,LA10 5SJ,54.316241254274600,-2.523013379358670
iguana and galliwasp,LA10 5SW,54.315767552586100,-2.518242063322490
cobra and blindworm,LA10 5SY,54.295283000000000,-2.484476591354250
Perching duck and monitor,LA10 5TQ,54.276728442673800,-2.388780620737700
Boto and Darwin's finches,LA6 2EG,54.218800481065700,-2.614333156551120
snake and diamondback,LA6 2ER,54.246601015318400,-2.619150723108990
Crow and diamondback terrapin,LA6 2FG,54.201355032082200,-2.603037302455080
Logrunners and Civet,LA6 2FT,54.203339986400800,-2.596690000000000
tokay and Treepie,LA6 2HD,54.290226000000000,-2.599788000000000
Thrasher and Partridge,LA6 2JA,54.186205540748300,-2.550592557706790
elapid and rat snake,LA6 2LE,54.227018000000000,-2.594254000000000
Partridge and tortoise,LA6 2NP,54.198364919593000,-2.613937916144580
massasauga and agama,LA6 2PX,54.223002113992200,-2.662662902210700
agamid and perentie,LA6 2QA,54.249521000000000,-2.645198347205920
Zebra and Kangaroo,LA6 2SD,54.203460060485000,-2.575887038357950
thorny devil and Old World vulture,LA6 2WP,54.202182976040900,-2.598189482890690
milk snake and hawksbill,LA6 3AS,54.214828649970200,-2.339558106495010
tokay and Schneider python,LA6 3JG,54.188878221152600,-2.404751239813330
brown snake and Dolphin,LA8 0DL,54.346118498366900,-2.613815961935700
Mamo and giant tortoise,LA8 9DD,54.381126915071400,-2.625485422036760
