name,postcode,lat,lon
Costa Coffee Grange ,LA11 6BA,54.19319000000000,-2.91051000000000
hampsfell house hotel limited,LA11 6BG,54.19668500000000,-2.90946800000000
Butterfingers Limited ,LA11 6DP,54.19378700000000,-2.90874500000000
The Commodore Inn,LA11 6DY,54.19430000000000,-2.90749900000000
Hazelmere Cafe & Bakery,LA11 6ED,54.19613200000000,-2.90525600000000
S Cafe ltd,LA11 6ED,54.19613200000000,-2.90525600000000
grange hotel,LA11 6EJ,54.19758200000000,-2.90245200000000
Cumbria Grand Restaurant,LA11 6EN,54.20050300000000,-2.89531000000000
Netherwood Hotel,LA11 6ET,54.19809200000000,-2.89924400000000
Uplands Inn Cartmel,LA11 6HD,54.19567900000000,-2.93858400000000
Harry's CafeBar  Yew Tree Barn,LA11 6JP,54.23233600000000,-2.91342700000000
Masons Arms,LA11 6NW,54.29840000000000,-2.90207400000000
The Cavendish  Arms at Cartmel Ltd,LA11 6QA,54.20145100000000,-2.95445800000000
Cartmel Coffee,LA11 6QB,54.20080100000000,-2.95482700000000
Priory Hotel,LA11 6QB,54.20080100000000,-2.95482700000000
The Derby Arms,LA11 6RH,54.23926700000000,-2.85820400000000
The Engine Inn,LA11 7NZ,54.18000900000000,-2.97762200000000
The Pheasant Inn,LA11 7RQ,54.17785700000000,-2.94198000000000
Booths,LA12 7LY,54.19847800000000,-3.08275500000000
Bakehouse Born and Bread,LA12 7RT,54.23460000000000,-3.05238600000000
Rusland Pool Hotel,LA12 8AA,54.24873700000000,-3.03273300000000
Lakes Aquarium,LA12 8AS,54.2793,-2.9582
Lakeside Hotel,LA12 8AT,54.27913900000000,-2.95686800000000
The Royal Oak,LA12 8BS,54.25526700000000,-3.06820100000000
The Manor House,LA12 8HG,54.27640900000000,-3.04846000000000
Newby Bridge Hotel ,LA12 8NA,54.26772700000000,-2.97117500000000
The Swan Hotel & Spa,LA12 8NB,54.26924800000000,-2.96976800000000
Cafe Ambio at Lakeland Motor Museum,LA12 8TA,54.25989200000000,-2.98967400000000
T/A The Bay Horse Hotel ,LA12 9EL,54.18911100000000,-3.05359000000000
The Terrace Coffee House and Restaurant,LA21 8AD,54.34182800000000,-3.06606100000000
The Coniston Inn,LA21 8AJ,54.36893400000000,-3.06317700000000
The Bluebird Cafe by the lake,LA21 8AN,54.36384300000000,-3.06663100000000
The Yewdale Inn,LA21 8DU,54.36968700000000,-3.07560300000000
LAKES HOT SPOT,LA21 8ED,54.36923599243160,-3.07289695739746
The Sun ,LA21 8HQ,54.36922800000000,-3.07968500000000
Tower Bank Arms,LA22 0LF,54.35247000000000,-2.97020400000000
Cuckoo Brow Inn,LA22 0LQ,54.35151200000000,-2.95850300000000
Queens Head ,LA22 0NS,54.37517900000000,-2.99920400000000
The Red Lion,LA22 0NS,54.37517900000000,-2.99920400000000
Poppi Red,LA22 0NT,54.37394000000000,-2.99791200000000
The Sun Inn,LA22 0NT,54.37394000000000,-2.99791200000000
Ginny's Teapot Ltd,LA22 0NZ,54.37454430000000,-2.99869740000000
KITTCHEN,LA22 0NZ,54.37454430000000,-2.99869740000000
Minstrels Gallery Tearoom,LA22 0NZ,54.37477600000000,-2.99902500000000
The Kings Arms Hotel,LA22 0NZ,54.37477600000000,-2.99902500000000
The Lamplighter Dining Rooms,LA23 1AF,54.38028400000000,-2.90579400000000
Cedar Manor,LA23 1AX,54.38166000000000,-2.91273800000000
THE BREW ROOM CAFE LTD,LA23 1BL,54.37764300000000,-2.90562800000000
Windermere Jetty Museum,LA23 1BN,54.37218093872070,-2.91940808296204
First Floor Cafe Limited,LA23 1BQ,54.37917200000000,-2.90178200000000
Hooked Restaurant,LA23 1DP,54.37685100000000,-2.90693500000000
Sugar & Spice Cafe & Bistro,LA23 1DX,54.37815700000000,-2.90651700000000
Brown Sugar,LA23 1DY,54.37886600000000,-2.90662500000000
The Pig,LA23 1EA,54.37849500000000,-2.90586200000000
Briery Wood Country House Hotel,LA23 1ES,54.3848,-2.9156
The Sun Inn,LA23 1HH,54.39319992065430,-2.91856908798218
Windermere Manor Hotel,LA23 1JF,54.3836,-2.9165
Cragwood Country House Hotel,LA23 1LQ,54.39912300000000,-2.93971200000000
Booths,LA23 1QA,54.3799,-2.9040
The Brookside Inn,LA23 2BX,54.37394900000000,-2.90679300000000
Hillthwaite House Hotel Ltd,LA23 2DF,54.37047100000000,-2.90680900000000
Windermere Boutique Hotel ,LA23 2EQ,54.37182800000000,-2.91038000000000
Windermere Park,LA23 2LA,54.37503900000000,-2.90885000000000
The Arts Bar ,LA23 3AE,54.36255200000000,-2.91760800000000
The Westmorland Inn ,LA23 3AP,54.36684100000000,-2.91621100000000
Base Pizza Place,LA23 3BJ,54.36630570000000,-2.91684640000000
Jintana Thai Restaurant (Bowness),LA23 3BJ,54.36607900000000,-2.91716300000000
Mio Mondo,LA23 3BJ,54.3661,-2.9171
Urban Food House,LA23 3BJ,54.36607900000000,-2.91716300000000
Doctor Brews Limited,LA23 3BS,54.36550521850590,-2.91785788536072
House of Siam,LA23 3BS,54.36550700000000,-2.91785800000000
The Alpine Restaurant ,LA23 3BS,54.36550700000000,-2.91785800000000
The Angel Inn,LA23 3BU,54.36467000000000,-2.91797800000000
The Albert Bowness Limited,LA23 3BY,54.36490700000000,-2.91992300000000
The Magic Roundabout,LA23 3BY,54.36490700000000,-2.91992300000000
THE FLYING PIG,LA23 3BZ,54.36553600000000,-2.91982900000000
Costa Coffee Bowness,LA23 3DB,54.36432000000000,-2.92027900000000
Costa Coffee,LA23 3DB,54.36432000000000,-2.92027900000000
The Cornish Bakery,LA23 3DB,54.36432000000000,-2.92027900000000
You and Me Chinese Restaurant ,LA23 3DB,54.36432000000000,-2.92027900000000
GOLDEN FORTUNE,LA23 3DE,54.36371300000000,-2.92089700000000
The Village Inn Bar & Grill,LA23 3DE,54.3636,-2.9207
Macdonald Old England Hotel & Spa,LA23 3DF,54.36412600000000,-2.92222900000000
Stags Head Hotel (Bowness) ,LA23 3DG,54.36434800000000,-2.92129500000000
Stags Head Hotel (Bowness) Ltd,LA23 3DG,54.36434800000000,-2.92129500000000
ChoccoBar Ltd,LA23 3DU,54.3661,-2.9181
KD's Cafe,LA23 3DU,54.36610700000000,-2.91808700000000
La Trattoria,LA23 3DU,54.36610700000000,-2.91808700000000
Folk Cafe,LA23 3DY,54.3646,-2.9207
Bodega Bar & Tapas,LA23 3EB,54.36424400000000,-2.91967700000000
Hyltons Restaurant,LA23 3EB,54.36424400000000,-2.91967700000000
MELA SPICE FUSION LIMITED,LA23 3EB,54.36424400000000,-2.91967700000000
Porto Restaurant,LA23 3EB,54.36424400000000,-2.91967700000000
Bryson's Bakery,LA23 3ED,54.36430600000000,-2.91984800000000
Jacksons Bistro,LA23 3EE,54.36374600000000,-2.92018900000000
CAFFE RIVA,LA23 3EF,54.36382900000000,-2.91992900000000
Belsfield Restaurant & Brasserie,LA23 3EL,54.36168900000000,-2.92117400000000
Boatmans Cafe,LA23 3HB,54.35825800000000,-2.92322100000000
Boardwalk Bar and Grill ,LA23 3HE,54.36173248291020,-2.92745590209961
Boaters Bowness Ltd,LA23 3HE,54.3617,-2.9275
The Old Pump House Cafe,LA23 3HE,54.36161500000000,-2.92735900000000
The Ship Inn,LA23 3HE,54.36161500000000,-2.92735900000000
THE BURNSIDE HOTEL,LA23 3HH,54.36124200000000,-2.92085700000000
The Bluebird Cafe on the bay,LA23 3HJ,54.36138800000000,-2.92284500000000
Bowness Pier Lewis's Coffee Shop,LA23 3HQ,54.36280800000000,-2.92293800000000
Lindeth Howe Hotel,LA23 3JF,54.34963500000000,-2.92376600000000
Lindeth Fell Country House,LA23 3JP,54.34945200000000,-2.92070100000000
The Boathouse Bar & Restaurant Ltd,LA23 3JQ,54.35475950000000,-2.92474410000000
Blackwell The Arts and Crafts House,LA23 3JT,54.3428,-2.9226
Storrs Hall Hotel,LA23 3LG,54.33925800000000,-2.93610000000000
WMBRC Limited,LA23 3LJ,54.33130600000000,-2.93475100000000
Hrishi Restaurant ,LA23 3NE,54.35423900000000,-2.91282200000000
Spice Restaurant ,LA23 3NE,54.35423900000000,-2.91282200000000
Wild Boar,LA23 3NF,54.35119200000000,-2.87024400000000
Brown Horse Winster 2018 Ltd,LA23 3NR,54.33441000000000,-2.89638800000000
The Albion,LA5 0HA,54.20215200000000,-2.83462400000000
Burger King,LA6 1JF,54.17909000000000,-2.73383400000000
Costa Coffee,LA6 1JF,54.17909000000000,-2.73383400000000
smithy inn,LA6 1PS,54.20328800000000,-2.73325100000000
The Wheatsheaf,LA7 7AL,54.20908737182617,-2.77470564842224
Lakeland Wildlife Oasis Ltd,LA7 7FE,54.19381332397461,-2.75377464294434
Cafe Ambio at Rural Auction Centre,LA7 7FP,54.23240100000000,-2.71345600000000
The Kingfisher Restaurant,LA7 7HW,54.22172900000000,-2.79859200000000
ship inn,LA7 7HW,54.22172900000000,-2.79859200000000
Crooklands Hotel Ltd,LA7 7NW,54.24679500000000,-2.71566800000000
No3 Curry House,LA7 7QL,54.22637400000000,-2.77265200000000
The Bulls Head,LA7 7QL,54.2261,-2.7726
Low Sizergh Barn Ltd,LA8 8AE,54.28412500000000,-2.77159800000000
Wheatsheaf Inn,LA8 8AN,54.29945000000000,-2.79905200000000
The Strickland Arms,LA8 8DZ,54.27861900000000,-2.76972800000000
THE VILLA LEVENS,LA8 8EA,54.27461000000000,-2.76699700000000
Gilpin Bridge inn,LA8 8EP,54.26208400000000,-2.81182300000000
Wainwrights Bar & Restaurant,LA8 8EQ,54.25502395629880,-2.79642701148987
Punch Bowl Inn,LA8 8HR,54.31354600000000,-2.85355500000000
Damson Dene Hotel,LA8 8JE,54.31840800000000,-2.89092100000000
The Sun Inn,LA8 8LA,54.34897900000000,-2.82445900000000
Lake House,LA8 8LN,54.34285400000000,-2.87615900000000
The Gateway Inn,LA8 8LX,54.34534835815430,-2.77695894241333
The Hare and Hounds  Levens,LA8 8PN,54.26373600000000,-2.79317100000000
2sisters at Plumgarth,LA8 8QJ,54.3449,-2.7776
EAGLE AND CHILD INN,LA8 9LP,54.37334000000000,-2.81310900000000
More The Artisan Bakery,LA8 9LR,54.3774,-2.8152
Wilf's Café,LA8 9LR,54.37735200000000,-2.81523600000000
Staveley Antiques,LA8 9LU,54.3773,-2.8167
Cafe Ambio at Ings Service Station,LA8 9PY,54.3802,-2.8532
The Watermill Inn,LA8 9PY,54.38027100000000,-2.85333800000000
Lakeland Farm Visitor Centre Ltd,LA8 9QF,54.38317460000000,-2.85057020000000
Babaganoush Soup Kitchen,LA9 4AB,54.32783800000000,-2.74622900000000
Babaganoush Veggie cafe,LA9 4AB,54.3278,-2.7462
finkles restaurant,LA9 4AB,54.32783800000000,-2.74622900000000
the cottage kitchen,LA9 4AB,54.32783800000000,-2.74622900000000
Walton's Bar & Grill Ltd.,LA9 4BD,54.32932100000000,-2.74327300000000
Joshua Tree Bistro,LA9 4BH,54.32820200000000,-2.74402200000000
SUBWAY,LA9 4BH,54.32820200000000,-2.74402200000000
Mumbai restaurant ,LA9 4BN,54.32838700000000,-2.74468600000000
19 The Wine bar,LA9 4DH,54.32683900000000,-2.74638000000000
Booths,LA9 4DP,54.3282,-2.7481
Pizza Express,LA9 4DP,54.32819500000000,-2.74808100000000
Waterside cafe,LA9 4DZ,54.32678400000000,-2.74524200000000
BREW BROTHERS,LA9 4ED,54.32617800000000,-2.74719800000000
Jintana Thai Restaurant (Kendal),LA9 4EN,54.32459600000000,-2.74723200000000
Comida food,LA9 4HE,54.32535552978520,-2.74807596206665
Fish express ,LA9 4HE,54.32535500000000,-2.74807600000000
Shakespeare Inn,LA9 4HE,54.32535500000000,-2.74807600000000
Farmhouse kitchen Ltd,LA9 4JH,54.32690600000000,-2.74871900000000
McDonalds,LA9 4LR,54.32903100000000,-2.74657400000000
Nina’s coffee shop,LA9 4LR,54.32903100000000,-2.74657400000000
McDonald's Restaurants,LA9 4LT,54.32939810000000,-2.74699640000000
The Bristly Hog,LA9 4LT,54.32939810000000,-2.74699640000000
2 sisters at Kendal,LA9 4LU,54.32937300000000,-2.74661100000000
Farrers,LA9 4LY,54.32811100000000,-2.74706500000000
Costa Coffee,LA9 4LZ,54.32907300000000,-2.74855800000000
Thai Kitchen in Kendal,LA9 4ND,54.3280,-2.7476
Kendal Golf Club,LA9 4PQ,54.32678200000000,-2.75419100000000
Stanley's Coffeehouse & Kitchen,LA9 4QB,54.3288,-2.7490
Corner 124,LA9 4QG,54.33089200000000,-2.74791500000000
PEDRO'S CASA,LA9 4QG,54.33089200000000,-2.74791500000000
Earls seafood,LA9 4QQ,54.32902270000000,-2.74811210000000
Charlies Cafe Bar,LA9 4RA,54.32990200000000,-2.74677400000000
The new union Kendal ,LA9 4RF,54.33091354370120,-2.74749994277954
Ye Olde Fleece Inn,LA9 4SX,54.32729700000000,-2.74783400000000
Caffe Nero,LA9 4TN,54.32862100000000,-2.74607400000000
Globe Inn ,LA9 4TN,54.32862100000000,-2.74607400000000
Relish No 37 Ltd,LA9 4TP,54.32830080000000,-2.74568480000000
The Union Jack Cafe,LA9 5AF,54.32270700000000,-2.74607500000000
Stonecross Manor Hotel,LA9 5HP,54.31337200000000,-2.75282300000000
Riverside Hotel ,LA9 6BZ,54.3342,-2.7386
Carus Green Golf Club,LA9 6EB,54.34283800000000,-2.75057700000000
Eastern Balti ,LA9 6EN,54.33088300000000,-2.74067200000000
The Duke Of Cumberland,LA9 6ES,54.33387800000000,-2.73735800000000
Lakeland Climbing Centre,LA9 6NH,54.34228300000000,-2.74147700000000
Kendal Rugby Club,LA9 6NY,54.3456,-2.7316
Alexanders pub ,LA9 6RG,54.32279100000000,-2.72203000000000
Castle Green Hotel,LA9 6RG,54.32365900000000,-2.72101500000000
Joey's cafe,LA9 7DE,54.32541275024410,-2.74329590797424
Hansens Ice Cream Parlour,LA9 7LH,54.31052800000000,-2.74039800000000
THE STATIONINN(OXENHOLME)LTD,LA9 7RF,54.30335998535156,-2.71721816062927
