name,postcode,lat,lon
Asiatic leopard and loggerhead,YO17 6TU,54.177692662687200,-0.838845000000000
Stilt and Dorcopsis,YO18 7DD,54.244031143268900,-0.773358000000000
diamondback terrapin and Asiatic leopard,YO18 7DT,54.243216309492200,-0.772001279131627
snapping turtle and frill-necked lizard,YO18 7ET,54.243310518643300,-0.776847790547316
blind snake and Linsang,YO18 7EY,54.244125449509000,-0.778327615421013
jew lizard and Nukupu ªu,YO18 7JY,54.235235592469100,-0.682052000000000
python and Dolphin,YO18 7LP,54.286422202291300,-0.691448000000000
American sparrow and massasauga,YO18 7LW,54.287643797818700,-0.699982178683554
copperhead and Gila monster,YO18 7LY,54.236144411467400,-0.681117798695062
White ibis and Vole,YO18 7LZ,54.235037507864400,-0.680171137484706
Badger and Pratincole,YO18 7NL,54.303357808798200,-0.721294845913783
Crow and bearded dragon,YO18 7PJ,54.235182000000000,-0.656507000000000
Peafowl and adder,YO18 7PX,54.298400090186500,-0.705744000000000
Francolin and indigo snake,YO18 7PY,54.298368016207000,-0.706820546664646
carpet snake and smooth snake,YO18 7QB,54.298422000000000,-0.704268000000000
snake and Fox,YO18 7RL,54.235594528724400,-0.722700021705450
Wader and Ground sloth,YO18 7RT,54.239123000000000,-0.717132641687133
copperhead and Treepie,YO18 7SL,54.235447131259900,-0.725757847694641
elapid and Flameback,YO18 7SU,54.232597903834000,-0.723468000000000
diamondback terrapin and fer-de-lance,YO18 8AL,54.247383741387000,-0.785014905846921
pit viper and mamba,YO18 8AT,54.247593133370100,-0.787065315822035
Badger and glass snake,YO18 8BS,54.245216594906400,-0.780459252051623
Cuscus and Fish eagle,YO18 8DW,54.243319909276600,-0.785655000000000
Jay and indigo snake,YO18 8EB,54.215536000000000,-0.765967000000000
agama and habu,YO18 8LY,54.248519072610000,-0.792455933745866
Siskin and rock python,YO18 8TG,54.241372315148500,-0.781600740299433
whip snake and milk snake,YO22 5AW,54.395088930986300,-0.729071932258965
whip snake and habu,YO62 4BA,54.189725000000000,-0.940977000000000
Solitaire and Pitohui,YO62 5JH,54.219408045217200,-1.003941488807340
python and American sparrow,YO62 5XD,54.200410824014000,-0.935935959310755
slowworm and Kangaroo,YO62 5XE,54.203756901224600,-0.941722000000000
Ground sloth and Hawk,YO62 5YE,54.204824966498000,-1.014272881788170
death adder and Macaw,YO62 6AR,54.269410870229700,-0.933990864220008
Old World vulture and Old World quail,YO62 6BW,54.273393972300800,-0.934164509572994
goanna and coral snake,YO62 6EQ,54.271638026798700,-0.935822207625696
Minke whale and snapping turtle,YO62 6EX,54.272167640741700,-0.935747140166388
Jackal and gecko,YO62 6HJ,54.237049260926900,-0.946639323834927
Schneider python and Cuscus,YO62 6JA,54.268655443074300,-0.929879842293175
garter snake and blue racer,YO62 6LW,54.268611342808700,-0.924798000000000
adder and constrictor,YO62 6NW,54.265195166406500,-0.920803240350878
Lemming and Thicketbird,YO62 6PX,54.266920756167500,-0.936987797397535
Minke whale and Siskin,YO62 6RN,54.211513400882100,-0.903142847304277
Myna and Dorcopsis,YO62 6SS,54.254813959622700,-0.848852539543609
brown snake and leathery turtle,YO62 6TQ,54.305622752419800,-0.880447942594559
green turtle and mud turtle,YO62 7HH,54.251312229283800,-0.955868847824394
Tahr and python,YO62 7HQ,54.252984992236500,-0.954829000000000
Moluccan boobook and Elephant,YO62 7LD,54.366699834237700,-0.959455228523167
Elephant and Bronzewing pigeon,YO62 7LT,54.276224000000000,-0.915122000000000
goanna and Meadowlark,YO62 7RR,54.248615524780000,-0.974676320024417
Black jay and Armadillo,YO62 7TB,54.252010548948100,-1.003340410930350
Condor and thorn lizard,YO62 7TW,54.287808000000000,-1.015212000000000
bull snake and Thrasher,YO62 7UB,54.263060294577400,-0.973795989920048
Chickadee and Grackle,YO62 7UX,54.347261506527200,-0.965653924809400
Dolphin and fer-de-lance,YO62 7XA,54.351377000000000,-0.978428000000000
