name,postcode,lat,lon
The Whole Hogg Farm shop & Tearooms,YO17 6RQ,54.1773,-0.7624
The Grapes Inn,YO17 6TU,54.1777,-0.8388
Beansheaf Hotel,YO17 6UE,54.2111,-0.7710
Boma Outdoor Cafe,YO17 6UX,54.2059,-0.8080
Fabrizioâ€™s All You Can Eat Pizza & Pasta,YO17 6UX,54.2059,-0.8080
Gourmet Grill,YO17 6UX,54.2059,-0.8080
Jolly Sailor 2 Go,YO17 6UX,54.2059,-0.8080
Muddy Duck Cafe,YO17 6UX,54.2059,-0.8080
Poolside Cafe,YO17 6UX,54.2059,-0.8080
The Coach House Country Pub,YO17 6UX,54.2059,-0.8080
The Mansion House & Tea Rooms,YO17 6UX,54.2059,-0.8080
Upper Deck,YO17 6UX,54.2059,-0.8080
Zanzibar Food Market,YO17 6UX,54.2059,-0.8080
Cooplands Secret Garden Pickering,YO18 7AA,54.2460,-0.7775
Feast,YO18 7AA,54.2460,-0.7775
The White Swan Inn,YO18 7AA,54.2460,-0.7775
Figaro's Italian restaurant,YO18 7AL,54.2454,-0.7759
The Black Swan Inn,YO18 7AL,54.2454,-0.7759
Lazy Sundae,YO18 7AU,54.2464,-0.7766
two Burgate ,YO18 7AU,54.2464,-0.7766
Spice 4 U,YO18 7DG,54.2448,-0.7768
Forest and Vale Hotel,YO18 7DL,54.2446,-0.7773
caffe stop ,YO18 7DP,54.2439,-0.7738
SPENCERS BAR AND GRILL,YO18 7JP,54.2221,-0.7586
Engine Shed Restaurant Steam and Moorland Garden Centre,YO18 7JW,54.2337,-0.7723
Cedarbarn Farm Shop & Cafe,YO18 7JX,54.2381,-0.7568
The Black Bull Inn,YO18 8EA,54.2220,-0.7705
The New Inn,YO18 8HH,54.2907,-0.8409
Middleton Post Office Tea Parlour,YO18 8NX,54.2575,-0.7994
The Middleton Arms,YO18 8PB,54.2589,-0.8027
The Buck Inn,YO18 8PJ,54.2637,-0.8272
Dale Head Farm Tea Garden- previously Farmhouse Fodder,YO18 8RL,54.3816,-0.9302
Coach House Inn,YO18 8SD,54.3526,-0.8854
White Horse Farm Inn,YO18 8SE,54.3497,-0.8872
Mr Wilf's Cafe,YO18 8TS,54.2448,-0.7803
STAPYLTON ARMS,YO61 4BE,54.2063,-1.1513
The White Swan (Ampleforth) Limited,YO62 4DA,54.2013,-1.1033
White Horse Inn,YO62 4DX,54.2011,-1.1097
The Fairfax Arms ,YO62 4JH,54.1842,-1.0590
Castlegate Cafe,YO62 5AB,54.2457,-1.0618
Cornercopia cafe ,YO62 5AB,54.2457,-1.0618
MANNION & CO,YO62 5AB,54.2457,-1.0618
MANNION & COHELMSLEY,YO62 5AB,54.2457,-1.0618
The Beck Tearoom,YO62 5AB,54.2457,-1.0618
The cocoa tree,YO62 5AB,54.2457,-1.0618
Feversham Arms Ltd,YO62 5AG,54.2473,-1.0633
Deep Blue Restaurants,YO62 5BG,54.2458,-1.0603
Gepettos,YO62 5BG,54.2458,-1.0603
Hemsley Spice Ltd,YO62 5BG,54.2458,-1.0603
Porters Coffee Shop,YO62 5BG,54.2458,-1.0603
The Feathers Hotel,YO62 5BH,54.2464,-1.0607
The Black Swan,YO62 5BJ,54.2468,-1.0610
La Trattoria,YO62 5BL,54.2459,-1.0616
Royal Oak Hotel,YO62 5BL,54.2459,-1.0616
The cafe on the square,YO62 5BL,54.2459,-1.0616
Crema Coffee House,YO62 5BN,54.2456,-1.0610
Barkers cafe,YO62 5DR,54.2455,-1.0611
National Centre for Birds of Prey,YO62 5EB,54.2392,-1.0745
Owl House Cafe,YO62 5EB,54.2392,-1.0745
Dogrun LTD trading as The George and Dragon,YO62 6AA,54.2698,-0.9320
Cafe Williams ,YO62 6AF,54.2691,-0.9338
Kings Head Hotel,YO62 6AT,54.2707,-0.9331
THE CORNER CAFE,YO62 6DA,54.2700,-0.9314
Kirkbymoorside Golf Club,YO62 6EG,54.2720,-0.9351
The Fox and Hounds,YO62 6SQ,54.2604,-0.8587
Lastingham Grange,YO62 6TH,54.3067,-0.8797
BLACKSMITHS ARMS,YO62 6TN,54.3053,-0.8826
The Barn Guesthouse and Tearoom,YO62 6UA,54.3004,-0.9173
The Crown,YO62 6UA,54.3004,-0.9173
The Royal Oak,YO62 7HX,54.3000,-0.9553
Feversham Arms Inn Farndale,YO62 7LF,54.3687,-0.9716
The Lion Inn,YO62 7LQ,54.3884,-0.9562
The Plough Inn,YO62 7RW,54.2472,-0.9745
Fusion Spice Coffee Limited ,YO62 7SU,54.2531,-0.9973
Beadlam Grange Farmshop & Tearoom,YO62 7TD,54.2557,-1.0213
