name,postcode,lat,lon
goanna and Linsang,YO13 0DR,54.342064821650100,-0.499286174724844
saltwater crocodile and Tree warbler,YO13 0JX,54.297572496251100,-0.521895000000000
jew lizard and Piping shrike,YO13 9AB,54.289146000000000,-0.516927000000000
bearded lizard and Vulture,YO13 9AW,54.228459226625400,-0.593629513725190
Eagle and Old World warbler,YO13 9DP,54.227734067363500,-0.551375661041142
indigo snake and Boto,YO13 9JP,54.250287000000000,-0.487752235670528
Tattler and bearded lizard,YO13 9LT,54.241898792629700,-0.512207903771754
Nukupu ªu and Mole,YO13 9NB,54.224350173049100,-0.625444612450374
green turtle and Booted eagles,YO13 9NL,54.229405308216700,-0.624202797535878
sea snake and mountain devil,YO13 9PP,54.229471575237400,-0.587075000000000
wall lizard and Pratincole,YO17 6PT,54.193357366198500,-0.872892500271315
perentie and Maya,YO17 6UE,54.211138000000000,-0.770990000000000
box turtle and rattlesnake,YO18 7BD,54.247305316965900,-0.775639000000000
Komodo dragon and New World blackbird,YO18 7ED,54.241871432080700,-0.766163928233602
Rat and Bronzewing pigeon,YO18 7ES,54.239113349122600,-0.764527635892340
Schneider python and gaboon viper,YO18 7FA,54.240831086245100,-0.767929053783997
rock snake and cerastes,YO18 7HH,54.249190456116500,-0.770841570983913
kabaragoya and snake,YO18 7HU,54.241897000000000,-0.764138000000000
Jerboa and mountain devil,YO18 7JJ,54.241019860705400,-0.776086903331274
Towhee and gavial,YO18 7JL,54.241560949638500,-0.775380353868870
flying dragon and Booted eagles,YO18 7JW,54.233673996815200,-0.772284547341835
Duck and Recurvebill,YO18 7LY,54.236144411467400,-0.681117798695062
water snake and Kite,YO18 7PZ,54.298303556301600,-0.710233000000000
Marmoset and Kestrel,YO18 7SQ,54.230621237278500,-0.724970664135654
perentie and Jackal,YO18 7TN,54.234011808438700,-0.723469991204880
habu and chuckwalla,YO18 8AA,54.246198635936200,-0.781460000000000
saltwater crocodile and alligator,YO18 8AZ,54.247315282509600,-0.788930498909613
death adder and Night heron,YO18 8BG,54.243027227993700,-0.787061123311300
blue racer and python,YO18 8DH,54.240651938810700,-0.784138527624750
Shearwater and rock snake,YO18 8NQ,54.248939920830000,-0.788714084750817
Boto and Boto,YO18 8NT,54.254979865469500,-0.797701183611275
dukite and Recurvebill,YO18 8PA,54.257317000000000,-0.800320000000000
galliwasp and monitor,YO18 8PE,54.260663671818200,-0.810738824571853
adder and python,YO18 8PH,54.269802694731600,-0.827090614075548
amphisbaena and kabaragoya,YO18 8PL,54.264287049468000,-0.826954000000000
Linsang and Night heron,YO18 8TF,54.242475956314800,-0.782304814409618
Dolphin and snake,YO22 5AR,54.389942046115200,-0.747434554322107
Recurvebill and boa constrictor,YO62 6RZ,54.262738156621200,-0.858122000000000
Ibex and gaboon viper,YO62 6SE,54.264907433643100,-0.858321043200446
Booted eagles and Songlark,YO62 6SH,54.260287000000000,-0.859167256468469
