name,postcode,lat,lon
Parrotbill and Boto,OL12 9ET,53.640316000000000,-2.121416000000000
Rat and Wader,HX3 6EN,53.729953437629700,-1.867594319776640
Grackle and Partridge,HX4 9FA,53.662815000000000,-1.881077000000000
Tahr and Boto,HX1 1XQ,53.726889086577300,-1.860177406198340
Rabbit and Skunk,HX2 0US,53.732302310566800,-1.888217143117450
Fish eagle and Rabbit,BD21 4TU,53.858746990000000,-1.890374632000000
Fulmarine petrel and Ground sloth,BB8 8NS,53.853171310000000,-2.145869685000000
Warbler and Treepie,HX3 9AG,53.711204833368300,-1.852623751445730
Egret and Fulmarine petrel,HX6 1NP,53.702638316638800,-1.950097152858290
Magpie and Parrotbill,HX6 1AH,53.706190843035800,-1.928551723345640
Meadowlark and Dorcopsis,HX2 7JL,53.715930805026000,-1.893457662520930
Stilt and Moluccan boobook,OL12 6DG,53.635887444274700,-2.171357080043190
Moluccan boobook and Tit-tyrant,HD7 4DW,53.643889561884800,-1.869830143795800
Parrotbill and Shearwater,HX7 7HG,53.754484230288000,-2.042154854369870
Piping shrike and Grackle,OL14 7NF,53.707807098554300,-2.104280621009010
River dolphin and Kākāriki,BB8 0DL,53.854537540000000,-2.178969751000000
Linsang and Tahr,HX2 6JH,53.723431991664200,-1.961802000000000
Capuchin and Armadillo,HX2 9RN,53.756229389364500,-1.889200276300380
Vulture and Black cockatoo,OL12 9ST,53.642478022000000,-2.121861920600000
Treepie and Jerboa,HX7 5NU,53.731507833119300,-1.980863832552780
Grouse and Argus,OL12 8DG,53.664924248398300,-2.174153734818260
Black jay and American sparrow,HX1 9SH,53.724426998141100,-1.860731148595220
Badger and Jay,BD21 5EB,53.850624810000000,-1.916313211000000
Masked owl and Skunk,BD13 2JH,53.769341970000000,-1.854605268000000
Ibex and Crow,BB8 7AR,53.864870000000000,-2.163336000000000
Grackle and Marmoset,OL12 6UD,53.617735368872000,-2.161941114147330
Cloud rat and Scimitar babbler,HD7 5PS,53.623731616617700,-1.852277978787610
Marmoset and Piping shrike,OL12 9PD,53.650036865570000,-2.134697424413110
Night heron and Diving bird,OL15 0AY,53.641787547357600,-2.095465435207810
Booted eagles and Fox,HX2 8HU,53.749850838890500,-1.892447042846430
Peafowl and Ice seal,HX7 8ND,53.748693852100400,-2.011790691964080
Maya and Black cockatoo,OL12 0NY,53.620048546982400,-2.159561357663880
Perching duck and Egret,HX6 2TJ,53.713871357858700,-1.914477957258710
Towhee and Condor,HX6 1AD,53.706143986607500,-1.917902036503390
Polecat and Minke whale,OL15 9NS,53.659143000000000,-2.098213000000000
Siskin and Duck,HX7 5AE,53.733495535666800,-1.993868961198760
Jerboa and New World blackbird,HX1 5NW,53.724179000000000,-1.871385138034270
Prion and Snipe,HX2 7EF,53.710273277483800,-1.879685247632080
Snipe and Diving bird,BD15 0AA,53.823566000000000,-1.861086339000000
Old World warbler and Marmoset,HX3 5TJ,53.742034772540200,-1.877365986545820
Viscacha and Diving bird,HX3 6BT,53.734405675650800,-1.866822633517890
Bronzewing pigeon and Tattler,OL15 0HB,53.644578146855800,-2.089980786531310
Darwin's finches and Armadillo,OL14 6QH,53.696941841123000,-2.102708866308550
Egret and Guillemot,HX2 6HU,53.730237000000000,-1.960751000000000
Dorcopsis and Civet,HX6 3PL,53.705841797143700,-1.909965000000000
Jay and Cuscus,HX6 2UR,53.713660873583200,-1.922175295760540
Linsang and Vole,OL16 2RQ,53.634392337192900,-2.131169202738000
Magpie and Quetzal,OL12 9LP,53.646626394798900,-2.130148323475480
Ibex and Mamo,OL13 9DF,53.705737271639400,-2.198590479495910
Moluccan boobook and Cloud rat,HX2 9SH,53.759039941384600,-1.886311026646990
Macaw and Dorcopsis,HX2 0EZ,53.729758327902500,-1.887829788392660
Puffleg and Petrel,BD22 8RL,53.827883930000000,-1.944920462000000
Masked owl and Thrasher,OL12 6LX,53.629475214100800,-2.173871430468430
Shearwater and Boto,BD22 7EH,53.858002240000000,-1.927701159000000
Asiatic leopard and Mouse,BD21 5BP,53.852366740000000,-1.913877514000000
Elephant and Goose,HX2 8LE,53.750649000000000,-1.899861000000000
Marmoset and Herring gull,HX7 7PL,53.748927000000000,-2.021101000000000
River dolphin and Pheasant,HX3 9HU,53.717702169032500,-1.851767672917450
Old World vulture and Thicketbird,HX1 1RB,53.719514076043500,-1.856125526195670
Thicketbird and Vole,OL15 9AQ,53.647899000000000,-2.094540000000000
Eagle and Mamo,HX1 3TJ,53.718013943061600,-1.891118853683310
Dolphin and Kangaroo,OL12 0AS,53.633637280985100,-2.153820702187700
Siskin and Francolin,BD21 1JF,53.862192950000000,-1.917400166000000
Old World warbler and Ground sloth,HX7 5DT,53.729496000000000,-1.982017000000000
Duck and Ice seal,HX7 6PN,53.735114140538700,-2.044545650161770
Partridge and Pratincole,HX1 1YS,53.724601557731800,-1.864034437978380
Tattler and Pratincole,HX3 9PY,53.719439918292200,-1.847033684316270
Scimitar babbler and Chicken,BB8 8RE,53.849664440000000,-2.139670873000000
American sparrow and Perching duck,HX7 8DW,53.742771308576200,-2.002616066881540
Maya and Wallaby,BB8 0BF,53.854780000000000,-2.179533000000000
Ground sloth and Black jay,HX6 3NX,53.698594940826200,-1.934062306976840
Pheasant and Thrasher,OL16 2XX,53.621542237930500,-2.136466076903660
Flameback and Grackle,BD16 2AE,53.858289590000000,-1.849706176000000
Tattler and Herring gull,OL12 7QH,53.622892260502800,-2.199198723341680
Petrel and Skunk,HX7 8NN,53.733899804469700,-1.990746217715980
Recurvebill and Boto,HX6 3HH,53.688124550437700,-1.935471686075160
Boto and Zebra,HX1 1RU,53.723417034686200,-1.857915664329500
Lemming and Linsang,OL14 5EQ,53.717989230555100,-2.095153479451660
Tattler and Viscacha,HX6 1DF,53.704148359810500,-1.931857202959120
Tree warbler and Kite,HX2 0DB,53.725961000000000,-1.892068000000000
Kestrel and Buzzard,OL11 5XB,53.622993632252000,-2.203054530084150
Linsang and Gull,HX2 8TW,53.738051033726400,-1.894129555384880
Black cockatoo and Partridge,HX2 9XQ,53.768338794998000,-1.873572592183260
Pratincole and Fulmarine petrel,HD7 5RT,53.627014268568900,-1.853869293953560
Asiatic leopard and Wallaby,BB9 8JY,53.843390230000000,-2.192083798000000
Peafowl and Flameback,BD22 7PD,53.846070670000000,-1.955095350000000
Jerboa and Jerboa,OL12 0UT,53.624442121123000,-2.154090000000000
Black jay and Goose,HX1 2YQ,53.713335121581500,-1.868176699391640
New World blackbird and Solitaire,HX3 6JF,53.736224213049800,-1.864997533502010
Grouse and Buzzard,HX3 9BP,53.708179198403300,-1.848104621648460
Thicketbird and Flameback,HX2 8TF,53.752996332597400,-1.914429084430230
Egret and American sparrow,HD7 4PD,53.649568000000000,-1.862218000000000
Thicketbird and Francolin,BB9 9XG,53.839932000000000,-2.207508000000000
Mockingbird and Triller,OL12 8XF,53.676735972428800,-2.153538928988230
Booted eagles and Dolphin,OL14 8RR,53.736904432813200,-2.061178000000000
Civet and Condor,BD22 0QG,53.861826980000000,-1.956659886000000
Old World quail and Skunk,BB9 8HJ,53.842725045086600,-2.200379113649780
Coati and Perching duck,BD22 8PH,53.828407560000000,-1.950282829000000
Tattler and Pitohui,HX6 2SN,53.713987582703600,-1.901901959017800
Scimitar babbler and Scimitar babbler,HX7 6DN,53.745249128300700,-2.026164002911970
Marsh harrier and Duck,HX2 0TN,53.745791681166300,-1.907362575576640
Kangaroo and Ibex,HX2 9TX,53.757646772160600,-1.877153770584150
Meadowlark and Chipmunk,BD22 9EP,53.836850830000000,-1.938648071000000
Chickadee and Nukupuʻu,BB8 9RS,53.861945050000000,-2.177967472000000
Buzzard and Black jay,OL14 6QY,53.690352796272100,-2.092637812693370
Warbler and Perching duck,BD13 1LG,53.774912570000000,-1.860534050000000
Fulmarine petrel and Cloud rat,OL12 6RG,53.619659005528500,-2.161827546494940
Bronzewing pigeon and Nukupuʻu,OL15 8JN,53.642060246760000,-2.102620524504250
Moluccan boobook and Snipe,HX6 4RB,53.656832669834400,-1.945672000000000
New World blackbird and Grouse,HX1 1QW,53.722748495681100,-1.855053679268980
Eagle and Songlark,BD22 7ER,53.848303390000000,-1.942674592000000
Rat and Maya,HX7 9AY,53.740653544753400,-2.014062796551170
Herring gull and Thicketbird,BD22 0HA,53.829576460000000,-1.986502034000000
Bunting and Egret,HX6 1JU,53.707144914950900,-1.938381625507490
Duck and Parrotlet,BD13 3QT,53.794352520000000,-1.845000782000000
Guillemot and Tit-tyrant,BD22 9EN,53.836481820000000,-1.937660887000000
Logrunners and Perching duck,BD15 0LJ,53.817155780000000,-1.860333345000000
Parrotlet and Chicken,HX1 1JF,53.723072505537800,-1.863084608595680
Moluccan boobook and Tahr,HX2 0HF,53.730877235486400,-1.892798000000000
American sparrow and Ground sloth,HX7 8TL,53.746707798931800,-1.991198382169150
Mink and Thicketbird,HX2 6HL,53.726034429945500,-1.950418186118940
Wallaby and Perching duck,BD15 0DY,53.823827000000000,-1.861177515000000
Philippine hawk-owl and Thicketbird,HX5 0JW,53.680330156561900,-1.845101076943580
Parakeet and Francolin,HX1 4LY,53.723182000000000,-1.880391000000000
Viscacha and Masked owl,HX6 2DA,53.711400609993100,-1.903877538081130
Chicken and Black cockatoo,OL16 1DR,53.619568977788000,-2.155009000000000
Triller and Songlark,BD16 2HB,53.860765370000000,-1.845850578000000
Siskin and Fish eagle,HX7 7PF,53.755646650905100,-2.056534000000000
Fox and Jackal,HX2 8JH,53.750342321043700,-1.899527659465200
Thrasher and Towhee,HX7 8JY,53.745754788157300,-2.011562406680610
Eagle and Mink,HX3 0LP,53.704193155723300,-1.867205445829510
Kākāriki and Kangaroo,HX7 5SR,53.707692000000000,-1.996751000000000
Parakeet and Badger,OL15 8RQ,53.638812090641700,-2.116164237923430
Jackal and Tattler,BB8 9LF,53.861072530000000,-2.165921701000000
Vulture and Grackle,BD16 2AL,53.859478740000000,-1.844791016000000
Rabbit and Argus,BD16 1QN,53.840326920000000,-1.877049190000000
Mole and Vole,HX6 3RH,53.701437967381900,-1.899204603497560
Quetzal and Pratincole,HX4 9HT,53.668274537111300,-1.882483572794990
Badger and Mockingbird,OL12 6EP,53.628106000000000,-2.157398114800940
Tahr and Piping shrike,OL13 9BN,53.704551252109700,-2.198479000000000
Tattler and Mink,HX3 5AH,53.727531022178700,-1.863464218820540
Piping shrike and Gull,BD22 8EJ,53.831646590000000,-1.959319412000000
Civet and Ground sloth,OL14 6NF,53.712354300389500,-2.094398332727560
Jackal and Scimitar babbler,HX3 6RZ,53.745682083063800,-1.875581327056730
Snipe and Chickadee,OL15 0JH,53.647153533382800,-2.083420926279010
Thicketbird and Rabbit,OL12 8QY,53.660962857200900,-2.172503068637500
Coati and Old World warbler,HX6 2AF,53.709793173262600,-1.905684043732580
American sparrow and Recurvebill,BB9 0NW,53.835242700000000,-2.200312693000000
Puffleg and Grackle,HX6 1DH,53.704938303331900,-1.930098732547520
Boto and Jackal,OL13 9HW,53.705632008110300,-2.191485317579870
Chickadee and Quetzal,OL13 8AQ,53.704949376465400,-2.202131466520830
American sparrow and Pheasant,BD13 2HT,53.766085750000000,-1.852507829000000
Boto and Armadillo,HX7 5NS,53.731876519279900,-1.982015671465900
Nukupuʻu and Parrotbill,HX6 4PW,53.653874802490700,-1.968143969522580
Darwin's finches and Fulmarine petrel,HX1 2NX,53.713107207755200,-1.865283528980490
Black cockatoo and Hawk,BB8 7BG,53.858519360000000,-2.145660262000000
Mamo and Greenbul,HX2 8NL,53.749801000000000,-1.896269000000000
Solitaire and Jackal,OL12 6DR,53.636612826008300,-2.173205127437550
Darwin's finches and Vulture,HX3 5ES,53.734762325190600,-1.876280502607600
Shearwater and Moluccan boobook,HX1 3TX,53.719228965637800,-1.892934132174490
Vulture and Recurvebill,HX6 2BQ,53.712413146844300,-1.900057195152830
Chicken and Dolphin,HX3 6AD,53.727766327589200,-1.857128048156690
Parakeet and Night heron,BD15 0AT,53.822759970000000,-1.856578000000000
Parrotbill and Buzzard,OL14 6XB,53.680098349990300,-2.078324000000000
Peafowl and Quetzal,HX7 6AR,53.741690495673000,-2.023129474379110
Polecat and Solitaire,BD22 7NQ,53.846051620000000,-1.933345368000000
Rabbit and Coati,BD15 0LP,53.818837310000000,-1.861011284000000
Polecat and Cuscus,OL14 8PA,53.733119956768000,-2.145058892311770
Capuchin and Nukupuʻu,BB10 3NU,53.786767390000000,-2.191323851000000
Maya and Masked owl,HX3 6ED,53.729768057376700,-1.862593024473300
Petrel and Lemming,HX6 4LY,53.677235631365300,-1.944919438634410
Grouse and Capuchin,HX1 5EQ,53.721289905993400,-1.876956436715850
Kākāriki and Ibex,HX1 4AG,53.723312000000000,-1.888091000000000
Civet and Marsh harrier,HD7 5QJ,53.625625196702800,-1.857276053075460
Scimitar babbler and Boto,BB8 9HR,53.857386000000000,-2.167898216000000
Armadillo and Badger,OL14 7PQ,53.704674000000000,-2.111393400403990
Crow and Chipmunk,HX1 5AN,53.723273000012900,-1.865523892080580
Jackal and River dolphin,HX7 5DZ,53.729604000000000,-1.982683497774560
Old World vulture and Old World vulture,OL13 8RZ,53.724105374017800,-2.195297520144540
Egret and Siskin,HX3 5HZ,53.728784000000000,-1.873918000000000
Kangaroo and Stint,BD16 1BE,53.840516730000000,-1.861501932000000
Fish eagle and Towhee,HX2 6TG,53.746073182810400,-1.940280963116070
Darwin's finches and Buzzard,BD21 5DR,53.855966990000000,-1.908609990000000
Shearwater and Towhee,OL12 0QA,53.624872868541500,-2.161318337206810
Old World vulture and Triller,BB8 0BE,53.861588110000000,-2.156816063000000
Myna and Warbler,HX3 0QT,53.702829752842600,-1.854122270873700
Myna and Capuchin,HX6 3QB,53.703712666464700,-1.911514369141150
Siskin and Fish eagle,HX2 6PY,53.731889147225300,-1.938497181796120
Herring gull and Tattler,HX7 5AQ,53.729306520985700,-1.986563859261700
Philippine hawk-owl and Mamo,HX4 0DP,53.675726559745700,-1.929495993459060
Vole and Old World warbler,BD22 7TD,53.845136520000000,-1.956707420000000
American sparrow and Kite,HX3 5QP,53.740657576926600,-1.875399042004190
Macaw and Old World quail,BD13 1PF,53.770869370000000,-1.846922965000000
Grosbeak and Darwin's finches,BD13 4AW,53.802479090000000,-1.896488178000000
Marsh harrier and Songlark,OL13 8RU,53.723087027501500,-2.173727500315030
Skunk and Black cockatoo,HX2 0JD,53.731679604881200,-1.895388470697540
Black cockatoo and Warbler,HX3 0JH,53.707631037568100,-1.871269789645520
Linsang and Jay,OL12 7JE,53.632279829532100,-2.185632966590830
Jay and Coati,BD13 5EF,53.826587110000000,-1.899285030000000
Coati and Armadillo,OL15 0HQ,53.643633976578100,-2.090523317632940
Recurvebill and Tahr,HX6 1DD,53.704767291198400,-1.929690013287440
Jackal and Scimitar babbler,BD22 8JE,53.831775880000000,-1.945325619000000
Tattler and Partridge,OL12 9UL,53.638438256564900,-2.130047445572460
Piping shrike and Stint,OL12 9TU,53.637697070680400,-2.156043626347480
Magpie and Condor,OL13 8HT,53.703008802792200,-2.201622284628760
Flameback and Lemming,OL16 2UZ,53.624240676200000,-2.138622004800000
Mamo and Stilt,HX4 9EJ,53.673007852494100,-1.879019236006610
Badger and Duck,BD21 1HD,53.859925430000000,-1.913725203000000
Partridge and Rat,HX3 5EL,53.733219635667300,-1.879483453744810
Ibex and Linsang,BD13 3ND,53.790363060000000,-1.853105892000000
Booted eagles and Vulture,HX2 6PQ,53.727512601138800,-1.939761521056480
Cloud rat and Dorcopsis,HX6 2ET,53.712703166433900,-1.914843944678940
Crow and Zebra,BD13 3EW,53.790710120000000,-1.850296536000000
Minke whale and Scimitar babbler,HX1 5TL,53.727061000000000,-1.867785000000000
Kite and Shearwater,OL11 5BA,53.621454482461600,-2.182077934670750
River dolphin and Grosbeak,HX6 2TQ,53.715350578940300,-1.909277826280120
Black cockatoo and Mole,BD22 7HZ,53.845350380000000,-1.951843550000000
Polecat and Bunting,OL16 2RF,53.634843364069200,-2.129688535165600
Ice seal and Tree warbler,BB10 3PH,53.804695000000000,-2.176525000000000
Triller and Wallaby,BB8 0LY,53.858310300000000,-2.161501706000000
Old World warbler and Masked owl,BD22 0HU,53.834799170000000,-1.999279455000000
Quetzal and Masked owl,HX2 6JA,53.727313560820200,-1.957661000000000
Goose and Capuchin,BD22 6NQ,53.856299300000000,-1.936126478000000
Prion and Perching duck,BD16 1LA,53.843116540000000,-1.871676102000000
Buzzard and Old World warbler,HX6 4AW,53.675849173734000,-1.940137684353240
Prion and Kestrel,HD7 4RJ,53.643113207188100,-1.854631000000000
Tahr and Dolphin,BD13 2HG,53.768244000000000,-1.852940000000000
Vulture and Zebra,OL13 8GT,53.701129125312800,-2.202310047639960
B and Diving bird,OL12 7QF,53.622748071742800,-2.199424826269850
Siskin and Darwin's finches,HX7 7BB,53.743013378740200,-2.012137791338810
Maya and Maya,HD7 4QZ,53.645923392000100,-1.845060573297560
Booted eagles and Skunk,BB8 8PD,53.844252150000000,-2.141020692000000
Jay and Bunting,HX3 5PD,53.736563000000000,-1.878670000000000
Perching duck and Kangaroo,HD7 5SS,53.621070000000000,-1.850276947491280
Thrasher and Old World warbler,BB9 9XW,53.839888050000000,-2.206428872000000
Asiatic leopard and American sparrow,HX1 1WB,53.724315209783800,-1.857382208773310
Thrasher and Elephant,HX3 0ND,53.705365000000000,-1.860931383018870
Polecat and Chicken,OL12 6HF,53.628398124953500,-2.172838777707120
Tit-tyrant and Francolin,BD13 2PA,53.768431530000000,-1.845293336000000
Kestrel and Gull,BB8 9SD,53.859782080000000,-2.175860106000000
Pratincole and Mink,HX6 3GB,53.706241652973900,-1.916159742115190
Boto and Perching duck,BD13 4LG,53.810349950000000,-1.893356000000000
Tit-tyrant and Kite,BB10 4RQ,53.769460820000000,-2.194218663000000
Pratincole and Booted eagles,OL12 6RF,53.619694178980000,-2.162402155657390
Old World vulture and Moluccan boobook,BD22 7SS,53.847464220000000,-1.956264242000000
Jackal and Rat,BB10 2JE,53.812321890000000,-2.201251154000000
Chicken and Guillemot,BD16 2EP,53.864895000000000,-1.848131000000000
Mamo and Dorcopsis,OL12 8JP,53.664551507008800,-2.170853027552510
Flameback and Stilt,BD16 2HD,53.860649610000000,-1.846702453000000
Darwin's finches and American sparrow,HX7 8DA,53.742797802001300,-2.010742835122000
Diving bird and Scimitar babbler,HX2 7HN,53.711525380294500,-1.892044605671510
Argus and Myna,BD22 9LS,53.809265020000000,-1.954709259000000
Towhee and Guillemot,OL15 9LZ,53.669515962792000,-2.083616584350170
Guillemot and Parrotbill,OL12 8BN,53.662881487718300,-2.175825086121320
Recurvebill and Kangaroo,BD13 5AQ,53.828227630000000,-1.894313087000000
Booted eagles and Snipe,BD22 0JF,53.838214560000000,-1.998291657000000
Philippine hawk-owl and Pheasant,BD16 1JD,53.838817150000000,-1.868741089000000
Parrotlet and Peafowl,OL12 7NY,53.625595000000000,-2.190305093851910
Bronzewing pigeon and Chipmunk,BB8 7DB,53.861233630000000,-2.152922338000000
Parrotbill and Elephant,HX7 7HQ,53.758255395519700,-2.051805149697570
Logrunners and Duck,HX4 8JL,53.687340049628200,-1.875223041963760
Old World warbler and Goose,OL12 9LJ,53.646057932398400,-2.132158483137210
Parrotbill and Recurvebill,HX2 7SA,53.720118900594100,-1.915647312930450
Meadowlark and Tahr,HX7 5DE,53.732236493649800,-1.985395771333280
New World blackbird and Chickadee,BD13 4HR,53.789281000000000,-1.890630929000000
Myna and Stilt,HX7 8EH,53.741629148085200,-2.012819649403280
Macaw and Lemming,BD22 9NT,53.806391060000000,-1.939239012000000
Capuchin and Black jay,OL12 9EY,53.634844252581100,-2.136947653519150
Grouse and Stilt,BD21 1QP,53.863936120000000,-1.916712490000000
Rat and Eagle,OL13 8GA,53.727463858835000,-2.197162183078910
Fox and Civet,HX2 0UZ,53.734199755043000,-1.889258077743180
Solitaire and Tit-tyrant,HX4 0AE,53.677537597288300,-1.898080721602110
Vole and Recurvebill,HX4 8AR,53.689703530209800,-1.858377000000000
Booted eagles and Marmoset,HX1 5LQ,53.724064037264300,-1.873523000000000
American sparrow and Jackal,OL15 8DL,53.642499595162800,-2.103861916754060
Bunting and Stint,OL12 9UX,53.637670554318300,-2.125099476941930
Tree warbler and New World blackbird,BB8 8FL,53.849686000000000,-2.176017000000000
Condor and Skunk,HX1 3SX,53.715377174502300,-1.887580072815720
Kangaroo and Petrel,OL11 5AG,53.622400847079900,-2.186224542702590
Thicketbird and Snipe,BD22 8JQ,53.831641250000000,-1.945736030000000
Scimitar babbler and Mockingbird,BD13 2EX,53.767602730000000,-1.850894414000000
Old World quail and Partridge,HX3 6LF,53.730681329182300,-1.859558546039080
Vole and Goose,OL12 8HL,53.682446294017500,-2.164899750624000
Myna and Kite,BD13 5DL,53.823539790000000,-1.898791015000000
Mink and Piping shrike,HX7 7JD,53.744063918323600,-2.068420687113490
Crow and Tit-tyrant,HX7 5EA,53.728928520175500,-1.982744000000000
Rabbit and Grackle,HX3 9AP,53.709936509908400,-1.851810071831710
Perching duck and Badger,BD16 2RZ,53.857915230000000,-1.845085658000000
Bunting and Skunk,HX3 0JN,53.705577218304600,-1.867110205906420
Masked owl and Asiatic leopard,HX2 9TB,53.757107864019800,-1.877519348763420
Dorcopsis and River dolphin,HX3 5PT,53.736963813144000,-1.875562000000000
Darwin's finches and Stilt,HX6 2EH,53.709193748134900,-1.909291032886530
Badger and Fulmarine petrel,HD7 4EF,53.636610312691100,-1.851129034937450
Songlark and Recurvebill,HX2 7UR,53.753534000000000,-1.929565000000000
Snipe and Kestrel,HX1 3RZ,53.716148345660000,-1.885668831432510
Dolphin and Buzzard,OL13 8PN,53.726218495687600,-2.194731399170770
Fish eagle and Shearwater,BB9 9HW,53.838319810000000,-2.203716192000000
Old World quail and Ground sloth,HX5 0QJ,53.681302603390400,-1.846444957085590
Zebra and Triller,HX6 1HL,53.703864830696500,-1.939507339991390
Kestrel and Black jay,BB9 0NT,53.833636650000000,-2.198633604000000
Siskin and B,HX2 7TJ,53.753026000000000,-1.931141000000000
Chicken and Minke whale,OL15 8QU,53.633256273120800,-2.107755906872720
Mockingbird and Partridge,HX2 7HS,53.712237738429700,-1.894633589501360
Gull and B,HX7 6BY,53.743379122797300,-2.028315846050280
Triller and Bronzewing pigeon,HX2 6UJ,53.733910819869800,-1.957912514362470
Zebra and Grackle,HX2 6UD,53.733755436071200,-1.951060970073140
Mouse and Herring gull,BD22 6AR,53.860615150000000,-1.923561063000000
Jay and Petrel,HX2 6LE,53.721166178027600,-1.959167796262040
Ground sloth and Pheasant,HX2 8EE,53.749024429017800,-1.892995056932530
Myna and Marmoset,OL12 7QJ,53.622668637860500,-2.198547559798450
Peafowl and Greenbul,BD22 9NR,53.805439050000000,-1.940667723000000
Vole and Meadowlark,HX7 5TT,53.695908000000000,-1.992223000000000
Polecat and Greenbul,HX1 4JN,53.724624211580000,-1.885782292671350
Bunting and Siskin,BD22 0RT,53.839732000000000,-1.976362000000000
Shearwater and River dolphin,HX3 6NQ,53.734785565564900,-1.864501886992240
Mockingbird and Quetzal,BD22 0JR,53.831951000000000,-2.008897000000000
Warbler and Hawk,BD13 4AN,53.802586140000000,-1.895561725000000
Masked owl and Bunting,BB8 9ED,53.863282180000000,-2.166903605000000
Thrasher and Hawk,HX6 4QG,53.657285000000000,-1.949454000000000
Pitohui and Marmoset,HD7 4QG,53.643252227889200,-1.850833416966430
Wader and Grouse,HX4 0AP,53.671681000000000,-1.913155000000000
Cloud rat and Badger,HX2 7HP,53.710536419726500,-1.891744125515430
Shearwater and Piping shrike,HX6 2UP,53.713870437414800,-1.920129000000000
Philippine hawk-owl and Peafowl,HX6 4PD,53.669869506033200,-1.954903417007220
Black jay and Wallaby,HX2 9TP,53.758659000000000,-1.872949000000000
Solitaire and Old World vulture,HX6 2PP,53.711069563263200,-1.905787250320150
Fulmarine petrel and Black jay,BB8 9PT,53.859138760000000,-2.179354308000000
Masked owl and Linsang,HX1 4RL,53.728406611143200,-1.884135140865640
Condor and Vulture,HX3 6LW,53.733629000000000,-1.866111985562710
Kite and Meadowlark,OL13 9DJ,53.705093398822300,-2.185347789070450
Prion and Diving bird,HD7 5PR,53.621872114912900,-1.860675239584260
Myna and Mink,HX4 8PH,53.688666554790400,-1.889771007535720
B and Perching duck,BD22 0QS,53.846517000000000,-1.970081000000000
Kestrel and Old World vulture,HX6 4HT,53.670316038993200,-1.947789095400490
Boto and Thrasher,HX3 5SJ,53.742126953059100,-1.879639965694480
Triller and Marmoset,OL15 8RU,53.645524645497600,-2.108331825247310
Hawk and Lemming,BD22 7JU,53.846615170000000,-1.945929552000000
Recurvebill and Thrasher,HX1 2PY,53.712445840144400,-1.860694892314540
Piping shrike and Parrotbill,OL15 8PZ,53.640967000000000,-2.109712000000000
Vulture and Old World vulture,OL14 8AY,53.727797099963600,-2.122684710418640
Hawaiian honeycreeper and Boto,OL13 9RH,53.694082024990700,-2.197172553832170
Chicken and Snipe,OL16 2ST,53.636041578680800,-2.118349529298840
Mockingbird and Stint,HX1 2RE,53.714044868197500,-1.859962345130070
Hawk and Dolphin,BD16 2DT,53.863648480000000,-1.851405231000000
Cloud rat and Egret,BD13 2AQ,53.767598220000000,-1.847298944000000
Stint and Darwin's finches,BB9 8DU,53.838531120000000,-2.195571914000000
Kangaroo and Meadowlark,BB9 8LN,53.842684320000000,-2.205834725000000
Parrotlet and Parrotlet,OL14 6HR,53.708501704177700,-2.061893901428960
Duck and Fish eagle,OL13 0BU,53.695110804151500,-2.205400974984060
Shearwater and Booted eagles,BD13 4LN,53.803583360000000,-1.885447000000000
Kestrel and Logrunners,BD13 2FN,53.761862556593400,-1.850369000000000
Darwin's finches and Towhee,OL16 2YG,53.618775000000000,-2.136805000000000
Herring gull and Masked owl,OL13 8GE,53.726271287339500,-2.195428817488130
Greenbul and Dolphin,HX7 6DX,53.742633555920100,-2.026269000000000
B and Warbler,BD22 7BW,53.853280940000000,-1.923391960000000
Mole and Triller,BD22 7PS,53.845280840000000,-1.958060000000000
Bronzewing pigeon and Macaw,OL12 7DD,53.624105709453500,-2.176283539614350
Tattler and Old World vulture,BB9 0NP,53.834460960000000,-2.200187398000000
Thicketbird and Flameback,BB9 9HE,53.837748430000000,-2.206722260000000
Myna and Booted eagles,OL12 8SB,53.645193314866600,-2.181454226173340
Hawaiian honeycreeper and Night heron,HX7 5JL,53.727211174654000,-1.978668097568050
Pratincole and Crow,OL11 5DU,53.618425834204700,-2.181823006410180
Jerboa and Mamo,HX1 4RX,53.725681969257200,-1.882839221396730
Grouse and White ibis,HX3 6UJ,53.743290000000000,-1.857424000000000
Kangaroo and Jerboa,HX1 4NW,53.724818523870600,-1.882235399374290
Perching duck and Vole,BD13 2BN,53.761987070000000,-1.859894204000000
Masked owl and Stint,HX3 5NW,53.738422268742400,-1.887125000000000
Mink and Tit-tyrant,HX6 2FL,53.706727000000000,-1.885969000000000
Duck and Chicken,HX7 8RT,53.749864000000000,-1.998037000000000
Pheasant and Recurvebill,HX2 7RN,53.722644000000000,-1.913475000000000
Skunk and Greenbul,HX3 6JG,53.737094647366400,-1.863751643011950
Armadillo and Bunting,HX1 3QB,53.716109706915600,-1.882880914981720
Tit-tyrant and Parrotlet,OL13 8QB,53.723107630053800,-2.195338355590560
Armadillo and Mole,OL14 6NR,53.712228191560100,-2.094746520110190
Viscacha and Crow,BD13 5BQ,53.822216050000000,-1.895847232000000
Maya and Darwin's finches,BD21 4SG,53.859712720000000,-1.885065876000000
Warbler and Grouse,HX1 3YA,53.719687411286100,-1.883340758852310
Mamo and Ground sloth,HX7 7LB,53.747991568113100,-2.020646119588550
B and Treepie,OL12 9NJ,53.651365931099500,-2.135745574346190
Ibex and Vole,HD7 4QB,53.643875000000000,-1.851996650531180
Treepie and Cuscus,OL12 0HA,53.623049807532100,-2.154190000000000
Cloud rat and Zebra,OL13 3SG,53.693461963723800,-2.207725141610840
Cuscus and Fox,HX1 2EF,53.720656337214100,-1.864516910070040
Rabbit and Goose,BB9 8JF,53.844243390000000,-2.198030335000000
Civet and Wallaby,HD3 3UN,53.660655337823800,-1.852436650676640
Skunk and Piping shrike,BD13 2PT,53.769836530000000,-1.847533581000000
Flameback and Booted eagles,BD13 4BL,53.802441150000000,-1.894210762000000
Ice seal and Goose,BD16 2AF,53.860225000000000,-1.851448000000000
Chicken and Jerboa,HX2 7HL,53.711741433820400,-1.892422821838460
Linsang and Parrotbill,OL14 5BZ,53.714991798452200,-2.089207158116290
Magpie and Zebra,HX6 2RL,53.712987440065700,-1.923221964569840
Solitaire and Greenbul,BD16 1LG,53.841951030000000,-1.874445637000000
Herring gull and Scimitar babbler,BD13 4JP,53.805883960000000,-1.894688025000000
Fox and Chicken,BD22 7ES,53.848186890000000,-1.943404347000000
Kite and Ground sloth,OL12 8BL,53.662411825996300,-2.177366697907980
Gull and Egret,HX2 7NL,53.715781644183300,-1.897640036976640
Goose and American sparrow,BB8 9NZ,53.853728770000000,-2.184803851000000
Nukupuʻu and Egret,BB9 8JA,53.843396000000000,-2.199941000000000
Jerboa and Shearwater,BD15 0JZ,53.816165470000000,-1.851466629000000
Cuscus and Coati,OL13 9NF,53.703305037705600,-2.196443186884190
Masked owl and Lemming,HX7 5TP,53.695997389783100,-1.997978487656480
Chipmunk and Cuscus,HX6 4SB,53.659770834443800,-1.967367825393470
Moluccan boobook and Capuchin,OL12 8HG,53.681612000000000,-2.164821273230690
Warbler and Triller,OL15 8HP,53.636467010955900,-2.115295728151080
Philippine hawk-owl and Greenbul,OL12 6UQ,53.617822156466900,-2.164209008712870
Boto and Linsang,OL15 9PZ,53.659266041180000,-2.088362779515570
Prion and Mink,BD22 9JJ,53.811034330000000,-1.950926000000000
Viscacha and Nukupuʻu,OL12 9DF,53.639439448900000,-2.122412761500000
Chipmunk and Tree warbler,HX3 5SD,53.741317467769900,-1.879081303481530
Quetzal and Nukupuʻu,OL13 0BW,53.695158902152400,-2.203796000000000
Jerboa and Parakeet,OL12 9SD,53.634172444685300,-2.134919002806850
Hawaiian honeycreeper and Grackle,HX2 7PY,53.718608573180100,-1.892693252902420
Ibex and Pitohui,HX6 2UA,53.715124457045200,-1.919930117996410
Herring gull and Viscacha,OL12 6TG,53.618610925577100,-2.165799397582130
American sparrow and Bunting,OL12 8JN,53.662573666365300,-2.171162811052510
Masked owl and Fish eagle,OL12 9AQ,53.637429725377900,-2.131738234662150
Fox and Kākāriki,HD7 5TS,53.617985729903700,-1.865510377237690
Warbler and Wallaby,HX2 9XL,53.754506312365600,-1.882501382716450
Duck and Fulmarine petrel,OL15 9ET,53.652524887726100,-2.088394030446650
Boto and Ibex,OL12 6QE,53.621049872208200,-2.169966484323740
Bronzewing pigeon and Ground sloth,BD22 8RD,53.835306360000000,-1.941567810000000
Grosbeak and Lemming,BB9 8LT,53.844600180000000,-2.204993009000000
Black cockatoo and White ibis,OL14 6UR,53.676259000000000,-2.082707000000000
Tit-tyrant and Dorcopsis,OL12 0TT,53.640930000000000,-2.165796000000000
Kangaroo and Hawk,OL13 0EA,53.691373672057800,-2.209471486631570
Meadowlark and Grouse,HD7 5PN,53.620632112208200,-1.860996794781460
Zebra and Fulmarine petrel,HX1 2JF,53.719734092603000,-1.860080000000000
Marsh harrier and Egret,BD13 2HL,53.768484550000000,-1.851316000000000
Jerboa and Snipe,BB9 0EU,53.821347870000000,-2.205806000000000
Mockingbird and Pheasant,BB9 0EX,53.821362500000000,-2.207264298000000
Kite and Dolphin,OL14 5QW,53.712825000000000,-2.091248757509980
White ibis and Fish eagle,OL14 7BA,53.715370815141300,-2.098708278535450
Tattler and Grouse,OL12 9UT,53.636933190810000,-2.125414892845250
Peafowl and Moluccan boobook,HX6 4QB,53.660798264312700,-1.949389704891990
Coati and Macaw,BD13 5AP,53.824891200000000,-1.892164269000000
Chickadee and Boto,BD22 9DN,53.835580890000000,-1.933650641000000
Petrel and Gull,BD13 2AE,53.767759770000000,-1.847116308000000
Herring gull and Maya,HX3 0QB,53.703115446044500,-1.852545931605430
B and Partridge,HX7 5RD,53.738563633182100,-1.982043179282490
Fish eagle and Night heron,HX4 0DX,53.665360474605100,-1.924957876265800
Condor and Tit-tyrant,HX2 9UH,53.753780108465100,-1.884383969122860
Polecat and Crow,OL13 9XT,53.706385368604700,-2.186838057885180
B and Ground sloth,BD15 0JS,53.818661100000000,-1.856379141000000
American sparrow and Rabbit,HD7 4QJ,53.639697942956000,-1.854793000000000
Zebra and Badger,HX3 0DN,53.711382601085000,-1.866273816272180
Philippine hawk-owl and Tattler,HX1 1QU,53.720815000000000,-1.853605000000000
Minke whale and American sparrow,BB9 9LQ,53.837217430000000,-2.185171729000000
Meadowlark and Jerboa,HD7 4AF,53.637934682049300,-1.853650132733220
Badger and Coati,HX1 5SA,53.727932598985700,-1.877452407415750
Perching duck and Petrel,OL12 8EG,53.679093023537700,-2.165401358758770
Guillemot and Marsh harrier,HD7 5SF,53.625014886016400,-1.850625464254120
Pratincole and Mink,HX6 3LW,53.698012000000000,-1.933897000000000
Tit-tyrant and Argus,OL12 0RG,53.625722640716100,-2.157662566843760
Badger and Eagle,BD22 6EF,53.861057110000000,-1.926053815000000
Pitohui and Chicken,BB8 8AJ,53.852921300000000,-2.177913931000000
Magpie and American sparrow,HX1 2LJ,53.720001308918300,-1.857699850298550
Argus and Stint,BD22 8JS,53.830825000000000,-1.946557000000000
Grosbeak and Logrunners,BD22 0QT,53.854928440000000,-1.970394718000000
Condor and Nukupuʻu,HX2 8NB,53.747175000000000,-1.894243736200410
Dolphin and Siskin,OL15 0DZ,53.632281582398700,-2.112063255023620
Night heron and Tit-tyrant,HX2 0SZ,53.736787542061000,-1.904577995701120
Herring gull and Rabbit,OL12 9EZ,53.636173581202500,-2.137753519469820
Grouse and Rabbit,HD7 4EB,53.636067937183500,-1.848665794504990
Jerboa and Jerboa,HX7 8TA,53.754644406323800,-2.005210289175950
Mouse and Masked owl,HX1 2TN,53.720697448793400,-1.869169037752270
Scimitar babbler and American sparrow,BD22 7LJ,53.854401000000000,-1.931447000000000
Zebra and Crow,OL11 5XU,53.625015244810800,-2.208703879448060
Cuscus and Darwin's finches,OL15 9QX,53.664582156566100,-2.082623090472660
Partridge and Badger,OL16 2XP,53.621411151089900,-2.133154733352220
Stilt and Boto,HX3 6JX,53.731273917464300,-1.859026053696750
Kangaroo and Mink,OL13 9UU,53.715304834035300,-2.178816764875070
Piping shrike and Old World warbler,HX7 6NH,53.737391725897100,-2.033541961119760
Triller and Black cockatoo,HX7 9BF,53.740641000000000,-2.014063000000000
Fox and Philippine hawk-owl,OL14 8LE,53.733050503835700,-2.135296653674770
Nukupuʻu and Jerboa,BB9 8AS,53.849053010000000,-2.202749951000000
Stint and Jerboa,OL15 0BX,53.629967869141800,-2.106326096006980
Meadowlark and Mouse,BD13 5GY,53.826734250000000,-1.903554000000000
Nukupuʻu and Rabbit,OL11 5DR,53.619120670096800,-2.180011890830320
Masked owl and Kākāriki,OL11 5BU,53.620763840352500,-2.175090380401220
American sparrow and Solitaire,HX7 7EZ,53.754092230770200,-2.030825498173820
Jackal and Ibex,OL12 7QY,53.626237215080900,-2.198398010063670
Polecat and Moluccan boobook,BB8 8JU,53.844893500000000,-2.190646806000000
Vole and Magpie,BD16 1BU,53.840107630000000,-1.873600107000000
Coati and Ice seal,HX6 3BU,53.705780735483500,-1.912797000000000
Mockingbird and River dolphin,OL14 5RD,53.714245991897400,-2.088932846535160
Minke whale and Tree warbler,HX6 4AD,53.681321098423600,-1.936526689019860
Condor and Solitaire,HX7 6AW,53.741853448981500,-2.016079449706950
Towhee and Night heron,HX3 0HJ,53.709352090520700,-1.875370159559180
Tahr and Buzzard,HX3 5AT,53.729264466957600,-1.870445999911010
Black jay and Bronzewing pigeon,HX3 0QR,53.704318951728100,-1.851814625178220
Coati and Viscacha,OL12 8LB,53.666405811282800,-2.169045000000000
Capuchin and Ice seal,HX2 6UE,53.734115736310300,-1.953016033210360
Piping shrike and Asiatic leopard,HX7 7ND,53.749727000000000,-2.020525590493420
Francolin and River dolphin,BB8 0JX,53.855790260000000,-2.164030840000000
Puffleg and Black jay,HX1 3PS,53.716342417043000,-1.881607000000000
Triller and Mouse,BD22 7BJ,53.853763880000000,-1.919697005000000
Warbler and Old World quail,HX4 9EP,53.674181783985600,-1.875579726530200
Old World quail and Mouse,BD13 3QG,53.790323000000000,-1.872672000000000
Civet and Old World warbler,OL15 8RL,53.644595983053000,-2.111460654530090
Thicketbird and Skunk,HX1 4NG,53.723901846923900,-1.882344040412780
River dolphin and Ground sloth,BB8 0SR,53.854217580000000,-2.170333568000000
Argus and Chipmunk,OL12 0PQ,53.621072573831800,-2.160033891318320
Ground sloth and Myna,BB8 8JB,53.850674320000000,-2.189639451000000
Solitaire and Rabbit,BB9 0ET,53.822531000000000,-2.202485000000000
Moluccan boobook and Kestrel,OL12 9RU,53.640646114315100,-2.124654542644370
Gull and White ibis,HX7 5RE,53.738275851990300,-1.980966922375890
Hawk and Ice seal,BB8 9SQ,53.862236680000000,-2.181283412000000
Kākāriki and Coati,OL12 0NU,53.619535269328200,-2.160269950326210
Magpie and Black jay,OL12 7NU,53.625147910967400,-2.188353410856220
Crow and Tahr,HX2 6JD,53.728098000000000,-1.963784000000000
Towhee and Darwin's finches,HX7 7PQ,53.755124183687900,-2.059081110085550
Francolin and Parrotlet,HX7 5EN,53.727616886653700,-1.987716275001610
Kangaroo and Zebra,HX1 5AE,53.722085709988600,-1.864754795963040
Parrotbill and Meadowlark,OL12 6NQ,53.631306025157900,-2.169554104791930
White ibis and Flameback,HD7 5BS,53.626232381165400,-1.878079235954200
Myna and Quetzal,BD22 7AQ,53.847008700000000,-1.925455307000000
Perching duck and Badger,OL15 9QP,53.658614482199700,-2.081945590191020
Thrasher and Greenbul,HX7 8BJ,53.741917006960500,-2.010378727535130
Parakeet and Piping shrike,HX2 8DF,53.743077723605600,-1.886869522982280
Vulture and Dorcopsis,HX7 7EB,53.744882546195400,-2.015110216791890
Darwin's finches and White ibis,OL13 9QP,53.696318000000000,-2.199425986745950
Chickadee and Macaw,BD21 5EH,53.852369020000000,-1.917130621000000
Coati and Rabbit,OL12 0EP,53.623611372323400,-2.149928801959930
Peafowl and Ground sloth,BD13 5HP,53.826616690000000,-1.902460114000000
Capuchin and Towhee,HX7 5TZ,53.692888000000000,-1.989831000000000
Old World vulture and Fulmarine petrel,HX3 0ED,53.709549591911900,-1.866779565067140
Lemming and Skunk,OL16 2NF,53.625924000000000,-2.139865000000000
Kangaroo and Kite,OL16 3UU,53.618718771969000,-2.111619078177470
Quetzal and Maya,BD13 5BP,53.820714010000000,-1.883866000000000
Scimitar babbler and Ibex,OL14 6RT,53.696427000000000,-2.103193000000000
New World blackbird and Lemming,OL15 0AD,53.625908262696600,-2.102823156443900
Grouse and Shearwater,OL12 8LE,53.667063000000000,-2.169138000000000
Parrotbill and Guillemot,BD16 1BB,53.843141210000000,-1.861402000000000
Puffleg and Parrotlet,OL14 5QU,53.714074856636800,-2.089417334220700
Pitohui and Recurvebill,BB9 9NE,53.835225010000000,-2.189068111000000
Parakeet and Solitaire,HX6 3PG,53.705224000000000,-1.911814000000000
Badger and Solitaire,BD22 0HX,53.835401340000000,-1.997714332000000
Parrotlet and Black cockatoo,OL14 6SQ,53.694175832161800,-2.099960978369320
Minke whale and Old World vulture,BD13 4HE,53.787253440000000,-1.886492966000000
Shearwater and Warbler,OL16 2XQ,53.622548829524200,-2.136544923792310
Maya and Chipmunk,HX2 8DX,53.745051143046900,-1.892353131029940
Jay and Nukupuʻu,HX6 2SF,53.712098122015300,-1.899527660275980
Diving bird and Ibex,HX2 7RT,53.720279839674400,-1.914449843078350
Triller and Capuchin,HX2 7RF,53.722689000000000,-1.913233000000000
Badger and Darwin's finches,OL12 9JW,53.648377211840800,-2.131863189217250
Pratincole and Skunk,OL12 9QS,53.637257714349100,-2.124508416232740
Goose and Duck,HX7 6BT,53.741924025193500,-2.023933166932320
Mole and Quetzal,BB9 8AX,53.840091560000000,-2.197676385000000
Chipmunk and Goose,OL14 6HB,53.719520592984400,-2.042513658010110
Thicketbird and Zebra,OL12 8XL,53.657178000000000,-2.185455000000000
Partridge and River dolphin,HX6 3EU,53.690823000000000,-1.957773000000000
Skunk and Dolphin,HD7 5UN,53.628364000000000,-1.853895000000000
Fish eagle and Linsang,HX7 8JB,53.743013738628800,-2.007953091745030
Parakeet and Vulture,HX6 1PF,53.709294026781900,-1.962572779967000
Parrotbill and Logrunners,BD22 9DZ,53.814096163790400,-1.955615000000000
Kākāriki and Shearwater,HX2 0TZ,53.732161476492500,-1.891461340376720
Hawk and Polecat,HX4 9AU,53.675743897345900,-1.865553908894630
Dolphin and Asiatic leopard,HX7 8AS,53.741099041267800,-2.011121000000000
Kite and Nukupuʻu,HD7 4JY,53.632590507345800,-1.872753001934560
Petrel and Coati,HX3 5PQ,53.737570373747500,-1.880001635579430
Parakeet and Moluccan boobook,BB8 9PZ,53.859144410000000,-2.181574106000000
Herring gull and Snipe,OL14 8BP,53.720416536510200,-2.094492204713690
Tahr and Gull,OL16 2BL,53.618885000000000,-2.148489000000000
Songlark and Herring gull,OL13 9DR,53.706347025260100,-2.193988119693130
Prion and Old World warbler,HX6 4AQ,53.680584358370600,-1.937072815128230
American sparrow and Vole,BD21 1PS,53.862847820000000,-1.915619866000000
Philippine hawk-owl and Recurvebill,BD22 8BW,53.827492350000000,-1.954203557000000
Bronzewing pigeon and Mouse,BB9 8RW,53.844041100000000,-2.200765102000000
Fulmarine petrel and Pratincole,OL16 1YL,53.619270077570000,-2.156912837979970
Mamo and Cloud rat,HX1 4PU,53.727667033636400,-1.881515104867750
Chicken and Marsh harrier,OL12 9ND,53.651614838693600,-2.130148586910530
Petrel and Jay,HX3 9HP,53.716486409781800,-1.849862733616890
Puffleg and Marsh harrier,HX6 4QA,53.663414096312000,-1.950052455754100
Myna and Perching duck,OL14 5JQ,53.719379579374300,-2.098611615245630
Snipe and Capuchin,HX1 3PJ,53.715911969573200,-1.883018000000000
Grackle and Hawk,HX2 6JU,53.714008316869000,-1.950114000000000
Logrunners and Chicken,OL15 0DT,53.634157756275000,-2.104763873783970
Lemming and Towhee,BD22 9LU,53.809112320000000,-1.954967581000000
Scimitar babbler and Cloud rat,OL16 2YD,53.619319769297300,-2.138530007528100
Vulture and Peafowl,HX3 6AA,53.727541806994800,-1.857280371915040
Diving bird and Triller,HX7 8DB,53.743418009528700,-2.010379106751640
Eagle and Old World warbler,HX2 6RE,53.733508974242600,-1.942496681433940
Old World quail and Minke whale,BD22 7HN,53.846247120000000,-1.946963572000000
Rat and Tattler,HX7 8QN,53.761619070574700,-2.005954460174830
Ice seal and White ibis,BD15 0LF,53.817935000000000,-1.864508000000000
Egret and Lemming,HX1 9SD,53.724426998141100,-1.860731148595220
Vole and Mouse,BD13 5BA,53.823985050000000,-1.893989532000000
Warbler and Macaw,OL16 1YH,53.617369870331600,-2.152824212512530
Zebra and Stint,HX2 9AD,53.749161662755400,-1.876753874521420
Bunting and Parrotlet,BD22 8NL,53.830133000000000,-1.948047810000000
Philippine hawk-owl and Black cockatoo,BB8 9JP,53.858475300000000,-2.165728966000000
Logrunners and Boto,BB8 9RU,53.860458720000000,-2.174114442000000
Masked owl and Dolphin,OL14 6PU,53.701389330053200,-2.104582802836780
Jay and Maya,HX6 2QN,53.709420963767100,-1.912684118912000
Parakeet and Goose,BB8 8SE,53.843692330000000,-2.135456222000000
Recurvebill and Diving bird,HD7 5HG,53.621543095645800,-1.880632611479400
Stilt and Flameback,HX7 5LS,53.732442277483100,-1.978968645075870
Pratincole and Old World vulture,BD15 0NB,53.816300660000000,-1.867140589000000
Diving bird and Chickadee,BD22 8BU,53.826331370000000,-1.950330850000000
Gull and Capuchin,HX6 2FD,53.706259000000000,-1.885303000000000
Moluccan boobook and Badger,OL12 6RH,53.620233449752500,-2.162419346821950
Piping shrike and River dolphin,BB9 0WA,53.832716470000000,-2.195240902000000
Grackle and Tit-tyrant,BD22 0RA,53.856367000000000,-1.954495000000000
Asiatic leopard and Jackal,BB8 8HL,53.845423760000000,-2.166543674000000
Capuchin and Asiatic leopard,BD13 1LN,53.772506370000000,-1.855125394000000
Tahr and Jackal,OL14 5DU,53.717369403185800,-2.094712647280570
American sparrow and Grackle,OL13 9LP,53.704733082297800,-2.191556972173340
Stint and Solitaire,BD22 0HB,53.829711380000000,-1.987428779000000
Fish eagle and Shearwater,HX2 0RF,53.736153000000000,-1.913811000000000
Old World quail and Asiatic leopard,HX7 8TG,53.751372545092100,-1.990636332551430
Badger and Tit-tyrant,OL16 2EE,53.621232549705400,-2.147471193661480
Pheasant and Kangaroo,HX6 3QN,53.699958030441400,-1.914824154173350
Dolphin and Mockingbird,HX6 3DP,53.690444539704000,-1.937467037862130
Piping shrike and Quetzal,HX6 2QG,53.708667000000000,-1.912413000000000
Hawk and Darwin's finches,OL13 8SA,53.730672000000000,-2.203740000000000
Cloud rat and Jerboa,BB9 8BT,53.839611410000000,-2.194497977000000
Pitohui and Mink,HX7 8ET,53.742123550227200,-2.012258822457960
Triller and Jackal,OL14 7SG,53.695188705760200,-2.103234654973760
Siskin and Chickadee,HX6 1DZ,53.707772360443900,-1.920171270084910
Warbler and Pitohui,BD22 0DT,53.843945320000000,-1.944945080000000
Flameback and Prion,BB9 8LU,53.845458720000000,-2.207489841000000
Black cockatoo and Tattler,BD13 3SY,53.788703530000000,-1.863478553000000
Herring gull and Zebra,OL12 8NT,53.676588673422400,-2.169433408720150
Black cockatoo and Parakeet,BD22 0TG,53.836267440000000,-1.940274851000000
Black jay and Philippine hawk-owl,HD7 5DY,53.624855628683600,-1.885627867565670
Gull and Myna,OL14 8HD,53.726246821756700,-2.118057628449600
Dolphin and Boto,BD16 1UB,53.830941330000000,-1.851232129000000
Kestrel and Rabbit,BD21 5QZ,53.861593300000000,-1.897346214000000
Grosbeak and Argus,HX2 0EQ,53.730137175562900,-1.889283886080950
Moluccan boobook and Nukupuʻu,HX6 1BA,53.706527276048700,-1.926869406217000
Tattler and Night heron,OL15 8DW,53.642066449884300,-2.105812069934100
Jerboa and Snipe,HX2 6PJ,53.729723342562700,-1.939121773396800
Kangaroo and Towhee,HX3 5HG,53.735594944974500,-1.881962798685660
Cuscus and Piping shrike,OL12 8PL,53.654555959152700,-2.177500106691220
Piping shrike and Puffleg,HX5 0QP,53.681724303469200,-1.853029303945620
Bronzewing pigeon and Rabbit,HX7 5TH,53.701462168826400,-1.999008257000590
Booted eagles and Dorcopsis,BD13 2BL,53.762651530000000,-1.859330742000000
Piping shrike and Warbler,HX6 2BH,53.711955144981600,-1.900527952366430
Mamo and Cloud rat,HD7 5AH,53.620930051312400,-1.888042245687720
Bronzewing pigeon and Coati,OL16 2BJ,53.619164000000000,-2.148173000000000
Tit-tyrant and Mink,OL11 5FE,53.624168134194800,-2.209969721198920
Grosbeak and Parrotbill,HX4 9HS,53.669120952336300,-1.884055307221390
Meadowlark and Mockingbird,OL15 0HP,53.644020307446900,-2.090735917366030
Civet and Skunk,HX1 4RU,53.727142011637300,-1.886987985329760
Elephant and Warbler,HX6 1BL,53.705590586057800,-1.923765581235330
Crow and Chipmunk,OL14 7JY,53.710679849218700,-2.108151078108570
Treepie and Macaw,BD21 5PL,53.858803330000000,-1.903708208000000
Asiatic leopard and Cuscus,HX3 6DB,53.731060027630600,-1.860588007671670
Thicketbird and Solitaire,BD16 2EL,53.863393060000000,-1.848669000000000
Warbler and Tit-tyrant,OL12 6JZ,53.621716418417400,-2.162485522847510
Piping shrike and Zebra,OL16 1JY,53.619083281405000,-2.155415508802820
Lemming and Stint,BD22 8AY,53.825892170000000,-1.953339356000000
Hawk and Grackle,HX3 0SH,53.702257780994400,-1.856835615035600
Magpie and Songlark,BD22 8AP,53.825954380000000,-1.951561836000000
Mockingbird and Chicken,BD21 5FE,53.850618180000000,-1.919779011000000
White ibis and Ice seal,BD22 8HJ,53.836515070000000,-1.951306585000000
Buzzard and Fox,BD21 4SF,53.859721360000000,-1.884700954000000
Towhee and Ibex,HX7 9BH,53.740656000000000,-2.014064000000000
Tit-tyrant and Diving bird,HX4 9PX,53.670689384899700,-1.898975093440170
Marsh harrier and Chickadee,HX1 5JE,53.722604682084200,-1.879437965362860
Parrotlet and Ground sloth,OL13 0EB,53.691760900111500,-2.209049391329120
Macaw and Black cockatoo,BD22 8QX,53.830835000000000,-1.950645000000000
Gull and Rat,HX6 2HT,53.712907595639500,-1.911359000000000
Ground sloth and Skunk,BD22 9BL,53.836020110000000,-1.931537771000000
Kangaroo and Jay,OL12 0EZ,53.623262887985700,-2.155355293353300
Vole and Parrotbill,HX7 6AJ,53.741448802284100,-2.017383172454800
Fox and Tit-tyrant,BD21 4RE,53.861400040000000,-1.902729160000000
Viscacha and Flameback,OL14 6PN,53.705163325609200,-2.105728310175540
Darwin's finches and Snipe,OL14 8AX,53.720299414698800,-2.082747754099180
Ibex and Pheasant,HX3 6HT,53.734953611535800,-1.862106214939990
Vulture and Bronzewing pigeon,OL12 7HF,53.634030182002500,-2.175281490246220
Peafowl and Perching duck,OL14 5EA,53.718564478706700,-2.095337000000000
Ice seal and Grouse,HX7 5RZ,53.712472186792300,-1.989962936570700
Crow and Skunk,OL14 5RS,53.715120000000000,-2.087450000000000
Maya and Ibex,OL12 6BP,53.630579000000000,-2.198736000000000
Chipmunk and Treepie,HX1 4ND,53.723352651786900,-1.881405966653340
Civet and Warbler,HX7 8DD,53.743813527857700,-2.009863690408570
Zebra and Black cockatoo,BD22 7AL,53.847856840000000,-1.930971340000000
Thrasher and Moluccan boobook,HX3 6JY,53.731219650803600,-1.858738238126910
Boto and Bunting,OL14 5QY,53.713562604535000,-2.089325336539800
Linsang and Old World quail,HX1 3QE,53.716621937666200,-1.882788580443430
Marmoset and Triller,OL16 2TH,53.626012921337100,-2.133200000000000
Kestrel and Parrotbill,OL14 5SJ,53.716892663984800,-2.083135013163280
Asiatic leopard and Darwin's finches,HX3 5DQ,53.733717905208300,-1.874540321395290
Goose and Triller,OL13 8HY,53.701429688257600,-2.205265162596550
Ibex and White ibis,HX6 4QZ,53.650259000000000,-1.937027000000000
Solitaire and Bunting,OL15 8PJ,53.640910620075200,-2.111677795471900
Thicketbird and Mockingbird,HX4 8HY,53.689802846913400,-1.866902354856210
Scimitar babbler and Chicken,BD22 9PU,53.813135000000000,-1.943194494000000
Chipmunk and Kangaroo,HX3 0DR,53.711383000000000,-1.865683630990960
Scimitar babbler and Warbler,OL13 0AH,53.701913662282200,-2.200783947095630
Cuscus and Mouse,HX1 1DR,53.722611466400800,-1.860782599632210
Recurvebill and Jerboa,HX2 6US,53.737607247889800,-1.965367000000000
Wader and Dorcopsis,OL13 9LY,53.703775140231000,-2.194779112965410
Old World quail and Tree warbler,OL14 5LT,53.718198178874500,-2.092320334711670
Polecat and Hawaiian honeycreeper,BD13 3LF,53.790445730000000,-1.847444000000000
Fox and Moluccan boobook,HX1 5NU,53.724853222873800,-1.872217561962570
Rat and Shearwater,BD21 1BN,53.855677110000000,-1.917945050000000
Solitaire and Masked owl,HX1 5DG,53.722890730434200,-1.869344100773230
Snipe and Philippine hawk-owl,HD7 5NJ,53.622838533446800,-1.857013297215190
Parrotlet and Kite,BD13 2PR,53.769458240000000,-1.846912918000000
Black jay and Pratincole,HX2 9RX,53.758987566240900,-1.887964448909870
Marsh harrier and Masked owl,BB9 9BD,53.834858450000000,-2.209519111000000
Mouse and B,OL13 9LF,53.702743187207900,-2.193895000000000
Songlark and Vulture,HX7 5EF,53.727841600301000,-1.987837462878550
Guillemot and Ice seal,OL14 6AG,53.714195925497600,-2.083584227155280
Scimitar babbler and Marmoset,OL12 8DF,53.664951344956600,-2.174063043043340
B and Condor,BD22 8AH,53.824776330000000,-1.950013659000000
Pheasant and Treepie,BB8 0QQ,53.863372370000000,-2.160091920000000
Moluccan boobook and Nukupuʻu,BD13 2LU,53.760630510000000,-1.852906118000000
Songlark and B,HX1 4PR,53.727400000000000,-1.882668000000000
Vulture and Herring gull,OL15 9LJ,53.649215957372500,-2.111412353117590
Black jay and Hawk,OL12 6BL,53.643587887235100,-2.196331601981910
Lemming and Greenbul,OL14 8RY,53.734247652906900,-2.084518494133240
Jerboa and Coati,HX2 6BX,53.717535057866400,-1.938214977907320
Skunk and Bronzewing pigeon,BD13 2TE,53.764847000000000,-1.863331000000000
Polecat and Treepie,HD7 5JZ,53.620390863039100,-1.878897286339370
Recurvebill and Songlark,OL16 2UL,53.623044543595600,-2.143062790116050
Hawk and Mamo,BD21 1SL,53.864582220000000,-1.915251446000000
Goose and Armadillo,BB8 8TF,53.846702990000000,-2.135709150000000
Puffleg and Old World vulture,HX6 3EG,53.688391413022100,-1.948327116282710
Vulture and Macaw,OL11 5RJ,53.620696085264900,-2.206293884336740
Pitohui and Marmoset,BB9 9QF,53.836908950000000,-2.208799956000000
Capuchin and Bunting,HD7 5AF,53.624587094828300,-1.877645502322730
Chipmunk and Chicken,BD22 6DP,53.862764140000000,-1.924971245000000
Pratincole and Greenbul,OL14 8BA,53.718290147234200,-2.089577831334250
Ice seal and American sparrow,BD13 3RX,53.807463940000000,-1.865725880000000
Mole and Jerboa,HX7 5NQ,53.732963464462600,-1.978286262932770
Mole and Grackle,BB9 9JD,53.838988770000000,-2.201439948000000
Masked owl and Capuchin,OL12 9BB,53.647298816285300,-2.131693414567550
Chickadee and Meadowlark,OL14 6HJ,53.713461000000000,-2.050432000000000
Triller and Lemming,BB10 2HQ,53.812350490000000,-2.205579585000000
Parakeet and White ibis,HX4 8LA,53.690776437537000,-1.869519062845990
Jackal and New World blackbird,HX1 1TP,53.724315209783800,-1.857382208773310
Elephant and Viscacha,HX3 6TF,53.731923214122600,-1.868861412750690
Jerboa and Grouse,HD7 5NX,53.622749496654000,-1.857724182846450
Herring gull and Mamo,HX6 4NW,53.682591963443600,-1.968198182909040
Asiatic leopard and Grosbeak,BD13 2TB,53.768221870000000,-1.857446118000000
Perching duck and Kangaroo,BD21 1HN,53.860763350000000,-1.916642748000000
B and Philippine hawk-owl,OL13 3SP,53.693461963723800,-2.207725141610840
Booted eagles and Cloud rat,HX6 3DU,53.693701974188300,-1.945125213268890
Old World vulture and Goose,OL12 9EU,53.640100000000000,-2.121234000000000
Prion and Asiatic leopard,OL14 6AX,53.712388725878300,-2.084429086706950
Armadillo and Hawk,OL14 8RD,53.720720041394400,-2.085324752309690
Grackle and Grosbeak,BD22 7RZ,53.836292020000000,-1.955576814000000
Stilt and Mamo,BD13 4JH,53.805012290000000,-1.894872416000000
Jay and Petrel,HD7 5HH,53.620385334593700,-1.882374439016870
Hawaiian honeycreeper and Fox,HX7 8NZ,53.738097346468400,-2.006906080097520
Rabbit and Old World quail,HX6 3QE,53.703243842476800,-1.909576448889200
Macaw and Diving bird,OL12 9HH,53.636779000000000,-2.135759000000000
Hawk and Duck,HX4 9JP,53.660947277263800,-1.880551817473470
Mink and Boto,HX1 3HA,53.712958271363800,-1.877268569620930
Philippine hawk-owl and Parrotbill,BD21 1LA,53.855715150000000,-1.921061522000000
Tahr and River dolphin,OL15 8PL,53.638991721744000,-2.116300854295080
Tahr and Chicken,OL12 8DH,53.666301121456400,-2.172994069355030
Old World quail and Petrel,BD22 9SN,53.804985140000000,-1.932119596000000
Viscacha and Kite,BD22 9SE,53.815395490000000,-1.956601197000000
Asiatic leopard and Elephant,OL12 0DU,53.622039536113300,-2.149046344151490
Cloud rat and Chipmunk,HX3 5NT,53.739132379856900,-1.887304589620740
Philippine hawk-owl and Tree warbler,OL14 7QW,53.693573000000000,-2.102110000000000
Thicketbird and Chicken,HX2 9AB,53.749045036262200,-1.877118000000000
Fulmarine petrel and Crow,HX1 3RU,53.715203817429700,-1.884853180770500
Badger and Logrunners,BB8 8QD,53.844103720000000,-2.129059000000000
Old World quail and Towhee,HX7 8SF,53.751031332400500,-1.997961025037650
Pitohui and Vulture,BD22 9EB,53.834907270000000,-1.934517824000000
Vole and Triller,OL12 8JW,53.664380213254000,-2.171215543376080
Siskin and Darwin's finches,OL14 8DA,53.721135269124200,-2.094887826640490
Badger and Mouse,HX1 9SA,53.724426998141100,-1.860731148595220
Mockingbird and Parakeet,BD22 9LP,53.809390530000000,-1.953843528000000
Diving bird and Fish eagle,OL13 9LX,53.703874796870500,-2.194294840658920
White ibis and Quetzal,OL15 9QH,53.661479813387700,-2.084659916005540
Maya and Jay,OL12 9RW,53.631455049093500,-2.137511291862460
Partridge and Logrunners,BB9 0JY,53.831190380000000,-2.204897058000000
Tattler and Fish eagle,HX7 7LZ,53.748575619640900,-2.021601738929200
Partridge and Tattler,BB10 4JB,53.781527990000000,-2.201907913000000
Bronzewing pigeon and Badger,OL12 9BD,53.624670607731500,-2.143733558112190
River dolphin and Zebra,HX3 0RR,53.703209103368200,-1.863330737462020
Parrotlet and Bronzewing pigeon,HX6 1DL,53.705395814825100,-1.928598282312790
Coati and Eagle,BB9 6BT,53.859672200000000,-2.205386050000000
Night heron and Darwin's finches,HX1 3PP,53.716155104380900,-1.883350510597820
Booted eagles and Zebra,OL12 7JX,53.631793787159000,-2.186069370489410
Chickadee and Elephant,BB8 0NU,53.860690370000000,-2.162772858000000
Jackal and Partridge,HX7 7JH,53.744886485150400,-2.059749002767320
Francolin and Meadowlark,HX2 6RF,53.735190098751300,-1.943252354640500
Bunting and Tattler,HX7 7HN,53.753644398086100,-2.052133094682370
Fulmarine petrel and Greenbul,OL12 6ER,53.629612980434100,-2.158841431608830
Magpie and Thicketbird,HD7 4RF,53.643204176244500,-1.848352897427460
Pratincole and Mouse,BB8 0EU,53.856088430000000,-2.169368197000000
Thicketbird and B,HX7 8EZ,53.744307855699100,-2.010030595890910
American sparrow and Flameback,BB8 8DP,53.850541930000000,-2.182281659000000
Marsh harrier and Vole,HX1 2EY,53.716419152299500,-1.869197439634630
American sparrow and Greenbul,OL16 2SU,53.628651000000000,-2.138213251046760
Zebra and Wallaby,HX6 4JN,53.672557064060600,-1.935404559134810
Treepie and Ice seal,OL13 9HJ,53.707351187529800,-2.189947919510120
Black cockatoo and Snipe,BB9 9LH,53.836245450000000,-2.186003195000000
Thrasher and Parrotlet,HX6 2EQ,53.709033175411800,-1.910912399617660
Armadillo and Armadillo,HD7 5HQ,53.620941964139100,-1.881874000000000
Moluccan boobook and Triller,BD13 4JE,53.804168990000000,-1.896681419000000
Booted eagles and Wallaby,HD3 3GA,53.656900000000000,-1.876387384105230
Tahr and Greenbul,OL16 2PL,53.631656435674000,-2.134306080057850
Ground sloth and Marmoset,HD7 4EW,53.631537648831700,-1.855774184646930
Marsh harrier and Flameback,OL12 8JY,53.667823245703400,-2.170655000000000
Greenbul and Recurvebill,HX3 0AU,53.707739669423700,-1.856120174462880
Grouse and Fish eagle,HX3 5PA,53.739076427393100,-1.885167101806080
Chicken and Triller,OL13 9HN,53.704535079013600,-2.197251774888500
Old World vulture and Argus,HX1 3EA,53.712863176084400,-1.872268975245580
White ibis and Tit-tyrant,HX2 9RZ,53.760765751336100,-1.886427723144150
Grouse and Ground sloth,BB8 9AT,53.856282830000000,-2.177867398000000
Vulture and Asiatic leopard,BB8 0EQ,53.854624370000000,-2.168678173000000
Greenbul and Peafowl,OL14 5HR,53.716863556814300,-2.097832934342390
Tattler and Marmoset,HX2 0AX,53.722772158713300,-1.895077119568810
Diving bird and Badger,HX4 0AD,53.677554135567200,-1.896400314266420
Hawk and Parrotbill,BD16 1AS,53.847335400000000,-1.851341309000000
Pheasant and Mink,OL15 9DA,53.644726632878900,-2.095532597446650
Partridge and Viscacha,HX7 5QR,53.734472328952500,-1.972707026195060
Logrunners and Egret,HX3 5QG,53.737969495748700,-1.874770249392110
Grosbeak and Mockingbird,OL13 9DD,53.705215864650900,-2.198648614894640
Minke whale and Condor,HX3 5EE,53.733387934681700,-1.877042454666250
Ice seal and Prion,HX3 0AN,53.709591137655500,-1.856053269633520
Mamo and Old World quail,HX2 7ST,53.725837936054200,-1.919470315595550
Chickadee and Puffleg,BB9 8HU,53.841324520000000,-2.196694364000000
Grackle and Boto,OL15 0AG,53.634489097859400,-2.083516847309400
Maya and Lemming,HD7 5BA,53.623398506465500,-1.875562501692240
Snipe and B,HX6 3AN,53.706689721306200,-1.914265241816710
Guillemot and Chipmunk,HX3 6AL,53.728082303208400,-1.850882460699940
Tree warbler and Stint,OL15 8AP,53.643151554961100,-2.098176099913520
Tit-tyrant and New World blackbird,HX1 3QU,53.716742262206600,-1.886409697828640
Booted eagles and Grouse,HX1 2UT,53.724315209783800,-1.857382208773310
Meadowlark and American sparrow,OL15 9HG,53.646807956222400,-2.100332710176500
Macaw and Condor,OL12 0BX,53.632161559398100,-2.155237000000000
Dorcopsis and Duck,BD15 0DH,53.820347360000000,-1.853502500000000
Mouse and Grouse,HX2 7DJ,53.712680769035600,-1.887602395841860
Herring gull and Mockingbird,HX1 1UR,53.724003502013900,-1.859823237450250
Bronzewing pigeon and Recurvebill,BB8 9LD,53.860470830000000,-2.165569616000000
Tattler and Warbler,OL12 8SA,53.643145095083400,-2.180734493529170
Tattler and Perching duck,OL13 8QL,53.723560102418200,-2.198932186446210
Skunk and Pratincole,BD13 2HA,53.766947640000000,-1.851731113000000
Herring gull and Minke whale,HD7 4PW,53.649224321915400,-1.861402000000000
Siskin and Boto,HX6 2PL,53.711689776043500,-1.905831320631700
Siskin and New World blackbird,OL15 9RA,53.663512441029800,-2.082802592529740
Jay and Recurvebill,HX2 8DH,53.742740498853700,-1.891555443027900
Parrotlet and Coati,HX2 6RJ,53.728456339508300,-1.939897000000000
Stint and Pratincole,HX7 6BH,53.743327390291300,-2.016777476720600
Kangaroo and Grosbeak,HX3 5RH,53.741108525654700,-1.876898677663050
Francolin and Piping shrike,HX6 1LD,53.705676965024600,-1.932975734433740
Moluccan boobook and Meadowlark,BD22 6BD,53.863627030000000,-1.925060940000000
Macaw and Fulmarine petrel,OL12 9TF,53.638058366657500,-2.154683773896510
Egret and Stint,OL12 9QP,53.637965618975700,-2.126567406189430
Logrunners and Maya,BD22 0EB,53.840269050000000,-1.944251000000000
Condor and Stint,HX1 2EW,53.718170529444000,-1.868010080387710
Ground sloth and Ice seal,HX3 6NB,53.734186700162700,-1.867490090979140
Polecat and Kangaroo,HX7 8SW,53.752057000000000,-2.003602000000000
Nukupuʻu and Parrotbill,HX1 2JR,53.718079404279900,-1.859009483416680
Macaw and Quetzal,HD7 5LZ,53.622791743849500,-1.855471332287640
Logrunners and Bronzewing pigeon,HX1 4TG,53.723226823370400,-1.890893253463890
Elephant and Scimitar babbler,OL12 0PR,53.622322194876400,-2.159842082952840
Puffleg and Zebra,BD21 1HZ,53.861372890000000,-1.914315219000000
Quetzal and Grouse,HD7 4RN,53.644563933754700,-1.850374997519900
Chickadee and Grosbeak,BD15 0HU,53.820735730000000,-1.862721485000000
Gull and Jerboa,HX1 5SS,53.724206238268300,-1.864172107538710
Petrel and Armadillo,HX2 8AS,53.744361239827800,-1.885001102240980
Stilt and Pheasant,HD7 4QR,53.643287634176300,-1.850394633013780
Petrel and Black jay,BB9 0TW,53.835734990000000,-2.201530682000000
Dolphin and River dolphin,HX1 3AW,53.714698724536600,-1.874142247319550
Hawaiian honeycreeper and Capuchin,OL12 6LT,53.629890794478100,-2.172406366139570
Partridge and Fox,OL12 6QD,53.620660155645000,-2.172399000000000
Rabbit and Parrotbill,HX2 6EZ,53.718923925367700,-1.948183817555670
Thicketbird and Ground sloth,HD7 5HN,53.619575786732600,-1.881756858926980
Egret and Guillemot,HX1 1XR,53.724315209783800,-1.857382208773310
Hawk and Diving bird,HX6 4RR,53.660115579863200,-1.950389243069980
Ibex and Condor,OL13 9JN,53.701213571192900,-2.194752122558410
Goose and New World blackbird,HX7 5RB,53.739227497297700,-1.974978064146690
Thrasher and Duck,BD13 4HD,53.787084040000000,-1.887950496000000
Asiatic leopard and Thrasher,BD13 2AS,53.763463920000000,-1.847450442000000
Peafowl and Capuchin,BD16 1TF,53.842417300000000,-1.873395593000000
Stint and Jackal,BD13 3HJ,53.791747680000000,-1.846300630000000
Fox and Minke whale,OL13 9SH,53.691811447200000,-2.186652550500000
Solitaire and Zebra,OL13 9LD,53.703128985708800,-2.194170219616830
Mole and Badger,OL12 0NS,53.619681000000000,-2.159454000000000
Black jay and B,HX1 1QY,53.719891283147700,-1.855881782762010
Lemming and Tit-tyrant,OL11 5AQ,53.622280160058400,-2.188673236551470
American sparrow and Fish eagle,OL16 2LU,53.623411969853700,-2.144077000000000
Diving bird and Wader,OL14 7HY,53.711072176229200,-2.137468263962550
Lemming and Maya,OL15 8BJ,53.643979172937500,-2.097315821157130
Polecat and Maya,HX6 2NP,53.712608999445800,-1.908995838162570
Egret and Tattler,BB8 0PY,53.858307040000000,-2.150190201000000
Warbler and Chipmunk,HX1 2QR,53.719792110489700,-1.863307392940250
Dolphin and Scimitar babbler,BB8 9SE,53.860407790000000,-2.178052000000000
Cuscus and Peafowl,BD22 6NA,53.857812530000000,-1.942616046000000
River dolphin and Snipe,BD22 8PX,53.828282550000000,-1.952303609000000
Badger and Tree warbler,OL14 7UW,53.687436923947000,-2.107788526826190
Tattler and Chicken,BB8 7AD,53.862663500000000,-2.145051269000000
Hawk and Black cockatoo,BB9 8JR,53.841177100000000,-2.198882101000000
Goose and New World blackbird,BD21 1HB,53.859718900000000,-1.913999301000000
Puffleg and Perching duck,HX6 2SR,53.714564617040300,-1.904127924437640
Argus and Night heron,HX1 3TT,53.719589990490600,-1.884841228180530
Duck and Minke whale,BD21 5PN,53.857544300000000,-1.902798891000000
Recurvebill and Booted eagles,BB9 8AJ,53.840094000000000,-2.202264420000000
Hawaiian honeycreeper and Hawk,HX4 9HX,53.666439135777500,-1.880642263115690
Badger and Kestrel,OL14 8JJ,53.731625649994000,-2.131487444550400
Flameback and Marmoset,HX2 7PT,53.718737324561700,-1.896011483540970
Diving bird and Tattler,HD3 3TY,53.661167904368800,-1.845489008333020
Armadillo and American sparrow,OL14 6LG,53.710543000000000,-2.101333419938670
Hawk and Grosbeak,OL12 7UJ,53.631539372002600,-2.176012128904900
Booted eagles and Jay,HX7 5JG,53.727175386472300,-1.979622959660630
Greenbul and Diving bird,HX2 9DD,53.748491677664300,-1.880834930353670
Old World quail and New World blackbird,BD13 3QD,53.794338690000000,-1.855536083000000
Masked owl and Jerboa,OL12 8PH,53.654132752290200,-2.178012748783340
Civet and Argus,BB9 0JL,53.829549120000000,-2.202822761000000
Moluccan boobook and Old World quail,HD7 5RJ,53.631713242037400,-1.845218402377580
Stint and Stint,HX2 7TA,53.740780739262500,-1.926749522264610
Chickadee and Old World vulture,HX2 0JP,53.732283061789200,-1.896842154042760
Booted eagles and Diving bird,BB8 8SB,53.843574720000000,-2.136139764000000
Linsang and Ibex,OL12 6SP,53.619064940796600,-2.168538000000000
Wader and Thicketbird,HX1 1QE,53.721223000000000,-1.856362000000000
Siskin and Lemming,HX6 3QJ,53.700200104792400,-1.913975459071100
Dolphin and Fulmarine petrel,OL12 8QT,53.661628043680600,-2.172460390611650
Recurvebill and Flameback,HD7 4BX,53.640551267842300,-1.847258256710850
Tree warbler and Civet,BD22 0QR,53.845717210000000,-1.976511174000000
Black cockatoo and Maya,BB9 6RD,53.863711740000000,-2.203048993000000
Mouse and Mouse,OL16 3TW,53.619249302158200,-2.111378599716830
Buzzard and Francolin,BD13 3SG,53.796802450000000,-1.872348580000000
Marmoset and Jay,OL12 8QH,53.656875412203400,-2.177161850292080
Marsh harrier and White ibis,HX1 3NS,53.716763943171600,-1.880954731204800
Moluccan boobook and Linsang,OL14 5JL,53.719440841402900,-2.100596865192400
Mouse and Siskin,BB8 9QP,53.856699360000000,-2.187842000000000
Guillemot and Skunk,HX2 8RQ,53.752909391929500,-1.906315705231780
Rabbit and Maya,HX1 4LX,53.722166000000000,-1.879953987318980
Flameback and Zebra,BB8 9BY,53.858133840000000,-2.172052295000000
Diving bird and Grosbeak,HX6 2FJ,53.708617000000000,-1.888872000000000
Bronzewing pigeon and Linsang,OL16 2HP,53.618756000000000,-2.151983000000000
Masked owl and Guillemot,HX2 7EA,53.709481932079700,-1.879293602752180
Greenbul and Pratincole,OL12 6NW,53.631570786491200,-2.166636622989070
Kite and Piping shrike,BB8 9RY,53.860737230000000,-2.174191622000000
Cuscus and Shearwater,HX3 6EW,53.729645230963500,-1.865245926822490
Guillemot and Black jay,HX2 0LF,53.724957582150900,-1.907635574354880
Pitohui and Cloud rat,HX3 0LT,53.703749710060700,-1.864495373804450
Skunk and Elephant,OL13 9DL,53.705982478361400,-2.197061620136190
Nukupuʻu and Asiatic leopard,OL14 5RX,53.716406072040500,-2.084891727931950
Jerboa and Petrel,BD21 4SR,53.862059390000000,-1.885941348000000
Booted eagles and Piping shrike,OL12 8HB,53.683354049591100,-2.164933583348010
Puffleg and Logrunners,HX6 3JD,53.683227229731600,-1.937765353841910
Civet and Masked owl,BD22 7JR,53.845938900000000,-1.941279488000000
Recurvebill and Egret,HX1 4JU,53.723168233904900,-1.885877157827820
Skunk and Mole,OL13 9JE,53.702199060001800,-2.196710681165080
Parakeet and Diving bird,OL14 6TZ,53.684195315044600,-2.093169000000000
Darwin's finches and Mouse,BD22 0EP,53.833221830000000,-1.967051904000000
Triller and Treepie,HX7 7LN,53.748288408352900,-2.019251192342620
American sparrow and Boto,HX6 3JH,53.706653040611500,-1.913250340766130
Kangaroo and Hawk,HX2 7NW,53.715496356571000,-1.900413555749410
Wallaby and Wallaby,OL13 9PX,53.696613218131200,-2.188157798106480
Wallaby and Siskin,OL12 0HS,53.631835775162800,-2.156793189754250
Asiatic leopard and Badger,HX4 8AL,53.688289000000000,-1.855231791294960
Wader and Jackal,HX1 2JX,53.718042362971300,-1.858085274846210
Cuscus and Black jay,OL15 8BZ,53.644513836397400,-2.102838268421250
Prion and Old World quail,HX1 4JW,53.722629324535300,-1.886272633918310
Mole and Greenbul,HX6 2DP,53.711221740211500,-1.904999083804030
Macaw and Condor,HX2 9BE,53.751867115056600,-1.876806633404080
Condor and Black jay,OL11 5AS,53.618857878486800,-2.208945583834260
Civet and Meadowlark,HD3 3YE,53.659013354013700,-1.862399105441900
Mink and Marsh harrier,OL15 9NN,53.661252142449700,-2.088609000000000
Logrunners and Eagle,OL12 9BH,53.630378000000000,-2.145069000000000
Egret and Vole,HX2 6RL,53.735604000000000,-1.941887000000000
Kite and Minke whale,BB8 0HS,53.856974040000000,-2.165935869000000
Nukupuʻu and Chipmunk,HX2 7RX,53.722080123120500,-1.905990028541940
Tattler and Tattler,HX4 9FD,53.672863721683900,-1.878701775905800
Songlark and Shearwater,BD21 1RA,53.862589360000000,-1.918798263000000
Stint and Kite,HX2 0RU,53.732863054218200,-1.902540262120440
Duck and B,OL14 6NU,53.708006044245600,-2.102887371684360
Flameback and Maya,HX2 7LY,53.720648673508000,-1.903038198179470
Moluccan boobook and Greenbul,HX1 3SE,53.715733691011300,-1.884412324570220
B and Nukupuʻu,BD21 5EU,53.849952610000000,-1.919081053000000
Guillemot and Meadowlark,BD21 4ST,53.862734540000000,-1.887064702000000
Francolin and Buzzard,BD22 8ED,53.833542110000000,-1.956978000000000
B and Tattler,BD22 7RW,53.843955120000000,-1.946753677000000
Crow and Logrunners,HX2 0LN,53.724334203815100,-1.904030000000000
B and Quetzal,OL13 9SL,53.688987033343400,-2.173117470547210
Thrasher and Shearwater,OL16 1JN,53.617803627892700,-2.157950468813970
Jerboa and Meadowlark,OL11 5SD,53.620466389967300,-2.209165189681310
Booted eagles and Old World warbler,HX3 5LF,53.735663028668400,-1.887177000000000
Chicken and Kangaroo,OL14 7SW,53.693932670644400,-2.100535885027940
Thicketbird and Stilt,HX7 5QT,53.735561000000000,-1.974828530821950
Black cockatoo and B,BD22 9QD,53.804826860000000,-1.960028501000000
Stilt and Tit-tyrant,OL11 5AW,53.622781768914800,-2.184018868724200
Nukupuʻu and Prion,OL14 5PE,53.723318669577000,-2.106395307029630
Marsh harrier and Old World quail,BB8 7AG,53.860857590000000,-2.151780623000000
Dolphin and New World blackbird,OL14 7HN,53.710897632334400,-2.140709883641090
Dorcopsis and Skunk,HX3 6TS,53.738061206739800,-1.868084336085560
Guillemot and Petrel,OL13 8JA,53.696089642821200,-2.205905534999770
Francolin and White ibis,OL12 9BN,53.625424923060900,-2.144310677832580
Black jay and Fox,BB9 9HT,53.837420870000000,-2.203803000000000
Old World quail and Minke whale,HX3 6JN,53.733567370479700,-1.860306873248830
Macaw and Quetzal,HX6 1PB,53.705840945180700,-1.957576787710750
Tit-tyrant and Prion,HX2 8HN,53.746342913626200,-1.889590141892790
Viscacha and Tit-tyrant,HX6 2RW,53.712725313030500,-1.920949780193510
Mole and Tit-tyrant,BD22 7PE,53.845486690000000,-1.955734327000000
Flameback and Partridge,HX2 8ED,53.748242390672100,-1.892906056079320
Scimitar babbler and Condor,HX3 0BX,53.710774605077400,-1.861170064275060
Quetzal and Peafowl,HX1 5PQ,53.725418805191300,-1.880293804632540
Fox and Thrasher,BB8 8BU,53.856104230000000,-2.135785232000000
Goose and Mockingbird,HX1 2RB,53.716931721547000,-1.861407423078870
Crow and Logrunners,HX3 6DS,53.731024725363300,-1.861148957465190
Polecat and Quetzal,BB9 9HL,53.839325650000000,-2.204192180000000
Skunk and Asiatic leopard,HX2 0NL,53.725895191911300,-1.911422476006640
Perching duck and Crow,HX7 5TQ,53.702603658983200,-1.999280890961250
Mole and Old World warbler,BB10 2HR,53.811182820000000,-2.205437000000000
Marmoset and Macaw,BD21 1BD,53.855999780000000,-1.916636982000000
Polecat and Night heron,HD7 4NQ,53.643674923104900,-1.866291024920290
Vulture and Partridge,OL13 9PZ,53.696882000000000,-2.195020565715700
Capuchin and Marmoset,OL13 9BL,53.706945000000000,-2.195369000000000
Siskin and Greenbul,HX7 6LT,53.741321746272800,-2.024327015995550
Ibex and River dolphin,OL14 7NP,53.707483818105900,-2.103946537558690
Nukupuʻu and Booted eagles,HX2 7SD,53.718248859693400,-1.914908543346320
Pitohui and Egret,OL14 5RQ,53.714392496041800,-2.085236149707180
Rabbit and Jay,BD22 9JG,53.810018260000000,-1.950258917000000
Zebra and Vole,HX4 0DE,53.683343179580700,-1.920944067796390
Rat and Coati,OL12 0ND,53.623807238109200,-2.158350900564630
Kestrel and Petrel,OL14 7QY,53.703819939220800,-2.110329887614010
Parakeet and Chipmunk,HX3 6SU,53.755059568359600,-1.869896643903820
Linsang and Pratincole,HX2 9EE,53.757282457201100,-1.890805224151190
Hawk and Warbler,OL12 0AZ,53.634622000000000,-2.157560627405020
Fulmarine petrel and Parakeet,HX2 8UJ,53.748323637230200,-1.904203000000000
Cloud rat and Recurvebill,HX1 4JQ,53.722606275367100,-1.890380000000000
New World blackbird and Egret,BD21 5QY,53.856653000000000,-1.899242998000000
Nukupuʻu and Grackle,OL12 7NA,53.623517866577500,-2.184626839881350
Chipmunk and Condor,HX3 6QL,53.739142000000000,-1.868809000000000
Shearwater and Tattler,HX6 3LP,53.697732430174800,-1.934699768178550
Skunk and Stint,HD7 4JE,53.638315566605700,-1.856446831000840
American sparrow and Thrasher,BB10 4JJ,53.782025820000000,-2.205142803000000
Solitaire and American sparrow,BD13 3TG,53.794613720000000,-1.845424877000000
Kestrel and Hawaiian honeycreeper,HX2 8BA,53.743226521165000,-1.882699562962770
Old World warbler and Skunk,BD22 6BU,53.862819580000000,-1.927449601000000
Civet and Old World quail,HX2 0UG,53.743377498978700,-1.912159091268870
Thrasher and Myna,BD22 6EH,53.862284840000000,-1.920395380000000
New World blackbird and Zebra,HX1 1LH,53.721912000000000,-1.861664000000000
Tahr and Mamo,OL12 8RU,53.644852453350400,-2.180998958474570
Badger and Buzzard,BB8 8BS,53.853873630000000,-2.137191784000000
Petrel and Tattler,OL12 6RQ,53.619954713155100,-2.162493864317450
Peafowl and Stint,HD7 5SP,53.623502196041500,-1.848499001998860
Cuscus and Badger,OL16 2BP,53.625718000000000,-2.138942000000000
Wader and Hawaiian honeycreeper,HX3 5ET,53.734455681639400,-1.875265755728180
Puffleg and Parakeet,HX6 1JZ,53.706101320010700,-1.936504706581570
Fish eagle and Skunk,BB9 9QA,53.835536970000000,-2.206969677000000
Triller and Jerboa,BD22 9BJ,53.836622200000000,-1.930868000000000
Ground sloth and Crow,OL15 9DE,53.644853608460000,-2.094095845633080
Vole and American sparrow,BD13 2DD,53.762987420000000,-1.862363000000000
Nukupuʻu and Parrotbill,BD22 6AE,53.861980430000000,-1.922190139000000
Kite and Viscacha,BB10 3JW,53.789252810000000,-2.199440574000000
Argus and Macaw,BD15 0AQ,53.822268890000000,-1.859450512000000
Booted eagles and Dolphin,HX6 4NS,53.689663007374400,-1.959485798728560
Vulture and Songlark,OL14 8HP,53.727281978022300,-2.116499435182880
Crow and Skunk,BD22 8LJ,53.828926670000000,-1.945222960000000
Warbler and Herring gull,OL14 7AN,53.714309203140900,-2.099933069414980
Flameback and Guillemot,HX2 6QS,53.730146320570300,-1.940197335264120
Triller and Ground sloth,OL13 9DT,53.706480714083000,-2.194685582297750
Peafowl and Badger,OL14 6DE,53.718991390754800,-2.060742560646680
Tit-tyrant and Linsang,HX1 3XB,53.718285703848100,-1.874843756078420
Flameback and Cloud rat,BD13 3NX,53.793612570000000,-1.857132495000000
White ibis and Bronzewing pigeon,HD3 3XS,53.660795206254500,-1.856597586104090
Black jay and Pitohui,BD13 3ST,53.781547090000000,-1.861726162000000
Goose and Francolin,HX7 9BN,53.740656000000000,-2.014064000000000
Wallaby and Recurvebill,HX6 1DY,53.707295354411500,-1.919217775635490
Egret and Booted eagles,BD21 1AH,53.855899610000000,-1.914782447000000
Grosbeak and Crow,OL14 6EE,53.729207000000000,-2.051481000000000
Armadillo and Capuchin,OL13 9QH,53.695987230200000,-2.200074443900000
Kangaroo and Parakeet,HX2 7JP,53.716660106318500,-1.894895310139590
Grouse and Marmoset,OL13 9NY,53.696741439918400,-2.197821102770890
Partridge and Puffleg,OL13 9HL,53.706703350141200,-2.190384316671030
Skunk and Recurvebill,BD13 3GJ,53.791118070164600,-1.865049596113730
Magpie and Diving bird,BD13 1JA,53.772674850000000,-1.860784216000000
Hawk and Badger,OL14 5SE,53.716684421559400,-2.085286254867050
Viscacha and Rat,HX7 7HD,53.756913000000000,-2.039761000000000
Triller and Siskin,OL16 2EH,53.620484000000000,-2.150160000000000
Zebra and Chickadee,HX4 9QQ,53.669993457064700,-1.884734025580770
Gull and Duck,OL14 6AL,53.713412001789100,-2.086340207563060
Jay and Stilt,HX7 8WJ,53.740649309415600,-2.014062555663030
Piping shrike and Stint,BD22 9BH,53.836361460000000,-1.931202912000000
Skunk and Lemming,BD22 0RY,53.843443180000000,-1.976056486000000
New World blackbird and Kangaroo,BB8 9AJ,53.857530920000000,-2.178693679000000
Tattler and Macaw,OL15 0EY,53.636535454300000,-2.081086225700000
Tree warbler and Grouse,HX4 9DA,53.671765712520100,-1.860798590674420
Marmoset and Triller,OL14 8QB,53.733534578331300,-2.144090174542850
Vole and Old World vulture,HX1 9BS,53.724316000000000,-1.857382000000000
Dorcopsis and Jackal,OL13 8PE,53.712164869092900,-2.203287262605790
Cloud rat and Piping shrike,HX2 8TY,53.742278273814400,-1.897424207393490
Minke whale and Vole,HX6 4BA,53.675940722817700,-1.943588987841060
Chicken and Asiatic leopard,OL16 2PR,53.631152262237800,-2.135045445945520
Songlark and Francolin,OL14 6HH,53.714095003796500,-2.056569000000000
Mouse and Petrel,HX1 1UU,53.724569837008800,-1.860170000000000
Kite and Armadillo,HX6 2QL,53.709277022273200,-1.912502618086030
Boto and Herring gull,BB8 8EH,53.851996740000000,-2.177104333000000
Fox and Shearwater,OL12 9QG,53.638392799411400,-2.122016235578830
Duck and Herring gull,OL12 7GE,53.630586226487400,-2.188075229499070
Boto and Magpie,BB8 8LG,53.846196450000000,-2.196398046000000
Cuscus and Kite,BB9 9JR,53.837032240000000,-2.199743799000000
Fox and Cloud rat,OL12 0TD,53.637149636853600,-2.168655008676330
Eagle and Crow,HX4 9PG,53.669770912342600,-1.887004980240510
Chickadee and Snipe,HX1 3LE,53.715860185766300,-1.876063116957060
Fulmarine petrel and Chipmunk,HX7 8SP,53.751687429634600,-2.002904812913180
Mink and Badger,OL12 9ES,53.641278000000000,-2.121313000000000
Minke whale and Black cockatoo,OL16 2SZ,53.627955091481900,-2.140433000000000
Recurvebill and Recurvebill,HX6 4EE,53.668770590491500,-1.948986684336940
Egret and Solitaire,HX2 0PY,53.730336399652200,-1.901303183108330
Fish eagle and Old World warbler,BD21 5PU,53.826596150000000,-1.923820287000000
Treepie and Marmoset,BD22 8SA,53.834039680000000,-1.942845930000000
Kangaroo and Chickadee,BD22 8PL,53.828093360000000,-1.951194758000000
Stint and Philippine hawk-owl,HX1 2RU,53.724315209783800,-1.857382208773310
Tattler and Tattler,HX7 7NU,53.749393415286500,-2.022223897890290
Booted eagles and Mink,OL12 9BT,53.624561709663100,-2.144594998001190
Parakeet and Night heron,HX4 9AD,53.673546662270900,-1.869965761961210
Boto and Crow,BD13 1QB,53.771307950000000,-1.852459000000000
Marsh harrier and Snipe,OL13 9QX,53.697332000000000,-2.199959000000000
Solitaire and Triller,HD7 5FF,53.620832000000000,-1.872849000000000
Old World warbler and Maya,HX6 1BE,53.706598268646600,-1.925384694767100
Warbler and Lemming,HX2 6LD,53.719529279249600,-1.956123516204470
Zebra and Grouse,BB8 0NY,53.863178190000000,-2.164105399000000
Parakeet and Cloud rat,BB8 7BP,53.857414920000000,-2.144774629000000
Herring gull and Macaw,HX2 8NN,53.750031765913500,-1.899498293840470
Crow and Zebra,HX2 6AJ,53.724801951166100,-1.947782587764670
Tahr and Meadowlark,HX6 3ER,53.689472208446900,-1.953792319919160
Polecat and Songlark,HX6 2LP,53.710693102059500,-1.907121318803430
Boto and Boto,OL15 9JN,53.651150000000000,-2.100615000000000
Partridge and Old World warbler,HD7 4QE,53.639796000000000,-1.853477000000000
Guillemot and Maya,BD13 1PH,53.770493270000000,-1.848016706000000
Argus and Argus,OL14 7PG,53.704663863539900,-2.111362176216950
Thrasher and Old World quail,OL12 7RQ,53.627141586505700,-2.205750781151560
Marmoset and Siskin,HX7 5AS,53.729594232290000,-1.987442882684990
Macaw and Pheasant,HX3 6JT,53.731966297974300,-1.859281427534840
Elephant and Puffleg,HX3 0PS,53.705443968723000,-1.853037705164650
New World blackbird and Badger,OL15 9PE,53.674207012612900,-2.084700646553420
Thicketbird and Shearwater,OL14 5QT,53.714182758840500,-2.089356957345750
Mouse and Argus,HX1 9UJ,53.724349000000000,-1.857460000000000
Darwin's finches and Wallaby,BD13 4NB,53.809633790000000,-1.920510020000000
Parakeet and Parakeet,OL12 6PZ,53.620861098849900,-2.169980842982120
Coati and Stilt,OL14 6PR,53.703941560896200,-2.105028436068970
Siskin and Marsh harrier,HX7 7DE,53.743426662054600,-2.013654123424020
Rabbit and Civet,HX6 2LF,53.709805552237400,-1.910107821804340
Zebra and Macaw,HX7 8JP,53.741584010510400,-2.014517716761930
Fulmarine petrel and Masked owl,OL14 5DZ,53.718393982469100,-2.094790720958140
Treepie and Peafowl,OL14 7JN,53.708135370867800,-2.109083801371530
Songlark and Booted eagles,HX7 7NN,53.750184626013000,-2.020768524794300
Songlark and Mink,HX2 6AN,53.722660411130800,-1.942556878098460
Philippine hawk-owl and Dorcopsis,OL11 5XZ,53.623777299005700,-2.207306796492050
Quetzal and Chickadee,BD16 1AX,53.840554020000000,-1.855012611000000
Mouse and Rabbit,HX4 9PJ,53.670911647213000,-1.886199723746810
American sparrow and Viscacha,OL14 6HT,53.702806530485700,-2.072064631305700
Grackle and Cuscus,HX6 3QT,53.703419315913100,-1.904047153902100
Moluccan boobook and Magpie,BB8 9PU,53.858719280000000,-2.177376021000000
Armadillo and Greenbul,HX3 9BQ,53.708081514746800,-1.849044236276790
Lemming and Capuchin,BB9 8HP,53.842916910000000,-2.201185263000000
Kangaroo and Kākāriki,OL14 6AN,53.713438647629500,-2.086779650689530
Greenbul and Old World vulture,HX3 5NG,53.736681884248800,-1.881338213083780
Old World vulture and Triller,BD16 1DE,53.838373000000000,-1.881021000000000
Hawaiian honeycreeper and Macaw,OL12 9RN,53.641517966958500,-2.124233000000000
Myna and Perching duck,HX6 3PZ,53.701953878830500,-1.915516907919050
Towhee and Diving bird,BD13 5FF,53.820972000000000,-1.901440000000000
Cuscus and Mamo,HX1 3EX,53.712859619275100,-1.877480971836560
Thrasher and Coati,OL14 8JF,53.727377586715700,-2.128458052340170
Egret and Stint,HX1 1SP,53.725299702491200,-1.853893096447470
Old World vulture and Thrasher,BB8 7ND,53.862431940000000,-2.118623986000000
Eagle and Piping shrike,OL13 3SR,53.693461963723800,-2.207725141610840
Herring gull and Condor,HX1 3QR,53.717073725775600,-1.885257206669370
Piping shrike and Nukupuʻu,BB8 0PJ,53.858482010000000,-2.153961342000000
River dolphin and New World blackbird,OL14 6QA,53.697831427724600,-2.102983660413650
Moluccan boobook and Puffleg,BB9 6BA,53.863495680000000,-2.208491519000000
Towhee and Rabbit,BD21 4RH,53.859765160000000,-1.903858048000000
Herring gull and Old World warbler,BD22 8EY,53.832949810000000,-1.959242185000000
River dolphin and Dorcopsis,HX3 6DN,53.729855102612100,-1.860289000000000
Armadillo and B,HX2 9UN,53.752812952888300,-1.878866379169990
New World blackbird and Eagle,BD21 5ER,53.851668590000000,-1.918044072000000
Warbler and Parrotbill,HX2 9DU,53.758965042842100,-1.892833343067980
Logrunners and Armadillo,HX7 8HP,53.748307386450000,-2.011593451153790
Civet and Jay,OL14 8SF,53.736658043213500,-2.132321803945250
Kākāriki and Philippine hawk-owl,OL14 6TY,53.683881097178500,-2.092956664958720
Tattler and Eagle,BB9 9HX,53.838168670000000,-2.202742892000000
Logrunners and Hawk,HX2 9DP,53.755846111582000,-1.892735096794070
Shearwater and B,HX1 2LT,53.719839344373300,-1.857548859669430
Elephant and Grackle,HX3 9EB,53.701153592440300,-1.850568530155490
Masked owl and Magpie,HX2 8PD,53.746425796101100,-1.902266352927890
Ground sloth and Treepie,HX6 1NW,53.703492638813900,-1.951201933089450
Scimitar babbler and Francolin,HX6 3PR,53.705349020357700,-1.912222922202930
Gull and Mouse,HX2 0LZ,53.728157027683400,-1.896245963410500
Stint and Solitaire,BD13 2FB,53.766247430000000,-1.859925559000000
Pratincole and River dolphin,BD21 5NG,53.856765740000000,-1.907087950000000
River dolphin and Diving bird,HX7 7EX,53.753580259756400,-2.029657000000000
Jay and Siskin,BD22 8BY,53.828219880000000,-1.952941773000000
Kestrel and Viscacha,BD22 6ER,53.860947150000000,-1.938278476000000
Petrel and Herring gull,BD21 1PR,53.863117720000000,-1.915984253000000
Partridge and Badger,OL14 7TQ,53.691350433388200,-2.103634113051970
Stilt and Warbler,HX2 8AZ,53.743587322725900,-1.884017669309190
Old World quail and Fulmarine petrel,HX3 6TL,53.737128650054500,-1.870103510200860
Macaw and Black jay,BD22 7QE,53.843735410000000,-1.959596538000000
Francolin and Petrel,BD13 3PG,53.794036300000000,-1.850800846000000
Mockingbird and Scimitar babbler,BD22 7AF,53.848979240000000,-1.929099872000000
Perching duck and Logrunners,HX2 6PR,53.734756000000000,-1.935082000000000
Tree warbler and Solitaire,OL12 7JW,53.632172213252000,-2.191182346159690
Argus and Asiatic leopard,HX6 2TF,53.715962098561100,-1.909715928991010
Pratincole and Grosbeak,BB9 8RJ,53.843776870000000,-2.202891608000000
Mink and Wader,BD22 6NH,53.857385900000000,-1.934391657000000
Scimitar babbler and Thrasher,HX6 1LN,53.705267910024000,-1.941398884759160
Civet and Scimitar babbler,OL12 8BB,53.661255238287600,-2.175409727093700
Crow and Partridge,BD13 1JL,53.774519000000000,-1.861704000000000
Partridge and Old World vulture,HX7 8HZ,53.744802530209500,-2.004860270412090
Treepie and Night heron,BB9 8DN,53.838310110000000,-2.199249000000000
Stilt and Cloud rat,OL12 7AB,53.620214357759600,-2.169690999953510
Macaw and Buzzard,BD22 6NG,53.856253840000000,-1.935153564000000
Triller and Viscacha,HX4 8EE,53.688271382099700,-1.856095575693370
Stint and Duck,HX7 7PD,53.752112949691100,-2.037496739100210
Coati and Badger,BD13 2JX,53.762090050000000,-1.848471725000000
Minke whale and Treepie,HX2 6UP,53.735311434031000,-1.953757507371390
Quetzal and Wallaby,BB9 8DQ,53.838334000000000,-2.190070000000000
Fulmarine petrel and Cuscus,BB8 8JL,53.847959130000000,-2.190174358000000
Fox and Night heron,OL12 0PS,53.622402663474300,-2.160159880489220
Viscacha and Badger,HX2 7PQ,53.718501390881800,-1.893451182355460
Dolphin and Old World quail,OL13 8QE,53.723875965167600,-2.198160769165890
Ground sloth and Masked owl,HX6 2LU,53.711478313308300,-1.911422370425560
Magpie and Grosbeak,OL12 0UP,53.623855950973500,-2.155478428764270
Old World vulture and Hawk,OL15 9LD,53.649199681555600,-2.098901000000000
Ground sloth and Tattler,OL12 6EE,53.637414801805200,-2.171801877545660
Fish eagle and Perching duck,OL13 9HP,53.705653503390500,-2.189273727393570
Magpie and Mamo,BD13 2NE,53.763105030000000,-1.855218374000000
White ibis and Petrel,BD22 7LH,53.854876140000000,-1.930564572000000
Fulmarine petrel and Logrunners,HX4 9PD,53.671287091809200,-1.884049373805530
Rabbit and Goose,BD22 7FG,53.855505000000000,-1.934763000000000
Civet and Philippine hawk-owl,HX6 3HW,53.684735842337900,-1.935128602025090
Dolphin and Vulture,HD3 3UL,53.660186740961700,-1.851454689473910
Snipe and Stint,OL16 2DP,53.621184181194900,-2.150222551262690
Logrunners and Cloud rat,HX6 4JU,53.668852509946200,-1.951468778629890
Tit-tyrant and Jackal,BD22 8DS,53.831519840000000,-1.956675795000000
Thrasher and Treepie,HX2 6NU,53.724261557169200,-1.945282644041080
Skunk and Moluccan boobook,HX4 8DQ,53.686167877139200,-1.855860469588570
Argus and Condor,HD7 5PB,53.621662980098800,-1.858619818224480
Moluccan boobook and Kestrel,HX6 2TA,53.717800441957800,-1.904272115389730
Buzzard and Mouse,OL13 8DD,53.707831993682900,-2.203645083611280
Chickadee and Booted eagles,OL12 6HT,53.627182279008600,-2.161735410154900
Petrel and Bunting,HX6 1JG,53.704864123580500,-1.942808229646310
Kākāriki and Thrasher,HD7 5LD,53.618996664434000,-1.877888396133240
Petrel and Masked owl,OL14 5LD,53.719129142094400,-2.097110844189390
Mole and River dolphin,OL14 6PJ,53.704463015997500,-2.104863108596590
Nukupuʻu and Black cockatoo,HX2 7AS,53.732571694492700,-1.922049541579700
Stilt and Snipe,BB8 0PR,53.857523280000000,-2.151631707000000
Triller and Dorcopsis,HX2 0DD,53.726913913305500,-1.893096532513600
Gull and Lemming,OL12 6AW,53.619179122821700,-2.170805541636430
Rabbit and Old World quail,HX7 6HY,53.738806747738300,-2.014168052187840
Boto and Chipmunk,HX6 4AZ,53.675968074639000,-1.944421534451590
Hawaiian honeycreeper and Jackal,BD13 2PG,53.767947240000000,-1.846114345000000
Bunting and Polecat,HX1 1UZ,53.725448062335400,-1.857560000000000
Buzzard and Thrasher,OL13 8PX,53.713960845355700,-2.198917138878280
Treepie and Pratincole,OL12 9NU,53.650289519689800,-2.133820767533350
Pitohui and Partridge,BD13 3NJ,53.790994210000000,-1.854743052000000
Minke whale and Black cockatoo,OL12 0JD,53.625752988323500,-2.155077175225470
Boto and Pratincole,HX1 4YL,53.724315209783800,-1.857382208773310
Viscacha and Grouse,BD21 4SP,53.862086090000000,-1.885667586000000
Black cockatoo and Ibex,OL12 6NL,53.632026895034500,-2.168271615889360
Rat and Logrunners,OL13 8AT,53.702745561788800,-2.203150922905720
Tahr and Capuchin,HX2 9NL,53.761312333230900,-1.894435248354760
Egret and Hawk,BD13 5DE,53.825805130000000,-1.899256516000000
Ibex and Skunk,HX6 1LA,53.705677865489400,-1.934611774679280
Puffleg and Siskin,HX3 0TJ,53.701010806087500,-1.866700450269720
Logrunners and Masked owl,BD21 5DW,53.855984250000000,-1.907667381000000
Thrasher and Chicken,HX3 9DZ,53.701933048453600,-1.848566343304680
Prion and Piping shrike,BD13 3QN,53.794535380000000,-1.855034000000000
Parrotbill and Goose,HX7 8HW,53.747291854076900,-2.010501000000000
Old World vulture and Flameback,BB8 0HD,53.854132340000000,-2.167034364000000
Nukupuʻu and Triller,BD22 7QX,53.844217080000000,-1.949808244000000
Triller and Ground sloth,OL14 6EQ,53.730357637460500,-2.049178757666670
Old World warbler and Hawk,HX3 5EN,53.734520922344700,-1.877524240517820
Petrel and Buzzard,HD7 4NA,53.640357609694500,-1.857891923012670
Eagle and Booted eagles,OL14 6EJ,53.729748442508200,-2.044085229185290
Gull and Songlark,HD7 5SE,53.625868631810000,-1.850516615234710
Cuscus and Fox,HX3 5DH,53.733753952310000,-1.874631166091620
Towhee and Fulmarine petrel,HX4 9ET,53.673660848941700,-1.875944547452490
Thicketbird and Jay,OL12 9EQ,53.641605000000000,-2.120029000000000
Partridge and Scimitar babbler,HX7 6NQ,53.737418787872200,-2.033193304156410
Marmoset and Marsh harrier,BD21 4SD,53.858381410000000,-1.883914040000000
Viscacha and Maya,OL14 8DQ,53.721206530652100,-2.106329346428150
Tree warbler and Dolphin,OL12 9DA,53.628167175996900,-2.143609374166930
Pitohui and Buzzard,OL12 0NZ,53.621378899827500,-2.159490791316820
Shearwater and Moluccan boobook,HX6 2EP,53.711884538935500,-1.913845642191500
Perching duck and Cuscus,HX1 3ER,53.713542000000000,-1.876237000000000
Thrasher and Crow,BB9 0NR,53.833723160000000,-2.200654912000000
Mink and Kestrel,HX7 8QH,53.758796718108300,-2.007895501178440
Flameback and Parrotlet,BB8 9EZ,53.862061760000000,-2.171901179000000
Towhee and Siskin,BD13 4BZ,53.801408010000000,-1.894744762000000
Moluccan boobook and Tattler,HD7 5QA,53.622530376191100,-1.870590979572790
Badger and Kestrel,BD16 1JJ,53.836218710000000,-1.867883048000000
Skunk and Mouse,BD16 2ER,53.863296210000000,-1.850159000000000
Tit-tyrant and Triller,OL12 0UE,53.640413742334100,-2.167669788957700
Macaw and Marmoset,HX6 2HL,53.712710918322900,-1.913116707944800
Grackle and Dolphin,OL15 9NA,53.664795977372800,-2.085317339100140
Piping shrike and Cuscus,OL15 0JJ,53.646715189136200,-2.080394579112990
Fox and Mouse,OL12 0PL,53.620617011823400,-2.157900516534480
Herring gull and Peafowl,HX6 4HD,53.664811766024400,-1.962460587943000
River dolphin and Quetzal,BB10 3RT,53.789120780000000,-2.203128348000000
Skunk and Kākāriki,HD3 3UH,53.659083194265700,-1.853077668815400
Crow and Bunting,OL15 8PY,53.638281478840700,-2.116480388934340
Warbler and Grosbeak,OL14 5AE,53.713520711749300,-2.096946378829780
Condor and Argus,BD13 2JJ,53.769011890000000,-1.856669708000000
Mole and Ground sloth,BD21 1HP,53.859451850000000,-1.917694424000000
Cuscus and Pitohui,OL12 8SL,53.644801530690000,-2.179002011822730
Mouse and Ground sloth,OL15 9FG,53.649803000000000,-2.087163000000000
Nukupuʻu and Kestrel,BD22 9HN,53.808574246013800,-1.947724852145380
Parrotlet and Jerboa,OL12 9LR,53.647346514611000,-2.129167249300840
Rat and Kite,BD15 0ED,53.825184130000000,-1.862175265000000
Booted eagles and Rat,OL16 2PS,53.631081344877900,-2.134168153955500
Treepie and Philippine hawk-owl,HX6 1DE,53.703975044085300,-1.927510028012900
Hawaiian honeycreeper and Kākāriki,HX2 8UN,53.758550402248900,-1.913689786999970
Stint and Bronzewing pigeon,BD13 1LJ,53.774183200000000,-1.859383300000000
Civet and Grouse,HX3 5EU,53.734455366387600,-1.874962578935910
Diving bird and New World blackbird,BD21 5EW,53.851821280000000,-1.917891762000000
Polecat and Wader,HX6 3RN,53.700084000000000,-1.901495000000000
Duck and Coati,BD15 0EN,53.826876000000000,-1.864053559000000
Goose and Philippine hawk-owl,OL14 6DS,53.713276218808400,-2.099157900209420
Francolin and Cloud rat,HD3 3TJ,53.654233571500800,-1.849054763899190
Rabbit and Jerboa,BD21 5DS,53.855922220000000,-1.908838129000000
Old World quail and Greenbul,HD7 5LF,53.618014447589000,-1.875457364993340
Civet and Siskin,HX6 4ES,53.665805624411200,-1.951714408065510
B and River dolphin,OL12 9NE,53.652198292091100,-2.130861467560220
Grosbeak and Maya,HD7 4ND,53.643974000000000,-1.867440000000000
Prion and Greenbul,OL13 8EL,53.707386000000000,-2.202204312199270
Moluccan boobook and Mockingbird,BB8 8EX,53.852929720000000,-2.137355910000000
Moluccan boobook and Lemming,BD13 2DZ,53.764745580000000,-1.859202398000000
Meadowlark and Mouse,BD13 3QZ,53.794191870000000,-1.860591666000000
B and Night heron,BD22 9QN,53.804641340000000,-1.971416812000000
Old World warbler and Thrasher,HX4 9DG,53.665038668264200,-1.865254969911250
Grosbeak and Eagle,OL15 9RH,53.661118843130300,-2.086671820115520
Bunting and Egret,OL12 7AS,53.623538839494200,-2.182676564187110
Mouse and Myna,BD22 8BN,53.826916720000000,-1.953155917000000
Pitohui and Lemming,HX2 7JN,53.716021993525600,-1.894942353645390
Mamo and White ibis,OL14 5HP,53.717421986649300,-2.096394721736000
Moluccan boobook and Civet,HX1 5BE,53.724288597977200,-1.865475192545890
Scimitar babbler and Siskin,BD13 3HP,53.790842810000000,-1.848595993000000
Meadowlark and Hawaiian honeycreeper,OL12 7HU,53.638240000000000,-2.179534000000000
Nukupuʻu and Lemming,HX3 0SA,53.701851593378400,-1.863062478039920
Badger and Mouse,HX3 5PB,53.736932767723900,-1.880549199643560
Lemming and Civet,BD21 1LR,53.858269120000000,-1.923246049000000
Snipe and Diving bird,OL14 8BH,53.719520320094300,-2.091020000000000
Argus and Parakeet,HX7 8EL,53.741440365744800,-2.012986000000000
Mink and Flameback,OL14 6TW,53.688630966768800,-2.098993838210550
Ibex and Puffleg,HX6 2UQ,53.714353287681100,-1.922689178246720
Meadowlark and Marsh harrier,BD22 0DU,53.841967260000000,-1.943382301000000
River dolphin and Polecat,HX3 5EF,53.733181457970800,-1.877285590740460
Fulmarine petrel and Tree warbler,HX2 0NN,53.726121861825900,-1.914134904142530
Rabbit and Black cockatoo,HX2 9BG,53.749018000000000,-1.879440000000000
Asiatic leopard and American sparrow,OL14 5SH,53.716462786721500,-2.080876453706280
Crow and Skunk,OL15 0LB,53.653118000000000,-2.077668000000000
River dolphin and Myna,BB8 9SJ,53.860155430000000,-2.178659264000000
Mink and B,OL15 8RH,53.645707553235500,-2.114594889731830
New World blackbird and Hawk,BB8 9EJ,53.862634980000000,-2.166961846000000
Siskin and Gull,BB8 8LN,53.845831220000000,-2.194390052000000
