name,postcode,lat,lon
Casey's Cafe ltd,CF34 9BL,51.609337226262300,-3.657526643044730
iced cake parlour,CF34 9BT,51.608948144647400,-3.659606556427080
Valley cafe ,CF34 9DH,51.607674344935800,-3.657997000000000
Cauldron Catering ,CF34 9HJ,51.607053943750300,-3.656201502486510
Corner House Inn,CF34 9SB,51.586438678872500,-3.651467521044040
The old house 1147,CF34 9SB,51.586438678872500,-3.651467521044040
Peppermint Swansea,SA1 1DP,51.619758000000000,-3.939351000000000
Brewdog Swansea,SA1 1DY,51.619373409028200,-3.939147221424420
FWTL LTD,SA1 1DZ,51.619316707357600,-3.938769212998000
Bunkers Swansea,SA1 1ED,51.618624060073300,-3.938535000000000
The Smoke Haus,SA1 1EE,51.618891735961900,-3.938909997406580
No Sign Wine Bar,SA1 1EG,51.619302706696800,-3.940704351682470
Nines Global Buffet,SA1 1JF,51.620959000000000,-3.942211620620220
El Pescador Restaurant ,SA1 1LB,51.614099240949000,-3.942143397503270
Rustys cafe,SA1 1LE,51.622050992687200,-3.942540800244560
The New Slow Boat Restaurant,SA1 1LE,51.622050992687200,-3.942540800244560
Costa Coffee,SA1 1NU,51.625180340065100,-3.941057000000000
The Grand Hotel,SA1 1NX,51.624759576605800,-3.941341797029550
First Call Coffee,SA1 1PE,51.623730000000000,-3.941702000000000
Swansea Yacht and Sub Aqua Club,SA1 1RE,51.618372859420800,-3.935478739895700
Plantasia,SA1 2AL,51.621754332204900,-3.938728679213510
Denny's Diner,SA1 2AS,51.622026539190300,-3.938581372055360
Treatz Swansea,SA1 2AS,51.622026539190300,-3.938581372055360
Pizzeria Vesuvio,SA1 2JT,51.641179907934600,-3.938068749323400
WERN INN,SA1 2PE,51.644152217631900,-3.941042911081050
The Globe Inn,SA1 2QD,51.641801982259000,-3.941780782705660
Caffe Lucia,SA1 3AB,51.619475891608100,-3.944366542225460
mcdonalds,SA1 3AE,51.620066000000000,-3.943460711668440
Burger King - Swansea 1,SA1 3EF,51.619768043781100,-3.946271452880840
Subway Union Street,SA1 3EH,51.620095979832900,-3.946559963453760
Pant-y-Gwydr restaurant,SA1 3JA,51.617705000000000,-3.951976000000000
HANSONS RESTAURANT LTD,SA1 3LH,51.619544051155500,-3.941568000000000
Six Swansea,SA1 3LW,51.618692000000000,-3.941270000000000
Juniper Place Swansea,SA1 3LZ,51.618084814971900,-3.939308956346620
Old Havana Swansea,SA1 3LZ,51.618084814971900,-3.939308956346620
Superbowl UK Swansea Ltd ,SA1 3LZ,51.618084814971900,-3.939308956346620
El Fuego,SA1 3NE,51.618032645178200,-3.940289017790250
The Cwtch ,SA1 3PP,51.619794856002700,-3.941938814568520
Cafe Janet,SA1 3PQ,51.619225000000000,-3.944934000000000
Franco's Cafe Restaurant,SA1 3QE,51.618789884623100,-3.946691849967900
Gershwins Coffee House Ltd,SA1 3QE,51.618789884623100,-3.946691849967900
CRUSTS,SA1 3QN,51.618544632763000,-3.947695000000000
Panshee Swansea,SA1 3QN,51.618544632763000,-3.947695000000000
Gigi Gao's Favourite Authentic Chinese,SA1 3XA,51.615937446607800,-3.940286299913150
No 1 Dimsum & Noodles,SA1 4AE,51.618273722782700,-3.949616632325720
Subway St Helens rd,SA1 4AN,51.618996188074400,-3.950514348137600
Vojon ,SA1 4AW,51.618818014267300,-3.950954521359550
Takumi Sushi & Noodle Bar,SA1 4BQ,51.615723272330900,-3.956975199088300
The Brunswick,SA1 4HS,51.618747312461600,-3.956281928845830
Hayes and Beale ltd.,SA1 4JG,51.616000713914000,-3.957593817567120
Hoo-gah Ltd,SA1 4JJ,51.616328837302100,-3.959485775364610
The Westbourne,SA1 4JQ,51.616423132900800,-3.958146461415760
Truffle,SA1 4LH,51.616069821273700,-3.960456862233970
Awa Grill House,SA1 5AE,51.621443905367700,-3.942818241456220
Ferdos Restaurant ,SA1 5AG,51.622117000000000,-3.942962000000000
Wild Swan ,SA1 5AG,51.622117000000000,-3.942962000000000
First Call Hospitality,SA1 5ED,51.624621589117800,-3.942072726791760
The Bunkhouse - Swansea,SA1 5HN,51.620417545717800,-3.945605836218010
STARBUCKS ,SA1 7BP,51.643391107933900,-3.930068000000000
mcdonalds,SA1 7BP,51.643391107933900,-3.930068000000000
The River House,SA1 8AW,51.619752101146700,-3.931998192135700
Limitless activity center ,SA1 8DB,51.620917442000000,-3.905741638400000
One Sixty Coffee Bar,SA1 8JQ,51.622122484901700,-3.922216000000000
STARBUCKS ,SA1 8LD,51.620157650676500,-3.912729977625300
mcdonalds,SA1 8LD,51.620157650676500,-3.912729977625300
Marco Pierre White,SA1 8PL,51.619676970599300,-3.931099354970270
Positanos Swansea,SA1 8PL,51.619676970599300,-3.931099354970270
rasoi waterfront,SA1 8PL,51.619676970599300,-3.931099354970270
DIABLOS INCORPORATED LIMITED,SA1 8PP,51.618838245869000,-3.930153664915110
Casa Skewen Ltd,SA10 6ET,51.660911587209500,-3.843568618111190
Cresci's Cafe,SA10 6HE,51.661036208162100,-3.845366579230040
The Towers Swansea Bay Limited,SA10 6JL,51.628322349911700,-3.861867804837340
Travellers well,SA10 6RG,51.660646119077200,-3.852435522478340
Glyn Clydach Hotel Ltd.,SA10 7AJ,51.676875013754800,-3.828480286619710
Burger King - Neath ,SA10 7AY,51.668197606043300,-3.807567053426020
mcdonalds,SA10 7DR,51.658364000000000,-3.832925000000000
MINT MASALA,SA10 7SS,51.671798106315500,-3.818398034385860
Dyffryn Arms,SA10 7YF,51.693013656956600,-3.822272494854310
Crown and Sceptre,SA10 8AP,51.671294808138400,-3.802050174391450
R and F Reseraunt Ltd,SA10 8HN,51.690375670952500,-3.743720353424170
Castle Bingo Neath,SA11 1AS,51.654109048479900,-3.809753078015730
Brew&Co ,SA11 1BY,51.662360000000000,-3.806612000000000
Celtic Lodge,SA11 1BZ,51.656263313979700,-3.798302003056400
Costa Coffee ,SA11 1DU,51.662339895396200,-3.803719051352270
The Cwtch,SA11 1DU,51.662339895396200,-3.803719051352270
Area51 Playcentre Neath,SA11 1NJ,51.656144700977500,-3.813029248275620
Subway,SA11 1PU,51.662900237538400,-3.806459678530160
The Old Market Tavern,SA11 1PY,51.663124811908900,-3.805890234111590
The Castle Hotel,SA11 1RB,51.663285239537400,-3.805983371926780
Smashed Raspberry,SA11 1RS,51.664222972545400,-3.805818233523100
mcdonalds,SA11 2YW,51.628905215180300,-3.819542678081310
Whittington Arms,SA11 3JF,51.676924199280800,-3.771899630248970
canal view cafe,SA11 4BT,51.694889900794500,-3.730943718574490
McDonalds,SA11 5NZ,51.737358590560000,-3.642062490197510
Blancos Hotel and Restaurant,SA12 6NT,51.594847000000000,-3.787760000000000
Aberavon Beach Hotel,SA12 6QP,51.593413000000000,-3.814882713907500
Cinnamon Kitchen ,SA12 6QW,51.592728000000000,-3.813881000000000
Franco’s,SA12 6QW,51.592728000000000,-3.813881000000000
Remo’s,SA12 6QW,51.592728000000000,-3.813881000000000
Subway Baglan Bay Retail Park,SA12 7BZ,51.604226000000000,-3.809415000000000
The Brit Pub,SA12 9AH,51.611909523577900,-3.765394189098540
Afan Tavern,SA12 9AS,51.614454144415200,-3.760018704700310
The Rolling Mill,SA12 9EW,51.619328120172000,-3.752796806136950
colliers arms,SA12 9TY,51.642302000000000,-3.752382000000000
The Somerset Arms,SA13 1LP,51.584249575469300,-3.768955026976370
the 2 Son's bar & kitchen,SA13 1LZ,51.594818000000000,-3.781970000000000
Mundo Bar and Kitchen,SA13 1NN,51.593200741825200,-3.781184664955090
FERRARI'S CAFE,SA13 1NR,51.595296683533900,-3.782912600543880
Baristas2,SA13 1PB,51.596902679057700,-3.785516666770780
Costa Coffee ,SA13 1PB,51.596902679057700,-3.785516666770780
THE HIDEOUT CAFE,SA13 1PB,51.596902679057700,-3.785516666770780
Gossip cafe,SA13 1PH,51.596299000000000,-3.783313000000000
Afan Lodge,SA13 3ES,51.648008593493400,-3.678726000000000
The Secret Beach Bar and Kitchen,SA2 0AY,51.610023000000000,-3.973372000000000
KFC,SA2 0EY,51.618151045814600,-3.967205941662140
Uplands Food for you Ltd,SA2 0EY,51.618151045814600,-3.967205941662140
German Doner Kebab,SA2 0EZ,51.618082545497300,-3.967000742164690
The Optimist Bar and Kitchen ,SA2 0EZ,51.618082545497300,-3.967000742164690
pearl's coffee shop ,SA2 0FN,51.634280290903800,-3.981299701004160
Brewstone,SA2 0NP,51.617938213712300,-3.965954430141540
MAISIES,SA2 0NP,51.617938213712300,-3.965954430141540
Verve 37 bar & restaurant,SA2 0NP,51.617938213712300,-3.965954430141540
Subway Uplands,SA2 0PG,51.618408218210300,-3.966884818543340
village inn (killay) ltd,SA2 7BA,51.618058585308800,-4.018194548040730
THE TERRACE COFFEE SHOP & RESTAURANT,SA2 8HQ,51.617220881356500,-3.995666102833700
The Bistro,SA2 9BN,51.623065969406300,-3.991964138624040
BLUEBELL COFFEE & KITCHEN,SA2 9BQ,51.618056000000000,-3.988913000000000
Square Peg Coffee House,SA2 9BX,51.617995256722000,-3.985817000000000
Surfside Cafe Caswell Bay,SA3 3BS,51.570639000000000,-4.035011000000000
Unit 2,SA3 3BS,51.570639000000000,-4.035011000000000
Boo's Kitchen,SA3 4AD,51.573946527047300,-4.001071850983900
Cakes & Ale,SA3 4AS,51.575413416818700,-3.999952875963820
Suwad Limited T/A Golden Curry,SA3 4BN,51.575249850271900,-4.003741291016150
Cha-ty,SA3 4BQ,51.575571991531500,-4.002254531778670
Mumtaz Indian Haute Cuisine ,SA3 4BX,51.576954042316300,-3.999255607907330
BISTROT PIERRE - MUMBLES,SA3 4DN,51.574828531137000,-3.997863447915730
Mediterranean Turkish restaurant ,SA3 4EA,51.572560976675400,-3.993189344045860
Patricks with Rooms Ltd,SA3 4EA,51.572560976675400,-3.993189344045860
The mumbles Carlton hotel,SA3 4EA,51.572560976675400,-3.993189344045860
The Mermaid Cafe Bar and Restaurant,SA3 4EE,51.572081420939700,-3.990715106414330
Verdi's,SA3 4EE,51.572081420939700,-3.990715106414330
La Dolce Vita Mumbles,SA3 4EH,51.571805000000000,-3.989577000000000
Beach Hut Cafe,SA3 4EN,51.568808000000000,-3.977405434213450
Copperfish,SA3 4EN,51.568808000000000,-3.977405434213450
Surfside Cafe Langland Bay,SA3 4QP,51.568390687001200,-4.008345712351490
Surfside Cafe Rotherslade Bay,SA3 4QW,51.569401974489100,-4.006409000000000
DIVYA PANDILLA T.As MUMBLES SERVICE STATION,SA3 5AS,51.596925361344700,-3.995627903103490
Indianopolis Limited,SA3 5BD,51.598078382015200,-3.998681809424510
Norton House Hotel,SA3 5TQ,51.580055312883400,-4.003014554577780
Station 86,SA4 3BW,51.647664290439100,-4.038358858786840
Lewis Jones Sports Bar and Grill,SA4 4AD,51.668650000000000,-4.040154000000000
Kingsbridge inn,SA4 4AS,51.660881593888800,-4.037940011389490
Tafarn Y Trap,SA4 4AS,51.660881593888800,-4.037940011389490
SGR Gorseinon Ltd,SA4 4BX,51.668097000000000,-4.035198000000000
Gingers Cafe,SA4 4DQ,51.668087915354500,-4.025708000000000
Pontardulais Garden Centre Ltd,SA4 8DS,51.699441000000000,-4.024506000000000
The Fountain Inn,SA4 8JP,51.708791188421200,-4.026125441890420
rasoi indian kitchen,SA4 9DY,51.702761403234600,-4.015956744942780
The Buck Inn,SA4 9EF,51.688245163397600,-4.012343000000000
Penllergare Valley Woods Coffee Shop,SA4 9GS,51.674526476700000,-3.992096453300000
mcdonalds,SA4 9GT,51.679243767859400,-3.995297000000000
Lezzet Cafe&Restaurant ,SA4 9HL,51.674193000000000,-3.984878000000000
Bizzie Lizzies Cafe,SA4 9WF,51.664758172888400,-4.018635823523860
The Green Room Cafe,SA5 4AE,51.643467327012700,-3.980428383927460
SGR Grill Ltd,SA5 4TR,51.639793272633200,-4.006672809160010
Shepherds Country Inn,SA5 7ND,51.708355364529800,-3.971422134653350
mcdonalds,SA5 8LJ,51.635368502980200,-3.965783454170230
Haystack cafe,SA5 9EB,51.644749889520600,-3.945795000000000
The Manselton Hotel,SA5 9HX,51.643526543783700,-3.951119180730210
The roadhouse cafe ,SA6 5BB,51.691191000000000,-3.900810000000000
SAM'N'BEN'S ,SA6 5ES,51.699080626050400,-3.897953844479580
O'Sullivan's Riverbank Limited,SA6 5LG,51.694935000000000,-3.898070000000000
Cwtch Corner ,SA6 5LP,51.697033343985900,-3.891081515670130
Cattle & Co at Brownsters ,SA6 5LW,51.696328086461500,-3.890762702052360
Lilly’s ,SA6 7LW,51.664084477051800,-3.947794642971640
Castle Bingo Swansea,SA6 8DS,51.665189212638200,-3.922782199593420
Burger King - Swansea 2,SA6 8PS,51.664368000000000,-3.913117000000000
STARBUCKS ,SA6 8QL,51.661105637842000,-3.916578000000000
STARVIN' JACKS,SA6 8RJ,51.650732620527800,-3.921490776364730
Buzz Park Swansea,SA7 9AG,51.661908000000000,-3.905588853441960
Motor point cafe,SA7 9AG,51.661908000000000,-3.905588853441960
The Climbing Hangar Swansea,SA7 9FH,51.656368455696200,-3.907300602406100
Robins Nest Diner,SA7 9FP,51.654083015419800,-3.910703170582160
The Plough and Harrow,SA7 9RL,51.663531165058200,-3.900906594025120
The Pontardawe Inn,SA8 4ED,51.719271858595100,-3.849821999869270
The Ynysmeudwy Arms ,SA8 4QJ,51.735341425399000,-3.829116489550950
Aubery arms,SA9 2LA,51.769911000000000,-3.777409000000000
Curry Garden 1 Ltd,SA9 2LY,51.764292212332100,-3.789072077878310
