name,postcode,lat,lon
BUTTERCUP CAFE LTD,FK16 6BJ,56.189329286137800,-4.051786169299900
Cafe Circa Doune Ltd,FK16 6HG,56.213629610824500,-4.094094276725310
The Waverley Hotel,FK17 8BD,56.243526491273400,-4.214415654638670
Roman Camp Hotel,FK17 8BG,56.242388577877900,-4.209848000000000
Dalgair House Hotel Ltd,FK17 8BQ,56.243096258354100,-4.211840776760660
Costa Coffee,FK17 8DU,56.244454483463400,-4.216793408161930
The Crown Hotel,FK17 8DU,56.244454483463400,-4.216793408161930
The Old Bank Restaurant ,FK17 8DU,56.244454483463400,-4.216793408161930
Deli Ecosse,FK17 8ED,56.244209944183000,-4.214390560684570
The Lade Inn,FK17 8HD,56.248172764172200,-4.246805917287410
Venachar Lochside,FK17 8HP,56.226464000000000,-4.300838000000000
Scotts Bistro,FK17 8HY,56.232488737117200,-4.401820514704900
The Steamship Cafe,FK17 8HZ,56.226874840450900,-4.415956968022230
The Broch Cafe,FK18 8NA,56.324933777990900,-4.327852059282920
Monachyle Mhor Hotel Ltd,FK19 8PQ,56.345983721699100,-4.453911036752080
Cross Keys Hotel,FK8 3DN,56.126153884623200,-4.172586616971170
Rhubarb Lime,FK8 3DN,56.126153884623200,-4.172586616971170
The Inn at Kippen,FK8 3DT,56.127930860262700,-4.175277495995390
The Woodhouse,FK8 3JA,56.135158940311000,-4.149983712813960
Lion and Unicorn Hotel Limited,FK8 3PJ,56.173838847515100,-4.149439472682160
The Lake of Menteith Hotel,FK8 3RA,56.183707568136900,-4.284628184280590
Black Bull Gartmore,FK8 3RJ,56.144496675780300,-4.380743212709930
 The Faerie Tree,FK8 3UG,56.178694086832000,-4.383054080811870
Liz MacGregors Coffee Shop,FK8 3UG,56.178694086832000,-4.383054080811870
The Aberfoyle Inn,FK8 3UG,56.178694086832000,-4.383054080811870
The Forth Inn,FK8 3UQ,56.178257416613100,-4.381641000000000
The Station Cafe,FK8 3UQ,56.178257416613100,-4.381641000000000
Rob Roy Hotel,FK8 3UX,56.176324000000000,-4.375479000000000
Blair Drummond Smiddy,FK9 4UY,56.160700961372500,-4.068311977415590
