name,postcode,lat,lon
cobra de capello and swift,PL27 6FE,50.551481000000000,-4.890493000000000
bushmaster and sand lizard,PL27 6JS,50.546476937302500,-4.906803098826870
Fish eagle and swift,PL27 6LH,50.546756412104900,-4.908217899895340
saltwater crocodile and Marsh harrier,PL27 6NB,50.546813424281400,-4.903774487435320
turtle and Magpie,PL27 6NW,50.549435000000000,-4.903328000000000
Partridge and dugite,PL27 6PX,50.558696000000000,-4.903093000000000
bull snake and ringhals,PL27 6QE,50.554962595314700,-4.891511412313370
pit viper and whip snake,PL27 6SQ,50.558769779553100,-4.912699799591710
mountain devil and dukite,PL27 6SX,50.573715568284000,-4.912045000000000
Triller and Crow,PL27 6TF,50.571749911129400,-4.918797591708820
horned viper and Warbler,PL27 6TN,50.570475694840200,-4.919749864241330
turtle and lizard,PL27 7FA,50.510363206300000,-4.922541252400000
amethystine python and monitor,PL27 7QQ,50.517299991960300,-4.925325243354210
blue racer and water snake,PL27 7RQ,50.505530000000000,-4.900421000000000
Hawk and tiger snake,PL27 7SG,50.498123850317400,-4.948582000000000
Civet and tortoise,PL27 7TE,50.496873502751800,-4.997676949178050
death adder and water snake,PL28 8AX,50.540893246273600,-4.941070722714820
Komodo dragon and thorn lizard,PL28 8BY,50.540653078434900,-4.937046983838570
Macaw and anaconda,PL28 8EW,50.536028848009000,-4.943125000700570
asp and blindworm,PL28 8FB,50.537517498546600,-4.941171118016980
leathery turtle and Elephant,PL28 8FG,50.512722000000000,-4.983431000000000
frilled lizard and horned toad,PL28 8JB,50.532047672903500,-5.010125367126730
Badger and puff adder,PL28 8JP,50.527583966257800,-5.021652606428030
Dolphin and Solitaire,PL28 8JS,50.524394147484400,-5.023593542692260
Greenbul and snapping turtle,PL28 8JZ,50.522692180893500,-4.969894057109460
Old World vulture and Eagle,PL28 8LN,50.508936181010100,-5.014733993393280
Nukupu ªu and Tit-tyrant,PL28 8LT,50.501689000000000,-5.016063000000000
Goose and indigo snake,PL28 8LU,50.534342865200400,-4.939364581578560
leathery turtle and Skunk,PL28 8NJ,50.522710312238200,-4.989725000000000
sand lizard and galliwasp,PL28 8SB,50.538754538242600,-4.998074944872770
Francolin and smooth snake,PL28 8TH,50.513425715600000,-4.978606000000000
Mouse and anole,TR8 4AH,50.456780882245800,-5.029267336554520
turtle and lizard,TR8 4AT,50.430677727800600,-5.047442623423290
Piping shrike and Philippine hawk-owl,TR8 4BD,50.465386874692800,-5.025223260817930
sand viper and Chipmunk,TR8 4EJ,50.451592633662800,-4.996206824918810
Mamo and sea snake,TR8 4GP,50.441260008598100,-5.016289205814550
tortoise and soft-shelled turtle,TR9 6DN,50.443937692048100,-4.922697801467890
loggerhead and Buzzard,TR9 6DS,50.429918747287100,-4.941056401299300
Rat and Maya,TR9 6JD,50.427790874446400,-4.908719469694310
Fish eagle and Chickadee,TR9 6JG,50.430364580699600,-4.926241034835580
New World blackbird and Cuscus,TR9 6JL,50.431527662140500,-4.922200591373510
glass snake and Stilt,TR9 6TB,50.427938440753900,-4.944848000000000
