name,postcode,lat,lon
cayman and Partridge,EX20 4BW,50.626382000000000,-4.121152000000000
Flameback and Petrel,EX20 4PU,50.646647816269900,-4.231513000000000
bearded lizard and Towhee,PL12 4RN,50.426294217517300,-4.274508199659980
tokay and goanna,PL12 5AN,50.446970000000000,-4.302122000000000
bushmaster and Partridge,PL12 6NB,50.441351699887500,-4.242976942247720
frilled lizard and Petrel,PL12 6NP,50.426728296232600,-4.241032554414000
Night heron and python,PL12 6PN,50.436458113727700,-4.261123781625480
loggerhead and Vole,PL12 6RP,50.480360479849300,-4.265248843500910
hoop snake and cobra de capello,PL12 6SL,50.470232811280000,-4.235493497959510
giant tortoise and White ibis,PL12 6UX,50.468941740073500,-4.292127172769220
slowworm and Logrunners,PL15 9NG,50.622135342510500,-4.319265292749780
Wallaby and Solitaire,PL16 0DQ,50.619009704202500,-4.284007961246760
black snake and Kestrel,PL16 0HL,50.622832845848100,-4.243799000000000
Fulmarine petrel and Mockingbird,PL16 0HN,50.616633664502500,-4.215188326172450
Ibex and Dolphin,PL16 0HQ,50.619924716454300,-4.274481035650450
Petrel and Duck,PL17 7AQ,50.503046683313200,-4.314707000000000
python and monitor,PL17 7BB,50.502300814323000,-4.313091271657340
Quetzal and viper,PL17 7BX,50.505061525339700,-4.310856834362790
Fulmarine petrel and elapid,PL17 7DH,50.504078979090800,-4.317296314846820
tiger snake and chameleon,PL17 7DL,50.502977040171200,-4.314365374468210
Gila monster and leguaan,PL17 7HJ,50.490566264535800,-4.318806138705710
Viscacha and king snake,PL17 7HT,50.468049023634600,-4.320367489906740
copperhead and boa,PL17 7JF,50.502104364749100,-4.316184239349120
mamba and Darwin's finches,PL17 7PN,50.503966226960500,-4.303497926990310
Pratincole and puff adder,PL17 7PY,50.501940589982600,-4.304048047355450
Vole and amphisbaena,PL17 7QJ,50.504979361060300,-4.308652685858630
Mamo and Towhee,PL17 7RE,50.503436461169400,-4.315348000000000
snake and milk snake,PL17 7SP,50.505488102530600,-4.302951452624810
goanna and Cuscus,PL17 8AU,50.508048950265600,-4.293062018039610
Old World vulture and diamond snake,PL17 8BH,50.504005000000000,-4.245945000000000
goanna and Komodo dragon,PL17 8BX,50.501719297826900,-4.245907184772190
thorny devil and Masked owl,PL17 8DB,50.504917000000000,-4.244338000000000
Mamo and Peafowl,PL17 8GJ,50.516564209087400,-4.315890629607580
puff adder and gecko,PL17 8HP,50.525373000000000,-4.286226000000000
tuatara and thorn lizard,PL17 8HW,50.528338438341100,-4.292381000000000
Booted eagles and Capuchin,PL17 8LP,50.567734032606100,-4.296778531458050
Pheasant and Parrotlet,PL17 8LY,50.553046742584100,-4.263240633086040
blue racer and python,PL17 8NJ,50.540754984579000,-4.275058194392280
Night heron and grass snake,PL17 8PQ,50.557253511308000,-4.315950803369070
Masked owl and Darwin's finches,PL17 8QS,50.519992747374400,-4.313827000000000
puff adder and hoop snake,PL17 8RB,50.511637842564300,-4.302164682190650
boomslang and cayman,PL18 9DB,50.520445965700700,-4.209706659284930
Gila monster and Chipmunk,PL18 9DS,50.522222122573000,-4.213739997933650
goanna and Coati,PL18 9EP,50.513534866984600,-4.225464465319040
black snake and Fox,PL18 9EX,50.516167643025400,-4.226067951196900
Condor and flying dragon,PL18 9GJ,50.511921408135800,-4.211494810565390
sand lizard and Partridge,PL18 9NH,50.523891613103600,-4.218643394034880
Myna and Pratincole,PL18 9NQ,50.523664654353400,-4.219225317685060
sidewinder and carpet snake,PL18 9NU,50.526111242573500,-4.217802193697100
cycling lizard and box turtle,PL18 9NY,50.525523157768200,-4.224109733558670
black snake and Jerboa,PL18 9QL,50.496751196263400,-4.204694457028780
rock python and Chipmunk,PL18 9QU,50.496068220632700,-4.206086807398440
Jackal and Booted eagles,PL19 0AD,50.549024374674000,-4.144597305267970
Grouse and dugite,PL19 0AN,50.550458744774400,-4.145340014605300
turtle and garter snake,PL19 0DB,50.550585000000000,-4.146390000000000
chameleon and constrictor,PL19 0EH,50.554568679475600,-4.150722060891670
boa constrictor and Tree warbler,PL19 0FZ,50.552724000000000,-4.143029000000000
anaconda and horned viper,PL19 0GZ,50.551683958845900,-4.143092000000000
monitor and American sparrow,PL19 0HX,50.556861103585400,-4.132203973247110
massasauga and Wader,PL19 0HY,50.557165000000000,-4.130890000000000
Chickadee and Cuscus,PL19 0JB,50.554907303207500,-4.138309000000000
Moluccan boobook and Thicketbird,PL19 0LS,50.611822150948900,-4.148936906311220
Mouse and Logrunners,PL19 0PX,50.587407000000000,-4.221176000000000
indigo snake and water snake,PL19 0QH,50.593978889192200,-4.260498658976530
taipan and Tahr,PL19 1EY,50.544311000000000,-4.147065000000000
Elephant and viper,PL19 1TA,50.552564908663000,-4.143303935934550
blind snake and Gila monster,PL19 8AQ,50.549879209660800,-4.146527722815630
Dolphin and Chickadee,PL19 8AW,50.549730635859600,-4.148243186071800
Elephant and blue tongue,PL19 8DN,50.542228258366000,-4.149285344185630
Vole and tortoise,PL19 8FE,50.540792099000000,-4.149431000000000
Flameback and Thicketbird,PL19 8HA,50.542906816390400,-4.163148391156330
gavial and Treepie,PL19 8NS,50.557028336229300,-4.199586034921530
fer-de-lance and kabaragoya,PL19 8PD,50.545520795613800,-4.232856641189450
box turtle and mountain devil,PL19 8PL,50.565588145193100,-4.261215102592890
monitor and cobra de capello,PL19 8QE,50.571530854219800,-4.200446000000000
Marmoset and Rat,PL19 8QP,50.570309503451700,-4.194993438203700
Old World warbler and Maya,PL19 8RH,50.570716023807700,-4.192512591752760
Warbler and Greenbul,PL19 8YG,50.544329663642400,-4.147023729441460
Chipmunk and king snake,PL19 9BE,50.539964202398000,-4.140855377120140
Parrotlet and Treepie,PL19 9JT,50.558781000000000,-4.097432907939890
thorn lizard and Stint,PL19 9LB,50.537859000000000,-4.102486000000000
puff adder and Tahr,PL19 9LT,50.574625000000000,-4.118444000000000
water snake and chuckwalla,PL19 9PE,50.596295443593000,-4.114712133302210
iguana and Dorcopsis,PL19 9RL,50.544329663642400,-4.147023729441460
Civet and Treepie,PL20 6AB,50.490279722037000,-4.086428814711510
Ice seal and rat snake,PL20 6BD,50.494235507770400,-4.079990324655140
krait and water snake,PL20 6BG,50.493517799806800,-4.079888295156230
habu and Parakeet,PL20 6JA,50.475898207306100,-4.087923611734240
black snake and tokay,PL20 6LG,50.539185000000000,-4.066627000000000
pit viper and Eagle,PL20 6LN,50.535697000000000,-4.049229000000000
tree snake and Grouse,PL20 6PG,50.487847000000000,-4.015296000000000
horned viper and Petrel,PL20 6PU,50.476384646534100,-4.040742643013950
racer and Polecat,PL20 6PZ,50.471273604780800,-4.070399542179820
Bunting and Solitaire,PL20 6QU,50.546996000000000,-3.986326000000000
tiger snake and frill-necked lizard,PL20 6TH,50.593555004313400,-3.913881323099980
diamond python and blue tongue,PL20 7AS,50.480645965840500,-4.197375972383580
Duck and slowworm,PL20 7BD,50.477987470196100,-4.189063345973520
Vole and mountain devil,PL20 7DA,50.479483160188200,-4.196081612082210
bearded lizard and Logrunners,PL20 7DG,50.481033113604800,-4.188767129403800
Egret and New World blackbird,PL20 7DR,50.482446946040300,-4.187718845009160
Jackal and copperhead,PL20 7DY,50.481526665225000,-4.191693760673490
soft-shelled turtle and smooth snake,PL20 7EP,50.482305793283600,-4.197328000000000
tree snake and rattlesnake,PL20 7FE,50.477724955309800,-4.190108346410150
bull snake and Fish eagle,PL20 7JF,50.459170295056300,-4.180022257392320
Pheasant and Jackal,PL20 7JN,50.450829262174000,-4.170580747203960
Wallaby and flying dragon,PL20 7LD,50.456807653168200,-4.163006997435940
Pitohui and Cloud rat,PL20 7LJ,50.498375089812100,-4.110827966786690
Badger and Crow,PL20 7NR,50.494882970872600,-4.150251241574560
alligator and Parakeet,PL20 7PR,50.491698955100800,-4.111954325977330
copperhead and Puffleg,PL20 7QQ,50.511152260890600,-4.094487000000000
ringhals and Grackle,PL20 7QZ,50.511450268804100,-4.087023722840500
Tit-tyrant and tuatara,PL20 7RA,50.505393189227700,-4.099745608814400
tortoise and tokay,PL20 7SZ,50.507668974277100,-4.097237377700590
Peafowl and coral snake,PL21 9RB,50.432994053310600,-3.946994252042960
Masked owl and garter snake,PL21 9RG,50.430390000000000,-3.969290000000000
sand lizard and Marsh harrier,PL5 4NF,50.428031241037600,-4.155936218312230
rat snake and Scimitar babbler,PL5 4PW,50.433901173047700,-4.155146798158460
Mockingbird and crocodile,PL6 6DP,50.430184941723400,-4.130336469906140
Fish eagle and perentie,PL6 6ER,50.432750421540700,-4.128747782594220
diamondback terrapin and rock snake,PL6 6FD,50.431890161005200,-4.122261000000000
Kākāriki and Gila monster,PL6 6FR,50.426744000000000,-4.150064000000000
diamondback terrapin and Wallaby,PL6 6HL,50.425866015158400,-4.118611428491820
indigo snake and diamond snake,PL6 6HN,50.430028421658800,-4.134947949581160
bushmaster and Fox,PL6 6HT,50.430404775713600,-4.133063957873770
cycling lizard and whip snake,PL6 6HY,50.430612962233200,-4.130538739345630
Magpie and Diving bird,PL6 6JE,50.430958330418400,-4.130343030586050
gopher snake and Tattler,PL6 6LE,50.429131376022000,-4.136287483893800
Ibex and Buzzard,PL6 6NY,50.427546450226300,-4.146649481854950
mountain devil and amphisbaena,PL6 6PN,50.429113659147000,-4.119066194142010
Grackle and horned viper,PL6 6QF,50.426826748202400,-4.132480731959430
Rabbit and Magpie,PL6 6QQ,50.427534545489200,-4.130668048775430
Songlark and Nukupuʻu,PL6 6RH,50.427743785814900,-4.126115482070820
indigo snake and bearded dragon,PL6 6SR,50.426386892318300,-4.139289639736520
sea snake and Dorcopsis,PL6 6SZ,50.425977760412300,-4.136103282401940
Piping shrike and Linsang,PL6 7AS,50.455176898565800,-4.098844994818300
mountain devil and Peafowl,PL6 7BL,50.466612000000000,-4.120545000000000
Schneider python and habu,PL6 7DD,50.441654000000000,-4.116077000000000
sand viper and Crow,PL6 7DP,50.438374070468800,-4.110860885327070
pit viper and Tahr,PL6 7EN,50.434943184188100,-4.115045561275880
gaboon viper and Fish eagle,PL6 7FG,50.435301333200000,-4.106952000000000
Gila monster and Gila monster,PL6 7HN,50.433739043174900,-4.113006335647830
Philippine hawk-owl and goanna,PL6 7RW,50.433362324296300,-4.101034144436290
Scimitar babbler and copperhead,PL6 7RY,50.434637530607900,-4.094162212360100
Myna and Maya,PL6 7RZ,50.435281793786100,-4.095345400032420
Viscacha and Old World vulture,PL6 7SG,50.446204794533600,-4.120435477572930
cerastes and Pratincole,PL6 7SY,50.435700394634200,-4.100560307987600
Cuscus and Kangaroo,PL7 5AF,50.438684000000000,-4.013827000000000
Scimitar babbler and Kangaroo,PL7 5HP,50.439339823655200,-4.038571105258920
