name,postcode,lat,lon
Teign Valley Golf Club,EX6 7PA,50.638203000000000,-3.638984000000000
The Manor Inn,EX6 7QL,50.645811741779100,-3.636321400005960
HALDON FOREST DINER,EX6 7XS,50.640683000000000,-3.561242000000000
Route 5,EX6 7XS,50.640683000000000,-3.561242000000000
The Forest Inn Dartmoor Ltd,PL20 6SD,50.538681000000000,-3.900947000000000
Mama's Dessert Kitchen,TQ1 1BG,50.463318564236200,-3.525662000000000
Legends at Steps Restaurant ,TQ1 1BX,50.462500545285600,-3.525341503598860
Toccos,TQ1 1DB,50.463316000000000,-3.526326000000000
CHINA TANG RESTAURANT,TQ1 1DT,50.461721643594300,-3.520948749358450
EPHESUS RESTAURANT ,TQ1 1DT,50.461721643594300,-3.520948749358450
Smokey Joes,TQ1 1DT,50.461721643594300,-3.520948749358450
the shack,TQ1 1DT,50.461721643594300,-3.520948749358450
Griffin Bar - Yardley Manor Hotel,TQ1 1DW,50.462820068408000,-3.520602000000000
simla spice ,TQ1 1DZ,50.461393000000000,-3.520741000000000
BIANCO'S RESTAURANT,TQ1 1EB,50.461459759316800,-3.522112000000000
AMICI RESTAURANT,TQ1 1ED,50.461073746665700,-3.522350965246740
Daisy's,TQ1 1HN,50.464186817487000,-3.513292407592050
Tusker Lodge,TQ1 1HQ,50.462354000000000,-3.518785000000000
Ewings,TQ1 2AA,50.461642000000000,-3.524384000000000
Burridges Tearooms,TQ1 2BB,50.460364194981300,-3.523652539018290
JACKS WATERFRONT,TQ1 2BB,50.460364194981300,-3.523652539018290
ROCKFISH TORQUAY,TQ1 2BB,50.460364194981300,-3.523652539018290
Salt and pepper,TQ1 2BB,50.460364194981300,-3.523652539018290
Saltwater Fish & Chips,TQ1 2BB,50.460364194981300,-3.523652539018290
Subway,TQ1 2BB,50.460364194981300,-3.523652539018290
Twenty1 Ltd,TQ1 2BB,50.460364194981300,-3.523652539018290
Chandlers Chippy ,TQ1 2BD,50.459283328836900,-3.524463118059590
Below Decks,TQ1 2BG,50.458036449038800,-3.524902025814960
No 7 Fish Bistro,TQ1 2BH,50.458520110756700,-3.524368135283930
Royal Torbay Yacht Club,TQ1 2BH,50.458520110756700,-3.524368135283930
The Elephant Restaurant by Simon Hulstone,TQ1 2BH,50.458520110756700,-3.524368135283930
the headland hotel,TQ1 2EF,50.456576936269200,-3.513387620925990
Kents Cavern Limited,TQ1 2JF,50.467797281652900,-3.504109000000000
Me and Mrs Jones Deli,TQ1 2JG,50.466918000000000,-3.506076752042050
The Kents,TQ1 2JG,50.466918000000000,-3.506076752042050
the waddling duck bistro,TQ1 2JG,50.466918000000000,-3.506076752042050
THE OSBORNE HOTEL,TQ1 2LL,50.458155357654000,-3.509577822309860
Meadfoot Bay Hotel,TQ1 2LQ,50.458951000000000,-3.513534000000000
OLD SKOOLS CAFE AND BAR LIMITED,TQ1 3AQ,50.467148966680600,-3.528182468245390
BRODYS GRILL,TQ1 3DW,50.467910174836600,-3.531166159201480
coopers coffee house,TQ1 3DW,50.467910174836600,-3.531166159201480
Domino's Pizza,TQ1 3HW,50.477502907698200,-3.526641899830630
Cliff Railway Cafe,TQ1 3LF,50.480487898305300,-3.517773728762810
Babbacombe Bay Cafe,TQ1 3LN,50.479277953767900,-3.513999912304120
The Buccaneer Inn,TQ1 3LN,50.479277953767900,-3.513999912304120
Hamiltons,TQ1 3LP,50.478503333673000,-3.513104000000000
The Babbacombe Inn,TQ1 3LP,50.478503333673000,-3.513104000000000
Royal Hotel and Carvery,TQ1 3LQ,50.479576092833700,-3.514587319798860
The Cary Arms Inn,TQ1 3LX,50.478187000000000,-3.509441000000000
Labrows Bistro Bar,TQ1 3NT,50.478184493776400,-3.515783123079960
Margo's cafe,TQ1 3NT,50.478184493776400,-3.515783123079960
Trecarn Hotel,TQ1 3NW,50.478684916512500,-3.519477763253460
The Coffee Bean,TQ1 3SR,50.478029096347000,-3.514594241249040
Tubers Treats,TQ1 4EX,50.479057283371500,-3.537685693519160
Driftwood Cafe ,TQ1 4PU,50.482833629223000,-3.523402555135290
L&S Catering,TQ1 4QF,50.485726012554400,-3.519548570619540
Orestone Manor Hotel and Restaurant ,TQ1 4SX,50.501779163999300,-3.519584376092500
Bamboo sandwich & coffee bar,TQ1 4TY,50.481671589842900,-3.523407969103810
Station House Hotel and Cafe Bar,TQ10 9BE,50.426872198590000,-3.833924187887210
CHURCH HOUSE INN,TQ10 9LD,50.440381000000000,-3.776057000000000
TIKKA'S TEA ROOMS & BISTRO,TQ11 0AA,50.481234455916900,-3.777531643400260
The Abbey Inn,TQ11 0EA,50.490207000000000,-3.777220000000000
Northgate House Hotel,TQ11 0EE,50.492920000000000,-3.775700000000000
The Grange Restaurant,TQ11 0EE,50.492920000000000,-3.775700000000000
The Tradesmans Arms,TQ11 0JB,50.502104215047100,-3.829195000000000
Pennywell Farm ,TQ11 0LT,50.466667288895600,-3.783805353738720
McDonald's Restaurant Newton Abbot ,TQ12 1BN,50.523155359124100,-3.593673166966590
The Green Room NA Ltd,TQ12 1GJ,50.528658472748400,-3.607771000000000
The Clock Tower Coffee shop ,TQ12 1JJ,50.529522000000000,-3.612780000000000
Meat59 (Newton Abbot) Limited,TQ12 1JR,50.529154849040900,-3.612556334612280
Twelve Twenty,TQ12 1JR,50.529154849040900,-3.612556334612280
The Highweek Village Inn,TQ12 1QA,50.536778853361900,-3.627605540376140
Lemon Jelli Bistro LTD,TQ12 2AQ,50.530959479086800,-3.608229644079450
Naz,TQ12 2BG,50.531057755769800,-3.604366822727330
Domino's Pizza,TQ12 2BN,50.530972557424100,-3.602063992840530
RC AUSTIN LTD,TQ12 2DU,50.529452277184200,-3.611860995892740
Eastern Eye (Newton Abbot) Limited,TQ12 2EU,50.530671634685900,-3.602253000000000
Jackson Ltd,TQ12 2EW,50.530634049064300,-3.607047449637990
The Pharmacy coffee shop,TQ12 2EW,50.530634049064300,-3.607047449637990
The Pizza Cafe,TQ12 2EW,50.530634049064300,-3.607047449637990
The Country Table Cafe Limited,TQ12 2JW,50.530050856143600,-3.612149484576590
The Express Pasta Company,TQ12 2JW,50.530050856143600,-3.612149484576590
the golden lion,TQ12 2RB,50.530508143579400,-3.612249733894040
the jolly farmer,TQ12 2RB,50.530508143579400,-3.612249733894040
Bouzayen (Newton Abbot) LLP ta the Owl & The Pussycat Coffee House,TQ12 2RJ,50.530685000000000,-3.612552000000000
The Bay Tree,TQ12 2RJ,50.530685000000000,-3.612552000000000
The Market Gate,TQ12 2RJ,50.530685000000000,-3.612552000000000
Yhe Cheeky Cherry Cafe,TQ12 2RJ,50.530685000000000,-3.612552000000000
Mr Biscuits,TQ12 2RX,50.530779000000000,-3.611050342867950
The Other Cup,TQ12 2RX,50.530779000000000,-3.611050342867950
The Bell Inn,TQ12 3AX,50.546415170300200,-3.592848288320220
The Ten Tors Inn,TQ12 3NP,50.560780181290900,-3.597935403635960
Sandygate Inn,TQ12 3PU,50.560885171982000,-3.600113279157390
Passage House Inn,TQ12 3QH,50.542930765835900,-3.588525010158560
The Barn Owl Inn,TQ12 5AN,50.509544253092100,-3.584724360893800
Hare & Hounds,TQ12 5HH,50.492623000000000,-3.575931823210840
Bickley Mill Inn,TQ12 5LN,50.491694749775800,-3.602243303492040
Court Farm Inn,TQ12 5NY,50.507513803700000,-3.614018933115490
WELLINGTON INN,TQ12 5RH,50.487749071533300,-3.642501000000000
The Oak Room Restaurant at Dainton Park,TQ12 5TN,50.492634439251100,-3.627850037588300
The Jolly Sailor,TQ12 6AW,50.518301599374700,-3.638804965388610
Two Mile Oak Inn ,TQ12 6DF,50.500580346210900,-3.626923000000000
THE UNION INN DENBURY,TQ12 6DQ,50.505376246974500,-3.659214960541260
The Welcome Stranger,TQ12 6JA,50.549523313196900,-3.690054592705020
Pinocchios Cafe,TQ12 6JD,50.557130451378500,-3.666453225254710
Pinocchios Pizzeria,TQ12 6JD,50.557130451378500,-3.666453225254710
Dartmoor Halfway Inn,TQ12 6JW,50.536783461509000,-3.692858977828350
Stover Golf Club Limited,TQ12 6QQ,50.558687240339900,-3.648704829318790
A W & A R GALE,TQ12 6QT,50.551266079663400,-3.623206188017800
Finlake Holiday Park,TQ13 0EJ,50.598364141073300,-3.627171852242330
Claycutters Arms,TQ13 0EY,50.585150860290300,-3.634358578263880
Harveys of Chudleigh,TQ13 0HT,50.604692000000000,-3.602263000000000
PHOENIX CHUDLEIGH LTD,TQ13 0HX,50.604283275404300,-3.601118805486470
The Cridford Inn,TQ13 0NR,50.629111000000000,-3.620329000000000
Coljan Bar & Restaurant,TQ13 7DT,50.514826000000000,-3.756902000000000
Everso Moorish T/A Coljan Cafe,TQ13 7DT,50.514826000000000,-3.756902000000000
Rafikis,TQ13 7DT,50.514826000000000,-3.756902000000000
The Dartmoor Lodge,TQ13 7JW,50.509195628124600,-3.765761362902640
River Dart Country Park Ltd,TQ13 7NP,50.516521335337200,-3.788707000000000
Cafe on the Green,TQ13 7TA,50.576958000000000,-3.811910000000000
The Old inn,TQ13 7TA,50.576958000000000,-3.811910000000000
The Rugglestone Inn Ltd,TQ13 7TF,50.570302760237800,-3.806570436699650
Ring of Bells Inn,TQ13 8RB,50.640790000000000,-3.782461526344510
Cromwell Arms,TQ13 9AE,50.594307802777800,-3.674138230943990
The Dolphin Hotel,TQ13 9AL,50.591548078847400,-3.678310000000000
The Copper kettle ,TQ13 9AS,50.591166933595600,-3.679904102194440
Brookside Restaurant Ltd.,TQ13 9AW,50.591035060021400,-3.677822574087730
THE OLD POTTERY RESTAURANT,TQ13 9DS,50.582398036398400,-3.677814000000000
Home Farm Cafe,TQ13 9JQ,50.594641000276100,-3.688434675419210
Ullacombe Farm ,TQ13 9LL,50.588395710690000,-3.715759560933400
The Cleave,TQ13 9TJ,50.618335000000000,-3.718357964599770
Becky Falls Ancient Woodland Park Limited,TQ13 9UG,50.606853528240500,-3.753007056434100
The Rock Inn - Haytor,TQ13 9XP,50.581499828705200,-3.736838129725630
THE MOORLAND HOTEL,TQ13 9XT,50.579217000000000,-3.739212000000000
The Bucket and Spade,TQ14 0BG,50.535079514875000,-3.503184734801970
The Clipper Cafe,TQ14 0DL,50.540534285855500,-3.504910586547360
Pow Wow Cafe Shop,TQ14 9AG,50.547808000000000,-3.513512000000000
Teignmouth Golf Club Limited,TQ14 9NY,50.565716633201700,-3.528347717067710
Otter Garden Centre,TQ14 9PN,50.548462966796800,-3.539575849148510
Old Walls Vineyard & Luxury Lodges,TQ14 9PQ,50.556027873972100,-3.535389467320530
Cockhaven Arms,TQ14 9RF,50.550985949435100,-3.541253150178350
The Purpletree Guest House,TQ2 5BZ,50.472214485037000,-3.543016072595200
THYME OUT TORBAY C.I.C.,TQ2 5DJ,50.464726028207400,-3.527089855198360
Kalipso artisan coffee & food,TQ2 5DW,50.464071800990400,-3.526913788096570
Domino's Pizza,TQ2 5DZ,50.462195753119000,-3.525951633042570
Starbucks Torquay Fleetwalk,TQ2 5EB,50.462903000000000,-3.526305846934320
Offshore Bar & Restaurant,TQ2 5EG,50.461427794832200,-3.525532414221480
Shiraz,TQ2 5EG,50.461427794832200,-3.525532414221480
BISTROT PIERRE - TORQUAY,TQ2 5FB,50.463442457862700,-3.533600783824940
Jurassic Coast Coffee Ltd t/a Costa Coffee Abbey Sands,TQ2 5FB,50.463442457862700,-3.533600783824940
BELGRAVE SANDS HOTEL & SPA,TQ2 5HF,50.464223033888800,-3.535922222167910
Abbey Sands Hotel ,TQ2 5HG,50.464846989872000,-3.537027391457070
The Alberts Pub,TQ2 5HL,50.465989000000000,-3.538530000000000
Victoria Hotel Restaurant,TQ2 5HL,50.465989000000000,-3.538530000000000
Aztec Bistro,TQ2 5HS,50.467066514909900,-3.539213008283960
Derwent Hotel Restaurant,TQ2 5HS,50.467066514909900,-3.539213008283960
Carlton Hotel Restaurant,TQ2 5JJ,50.466633928927300,-3.539959863741540
Nethway Hotel,TQ2 5JR,50.465855621678800,-3.541005460565020
Aztec Games,TQ2 5JS,50.465554444840100,-3.540657497085100
Toorak Hotel Restaurant,TQ2 5JS,50.465554444840100,-3.540657497085100
Meat59 Limited,TQ2 5NQ,50.465566592862900,-3.529512317409640
Green Leaf Cafe,TQ2 5PW,50.465928119009000,-3.528692639011290
McDonald's Restaurant Torquay ,TQ2 5PY,50.467197473551800,-3.530649950943060
Crofton House Hotel,TQ2 5TZ,50.467033503840500,-3.536266932784050
Raffles 2 ltd,TQ2 5UJ,50.467373745371100,-3.537743427895610
Chelston Manor,TQ2 6HW,50.463300995247600,-3.547136023258760
The Grand Hotel ,TQ2 6NT,50.460050134245400,-3.542028386077410
Livermead House Hotel,TQ2 6QJ,50.457459833754700,-3.544071439399260
Livermead Cliff Hotel,TQ2 6RQ,50.454461393523200,-3.545692436238970
Seven Dials Cafe,TQ2 6XA,50.463308215481600,-3.559394417507160
The Devon Dumpling,TQ2 7BY,50.478469180878600,-3.561584704248980
McDonald's Restaurant Torquay ,TQ2 7PY,50.483231693108800,-3.547971000000000
DAVANT BIKES LIMITED,TQ2 7QL,50.484749087069500,-3.547949247335390
Ye Olde Smokey House,TQ3 1NN,50.454021895701500,-3.592940322915730
The Church House Inn at Marldon,TQ3 1SL,50.461091260882400,-3.598165445235850
Otter Garden Centre,TQ3 1SY,50.478271986562300,-3.587455366916060
Four Seasons Cafe,TQ3 2EP,50.447113336597200,-3.559326000000000
Domino's Pizza,TQ3 2EU,50.446380259122800,-3.559527963017900
Bright Bean,TQ3 2EY,50.446290289746700,-3.560201074708660
The Happy Barista ,TQ3 2HP,50.444236706734900,-3.563105290348940
the boathouse,TQ3 2NJ,50.441114897862300,-3.559157698832460
the old manor,TQ3 2QZ,50.445187000000000,-3.562742000000000
Holmans Courtyard Cafe and Juice Bar,TQ3 3AD,50.436371666228900,-3.567450937995690
GAIA COFFEE,TQ3 3BN,50.433598888934800,-3.572315869702530
HAMMONDS CAFE,TQ3 3BW,50.434764460836100,-3.571917968760030
Lilyâ€™s tea rooms and restaurant,TQ3 3DU,50.436372877955500,-3.567900000000000
Cafe du palais,TQ3 3EQ,50.435677196080100,-3.569596570369340
The Avenue Bistro,TQ3 3HA,50.435357297237700,-3.568642524190330
Siam Garden,TQ3 3HB,50.435048864191900,-3.569339000000000
caffe cosi ltd,TQ4 5AG,50.433863167388700,-3.565932309030840
 Karens Cafe,TQ4 5BP,50.436750508905500,-3.565365240558220
Dragon Pearl Chinese Restaurant,TQ4 5BP,50.436750508905500,-3.565365240558220
Our Katie's Tea and Coffee House,TQ4 6AD,50.435607674603800,-3.562736519263110
chandlers,TQ4 6AF,50.435075676123900,-3.563507560146050
Shoreline,TQ4 6AG,50.435406000000000,-3.559759000000000
Caffe Tutto,TQ4 6AJ,50.435566779871500,-3.561763541454810
HENRYS BAR,TQ4 6AJ,50.435566779871500,-3.561763541454810
T&M Grand Central ltd,TQ4 6AJ,50.435566779871500,-3.561763541454810
FACTORY,TQ4 6AL,50.434970998219900,-3.561605000000000
queens hotel,TQ4 6AT,50.433504069240500,-3.562667241344580
Hyde Dendy,TQ4 6BD,50.435875533771100,-3.560872475280800
the palace hotel paignton ltd,TQ4 6BJ,50.438490423473500,-3.561042995727240
Cantina Kitchen and Bar,TQ4 6BU,50.428138687202100,-3.562634000000000
TJ's Restaurant,TQ4 6DL,50.431114291624700,-3.557111318705770
Harbour Inn,TQ4 6DS,50.432293535699200,-3.558375027127280
the noahs ark,TQ4 7HB,50.428917835778600,-3.587719000000000
Blagdon Inn (Devon Hills ),TQ4 7PW,50.428954917195700,-3.604500000000000
The Riverside Cafe ,TQ9 5AL,50.427437875481200,-3.680283000000000
Eversfield Organic Totnes,TQ9 5DW,50.430213632293300,-3.682747000000000
Dartmouth inn totnes,TQ9 5EL,50.429263708199600,-3.684120910948360
The Steam Packet,TQ9 5EW,50.426335000000000,-3.681483000000000
King William 1v,TQ9 5HN,50.431339222901400,-3.685449000000000
CHINA BLUE (DEVON) LTD,TQ9 5JR,50.433800000000000,-3.687689000000000
The Green Cafe,TQ9 5NP,50.431823263523600,-3.689337106255840
Gate 111 Ltd,TQ9 5PB,50.431466122686900,-3.691014059440160
Willow Vegetarian Restaurant,TQ9 5PB,50.431466122686900,-3.691014059440160
Gather,TQ9 5RP,50.431044023631900,-3.685395007150310
Hill House Coffee Shop,TQ9 5RU,50.431233844222100,-3.686570428852650
Pie Street,TQ9 5RY,50.431398934608300,-3.688209638249330
RUMOUR KITCHEN & BAR,TQ9 5RY,50.431398934608300,-3.688209638249330
Seeds 2 Totnes ltd,TQ9 5RY,50.431398934608300,-3.688209638249330
The Bull Inn,TQ9 5SN,50.430878550921500,-3.691218408321230
Woods Bistro,TQ9 5SN,50.430878550921500,-3.691218408321230
Ben's Wine & Tapas,TQ9 5SQ,50.431458985893100,-3.690267535609030
Waterside Bistro,TQ9 5YS,50.430474727391200,-3.682474256146570
Ben's Farm Shop Staverton,TQ9 6AF,50.461787559691400,-3.731757679867800
The Pig and Whistle,TQ9 6LT,50.449590300663200,-3.669108662645490
