name,postcode,lat,lon
Civet and sand lizard,BH19 3HG,50.607403190000000,-2.004497761000000
wall lizard and pit viper,BH19 3LT,50.600159480000000,-2.055929055000000
rock python and cerastes,BH19 3LU,50.605396780000000,-2.015731898000000
amphisbaena and monitor,BH20 5DG,50.648979530000000,-2.118476866000000
Shearwater and tiger snake,BH20 5EG,50.632085750000000,-2.052276764000000
Treepie and Hawk,BH20 5HT,50.620761000000000,-2.039287000000000
diamond python and Buzzard,BH20 5LL,50.615263550000000,-2.063522981000000
Mink and boa constrictor,BH20 5LW,50.606640000000000,-2.079353000000000
Coati and snake,BH20 5NQ,50.635408750000000,-2.088974400000000
deaf adder and Rabbit,BH20 5NT,50.637875940000000,-2.096289961000000
monitor and fer-de-lance,BH20 5NU,50.625303070000000,-2.097381051000000
krait and boa,BH20 5PH,50.617467480000000,-2.119683780000000
king snake and iguana,BH20 5PY,50.628168260000000,-2.237353996000000
Schneider python and New World blackbird,BH20 5QN,50.638222260000000,-2.198955020000000
smooth snake and worm lizard,BH20 5QT,50.641855380000000,-2.199097000000000
anole and rat snake,BH20 5RR,50.626726060000000,-2.243326958000000
Polecat and Francolin,DT2 8NG,50.632058282922100,-2.352481428309900
constrictor and Lemming,DT3 6HB,50.638518879468500,-2.374335561402190
Jay and fer-de-lance,DT3 6HE,50.635402015772100,-2.375993483331100
