name,postcode,lat,lon
deaf adder and Elephant,BH19 1BP,50.618537850000000,-1.957753837000000
king snake and Goose,BH19 1DA,50.608798100000000,-1.956377543000000
indigo snake and Booted eagles,BH19 1DJ,50.610716000000000,-1.959895000000000
Grouse and Thrasher,BH19 1DL,50.611074370000000,-1.959371636000000
Mockingbird and green turtle,BH19 1HB,50.609959480000000,-1.960022690000000
rattlesnake and Nukupuʻu,BH19 1HR,50.609457220000000,-1.964178056000000
Piping shrike and Elephant,BH19 1JB,50.608756510000000,-1.966637596000000
hognose snake and box turtle,BH19 1JN,50.610871570000000,-1.973504695000000
puff adder and loggerhead,BH19 1JY,50.609502390000000,-1.964856381000000
boa constrictor and python,BH19 1LF,50.619266640000000,-1.958785073000000
Kākāriki and Maya,BH19 1LG,50.621182640000000,-1.960324231000000
Bronzewing pigeon and Thrasher,BH19 1LH,50.617188870000000,-1.957585421000000
boomslang and Ibex,BH19 1PB,50.613547920000000,-1.960895957000000
blind snake and Tree warbler,BH19 2AW,50.607689960000000,-1.951234538000000
soft-shelled turtle and deaf adder,BH19 2BB,50.607320080000000,-1.948620000000000
Pheasant and dukite,BH19 2BS,50.606595550000000,-1.958287334000000
leathery turtle and grass snake,BH19 2DL,50.604240000000000,-1.955321797000000
Piping shrike and blue tongue,BH19 2DW,50.603042960000000,-1.957372000000000
Quetzal and king snake,BH19 2ED,50.602819800000000,-1.961950443000000
viper and Black cockatoo,BH19 2EW,50.605561590000000,-1.958895888000000
Thicketbird and Mockingbird,BH19 2HZ,50.599959000000000,-1.955481000000000
Tattler and Parrotlet,BH19 2JG,50.600256450000000,-1.960793859000000
monitor and diamondback turtle,BH19 2JP,50.608824000000000,-1.982621096000000
Mink and Pheasant,BH19 2LN,50.607691400000000,-1.954838179000000
milk snake and Mockingbird,BH19 2NW,50.610323800000000,-1.977292568000000
Zebra and Jackal,BH19 2PW,50.607720610000000,-1.961042074000000
caiman and loggerhead,BH19 2PX,50.606084900000000,-1.964166466000000
Tahr and puff adder,BH19 2QA,50.606779000000000,-1.964165822000000
New World blackbird and tokay,BH19 2QY,50.607391090000000,-1.972390214000000
Quetzal and Dolphin,BH19 2SE,50.609271640000000,-1.977321334000000
Parakeet and flying dragon,BH19 2SH,50.608336380000000,-1.977265250000000
Recurvebill and Komodo dragon,BH19 2SQ,50.605000490000000,-1.979810441000000
Stint and Guillemot,BH19 3AQ,50.645246000000000,-1.953784000000000
saltwater crocodile and wall lizard,BH19 3AT,50.641774000000000,-1.950025536000000
