name,id,postcode,lat,lon
massasauga and bandy-bandy,1587354,AB34 4TA,57.131178820000000,-2.843017455000000
Lemming and Chipmunk,1587649,AB33 8LP,57.153443300000000,-2.781421666000000
deaf adder and terrapin,1587609,AB33 8JL,57.174556710000000,-2.705159049000000
kabaragoya and death adder,1587390,AB34 4XJ,57.146342110000000,-2.912444007000000
Recurvebill and tree snake,1581211,AB51 7QL,57.168477270000000,-2.544129554000000
Puffleg and Kangaroo,1588590,AB31 4BA,57.061734290000000,-2.625833937000000
Diving bird and blue tongue,1587468,AB34 5BG,57.085637680000000,-2.677879583000000
grass snake and worm lizard,1587053,AB34 5JA,57.071101100000000,-2.790063768000000
frilled lizard and Vole,1587167,AB34 5NJ,57.124052750000000,-2.935779020000000
hawksbill and Zebra,1587926,AB31 6LY,57.021784990000000,-2.627665916000000
thorn lizard and bicycle lizard,1588330,AB31 4NJ,57.106263170000000,-2.600418700000000
rock python and Schneider python,1588597,AB31 4BJ,57.047810160000000,-2.627610519000000
Maya and Marmoset,1587154,AB34 5LT,57.109446000000000,-2.900062000000000
gopher snake and Badger,1588235,AB31 4LT,57.116340040000000,-2.610208815000000
leathery turtle and Dorcopsis,1587155,AB34 5LU,57.103964300000000,-2.918946202000000
Linsang and caiman,1587460,AB34 5AX,57.088362950000000,-2.688803217000000
giant tortoise and Masked owl,1587184,AB34 5PP,57.073424950000000,-2.879478770000000
Magpie and Philippine hawk-owl,1587510,AB34 5FA,57.073150560000000,-2.793669000000000
amethystine python and Quetzal,1587942,AB31 6NT,57.027925420000000,-2.595431543000000
perentie and swift,1587954,AB31 6PJ,57.001936950000000,-2.649506220000000
blind snake and milk snake,1588713,AB31 4JQ,57.107324240000000,-2.620494214000000
Piping shrike and Zebra,1587145,AB34 5LG,57.075094430000000,-2.789323924000000
Vulture and Gull,1587467,AB34 5BF,57.087937150000000,-2.679588092000000
Stint and Myna,1587127,AB34 5JH,57.083854000000000,-2.818531000000000
kabaragoya and bushmaster,1587456,AB34 5AS,57.086766000000000,-2.675112000000000
garter snake and Pitohui,1588368,AB31 4QR,57.120730000000000,-2.739312000000000
Goose and Treepie,1588609,AB31 4DB,57.077442000000000,-2.562244000000000
White ibis and moloch,1588614,AB31 4DH,57.085704960000000,-2.568638690000000
Stint and water snake,1587350,AB34 4JH,57.101686000000000,-2.663581000000000
Fish eagle and Condor,1587149,AB34 5LN,57.068969240000000,-2.909653265000000
thorn lizard and Zebra,1588376,AB31 4RD,57.149731670000000,-2.720040000000000
