name,postcode,lat,lon
Thicketbird and dugite,AB31 4QB,57.110267030000000,-2.693205239000000
crocodile and diamondback turtle,AB31 4QN,57.133351820000000,-2.719144657000000
Tattler and Grouse,AB31 6NE,57.011309240000000,-2.689337295000000
wall lizard and hawksbill,AB33 8LN,57.167916590000000,-2.795534786000000
Thicketbird and Asiatic leopard,AB34 4UN,57.130267910000000,-2.855485487000000
pit viper and saltwater crocodile,AB34 4XX,57.158029000000000,-2.958344000000000
Chicken and diamond python,AB34 4YA,57.147629140000000,-2.957909499000000
Marsh harrier and thorny devil,AB34 4YB,57.141766000000000,-2.934805000000000
python and crocodile,AB34 4YD,57.128342650000000,-2.911968074000000
leathery turtle and Civet,AB34 5AQ,57.089632340000000,-2.683381375000000
Masked owl and blue tongue,AB34 5DQ,57.050759000000000,-2.687052000000000
Grosbeak and Wallaby,AB34 5EN,57.068303050000000,-2.780702892000000
Hawk and massasauga,AB34 5GF,57.077804690000000,-2.765148796000000
Black cockatoo and frill-necked lizard,AB34 5HW,57.072054190000000,-2.795609360000000
Coati and asp,AB34 5JB,57.070459000000000,-2.795047000000000
Snipe and blue racer,AB34 5JG,57.076592690000000,-2.776703683000000
tuatara and Fulmarine petrel,AB34 5JJ,57.078219240000000,-2.812039688000000
Stilt and habu,AB34 5LH,57.086083790000000,-2.879332965000000
River dolphin and glass snake,AB34 5LT,57.109446000000000,-2.900062000000000
Kākāriki and puff adder,AB34 5PJ,57.071408160000000,-2.881393759000000
leguaan and Old World warbler,AB35 5QP,57.048148260000000,-3.038620048000000
habu and Vole,AB35 5SB,57.065172000000000,-3.011225975000000
saltwater crocodile and loggerhead,AB35 5XA,57.055532000000000,-3.055877820000000
harlequin snake and Marsh harrier,AB35 5ZB,57.053103850000000,-3.043357908000000
