name,postcode,lat,lon
glass snake and Cloud rat,TQ7 1LG,50.274998686302300,-3.768308039670820
king cobra and diamondback terrapin,TQ7 2FE,50.273399000000000,-3.692178000000000
Masked owl and Grouse,TQ7 2NL,50.233007131432500,-3.710497356600050
snake and galliwasp,TQ7 2NY,50.269940624372600,-3.718177511111230
Meadowlark and king cobra,TQ7 2SP,50.268363546519000,-3.680105000000000
Schneider python and Argus,TQ7 3DG,50.242223499184500,-3.806911104490000
Civet and Grosbeak,TQ7 3JW,50.271720166083500,-3.830524000000000
asp and harlequin snake,TQ7 3RP,50.244023874369300,-3.814314477382680
River dolphin and bushmaster,TQ7 3TD,50.270141476569200,-3.858795707588680
Siskin and Egret,TQ8 8AX,50.235993860920500,-3.775193896824960
Armadillo and Triller,TQ8 8BH,50.237427838271700,-3.772695000000000
tokay and Logrunners,TQ8 8BL,50.236794540231400,-3.773414647812810
Dolphin and mountain devil,TQ8 8DB,50.239354498499600,-3.766553779676830
carpet snake and puff adder,TQ8 8DN,50.240032307364800,-3.766340430033110
Triller and alligator,TQ8 8ES,50.237388504509700,-3.767490778601470
Prion and puff adder,TQ8 8HP,50.235200868284000,-3.771167956923410
Francolin and terrapin,TQ8 8LU,50.234739586585700,-3.784850953543150
gopher snake and sea snake,TQ8 8NH,50.245074108047200,-3.776625307784880
Tahr and viper,TQ8 8NX,50.235646573778500,-3.779668316733310
tuatara and Guillemot,TQ8 8NY,50.235298182073000,-3.782445875435360
Chicken and cobra,TQ8 8NZ,50.235335121663100,-3.783555054099600
Myna and American sparrow,TQ8 8PB,50.235013692323900,-3.758624747252000
king cobra and flying lizard,TQ8 8PJ,50.223941203838000,-3.746467000000000
rock python and Black cockatoo,TQ8 8QT,50.239138478700700,-3.769518857788950
hognose snake and Maya,TQ8 8WP,50.239803949996400,-3.767664826725270
