name,postcode,lat,lon
Fish eagle and Petrel,TQ7 2FG,50.269192000000000,-3.720250000000000
alligator and hognose snake,TQ7 2HU,50.273533022091000,-3.697115631649940
mountain devil and Pheasant,TQ7 2JZ,50.273157605567400,-3.692639536007500
Perching duck and tortoise,TQ7 2LD,50.272833324103000,-3.695757548263030
green turtle and python,TQ7 2ND,50.239587443852900,-3.696007782858950
bandy-bandy and Ice seal,TQ7 2PG,50.270822269287500,-3.718770575605830
Warbler and Wallaby,TQ7 2SJ,50.274121000000000,-3.680885000000000
Buzzard and Dorcopsis,TQ7 3DU,50.231458542975800,-3.824101315937840
sand lizard and Kangaroo,TQ7 3HL,50.243792929017200,-3.855694518193290
Herring gull and deaf adder,TQ7 3JJ,50.265431000000000,-3.854248000000000
puff adder and Greenbul,TQ7 3LB,50.274873372654700,-3.832693401096350
boa and wall lizard,TQ7 3PA,50.264145000000000,-3.859264000000000
Macaw and snake,TQ8 8AT,50.235674000000000,-3.773265164417640
boomslang and viper,TQ8 8EF,50.238956193754400,-3.775570407476390
bearded dragon and Magpie,TQ8 8HU,50.237560000000000,-3.770484000000000
death adder and anaconda,TQ8 8NF,50.243932962827000,-3.780664234809660
rock snake and Duck,TQ8 8PL,50.228451710697700,-3.742497000000000
dugite and amphisbaena,TQ8 8PW,50.222670000000000,-3.723530000000000
sea snake and Egret,TQ8 8QD,50.239744654892300,-3.766329795848750
