name,postcode,lat,lon
Partridge and Rabbit,PL26 6HP,50.244586960047200,-4.805397814951900
bearded dragon and frill-necked lizard,PL26 6HX,50.242853035946700,-4.797104290163410
New World blackbird and saltwater crocodile,PL26 6JB,50.240425751809300,-4.794802107467500
Cloud rat and Jerboa,PL26 6LT,50.254015349818500,-4.848210717765440
chuckwalla and Solitaire,PL26 6NP,50.243437556088200,-4.794122728650600
Ground sloth and Tit-tyrant,PL26 6PN,50.261919582210000,-4.786027529118300
carpet snake and Flameback,PL26 6QQ,50.270277776859800,-4.784087574363500
Pitohui and horned toad,PL26 6QS,50.270863978793600,-4.785525286441530
carpet snake and horned viper,PL26 6QW,50.272538752830200,-4.786956453638470
rattlesnake and Kestrel,PL26 6QZ,50.271108818965300,-4.786943092220180
bandy-bandy and Ice seal,PL26 6TG,50.272867313863900,-4.787509002626330
tokay and Tahr,PL26 6UA,50.270291391426400,-4.786895339837040
Scimitar babbler and rattlesnake,TR2 5AN,50.159135215342000,-5.010888900659650
rock python and blue tongue,TR2 5AX,50.161690207244000,-5.012267847292090
Maya and Songlark,TR2 5DY,50.179472000000000,-4.980396000000000
diamondback and Elephant,TR2 5EL,50.203288000000000,-4.972827000000000
Tattler and copperhead,TR2 5HD,50.181305000000000,-4.975565000000000
flying dragon and Kite,TR2 5HG,50.179080145321100,-4.975259104969870
frilled lizard and Night heron,TR2 5JR,50.224715938323100,-4.938852787599560
Old World warbler and grass snake,TR2 5LF,50.222773078985000,-4.940976690320240
Petrel and Crow,TR2 5PZ,50.268640418013300,-4.912463907735710
Solitaire and taipan,TR2 5RQ,50.220226021679700,-4.890528693811410
indigo snake and water snake,TR2 5SA,50.266348705803700,-4.913095878361610
leathery turtle and deaf adder,TR2 5SP,50.256262000000000,-4.867020000000000
Grackle and Old World quail,TR2 5UH,50.161299448304700,-5.008952478535220
