name,postcode,lat,lon
Boto and Mink,AB31 4AR,57.058236290000000,-2.583765857000000
Black cockatoo and Chipmunk,AB31 4BL,57.037278000000000,-2.602683000000000
terrapin and asp,AB31 4FQ,57.107224100000000,-2.622572661000000
green turtle and giant tortoise,AB31 4GH,57.102790000000000,-2.623716776000000
Parakeet and worm lizard,AB31 4HG,57.103163200000000,-2.620853838000000
boa constrictor and Peafowl,AB31 4HX,57.097864000000000,-2.626080000000000
mountain devil and pit viper,AB31 4JW,57.105110200000000,-2.621332121000000
Linsang and thorn lizard,AB31 4LA,57.126025590000000,-2.642263018000000
turtle and box turtle,AB31 4LE,57.138238930000000,-2.641268455000000
Scimitar babbler and Night heron,AB31 4LS,57.108860140000000,-2.607708433000000
Ibex and Jay,AB31 4QG,57.125928420000000,-2.687683848000000
hawksbill and racer,AB31 4QP,57.129367340000000,-2.735470650000000
Fulmarine petrel and flying lizard,AB31 4RH,57.153127000000000,-2.712272000000000
blindworm and adder,AB31 4RR,57.165800510000000,-2.696675144000000
Boto and Kestrel,AB31 4SF,57.129918420000000,-2.687427460000000
Mink and Magpie,AB31 4SL,57.130159950000000,-2.689249049000000
Tree warbler and rat snake,AB31 4SR,57.113500120000000,-2.706243910000000
harlequin snake and Jackal,AB31 4ST,57.109600970000000,-2.726741271000000
sea snake and Parrotlet,AB31 4TG,57.130309110000000,-2.689896072000000
Triller and diamondback,AB33 8BZ,57.230404470000000,-2.699236000000000
Ice seal and glass snake,AB33 8EL,57.213361910000000,-2.664408990000000
boa and bandy-bandy,AB33 8EW,57.232579680000000,-2.700087000000000
American sparrow and Egret,AB33 8FD,57.231416030000000,-2.696488000000000
bull snake and Boto,AB33 8FQ,57.228847000000000,-2.693727000000000
blind snake and Partridge,AB33 8HL,57.222285370000000,-2.709132000000000
Kestrel and Diving bird,AB33 8HT,57.202614830000000,-2.699718905000000
Mouse and Rat,AB33 8LD,57.185776460000000,-2.817740504000000
Maya and giant tortoise,AB33 8LP,57.153443300000000,-2.781421666000000
tortoise and Francolin,AB33 8PD,57.243091620000000,-2.742224967000000
thorny devil and Armadillo,AB33 8SN,57.190395920000000,-2.934560760000000
Duck and blind snake,AB33 8TY,57.232137000000000,-2.707086000000000
tuatara and Treepie,AB33 8UA,57.232533860000000,-2.693957789000000
Philippine hawk-owl and amethystine python,AB34 4WY,57.074462080000000,-2.779991000000000
Magpie and Songlark,AB34 4YP,57.122168000000000,-2.857677000000000
hawksbill and lizard,AB34 4YT,57.110214600000000,-2.889365244000000
goanna and Nukupu ªu,AB34 5DA,57.064566110000000,-2.726932510000000
Dolphin and horned viper,AB34 5DB,57.055320710000000,-2.748529809000000
agama and blindworm,AB34 5DN,57.051719060000000,-2.692179592000000
anaconda and Fish eagle,AB34 5GR,57.075502220000000,-2.778709779000000
wall lizard and Mouse,AB34 5HE,57.073072570000000,-2.786559476000000
terrapin and Treepie,AB34 5HF,57.079029960000000,-2.770436438000000
lizard and massasauga,AB34 5JQ,57.097599670000000,-2.808782913000000
dukite and Thrasher,AB34 5JX,57.107690000000000,-2.827724000000000
Magpie and asp,AB34 5NF,57.075616480000000,-2.776221416000000
Herring gull and Pratincole,AB34 5PB,57.058685150000000,-2.916755234000000
puff adder and Masked owl,AB34 5WY,57.074462080000000,-2.779991000000000
Pratincole and Tattler,AB51 7SP,57.201813240000000,-2.574461494000000
