name,postcode,lat,lon
The Newtonmore Grill Co Ltd,PH20 1BB,57.0604,-4.1280
The Glen Hotel,PH20 1DD,57.0638,-4.1221
Silverfjord Hotel,PH21 1ES,57.0781,-4.0497
Duke Of Gordon Hotel,PH21 1HE,57.0791,-4.0562
McInnes House Hotel Bar and Restaurant,PH21 1HE,57.0791,-4.0562
The Tipsy Laird,PH21 1HZ,57.0806,-4.0493
The Cross at Kingussie,PH21 1LB,57.0845,-4.0541
The Boathouse Restaurant,PH21 1NU,57.1056,-3.9388
CAIRNGORM HOTEL,PH22 1PE,57.1884,-3.8301
Happy Haggis ,PH22 1PT,57.1837,-3.8321
The Old Bridge Inn,PH22 1PU,57.1860,-3.8287
Rowan Tree Country Hotel,PH22 1QB,57.1590,-3.8746
Coylumbridge Hotel,PH22 1QN,57.1749,-3.8051
Cobbs Cafe Aviemore,PH22 1RH,57.1912,-3.8296
Explorer Cafe,PH22 1RH,57.1912,-3.8296
Galaxy noodle bar,PH22 1RH,57.1912,-3.8296
Galaxy restaurant ,PH22 1RH,57.1912,-3.8296
Royal Tandoori Restaurant ,PH22 1RH,57.1912,-3.8296
Subway Aviemore,PH22 1RH,57.1912,-3.8296
The Ski-ing Doo Restaurant,PH22 1RH,57.1912,-3.8296
Route 7 Cafe,PH22 1ST,57.2019,-3.8190
Mambos Cafe / bar,PH22 1TE,57.2026,-3.8254
