name,id,postcode,lat,lon
massasauga and bandy-bandy,1587354,AB34 4TA,57.131178820000000,-2.843017455000000
Quetzal and Meadowlark,1587247,AB33 8SY,57.220729370000000,-2.911829043000000
Hawk and green turtle,1587272,AB35 5QQ,57.047815430000000,-3.040835994000000
kabaragoya and death adder,1587390,AB34 4XJ,57.146342110000000,-2.912444007000000
frilled lizard and Vole,1587167,AB34 5NJ,57.124052750000000,-2.935779020000000
Vulture and blue racer,1587717,AB33 8RB,57.231746320000000,-2.906402633000000
carpet snake and deaf adder,1587170,AB34 5NQ,57.139268020000000,-2.962270505000000
Maya and Marmoset,1587154,AB34 5LT,57.109446000000000,-2.900062000000000
leathery turtle and Dorcopsis,1587155,AB34 5LU,57.103964300000000,-2.918946202000000
giant tortoise and Masked owl,1587184,AB34 5PP,57.073424950000000,-2.879478770000000
Black jay and Wader,1586978,AB36 8UQ,57.204834840000000,-3.078772050000000
Towhee and Perching duck,1587278,AB35 5QX,57.046744010000000,-3.043278434000000
coral snake and carpet snake,1586981,AB36 8UT,57.195386070000000,-3.075401813000000
Old World warbler and Grouse,1586975,AB36 8UL,57.204074070000000,-3.070043032000000
Polecat and Hawaiian honeycreeper,1587265,AB35 5QF,57.048978570000000,-3.037077274000000
Old World warbler and Condor,1587275,AB35 5QT,57.046751400000000,-3.040229328000000
Stint and Myna,1587127,AB34 5JH,57.083854000000000,-2.818531000000000
grass snake and Gila monster,1587270,AB35 5QN,57.048485000000000,-3.038102000000000
Petrel and rock snake,1586995,AB36 8YB,57.177946150000000,-3.139836190000000
Fish eagle and Condor,1587149,AB34 5LN,57.068969240000000,-2.909653265000000
