name,postcode,lat,lon
Kite and Mink,LL40 2BE,52.789211837775700,-3.756425349294170
Zebra and Kākāriki,SY10 0EY,52.824600341115500,-3.406932085735730
agama and puff adder,SY10 0HU,52.791787789968900,-3.399955553896170
Badger and Parakeet,SY10 0HY,52.797732000000000,-3.366788000000000
saltwater crocodile and ringhals,SY19 7DA,52.609297063670200,-3.628817217692780
Magpie and fer-de-lance,SY19 7DS,52.611630000000000,-3.660969000000000
indigo snake and terrapin,SY20 9AB,52.666033509065700,-3.708239451252610
Jerboa and Stint,SY20 9EF,52.708906000000000,-3.665438000000000
frilled lizard and cobra de capello,SY20 9JF,52.722671970851000,-3.686464581728410
Schneider python and Old World vulture,SY20 9LW,52.713376933465300,-3.690162336001400
sidewinder and Nukupuʻu,SY20 9NG,52.682721393429400,-3.705665687599670
Old World quail and skink,SY20 9NQ,52.691778238789400,-3.696045612596660
tiger snake and Greenbul,SY21 0AG,52.610790288661700,-3.392682370585050
Grosbeak and Marsh harrier,SY21 0DN,52.632007650292500,-3.365665592413770
rattlesnake and king cobra,SY21 0EA,52.676499128397300,-3.432075452337120
sidewinder and Dolphin,SY21 0HY,52.668612000000000,-3.369291000000000
Grackle and flying dragon,SY21 0NB,52.719850348640700,-3.378254556810590
terrapin and Mockingbird,SY21 0NF,52.723177279875200,-3.401976677144930
Komodo dragon and glass snake,SY21 0NU,52.695867477672700,-3.506521409364540
thorn lizard and Old World vulture,SY21 0PT,52.684121050831600,-3.492698865129260
chuckwalla and indigo snake,SY22 5JB,52.749032916264400,-3.379012608406400
Grouse and adder,SY22 5JD,52.742696488648800,-3.363317480214940
