name,postcode,lat,lon
Aston Wood Golf Club Ltd,B74 4EU,52.60380172729490,-1.85106897354126
OLDP CIO,B74 4YF,52.6053,-1.8430
The Red Lion Hopwas,B78 3AF,52.64262390136720,-1.73903298377991
George and Dragon  Alrewas,DE13 7AE,52.7325,-1.7471
The Bank Coffeehouse,DE13 7AE,52.73281610000000,-1.74659630000000
NMA Enterprises LTD,DE13 7AR,52.72763061523440,-1.73131501674652
The Crown,DE13 7BS,52.73355850000000,-1.74908000000000
Delhi Divan Indian Restaurant & Bar,DE13 7DB,52.73224258422850,-1.75560402870178
canalside cafe fradley ltd,DE13 7DN,52.72370360000000,-1.79473930000000
The Royal Oak,DE13 7HZ,52.74907302856450,-1.82328701019287
Skinny kitten ,DE13 8AA,52.76475880000000,-1.72363340000000
The Middle Bell,DE13 8AA,52.76490470000000,-1.72452170000000
The Shoulder of Mutton,DE13 8AA,52.76483917236330,-1.72370696067810
Little India,DE13 8AH,52.77069180000000,-1.74362070000000
THE LUAGHING CHEF,DE13 8BU,52.74715805053710,-1.75338697433472
The Three Horseshoes,DE13 8DR,52.76352691650390,-1.71935904026031
Nitaben ,DE13 8LS,52.7588,-1.7230
Crown inn yoxall ,DE13 8NQ,52.7677,-1.7906
The Golden Cup,DE13 8NQ,52.76774597167970,-1.79062104225159
The Meynell Ingram Arms,DE13 8RB,52.80741119384770,-1.80895996093750
Hilton at St George's Park  Burton Upon Trent,DE13 9PD,52.8177,-1.7601
Lancaster park cafe,DE13 9PD,52.81870770000000,-1.76685850000000
The Topiary Coffee Shop,DE13 9RN,52.8077,-1.7448
Starbucks,ST16 2AA,52.80380490000000,-2.12228400000000
mela lounge,ST16 2AG,52.80476150000000,-2.11865250000000
La Casa Italian,ST16 2AJ,52.80514060000000,-2.11712560000000
THE BIRD IN HAND,ST16 2AQ,52.80563300000000,-2.11911470000000
The Grove Coffee House,ST16 2AT,52.80669403076170,-2.11831688880920
THE SOUP KITCHEN (STAFFORD) LIMITED,ST16 2AW,52.80558013916020,-2.11822509765625
The Chef's Café ,ST16 2DJ,52.80605316162110,-2.11996197700500
Simply Bilash LTD,ST16 2EW,52.80736240000000,-2.12456380000000
The Play Shed Stafford ,ST16 2EX,52.80056381225590,-2.11801791191101
Thawa bridge Indian restaurant ,ST16 2HJ,52.80409960000000,-2.11531310000000
Subway Stafford Town ,ST16 2HL,52.8043,-2.1159
Starbucks (Greengate Street),ST16 2HN,52.80663300000000,-2.11699610000000
Starbucks,ST16 2HN,52.80663300000000,-2.11699610000000
Nando's,ST16 2HQ,52.80448790000000,-2.11353040000000
Coffee#1,ST16 2HS,52.80560900000000,-2.11620710000000
Bengal lounge Stafford ,ST16 2HY,52.80483590000000,-2.11620510000000
The Post House Bar & Grill Stafford,ST16 2HZ,52.8052,-2.1167
The Swan Hotel,ST16 2JA,52.80590438842770,-2.11703896522522
McDonalds,ST16 2JE,52.80662155151370,-2.11755990982056
McLean Restaurants Ltd,ST16 2JE,52.8066,-2.1176
Pizza Express,ST16 2JH,52.80757660000000,-2.11729540000000
BHTRADINGBAR LIMITED,ST16 2JU,52.8078,-2.1165
The Bakehouse,ST16 2JZ,52.80755950000000,-2.11643490000000
The Market Vaults,ST16 2LA,52.80689400000000,-2.11671500000000
Caffe Nero,ST16 2NT,52.80892410000000,-2.11826330000000
Anatolian Palace Authentic Turkish Mediterranean Grill Restaurant,ST16 2PJ,52.8124,-2.1210
Angel Attic Independent Psychic Centre,ST16 2PN,52.81259918212890,-2.11962389945984
Vivere,ST16 2PR,52.81171720000000,-2.12079310000000
Chicos Peri Grill Stafford,ST16 2PX,52.81116920000000,-2.12045030000000
ESSENCE OF THE ORIENT,ST16 2QB,52.80720200000000,-2.12243170000000
Ayo Gorkhali ,ST16 2QT,52.80488000000000,-2.11702110000000
HS STAFFORD LTD,ST16 2QT,52.8048,-2.1173
Little dessert shop,ST16 2QZ,52.80479049682620,-2.11651706695557
McDonalds,ST16 2RA,52.81648635864260,-2.12386298179626
McLean Restaurants Ltd,ST16 2RA,52.81648635864260,-2.12386298179626
Subway Stone rd,ST16 2RS,52.81716780000000,-2.12265760000000
Stafford Tenpin,ST16 2SD,52.81285476684570,-2.12314105033875
The Burger Priest Stafford,ST16 3AA,52.8057,-2.1129
Cup A Cha,ST16 3AD,52.80791091918950,-2.11449289321899
Kennys Sports Bar Limited ,ST16 3AD,52.80744440000000,-2.11466930000000
McLean Restaurants Ltd,ST16 3AE,52.80876541137700,-2.11575603485107
Costa Coffee,ST16 3AL,52.80517900000000,-2.11295680000000
Thaino.5 limited,ST16 3AN,52.81064050000000,-2.11883170000000
Tap Steakhouse,ST16 3HE,52.81655060000000,-2.11478240000000
Revolution Bars Group Plc,ST16 3PT,52.80498123168950,-2.11552309989929
Zizzi,ST16 3PT,52.80498123168950,-2.11552309989929
Pizza Hut Delivery,ST16 3RL,52.80741040000000,-2.10280140000000
BOD STAFFORD,ST17 0EF,52.79208400000000,-2.07871150000000
The Moat House  Acton Trussell,ST17 0RJ,52.75933837890630,-2.09628605842590
The Seven Stars,ST17 0SU,52.77242279052730,-2.06428289413452
Brocton Hall Golf Club,ST17 0TH,52.77533340454100,-2.05398511886597
Viceroy restaurant ,ST17 0UH,52.78768900000000,-2.04274550000000
The Shimla Palace,ST17 0XS,52.78034210205080,-1.97096896171570
Whites Coffee Bar,ST17 0XS,52.78034210205080,-1.97096896171570
Wolseley Bridge Garden Centre,ST17 0YA,52.78077316284180,-1.96895194053650
Spice island midlands ltd,ST17 4AH,52.80226730000000,-2.11373590000000
Narvana,ST17 4BG,52.80360520000000,-2.11535630000000
kfc,ST17 4ER,52.8004,-2.1081
SUN INN,ST17 4JX,52.80375890000000,-2.11440730000000
The Island masala restaurant,ST17 4LE,52.80311230000000,-2.11376780000000
The Spittal Brook,ST17 4LP,52.79702930000000,-2.10083380000000
Pizza Hut,ST17 4LU,52.79891250000000,-2.10602940000000
Starbucks (The Hough),ST17 4LU,52.7988,-2.1074
Wildwood Happy Tots,ST17 4PY,52.78915786743160,-2.08450388908386
Wildwood Playgroup,ST17 4PY,52.78915786743160,-2.08450388908386
The Wildwood,ST17 4RA,52.78470230102540,-2.08231592178345
Wildwood Pharmacy,ST17 4RA,52.78470230102540,-2.08231592178345
Buzz Bingo,ST17 4SU,52.79492568969730,-2.10232710838318
Cafe Society,ST18 0BF,52.8111,-2.0832
Canalside Cafe,ST18 0RQ,52.80438232421880,-2.00903105735779
The Clifford Arms,ST18 0SR,52.80202700000000,-2.00546000000000
Hearts and Flowers,ST18 0XZ,52.81124350000000,-2.07428080000000
Littleton Arms,ST19 5AL,52.72488403320310,-2.11627292633057
Bridgehouse restaurant,ST19 5AS,52.7263,-2.1162
Corner spice limited ,ST19 5AY,52.72614410000000,-2.11368470000000
Edgars Restaurant,ST19 5LH,52.72198104858400,-2.11542105674744
Honeypots Cafe,ST19 5RE,52.73938751220700,-2.10210704803467
Cabin cafe,ST19 5RP,52.73538420000000,-2.05177270000000
THE BOAT INN,ST19 5RP,52.73538420000000,-2.05177270000000
Pillaton Tea Room,ST19 5RZ,52.71882690000000,-2.08601810000000
Eastern Memories,WS11 0BB,52.67564010000000,-2.03047060000000
OK Diner Cannock,WS11 0BN,52.67374038696290,-2.02763605117798
Radhunicannock,WS11 0DL,52.68825149536130,-2.02823805809021
Shabab restaurant & takeaway ltd,WS11 0DR,52.6880,-2.0254
Aydan spice ltd,WS11 0JB,52.67847960000000,-2.02645540000000
Subway Cannock,WS11 1AH,52.68869950000000,-2.03147790000000
the white hart,WS11 1AP,52.68678150000000,-2.03222730000000
Bar Sport  Sports Grill,WS11 1BJ,52.6897,-2.0329
The Loft 89 Ltd,WS11 1BS,52.68869720000000,-2.03094680000000
hannahs,WS11 1DD,52.68905130000000,-2.03043660000000
McDonalds,WS11 1DH,52.68948364257810,-2.02579808235168
Saleem Bagh,WS11 1EA,52.69026600000000,-2.02778500000000
Costa Coffee,WS11 1EB,52.69026250000000,-2.03029820000000
PADMA ,WS11 1GR,52.68868300000000,-2.03195600000000
The Liquor Tank Ltd.,WS11 1GR,52.68868200000000,-2.03195600000000
Shoal Hill Tavern ,WS11 1RF,52.69261169433590,-2.04956102371216
EGO at Tumbledown Farm,WS11 1RU,52.6825,-2.0695
Roadking (Hollies) Truckstop,WS11 1SB,52.6857,-2.0771
Truckers rest ,WS11 1SF,52.68163681030270,-2.06438398361206
Caffe Pausa inside Dunelm,WS11 1TD,52.67813300000000,-2.04768600000000
Longford McDonald's Restaurant,WS11 1TD,52.67823028564450,-2.04782795906067
Mcdonalds,WS11 1TD,52.67823028564450,-2.04782795906067
Pizza Hut,WS11 1TD,52.67813300000000,-2.04768600000000
Holy Smoke Bar & Grill Ltd,WS11 1UE,52.6904,-2.0320
Indulge ,WS11 5DB,52.70286350000000,-2.01510840000000
BakeAway ,WS11 5DD,52.70222910000000,-2.01675680000000
Chadsmoor Balti limited,WS11 5DD,52.7028,-2.0156
Dilshad Restaurant,WS11 5DZ,52.70244598388670,-2.01553606987000
Garam masala ,WS11 5QJ,52.69982020000000,-2.02117200000000
Snack Shack Midlands LTD ,WS11 7GA,52.69749920000000,-2.00820020000000
Hednesford McDonald's Restaurant,WS11 7GF,52.69386291503910,-2.00884509086609
McDonalds,WS11 7GF,52.69386291503910,-2.00884509086609
Burger King,WS11 8AB,52.67365750000000,-2.02100680000000
Costa Coffee,WS11 8XR,52.67450714111330,-2.02266693115234
Leon @ Roadchef,WS11 9UH,52.66576004028320,-1.97178304195404
McDonalds @ Roadchef,WS11 9UX,52.66504669189450,-1.96782004833221
The Rag ,WS12 0QD,52.70347213745120,-1.94762194156647
Bellas Coffee House,WS12 1AD,52.70912440000000,-1.99926790000000
Jaipur balti lounge ltd ,WS12 1AD,52.70914459228520,-1.99961400032043
Jaipur lounge ltd,WS12 1AD,52.70914459228520,-1.99961400032043
Subway,WS12 1AD,52.70975180000000,-2.00045590000000
India red ,WS12 1AG,52.70875080000000,-1.99825180000000
The Shiny Fork,WS12 1AG,52.70907450000000,-1.99872550000000
HEN HOUSE,WS12 1AR,52.70759963989260,-1.99995398521423
HEN HOUSE SPORTS BAR,WS12 1AY,52.70816802978520,-1.99817800521851
spice of hednesford,WS12 1AY,52.70795970000000,-1.99786700000000
Costa Coffee,WS12 1BT,52.7095,-1.9978
Costa Coffee,WS12 1DN,52.70885100000000,-2.00047500000000
Hednesford Bingo,WS12 1DU,52.70914380000000,-1.99669440000000
Pizza Hut,WS12 1DU,52.70914380000000,-1.99669440000000
The Trafalgar,WS12 1HZ,52.70594460000000,-1.97799500000000
KFC,WS12 1LT,52.6999,-2.0056
KFC,WS12 1NA,52.70168304443360,-2.00066399574280
Olive Grove ,WS12 2DN,52.70047780000000,-1.99710630000000
BakeAway,WS12 3HN,52.68966480000000,-1.98244600000000
FIVE WAYS INN,WS12 3HU,52.6876,-1.9790
Panshi,WS12 3XP,52.69213190000000,-1.99938180000000
The Winding Wheel ,WS12 3XP,52.69197463989260,-1.99959695339203
SUNNY SIDE UP CAFE,WS12 3XR,52.68870230000000,-1.98159160000000
Blue Ginger ,WS12 4NU,52.70886230468750,-2.03987097740173
The Barns,WS12 4PB,52.71335983276370,-2.04844594001770
fallow forest,WS12 4PS,52.73523100000000,-2.02647700000000
Springslade Lodge Limited,WS12 4PT,52.73931121826170,-2.02231788635254
The olde nook,WS13 6AA,52.68444770000000,-1.82800390000000
Minster Coffee Shop,WS13 6AE,52.68429170000000,-1.82807360000000
The Causeway,WS13 6AE,52.68437280000000,-1.82819160000000
Bistro 1709,WS13 6DP,52.68417070000000,-1.82521910000000
Duke of York ,WS13 6DY,52.68386077880860,-1.82270598411560
Costa Coffee @ Tesco,WS13 6DZ,52.68431091308590,-1.82162404060364
55 Wade Street,WS13 6HL,52.68218612670900,-1.82756400108337
Hindleys Bakery and Cafe,WS13 6JJ,52.68354280000000,-1.82612390000000
The Pig,WS13 6JJ,52.68370410000000,-1.82581270000000
McDonald's,WS13 6JR,52.68393030000000,-1.82677330000000
McDonalds,WS13 6JR,52.68393030000000,-1.82677330000000
Tasty the Cafe Limited,WS13 6JR,52.68390350000000,-1.82692130000000
McKenzies in the City,WS13 6JU,52.68365097045900,-1.82695198059082
Margheri Pizzeria ,WS13 6JW,52.68408920000000,-1.82479040000000
Pizza by Goli  Lichfield,WS13 6JW,52.68405160000000,-1.82369590000000
Subway Restaurant,WS13 6JX,52.68314250000000,-1.82906920000000
Birds Bakery,WS13 6LA,52.68374350000000,-1.82813490000000
Boomers,WS13 6LG,52.68339250000000,-1.82788480000000
The Hub at St Mary's,WS13 6LG,52.68339157104490,-1.82788503170013
Angel Inn ,WS13 6LH,52.68255850000000,-1.82930820000000
Scales Inn,WS13 6LH,52.68311470000000,-1.82852200000000
The Bureau,WS13 6LH,52.68336580000000,-1.82804770000000
The Daily Grind Cafe Bar,WS13 6LH,52.68250490000000,-1.82953020000000
THE TUDOR OF LICHFIELD,WS13 6LL,52.68287940000000,-1.82739870000000
Bengal tandoori Lichfild limited,WS13 6LU,52.6831,-1.8270
City Corner Cafe,WS13 6LZ,52.68267410000000,-1.82839060000000
Caffe Nero,WS13 6NB,52.68332870000000,-1.82726380000000
LGF Play Cafes Ltd,WS13 6NF,52.6830,-1.8261
Costa Coffee,WS13 6NG,52.68274950000000,-1.82467750000000
Ruby Cantonese Restaurant,WS13 6NU,52.68134330000000,-1.82817390000000
Damn Fine Cafe ,WS13 6PR,52.68299120000000,-1.83013480000000
George Hotel (Lichfield) Limited,WS13 6PR,52.68313598632810,-1.83035600185394
POM'S KITCHEN AND DELI LIMITED,WS13 6PR,52.68307230000000,-1.83025290000000
Qmin restaurant ,WS13 6PR,52.68330660000000,-1.83065140000000
Sorriso ,WS13 6PR,52.68323450000000,-1.83051850000000
ASK Italian,WS13 6PW,52.68268585205080,-1.83028399944305
Brewhouse and Kitchen Lichfield,WS13 6PW,52.6827,-1.8303
EASTERN EYE,WS13 6PW,52.68281830000000,-1.83043020000000
EGO Mediterranean Restaurant Lichfield,WS13 6PW,52.68240640000000,-1.82976730000000
Lal Bagh,WS13 6PW,52.68268585205080,-1.83028399944305
Siam Corner Ma Ma Thai,WS13 6PW,52.68277570000000,-1.83032800000000
Thai Rainbow Restaurant,WS13 6PW,52.68268580000000,-1.83028390000000
The Winehouse,WS13 6PW,52.6827,-1.8303
Horse & jockey,WS13 6QA,52.68250710000000,-1.83105380000000
THE FEATHERS INN,WS13 7BA,52.68806260000000,-1.83742350000000
The malt shovel inn ,WS13 8DD,52.69779205322270,-1.89744997024536
Atalian Servest Food Company @ Streethay Primary School,WS13 8FT,52.69281140000000,-1.79244740000000
Lichfield Golf & Country Club Ltd,WS13 8HE,52.71378326416020,-1.84517395496368
The Potting Shed Restaurant,WS13 8JA,52.69602966308590,-1.85250198841095
THE THREE TUNS,WS13 8JL,52.67510223388670,-1.85490894317627
Screwfix Lichfield,WS13 8LQ,52.7060,-1.7912
THE PLOUGH,WS13 8PY,52.68275451660160,-1.77351105213165
Elior UK Plc @ Tesco Distribution Centre,WS13 8SS,52.71153640747070,-1.78134095668793
Bilash Restaurant &takeaway limited ,WS13 8ST,52.71227645874020,-1.77818500995636
cafe no8,WS13 8ST,52.7122,-1.7782
The Trooper,WS14 0AN,52.65640640258790,-1.85721695423126
The Plough at Shenstone,WS14 0JN,52.64023280000000,-1.84086660000000
shenstone country club,WS14 0JR,52.63805007934570,-1.83505201339722
Prego Cafe,WS14 0LB,52.6246,-1.8377
The Lodge Restaurant,WS14 0LQ,52.62013626098630,-1.83711397647858
Railway,WS14 0LZ,52.64003580000000,-1.84142890000000
The Old School House Restaurant Ltd,WS14 0PW,52.63259124755860,-1.79334700107574
Costa Coffee Drive Thru,WS14 0QP,52.65264892578130,-1.83480501174927
McDonald's,WS14 0QP,52.65264892578130,-1.83480501174927
McDonalds,WS14 0QP,52.65264892578130,-1.83480501174927
Atalian Servest Food Company @ Saxon Hill Academy,WS14 9DE,52.67554092407230,-1.82016599178314
Swingers Golf Shop Limited,WS14 9JG,52.67578506469730,-1.79743301868439
The Bell Inn Public House (Whittington) Ltd,WS14 9JR,52.67357910000000,-1.76208210000000
Thedoginn,WS14 9JU,52.67192790000000,-1.76352550000000
Whittington Heath Golf Club,WS14 9PW,52.66201400756840,-1.78262197971344
The Owl at Lichfield,WS14 9QH,52.66833114624020,-1.81958901882172
PEAR TREE CREPERIE LTD,WS14 9QR,52.65000915527340,-1.80845999717712
THE BARN AT SWINFEN,WS14 9QR,52.64989460000000,-1.80874140000000
turnpike,WS14 9XU,52.67987880000000,-1.80537150000000
THE RED LION,WS15 1EB,52.74250793457030,-1.91963899135590
McDonald's,WS15 1LX,52.75715600000000,-1.92659600000000
Mcdonalds,WS15 1LX,52.75715600000000,-1.92659600000000
Towers cafe ,WS15 1UL,52.74900410000000,-1.91335060000000
Burger King,WS15 2AS,52.75876235961910,-1.93794000148773
The Vine Inn Kitchen ,WS15 2AT,52.76057900000000,-1.93989700000000
Must Bangladeshi and Indian cuisine ,WS15 2BJ,52.76073270000000,-1.93549720000000
The Bilash of Rugeley,WS15 2BT,52.76068490000000,-1.93614380000000
Costa Coffee,WS15 2DF,52.76025310000000,-1.93572950000000
Terrazza Restaurant ,WS15 2EH,52.75889480000000,-1.93407190000000
Red Peppers Indian Cuisine,WS15 2EJ,52.75828460000000,-1.93602870000000
SILSILA INDIAN RESTAURANT & TAKEAWAY,WS15 2EJ,52.7575,-1.9348
The Antlers Steakhouse and Carvery ,WS15 2EJ,52.75638650000000,-1.93369030000000
THE RUGELEY SPICE,WS15 2JH,52.76108060000000,-1.93464430000000
THE GOATS HEAD,WS15 3BP,52.8183,-1.8822
the crown,WS15 3BS,52.81882476806640,-1.88172304630280
INFINITII,WS15 3DB,52.81961800000000,-1.88473600000000
The Bagot Arms,WS15 3DB,52.81960678100590,-1.88464403152466
Ye Olde Dun Cow,WS15 3LG,52.78643990000000,-1.92127980000000
The Shoulder of Mutton Inn,WS15 3RZ,52.76839065551760,-1.84055101871490
The hatch cafe,WS15 4AE,52.74184640000000,-1.88194310000000
The Olde Peculiar,WS15 4DP,52.74257659912110,-1.86729204654694
Ye Olde windmill Inn ,WS15 4NF,52.70297241210940,-1.92385399341583
The Swan with two necks,WS15 4PN,52.72863200000000,-1.88233380000000
The Park Gate,WS15 4RN,52.71102480000000,-1.93426210000000
KFC,WS2 7BU,52.60627800000000,-2.00085600000000
TNS Catering_TJX Europe,WS2 7PT,52.60035400000000,-1.99489200000000
Full Flavourz ,WS3 1EG,52.6116,-1.9797
Burger King,WS3 2BB,52.60953260000000,-1.99611030000000
Zeera Authentic Eastern cuisine ,WS3 2HR,52.61614000000000,-2.00590800000000
The Gulshan balti,WS3 2JE,52.6169,-2.0051
Penguin cafe,WS3 2XA,52.60481300000000,-1.99199700000000
The Vintage Tea Room,WS3 2XD,52.60632300000000,-1.99317800000000
Subway,WS3 3HE,52.61515100000000,-2.00302800000000
Ashoca,WS3 3JT,52.61456700000000,-2.00394400000000
Delicious-The Finest Indian Cuisine,WS3 3LQ,52.61720100000000,-2.00416600000000
Mirchi catering ltd,WS3 3UB,52.62963300000000,-2.01320900000000
one man and his dog ,WS3 3UB,52.62963300000000,-2.01320900000000
The Reading Rooms,WS3 4LX,52.6298,-1.9683
The fingerpost pub ,WS3 5AU,52.63818800000000,-1.96845100000000
McDonalds Restaurant,WS4 1EA,52.60495100000000,-1.96323300000000
McDonald's,WS4 1JW,52.6065,-1.9610
NEW IVY HOUSE,WS6 6AZ,52.63676960000000,-2.01067870000000
The New Masons Bar And Grill,WS6 6AZ,52.63676960000000,-2.01067870000000
Olde Wyrley hall,WS6 6LL,52.66461860000000,-2.02081370000000
Jessicas Catering and Vending Solutions Ltd,WS6 6NQ,52.6642,-2.0121
the star inn,WS6 6NQ,52.66271410000000,-2.01078830000000
The Royal Oak,WS6 6PE,52.66578830000000,-2.01359850000000
Hawa Restaurant ,WS6 7AD,52.6600,-2.0342
colliers arms,WS6 7AE,52.66011810302730,-2.03710389137268
the malt at landywood,WS6 7AR,52.64986419677730,-2.02460598945618
THE MARY ROSE,WS6 7AY,52.65612030029300,-2.03486895561218
Village Lodge,WS6 7ED,52.66248590000000,-2.03048230000000
Cigno,WS7 0HQ,52.6767,-1.9029
BakeAway,WS7 1JR,52.68197070000000,-1.93459950000000
Costa Coffee,WS7 1JS,52.68158400000000,-1.93433390000000
The Hazelwood House Club,WS7 1LY,52.68653270000000,-1.94055910000000
Bradshaw Bros Ltd,WS7 1YL,52.6926,-1.9426
The Wych Elm,WS7 2BU,52.68144607543950,-1.93082904815674
Bridge Cross Ltd T/A Khan’s Kitchen ,WS7 2BX,52.68132400512700,-1.93275201320648
The Bakery Chase Park,WS7 3JQ,52.68017700000000,-1.94288540000000
McDonald's,WS7 3XA,52.68050384521480,-1.93517899513245
McDonalds,WS7 3XA,52.68050384521480,-1.93517899513245
The Bakery Chasetown,WS7 3XE,52.67147064208980,-1.93431997299194
Freedom Leisure @ Burntwood Leisure Centre Cafe,WS7 3XH,52.67687140000000,-1.93083560000000
The Miners Rest,WS7 4QS,52.66900790000000,-1.93182170000000
THE DRILL INN,WS7 9HD,52.68911130000000,-1.91106590000000
The Little Burntwood Pub Company Ltd T.A The Nelson Inn,WS7 9HL,52.69147109985350,-1.89314401149750
Silver Court Cafe,WS8 6HA,52.64443700000000,-1.92977000000000
Open House Tandoori Restaurant ,WS8 6HG,52.64548550000000,-1.93035430000000
Costa Coffee,WS8 6HH,52.64693800000000,-1.93244100000000
Subway,WS8 6HL,52.64602900000000,-1.93105300000000
Hoofbeats,WS8 6JR,52.6557,-1.9210
Grasmere Garden Centre,WS8 6LL,52.65219116210940,-1.91103804111481
Bean and Baked,WS8 7JW,52.65026800000000,-1.93843700000000
Thai Lanna - Chasewater,WS8 7LT,52.65845300000000,-1.94902600000000
Fairlawns Restaurant 178,WS9 0NU,52.6028,-1.8984
Shimla Tandoori,WS9 8HB,52.61660500000000,-1.91616700000000
Druids Heath Golf Club Ltd,WS9 8JZ,52.61343383789060,-1.90899503231049
Afrikana,WS9 8LX,52.60498220000000,-1.91621920000000
Balti Nights,WS9 8LX,52.60484700000000,-1.91618900000000
Subway,WS9 8LX,52.60484700000000,-1.91618900000000
Sweet. Aldridge,WS9 8LX,52.60500900000000,-1.91717700000000
Simply Delicious ,WS9 8LZ,52.60517900000000,-1.91545000000000
khimuk,WS9 8NL,52.60476500000000,-1.91496300000000
AURA,WS9 8PT,52.60411200000000,-1.91932100000000
Aura ,WS9 8PT,52.60411200000000,-1.91932100000000
Faz Spice LTD,WS9 8PT,52.6037,-1.9194
Oriental Leisure Ltd,WS9 8PT,52.6037,-1.9194
The Avion (Wetherspoon),WS9 8PT,52.60411200000000,-1.91932100000000
 Jabin - Laboni Restaurants Ltd,WS9 8QP,52.60428100000000,-1.91766700000000
Cafe in the Square,WS9 8QP,52.60428100000000,-1.91766600000000
Costa Coffee,WS9 8QP,52.60428100000000,-1.91766600000000
Davinci Restaurant Limited,WS9 8QP,52.6043,-1.9177
Anchor Brook Cafe,WS9 8UF,52.60587600000000,-1.93731700000000
HORSE & JOCKEY,WS9 9AJ,52.62250700000000,-1.93878600000000
Massala Club,WS9 9DY,52.63219420000000,-1.89658390000000
KFC,WS9 9EQ,52.6404,-1.8993
ABU SPICE LIMITED,WS9 9JD,52.62963600000000,-1.92391300000000
Kelly’s kitchen,WS9 9JD,52.62961000000000,-1.92389800000000
BOATMANS BAR AND GRILL LTD,WS9 9LP,52.62632500000000,-1.93257600000000
DODO Pizza,WS9 9NP,52.62936100000000,-1.92806500000000
KFC,WS9 9NP,52.62936100000000,-1.92806500000000
Royal Exchange,WS9 9NP,52.62982700000000,-1.92775300000000
The Dog and Partridge,WV10 7DW,52.67666625976560,-2.09213900566101
Northycote Farm Tearoom ,WV10 7JF,52.62662900000000,-2.10571800000000
The Elms,WV10 7JR,52.65461360000000,-2.08128530000000
THE WHEATSHEAF INN,WV10 7LU,52.66044998168950,-2.06049394607544
Hollybush Coffee Shop LTD,WV10 7LX,52.65503360000000,-2.05446950000000
K-Tea's Tearoom & Cakes,WV10 8EB,52.62244796752930,-2.11507296562195
McDonalds,WV10 8PN,52.61172800000000,-2.10057200000000
McDonald’s Fallings Park,WV10 8PN,52.61172800000000,-2.10057200000000
SUBWAY,WV10 8PN,52.61172800000000,-2.10057200000000
Mcbellas,WV10 9EZ,52.61897800000000,-2.12389600000000
THE DINER LTD,WV10 9QY,52.60494500000000,-2.10597600000000
Buzz Bingo,WV10 9TU,52.61123657226560,-2.12277698516846
Hungry hemmings cafe ,WV10 9UL,52.61668395996090,-2.11740589141846
Qmin Restaurant ,WV11 1JP,52.61030100000000,-2.08535800000000
the castle inn,WV11 1NW,52.60636800000000,-2.08034400000000
Masala lounge ,WV11 1TW,52.60273600000000,-2.08008600000000
The Baburchi Restaurant ,WV11 1YD,52.61396000000000,-2.08549800000000
Burger King North,WV11 2AT,52.64257370000000,-2.05482350000000
Burger King South,WV11 2AT,52.64257370000000,-2.05482350000000
Costa Coffee,WV11 2AT,52.64343640000000,-2.05537130000000
Costa Coffee-Northbound,WV11 2AT,52.64257370000000,-2.05482350000000
Ashma cafe,WV11 2JW,52.61440658569340,-2.06163191795349
The 1911 Café Ltd,WV11 2RF,52.63108340000000,-2.05758680000000
BST MIDLANDS LTD,WV11 2RH,52.6356,-2.0347
Evies kitchen ,WV11 3DD,52.60789871215820,-2.07429289817810
Buzz Bingo,WV11 3HD,52.60795974731450,-2.06175589561462
JIN'S PANTRY ,WV11 3TT,52.61182210000000,-2.08277140000000
Chilli Peppers,WV12 5BB,52.61100100000000,-2.03907600000000
TAMARIS INDIAN RESTAURANT ,WV12 5BE,52.61280900000000,-2.03609500000000
The Milestone,WV12 5DT,52.61513400000000,-2.04328900000000
