name,postcode,lat,lon
KFC,PE1 4BF,52.6001,-0.2099
INFLATA NATION,PE1 4YZ,52.6002,-0.2152
Amici Restaurant,PE11 1AN,52.7859,-0.1514
Gurkhaoven Spalding ,PE11 1BE,52.7876,-0.1538
The Loft,PE11 1BT,52.7880,-0.1537
The Ivy Wall Spalding (Wetherspoon),PE11 1DQ,52.7886,-0.1514
CJ's Diner,PE11 1DY,52.7874,-0.1562
DORIS BISTRO LTD,PE11 1EB,52.7872,-0.1548
Istanbul Spalding Ltd,PE11 1EB,52.7872,-0.1552
UK Lounges Limited t/a Rustic,PE11 1EG,52.7869,-0.1568
Baltic,PE11 1EJ,52.7872,-0.1573
Tulip-tandoori-restaurant ,PE11 1QD,52.7899,-0.1511
Costa Coffee,PE11 1SA,52.7872,-0.1519
Costa Coffee,PE11 1SA,52.7872,-0.1524
PRIME CATERING (PETERBOROUGH) LTD,PE11 1SU,52.7871,-0.1512
St Barnabas Shops Limited Spalding Cafe,PE11 1SU,52.7874,-0.1511
Penningtons,PE11 1SX,52.7876,-0.1516
Katana Japnese cusine,PE11 2AB,52.7883,-0.1470
Regent Bingo Spalding,PE11 2AE,52.7889,-0.1484
Graffiti bar,PE11 2AF,52.7892,-0.1491
Castle Cafe & Bar,PE11 2AJ,52.7901,-0.1458
Crystal Inn,PE11 2RA,52.7858,-0.1494
THE SHIP INN,PE11 3SE,52.8179,-0.1730
Costa Coffee,PE12 6EU,52.7993,-0.1277
Springy's American Diner  Adventureland,PE12 6EU,52.7993,-0.1274
Starbucks,PE12 6EU,52.7993,-0.1274
The Kitchen,PE12 6EU,52.7993,-0.1274
subway,PE12 6EU,52.7993,-0.1274
Unique Cottage Cafe,PE12 6FA,52.7891,-0.1259
Costa Coffee,PE12 6FY,52.7604,-0.1582
McDonald's Spalding ,PE12 6JP,52.8001,-0.1195
McDonald's,PE12 6JP,52.7983,-0.1228
Fun Farm Spalding,PE12 6JU,52.8042,-0.0929
Jak's Diner at Laserstorm,PE12 6JU,52.8041,-0.0931
swan,PE12 6QB,52.7976,-0.0630
Darjeeling Indian restaurant,PE12 6TG,52.8004,-0.0401
Chameli tandoori restaurant,PE12 7AB,52.8030,0.0177
Dragon Pearl,PE12 7AB,52.8030,0.0177
Caffe Aurora,PE12 7ED,52.8034,0.0176
The Pitstop ,PE12 7QH,52.8076,0.0232
ROSE & CROWN (HOLBEACH) LIMITED,PE12 8JN,52.8243,0.0690
Play2Day Guyhirn,PE13 4AA,52.6078,0.0568
Route 47 American Steakhouse and Grill,PE13 4AX,52.6166,-0.0203
The Oliver Twist,PE13 4EA,52.6099,0.0628
Bounce Boundless fun Trampoline park,PE2 6UN,52.6167,-0.2903
Flip Out Peterborough,PE3 8AY,52.6051,-0.2766
Remstone Kitchen ,PE3 8NZ,52.6013,-0.2828
Safari Adventure Play,PE3 8SB,52.6079,-0.2831
McDonald's,PE4 6AB,52.6000,-0.2669
Table Table Paul Pry,PE4 6AH,52.6024,-0.2668
Mancetter Square Cafe,PE4 6BX,52.6068,-0.2754
Honey Bees,PE4 6EU,52.6040,-0.2590
Elior at Queen Katherine Academy,PE4 6HX,52.6050,-0.2659
Elior UK,PE4 6JT,52.6202,-0.2752
RUMBLES FISH BAR ,PE4 6LG,52.6098,-0.2768
The Cock inn Werrington ,PE4 6LW,52.6134,-0.2783
The Banyantree,PE4 6QA,52.6127,-0.2769
 THE CHERRY HOUSE RESTAURANT,PE4 6QF,52.6141,-0.2710
Royal china Restaurant,PE4 6ZN,52.6107,-0.2810
Watering Can,PE4 7AD,52.6161,-0.2473
The Old Copper Kettle Tea Shop,PE6 0EF,52.6773,-0.1697
Ye Olde Abbey,PE6 0EN,52.6760,-0.1672
The 19th Hole Thorney Lakes Ltd,PE6 0TJ,52.6389,-0.0806
Golden Pheasant,PE6 7DA,52.6433,-0.3150
Elior at The Spinney,PE6 7GH,52.6109,-0.1838
MCDONALDS,PE6 7JR,52.6377,-0.2979
McDonald's,PE6 7JR,52.6319,-0.2975
The Blue Bell Glinton,PE6 7LS,52.6384,-0.2933
Ruddy Duck,PE6 7NF,52.6419,-0.2754
the bull ,PE6 7QW,52.6397,-0.2229
MCDONALDS,PE6 7TN,52.6124,-0.1869
McDonald's,PE6 7TN,52.6120,-0.1881
House of Feasts,PE6 7TP,52.6174,-0.1869
Casa Mattoni ltd,PE6 7YB,52.6058,-0.1993
Chester's Restaurant,PE6 8AL,52.6765,-0.3188
Tonino's Pizzeria,PE6 8AN,52.6766,-0.3181
Lilliâ€™s Tearoom ltd,PE6 8DL,52.6753,-0.3158
Deeping Stage,PE6 8EA,52.6755,-0.3168
Linfords Traditional Fish & Chips Ltd,PE6 8EA,52.6755,-0.3168
The Square,PE6 8EA,52.6755,-0.3168
Ironhorse Ranch House,PE6 8EB,52.6745,-0.3149
The River Restaurant,PE6 8EB,52.6745,-0.3149
Godsey Lane Coffee ,PE6 8ED,52.6743,-0.3109
Notty's Coffee and Wine Bar,PE6 8ED,52.6746,-0.3135
Oasis cafe,PE6 8FD,52.6890,-0.3094
Cinnamon ,PE6 8FG,52.6757,-0.3156
Maharanis Restaurant ,PE6 8HA,52.6722,-0.3038
Taj mahal,PE6 8HT,52.6755,-0.3120
THE SPICE MERCHANT ,PE6 8PX,52.6730,-0.2943
The Goat,PE6 8SA,52.6802,-0.2809
The Pack Horse,PE6 9BL,52.6575,-0.3007
