name,postcode,lat,lon
Chestnuts Tearoom & Farm Shop,PE12 0BS,52.79931800000000,0.07601000000000
Darjeeling Indian restaurant,PE12 6TG,52.80042800000000,-0.04006200000000
Chameli tandoori restaurant,PE12 7AB,52.80297600000000,0.01765800000000
Dragon Pearl,PE12 7AB,52.80297600000000,0.01765800000000
Caffe Aurora,PE12 7ED,52.80341800000000,0.01759000000000
The Pitstop ,PE12 7QH,52.8076,0.0232
ROSE & CROWN (HOLBEACH) LIMITED,PE12 8JN,52.82426300000000,0.06902000000000
McDonald's Long Sutton,PE12 9AF,52.77300100000000,0.12974500000000
Benny's Diner (Long Sutton) Limited,PE12 9AG,52.77644100000000,0.13443500000000
Subway Long Sutton,PE12 9AG,52.77643966674800,0.13443499803543
The Granary,PE12 9DD,52.78580390000000,0.12129250000000
Palmers Ale House & Kitchen ,PE12 9JF,52.78488900000000,0.12110200000000
The Anchor,PE12 9SH,52.77349600000000,0.17332700000000
Riverside Bar & Restaurant,PE12 9UA,52.76809700000000,0.19262600000000
Burger King,PE13 1AR,52.66578600000000,0.16172200000000
Costa Coffee,PE13 1AR,52.66578500000000,0.16172200000000
The Rose and Crown Hotel Limited,PE13 1DG,52.66538400000000,0.15960200000000
Loafers coffee shop,PE13 1DP,52.66516200000000,0.16144000000000
The Red Lion,PE13 1JR,52.66476000000000,0.15485400000000
Moja,PE13 1NP,52.66667600000000,0.15826100000000
Elm Road Primary School - Elior UK,PE13 2TB,52.65884000000000,0.16589000000000
Alishan (Wisbech) Ltd,PE13 3BN,52.66808100000000,0.16062300000000
The Black Bear Public House,PE13 3SB,52.6747,0.1770
Play2Day Guyhirn,PE13 4AA,52.6078,0.0568
Route 47 American Steakhouse and Grill,PE13 4AX,52.61662900000000,-0.02028800000000
The Oliver Twist,PE13 4EA,52.60990600000000,0.06281400000000
Woodman's Cottage Inn,PE13 4NB,52.68668360000000,0.09763580000000
Mehmaan Restaurant,PE13 5QD,52.73900400000000,0.14724100000000
The Sportsman Pub,PE14 0AG,52.63797100000000,0.17127200000000
The Elm Tree Inn,PE14 0DD,52.64657211303710,0.17357599735260
MCDONALDS,PE14 0RD,52.6577,0.1506
KFC,PE14 0RG,52.65422300000000,0.14639600000000
Prezzo,PE14 0RG,52.65422200000000,0.14639600000000
Dunelm Mill Coffee Shop,PE14 0SL,52.65319300000000,0.14714300000000
KFC Wisbech Retail Park,PE14 0SL,52.6526,0.1477
McDonalds Restaurant Limited,PE14 0SL,52.65319300000000,0.14714400000000
Costa Coffee,PE14 0SW,52.65442730000000,0.14977080000000
Starbucks,PE14 7BD,52.67110200000000,0.20887300000000
Waterfall Elior,PE14 7QQ,52.69950866699220,0.24279400706291
The Woolpack,PE14 7RR,52.70547866821290,0.27522298693657
The Barn Rest Ltd,PE14 7SE,52.70408248901370,0.27312201261520
Waterfall Elior,PE14 7SG,52.69869995117190,0.27386400103569
Crown Lodge Hotel,PE14 8SE,52.60925674438480,0.23962700366974
The Partridge,PE34 4AG,52.7582,0.3461
Waterfall Elior,PE34 4QZ,52.69464874267580,0.28670600056648
Coach and horses,PE34 4RU,52.72037506103520,0.29967600107193
