name,postcode,lat,lon
Masked owl and chuckwalla,TR12 6NR,50.049606296329200,-5.087695372529050
tokay and coral snake,TR12 6PD,50.048975523094100,-5.084693063562320
sand lizard and Macaw,TR12 6RA,50.047992968771000,-5.092872595757600
tree snake and terrapin,TR12 6RG,50.043530115111200,-5.118428561423110
Grosbeak and rat snake,TR12 6SL,50.011363000000000,-5.155948000000000
Jerboa and Boto,TR12 6TA,50.022928922326400,-5.096958336136560
tortoise and bearded lizard,TR12 7AR,49.978224274339500,-5.196801152123310
Macaw and Vole,TR12 7BP,50.046198000000000,-5.249977000000000
Buzzard and horned viper,TR12 7DG,50.026711942000900,-5.243828721837010
Guillemot and Minke whale,TR12 7DN,50.026201000000000,-5.229299000000000
iguana and coral snake,TR12 7DR,50.021333566731500,-5.235409448119650
Black cockatoo and Linsang,TR12 7EQ,50.023090971940900,-5.248806985220870
Snipe and rat snake,TR12 7HH,50.027290866455700,-5.242429381594820
flying lizard and Towhee,TR12 7HN,50.027245981752100,-5.243243000000000
green turtle and turtle,TR12 7JH,50.029913267888700,-5.244086000000000
rock python and Herring gull,TR12 7NR,49.964566672796800,-5.206941204002880
diamondback terrapin and milk snake,TR12 7NZ,49.970126610135100,-5.204005347443000
sand lizard and green turtle,TR12 7PH,49.970428625270900,-5.191430199850320
copperhead and Peafowl,TR12 7RT,49.970821642436400,-5.202178000000000
