name,postcode,lat,lon
Royal Hotel Restaurant,PA34 4BE,56.412258282630800,-5.471946000000000
THE OLIVE GARDEN,PA34 4LW,56.412211762273000,-5.475395000000000
The Barn Bar and Restaurant,PA34 4SE,56.366695707997800,-5.488544000000000
Muthu Alexandra Hotel,PA34 5AA,56.419143104381400,-5.477912988872990
Oban Bay Hotel & Spa,PA34 5AE,56.419886488799200,-5.479294825688150
Lorne Oban Ltd,PA34 5NA,56.412750881722700,-5.470858071486910
julies coffee house,PA34 5NH,56.415144481512300,-5.472065638411540
THE OBAN INN,PA34 5NJ,56.415052239624500,-5.473111470083950
Coast Oban Limited,PA34 5NT,56.416272382191400,-5.472882162235860
The Scot Restaurant,PA34 5NX,56.417149842739500,-5.473010864271350
MARKIEDANS BAR,PA34 5PN,56.418323620777000,-5.474756218700560
Columba Hotel,PA34 5QD,56.414817000000000,-5.474760000000000
Eeusk,PA34 5QD,56.414817000000000,-5.474760000000000
Piazza,PA34 5QD,56.414817000000000,-5.474760000000000
Baab,PA34 5RT,56.412916000000000,-5.472337521126140
Brew & Co,PA34 5RT,56.412916000000000,-5.472337521126140
The George Street Fish Restaurant,PA34 5RU,56.413168797532400,-5.472307159610840
GELATO BURGER,PA34 5SB,56.413476513129000,-5.472029000000000
Cuan Mor,PA34 5SD,56.414410953834900,-5.472069000000000
Subway,PA34 5SQ,56.412584741329500,-5.471653830939310
Isle of lismore cafe,PA34 5UL,56.532255568357800,-5.472324415361850
The Kilchrenan Inn,PA35 1HD,56.367016000000000,-5.185535000000000
Falls of Lora Hotel,PA37 1PB,56.453351542961200,-5.382055654007100
Oyster Inn ,PA37 1PJ,56.453531366452400,-5.394556363008710
Lochnell Arms Hotel,PA37 1RP,56.458229780616500,-5.396323584454530
Isle of Eriska Hotel Spa & Golf,PA37 1SD,56.523629814888300,-5.417728525895560
Castle Stalker View Caf√©,PA38 4BL,56.571705000000000,-5.378455000000000
Creagan Inn,PA38 4BQ,56.551346918942000,-5.284123221705730
The Pierhouse Hotel ,PA38 4DE,56.554876985747800,-5.405717930614480
Airds Hotel & Restaurant,PA38 4DF,56.554267000000000,-5.407245568172770
