name,postcode,lat,lon
horned toad and python,PH6 2EF,56.371738806808800,-3.984341060841490
Darwin's finches and krait,PH6 2GA,56.367376083067800,-3.984616190094550
python and Gull,PH6 2NB,56.392319891110200,-4.109356423219770
Rat and Fox,PH7 3AL,56.375287000000000,-3.837580000000000
tokay and Piping shrike,PH7 3EA,56.374588000000000,-3.833805000000000
thorny devil and Komodo dragon,PH7 3EE,56.373044714162900,-3.831205115992720
crocodile and adder,PH7 3HE,56.369929342729300,-3.846162444783670
horned viper and Diving bird,PH7 3HW,56.368144482356300,-3.850156230900890
Shearwater and Asiatic leopard,PH7 3JB,56.372034350308800,-3.839965365851050
Macaw and Fox,PH7 3LF,56.369367329106800,-3.833781229983380
Bronzewing pigeon and Stilt,PH7 3QB,56.372949857587000,-3.827281888919250
hoop snake and Bunting,PH7 3QF,56.372230384375100,-3.826713089292960
Zebra and B,PH7 3QH,56.373929009283600,-3.815181000000000
boomslang and bushmaster,PH7 3TA,56.366523064955600,-3.849818605689790
Greenbul and garter snake,PH7 4AA,56.376475747185400,-3.839807032803880
gaboon viper and Elephant,PH7 4AX,56.374086499877000,-3.843367754947100
gaboon viper and River dolphin,PH7 4DP,56.373959070796500,-3.845288609568320
hawksbill and Partridge,PH7 4ED,56.377692641388400,-3.848793000000000
skink and cobra,PH7 4EW,56.374563880513100,-3.848119349511730
Warbler and Grouse,PH7 4JH,56.372046784743300,-3.852401845119610
Thrasher and Argus,PH7 4JT,56.379325903143400,-3.915044161309340
bandy-bandy and Macaw,PH8 0EH,56.476903525922800,-3.918625437632180
