name,postcode,lat,lon
Old World vulture and Jerboa,HS1 2EB,58.213086073596200,-6.387496038133150
Thrasher and Thicketbird,HS1 2EY,58.218645853276300,-6.385609714376600
Chicken and blue tongue,HS1 2JG,58.210765125135100,-6.386262000000000
racer and Coati,HS1 2LA,58.214099730496000,-6.384434593295430
blue racer and garter snake,HS1 2LH,58.214258693153700,-6.381642403407050
Tree warbler and bandy-bandy,HS1 2NG,58.209085732088000,-6.381958207054070
glass snake and rat snake,HS1 2PP,58.213614003166000,-6.371082635556990
Perching duck and fer-de-lance,HS1 2PZ,58.210078057030200,-6.379252148412880
Mole and Nukupu ªu,HS1 2RN,58.205335000000000,-6.374902000000000
Thrasher and River dolphin,HS1 2RT,58.203131000000000,-6.373608000000000
rock python and Triller,HS1 2XD,58.208416155463100,-6.387438000000000
amethystine python and Rabbit,HS1 2YA,58.222115000000000,-6.383055000000000
Badger and Peafowl,HS1 2YB,58.221971000000000,-6.383839000000000
blue tongue and Kite,HS2 0BA,58.203481988077700,-6.340293000000000
Scimitar babbler and amphisbaena,HS2 0JP,58.274415526483100,-6.309063000000000
Ibex and gopher snake,HS2 0NA,58.281951608634500,-6.282521976177470
viper and lizard,HS2 0NB,58.296981297248700,-6.280157000000000
massasauga and glass snake,HS2 0NP,58.337600000000000,-6.206657000000000
Pheasant and harlequin snake,HS2 0PD,58.208344074415000,-6.259517674252980
Vole and massasauga,HS2 0PR,58.216208380567100,-6.242653408529270
