id,postcode,lat,lon
PPL,EASTABERTHAW,51.3910,-3.3883
PPL,EASTACTON,51.5114,-0.2513
PPL,EASTALLINGTON,50.3241,-3.7283
ADM4,EASTANDWESTBUCKLAND,51.0698,-3.9050
ADM3,EASTANDWESTNEWBIGGIN,54.5633,-1.4408
ADMD,EASTANDWESTRIDINGS,54.0000,-1.0667
PPL,EASTANSTEY,51.0233,-3.6153
PPL,EASTARDSLEY,53.7217,-1.5446
ADM2,EASTAYRSHIRE,55.5000,-4.2500
PPL,EASTAYTON,54.2548,-0.4748
PPL,EASTBARCLOY,54.8667,-3.7500
PPL,EASTBARKWITH,53.3167,-0.2500
PPL,EASTBARMING,51.2500,0.4667
PPLX,EASTBARNET,51.6467,-0.1610
PPL,EASTBARSHAM,52.8691,0.8479
ADM4,EASTBECKHAM,52.9148,1.2044
PPL,EASTBEDFONT,51.4531,-0.4378
ADM3,EASTBEDLINGTON,55.1400,-1.5435
PPL,EASTBERGHOLT,51.9778,1.0176
PPL,EASTBOLDON,54.9445,-1.4282
PPL,EASTBOLDRE,50.8000,-1.4733
PPL,EASTBOURNE,50.7687,0.2845
ADM3,EASTBOURNEDISTRICT,50.7727,0.2763
PPL,EASTBRENT,51.2636,-2.9350
PPL,EASTBRIDGFORD,52.9795,-0.9656
PPLX,EASTBROOK,51.5536,0.1736
PPL,EASTBUCKLAND,51.0656,-3.8928
PPL,EASTBUDLEIGH,50.6526,-3.3195
PPL,EASTBURY,51.4912,-1.4992
PPL,EASTBUTTERWICK,53.5437,-0.7370
PPL,EASTCALDER,55.8919,-3.4637
ADM3,EASTCAMBRIDGESHIRE,52.3167,0.3000
PPL,EASTCANISBAY,58.6333,-3.1167
PPL,EASTCARLETON,52.5718,1.2119
PPL,EASTCARLTON,52.4956,-0.7763
PPL,EASTCHALLOW,51.5889,-1.4514
ADM4,EASTCHELBOROUGH,50.8516,-2.6379
PPLA3,EASTCHEVINGTON,55.2833,-1.5833
PPL,EASTCHILTINGTON,50.9195,-0.0526
PPL,EASTCHINNOCK,50.9159,-2.7184
PPL,EASTCHURCH,51.4067,0.8577
PPL,EASTCLANDON,51.2535,-0.4832
PPL,EASTCLAYDON,51.9241,-0.9291
PPL,EASTCLIFF,50.2890,-5.2401
ADM4,EASTCOKER,50.9150,-2.6537
PPLX,EASTCOTE,51.5765,-0.3974
PPLX,EASTCOTEANDEASTRUISLIP,51.5832,-0.4123
PPL,EASTCOTTINGWITH,53.8754,-0.9307
ADM3,EASTCOTTS,52.0966,-0.4168
PPL,EASTCOWES,50.7577,-1.2881
PPL,EASTCOWTON,54.4237,-1.5270
PPL,EASTCRANMORE,51.1931,-2.4561
PPL,EASTCROACHY,57.3167,-4.2333
PPL,EASTDARLOCHAN,55.4442,-5.6751
PPL,EASTDEAN,51.0398,-1.6094
ADM4,EASTDEANANDFRISTON,50.7585,0.1945
PPL,EASTDEREHAM,52.6833,0.9333
ADM3,EASTDEVONDISTRICT,50.7563,-3.2349
ADM4,EASTDONYLAND,51.8528,0.9350
ADM3,EASTDORSETDISTRICT,50.8669,-1.9760
PPL,EASTDOWN,51.1667,-4.0000
ADM4,EASTDRAYTON,53.2684,-0.8386
PPLX,EASTDULWICH,51.4548,-0.0730
ADM2,EASTDUNBARTONSHIRE,55.9333,-4.2000
PPL,EASTDUNDRY,51.3975,-2.6194
PPL,EASTERBOHESPIE,56.7000,-4.0333
PPL,EASTERCLYNEKIRKTON,58.0333,-3.8667
PPL,EASTERCOMPTON,51.5394,-2.6185
PPL,EASTERELCHIES,57.4833,-3.2000
PPL,EASTERFEARN,57.8333,-4.2833
PPL,EASTERGATE,50.8399,-0.6576
PPL,EASTERGAULRIG,57.2167,-3.3833
ADMD,EASTERN,52.1667,1.0000
PPL,EASTERQUARFF,60.1017,-1.2351
PPL,EASTERRARICHIE,57.7500,-3.9333
ADM3,EASTERTON,51.2861,-1.9450
PPL,EASTERURRAY,57.5500,-4.4833
PPL,EASTFARLEIGH,51.2520,0.4836
PPL,EASTFARNDON,52.4626,-0.9423
PPL,EASTFERRY,53.4872,-0.7732
ADM4,EASTFIELD,54.2454,-0.4003
PPLX,EASTFINCHLEY,51.5895,-0.1641
PPL,EASTFORTUNE,56.0047,-2.7249
PPL,EASTFREUGH,54.8500,-4.9500
PPL,EASTGARSTON,51.4892,-1.4792
ADM3,EASTGARTON,53.7966,-0.0825
PPL,EASTGATE,54.7450,-2.0766
PPL,EASTGORDON,55.6833,-2.5333
PPL,EASTGOSCOTE,52.7142,-1.0517
PPL,EASTGRIMSTEAD,51.0506,-1.6785
PPL,EASTGRINSTEAD,51.1238,-0.0061
PPL,EASTGULDEFORD,50.9577,0.7560
PPL,EASTHADDON,52.3072,-1.0236
PPL,EASTHAGBOURNE,51.5911,-1.2409
PPL,EASTHALTON,53.6628,-0.2796
PPLA3,EASTHAM,51.5333,0.0500
PPLX,EASTHAMCENTRAL,51.5326,0.0518
PPLX,EASTHAMNORTH,51.5425,0.0512
ADM3,EASTHAMPSHIREDISTRICT,51.0395,-0.9368
PPL,EASTHAMPSTEAD,51.4007,-0.7635
PPLX,EASTHAMSOUTH,51.5248,0.0588
PPL,EASTHANNEY,51.6344,-1.3952
PPL,EASTHANNINGFIELD,51.6828,0.5590
PPL,EASTHARDWICK,53.6607,-1.3038
PPL,EASTHARLING,52.4384,0.9335
PPL,EASTHARLSEY,54.3919,-1.3481
PPLA3,EASTHARPTREE,51.3011,-2.6217
PPL,EASTHARTING,50.9689,-0.8671
PPL,EASTHATLEY,52.1397,-0.1187
PPL,EASTHAUXWELL,54.3390,-1.7431
PPL,EASTHAVEN,56.5167,-2.6667
PPL,EASTHENDRED,51.5971,-1.3398
ADM3,EASTHERTFORDSHIREDISTRICT,51.8652,0.0076
PPL,EASTHESLERTON,54.1784,-0.5824
PPL,EASTHOATHLY,50.9246,0.1631
ADM4,EASTHOATHLYWITHHALLAND,50.9322,0.1502
ADM4,EASTHOLME,50.6662,-2.1387
PPL,EASTHOPE,52.5533,-2.6407
PPL,EASTHORNDON,51.5692,0.3436
PPL,EASTHORRINGTON,51.2183,-2.6009
PPL,EASTHORSLEY,51.2736,-0.4321
PPL,EASTHORSLEYVILLAGE,51.2623,-0.4352
PPL,EASTHOWDON,54.9931,-1.4797
PPL,EASTHUNTSPILL,51.2023,-2.9398
PPL,EASTHYDE,51.8431,-0.3643
PPL,EASTILSLEY,51.5273,-1.2909
PPLX,EASTINDIAANDLANSBURY,51.5154,-0.0102
PPL,EASTINGTON,51.7472,-2.3264
PPL,EASTKEAL,53.1554,0.0620
PPL,EASTKENNET,51.4000,-1.8333
ADM3,EASTKENNETT,51.3982,-1.8350
PPL,EASTKESWICK,53.8943,-1.4522
PPL,EASTKILBRIDE,55.7641,-4.1767
PPL,EASTKIRKBY,53.1403,-0.0069
PPL,EASTKNAPTON,54.1700,-0.6514
PPL,EASTKNIGHTON,50.6671,-2.2614
PPL,EASTKNOYLE,51.0744,-2.1705
PPL,EASTLANGTON,52.5267,-0.9300
PPL,EASTLAROCH,56.6667,-5.1333
ADM4,EASTLAVINGTON,50.9514,-0.6610
PPL,EASTLAYTON,54.4838,-1.7485
PPL,EASTLEACH,51.7333,-1.7000
PPL,EASTLEACHMARTIN,51.7457,-1.7123
PPL,EASTLEACHTURVILLE,51.7452,-1.7148
PPL,EASTLEAKE,52.8302,-1.1810
PPL,EASTLEIGH,50.9667,-1.3500
ADM3,EASTLEIGHDISTRICT,50.9226,-1.3275
PPL,EASTLEXHAM,52.7198,0.7487
ADM3,EASTLINDSEYDISTRICT,53.2677,0.0219
PPL,EASTLING,51.2744,0.8125
PPL,EASTLINTON,55.9874,-2.6568
PPLX,EASTLONDON,51.5233,-0.0389
PPL,EASTLOOE,50.4000,-4.4333
ADM2,EASTLOTHIAN,55.9167,-2.7500
PPL,EASTLULWORTH,50.6379,-2.1989
PPL,EASTLUTTON,54.1143,-0.5598
PPL,EASTLYDFORD,51.0792,-2.6092
PPL,EASTLYN,51.2193,-3.8138
PPL,EASTMALLING,51.2852,0.4395
ADM4,EASTMALLINGANDLARKFIELD,51.2965,0.4365
PPL,EASTMARDEN,50.9248,-0.8516
PPL,EASTMARKHAM,53.2522,-0.8939
PPL,EASTMARTON,53.9544,-2.1447
PPL,EASTMEON,50.9955,-1.0319
PPL,EASTMERSEA,51.7972,0.9833
PPL,EASTMOLESEY,51.3987,-0.3492
PPL,EASTMOOR,53.6898,-1.4785
PPLX,EASTNEUK,56.2701,-2.6961
PPLX,EASTNEY,50.7865,-1.0392
PPL,EASTNOR,52.0328,-2.3905
ADM3,EASTNORTHAMPTONSHIREDISTRICT,52.4481,-0.5066
PPL,EASTNORTON,52.5956,-0.8421
PPLA3,EASTOFT,53.6362,-0.7849
PPL,EASTON,50.5333,-2.4500
PPL,EASTONGREY,51.5880,-2.1729
PPL,EASTONINGORDANO,51.4759,-2.6999
ADM4,EASTONMAUDIT,52.2128,-0.6995
ADM4,EASTONNESTON,52.1450,-0.9640
PPL,EASTONONTHEHILL,52.6273,-0.5057
PPL,EASTORCHARD,50.9584,-2.2380
PPL,EASTORD,55.7557,-2.0333
PPL,EASTPARLEY,50.7734,-1.8624
PPL,EASTPECKHAM,51.2123,0.3862
PPL,EASTPENNARD,51.1352,-2.5762
PPLX,EASTPILTON,55.9667,-3.2333
PPL,EASTPORTLEMOUTH,50.2322,-3.7558
PPL,EASTPRAWLE,50.2153,-3.7089
PPL,EASTPRESTON,50.8135,-0.4906
PPL,EASTPUTFORD,50.9237,-4.3238
PPLX,EASTPUTNEY,51.4558,-0.2127
PPL,EASTQUANTOXHEAD,51.1833,-3.2361
PPL,EASTRAINTON,54.8251,-1.4804
PPL,EASTRAVENDALE,53.4796,-0.1368
PPL,EASTRAYNHAM,52.7936,0.7993
ADM2,EASTRENFREWSHIRE,55.7500,-4.3333
ADM2,EASTRIDINGOFYORKSHIRE,53.9167,-0.5000
PPL,EASTRIGGS,54.9860,-3.1805
PPL,EASTRIGTON,53.8953,-1.4315
PPLA3,EASTRINGTON,53.7604,-0.7933
ADM4,EASTROUNTON,54.4306,-1.3373
PPL,EASTRUDHAM,52.8207,0.7111
PPL,EASTRUNTON,52.9357,1.2729
PPLA4,EASTRUSTON,52.7953,1.4757
PPL,EASTRY,51.2464,1.3078
PPL,EASTSALTOUN,55.8999,-2.8396
PPL,EASTSCRAFTON,54.2574,-1.8685
PPL,EASTSHEEN,51.4629,-0.2684
PPL,EASTSHEFFORD,51.4702,-1.4406
PPL,EASTSOMERTON,52.7177,1.6675
ADM3,EASTSTAFFORDSHIRE,52.8333,-1.9167
PPL,EASTSTOCKWITH,53.4406,-0.8140
PPL,EASTSTOKE,53.0333,-0.8833
PPL,EASTSTOUR,51.0076,-2.2850
PPL,EASTSTOURMOUTH,51.3159,1.2488
PPL,EASTSTRATTON,51.1574,-1.2267
ADMD,EASTSUFFOLK,52.2500,1.3333
ADM2,EASTSUSSEX,50.9167,0.3333
ADM4,EASTSUTTON,51.2055,0.6186
ADM4,EASTTANFIELD,54.2029,-1.5502
PPL,EASTTHEWATER,51.0159,-4.2000
PPL,EASTTHIRSTON,55.2926,-1.6923
PPL,EASTTILBURY,51.4805,0.4171
PPL,EASTTISTED,51.0851,-1.0008
PPL,EASTTUDDENHAM,52.6593,1.0734
ADM4,EASTTYTHERLEY,51.0621,-1.5862
PPL,EASTVILLE,53.0911,0.0917
PPL,EASTWALTON,52.7190,0.5808
PPLX,EASTWALWORTH,51.4890,-0.0847
PPL,EASTWELL,52.8500,-0.8497
PPL,EASTWELLOW,50.9817,-1.5680
PPL,EASTWEMYSS,56.1602,-3.0642
PPL,EASTWHITBURN,55.8685,-3.6629
PPL,EASTWICK,51.7873,0.0810
PPLX,EASTWICKHAM,51.4681,0.0970
PPL,EASTWILLIAMSTON,51.7119,-4.7566
PPL,EASTWINCH,52.7204,0.5124
PPL,EASTWITTERING,50.7697,-0.8744
PPL,EASTWITTON,54.2694,-1.7793
PPL,EASTWOOD,53.0000,-1.3000
PPL,EASTWOODBURN,55.1755,-2.1468
PPL,EASTWOODHAY,51.3500,-1.4167
PPL,EASTWOODLANDS,51.1920,-2.2968
PPL,EASTWORLDHAM,51.1369,-0.9314
PPL,EASTWORLINGTON,50.9104,-3.7452
PPL,EASTWRETHAM,52.4755,0.8209
