name,postcode,lat,lon
Grouse and saltwater crocodile,DG4 6HA,55.430115630155900,-3.889077327145670
massasauga and Stilt,DG4 6HE,55.437200194998200,-3.969813920352930
Chicken and Duck,DG4 6NA,55.386993566860300,-4.000423519716480
gopher snake and flying lizard,DG4 6SG,55.380345664925400,-3.993647463270350
flying dragon and saltwater crocodile,KA18 3NJ,55.530144857530800,-4.122279000000000
mamba and terrapin,KA18 3PH,55.519073321618700,-4.080227703248130
Solitaire and water snake,KA18 3PS,55.517875864000000,-4.081938650519400
anole and Skunk,KA18 3PZ,55.517104906895100,-4.084464056547840
viper and gaboon viper,KA18 3QF,55.515201168565500,-4.085424634342150
Philippine hawk-owl and habu,KA18 3RR,55.523755729976900,-4.065899378591540
sidewinder and Buzzard,KA18 4AB,55.398604995489900,-4.183228305716940
Ibex and Armadillo,KA18 4HY,55.388017041015400,-4.182234099938540
Perching duck and Asiatic leopard,KA18 4LL,55.387288726418500,-4.180236174852910
Tahr and Tattler,KA18 4PP,55.387174552186800,-4.187129527393620
Dolphin and horned toad,ML11 0QR,55.556245737040300,-3.848749388088050
Crow and Chipmunk,ML11 0QZ,55.551855764172200,-3.840679904340180
Mink and snapping turtle,ML11 9NN,55.598715616170800,-3.778323000000000
Darwin's finches and Magpie,ML11 9NQ,55.594790232865300,-3.777096582172560
horned viper and White ibis,ML12 6SZ,55.499204029677900,-3.779674771377240
White ibis and Fulmarine petrel,ML12 6UJ,55.396440160927600,-3.780090668953670
