name,id,postcode,lat,lon
bicycle lizard and American sparrow,209103,TD12 4QT,55.567268449840300,-2.212151935142840
mamba and Dorcopsis,206651,TD8 6RU,55.458439701824400,-2.478539849724650
turtle and Treepie,1760704,TD5 7EZ,55.598439771743400,-2.426938077117520
rock python and boa,206536,TD8 6JE,55.475681891414600,-2.537267580746400
diamondback turtle and taipan,209100,TD12 4QQ,55.585896287126100,-2.171307000000000
Triller and garter snake,206566,TD8 6LU,55.492053208298400,-2.476477000000000
alligator and bushmaster,206687,TD8 6TS,55.539515000000000,-2.512293000000000
Pratincole and agamid,207624,TD5 8QN,55.518149859483200,-2.363178485638990
Jay and amphisbaena,207579,TD5 8LW,55.591491000000000,-2.449250000000000
swift and Fish eagle,206581,TD8 6NQ,55.422877000000000,-2.406129000000000
terrapin and constrictor,207607,TD5 8PL,55.548320721987500,-2.274273477567380
Boto and Hawaiian honeycreeper,208121,TD5 7EU,55.599008498796300,-2.435196191322490
Argus and puff adder,207601,TD5 8PD,55.547216000000000,-2.318690000000000
Cloud rat and wall lizard,206621,TD8 6QR,55.463179237685500,-2.523607163408620
gaboon viper and Francolin,206682,TD8 6TL,55.513349446010600,-2.516371510845110
Peafowl and moloch,207673,TD5 8RD,55.547782064102300,-2.285855298971930
brown snake and New World blackbird,207682,TD5 8RR,55.544115421941400,-2.289933164940260
Bronzewing pigeon and black snake,207907,TD5 8AJ,55.476930000000000,-2.349019000000000
galliwasp and Recurvebill,207608,TD5 8PP,55.536145540002500,-2.253416841780950
Fulmarine petrel and leguaan,728889,NE65 7BT,55.403228361469800,-2.232605000000000
