name,postcode,lat,lon
wall lizard and ringhals,TD1 3PA,55.572055678156300,-2.816370235499800
mountain devil and Viscacha,TD7 4AR,55.545584063319100,-2.838960316328500
Perching duck and water snake,TD7 4AU,55.545273632718100,-2.837051886387270
cayman and River dolphin,TD7 4BE,55.545801003788700,-2.836143872251140
water snake and Partridge,TD7 4ED,55.553417000000000,-2.832897000000000
Meadowlark and wall lizard,TD7 4EH,55.550580940136200,-2.832251024958780
Mockingbird and moloch,TD7 4EN,55.549973815898000,-2.832872000000000
kabaragoya and mud turtle,TD7 4HA,55.548812073839800,-2.837333152922160
Capuchin and Tit-tyrant,TD7 4HR,55.554169526110500,-2.833087784738160
Solitaire and Fish eagle,TD7 4JY,55.549003313582000,-2.839587915935810
Francolin and bushmaster,TD7 4JZ,55.548430000000000,-2.840764000000000
sand lizard and giant tortoise,TD7 4LA,55.549384317763400,-2.840372696280780
hognose snake and taipan,TD7 4LP,55.547928879122400,-2.839026122782240
massasauga and boa,TD7 5AL,55.546295392065400,-2.849182157290130
cobra and Parakeet,TD7 5BP,55.552402191840300,-2.850978260993510
Boto and horned viper,TD7 5BS,55.552427551974800,-2.852500540799480
snapping turtle and python,TD7 5BX,55.552238090365000,-2.850023636463180
Civet and whip snake,TD7 5EE,55.556320743975500,-2.836509981300850
Mole and Kangaroo,TD7 5ES,55.540620495608100,-2.911147034664660
Triller and Grouse,TD7 5HJ,55.524772963901700,-2.921504545660270
Jerboa and asp,TD7 5HN,55.510102853729300,-2.963059780731260
caiman and Meadowlark,TD7 5HP,55.486842896166700,-3.036237864869300
leathery turtle and Old World warbler,TD7 5HQ,55.542355699743000,-2.853629546116550
thorny devil and Magpie,TD7 5JB,55.412769439054900,-3.203265854876920
Myna and dukite,TD7 5JL,55.507501000000000,-2.966068000000000
hawksbill and Armadillo,TD7 5JQ,55.510265810993800,-2.967465779640770
Jackal and Marsh harrier,TD7 5JW,55.508178923545100,-2.989106869484810
Gull and brown snake,TD9 7LJ,55.418062745574400,-2.815638790972960
caiman and Argus,TD9 7LW,55.414267013921100,-2.856914429053350
