name,id,postcode,lat,lon
bicycle lizard and American sparrow,209103,TD12 4QT,55.567268449840300,-2.212151935142840
Marsh harrier and rock snake,726244,NE71 6NP,55.546354216908300,-2.012762482324390
Treepie and Puffleg,726249,NE71 6NW,55.547109095988200,-2.011685026972940
River dolphin and Gila monster,726589,NE71 6AS,55.550711546471900,-2.017281187566280
Cuscus and water snake,726704,NE71 6HL,55.591461331731400,-2.080844580547870
diamondback turtle and taipan,209100,TD12 4QQ,55.585896287126100,-2.171307000000000
Kangaroo and Black cockatoo,727294,NE66 4NZ,55.435561937994000,-2.117347709089540
tree snake and adder,726270,NE71 6QY,55.512677703808800,-2.002047060439640
king snake and Perching duck,726273,NE71 6RB,55.529541261406900,-2.021961000000000
Pratincole and agamid,207624,TD5 8QN,55.518149859483200,-2.363178485638990
terrapin and constrictor,207607,TD5 8PL,55.548320721987500,-2.274273477567380
kabaragoya and tortoise,726234,NE71 6LQ,55.545500378261400,-2.014774890282900
Tit-tyrant and sand lizard,726241,NE71 6NF,55.545518567525900,-2.012873141810800
Wader and Mole,726229,NE71 6LE,55.545814828208300,-2.015076123834540
Argus and puff adder,207601,TD5 8PD,55.547216000000000,-2.318690000000000
gecko and gaboon viper,726579,NE71 6AD,55.551152003176200,-2.016013365456230
Boto and Condor,726260,NE71 6QL,55.531879426279800,-1.995679508756090
cobra and Recurvebill,726227,NE71 6LA,55.546138386082200,-2.014378928508540
Peafowl and moloch,207673,TD5 8RD,55.547782064102300,-2.285855298971930
Stilt and leathery turtle,726252,NE71 6PA,55.544727000000000,-2.023189837836420
brown snake and New World blackbird,207682,TD5 8RR,55.544115421941400,-2.289933164940260
Bronzewing pigeon and black snake,207907,TD5 8AJ,55.476930000000000,-2.349019000000000
galliwasp and Recurvebill,207608,TD5 8PP,55.536145540002500,-2.253416841780950
Fulmarine petrel and leguaan,728889,NE65 7BT,55.403228361469800,-2.232605000000000
